{"type":"FeatureCollection","features":[{"type":"Feature","geometry":{"coordinates":[[[-0.000308,43.46117],[-0.001574,43.458584],[-0.001187,43.457447],[-0.001187,43.456964],[-0.000265,43.456918],[5.7e-05,43.456996],[-0.000308,43.456466],[-0.000908,43.45589],[-0.001338,43.45508],[-0.001402,43.454316],[-0.001209,43.453319],[-0.001681,43.451061],[-0.003505,43.45078],[-0.002797,43.449908],[-0.003505,43.449285],[-0.004449,43.449145],[-0.005028,43.44874],[-0.005307,43.448226],[-0.0052,43.447852],[-0.004814,43.447696],[-0.004706,43.447197],[-0.004964,43.446699],[-0.004535,43.4462],[-0.003891,43.445733],[-0.003097,43.44564],[-0.00241,43.445219],[-0.001359,43.445032],[0.001495,43.445593],[0.000658,43.444876],[-0.000479,43.444082],[-0.000715,43.44363],[-0.000587,43.442695],[-0.000286,43.441589],[-0.000715,43.43986],[-0.001059,43.439454],[-0.00138,43.438894],[-0.00138,43.438566],[-0.001616,43.437756],[-0.001616,43.437133],[-0.001917,43.436775],[-0.00241,43.435263],[-0.003033,43.434593],[-0.003805,43.434235],[-0.004385,43.433689],[-0.004728,43.431524],[-0.0052,43.431601],[-0.005586,43.431056],[-0.006359,43.430542],[-0.007989,43.428547],[-0.008376,43.427846],[-0.009878,43.426911],[-0.011208,43.425851],[-0.011659,43.425415],[-0.015178,43.423701],[-0.016165,43.423108],[-0.012882,43.422454],[-0.012238,43.422532],[-0.011208,43.422828],[-0.010779,43.423108],[-0.010114,43.423732],[-0.009964,43.423701],[-0.01035,43.422953],[-0.00947,43.421456],[-0.009084,43.421488],[-0.007989,43.421924],[-0.00726,43.422017],[-0.006552,43.421301],[-0.006123,43.421129],[-0.00505,43.420038],[-0.004256,43.419415],[-0.00329,43.416983],[-0.002904,43.416578],[-0.00241,43.41477],[-0.002282,43.414474],[-0.001895,43.414256],[-0.001402,43.413726],[-0.000265,43.413242],[0.000572,43.411715],[0.001216,43.411045],[0.001688,43.409876],[0.002418,43.409205],[0.001817,43.408441],[0.001516,43.407943],[0.000765,43.40721],[0.000293,43.406711],[-0.00093,43.405745],[-0.001509,43.4047],[-0.001466,43.403235],[-0.001273,43.401863],[-0.001531,43.401535],[-0.002518,43.401099],[-0.002496,43.400631],[-0.001767,43.399384],[-0.001938,43.398885],[-0.004148,43.398168],[-0.002754,43.397466],[-0.002368,43.39703],[-0.000801,43.396437],[-0.000544,43.396172],[0.000808,43.396016],[0.00186,43.395642],[0.002954,43.395626],[0.004156,43.395455],[0.005207,43.395564],[0.006108,43.395782],[0.008233,43.396001],[0.008962,43.395876],[0.010357,43.396001],[0.013554,43.394987],[0.014327,43.395393],[0.01482,43.395751],[0.018489,43.394504],[0.020463,43.39388],[0.020313,43.393147],[0.021129,43.392243],[0.020442,43.39137],[0.023768,43.392274],[0.023189,43.391027],[0.022824,43.390403],[0.021579,43.38808],[0.020978,43.38716],[0.020893,43.386052],[0.020614,43.385725],[0.020549,43.38546],[0.020335,43.385273],[0.019541,43.38507],[0.019133,43.38454],[0.01909,43.384072],[0.018768,43.383666],[0.018189,43.383604],[0.017631,43.383261],[0.01718,43.383105],[0.016558,43.382653],[0.016043,43.381998],[0.015571,43.381015],[0.015078,43.380547],[0.014799,43.37997],[0.014799,43.379596],[0.014498,43.378972],[0.014477,43.37838],[0.014198,43.377724],[0.01379,43.377069],[0.014777,43.376679],[0.016236,43.376196],[0.016708,43.375853],[0.018318,43.375775],[0.019326,43.375385],[0.019283,43.374995],[0.019069,43.374434],[0.019133,43.373342],[0.018897,43.372655],[0.01821,43.372265],[0.016515,43.370129],[0.016708,43.369661],[0.017245,43.369364],[0.016794,43.369224],[0.01703,43.369099],[0.017867,43.369239],[0.019348,43.369005],[0.020442,43.369115],[0.021687,43.369239],[0.022116,43.369395],[0.02218,43.369739],[0.022545,43.369848],[0.023296,43.369832],[0.024133,43.369536],[0.024583,43.369629],[0.025313,43.369707],[0.02557,43.370175],[0.02615,43.370425],[0.026429,43.370721],[0.026922,43.370893],[0.027266,43.370799],[0.027738,43.371501],[0.027802,43.372063],[0.027738,43.372468],[0.027995,43.372546],[0.028489,43.37239],[0.029175,43.372796],[0.029519,43.372796],[0.029776,43.372063],[0.030613,43.372203],[0.030849,43.372032],[0.030763,43.370144],[0.031471,43.369645],[0.031943,43.368553],[0.031836,43.367633],[0.032287,43.367414],[0.032265,43.364638],[0.032587,43.364607],[0.033703,43.363608],[0.034003,43.363437],[0.034883,43.361767],[0.035012,43.359848],[0.035355,43.358366],[0.035098,43.357602],[0.035355,43.357056],[0.035613,43.356884],[0.035677,43.356026],[0.035269,43.354762],[0.035334,43.353639],[0.035012,43.352859],[0.034368,43.351689],[0.034389,43.351064],[0.033939,43.350362],[0.033252,43.349691],[0.031965,43.348896],[0.031514,43.348131],[0.031064,43.347117],[0.029883,43.346212],[0.029819,43.345697],[0.028918,43.344573],[0.029025,43.344277],[0.02866,43.343621],[0.028338,43.343169],[0.027845,43.342545],[0.027351,43.342154],[0.026793,43.34139],[0.026407,43.341062],[0.025957,43.340547],[0.025399,43.340266],[0.024025,43.338581],[0.021708,43.33727],[0.021708,43.33727],[0.016172,43.33215],[0.016451,43.332026],[0.016,43.331729],[0.01555,43.331152],[0.015078,43.330886],[0.014884,43.330527],[0.01452,43.330277],[0.012825,43.327827],[0.009885,43.325111],[0.009112,43.325142],[0.00658,43.323753],[0.006537,43.323503],[0.005743,43.322192],[0.005658,43.319366],[0.005057,43.318351],[0.00334,43.316837],[0.002675,43.316478],[0.001366,43.315729],[5.7e-05,43.315416],[0.000186,43.315338],[0.000637,43.315338],[0.001194,43.315135],[0.001538,43.314776],[0.002053,43.314714],[0.002482,43.314214],[0.003297,43.313902],[0.00495,43.313902],[0.005701,43.313277],[0.006709,43.312871],[0.006366,43.312544],[0.005465,43.311841],[0.004864,43.311185],[0.004477,43.310967],[0.004048,43.310092],[0.003662,43.309515],[0.002933,43.308952],[0.002589,43.30864],[0.001645,43.308047],[0.001194,43.307469],[0.000379,43.306282],[-9.3e-05,43.305767],[-0.000479,43.305549],[-0.000672,43.305174],[-0.001445,43.305346],[-0.001445,43.30508],[-0.001531,43.304768],[0.002117,43.303206],[0.002096,43.3028],[0.002353,43.302488],[0.004091,43.30216],[0.003963,43.301598],[0.004005,43.301332],[0.003362,43.300427],[0.003448,43.300286],[0.004027,43.300192],[0.004864,43.29988],[0.005872,43.299615],[0.006194,43.298896],[0.005679,43.298272],[0.005529,43.297912],[0.005443,43.297147],[0.005701,43.296991],[0.005958,43.296991],[0.006044,43.296757],[0.0054,43.295211],[0.005572,43.295101],[0.005507,43.294258],[0.005658,43.294211],[0.006022,43.293836],[0.006301,43.293368],[0.006924,43.293087],[0.007825,43.29304],[0.008361,43.292946],[0.008855,43.293008],[0.010078,43.292727],[0.0104,43.29254],[0.009928,43.291056],[0.008962,43.290182],[0.00834,43.289463],[0.007911,43.288932],[0.007503,43.287495],[0.006795,43.285418],[0.006945,43.285121],[0.007267,43.284746],[0.007031,43.284074],[0.005722,43.282856],[0.005529,43.282106],[0.004907,43.281559],[0.004199,43.281794],[0.004585,43.281059],[0.004649,43.280481],[0.005465,43.279747],[0.001602,43.27078],[0.000765,43.271092],[0.000207,43.27078],[-0.000608,43.270092],[-0.000694,43.269733],[-0.000973,43.269186],[-0.001295,43.268436],[-0.001574,43.268186],[-0.002282,43.267264],[-0.003634,43.266155],[-0.004513,43.265811],[-0.005307,43.265296],[-0.006702,43.264421],[-0.008054,43.263483],[-0.009856,43.262421],[-0.011852,43.261405],[-0.01374,43.260811],[-0.015221,43.26042],[-0.016036,43.260014],[-0.017087,43.259373],[-0.018611,43.257858],[-0.019512,43.256842],[-0.020885,43.254826],[-0.022645,43.253201],[-0.023074,43.251997],[-0.023525,43.251153],[-0.025005,43.249872],[-0.025477,43.249137],[-0.025713,43.248418],[-0.02522,43.246027],[-0.024941,43.245761],[-0.024469,43.245527],[-0.024362,43.24537],[-0.023932,43.24523],[-0.023031,43.244886],[-0.02213,43.244636],[-0.021508,43.244229],[-0.021358,43.243635],[-0.021143,43.243948],[-0.020971,43.244464],[-0.020242,43.244636],[-0.019748,43.24462],[-0.019534,43.244448],[-0.019727,43.243932],[-0.019619,43.243635],[-0.019319,43.243276],[-0.018117,43.243588],[-0.017624,43.243948],[-0.017023,43.244135],[-0.016937,43.243917],[-0.017324,43.243792],[-0.01713,43.242916],[-0.015993,43.242275],[-0.015328,43.242197],[-0.014792,43.241931],[-0.014491,43.241681],[-0.014491,43.241509],[-0.014234,43.241369],[-0.014555,43.24065],[-0.014234,43.240462],[-0.014362,43.240243],[-0.01447,43.239712],[-0.01123,43.238102],[-0.00947,43.238305],[-0.00814,43.238289],[-0.00741,43.238055],[-0.006058,43.236632],[-0.005436,43.235741],[-0.004621,43.235554],[-0.00417,43.234928],[-0.00417,43.234928],[-0.001853,43.234444],[-0.000844,43.234444],[-0.000372,43.234006],[0.001345,43.233568],[0.000797,43.232521],[0.000797,43.232521],[0.000603,43.231784],[0.000174,43.231034],[-0.000791,43.231003],[-0.001135,43.230565],[-0.001306,43.230127],[-0.001843,43.229486],[-0.00283,43.22958],[-0.005533,43.228673],[-0.006306,43.228611],[-0.008881,43.228986],[-0.012271,43.229142],[-0.014889,43.229971],[-0.01431,43.231096],[-0.017121,43.230377],[-0.017121,43.230377],[-0.017872,43.230283],[-0.018623,43.230033],[-0.019824,43.229924],[-0.020597,43.230737],[-0.020854,43.230674],[-0.021176,43.230049],[-0.021155,43.229455],[-0.021541,43.229001],[-0.021584,43.228642],[-0.02197,43.228157],[-0.021863,43.226265],[-0.021562,43.225937],[-0.021562,43.225937],[-0.021906,43.224905],[-0.022507,43.22392],[-0.02285,43.223748],[-0.022979,43.222685],[-0.023322,43.222153],[-0.023751,43.221872],[-0.023966,43.221027],[-0.024459,43.220652],[-0.024609,43.220261],[-0.024588,43.219839],[-0.024738,43.219542],[-0.024566,43.21912],[-0.02403,43.218713],[-0.02388,43.218056],[-0.024266,43.2174],[-0.024545,43.217071],[-0.024566,43.216399],[-0.02491,43.215679],[-0.024888,43.215132],[-0.025253,43.214866],[-0.025468,43.213818],[-0.025725,43.213474],[-0.025554,43.21324],[-0.025554,43.21299],[-0.026498,43.21288],[-0.027356,43.21252],[-0.02727,43.212192],[-0.027056,43.211989],[-0.028171,43.211285],[-0.028214,43.21019],[-0.028043,43.20994],[-0.028794,43.209643],[-0.029352,43.20933],[-0.030553,43.209768],[-0.031411,43.209815],[-0.031647,43.209486],[-0.03169,43.208892],[-0.031926,43.208876],[-0.033128,43.209737],[-0.034866,43.210378],[-0.035488,43.210206],[-0.03566,43.210003],[-0.036111,43.209971],[-0.036669,43.209987],[-0.037162,43.209658],[-0.037677,43.209455],[-0.037699,43.208892],[-0.038192,43.208579],[-0.038385,43.208564],[-0.038814,43.208282],[-0.03963,43.207891],[-0.040746,43.208048],[-0.042119,43.206656],[-0.043921,43.205545],[-0.045059,43.204419],[-0.045895,43.202589],[-0.046711,43.201744],[-0.047548,43.201119],[-0.048513,43.200603],[-0.050015,43.199195],[-0.051088,43.197865],[-0.052268,43.196661],[-0.053406,43.195628],[-0.054328,43.19458],[-0.055787,43.192953],[-0.055594,43.192468],[-0.056324,43.190935],[-0.056217,43.190262],[-0.056946,43.189355],[-0.057032,43.18887],[-0.059027,43.186664],[-0.059521,43.186476],[-0.060379,43.185319],[-0.061002,43.185287],[-0.063319,43.18463],[-0.064993,43.181423],[-0.065079,43.17931],[-0.065336,43.178465],[-0.065315,43.177448],[-0.064993,43.17676],[-0.065272,43.175351],[-0.066473,43.170782],[-0.067611,43.166134],[-0.067847,43.165977],[-0.06849,43.165993],[-0.069392,43.163113],[-0.070078,43.163066],[-0.070421,43.160327],[-0.071559,43.159498],[-0.069091,43.155991],[-0.069091,43.155991],[-0.066988,43.153643],[-0.064993,43.15164],[-0.063619,43.150434],[-0.063512,43.149338],[-0.063255,43.149135],[-0.063426,43.148994],[-0.063062,43.147616],[-0.062182,43.145518],[-0.061345,43.140383],[-0.059821,43.131646],[-0.059564,43.131207],[-0.059564,43.130706],[-0.058362,43.128874],[-0.057118,43.128357],[-0.056152,43.128216],[-0.055251,43.12784],[-0.05435,43.128248],[-0.053491,43.127887],[-0.052697,43.127668],[-0.051367,43.126635],[-0.051174,43.126086],[-0.050659,43.125413],[-0.049672,43.124959],[-0.049157,43.124207],[-0.048642,43.124317],[-0.048363,43.12416],[-0.047462,43.124129],[-0.047054,43.123784],[-0.047118,43.123612],[-0.046668,43.123424],[-0.046432,43.123079],[-0.046475,43.122704],[-0.047676,43.121811],[-0.048685,43.121419],[-0.049286,43.120667],[-0.049414,43.12037],[-0.049951,43.119869],[-0.051067,43.119775],[-0.051324,43.119446],[-0.052483,43.119023],[-0.053534,43.118553],[-0.053942,43.117958],[-0.054114,43.117065],[-0.053921,43.116251],[-0.054114,43.115781],[-0.054629,43.115373],[-0.055229,43.115389],[-0.05701,43.114637],[-0.057375,43.11459],[-0.057826,43.114371],[-0.060251,43.114355],[-0.060229,43.114042],[-0.060401,43.113744],[-0.061259,43.113462],[-0.061152,43.112695],[-0.061388,43.111254],[-0.06053,43.110439],[-0.060465,43.110032],[-0.059542,43.108982],[-0.059521,43.108403],[-0.059049,43.107995],[-0.058641,43.107008],[-0.057397,43.105943],[-0.055787,43.104565],[-0.055401,43.103891],[-0.054822,43.102277],[-0.054929,43.101932],[-0.051796,43.099629],[-0.052612,43.09977],[-0.053663,43.099551],[-0.053534,43.099018],[-0.052032,43.099112],[-0.051153,43.098799],[-0.05053,43.098674],[-0.050337,43.098258],[-0.050638,43.098227],[-0.050595,43.098133],[-0.05038,43.098023],[-0.05068,43.097929],[-0.050616,43.097146],[-0.050466,43.096551],[-0.050852,43.095955],[-0.050916,43.095799],[-0.051646,43.095642],[-0.05229,43.095172],[-0.052869,43.094028],[-0.054843,43.092116],[-0.054929,43.091928],[-0.052998,43.088402],[-0.052676,43.088105],[-0.051689,43.087807],[-0.050788,43.087117],[-0.050659,43.086381],[-0.050466,43.086099],[-0.050874,43.085597],[-0.051238,43.084563],[-0.051431,43.084406],[-0.051517,43.084124],[-0.051732,43.083905],[-0.051968,43.083842],[-0.052676,43.082792],[-0.052397,43.082369],[-0.052547,43.081899],[-0.053062,43.081648],[-0.05317,43.081429],[-0.05377,43.081053],[-0.053727,43.080708],[-0.05362,43.080661],[-0.053685,43.080441],[-0.053513,43.079846],[-0.054157,43.079062],[-0.054157,43.078576],[-0.055251,43.077416],[-0.055573,43.077338],[-0.055787,43.077119],[-0.056109,43.077087],[-0.057204,43.076523],[-0.05774,43.07588],[-0.058255,43.075348],[-0.058663,43.075253],[-0.059521,43.074156],[-0.059929,43.073811],[-0.060186,43.073749],[-0.060916,43.07331],[-0.062783,43.072965],[-0.063512,43.072996],[-0.064864,43.072902],[-0.06495,43.07251],[-0.064649,43.072166],[-0.064542,43.071178],[-0.065036,43.070739],[-0.065701,43.070018],[-0.066087,43.07005],[-0.066495,43.070018],[-0.066924,43.07005],[-0.067181,43.069517],[-0.06849,43.06914],[-0.069434,43.069125],[-0.069907,43.069422],[-0.070808,43.069579],[-0.071344,43.06972],[-0.072095,43.069611],[-0.072181,43.069673],[-0.072524,43.069611],[-0.073211,43.069736],[-0.073941,43.069548],[-0.074091,43.069328],[-0.074498,43.06925],[-0.075185,43.069971],[-0.075593,43.070238],[-0.07585,43.069924],[-0.076151,43.069846],[-0.075872,43.069454],[-0.076043,43.069219],[-0.076515,43.068968],[-0.077288,43.06914],[-0.07761,43.069611],[-0.077588,43.069156],[-0.077288,43.068607],[-0.076923,43.068419],[-0.077438,43.068263],[-0.077674,43.068043],[-0.078168,43.067855],[-0.078554,43.067651],[-0.078769,43.067761],[-0.079605,43.067902],[-0.080206,43.067839],[-0.080786,43.068263],[-0.080914,43.068498],[-0.081601,43.068592],[-0.082867,43.06856],[-0.083875,43.068294],[-0.084841,43.0682],[-0.085377,43.067761],[-0.085764,43.06773],[-0.086622,43.067933],[-0.087609,43.068043],[-0.088146,43.068027],[-0.089905,43.068654],[-0.090849,43.069234],[-0.091579,43.069328],[-0.09175,43.068984],[-0.092051,43.06878],[-0.09351,43.06914],[-0.093682,43.068952],[-0.093746,43.068341],[-0.094025,43.067918],[-0.094969,43.066993],[-0.095742,43.066773],[-0.096814,43.06635],[-0.097544,43.065692],[-0.098059,43.065582],[-0.099368,43.064955],[-0.099776,43.065033],[-0.103359,43.063497],[-0.103574,43.063152],[-0.104604,43.062933],[-0.107415,43.061945],[-0.109217,43.061098],[-0.109989,43.060847],[-0.110891,43.060361],[-0.111427,43.06091],[-0.111277,43.061506],[-0.111384,43.061616],[-0.111663,43.061647],[-0.11235,43.061114],[-0.113916,43.060393],[-0.114088,43.060079],[-0.115311,43.059358],[-0.116019,43.05906],[-0.116148,43.058825],[-0.117135,43.05848],[-0.117821,43.058025],[-0.118036,43.057759],[-0.118229,43.057571],[-0.118551,43.057226],[-0.119238,43.056802],[-0.119881,43.056081],[-0.119881,43.05583],[-0.120439,43.05525],[-0.120911,43.054843],[-0.121147,43.054435],[-0.121662,43.054043],[-0.122349,43.053745],[-0.122907,43.053259],[-0.123486,43.053087],[-0.123315,43.053447],[-0.123808,43.053275],[-0.123744,43.05362],[-0.124345,43.053588],[-0.124731,43.053353],[-0.12501,43.052992],[-0.127306,43.052318],[-0.127499,43.052036],[-0.129001,43.051519],[-0.130331,43.05097],[-0.131511,43.050233],[-0.132069,43.049731],[-0.132434,43.049464],[-0.132906,43.049041],[-0.133121,43.049041],[-0.133464,43.048822],[-0.134322,43.048524],[-0.134558,43.048618],[-0.134945,43.04843],[-0.13546,43.047912],[-0.13767,43.046956],[-0.139258,43.046438],[-0.139944,43.046407],[-0.141318,43.046438],[-0.141854,43.046171],[-0.142305,43.045983],[-0.142991,43.045654],[-0.14385,43.045764],[-0.14445,43.045481],[-0.144751,43.045184],[-0.145352,43.044823],[-0.145802,43.044713],[-0.146017,43.044603],[-0.146274,43.044509],[-0.147948,43.043662],[-0.148806,43.043035],[-0.149042,43.042282],[-0.148635,43.042047],[-0.148999,43.041686],[-0.149042,43.04153],[-0.149364,43.0412],[-0.149171,43.04109],[-0.149257,43.040949],[-0.149643,43.040949],[-0.149944,43.040542],[-0.150137,43.040479],[-0.150308,43.040291],[-0.150716,43.040244],[-0.150802,43.040087],[-0.150652,43.039993],[-0.150716,43.039852],[-0.150523,43.039491],[-0.150845,43.039083],[-0.151295,43.038989],[-0.151102,43.038754],[-0.151231,43.038346],[-0.151746,43.038315],[-0.152175,43.038158],[-0.152283,43.038017],[-0.15269,43.037828],[-0.152561,43.037562],[-0.15254,43.036778],[-0.153012,43.036276],[-0.153248,43.035962],[-0.15372,43.035586],[-0.154149,43.034707],[-0.154235,43.03408],[-0.1549,43.03306],[-0.15593,43.032433],[-0.15666,43.032355],[-0.157389,43.032355],[-0.157518,43.031743],[-0.157389,43.031414],[-0.157883,43.030802],[-0.157926,43.030614],[-0.158248,43.030425],[-0.160243,43.030488],[-0.160973,43.030472],[-0.162175,43.030723],[-0.162797,43.030661],[-0.163204,43.030221],[-0.163226,43.0295],[-0.163333,43.029061],[-0.163312,43.028684],[-0.163677,43.027618],[-0.164277,43.027351],[-0.165822,43.027241],[-0.166874,43.027069],[-0.168569,43.026645],[-0.169706,43.026457],[-0.170264,43.026488],[-0.171251,43.02699],[-0.171766,43.027069],[-0.172646,43.026174],[-0.172818,43.025892],[-0.174427,43.025312],[-0.17477,43.025029],[-0.175028,43.024637],[-0.175028,43.024637],[-0.17595,43.024198],[-0.176229,43.024198],[-0.17653,43.024355],[-0.177731,43.024355],[-0.177924,43.024276],[-0.178418,43.024182],[-0.178869,43.024261],[-0.179534,43.023194],[-0.180027,43.022896],[-0.180564,43.022253],[-0.1808,43.021578],[-0.181079,43.021155],[-0.181465,43.020841],[-0.182237,43.020919],[-0.183053,43.0207],[-0.183246,43.02026],[-0.182924,43.01935],[-0.182452,43.018833],[-0.182195,43.017703],[-0.181873,43.017248],[-0.181808,43.016652],[-0.181916,43.016134],[-0.181744,43.015397],[-0.181958,43.014157],[-0.182924,43.012918],[-0.18301,43.0124],[-0.184147,43.011427],[-0.184855,43.010768],[-0.185585,43.010517],[-0.18728,43.010753],[-0.18861,43.010627],[-0.190198,43.010376],[-0.190542,43.010172],[-0.191421,43.010172],[-0.191958,43.010439],[-0.192816,43.010251],[-0.193524,43.009874],[-0.194554,43.009858],[-0.194876,43.009937],[-0.195391,43.009874],[-0.195992,43.00945],[-0.196571,43.009278],[-0.196743,43.008917],[-0.196743,43.008572],[-0.197902,43.00807],[-0.200541,43.008352],[-0.201335,43.00876],[-0.202086,43.009042],[-0.20288,43.009513],[-0.204339,43.010533],[-0.204575,43.010266],[-0.204232,43.009858],[-0.204103,43.009498],[-0.203931,43.009199],[-0.203609,43.00807],[-0.205648,43.006924],[-0.206163,43.006799],[-0.206163,43.006799],[-0.206417,43.006608],[-0.207597,43.00631],[-0.208026,43.006106],[-0.208262,43.005698],[-0.208798,43.005557],[-0.208949,43.00529],[-0.211524,43.003878],[-0.212081,43.003784],[-0.212511,43.00325],[-0.212875,43.003156],[-0.213154,43.002638],[-0.213626,43.002309],[-0.213691,43.001869],[-0.215686,43.000645],[-0.216094,43.000693],[-0.216309,43.000598],[-0.216502,43.000567],[-0.217231,43.000065],[-0.217897,42.999955],[-0.218025,42.999704],[-0.217596,42.999092],[-0.216995,42.998935],[-0.216545,42.998684],[-0.217167,42.997303],[-0.217124,42.996832],[-0.217424,42.996628],[-0.217982,42.995953],[-0.218411,42.995733],[-0.218369,42.996173],[-0.218733,42.997177],[-0.219098,42.997428],[-0.219441,42.996518],[-0.220064,42.995875],[-0.220922,42.994493],[-0.222596,42.993819],[-0.22384,42.993505],[-0.225171,42.993505],[-0.225535,42.993254],[-0.225664,42.992861],[-0.226286,42.992202],[-0.22648,42.991606],[-0.226522,42.991245],[-0.226694,42.991103],[-0.226866,42.990209],[-0.22648,42.989581],[-0.226973,42.98809],[-0.226995,42.987085],[-0.227295,42.98652],[-0.227295,42.985892],[-0.226995,42.984935],[-0.227424,42.984071],[-0.227424,42.98371],[-0.227531,42.982988],[-0.227982,42.982533],[-0.228325,42.982392],[-0.228947,42.982533],[-0.229634,42.982313],[-0.230685,42.982251],[-0.230943,42.982125],[-0.2309,42.981968],[-0.231372,42.981984],[-0.232059,42.982266],[-0.232638,42.982156],[-0.232938,42.982235],[-0.233475,42.982251],[-0.234548,42.982533],[-0.234698,42.98269],[-0.23502,42.982533],[-0.235814,42.982627],[-0.236157,42.982596],[-0.237101,42.982549],[-0.238002,42.982235],[-0.239461,42.982659],[-0.240062,42.982612],[-0.240942,42.982831],[-0.241264,42.982627],[-0.242079,42.981371],[-0.242358,42.981183],[-0.242594,42.980791],[-0.242723,42.980335],[-0.243023,42.980006],[-0.243109,42.97966],[-0.24401,42.979095],[-0.244225,42.978546],[-0.244611,42.97809],[-0.244762,42.976144],[-0.244611,42.975783],[-0.244826,42.975265],[-0.244869,42.974715],[-0.245727,42.973852],[-0.246199,42.973663],[-0.246135,42.973208],[-0.247165,42.972596],[-0.247551,42.972517],[-0.248045,42.972203],[-0.248323,42.971654],[-0.24856,42.97134],[-0.249332,42.971198],[-0.25019,42.970869],[-0.251735,42.970853],[-0.253044,42.97079],[-0.253666,42.970602],[-0.254589,42.969864],[-0.256628,42.969487],[-0.258237,42.969424],[-0.258709,42.969581],[-0.259503,42.970068],[-0.260232,42.970288],[-0.260511,42.970099],[-0.260361,42.969581],[-0.26064,42.969267],[-0.260726,42.968404],[-0.260147,42.967367],[-0.259203,42.966221],[-0.25946,42.964039],[-0.259224,42.963756],[-0.259396,42.962562],[-0.259653,42.962374],[-0.259889,42.961919],[-0.260104,42.961636],[-0.260297,42.961542],[-0.260597,42.961212],[-0.260855,42.961134],[-0.261305,42.960772],[-0.260898,42.960584],[-0.261949,42.960317],[-0.262314,42.96027],[-0.263279,42.95961],[-0.263558,42.9595],[-0.264009,42.958699],[-0.26476,42.958433],[-0.265382,42.957977],[-0.265554,42.957427],[-0.266069,42.956956],[-0.26609,42.956611],[-0.266563,42.956124],[-0.266992,42.955857],[-0.268601,42.955669],[-0.269502,42.955307],[-0.269931,42.955292],[-0.269931,42.955292],[-0.270378,42.954927],[-0.270871,42.954739]]],"type":"MultiLineString"},"properties":{"geo_point":{"lon":-0.06484083638257829,"lat":43.19503509170456},"name":"GR101 De Maubourguet au Col de Saucède (Hautes-Pyrénées) (2019)","code_gr":"GR101"}}]}