{"type":"FeatureCollection","features":[{"type":"Feature","geometry":{"coordinates":[[[0.379938,43.042428],[0.37999,43.041957],[0.379659,43.041027],[0.379206,43.040339],[0.379258,43.039881],[0.379746,43.039371],[0.38074,43.038658],[0.380775,43.037435],[0.381071,43.036467],[0.380897,43.036199],[0.380757,43.035155],[0.380409,43.0349],[0.380583,43.033957],[0.381106,43.033498],[0.382064,43.032861],[0.382657,43.032237],[0.383267,43.031893],[0.383929,43.031804],[0.384888,43.031498],[0.385568,43.031409],[0.386666,43.031791],[0.387206,43.031371],[0.388966,43.030785],[0.388635,43.03067],[0.388095,43.030581],[0.387398,43.030301],[0.386596,43.030364],[0.386021,43.030211],[0.385393,43.029842],[0.384644,43.029218],[0.384435,43.028772],[0.384452,43.028402],[0.384173,43.028186],[0.383058,43.027854],[0.382378,43.027472],[0.380862,43.0263],[0.380687,43.025879],[0.380687,43.025625],[0.380565,43.024669],[0.380914,43.023599],[0.380897,43.022681],[0.380722,43.021356],[0.380565,43.021216],[0.380443,43.02091],[0.380687,43.020617],[0.380618,43.020413],[0.38013,43.020005],[0.379781,43.01947],[0.379206,43.019457],[0.378439,43.019037],[0.379276,43.017571],[0.379241,43.016527],[0.379188,43.016208],[0.379328,43.015673],[0.379171,43.01515],[0.379398,43.014462],[0.380304,43.013608],[0.381158,43.013047],[0.381489,43.012359],[0.381559,43.012002],[0.381995,43.011047],[0.382273,43.010155],[0.382552,43.009645],[0.382622,43.00888],[0.383075,43.007848],[0.38379,43.006917],[0.384243,43.006866],[0.383772,43.006535],[0.383302,43.006446],[0.383302,43.006331],[0.383685,43.006267],[0.383668,43.005987],[0.382883,43.004355],[0.382709,43.003501],[0.38243,43.002877],[0.38243,43.002176],[0.382535,43.001628],[0.382814,43.00136],[0.382779,43.000914],[0.382483,43.000544],[0.382413,43.000073],[0.382221,42.999206],[0.382517,42.998352],[0.382535,42.997663],[0.383005,42.997447],[0.383023,42.997332],[0.382552,42.99709],[0.38243,42.996631],[0.382727,42.99621],[0.383685,42.995751],[0.384748,42.995369],[0.385027,42.995076],[0.385202,42.994732],[0.38508,42.994234],[0.385149,42.993954],[0.384992,42.993877],[0.384801,42.994145],[0.384121,42.994566],[0.383615,42.994719],[0.383197,42.994974],[0.382761,42.995101],[0.381785,42.995088],[0.381228,42.995178],[0.380827,42.995076],[0.380321,42.995343],[0.378875,42.995369],[0.378247,42.995522],[0.377881,42.995751],[0.377411,42.995726],[0.376539,42.995433],[0.376121,42.995484],[0.376051,42.995713],[0.375738,42.995496],[0.375546,42.995178],[0.375389,42.995114],[0.376574,42.994145],[0.376574,42.993316],[0.376452,42.992947],[0.376487,42.992462],[0.376574,42.992233],[0.376016,42.992042],[0.3764,42.990168],[0.376539,42.989849],[0.377027,42.987733],[0.377027,42.987325],[0.377393,42.986955],[0.377759,42.986113],[0.377812,42.985603],[0.377655,42.985042],[0.377602,42.984647],[0.377358,42.984379],[0.37701,42.98364],[0.376592,42.982441],[0.376452,42.98174],[0.376348,42.981192],[0.376452,42.98058],[0.376592,42.980146],[0.376783,42.979292],[0.377306,42.978654],[0.377446,42.978144],[0.377376,42.977749],[0.377428,42.977175],[0.377149,42.976091],[0.377062,42.974803],[0.376836,42.97386],[0.376958,42.973209],[0.377463,42.972304],[0.37809,42.971934],[0.378195,42.97173],[0.378038,42.971539],[0.377672,42.970646],[0.377446,42.969817],[0.377602,42.968924],[0.377707,42.96807],[0.378021,42.96733],[0.378369,42.966769],[0.37884,42.96682],[0.379171,42.966616],[0.379833,42.965596],[0.380653,42.964971],[0.381158,42.964371],[0.381768,42.964052],[0.382273,42.963925],[0.382082,42.963593],[0.381925,42.962892],[0.382221,42.9627],[0.383023,42.962777],[0.383005,42.962445],[0.382395,42.961399],[0.38135,42.959971],[0.381123,42.959346],[0.381141,42.958797],[0.381385,42.958772],[0.381611,42.958058],[0.381838,42.9577],[0.382012,42.957547],[0.382012,42.957012],[0.382239,42.956642],[0.382413,42.956042],[0.382273,42.955634],[0.382343,42.955558],[0.382047,42.954397],[0.381785,42.953937],[0.380914,42.953185],[0.380809,42.952917],[0.380931,42.952458],[0.380897,42.952164],[0.380583,42.952011],[0.379711,42.951807],[0.379555,42.951399],[0.379276,42.951131],[0.37891,42.950455],[0.378439,42.951144],[0.378195,42.95094],[0.377899,42.950812],[0.377812,42.950404],[0.377428,42.950085],[0.377568,42.949562],[0.377376,42.948937],[0.37626,42.948082],[0.375755,42.947597],[0.375633,42.947202],[0.37572,42.946857],[0.375616,42.946334],[0.375354,42.945709],[0.375302,42.945237],[0.375075,42.945237],[0.374901,42.945416],[0.37443,42.945365],[0.374779,42.944357],[0.374866,42.943604],[0.374866,42.943055],[0.374274,42.942022],[0.373524,42.941282],[0.372687,42.941027],[0.372565,42.941039],[0.372443,42.940325],[0.372496,42.940031],[0.372374,42.939687],[0.372827,42.939636],[0.372897,42.939189],[0.373942,42.938768],[0.37328,42.938858],[0.37274,42.938858],[0.372513,42.9385],[0.372478,42.938322],[0.372199,42.938054],[0.371711,42.937173],[0.37152,42.936956],[0.371154,42.93674],[0.370509,42.935961],[0.370352,42.935412],[0.370823,42.933345],[0.370753,42.932567],[0.371049,42.933026],[0.371572,42.931737],[0.371537,42.93152],[0.371764,42.931138],[0.371711,42.930704],[0.371223,42.930487],[0.370823,42.929696],[0.370491,42.928828],[0.370213,42.928279],[0.370195,42.927922],[0.370648,42.927386],[0.371067,42.926697],[0.371293,42.926263],[0.371276,42.925752],[0.37091,42.924017],[0.371659,42.923327],[0.372112,42.922753],[0.37267,42.922294],[0.372914,42.921872],[0.372809,42.921209],[0.372949,42.9208],[0.372722,42.920685],[0.371799,42.920711],[0.370718,42.921158],[0.369899,42.921222],[0.369515,42.921158],[0.368923,42.920468],[0.36847,42.919537],[0.367912,42.918745],[0.368191,42.918235],[0.368487,42.917648],[0.368731,42.917367],[0.369045,42.917175],[0.369219,42.916818],[0.369045,42.916346],[0.368818,42.916295],[0.368086,42.916537],[0.366971,42.91641],[0.366361,42.916422],[0.364688,42.915197],[0.364548,42.914457],[0.364287,42.91415],[0.364322,42.913576],[0.364635,42.91304],[0.365646,42.911763],[0.366256,42.910819],[0.366256,42.910283],[0.366535,42.909721],[0.367354,42.908763],[0.36772,42.908163],[0.367494,42.907819],[0.367563,42.907219],[0.366587,42.907117],[0.366099,42.906849],[0.36596,42.906466],[0.365472,42.906249],[0.364757,42.906134],[0.363921,42.905814],[0.363537,42.905559],[0.362613,42.905278],[0.361759,42.905304],[0.361446,42.905112],[0.359633,42.90524],[0.359773,42.905061],[0.359372,42.904678],[0.359476,42.904551],[0.359337,42.90441],[0.359302,42.90427],[0.359215,42.904168],[0.359319,42.903963],[0.359093,42.903861],[0.358204,42.9039],[0.357367,42.902827],[0.357019,42.902853],[0.35681,42.902636],[0.356426,42.902802],[0.356112,42.902712],[0.355729,42.903006],[0.355328,42.903108],[0.354736,42.903402],[0.355084,42.903836],[0.354805,42.903874],[0.354195,42.90358],[0.353777,42.903223],[0.353516,42.903325],[0.352888,42.903312],[0.352417,42.903453],[0.351807,42.903057],[0.351441,42.902444],[0.351215,42.901844],[0.350727,42.901155],[0.350221,42.900631],[0.35003,42.899674],[0.349786,42.899125],[0.349751,42.898678],[0.349646,42.898461],[0.349821,42.897771],[0.349646,42.897273],[0.349855,42.896877],[0.349873,42.896354],[0.349524,42.895881],[0.348932,42.894758],[0.348339,42.894209],[0.347973,42.893877],[0.348513,42.893213],[0.348914,42.892728],[0.349542,42.892089],[0.349925,42.891272],[0.349908,42.890902],[0.349751,42.89048],[0.349315,42.890736],[0.348879,42.89048],[0.34881,42.890327],[0.348653,42.890187],[0.348845,42.890046],[0.348339,42.889663],[0.347311,42.889229],[0.346683,42.889152],[0.346404,42.889459],[0.345655,42.889561],[0.345028,42.88951],[0.344574,42.889267],[0.344104,42.888999],[0.343285,42.889178],[0.34311,42.889076],[0.343145,42.888922],[0.343302,42.888718],[0.343267,42.888258],[0.343686,42.887696],[0.343912,42.887364],[0.344383,42.887007],[0.344435,42.88656],[0.344906,42.885998],[0.344993,42.886266],[0.345411,42.885691],[0.345585,42.88513],[0.345272,42.884542],[0.345184,42.884121],[0.344836,42.883699],[0.344836,42.883265],[0.344993,42.88292],[0.34576,42.882435],[0.346021,42.882141],[0.346474,42.881464],[0.346701,42.880966],[0.346596,42.880711],[0.346143,42.880379],[0.345794,42.879932],[0.345707,42.8796],[0.345481,42.879306],[0.345481,42.879038],[0.345324,42.878757],[0.345272,42.878591],[0.34494,42.878322],[0.344784,42.878016],[0.344208,42.877594],[0.343738,42.877403],[0.343494,42.876981],[0.343163,42.876981],[0.34311,42.876764],[0.342954,42.876751],[0.342884,42.876522],[0.342692,42.876445],[0.342832,42.876228],[0.3425,42.876177],[0.341402,42.875679],[0.34128,42.875538],[0.340775,42.875551],[0.340025,42.875436],[0.338265,42.874989],[0.337638,42.874657],[0.337324,42.874312],[0.336888,42.874095],[0.337115,42.873878],[0.336975,42.873699],[0.33708,42.872805],[0.33769,42.873175],[0.338056,42.873252],[0.338544,42.872881],[0.338788,42.872422],[0.338579,42.872179],[0.338683,42.870953],[0.338649,42.870173],[0.338492,42.869803],[0.338596,42.868947],[0.338492,42.868526],[0.338317,42.868219],[0.338126,42.866622],[0.33837,42.866124],[0.338387,42.8656],[0.338649,42.865217],[0.33898,42.865064],[0.338422,42.863326],[0.338788,42.861653],[0.339607,42.8598],[0.34006,42.858242],[0.340653,42.857168],[0.34081,42.856504],[0.340513,42.856146],[0.339921,42.856134],[0.339642,42.8563],[0.33959,42.856121],[0.339625,42.85607],[0.339503,42.855904],[0.339677,42.855418],[0.340025,42.854958],[0.34081,42.852952],[0.340827,42.852479],[0.340618,42.851853],[0.340879,42.851738],[0.340879,42.850857],[0.341228,42.850064],[0.341019,42.849183],[0.340879,42.848787],[0.340426,42.847662],[0.338126,42.843892],[0.339119,42.843662],[0.339328,42.843419],[0.339677,42.843381],[0.340147,42.843241],[0.339921,42.842742],[0.339991,42.84255],[0.339537,42.84186],[0.338579,42.841132],[0.338108,42.840634],[0.337795,42.840506],[0.337546,42.840143],[0.337586,42.84001],[0.337106,42.83935],[0.336933,42.839341],[0.336748,42.83916],[0.335799,42.838907],[0.332842,42.83832],[0.332718,42.838392],[0.33262,42.838347],[0.332755,42.837931],[0.33246,42.837913],[0.332164,42.837732],[0.331865,42.837652],[0.330538,42.835419],[0.329474,42.833228],[0.329399,42.832844],[0.329418,42.831515],[0.32925,42.830899],[0.328428,42.829611],[0.327923,42.829734],[0.32712,42.829775],[0.32669,42.829378],[0.326093,42.82857],[0.325682,42.828515],[0.324617,42.827899],[0.321609,42.826487],[0.320918,42.82635],[0.319779,42.826159],[0.318546,42.825583],[0.317892,42.825775],[0.317649,42.825542],[0.316659,42.825474],[0.315819,42.824391],[0.316061,42.824227],[0.315781,42.82383],[0.315931,42.82361],[0.315464,42.823501],[0.314997,42.82346],[0.314959,42.823295],[0.314492,42.823117],[0.314623,42.822418],[0.314455,42.822076],[0.314418,42.821843],[0.314268,42.821925],[0.313969,42.822596],[0.313801,42.822227],[0.313558,42.821774],[0.3141,42.82098],[0.314212,42.8205],[0.314193,42.81976],[0.314025,42.81887],[0.314324,42.818678],[0.315034,42.817869],[0.315034,42.817225],[0.31481,42.817006],[0.314399,42.816307],[0.31367,42.81565],[0.313446,42.814992],[0.313409,42.814115],[0.313446,42.812991],[0.312849,42.812525],[0.312363,42.812005],[0.311915,42.811785],[0.311597,42.811402],[0.311205,42.811306],[0.309598,42.809949],[0.309561,42.809195],[0.30887,42.808565],[0.30872,42.807948],[0.307954,42.8074],[0.30773,42.807085],[0.30702,42.807016],[0.306124,42.806701],[0.305302,42.806167],[0.304723,42.805523],[0.303842,42.805109],[0.303433,42.805031],[0.303142,42.804915],[0.302812,42.804886],[0.301808,42.80446],[0.301266,42.804023],[0.300817,42.803936],[0.300474,42.803587],[0.299285,42.80289],[0.298374,42.802415],[0.297462,42.802124],[0.297145,42.801959],[0.296709,42.801979],[0.296458,42.801824],[0.295534,42.801717],[0.294662,42.801397],[0.293737,42.800922],[0.293156,42.800787],[0.292654,42.800496],[0.292284,42.800118],[0.290452,42.799669],[0.289971,42.799419],[0.28917,42.799169],[0.28839,42.799081],[0.287769,42.798537],[0.287369,42.798508],[0.287308,42.798332],[0.287449,42.7982],[0.288029,42.798067],[0.287749,42.79792],[0.287909,42.797832],[0.288705,42.797976],[0.28923,42.797553],[0.28885,42.797112],[0.28847,42.796907],[0.28857,42.796672],[0.289431,42.796011],[0.290432,42.795908],[0.291253,42.795658],[0.292053,42.795232],[0.293295,42.795379],[0.293875,42.795394],[0.295837,42.795217],[0.296498,42.794351],[0.297599,42.79391],[0.2982,42.793293],[0.2984,42.792896],[0.29846,42.792382],[0.29882,42.791882],[0.299181,42.791721],[0.300042,42.791618],[0.300042,42.791956],[0.299801,42.792411],[0.300144,42.792471],[0.300289,42.792713],[0.300672,42.792635],[0.301042,42.792655],[0.30157,42.793033],[0.30235,42.792655],[0.303182,42.79249],[0.303882,42.792568],[0.304555,42.792364],[0.305137,42.792519],[0.305467,42.792558],[0.305559,42.792626],[0.304674,42.792917],[0.305031,42.79312],[0.305321,42.79313],[0.304925,42.79343],[0.305321,42.793392],[0.306457,42.793072],[0.307091,42.792645],[0.307712,42.791404],[0.308531,42.790891],[0.308716,42.790581],[0.309443,42.789951],[0.310063,42.789185],[0.310156,42.788923],[0.310063,42.788623],[0.309694,42.788206],[0.309244,42.787857],[0.309073,42.787479],[0.309033,42.7868],[0.309231,42.786083],[0.308505,42.785937],[0.308373,42.785676],[0.308254,42.784745],[0.30832,42.784231],[0.308029,42.783591],[0.307607,42.783087],[0.307224,42.782855],[0.307274,42.782583],[0.307724,42.781921],[0.307703,42.78137],[0.307531,42.781008],[0.307424,42.780535],[0.306802,42.780362],[0.306587,42.780047],[0.30618,42.779764],[0.305772,42.778204],[0.306029,42.777511],[0.305901,42.776834],[0.305471,42.776173],[0.305192,42.775448],[0.305192,42.774661],[0.30575,42.773842],[0.305579,42.773432],[0.30515,42.773038],[0.304677,42.77214],[0.304527,42.771447],[0.303862,42.770077],[0.304463,42.769069],[0.304592,42.768533],[0.304184,42.767809],[0.304012,42.767289],[0.303476,42.766486],[0.302467,42.765808],[0.302403,42.765351],[0.302167,42.764768],[0.302188,42.76428],[0.302703,42.764438],[0.302755,42.7646],[0.303208,42.764683],[0.303534,42.764662],[0.303732,42.764797],[0.303973,42.764839],[0.304114,42.764943],[0.304426,42.764911],[0.30495,42.765556],[0.305077,42.765483],[0.305162,42.765504],[0.304454,42.764506],[0.303987,42.763685],[0.303591,42.763113],[0.303548,42.7625],[0.303746,42.762136],[0.304511,42.761575],[0.30519,42.76066],[0.305516,42.76012],[0.305728,42.759559],[0.305247,42.758176],[0.305105,42.757501],[0.30512,42.756908],[0.305021,42.756403],[0.305085,42.755836],[0.30472,42.754607],[0.304785,42.753961],[0.305686,42.751991],[0.305214,42.751787],[0.305493,42.751377],[0.306351,42.750825],[0.306995,42.749927],[0.30751,42.74947],[0.307467,42.749139],[0.307124,42.748462],[0.306952,42.747973],[0.306888,42.747312],[0.306845,42.745531],[0.307016,42.744901],[0.307038,42.74416],[0.307295,42.743356],[0.30736,42.7423],[0.307724,42.741292],[0.307682,42.740141],[0.307724,42.739448],[0.30751,42.738912],[0.307574,42.738629],[0.307381,42.738329],[0.307424,42.737951],[0.30736,42.737525],[0.30736,42.736785],[0.307299,42.736264],[0.307309,42.735889],[0.307439,42.735352],[0.307309,42.734896],[0.307429,42.734566],[0.307649,42.734132],[0.30769,42.733816],[0.307144,42.733059],[0.306932,42.733022],[0.306705,42.733085],[0.306592,42.733043],[0.306514,42.732892],[0.306365,42.732819],[0.306139,42.732585],[0.305813,42.732372],[0.305318,42.731884],[0.305063,42.731509],[0.304865,42.731197],[0.304674,42.731052],[0.304589,42.730677],[0.304426,42.730547],[0.304376,42.730241],[0.304185,42.729882],[0.304001,42.729487],[0.303923,42.729216],[0.303881,42.728977],[0.30347,42.728577],[0.303074,42.728353],[0.302571,42.727729],[0.302493,42.727584],[0.302444,42.727391],[0.302274,42.727142],[0.302062,42.726908],[0.301934,42.726752],[0.301361,42.726554],[0.301134,42.726341],[0.300929,42.726086],[0.300928,42.725812],[0.300791,42.72559],[0.300594,42.724876],[0.300313,42.72457],[0.300162,42.724324],[0.299469,42.723828],[0.298997,42.722956],[0.298249,42.722454],[0.297924,42.722131],[0.297989,42.721534],[0.297696,42.721295],[0.297696,42.720913],[0.297452,42.720339],[0.297387,42.718989],[0.297225,42.717902],[0.297517,42.717281],[0.297501,42.717042],[0.297257,42.716707],[0.297127,42.715751],[0.296785,42.71476],[0.296737,42.714234],[0.296558,42.713971],[0.296119,42.713732],[0.295956,42.713397],[0.29633,42.712513],[0.296525,42.711641],[0.296558,42.710518],[0.296428,42.710112],[0.29594,42.709705],[0.295533,42.708952],[0.29433,42.707973],[0.293793,42.707196],[0.293013,42.706861],[0.292769,42.706431],[0.29272,42.705738],[0.292655,42.705391],[0.292785,42.704615],[0.29311,42.704149],[0.293322,42.703647],[0.293401,42.703269],[0.293326,42.703135],[0.29353,42.703072],[0.29353,42.702623],[0.293434,42.702166],[0.293444,42.701692],[0.293198,42.701795],[0.293241,42.701385],[0.293015,42.701543],[0.293005,42.701282],[0.292747,42.701511],[0.292672,42.701385],[0.292575,42.70144],[0.292393,42.701109],[0.292511,42.70047],[0.291942,42.700817],[0.291417,42.701298],[0.291427,42.700975],[0.29147,42.700746],[0.291406,42.700502],[0.291642,42.700084],[0.291953,42.699926],[0.292082,42.69872],[0.292322,42.698215],[0.2922,42.69794],[0.292484,42.697671],[0.292509,42.697301],[0.292809,42.697008],[0.292606,42.696512],[0.292614,42.696034],[0.292557,42.695711],[0.2922,42.696016],[0.291793,42.696273],[0.291793,42.695771],[0.291866,42.695484],[0.291484,42.694761],[0.291435,42.694552],[0.291468,42.694396],[0.291362,42.694163],[0.29137,42.693972],[0.291232,42.693865],[0.291338,42.693512],[0.291338,42.693088],[0.291069,42.692801],[0.290923,42.692867],[0.290785,42.692687],[0.290655,42.69289],[0.29046,42.692484],[0.289964,42.692102],[0.289752,42.692018],[0.289508,42.691791],[0.289037,42.691653],[0.288858,42.691546],[0.288711,42.69139],[0.288394,42.691319],[0.288077,42.691229],[0.287825,42.6909],[0.287809,42.690781],[0.287939,42.690572],[0.287947,42.690111],[0.28785,42.689974],[0.287906,42.689711],[0.287663,42.689436],[0.287695,42.689358],[0.288134,42.689078],[0.288346,42.688874],[0.288533,42.688629],[0.28911,42.688283],[0.289297,42.688295],[0.28976,42.688474],[0.29076,42.688283],[0.291305,42.688283],[0.291346,42.688229],[0.290671,42.688038],[0.290817,42.68793],[0.29111,42.687876],[0.290785,42.687733],[0.290443,42.687781],[0.290118,42.687715],[0.29037,42.687547],[0.290801,42.68741],[0.290216,42.687171],[0.289842,42.687105],[0.290321,42.686944],[0.290573,42.686717],[0.290785,42.686675],[0.291143,42.686771],[0.290947,42.686382],[0.290346,42.685623],[0.290126,42.685545],[0.289947,42.685575],[0.290277,42.685305],[0.290323,42.684933],[0.289996,42.684762],[0.289687,42.684726],[0.28937,42.684469],[0.289281,42.684194],[0.288996,42.683943],[0.288915,42.68377],[0.288565,42.683411],[0.288451,42.683166],[0.288232,42.683023],[0.288118,42.682814],[0.28728,42.682204],[0.287102,42.681606],[0.286882,42.681373],[0.286524,42.681122],[0.286305,42.680829],[0.28615,42.680512],[0.285963,42.680554],[0.2855,42.680423],[0.285695,42.680154],[0.285296,42.68019],[0.285605,42.679837],[0.28563,42.679472]]],"type":"MultiLineString"},"properties":{"geo_point":{"lon":0.3375924339813829,"lat":42.86025408343966},"name":"GR105 De Lortet au Port d'Ourdissétou (Hautes-Pyrénées) (2020)","code_gr":"GR105"}}]}