{"type":"FeatureCollection","features":[{"type":"Feature","geometry":{"coordinates":[[[2.471763,48.403082],[2.471884,48.400725],[2.473415,48.399764],[2.473789,48.399688],[2.474433,48.399047],[2.474648,48.398292],[2.474648,48.397366],[2.474648,48.397366],[2.476171,48.397095],[2.476901,48.396796],[2.478811,48.39654],[2.479433,48.396212],[2.479368,48.395756],[2.480248,48.395386],[2.481385,48.395215],[2.482373,48.394445],[2.483724,48.393006],[2.484175,48.392009],[2.484347,48.39084],[2.484733,48.390427],[2.479047,48.387563],[2.478596,48.387107],[2.478639,48.38648],[2.475399,48.384699],[2.474583,48.385326],[2.474262,48.385383],[2.473232,48.384385],[2.472523,48.383673],[2.472051,48.382946],[2.468747,48.383758],[2.468275,48.383772],[2.467545,48.383587],[2.466708,48.383587],[2.465957,48.383416],[2.464691,48.38363],[2.464026,48.383644],[2.461559,48.382775],[2.459477,48.381621],[2.457138,48.379782],[2.455679,48.379112],[2.454199,48.378001],[2.453877,48.37753],[2.453727,48.376818],[2.452482,48.376176],[2.451581,48.37505],[2.451581,48.37505],[2.451538,48.374822],[2.447332,48.372656],[2.446903,48.370261],[2.446882,48.367952],[2.447053,48.366312],[2.444071,48.359269],[2.444156,48.357658],[2.44392,48.356974],[2.443277,48.356689],[2.441453,48.356646],[2.441024,48.356589],[2.438749,48.356503],[2.437054,48.355862],[2.436625,48.355591],[2.43699,48.355191],[2.434844,48.354265],[2.430681,48.349231],[2.427891,48.348703],[2.428557,48.348047],[2.4292,48.346678],[2.424523,48.345537],[2.422398,48.345523],[2.421647,48.345452],[2.420489,48.345266],[2.41948,48.34538],[2.41845,48.345566],[2.417206,48.34538],[2.415532,48.345437],[2.413815,48.345295],[2.41345,48.34501],[2.412699,48.345109],[2.412356,48.344682],[2.411004,48.34451],[2.40961,48.344197],[2.409009,48.343698],[2.407829,48.343469],[2.40667,48.34307],[2.406198,48.342785],[2.403687,48.341572],[2.402529,48.340688],[2.402099,48.340503],[2.401456,48.340018],[2.399997,48.339404],[2.399052,48.339761],[2.398001,48.339647],[2.395469,48.339262],[2.393945,48.339704],[2.392744,48.340346],[2.392014,48.340531],[2.391993,48.337151],[2.392958,48.336295],[2.392207,48.335853],[2.392014,48.335382],[2.390705,48.334498],[2.389289,48.333913],[2.386178,48.335339],[2.384547,48.336823],[2.382659,48.33795],[2.382058,48.338106],[2.3812,48.338049],[2.380234,48.338235],[2.379097,48.338292],[2.378002,48.338634],[2.377809,48.338862],[2.378174,48.339148],[2.378217,48.33939],[2.379225,48.3419],[2.379869,48.342785],[2.380427,48.343398],[2.380534,48.344011],[2.379612,48.344739],[2.37929,48.343826],[2.377316,48.344297],[2.376007,48.344382],[2.375578,48.344667],[2.374612,48.345124],[2.373346,48.345808],[2.372423,48.346165],[2.371179,48.346479],[2.366565,48.346179],[2.364033,48.345851],[2.359849,48.345238],[2.357832,48.345067],[2.354764,48.345067],[2.353541,48.345124],[2.352253,48.345252],[2.348841,48.344995],[2.346181,48.345309],[2.345859,48.345623],[2.344314,48.345694],[2.343112,48.34548],[2.341954,48.345195],[2.340173,48.344596],[2.337662,48.344339],[2.334636,48.344211],[2.330838,48.344125],[2.32807,48.343826],[2.325946,48.343427],[2.324466,48.343213],[2.323843,48.342927],[2.323114,48.342514],[2.322127,48.342243],[2.320753,48.3422],[2.320002,48.343312],[2.319187,48.344168],[2.318543,48.344553],[2.315153,48.344068],[2.314574,48.344097],[2.313286,48.344739],[2.312814,48.345723],[2.311999,48.345637],[2.310668,48.345052],[2.31069,48.344639],[2.310239,48.344468],[2.310003,48.344282],[2.308415,48.344054],[2.305733,48.343427],[2.30466,48.344625],[2.303458,48.344995],[2.303115,48.345224],[2.3026,48.345937],[2.30275,48.347648],[2.302772,48.349231],[2.302471,48.349687],[2.301763,48.350486],[2.301484,48.350956],[2.301441,48.351783],[2.302042,48.352796],[2.302879,48.355505],[2.30318,48.356232],[2.303137,48.356432],[2.303823,48.35753],[2.304167,48.357701],[2.304639,48.358528],[2.305948,48.359968],[2.306141,48.361394],[2.306827,48.362463],[2.307042,48.363661],[2.306634,48.363974],[2.306484,48.364473],[2.306269,48.364858],[2.306463,48.365699],[2.307492,48.366569],[2.308844,48.367053],[2.309381,48.367424],[2.309552,48.367838],[2.309123,48.369206],[2.308544,48.369748],[2.308308,48.371244],[2.307814,48.372356],[2.307428,48.373867],[2.307514,48.375022],[2.30702,48.375749],[2.305218,48.37696],[2.305132,48.377616],[2.305282,48.378129],[2.305003,48.379369],[2.304403,48.381321],[2.304724,48.383031],[2.305475,48.383715],[2.305797,48.384414],[2.305454,48.385226],[2.304767,48.38591],[2.30444,48.385936],[2.30444,48.386115],[2.304086,48.38667],[2.304015,48.387055],[2.304511,48.387537],[2.305155,48.387893],[2.305562,48.388705],[2.30552,48.389005],[2.304683,48.390558],[2.304447,48.390871],[2.304254,48.391299],[2.304447,48.391755],[2.305005,48.392111],[2.305627,48.392268],[2.30655,48.392125],[2.306421,48.391683],[2.30803,48.391413],[2.308288,48.392453],[2.308095,48.393037],[2.307987,48.393806],[2.307751,48.393977],[2.307472,48.393992],[2.306807,48.393579],[2.306185,48.393436],[2.305648,48.393507],[2.30509,48.393678],[2.303653,48.394676],[2.302172,48.394775],[2.300906,48.395018],[2.300498,48.394946],[2.298439,48.394248],[2.296958,48.393949],[2.295563,48.393863],[2.294426,48.394163],[2.293289,48.39345],[2.290993,48.390914],[2.289253,48.391524],[2.282666,48.39379],[2.281421,48.394103],[2.27949,48.394573],[2.276615,48.395599],[2.272366,48.397081],[2.26844,48.398449],[2.267388,48.399076],[2.264405,48.401355],[2.264255,48.401683],[2.26462,48.402224],[2.264599,48.402495],[2.264384,48.402666],[2.263783,48.402822],[2.263247,48.402851],[2.262646,48.403064],[2.262667,48.403549],[2.262496,48.403791],[2.262839,48.404418],[2.262839,48.404646],[2.261723,48.404133],[2.261058,48.404104],[2.259513,48.404589],[2.257161,48.404923],[2.25585,48.405381],[2.255091,48.40561],[2.253677,48.40627],[2.253054,48.406213],[2.250544,48.402723],[2.250286,48.40221],[2.248849,48.401754],[2.246939,48.401369],[2.244149,48.400942],[2.241789,48.400215],[2.239751,48.399802],[2.23827,48.399645],[2.235609,48.399731],[2.235373,48.399446],[2.235802,48.397907],[2.236081,48.397523],[2.235523,48.397337],[2.235073,48.397081],[2.234064,48.396882],[2.231854,48.396169],[2.230738,48.396041],[2.229687,48.3953],[2.227198,48.392878],[2.226104,48.391881],[2.225009,48.391282],[2.224838,48.390798],[2.224494,48.390256],[2.224215,48.389415],[2.22267,48.391738],[2.22222,48.391881],[2.221276,48.39255],[2.220718,48.392807],[2.220138,48.393248],[2.218958,48.392223],[2.218658,48.392379],[2.217971,48.391895],[2.217113,48.390997],[2.215461,48.389786],[2.215203,48.389814],[2.214087,48.390484],[2.212456,48.38943],[2.210332,48.388418],[2.202564,48.390855],[2.201835,48.389886],[2.201813,48.389601],[2.201642,48.389316],[2.199239,48.390014],[2.198251,48.390156],[2.196728,48.390798],[2.19632,48.391567],[2.194711,48.392835],[2.193252,48.39332],[2.190934,48.394388],[2.187866,48.395585],[2.186815,48.397337],[2.186321,48.39956],[2.185506,48.401312],[2.181965,48.402167],[2.175421,48.403164],[2.174262,48.403535],[2.172202,48.404489],[2.171043,48.405144],[2.170013,48.405515],[2.168897,48.405828],[2.167138,48.406042],[2.164756,48.406583],[2.162954,48.406554],[2.162117,48.406811],[2.160808,48.407366],[2.159241,48.408349],[2.157782,48.408563],[2.155958,48.40805],[2.154349,48.408022],[2.152804,48.40805],[2.150337,48.408549],[2.150229,48.408335],[2.149307,48.40842],[2.148169,48.408663],[2.147697,48.407808],[2.147762,48.405871],[2.147268,48.405059],[2.147118,48.404119],[2.147011,48.403791],[2.146496,48.403705],[2.145873,48.403278],[2.145315,48.403549],[2.144972,48.403292],[2.144586,48.40295],[2.142891,48.402694],[2.141732,48.402195],[2.141024,48.401811],[2.141174,48.401469],[2.140809,48.401298],[2.140917,48.400586],[2.141217,48.399788],[2.140766,48.399161],[2.139972,48.398691],[2.139629,48.398178],[2.139114,48.397907],[2.138578,48.397252],[2.137698,48.396768],[2.136625,48.396041],[2.136582,48.395756],[2.134136,48.395286],[2.132784,48.39436],[2.13184,48.394075],[2.131432,48.393818],[2.12727,48.392807],[2.126154,48.389344],[2.127055,48.389415],[2.12905,48.389971],[2.129308,48.388917],[2.130424,48.388418],[2.131647,48.387549],[2.132441,48.386794],[2.132784,48.385283],[2.133471,48.384528],[2.135445,48.383302],[2.136556,48.382832],[2.136882,48.382238],[2.137174,48.382357],[2.137402,48.382346],[2.138394,48.383005],[2.138882,48.383437],[2.139822,48.383616],[2.140345,48.382908],[2.140702,48.382419],[2.140445,48.382205],[2.142075,48.380523],[2.145058,48.377715],[2.145423,48.377915],[2.147332,48.378186],[2.147933,48.377601],[2.149028,48.377473],[2.149822,48.377544],[2.150594,48.37743],[2.151388,48.376875],[2.153105,48.376746],[2.153491,48.376148],[2.153877,48.376091],[2.1548,48.375449],[2.154285,48.374452],[2.154328,48.374352],[2.153684,48.373126],[2.153362,48.372157],[2.152826,48.371145],[2.151946,48.369904],[2.151002,48.369149],[2.150551,48.368493],[2.150036,48.368123],[2.149457,48.368265],[2.147011,48.365443],[2.146646,48.364459],[2.147504,48.362377],[2.144123,48.361757],[2.14259,48.361536],[2.142049,48.362186],[2.141422,48.362614],[2.140986,48.362533],[2.141648,48.362163],[2.141875,48.361827],[2.141962,48.361317],[2.141352,48.360495],[2.140986,48.359221],[2.140509,48.358457],[2.140123,48.357715],[2.140015,48.356917],[2.140037,48.35609],[2.136925,48.357772],[2.135166,48.358243],[2.133299,48.359055],[2.132411,48.359221],[2.131662,48.359244],[2.130651,48.359163],[2.129909,48.359298],[2.128085,48.358713],[2.127763,48.358728],[2.127591,48.359027],[2.128106,48.359526],[2.127012,48.360353],[2.126411,48.361094],[2.125832,48.360809],[2.124063,48.359441],[2.123226,48.360321],[2.122703,48.360217],[2.122058,48.360217],[2.121169,48.359986],[2.121866,48.358735],[2.121079,48.358107],[2.120285,48.357979],[2.118633,48.356895],[2.118075,48.356239],[2.116637,48.355755],[2.115607,48.355669],[2.113247,48.355142],[2.111809,48.354942],[2.109406,48.353873],[2.108119,48.353488],[2.106016,48.352546],[2.103655,48.351962],[2.10402,48.351577],[2.105372,48.350949],[2.108269,48.350094],[2.10932,48.34958],[2.109964,48.349381],[2.109792,48.349124],[2.109706,48.348668],[2.109513,48.348397],[2.10947,48.34814],[2.109256,48.347883],[2.10829,48.347455],[2.107239,48.347013],[2.106745,48.3466],[2.106445,48.346186],[2.105608,48.34563],[2.10535,48.345259],[2.105372,48.344746],[2.104728,48.343633],[2.104235,48.343191],[2.104106,48.342635],[2.104213,48.342321],[2.104428,48.34195],[2.104299,48.341109],[2.10372,48.340339],[2.103398,48.338713],[2.103055,48.337914],[2.103076,48.337244],[2.103269,48.336545],[2.103097,48.335974],[2.102475,48.33566],[2.102346,48.334576],[2.102411,48.334234],[2.102261,48.33382],[2.101467,48.333364],[2.098699,48.33285],[2.09651,48.332208],[2.095459,48.331538],[2.09475,48.33061],[2.094193,48.330225],[2.093313,48.328428],[2.092905,48.328057],[2.092819,48.327771],[2.092712,48.324162],[2.092497,48.323306],[2.092068,48.323292],[2.089858,48.324076],[2.089021,48.323748],[2.086382,48.323277],[2.085459,48.321793],[2.085223,48.319981],[2.085438,48.318597],[2.087734,48.318911],[2.087927,48.319553],[2.088506,48.319896],[2.088699,48.31971],[2.088592,48.319468],[2.089536,48.31951],[2.089601,48.319239],[2.089837,48.319125],[2.090008,48.318654],[2.093527,48.31737],[2.094772,48.317085],[2.094407,48.316642],[2.094429,48.315572],[2.094193,48.31523],[2.0943,48.314031],[2.094643,48.313303],[2.094922,48.312418],[2.0943,48.310791],[2.093656,48.309764],[2.093613,48.309421],[2.093184,48.308751],[2.093377,48.308251],[2.091961,48.307295],[2.09166,48.306867],[2.09121,48.306795],[2.091253,48.305796],[2.091575,48.305582],[2.093291,48.30524],[2.095072,48.305154],[2.09769,48.304869],[2.098291,48.304754],[2.099214,48.304783],[2.099321,48.304298],[2.099707,48.303984],[2.099729,48.303455],[2.098377,48.301785],[2.095909,48.300544],[2.093871,48.29983],[2.09312,48.299473],[2.092669,48.299387],[2.092068,48.298488],[2.091682,48.297061],[2.092047,48.296861],[2.09254,48.296961],[2.093077,48.296161],[2.094085,48.295091],[2.092755,48.294834],[2.091146,48.294934],[2.086639,48.29452],[2.085052,48.29412],[2.08297,48.293834],[2.080545,48.293792],[2.079279,48.293734],[2.077284,48.293806],[2.072306,48.291707],[2.069795,48.289951],[2.068636,48.289166],[2.067993,48.288966],[2.068422,48.288481],[2.068529,48.287924],[2.068272,48.287381],[2.067671,48.286653],[2.067456,48.286396],[2.063487,48.288195],[2.062435,48.288995],[2.062135,48.289694],[2.055097,48.293934],[2.054045,48.292878],[2.053294,48.292264],[2.052951,48.292078],[2.052672,48.291821],[2.052124,48.291585],[2.051881,48.291373],[2.050293,48.291684],[2.048855,48.291958],[2.048425,48.291933],[2.047155,48.291734],[2.046146,48.291709],[2.044969,48.291746],[2.041906,48.292032],[2.039627,48.292132],[2.039216,48.292256],[2.036993,48.293126],[2.037721,48.294058],[2.038263,48.29448],[2.038879,48.294915],[2.031407,48.295388],[2.030044,48.295313],[2.028339,48.294748],[2.02615,48.294291],[2.024734,48.294163],[2.021794,48.293706],[2.020528,48.293777],[2.020056,48.29559],[2.020571,48.296475],[2.021451,48.297375],[2.019305,48.301514],[2.019219,48.301942],[2.017202,48.305054],[2.010014,48.306567],[2.005508,48.307395],[2.003577,48.30798],[2.002096,48.308265],[2.004285,48.311719],[2.003362,48.312047],[2.003384,48.312276],[2.002203,48.31239],[2.000015,48.312276],[1.998835,48.312361],[1.997697,48.314117],[1.996474,48.318012],[1.996732,48.318226],[1.996496,48.31844],[1.995938,48.318483],[1.995401,48.318683],[1.990359,48.319168],[1.990166,48.319097],[1.989908,48.319168],[1.989007,48.32215],[1.988535,48.322764],[1.991796,48.323306],[1.985316,48.330254],[1.986582,48.330939],[1.991997,48.332341],[1.988568,48.343395],[1.99048,48.344544],[1.993969,48.346239],[1.99579,48.346118],[1.996276,48.346864],[1.996281,48.347655],[1.991968,48.348254],[1.992311,48.34948],[1.992826,48.349352],[1.993299,48.350008],[1.993642,48.351691],[1.992483,48.351648],[1.99048,48.361585],[1.991481,48.361605],[1.991663,48.364589],[1.994819,48.365093],[1.995487,48.365307],[1.99553,48.365877],[1.995788,48.366583],[1.997762,48.366626],[1.998599,48.366569],[2.000058,48.366783],[2.001066,48.367709],[2.001624,48.369006],[2.002203,48.37009],[2.002697,48.370446],[2.002804,48.370803],[2.003276,48.371059],[2.003233,48.371344],[2.003233,48.371344],[2.005293,48.372199],[2.006216,48.372542],[2.008362,48.373896],[2.009971,48.375036],[2.012095,48.376133],[2.013104,48.376661],[2.01349,48.376675],[2.014563,48.376091],[2.014649,48.377245],[2.018168,48.379711],[2.019305,48.381221],[2.019842,48.381578],[2.021623,48.381792],[2.022738,48.382276],[2.02394,48.382119],[2.02394,48.382119],[2.024337,48.382276],[2.02526,48.383174],[2.025796,48.384556],[2.025539,48.385126],[2.025667,48.385882],[2.026139,48.386466],[2.026225,48.38695],[2.026054,48.387478],[2.027105,48.388532],[2.028285,48.38923],[2.030452,48.390527],[2.030774,48.391168],[2.031075,48.391681],[2.030646,48.391681],[2.029508,48.39208],[2.029079,48.392864],[2.029423,48.393476],[2.030646,48.394246],[2.031268,48.394702],[2.032534,48.395386],[2.033221,48.396383],[2.033435,48.396953],[2.033371,48.397537],[2.033607,48.39852],[2.033414,48.39909],[2.033457,48.399389],[2.033092,48.399631],[2.033178,48.399945],[2.033585,48.400457],[2.0338,48.40117],[2.034165,48.401355],[2.034465,48.401768],[2.035216,48.402195],[2.035581,48.402195],[2.036439,48.402352],[2.036825,48.402765],[2.038478,48.403563],[2.039572,48.404375],[2.040387,48.404916],[2.041503,48.405828],[2.04337,48.406483],[2.044035,48.40664],[2.04513,48.407352],[2.046589,48.407922],[2.046589,48.407922],[2.047683,48.408235],[2.048005,48.408178],[2.048928,48.407779],[2.049915,48.407979],[2.05088,48.407993],[2.051481,48.408235],[2.052468,48.408848],[2.054034,48.409318],[2.055343,48.409603],[2.056009,48.40946],[2.057103,48.40872],[2.057575,48.40862],[2.057575,48.408876],[2.058283,48.409617],[2.058777,48.410828],[2.058991,48.411981],[2.058519,48.41342],[2.057253,48.413719],[2.056438,48.413933],[2.055944,48.413904],[2.055172,48.413961],[2.054549,48.414303],[2.054056,48.414175],[2.05382,48.414986],[2.05249,48.416439],[2.051266,48.417593],[2.052189,48.418077],[2.052039,48.418219],[2.052168,48.418661],[2.048155,48.41755],[2.049164,48.419359],[2.05088,48.420355],[2.051524,48.42084],[2.052468,48.421438],[2.05264,48.422093],[2.052468,48.423218],[2.054356,48.422349],[2.055901,48.421523],[2.057682,48.421238],[2.058154,48.420996],[2.058605,48.421395],[2.058626,48.42299],[2.059184,48.424101],[2.058283,48.426194],[2.058111,48.42739],[2.057532,48.427774],[2.057103,48.429341],[2.056867,48.429924],[2.056953,48.431747],[2.05691,48.433085],[2.057039,48.433868],[2.055022,48.435349],[2.055107,48.440103],[2.055043,48.440815],[2.05515,48.4411],[2.055901,48.441755],[2.057854,48.442822],[2.058154,48.443349],[2.056416,48.445299],[2.05633,48.445868],[2.05603,48.446381],[2.053026,48.447676],[2.051481,48.447946],[2.050043,48.448003],[2.046717,48.447548],[2.043327,48.447078],[2.041782,48.446736],[2.040581,48.446224],[2.038907,48.445399],[2.037748,48.444957],[2.034637,48.444374],[2.03292,48.443762],[2.02983,48.442466],[2.028307,48.441897],[2.026225,48.441513],[2.023629,48.441086],[2.013737,48.438566],[2.013673,48.438395],[2.011591,48.437698],[2.00878,48.436559],[2.007493,48.435648],[2.0079,48.437057],[2.008265,48.437427],[2.004403,48.437285],[2.003695,48.437413],[2.001656,48.437555],[2.001828,48.43858],[2.002279,48.440118],[1.999961,48.441968],[2.000455,48.442096],[2.001227,48.44278],[2.001485,48.443449],[2.002386,48.443947],[2.003137,48.444858],[2.003459,48.445712],[2.002708,48.446253],[2.001034,48.447292],[1.997858,48.449996],[1.996228,48.452102],[1.992193,48.454835],[1.990262,48.457225],[1.987044,48.45926],[1.98552,48.460043],[1.984984,48.460484],[1.98301,48.463671],[1.98449,48.463842],[1.986035,48.464212],[1.986722,48.464326],[1.987709,48.464653],[1.988889,48.465492],[1.989876,48.46673],[1.990713,48.467513],[1.992751,48.469049],[1.993653,48.469533],[1.992129,48.469519],[1.992215,48.469704],[1.993438,48.470572],[1.994575,48.471738],[1.995112,48.472122],[1.996742,48.472677],[1.996485,48.473303],[1.995562,48.474583],[1.994575,48.475337],[1.993288,48.475892],[1.992859,48.476148],[1.991636,48.476518],[1.991636,48.476518],[1.990919,48.477046],[1.989996,48.477416],[1.991069,48.479933],[1.992249,48.482323],[1.992099,48.482863],[1.991133,48.483873],[1.991155,48.484158],[1.99152,48.484655],[1.98946,48.486476],[1.994974,48.489832],[1.994652,48.490145],[1.994245,48.490629],[1.994824,48.491084],[1.990554,48.493729],[1.989975,48.493458],[1.989588,48.493601],[1.986799,48.495392],[1.985962,48.495748],[1.985855,48.495975],[1.984288,48.497483],[1.983237,48.499032],[1.982593,48.50044],[1.982894,48.501364],[1.982207,48.502175],[1.982014,48.5028],[1.981391,48.503412],[1.978817,48.505331],[1.978108,48.505729],[1.979332,48.505885],[1.980211,48.506227],[1.981563,48.506511],[1.982271,48.506539],[1.98373,48.507037],[1.984825,48.506809],[1.986734,48.507108],[1.987679,48.50688],[1.989159,48.506724],[1.989674,48.507008],[1.990704,48.507321],[1.991412,48.507677],[1.991472,48.50811],[1.991652,48.508454],[1.991832,48.508667],[1.991812,48.509078],[1.992072,48.509502],[1.992132,48.509927],[1.993194,48.510842],[1.988108,48.513206],[1.985297,48.5145],[1.983645,48.51649],[1.98416,48.516447],[1.984546,48.516589],[1.985554,48.516362],[1.986091,48.51622],[1.988473,48.517129],[1.987958,48.518522],[1.987593,48.519205],[1.987035,48.519318],[1.986541,48.519659],[1.985361,48.520072],[1.986219,48.520285],[1.987121,48.520228],[1.987593,48.52],[1.987958,48.519915],[1.988816,48.520427],[1.989739,48.52155],[1.990361,48.521734],[1.99079,48.522203],[1.990511,48.522644],[1.989824,48.522928],[1.989266,48.5228],[1.988601,48.522957],[1.988172,48.523227],[1.989889,48.524477],[1.992249,48.525699],[1.995017,48.527177],[1.999759,48.528911],[2.000167,48.528769],[2.000596,48.529053],[2.000339,48.529408],[2.000725,48.52965],[2.001261,48.530844],[2.001562,48.530943],[2.001626,48.531185],[2.001304,48.531426],[2.00124,48.532066],[2.001347,48.53262],[2.002506,48.532634],[2.002935,48.532549],[2.003514,48.532549],[2.00433,48.532336],[2.004866,48.532236],[2.005853,48.532009],[2.007055,48.531284],[2.007634,48.531554],[2.007227,48.532051],[2.008385,48.532719],[2.009093,48.53225],[2.009286,48.532279],[2.009608,48.533316],[2.009329,48.533415],[2.009651,48.53441],[2.010059,48.534382],[2.010402,48.534907],[2.010681,48.535902],[2.010982,48.536868],[2.011475,48.537692],[2.012162,48.53907],[2.012226,48.539468],[2.012741,48.539269],[2.014608,48.539312],[2.015574,48.539127],[2.018084,48.53917],[2.021517,48.53809],[2.024564,48.537351],[2.024993,48.537479],[2.028384,48.539397],[2.03098,48.540704],[2.032075,48.541031],[2.032482,48.541272],[2.032868,48.541642],[2.033276,48.541926],[2.033383,48.542494],[2.033963,48.543361],[2.034306,48.544071],[2.034134,48.544938],[2.034628,48.545762],[2.0354,48.547466],[2.035658,48.547906],[2.035937,48.548318],[2.036924,48.550705],[2.037332,48.551173],[2.038104,48.551685],[2.037868,48.552764],[2.037396,48.55329],[2.036666,48.553688],[2.036409,48.554213],[2.035636,48.55481],[2.035272,48.55542],[2.034757,48.555889],[2.033748,48.556699],[2.033147,48.557607],[2.032504,48.558105],[2.032268,48.558587],[2.032353,48.559482],[2.031946,48.560292],[2.032332,48.56049],[2.033233,48.561058],[2.033705,48.561428],[2.034242,48.561669],[2.034864,48.562251],[2.035808,48.562521],[2.037546,48.563174],[2.038233,48.563529],[2.038726,48.563757],[2.03937,48.564168],[2.040464,48.564708],[2.039499,48.564949],[2.038877,48.565304],[2.039134,48.565546],[2.039477,48.566881],[2.039885,48.567562],[2.039756,48.56796],[2.040293,48.567903],[2.042374,48.568017],[2.043254,48.568116],[2.043705,48.568045],[2.046172,48.567307],[2.047073,48.567307],[2.048125,48.567065],[2.048339,48.567704],[2.048168,48.568585],[2.049348,48.568996],[2.049799,48.569337],[2.05055,48.571779],[2.050936,48.572447],[2.051215,48.57273],[2.051751,48.573412],[2.052738,48.574505],[2.05306,48.57469],[2.053489,48.57513],[2.053918,48.575286],[2.054584,48.576748],[2.054777,48.575911],[2.056622,48.575343],[2.057008,48.575187],[2.061686,48.57486],[2.063982,48.574945],[2.064991,48.575215],[2.065398,48.575258],[2.066021,48.575641],[2.066772,48.575655],[2.067501,48.575542],[2.067844,48.575371],[2.068209,48.575371],[2.069046,48.57574],[2.068424,48.576024],[2.068209,48.576521],[2.067844,48.576947],[2.067716,48.577515],[2.068295,48.577728],[2.069025,48.579034],[2.069025,48.579034],[2.070097,48.578636],[2.072136,48.578267],[2.073252,48.578253],[2.073831,48.578154],[2.075226,48.578111],[2.075483,48.577998],[2.07647,48.578054],[2.077522,48.578353],[2.078745,48.578807],[2.080268,48.579147],[2.081384,48.579048],[2.082285,48.579048],[2.084989,48.578722],[2.086684,48.578679],[2.088186,48.57858],[2.089603,48.578665],[2.09265,48.578778],[2.092478,48.577643],[2.092585,48.576663],[2.093164,48.575655],[2.096619,48.576166],[2.098057,48.576223],[2.098507,48.576209],[2.099967,48.576351],[2.10119,48.576393],[2.100997,48.575854],[2.103614,48.575712],[2.105417,48.576081],[2.106404,48.576294],[2.105782,48.578253],[2.10561,48.579815],[2.106039,48.580539],[2.108249,48.582228],[2.108721,48.583009],[2.10885,48.583931],[2.109537,48.583789],[2.11076,48.583974],[2.111382,48.583875],[2.112455,48.584244],[2.113528,48.584187],[2.120781,48.583335],[2.121961,48.581362],[2.123828,48.581036],[2.124138,48.580724],[2.124975,48.580724],[2.126305,48.581178],[2.128386,48.58142],[2.129953,48.581718],[2.131197,48.581434],[2.133665,48.581292],[2.138204,48.581291],[2.139384,48.581433],[2.140693,48.58183],[2.142453,48.582285],[2.148547,48.584357],[2.149963,48.584783],[2.15095,48.584953],[2.153225,48.58501],[2.153654,48.584897],[2.154877,48.584811],[2.156121,48.584698],[2.15713,48.584783],[2.158954,48.585124],[2.162623,48.586472],[2.163524,48.586898],[2.164447,48.587026],[2.164468,48.587452],[2.165284,48.587721],[2.165949,48.588573],[2.166743,48.589282],[2.168138,48.592093],[2.169189,48.592164],[2.170198,48.59249],[2.17127,48.593214],[2.172708,48.594037],[2.172579,48.594676],[2.172558,48.596095],[2.172386,48.596492],[2.172386,48.597187],[2.172,48.597642],[2.171313,48.598082],[2.170906,48.598805],[2.171442,48.599245],[2.172644,48.599543],[2.174596,48.599713],[2.176356,48.599841],[2.176849,48.60004],[2.178673,48.600508],[2.179682,48.600934],[2.185025,48.602892],[2.185733,48.603332],[2.190003,48.605616],[2.191076,48.606084],[2.19305,48.607078],[2.19659,48.613987],[2.196998,48.614994],[2.198007,48.617207],[2.19835,48.618285],[2.198715,48.618923],[2.199595,48.620739],[2.200291,48.62247],[2.200849,48.623336],[2.201793,48.623818],[2.20263,48.624016],[2.201719,48.625661],[2.20071,48.627448],[2.200871,48.628427],[2.201557,48.630526],[2.201397,48.630752],[2.202084,48.630752],[2.20292,48.630979],[2.203564,48.631419],[2.203843,48.632099],[2.205259,48.633177],[2.206289,48.633674],[2.210195,48.630766],[2.213735,48.630681],[2.21528,48.63054],[2.216417,48.630256],[2.220366,48.629887],[2.223799,48.629178],[2.225923,48.62854],[2.22676,48.628455],[2.227468,48.62854],[2.228884,48.629249],[2.229549,48.629462],[2.229849,48.629682],[2.230259,48.629735],[2.231163,48.629983],[2.231111,48.629726],[2.231137,48.629504],[2.231438,48.62915],[2.231974,48.628937],[2.232189,48.628355],[2.232511,48.6281],[2.232811,48.627533],[2.233347,48.627249],[2.235322,48.626966],[2.236588,48.626994],[2.237246,48.626906],[2.237253,48.627107],[2.23706,48.627122],[2.236625,48.627364],[2.236275,48.6275],[2.236044,48.627535],[2.235965,48.627631],[2.235568,48.627692],[2.235635,48.627941],[2.235615,48.628093],[2.235707,48.628198],[2.235648,48.628299],[2.235681,48.628565],[2.235793,48.628683],[2.235998,48.628718],[2.236136,48.628997],[2.236275,48.629112],[2.237376,48.629098],[2.237677,48.629198],[2.238237,48.629145],[2.238668,48.628979],[2.238908,48.629019],[2.239458,48.628933],[2.239959,48.629072],[2.240159,48.630329],[2.239313,48.630313],[2.239077,48.631319],[2.239549,48.631546],[2.24045,48.63166],[2.2406,48.632624],[2.24163,48.632908],[2.242639,48.63305],[2.243604,48.633149],[2.243754,48.633986],[2.244162,48.634581],[2.244184,48.634992],[2.24473,48.635617],[2.245309,48.635787],[2.245567,48.636808],[2.245438,48.636978],[2.245846,48.637035],[2.246919,48.636766],[2.247562,48.636922],[2.247992,48.636922],[2.247927,48.636525],[2.248914,48.635532],[2.249429,48.63539],[2.250974,48.635163],[2.251832,48.634951],[2.252412,48.634724],[2.253249,48.634809],[2.253571,48.634695],[2.254429,48.634894],[2.255158,48.636411],[2.25563,48.636666],[2.255716,48.63695],[2.255824,48.637574],[2.256103,48.637772],[2.256896,48.637758],[2.259278,48.637163],[2.260029,48.637092],[2.260437,48.636922],[2.260437,48.636681],[2.259986,48.635603],[2.260566,48.635674],[2.26166,48.635404],[2.262862,48.634312],[2.263119,48.633859],[2.263076,48.633348],[2.26284,48.632441],[2.263441,48.632384],[2.263784,48.632157],[2.264054,48.632062],[2.264204,48.631917],[2.264614,48.632896],[2.264895,48.633207],[2.265154,48.632861],[2.264957,48.63252],[2.265033,48.63223],[2.266006,48.631731],[2.266135,48.631816],[2.268066,48.631093],[2.269976,48.630369],[2.2701,48.630515],[2.270859,48.630665],[2.271451,48.631016],[2.27283,48.630908],[2.272679,48.63139],[2.2718,48.631433],[2.27137,48.631688],[2.271263,48.632227],[2.271714,48.632624],[2.27283,48.633801],[2.273151,48.633929],[2.273087,48.634028],[2.27225,48.634028],[2.272722,48.634283],[2.272164,48.634354],[2.272786,48.634596],[2.271997,48.634496],[2.271496,48.634626],[2.271375,48.634827],[2.271456,48.635177],[2.2724,48.635687],[2.272894,48.636056],[2.273087,48.636283],[2.273516,48.635872],[2.27416,48.635673],[2.274353,48.635276],[2.27519,48.634851],[2.27519,48.634851],[2.275834,48.635474],[2.277293,48.636098],[2.277658,48.636737],[2.27813,48.636637],[2.278795,48.637105],[2.280646,48.637644],[2.281692,48.640111],[2.281632,48.640311],[2.281799,48.640843],[2.28358,48.640778],[2.285232,48.640806],[2.286584,48.640778],[2.287807,48.640622],[2.289298,48.63997],[2.290199,48.639906],[2.290274,48.640048],[2.290134,48.640147],[2.29022,48.640885],[2.290102,48.642444],[2.29139,48.642465],[2.292044,48.642267],[2.292012,48.64214],[2.292205,48.642069],[2.292452,48.641835],[2.293348,48.641362],[2.29324,48.640738],[2.29279,48.640029],[2.293669,48.639944],[2.294377,48.63966],[2.29485,48.639164],[2.294785,48.638909],[2.294528,48.638611],[2.294506,48.638285],[2.295107,48.637462],[2.294935,48.636796],[2.294807,48.636441],[2.294635,48.636172],[2.294742,48.635988],[2.295,48.635846],[2.294656,48.635491],[2.294656,48.635123],[2.294828,48.634811],[2.294978,48.63474],[2.295451,48.634718],[2.296215,48.634922],[2.296752,48.635405],[2.297126,48.636233],[2.297419,48.636233],[2.298216,48.635803],[2.298801,48.635212],[2.299143,48.635018],[2.299289,48.635029],[2.299614,48.634932],[2.299858,48.636082],[2.300216,48.637135],[2.301273,48.636996],[2.301614,48.636706],[2.305806,48.636042],[2.306017,48.635841],[2.306427,48.635736],[2.30648,48.635426]]],"type":"MultiLineString"},"properties":{"geo_point":{"lon":2.1526015175465143,"lat":48.436350864959955},"name":"GR111 De Milly-la-Forêt à St Michel-sur-Orge (Essonne) (2020)","code_gr":"GR111"}}]}