{"type":"FeatureCollection","features":[{"type":"Feature","geometry":{"coordinates":[[[2.349362,49.745453],[2.350252,49.746165],[2.350574,49.746609],[2.350745,49.746997],[2.351346,49.747815],[2.351089,49.749659],[2.351689,49.751115],[2.352569,49.752377],[2.352998,49.753597],[2.35302,49.754692],[2.352698,49.754858],[2.352204,49.754706],[2.351689,49.754345],[2.351561,49.754844],[2.350896,49.755648],[2.351475,49.756203],[2.351904,49.756924],[2.352419,49.75752],[2.351496,49.757839],[2.351496,49.75831],[2.351303,49.758532],[2.352269,49.759793],[2.352719,49.760306],[2.353206,49.761195],[2.353277,49.762371],[2.352333,49.762843],[2.351818,49.763217],[2.351582,49.763702],[2.351475,49.764395],[2.34978,49.766807],[2.348943,49.768165],[2.34787,49.768733],[2.346218,49.77041],[2.345445,49.771338],[2.3439,49.773043],[2.343493,49.773861],[2.341712,49.774775],[2.341347,49.774872],[2.340381,49.77544],[2.340167,49.775842],[2.33875,49.776854],[2.336283,49.778184],[2.332399,49.783075],[2.331584,49.785486],[2.332034,49.785777],[2.332249,49.785555],[2.334738,49.785001],[2.336433,49.78446],[2.336927,49.784391],[2.338579,49.785527],[2.339502,49.785569],[2.342785,49.787494],[2.344093,49.788506],[2.345445,49.790362],[2.346754,49.791553],[2.347355,49.791927],[2.3492,49.793576],[2.349587,49.793534],[2.350123,49.793326],[2.35023,49.793132],[2.35111,49.792869],[2.352119,49.792648],[2.352848,49.792689],[2.354307,49.792523],[2.355337,49.792565],[2.356539,49.792869],[2.357462,49.79316],[2.358062,49.793132],[2.358685,49.794324],[2.359586,49.795626],[2.363534,49.800349],[2.363963,49.801235],[2.365465,49.802745],[2.366216,49.803603],[2.368899,49.806207],[2.370014,49.806207],[2.372182,49.806456],[2.375207,49.807107],[2.376323,49.807246],[2.377331,49.807578],[2.37834,49.808492],[2.378941,49.80935],[2.379713,49.809669],[2.381902,49.811912],[2.382567,49.812771],[2.383039,49.813338],[2.381988,49.814349],[2.382074,49.815678],[2.381559,49.817229],[2.380829,49.818323],[2.38025,49.819444],[2.379949,49.819666],[2.37819,49.819333],[2.377782,49.81932],[2.377267,49.819666],[2.375336,49.822407],[2.380142,49.823251],[2.380164,49.823708],[2.380657,49.823888],[2.382116,49.824165],[2.382996,49.824414],[2.384949,49.824746],[2.386644,49.824788],[2.387545,49.824552],[2.388961,49.824705],[2.389476,49.824649],[2.388618,49.826186],[2.388275,49.827279],[2.387717,49.82811],[2.387502,49.829674],[2.387202,49.830338],[2.387395,49.831224],[2.387846,49.831847],[2.388017,49.832844],[2.388511,49.833439],[2.38879,49.834906],[2.388296,49.835847],[2.386944,49.836968],[2.386494,49.837743],[2.385829,49.838297],[2.385507,49.838933],[2.385056,49.839224],[2.384477,49.839307],[2.383447,49.840497],[2.381966,49.841646],[2.380765,49.842268],[2.37982,49.842476],[2.379155,49.842919],[2.378769,49.842905],[2.378361,49.84249],[2.375851,49.843057],[2.375851,49.843057],[2.376366,49.843444],[2.377267,49.844482],[2.377267,49.845008],[2.376902,49.845382],[2.375722,49.845755],[2.37525,49.84617],[2.375486,49.847513],[2.375894,49.84808],[2.376709,49.848979],[2.376924,49.849034],[2.37746,49.852452],[2.378855,49.853019],[2.379563,49.852355],[2.380743,49.851497],[2.381537,49.851248],[2.382352,49.85111],[2.384005,49.850418],[2.385507,49.849934],[2.386408,49.849685],[2.387245,49.84938],[2.388318,49.849256],[2.389047,49.849021],[2.389948,49.848107],[2.391708,49.847665],[2.392159,49.847222],[2.392738,49.847084],[2.394133,49.847014],[2.394519,49.846627],[2.395227,49.846309],[2.396364,49.847097],[2.397223,49.847457],[2.398789,49.847014],[2.398639,49.846447],[2.400205,49.844994],[2.401042,49.844496],[2.403531,49.844261],[2.405892,49.843984],[2.408402,49.843348],[2.409647,49.843043],[2.411256,49.842407],[2.421835,49.837051],[2.425053,49.838726],[2.426212,49.839556],[2.428165,49.839708],[2.429237,49.839431],[2.429688,49.838975],[2.430289,49.838739],[2.430933,49.837743],[2.431448,49.837383],[2.432091,49.837231],[2.434516,49.837508],[2.435074,49.837549],[2.436125,49.837826],[2.437284,49.838158],[2.438378,49.837798],[2.439172,49.838445],[2.439657,49.838152],[2.441962,49.837272],[2.442327,49.837245],[2.444108,49.839085],[2.446361,49.841189],[2.447648,49.842642],[2.449386,49.843818],[2.449944,49.844372],[2.450416,49.845105],[2.451403,49.844565],[2.452347,49.844358],[2.453635,49.843901],[2.454579,49.843777],[2.455888,49.843237],[2.45666,49.843112],[2.457025,49.843763],[2.456811,49.844275],[2.458077,49.844524],[2.459128,49.844468],[2.460737,49.845022],[2.460995,49.845312],[2.46093,49.847526],[2.461209,49.849408],[2.461124,49.851566],[2.461467,49.85277],[2.461295,49.854167],[2.460823,49.855343],[2.460415,49.858318],[2.460535,49.858776],[2.461112,49.859304],[2.461531,49.860116],[2.461038,49.861527],[2.462347,49.863228],[2.462347,49.865842],[2.462497,49.866174],[2.462475,49.86699],[2.463699,49.868996],[2.463505,49.869604],[2.460373,49.869577],[2.460626,49.869788],[2.463827,49.870877],[2.464965,49.873725],[2.4649,49.874486],[2.468999,49.876519],[2.472689,49.878399],[2.479792,49.882312],[2.481809,49.883819],[2.485478,49.886115],[2.486658,49.887621],[2.487238,49.888658],[2.487366,49.892211],[2.486701,49.893054],[2.486529,49.894727],[2.485778,49.897339],[2.485478,49.897823],[2.487785,49.898297],[2.488074,49.899675],[2.488396,49.900104],[2.488933,49.900629],[2.488675,49.901127],[2.494555,49.901071],[2.500005,49.901652],[2.504747,49.903849],[2.505863,49.904264],[2.507193,49.904582],[2.509682,49.904941],[2.509682,49.904941],[2.509618,49.905328],[2.509124,49.905439],[2.509682,49.90624],[2.508631,49.90776],[2.509039,49.908562],[2.508867,49.908921],[2.508888,49.909114],[2.508738,49.909363],[2.506464,49.90928],[2.505691,49.909418],[2.502344,49.911547],[2.501207,49.91203],[2.497909,49.913154],[2.494755,49.912753],[2.49203,49.912255],[2.491493,49.912946],[2.490849,49.913388],[2.489626,49.913969],[2.488317,49.914591],[2.487888,49.91495],[2.487974,49.915392],[2.488575,49.915876],[2.488632,49.91594],[2.489383,49.916604],[2.490006,49.917087],[2.491057,49.918179],[2.491036,49.918911],[2.489727,49.921467],[2.489641,49.922241],[2.490499,49.923498],[2.4911,49.925459],[2.491593,49.926178],[2.492087,49.927462],[2.492495,49.928968],[2.491765,49.930004],[2.491915,49.930405],[2.492559,49.931261],[2.492752,49.931979],[2.492538,49.932808],[2.492731,49.933485],[2.494919,49.935073],[2.495241,49.936012],[2.495542,49.936371],[2.49552,49.936813],[2.495263,49.937131],[2.495692,49.937711],[2.496014,49.937973],[2.496336,49.938595],[2.496057,49.939782],[2.495563,49.940694],[2.494683,49.941716],[2.494083,49.942323],[2.494469,49.943235],[2.493889,49.94648],[2.493889,49.94648],[2.492053,49.947319],[2.488684,49.949265],[2.485637,49.950273],[2.480766,49.950646],[2.478878,49.950315],[2.477977,49.949845],[2.47744,49.949721],[2.477204,49.950743],[2.476797,49.951875],[2.477698,49.953863],[2.477247,49.955409],[2.476153,49.957618],[2.475788,49.957936],[2.473385,49.959385],[2.472655,49.960144],[2.471089,49.961456],[2.461669,49.958764],[2.460746,49.959164],[2.459845,49.960807],[2.458879,49.961083],[2.458322,49.961442],[2.457399,49.961704],[2.456884,49.962063],[2.455768,49.962574],[2.453601,49.963098],[2.4527,49.963595],[2.451949,49.963678],[2.44961,49.964603],[2.449588,49.965334],[2.44888,49.965403],[2.44549,49.96539],[2.441821,49.965155],[2.436928,49.964755],[2.436649,49.965887],[2.435233,49.965859],[2.434546,49.965942],[2.433688,49.966176],[2.432765,49.967253],[2.432293,49.967557],[2.43195,49.969806],[2.4321,49.972042],[2.431736,49.972429],[2.431006,49.972843],[2.430598,49.974043],[2.429869,49.974857],[2.429654,49.975382],[2.426929,49.97621],[2.425534,49.976734],[2.424268,49.977024],[2.423861,49.977617],[2.422187,49.977797],[2.420492,49.97828],[2.419054,49.978459],[2.416393,49.979066],[2.415342,49.979149],[2.414054,49.979177],[2.411501,49.979549],[2.410042,49.980073],[2.409613,49.980322],[2.407939,49.980763],[2.406008,49.981081],[2.403926,49.981343],[2.403283,49.981743],[2.401931,49.982116],[2.401587,49.982447],[2.401051,49.982654],[2.399292,49.984144],[2.396352,49.985455],[2.391395,49.986531],[2.388412,49.987648],[2.387619,49.988573],[2.387447,49.990118],[2.386825,49.991125],[2.386031,49.991428],[2.384099,49.991925],[2.384207,49.992987],[2.389571,49.996505],[2.390086,49.997015],[2.391352,49.997884],[2.39191,49.998049],[2.392232,49.998381],[2.392318,49.999608],[2.392854,50.000339],[2.393498,50.000353],[2.393884,50.000491],[2.39427,50.001263],[2.394185,50.00158],[2.395107,50.001732],[2.39588,50.00227],[2.395923,50.002463],[2.396674,50.002684],[2.396395,50.00318],[2.397403,50.003787],[2.398133,50.004408],[2.398884,50.005511],[2.400279,50.007966],[2.400858,50.008393],[2.401287,50.008876],[2.400622,50.009896],[2.401545,50.010862],[2.401931,50.011496],[2.402424,50.012006],[2.402553,50.012379],[2.404248,50.014102],[2.404441,50.015081],[2.405171,50.015302],[2.406094,50.015812],[2.407059,50.018211],[2.409012,50.020017],[2.411394,50.021658],[2.411673,50.022678],[2.411952,50.022981],[2.412595,50.023395],[2.413346,50.024263],[2.413668,50.024277],[2.415814,50.024525],[2.413861,50.027489],[2.415342,50.027834],[2.416479,50.027903],[2.416608,50.027351],[2.417101,50.026676],[2.418046,50.026648],[2.419891,50.025931],[2.421157,50.027255],[2.421371,50.027848],[2.421393,50.028881],[2.421264,50.029157],[2.421093,50.029364],[2.419333,50.029198],[2.419848,50.029888],[2.421865,50.030439],[2.422337,50.030701],[2.42474,50.032865],[2.42562,50.033857],[2.426929,50.035732],[2.427058,50.036173],[2.428045,50.037455],[2.430062,50.038419],[2.431156,50.039274],[2.43268,50.040073],[2.434632,50.041424],[2.435963,50.042802],[2.436821,50.043904],[2.438366,50.045447],[2.438538,50.045392],[2.439568,50.04626],[2.439932,50.046798],[2.443516,50.049416],[2.444353,50.049636],[2.445211,50.050229],[2.447099,50.052075],[2.446863,50.05253],[2.447335,50.053136],[2.446241,50.05359],[2.443559,50.055202],[2.441649,50.056456],[2.440555,50.05709],[2.438516,50.05855],[2.436735,50.061553],[2.435898,50.063454],[2.438216,50.065989],[2.439353,50.067035],[2.439589,50.069046],[2.439332,50.069969],[2.438452,50.071085],[2.437336,50.071264],[2.436585,50.071525],[2.436134,50.072007],[2.43725,50.07388],[2.439417,50.074624],[2.440469,50.074817],[2.443366,50.076097],[2.444653,50.076566],[2.445232,50.076634],[2.446391,50.076524],[2.447271,50.077323],[2.447936,50.078783],[2.447936,50.078783],[2.449524,50.080242],[2.450382,50.081275],[2.451155,50.081895],[2.451734,50.082459],[2.453773,50.083519],[2.455403,50.083781],[2.456026,50.08407],[2.458665,50.086906],[2.463707,50.088324],[2.466068,50.090734],[2.466261,50.091147],[2.467463,50.092331],[2.467548,50.093005],[2.468192,50.093845],[2.469952,50.094781],[2.46993,50.095373],[2.470231,50.096061],[2.472333,50.095882],[2.472891,50.095689],[2.473728,50.095676],[2.474372,50.095813],[2.474586,50.096171],[2.474586,50.097135],[2.476239,50.097616],[2.47684,50.097974],[2.477419,50.098594],[2.478492,50.098181],[2.479028,50.098346],[2.481668,50.099695],[2.483513,50.099901],[2.485959,50.1037],[2.483255,50.105186],[2.481453,50.105792],[2.480273,50.106287],[2.479136,50.106398],[2.478706,50.106563],[2.477419,50.108214],[2.476561,50.108654],[2.47317,50.110898],[2.475745,50.113333],[2.47856,50.112705],[2.479405,50.114332],[2.480359,50.115163],[2.480573,50.117791],[2.481174,50.119305],[2.482204,50.119552],[2.484951,50.1198],[2.488191,50.119869],[2.489714,50.120048],[2.490808,50.12024],[2.489113,50.121066],[2.487611,50.121644],[2.48759,50.122125],[2.487955,50.12251],[2.487719,50.123776],[2.487418,50.124037],[2.487053,50.124945],[2.487268,50.125564],[2.487568,50.125702],[2.487568,50.126183],[2.487032,50.126913],[2.486817,50.127394],[2.486302,50.127889],[2.485723,50.128728],[2.484972,50.128935],[2.484414,50.12899],[2.484264,50.12888],[2.482011,50.129127],[2.481324,50.129581],[2.481088,50.130475],[2.480402,50.130943],[2.478814,50.131878],[2.478449,50.133102],[2.474415,50.132869],[2.473471,50.132882],[2.472784,50.132717],[2.471883,50.132098],[2.470939,50.131576],[2.470037,50.131411],[2.467784,50.130599],[2.465982,50.129829],[2.46463,50.12921],[2.463579,50.128866],[2.462463,50.128591],[2.461969,50.128288],[2.460682,50.128013],[2.460403,50.127738],[2.461025,50.127408],[2.460768,50.127325],[2.459468,50.127616],[2.458708,50.128233],[2.457098,50.128041],[2.456498,50.128082],[2.455661,50.128384],[2.454738,50.128494],[2.45476,50.130228],[2.45388,50.130475],[2.452249,50.130214],[2.452056,50.130434],[2.450833,50.130585],[2.448987,50.130572],[2.448279,50.130957],[2.447271,50.131067],[2.445533,50.130792],[2.444052,50.131025],[2.442142,50.131039],[2.44152,50.131204],[2.440941,50.131741],[2.439353,50.132332],[2.437486,50.133281],[2.437186,50.133584],[2.436649,50.135702],[2.436327,50.136307],[2.435576,50.136899],[2.435126,50.138013],[2.434182,50.139237],[2.433002,50.140282],[2.431714,50.140406],[2.430663,50.140158],[2.432165,50.141726],[2.431285,50.143335],[2.428646,50.145631],[2.427573,50.147378],[2.426564,50.148656],[2.425899,50.149309],[2.426049,50.150588],[2.425363,50.152238],[2.425298,50.153819],[2.426242,50.155538],[2.426242,50.156418],[2.425985,50.157146],[2.42474,50.157077],[2.423303,50.156486],[2.422337,50.156596],[2.422015,50.15705],[2.42047,50.157847],[2.419183,50.158658],[2.417531,50.160281],[2.415835,50.161215],[2.417531,50.161765],[2.419054,50.162617],[2.421779,50.164652],[2.428131,50.168253],[2.429783,50.169009],[2.431886,50.169614],[2.435512,50.169985],[2.434783,50.171469],[2.434546,50.172431],[2.435383,50.173544],[2.433449,50.174652],[2.432379,50.175537],[2.431993,50.175716],[2.430877,50.175922],[2.428731,50.177612],[2.426672,50.178478],[2.425813,50.178615],[2.425363,50.17889],[2.425148,50.179866],[2.423903,50.180649],[2.423517,50.181143],[2.422723,50.181267],[2.421715,50.18183],[2.421565,50.182147],[2.420642,50.182627],[2.420384,50.182957],[2.41811,50.183946],[2.417616,50.184702],[2.416797,50.184774],[2.413057,50.186607],[2.408894,50.189251],[2.403883,50.191887],[2.401995,50.193673],[2.402714,50.193853],[2.404015,50.193957],[2.404373,50.194727],[2.403918,50.19531],[2.40395,50.195727],[2.404731,50.19606],[2.406129,50.196393],[2.407008,50.196934],[2.41039,50.196851],[2.410879,50.19708],[2.412188,50.197313],[2.414999,50.197987],[2.415514,50.197437],[2.415771,50.196709],[2.415556,50.196118],[2.416136,50.195899],[2.41678,50.19583],[2.419247,50.194965],[2.420685,50.19583],[2.421178,50.196476],[2.421221,50.197162],[2.421629,50.197684],[2.421736,50.198618],[2.421264,50.199127],[2.421371,50.199731],[2.422187,50.200898],[2.421844,50.201736],[2.421844,50.202588],[2.421007,50.203041],[2.421736,50.203769],[2.423131,50.204785],[2.423667,50.20539],[2.423882,50.206214],[2.424654,50.206818],[2.42738,50.207944],[2.427701,50.207711],[2.427938,50.207711],[2.429847,50.209235],[2.430212,50.209482],[2.431864,50.210951],[2.43195,50.211322],[2.430815,50.212131],[2.430276,50.212901],[2.429611,50.213293],[2.428817,50.213993],[2.428431,50.214995],[2.426543,50.217275],[2.425706,50.217755],[2.424848,50.21781],[2.423968,50.218016],[2.422702,50.217947],[2.42208,50.217975],[2.420899,50.217961],[2.421114,50.218318],[2.420191,50.219815],[2.419118,50.221188],[2.417423,50.225045],[2.413947,50.22915],[2.412917,50.228834],[2.411823,50.22823],[2.411179,50.227516],[2.410364,50.22672],[2.409441,50.226212],[2.40869,50.225938],[2.408475,50.225677],[2.407596,50.225361],[2.405943,50.225018],[2.405278,50.225183],[2.404463,50.2244],[2.40251,50.223123],[2.401845,50.222519],[2.400965,50.221943],[2.39699,50.219789],[2.395299,50.219789],[2.393901,50.220435],[2.392827,50.220351],[2.391819,50.220039],[2.39029,50.219914],[2.388859,50.220601],[2.388455,50.221311],[2.386996,50.221998],[2.385709,50.222423],[2.385022,50.222272],[2.383005,50.222382],[2.377899,50.222349],[2.375817,50.222224],[2.37307,50.221641],[2.370971,50.224014],[2.370906,50.224929],[2.370191,50.226552],[2.370028,50.227655],[2.368565,50.231171],[2.367491,50.233127],[2.366547,50.235779],[2.365324,50.236699],[2.364916,50.237317],[2.364662,50.238827],[2.364304,50.23995],[2.363914,50.241614],[2.363166,50.243881],[2.362213,50.247828],[2.360625,50.251657],[2.360011,50.253386],[2.360271,50.255361],[2.360076,50.255902],[2.359198,50.256443],[2.35923,50.25687],[2.359638,50.257597],[2.359458,50.258688],[2.35897,50.259479],[2.358222,50.260269],[2.357363,50.260848],[2.357363,50.260848]]],"type":"MultiLineString"},"properties":{"geo_point":{"lon":2.426751029460764,"lat":50.00270493730601},"name":"GR124 De Berny-sur-Noye (Somme) à Rebreuviette (Pas-de-Calais) (2019)","code_gr":"GR124"}},{"type":"Feature","geometry":{"coordinates":[[[2.353572,49.271137],[2.35295,49.270983],[2.351984,49.270647],[2.350182,49.270451],[2.349002,49.270115],[2.348337,49.270283],[2.347908,49.270591],[2.347693,49.270885],[2.346963,49.271361],[2.346255,49.272061],[2.345976,49.272677],[2.345397,49.273349],[2.345397,49.273349],[2.346792,49.273419],[2.347865,49.273475],[2.348358,49.273279],[2.348937,49.273153],[2.350525,49.273139],[2.351963,49.273461],[2.352457,49.273797],[2.352457,49.273797],[2.351834,49.274413],[2.351362,49.275029],[2.351083,49.275547],[2.350118,49.276583],[2.349624,49.278501],[2.348959,49.279229],[2.349989,49.279271],[2.351641,49.279411],[2.352607,49.279299],[2.35398,49.279523],[2.35516,49.279663],[2.355611,49.279635],[2.356405,49.279747],[2.35707,49.280489],[2.357542,49.280853],[2.357714,49.281189],[2.358829,49.28228],[2.359516,49.28333],[2.359688,49.28403],[2.359473,49.284548],[2.35943,49.285486],[2.358829,49.285878],[2.358615,49.286116],[2.357242,49.286843],[2.357242,49.287095],[2.358186,49.288005],[2.359452,49.288299],[2.360782,49.288929],[2.361791,49.289587],[2.362864,49.290818],[2.363271,49.290958],[2.364108,49.291672],[2.363314,49.291924],[2.361984,49.293015],[2.361233,49.293309],[2.359559,49.294961],[2.358808,49.295254],[2.3584,49.295576],[2.358272,49.295982],[2.357628,49.297829],[2.354602,49.296178],[2.352414,49.29538],[2.351448,49.295562],[2.350955,49.295828],[2.350718,49.29615],[2.34986,49.29664],[2.349474,49.297591],[2.348186,49.29997],[2.347929,49.302797],[2.347671,49.303678],[2.347779,49.305441],[2.347908,49.305819],[2.34814,49.307223],[2.349106,49.308063],[2.348646,49.308618],[2.348324,49.309217],[2.34699,49.310402],[2.346875,49.310687],[2.345657,49.312246],[2.344369,49.31325],[2.343748,49.312951],[2.343219,49.312531],[2.343058,49.311496],[2.341149,49.312396],[2.341747,49.313565],[2.342069,49.314],[2.34269,49.31391],[2.343978,49.315349],[2.344045,49.315429],[2.344753,49.315961],[2.343981,49.316255],[2.343187,49.316423],[2.343358,49.317052],[2.343444,49.317668],[2.343981,49.319192],[2.343766,49.321234],[2.34323,49.321416],[2.343101,49.321738],[2.342822,49.321975],[2.342929,49.322409],[2.342929,49.323724],[2.343208,49.324297],[2.343311,49.324599],[2.343938,49.325262],[2.343852,49.326115],[2.344002,49.326619],[2.344603,49.326912],[2.344944,49.327147],[2.344139,49.327971],[2.342943,49.328136],[2.342023,49.328046],[2.34085,49.327806],[2.339286,49.327626],[2.337994,49.327724],[2.33823,49.328101],[2.338938,49.328437],[2.339603,49.328577],[2.340097,49.328549],[2.341513,49.329541],[2.34265,49.331933],[2.343058,49.334981],[2.343127,49.335854],[2.343831,49.336715],[2.345011,49.337777],[2.346835,49.339735],[2.3478,49.340406],[2.348423,49.341133],[2.34898,49.34158],[2.350139,49.34179],[2.351534,49.342419],[2.35089,49.341538],[2.350676,49.339847],[2.350997,49.339721],[2.351684,49.340028],[2.352156,49.340322],[2.352464,49.34005],[2.35297,49.340395],[2.354002,49.340714],[2.354323,49.34179],[2.354764,49.342418],[2.356419,49.343242],[2.357263,49.344432],[2.357263,49.344908],[2.357649,49.345285],[2.355568,49.346026],[2.355182,49.346417],[2.355074,49.346963],[2.354044,49.347913],[2.353873,49.348333],[2.353036,49.348598],[2.352564,49.348906],[2.346985,49.350933],[2.346556,49.351184],[2.341642,49.353113],[2.339689,49.354874],[2.338724,49.355042],[2.337136,49.354567],[2.335355,49.354846],[2.334668,49.354902],[2.333788,49.356034],[2.33263,49.355573],[2.330956,49.355545],[2.330269,49.355797],[2.329905,49.356957],[2.329647,49.357683],[2.328917,49.357544],[2.328038,49.357544],[2.326922,49.358187],[2.326836,49.358438],[2.327179,49.358913],[2.327694,49.359137],[2.328295,49.358941],[2.328703,49.359053],[2.329003,49.360017],[2.329647,49.360507],[2.329647,49.3608],[2.328703,49.361163],[2.32866,49.363134],[2.327888,49.36502],[2.327179,49.368276],[2.326922,49.368751],[2.327094,49.369282],[2.326278,49.369981],[2.324926,49.372091],[2.324454,49.372538],[2.324246,49.373305],[2.32213,49.372736],[2.320612,49.372871],[2.319094,49.372317],[2.317001,49.371283],[2.314004,49.371434],[2.312932,49.37223],[2.312438,49.372049],[2.311408,49.371252],[2.310636,49.37128],[2.308726,49.370917],[2.306644,49.369143],[2.30658,49.368598],[2.306323,49.368234],[2.305979,49.367564],[2.305057,49.367312],[2.303812,49.366753],[2.303061,49.366669],[2.30246,49.366404],[2.301945,49.366376],[2.300186,49.365691],[2.299757,49.365398],[2.29907,49.365118],[2.298512,49.364461],[2.297016,49.362882],[2.296495,49.362589],[2.295765,49.362715],[2.294328,49.361233],[2.292869,49.360507],[2.292256,49.360395],[2.291474,49.360455],[2.28847,49.360283],[2.287912,49.35992],[2.286753,49.360157],[2.285895,49.359948],[2.285294,49.360297],[2.284951,49.360828],[2.284328,49.361135],[2.284049,49.361401],[2.282247,49.36217],[2.280917,49.361233],[2.279543,49.36073],[2.27905,49.360493],[2.27802,49.360409],[2.277655,49.35971],[2.277355,49.359654],[2.276217,49.360171],[2.275316,49.360884],[2.274909,49.361611],[2.274565,49.363623],[2.274115,49.364378],[2.274136,49.364811],[2.274715,49.365719],[2.274758,49.366194],[2.274115,49.367326],[2.273535,49.367619],[2.272763,49.368556],[2.271368,49.369827],[2.27119,49.370969],[2.270339,49.371313],[2.26889,49.372002],[2.265969,49.37302],[2.262763,49.377407],[2.264094,49.377616],[2.265446,49.378692],[2.266068,49.378916],[2.267012,49.37893],[2.268385,49.378636],[2.269029,49.378664],[2.269909,49.379363],[2.270488,49.379726],[2.271489,49.380103],[2.27234,49.380312],[2.273605,49.380417],[2.274639,49.381211],[2.27526,49.381465],[2.275973,49.3816],[2.276818,49.38136],[2.277583,49.38145],[2.27848,49.381885],[2.279078,49.382423],[2.279653,49.382603],[2.280573,49.382768],[2.281861,49.383162],[2.282912,49.383176],[2.284801,49.382799],[2.285487,49.382925],[2.286496,49.383456],[2.288062,49.383595],[2.289564,49.383665],[2.291474,49.384295],[2.292946,49.385178],[2.293912,49.385582],[2.29513,49.385897],[2.296142,49.386017],[2.297654,49.386445],[2.298641,49.386808],[2.29922,49.387297],[2.299928,49.387604],[2.300121,49.387981],[2.301108,49.388093],[2.301602,49.388219],[2.302095,49.388219],[2.302868,49.388596],[2.304155,49.388722],[2.304949,49.389155],[2.306365,49.391501],[2.307224,49.392521],[2.307524,49.393177],[2.307589,49.393861],[2.308018,49.394532],[2.308726,49.395062],[2.309327,49.395412],[2.310099,49.395649],[2.311108,49.396208],[2.312159,49.396682],[2.312481,49.397087],[2.313404,49.399182],[2.314326,49.39988],[2.316365,49.400983],[2.317352,49.401277],[2.318468,49.401863],[2.319562,49.402254],[2.320871,49.402226],[2.321922,49.401779],[2.322845,49.402226],[2.324197,49.402254],[2.324583,49.402631],[2.324926,49.403399],[2.325527,49.403204],[2.326064,49.403818],[2.326428,49.403748],[2.32733,49.403818],[2.328617,49.403609],[2.328853,49.403469],[2.332286,49.403441],[2.333574,49.404027],[2.334303,49.404027],[2.335054,49.404265],[2.337737,49.40446],[2.339732,49.404712],[2.340998,49.404879],[2.342161,49.40519],[2.342779,49.405801],[2.345427,49.404442],[2.349589,49.404337],[2.350718,49.40446],[2.351577,49.404432],[2.354474,49.404642],[2.356684,49.405298],[2.358272,49.405843],[2.358615,49.405731],[2.359108,49.405801],[2.360568,49.406764],[2.360138,49.406736],[2.359666,49.406401],[2.359302,49.406429],[2.353637,49.415839],[2.353572,49.41521],[2.352757,49.415252],[2.351899,49.414303],[2.35104,49.414443],[2.350718,49.413661],[2.349753,49.413884],[2.348637,49.414652],[2.347542,49.415096],[2.345817,49.415649],[2.34162,49.41602],[2.339367,49.415922],[2.3316,49.415197],[2.331299,49.415922],[2.331256,49.417039],[2.32939,49.417263],[2.329454,49.419105],[2.329154,49.419426],[2.328617,49.419677],[2.327008,49.421743],[2.328081,49.426517],[2.327609,49.4272],[2.3269,49.430034],[2.326364,49.430285],[2.325356,49.430522],[2.32469,49.430857],[2.325377,49.431959],[2.326815,49.432992],[2.330312,49.435392],[2.33102,49.435811],[2.331814,49.436885],[2.331535,49.436913],[2.330291,49.437695],[2.329604,49.437743],[2.329972,49.438446],[2.330226,49.439592],[2.328338,49.446066],[2.328252,49.447698],[2.327802,49.44873],[2.326149,49.45039],[2.324218,49.450488],[2.323982,49.450697],[2.324111,49.450948],[2.324755,49.451674],[2.324647,49.452218],[2.324175,49.452748],[2.323489,49.45318],[2.322061,49.45431],[2.325978,49.457462],[2.326643,49.458146],[2.327115,49.458425],[2.328124,49.458048],[2.328939,49.457574],[2.330033,49.456528],[2.330999,49.457044],[2.331836,49.458299],[2.333552,49.459429],[2.335162,49.460726],[2.336728,49.460656],[2.338616,49.46074],[2.340848,49.461284],[2.341642,49.461214],[2.34368,49.461563],[2.34456,49.461772],[2.346706,49.46187],[2.347993,49.462149],[2.349152,49.462121],[2.350053,49.46233],[2.351319,49.462525],[2.352221,49.462832],[2.35368,49.463501],[2.354474,49.464101],[2.355246,49.464464],[2.355804,49.465105],[2.356834,49.465454],[2.360396,49.468034],[2.36061,49.468438],[2.36104,49.468954],[2.361447,49.470125],[2.362327,49.476609],[2.363851,49.478171],[2.361855,49.479174],[2.362005,49.479746],[2.359967,49.48061],[2.359666,49.481377],[2.359645,49.482004],[2.359344,49.483273],[2.36016,49.484904],[2.360868,49.487274],[2.360954,49.488291],[2.361683,49.489532],[2.362091,49.490731],[2.356641,49.489476],[2.355954,49.489365],[2.354881,49.48903],[2.353422,49.488765],[2.351319,49.488305],[2.344753,49.486911],[2.34426,49.486967],[2.344539,49.487343],[2.344753,49.48804],[2.343316,49.492793],[2.342135,49.496055],[2.343316,49.4988],[2.342483,49.504963],[2.34117,49.50652],[2.340912,49.507412],[2.339775,49.508763],[2.339539,49.510003],[2.339088,49.51102],[2.335956,49.512637],[2.335355,49.513305],[2.334066,49.514416],[2.324776,49.518014],[2.324025,49.518474],[2.322383,49.518059],[2.322072,49.520271],[2.321072,49.521],[2.320405,49.521866],[2.321141,49.522777],[2.32029,49.52321],[2.319393,49.524568],[2.319531,49.525106],[2.319369,49.525522],[2.316472,49.524777],[2.315421,49.524366],[2.314863,49.524046],[2.314755,49.523837],[2.314884,49.523391],[2.31306,49.522876],[2.312331,49.522263],[2.311408,49.521901],[2.310528,49.521692],[2.310013,49.521302],[2.309391,49.520717],[2.305293,49.518711],[2.305035,49.518028],[2.305142,49.51768],[2.304842,49.517791],[2.299499,49.5124],[2.298641,49.512093],[2.29819,49.511675],[2.296838,49.509864],[2.295229,49.509056],[2.292289,49.508624],[2.287633,49.508503],[2.285165,49.506799],[2.282459,49.506113],[2.279307,49.507091],[2.278595,49.505919],[2.277698,49.505994],[2.277008,49.506308],[2.276732,49.50583],[2.273857,49.506397],[2.274041,49.506711],[2.273191,49.506785],[2.27303,49.506621],[2.27188,49.506995],[2.271604,49.506472],[2.270408,49.506741],[2.269327,49.50686],[2.268246,49.507189],[2.267096,49.507861],[2.265923,49.507681],[2.264612,49.507174],[2.263554,49.506935],[2.259231,49.505456],[2.258541,49.504695],[2.25654,49.505128],[2.257276,49.506203],[2.258679,49.507383],[2.258679,49.507726],[2.255597,49.508189],[2.25182,49.509599],[2.250607,49.508249],[2.249296,49.507681],[2.248237,49.506659],[2.247939,49.506427],[2.24725,49.504932],[2.246467,49.503843],[2.240672,49.505247],[2.237636,49.502454],[2.232002,49.507129],[2.229794,49.509115],[2.227494,49.512848],[2.227294,49.513654],[2.226543,49.513974],[2.226157,49.514615],[2.224526,49.51552],[2.224483,49.515729],[2.225813,49.516537],[2.225706,49.516941],[2.223303,49.517833],[2.221372,49.518056],[2.220728,49.518279],[2.22002,49.517429],[2.219398,49.517262],[2.218217,49.517443],[2.217381,49.517443],[2.216973,49.5169],[2.216007,49.516064],[2.215256,49.515855],[2.214848,49.515437],[2.214741,49.514977],[2.211759,49.5169],[2.211372,49.517345],[2.210257,49.518293],[2.208061,49.517492],[2.206497,49.517761],[2.209827,49.519142],[2.209763,49.520201],[2.208862,49.522458],[2.206437,49.522499],[2.205429,49.522653],[2.20422,49.522792],[2.20721,49.524897],[2.208819,49.52523],[2.210257,49.525759],[2.211649,49.527524],[2.207746,49.528837],[2.207231,49.529129],[2.206416,49.529185],[2.203304,49.529826],[2.20215,49.531898],[2.202219,49.532719],[2.204999,49.534616],[2.215235,49.537513],[2.215728,49.536998],[2.215857,49.537541],[2.216479,49.538599],[2.216994,49.538822],[2.220256,49.540716],[2.220985,49.54105],[2.225663,49.545756],[2.226843,49.545324],[2.227616,49.54531],[2.229397,49.546048],[2.230191,49.546285],[2.23107,49.545658],[2.235534,49.544377],[2.236714,49.544322],[2.23897,49.544016],[2.241523,49.546001],[2.242958,49.547524],[2.249848,49.551924],[2.251069,49.552062],[2.254438,49.551352],[2.255575,49.552828],[2.257,49.554073],[2.257966,49.555714],[2.259287,49.557241],[2.260038,49.559092],[2.260639,49.560219],[2.261876,49.561427],[2.263761,49.562516],[2.265187,49.564112],[2.265877,49.565127],[2.266682,49.566007],[2.267671,49.566753],[2.270914,49.568289],[2.2705,49.570377],[2.270201,49.572614],[2.27066,49.573426],[2.270983,49.574329],[2.270982,49.575597],[2.271466,49.576641],[2.271558,49.577371],[2.27257,49.577322],[2.273879,49.577086],[2.275099,49.576178],[2.276433,49.574538],[2.277399,49.572689],[2.27825,49.571973],[2.278986,49.57154],[2.279952,49.571421],[2.281079,49.57151],[2.282367,49.571257],[2.283494,49.570824],[2.284328,49.571575],[2.285809,49.572689],[2.290422,49.57383],[2.291131,49.574094],[2.291753,49.574553],[2.292311,49.575499],[2.293426,49.576612],[2.294864,49.577628],[2.295658,49.578073],[2.298212,49.581114],[2.301087,49.58262],[2.299339,49.583291],[2.298276,49.584278],[2.296731,49.585252],[2.295014,49.585864],[2.292783,49.586782],[2.292482,49.587297],[2.292847,49.587909],[2.292847,49.587909],[2.292783,49.588521],[2.292397,49.589258],[2.290701,49.590371],[2.292075,49.59115],[2.292718,49.59186],[2.292783,49.592931],[2.292633,49.593515],[2.293019,49.594113],[2.292332,49.594739],[2.295916,49.592652],[2.297673,49.591569],[2.299991,49.591252],[2.300479,49.591478],[2.300706,49.591422],[2.30088,49.591184],[2.301602,49.592277],[2.302414,49.593049],[2.302919,49.593362],[2.305954,49.594129],[2.307556,49.595048],[2.311993,49.596174],[2.313747,49.595824],[2.315521,49.595127],[2.316357,49.595557],[2.317996,49.596811],[2.319605,49.597785],[2.321446,49.598098],[2.322351,49.598355],[2.325742,49.599287],[2.326198,49.599497],[2.326038,49.599991],[2.326158,49.600964],[2.325718,49.60195],[2.324877,49.602378],[2.325097,49.602612],[2.325077,49.602845],[2.326018,49.603727],[2.325958,49.603909],[2.326178,49.604519],[2.326458,49.605842],[2.32796,49.608424],[2.329361,49.609514],[2.331424,49.610137],[2.332565,49.60967],[2.334467,49.610046],[2.33765,49.61133],[2.346439,49.614015],[2.34714,49.61181],[2.348001,49.610098],[2.352005,49.610643],[2.354828,49.6112],[2.35721,49.611797],[2.358772,49.612433],[2.363757,49.613587],[2.364998,49.614106],[2.368502,49.614132],[2.370504,49.613938],[2.372246,49.613951],[2.373407,49.614379],[2.374528,49.614936],[2.37641,49.616221],[2.376991,49.616376],[2.378512,49.616636],[2.380114,49.617051],[2.381936,49.616999],[2.384158,49.616389],[2.385459,49.616156],[2.386981,49.615819],[2.389003,49.615922],[2.389784,49.615909],[2.391526,49.616636],[2.392667,49.616973],[2.393788,49.617453],[2.394909,49.618283],[2.394569,49.61853],[2.394909,49.619412],[2.39591,49.620138],[2.397432,49.6215],[2.397212,49.622083],[2.397952,49.622421],[2.397972,49.622485],[2.399654,49.623108],[2.401656,49.623497],[2.402737,49.624444],[2.404699,49.625585],[2.407743,49.626804],[2.404699,49.628023],[2.403198,49.62849],[2.401496,49.629489],[2.400095,49.630565],[2.397892,49.632795],[2.402837,49.637489],[2.406401,49.638565],[2.407522,49.640977],[2.409985,49.643816],[2.414309,49.645839],[2.416151,49.647005],[2.416472,49.647433],[2.417393,49.647524],[2.418033,49.648496],[2.415871,49.649131],[2.41489,49.649274],[2.413989,49.649572],[2.413368,49.649935],[2.412107,49.65149],[2.410345,49.652424],[2.408563,49.652735],[2.404039,49.654018],[2.401436,49.654446],[2.39601,49.654951],[2.393608,49.655405],[2.389223,49.655703],[2.388082,49.655897],[2.38646,49.656312],[2.385419,49.656338],[2.383237,49.656014],[2.380374,49.65591],[2.375329,49.656092],[2.374508,49.656079],[2.373047,49.656286],[2.370844,49.656351],[2.368262,49.659099],[2.369223,49.660019],[2.370084,49.661431],[2.368562,49.66309],[2.364898,49.662507],[2.361294,49.669297],[2.360273,49.669751],[2.360073,49.670126],[2.359913,49.67093],[2.359372,49.671876],[2.359212,49.672692],[2.359693,49.672821],[2.360714,49.673223],[2.361875,49.673547],[2.363537,49.67435],[2.364578,49.675076],[2.365819,49.675749],[2.366079,49.676151],[2.363357,49.676501],[2.361314,49.675944],[2.360494,49.675918],[2.359112,49.676229],[2.357731,49.676708],[2.355609,49.679195],[2.353526,49.678457],[2.351264,49.679338],[2.350003,49.679947],[2.348681,49.680724],[2.34738,49.681048],[2.345778,49.68132],[2.344537,49.681916],[2.342155,49.682732],[2.340293,49.683626],[2.339672,49.683794],[2.339892,49.68417],[2.339272,49.684416],[2.339612,49.684908],[2.339552,49.685387],[2.339832,49.685957],[2.339852,49.68667],[2.340213,49.687551],[2.340673,49.68812],[2.341174,49.689649],[2.341934,49.690219],[2.342355,49.690789],[2.342455,49.691255],[2.342195,49.692951],[2.342355,49.69347],[2.343596,49.694609],[2.344938,49.695257],[2.345618,49.695749],[2.345638,49.69615],[2.344317,49.697303],[2.342575,49.698559],[2.342295,49.699271],[2.341114,49.699219],[2.340693,49.699802],[2.338771,49.700126],[2.339152,49.701227],[2.339552,49.702146],[2.339392,49.702832],[2.339372,49.703583],[2.338951,49.704606],[2.338931,49.704994],[2.343116,49.706121],[2.344537,49.70638],[2.345138,49.706354],[2.345338,49.706432],[2.346559,49.706509],[2.352425,49.70726],[2.353546,49.707921],[2.354708,49.70827],[2.354928,49.708697],[2.355188,49.708775],[2.355268,49.709008],[2.356229,49.709979],[2.355589,49.711144],[2.355689,49.711818],[2.355609,49.713138],[2.354948,49.713177],[2.353847,49.713138],[2.353406,49.713837],[2.354387,49.714445],[2.353446,49.714756],[2.352946,49.715145],[2.352746,49.715649],[2.352826,49.716387],[2.353086,49.717047],[2.353486,49.717721],[2.353667,49.718808],[2.353446,49.719714],[2.351264,49.722083],[2.350784,49.722898],[2.350283,49.723571],[2.350103,49.724218],[2.350143,49.725331],[2.350804,49.727027],[2.348661,49.728839],[2.348701,49.729369],[2.347941,49.729589],[2.34778,49.730003],[2.3473,49.730197],[2.346359,49.730055],[2.346219,49.729732],[2.346199,49.729279],[2.345678,49.728269],[2.344237,49.726742],[2.343396,49.725318],[2.343296,49.724736],[2.343416,49.723532],[2.343696,49.722613],[2.343836,49.721901],[2.342695,49.722872],[2.340993,49.72295],[2.339792,49.723183],[2.339172,49.723429],[2.33799,49.724374],[2.335007,49.726082],[2.331604,49.72726],[2.331484,49.727713],[2.330943,49.728192],[2.329301,49.728644],[2.326759,49.728903],[2.323916,49.728683],[2.323155,49.728787],[2.321774,49.729641],[2.321053,49.730003],[2.317809,49.732009],[2.316628,49.732915],[2.314706,49.737418],[2.313925,49.742995],[2.313885,49.743978],[2.313545,49.744638],[2.312544,49.745026],[2.310522,49.746565],[2.309361,49.74716],[2.309161,49.747742],[2.312244,49.748092],[2.313205,49.748079],[2.314987,49.747859],[2.316548,49.747975],[2.31847,49.748389],[2.321353,49.748286],[2.323155,49.748325],[2.324096,49.748066],[2.325517,49.747328],[2.32806,49.746708],[2.330342,49.746449],[2.331083,49.746268],[2.336168,49.746604],[2.339071,49.747005],[2.340333,49.74694],[2.341674,49.74663],[2.342955,49.746242],[2.344377,49.746138],[2.346259,49.746177],[2.349322,49.745246]]],"type":"MultiLineString"},"properties":{"geo_point":{"lon":2.3213586803968194,"lat":49.514785651297096},"name":"GR124 De Cires-lès-Mello (Oise) à Berny-sur-Noye (Somme) (2019)","code_gr":"GR124"}},{"type":"Feature","geometry":{"coordinates":[[[2.353572,49.271137],[2.35295,49.270983],[2.351984,49.270647],[2.350182,49.270451],[2.349002,49.270115],[2.348337,49.270283],[2.347908,49.270591],[2.347693,49.270885],[2.346963,49.271361],[2.346255,49.272061],[2.345976,49.272677],[2.345397,49.273349],[2.345397,49.273349],[2.346792,49.273419],[2.347865,49.273475],[2.348358,49.273279],[2.348937,49.273153],[2.350525,49.273139],[2.351963,49.273461],[2.352457,49.273797],[2.352457,49.273797],[2.351834,49.274413],[2.351362,49.275029],[2.351083,49.275547],[2.350118,49.276583],[2.349624,49.278501],[2.348959,49.279229],[2.349989,49.279271],[2.351641,49.279411],[2.352607,49.279299],[2.35398,49.279523],[2.35516,49.279663],[2.355611,49.279635],[2.356405,49.279747],[2.35707,49.280489],[2.357542,49.280853],[2.357714,49.281189],[2.358829,49.28228],[2.359516,49.28333],[2.359688,49.28403],[2.359473,49.284548],[2.35943,49.285486],[2.358829,49.285878],[2.358615,49.286116],[2.357242,49.286843],[2.357242,49.287095],[2.358186,49.288005],[2.359452,49.288299],[2.360782,49.288929],[2.361791,49.289587],[2.362864,49.290818],[2.363271,49.290958],[2.364108,49.291672],[2.363314,49.291924],[2.361984,49.293015],[2.361233,49.293309],[2.359559,49.294961],[2.358808,49.295254],[2.3584,49.295576],[2.358272,49.295982],[2.357628,49.297829],[2.354602,49.296178],[2.352414,49.29538],[2.351448,49.295562],[2.350955,49.295828],[2.350718,49.29615],[2.34986,49.29664],[2.349474,49.297591],[2.348186,49.29997],[2.347929,49.302797],[2.347671,49.303678],[2.347779,49.305441],[2.347908,49.305819],[2.34814,49.307223],[2.349106,49.308063],[2.348646,49.308618],[2.348324,49.309217],[2.34699,49.310402],[2.346875,49.310687],[2.345657,49.312246],[2.344369,49.31325],[2.343748,49.312951],[2.343219,49.312531],[2.343058,49.311496],[2.341149,49.312396],[2.341747,49.313565],[2.342069,49.314],[2.34269,49.31391],[2.343978,49.315349],[2.344045,49.315429],[2.344753,49.315961],[2.343981,49.316255],[2.343187,49.316423],[2.343358,49.317052],[2.343444,49.317668],[2.343981,49.319192],[2.343766,49.321234],[2.34323,49.321416],[2.343101,49.321738],[2.342822,49.321975],[2.342929,49.322409],[2.342929,49.323724],[2.343208,49.324297],[2.343311,49.324599],[2.343938,49.325262],[2.343852,49.326115],[2.344002,49.326619],[2.344603,49.326912],[2.344944,49.327147],[2.344139,49.327971],[2.342943,49.328136],[2.342023,49.328046],[2.34085,49.327806],[2.339286,49.327626],[2.337994,49.327724],[2.33823,49.328101],[2.338938,49.328437],[2.339603,49.328577],[2.340097,49.328549],[2.341513,49.329541],[2.34265,49.331933],[2.343058,49.334981],[2.343127,49.335854],[2.343831,49.336715],[2.345011,49.337777],[2.346835,49.339735],[2.3478,49.340406],[2.348423,49.341133],[2.34898,49.34158],[2.350139,49.34179],[2.351534,49.342419],[2.35089,49.341538],[2.350676,49.339847],[2.350997,49.339721],[2.351684,49.340028],[2.352156,49.340322],[2.352464,49.34005],[2.35297,49.340395],[2.354002,49.340714],[2.354323,49.34179],[2.354764,49.342418],[2.356419,49.343242],[2.357263,49.344432],[2.357263,49.344908],[2.357649,49.345285],[2.355568,49.346026],[2.355182,49.346417],[2.355074,49.346963],[2.354044,49.347913],[2.353873,49.348333],[2.353036,49.348598],[2.352564,49.348906],[2.346985,49.350933],[2.346556,49.351184],[2.341642,49.353113],[2.339689,49.354874],[2.338724,49.355042],[2.337136,49.354567],[2.335355,49.354846],[2.334668,49.354902],[2.333788,49.356034],[2.33263,49.355573],[2.330956,49.355545],[2.330269,49.355797],[2.329905,49.356957],[2.329647,49.357683],[2.328917,49.357544],[2.328038,49.357544],[2.326922,49.358187],[2.326836,49.358438],[2.327179,49.358913],[2.327694,49.359137],[2.328295,49.358941],[2.328703,49.359053],[2.329003,49.360017],[2.329647,49.360507],[2.329647,49.3608],[2.328703,49.361163],[2.32866,49.363134],[2.327888,49.36502],[2.327179,49.368276],[2.326922,49.368751],[2.327094,49.369282],[2.326278,49.369981],[2.324926,49.372091],[2.324454,49.372538],[2.324246,49.373305],[2.32213,49.372736],[2.320612,49.372871],[2.319094,49.372317],[2.317001,49.371283],[2.314004,49.371434],[2.312932,49.37223],[2.312438,49.372049],[2.311408,49.371252],[2.310636,49.37128],[2.308726,49.370917],[2.306644,49.369143],[2.30658,49.368598],[2.306323,49.368234],[2.305979,49.367564],[2.305057,49.367312],[2.303812,49.366753],[2.303061,49.366669],[2.30246,49.366404],[2.301945,49.366376],[2.300186,49.365691],[2.299757,49.365398],[2.29907,49.365118],[2.298512,49.364461],[2.297016,49.362882],[2.296495,49.362589],[2.295765,49.362715],[2.294328,49.361233],[2.292869,49.360507],[2.292256,49.360395],[2.291474,49.360455],[2.28847,49.360283],[2.287912,49.35992],[2.286753,49.360157],[2.285895,49.359948],[2.285294,49.360297],[2.284951,49.360828],[2.284328,49.361135],[2.284049,49.361401],[2.282247,49.36217],[2.280917,49.361233],[2.279543,49.36073],[2.27905,49.360493],[2.27802,49.360409],[2.277655,49.35971],[2.277355,49.359654],[2.276217,49.360171],[2.275316,49.360884],[2.274909,49.361611],[2.274565,49.363623],[2.274115,49.364378],[2.274136,49.364811],[2.274715,49.365719],[2.274758,49.366194],[2.274115,49.367326],[2.273535,49.367619],[2.272763,49.368556],[2.271368,49.369827],[2.27119,49.370969],[2.270339,49.371313],[2.26889,49.372002],[2.265969,49.37302],[2.262763,49.377407],[2.264094,49.377616],[2.265446,49.378692],[2.266068,49.378916],[2.267012,49.37893],[2.268385,49.378636],[2.269029,49.378664],[2.269909,49.379363],[2.270488,49.379726],[2.271489,49.380103],[2.27234,49.380312],[2.273605,49.380417],[2.274639,49.381211],[2.27526,49.381465],[2.275973,49.3816],[2.276818,49.38136],[2.277583,49.38145],[2.27848,49.381885],[2.279078,49.382423],[2.279653,49.382603],[2.280573,49.382768],[2.281861,49.383162],[2.282912,49.383176],[2.284801,49.382799],[2.285487,49.382925],[2.286496,49.383456],[2.288062,49.383595],[2.289564,49.383665],[2.291474,49.384295],[2.292946,49.385178],[2.293912,49.385582],[2.29513,49.385897],[2.296142,49.386017],[2.297654,49.386445],[2.298641,49.386808],[2.29922,49.387297],[2.299928,49.387604],[2.300121,49.387981],[2.301108,49.388093],[2.301602,49.388219],[2.302095,49.388219],[2.302868,49.388596],[2.304155,49.388722],[2.304949,49.389155],[2.306365,49.391501],[2.307224,49.392521],[2.307524,49.393177],[2.307589,49.393861],[2.308018,49.394532],[2.308726,49.395062],[2.309327,49.395412],[2.310099,49.395649],[2.311108,49.396208],[2.312159,49.396682],[2.312481,49.397087],[2.313404,49.399182],[2.314326,49.39988],[2.316365,49.400983],[2.317352,49.401277],[2.318468,49.401863],[2.319562,49.402254],[2.320871,49.402226],[2.321922,49.401779],[2.322845,49.402226],[2.324197,49.402254],[2.324583,49.402631],[2.324926,49.403399],[2.325527,49.403204],[2.326064,49.403818],[2.326428,49.403748],[2.32733,49.403818],[2.328617,49.403609],[2.328853,49.403469],[2.332286,49.403441],[2.333574,49.404027],[2.334303,49.404027],[2.335054,49.404265],[2.337737,49.40446],[2.339732,49.404712],[2.340998,49.404879],[2.342161,49.40519],[2.342779,49.405801],[2.345427,49.404442],[2.349589,49.404337],[2.350718,49.40446],[2.351577,49.404432],[2.354474,49.404642],[2.356684,49.405298],[2.358272,49.405843],[2.358615,49.405731],[2.359108,49.405801],[2.360568,49.406764],[2.360138,49.406736],[2.359666,49.406401],[2.359302,49.406429],[2.353637,49.415839],[2.353572,49.41521],[2.352757,49.415252],[2.351899,49.414303],[2.35104,49.414443],[2.350718,49.413661],[2.349753,49.413884],[2.348637,49.414652],[2.347542,49.415096],[2.345817,49.415649],[2.34162,49.41602],[2.339367,49.415922],[2.3316,49.415197],[2.331299,49.415922],[2.331256,49.417039],[2.32939,49.417263],[2.329454,49.419105],[2.329154,49.419426],[2.328617,49.419677],[2.327008,49.421743],[2.328081,49.426517],[2.327609,49.4272],[2.3269,49.430034],[2.326364,49.430285],[2.325356,49.430522],[2.32469,49.430857],[2.325377,49.431959],[2.326815,49.432992],[2.330312,49.435392],[2.33102,49.435811],[2.331814,49.436885],[2.331535,49.436913],[2.330291,49.437695],[2.329604,49.437743],[2.329972,49.438446],[2.330226,49.439592],[2.328338,49.446066],[2.328252,49.447698],[2.327802,49.44873],[2.326149,49.45039],[2.324218,49.450488],[2.323982,49.450697],[2.324111,49.450948],[2.324755,49.451674],[2.324647,49.452218],[2.324175,49.452748],[2.323489,49.45318],[2.322061,49.45431],[2.325978,49.457462],[2.326643,49.458146],[2.327115,49.458425],[2.328124,49.458048],[2.328939,49.457574],[2.330033,49.456528],[2.330999,49.457044],[2.331836,49.458299],[2.333552,49.459429],[2.335162,49.460726],[2.336728,49.460656],[2.338616,49.46074],[2.340848,49.461284],[2.341642,49.461214],[2.34368,49.461563],[2.34456,49.461772],[2.346706,49.46187],[2.347993,49.462149],[2.349152,49.462121],[2.350053,49.46233],[2.351319,49.462525],[2.352221,49.462832],[2.35368,49.463501],[2.354474,49.464101],[2.355246,49.464464],[2.355804,49.465105],[2.356834,49.465454],[2.360396,49.468034],[2.36061,49.468438],[2.36104,49.468954],[2.361447,49.470125],[2.362327,49.476609],[2.363851,49.478171],[2.361855,49.479174],[2.362005,49.479746],[2.359967,49.48061],[2.359666,49.481377],[2.359645,49.482004],[2.359344,49.483273],[2.36016,49.484904],[2.360868,49.487274],[2.360954,49.488291],[2.361683,49.489532],[2.362091,49.490731],[2.356641,49.489476],[2.355954,49.489365],[2.354881,49.48903],[2.353422,49.488765],[2.351319,49.488305],[2.344753,49.486911],[2.34426,49.486967],[2.344539,49.487343],[2.344753,49.48804],[2.343316,49.492793],[2.342135,49.496055],[2.343316,49.4988],[2.342483,49.504963],[2.34117,49.50652],[2.340912,49.507412],[2.339775,49.508763],[2.339539,49.510003],[2.339088,49.51102],[2.335956,49.512637],[2.335355,49.513305],[2.334066,49.514416],[2.324776,49.518014],[2.324025,49.518474],[2.322383,49.518059],[2.322072,49.520271],[2.321072,49.521],[2.320405,49.521866],[2.321141,49.522777],[2.32029,49.52321],[2.319393,49.524568],[2.319531,49.525106],[2.319369,49.525522],[2.316472,49.524777],[2.315421,49.524366],[2.314863,49.524046],[2.314755,49.523837],[2.314884,49.523391],[2.31306,49.522876],[2.312331,49.522263],[2.311408,49.521901],[2.310528,49.521692],[2.310013,49.521302],[2.309391,49.520717],[2.305293,49.518711],[2.305035,49.518028],[2.305142,49.51768],[2.304842,49.517791],[2.299499,49.5124],[2.298641,49.512093],[2.29819,49.511675],[2.296838,49.509864],[2.295229,49.509056],[2.292289,49.508624],[2.287633,49.508503],[2.285165,49.506799],[2.282459,49.506113],[2.279307,49.507091],[2.278595,49.505919],[2.277698,49.505994],[2.277008,49.506308],[2.276732,49.50583],[2.273857,49.506397],[2.274041,49.506711],[2.273191,49.506785],[2.27303,49.506621],[2.27188,49.506995],[2.271604,49.506472],[2.270408,49.506741],[2.269327,49.50686],[2.268246,49.507189],[2.267096,49.507861],[2.265923,49.507681],[2.264612,49.507174],[2.263554,49.506935],[2.259231,49.505456],[2.258541,49.504695],[2.25654,49.505128],[2.257276,49.506203],[2.258679,49.507383],[2.258679,49.507726],[2.255597,49.508189],[2.25182,49.509599],[2.250607,49.508249],[2.249296,49.507681],[2.248237,49.506659],[2.247939,49.506427],[2.24725,49.504932],[2.246467,49.503843],[2.240672,49.505247],[2.237636,49.502454],[2.232002,49.507129],[2.229794,49.509115],[2.227494,49.512848],[2.227294,49.513654],[2.226543,49.513974],[2.226157,49.514615],[2.224526,49.51552],[2.224483,49.515729],[2.225813,49.516537],[2.225706,49.516941],[2.223303,49.517833],[2.221372,49.518056],[2.220728,49.518279],[2.22002,49.517429],[2.219398,49.517262],[2.218217,49.517443],[2.217381,49.517443],[2.216973,49.5169],[2.216007,49.516064],[2.215256,49.515855],[2.214848,49.515437],[2.214741,49.514977],[2.211759,49.5169],[2.211372,49.517345],[2.210257,49.518293],[2.208061,49.517492],[2.206497,49.517761],[2.209827,49.519142],[2.209763,49.520201],[2.208862,49.522458],[2.206437,49.522499],[2.205429,49.522653],[2.20422,49.522792],[2.20721,49.524897],[2.208819,49.52523],[2.210257,49.525759],[2.211649,49.527524],[2.207746,49.528837],[2.207231,49.529129],[2.206416,49.529185],[2.203304,49.529826],[2.20215,49.531898],[2.202219,49.532719],[2.204999,49.534616],[2.215235,49.537513],[2.215728,49.536998],[2.215857,49.537541],[2.216479,49.538599],[2.216994,49.538822],[2.220256,49.540716],[2.220985,49.54105],[2.225663,49.545756],[2.226843,49.545324],[2.227616,49.54531],[2.229397,49.546048],[2.230191,49.546285],[2.23107,49.545658],[2.235534,49.544377],[2.236714,49.544322],[2.23897,49.544016],[2.241523,49.546001],[2.242958,49.547524],[2.249848,49.551924],[2.251069,49.552062],[2.254438,49.551352],[2.255575,49.552828],[2.257,49.554073],[2.257966,49.555714],[2.259287,49.557241],[2.260038,49.559092],[2.260639,49.560219],[2.261876,49.561427],[2.263761,49.562516],[2.265187,49.564112],[2.265877,49.565127],[2.266682,49.566007],[2.267671,49.566753],[2.270914,49.568289],[2.2705,49.570377],[2.270201,49.572614],[2.27066,49.573426],[2.270983,49.574329],[2.270982,49.575597],[2.271466,49.576641],[2.271558,49.577371],[2.27257,49.577322],[2.273879,49.577086],[2.275099,49.576178],[2.276433,49.574538],[2.277399,49.572689],[2.27825,49.571973],[2.278986,49.57154],[2.279952,49.571421],[2.281079,49.57151],[2.282367,49.571257],[2.283494,49.570824],[2.284328,49.571575],[2.285809,49.572689],[2.290422,49.57383],[2.291131,49.574094],[2.291753,49.574553],[2.292311,49.575499],[2.293426,49.576612],[2.294864,49.577628],[2.295658,49.578073],[2.298212,49.581114],[2.301087,49.58262],[2.299339,49.583291],[2.298276,49.584278],[2.296731,49.585252],[2.295014,49.585864],[2.292783,49.586782],[2.292482,49.587297],[2.292847,49.587909],[2.292847,49.587909],[2.292783,49.588521],[2.292397,49.589258],[2.290701,49.590371],[2.292075,49.59115],[2.292718,49.59186],[2.292783,49.592931],[2.292633,49.593515],[2.293019,49.594113],[2.292332,49.594739],[2.295916,49.592652],[2.297673,49.591569],[2.299991,49.591252],[2.300479,49.591478],[2.300706,49.591422],[2.30088,49.591184],[2.301602,49.592277],[2.302414,49.593049],[2.302919,49.593362],[2.305954,49.594129],[2.307556,49.595048],[2.311993,49.596174],[2.313747,49.595824],[2.315521,49.595127],[2.316357,49.595557],[2.317996,49.596811],[2.319605,49.597785],[2.321446,49.598098],[2.322351,49.598355],[2.325742,49.599287],[2.326198,49.599497],[2.326038,49.599991],[2.326158,49.600964],[2.325718,49.60195],[2.324877,49.602378],[2.325097,49.602612],[2.325077,49.602845],[2.326018,49.603727],[2.325958,49.603909],[2.326178,49.604519],[2.326458,49.605842],[2.32796,49.608424],[2.329361,49.609514],[2.331424,49.610137],[2.332565,49.60967],[2.334467,49.610046],[2.33765,49.61133],[2.346439,49.614015],[2.34714,49.61181],[2.348001,49.610098],[2.352005,49.610643],[2.354828,49.6112],[2.35721,49.611797],[2.358772,49.612433],[2.363757,49.613587],[2.364998,49.614106],[2.368502,49.614132],[2.370504,49.613938],[2.372246,49.613951],[2.373407,49.614379],[2.374528,49.614936],[2.37641,49.616221],[2.376991,49.616376],[2.378512,49.616636],[2.380114,49.617051],[2.381936,49.616999],[2.384158,49.616389],[2.385459,49.616156],[2.386981,49.615819],[2.389003,49.615922],[2.389784,49.615909],[2.391526,49.616636],[2.392667,49.616973],[2.393788,49.617453],[2.394909,49.618283],[2.394569,49.61853],[2.394909,49.619412],[2.39591,49.620138],[2.397432,49.6215],[2.397212,49.622083],[2.397952,49.622421],[2.397972,49.622485],[2.399654,49.623108],[2.401656,49.623497],[2.402737,49.624444],[2.404699,49.625585],[2.407743,49.626804],[2.404699,49.628023],[2.403198,49.62849],[2.401496,49.629489],[2.400095,49.630565],[2.397892,49.632795],[2.402837,49.637489],[2.406401,49.638565],[2.407522,49.640977],[2.409985,49.643816],[2.414309,49.645839],[2.416151,49.647005],[2.416472,49.647433],[2.417393,49.647524],[2.418033,49.648496],[2.415871,49.649131],[2.41489,49.649274],[2.413989,49.649572],[2.413368,49.649935],[2.412107,49.65149],[2.410345,49.652424],[2.408563,49.652735],[2.404039,49.654018],[2.401436,49.654446],[2.39601,49.654951],[2.393608,49.655405],[2.389223,49.655703],[2.388082,49.655897],[2.38646,49.656312],[2.385419,49.656338],[2.383237,49.656014],[2.380374,49.65591],[2.375329,49.656092],[2.374508,49.656079],[2.373047,49.656286],[2.370844,49.656351],[2.368262,49.659099],[2.369223,49.660019],[2.370084,49.661431],[2.368562,49.66309],[2.364898,49.662507],[2.361294,49.669297],[2.360273,49.669751],[2.360073,49.670126],[2.359913,49.67093],[2.359372,49.671876],[2.359212,49.672692],[2.359693,49.672821],[2.360714,49.673223],[2.361875,49.673547],[2.363537,49.67435],[2.364578,49.675076],[2.365819,49.675749],[2.366079,49.676151],[2.363357,49.676501],[2.361314,49.675944],[2.360494,49.675918],[2.359112,49.676229],[2.357731,49.676708],[2.355609,49.679195],[2.353526,49.678457],[2.351264,49.679338],[2.350003,49.679947],[2.348681,49.680724],[2.34738,49.681048],[2.345778,49.68132],[2.344537,49.681916],[2.342155,49.682732],[2.340293,49.683626],[2.339672,49.683794],[2.339892,49.68417],[2.339272,49.684416],[2.339612,49.684908],[2.339552,49.685387],[2.339832,49.685957],[2.339852,49.68667],[2.340213,49.687551],[2.340673,49.68812],[2.341174,49.689649],[2.341934,49.690219],[2.342355,49.690789],[2.342455,49.691255],[2.342195,49.692951],[2.342355,49.69347],[2.343596,49.694609],[2.344938,49.695257],[2.345618,49.695749],[2.345638,49.69615],[2.344317,49.697303],[2.342575,49.698559],[2.342295,49.699271],[2.341114,49.699219],[2.340693,49.699802],[2.338771,49.700126],[2.339152,49.701227],[2.339552,49.702146],[2.339392,49.702832],[2.339372,49.703583],[2.338951,49.704606],[2.338931,49.704994],[2.343116,49.706121],[2.344537,49.70638],[2.345138,49.706354],[2.345338,49.706432],[2.346559,49.706509],[2.352425,49.70726],[2.353546,49.707921],[2.354708,49.70827],[2.354928,49.708697],[2.355188,49.708775],[2.355268,49.709008],[2.356229,49.709979],[2.355589,49.711144],[2.355689,49.711818],[2.355609,49.713138],[2.354948,49.713177],[2.353847,49.713138],[2.353406,49.713837],[2.354387,49.714445],[2.353446,49.714756],[2.352946,49.715145],[2.352746,49.715649],[2.352826,49.716387],[2.353086,49.717047],[2.353486,49.717721],[2.353667,49.718808],[2.353446,49.719714],[2.351264,49.722083],[2.350784,49.722898],[2.350283,49.723571],[2.350103,49.724218],[2.350143,49.725331],[2.350804,49.727027],[2.348661,49.728839],[2.348701,49.729369],[2.347941,49.729589],[2.34778,49.730003],[2.3473,49.730197],[2.346359,49.730055],[2.346219,49.729732],[2.346199,49.729279],[2.345678,49.728269],[2.344237,49.726742],[2.343396,49.725318],[2.343296,49.724736],[2.343416,49.723532],[2.343696,49.722613],[2.343836,49.721901],[2.342695,49.722872],[2.340993,49.72295],[2.339792,49.723183],[2.339172,49.723429],[2.33799,49.724374],[2.335007,49.726082],[2.331604,49.72726],[2.331484,49.727713],[2.330943,49.728192],[2.329301,49.728644],[2.326759,49.728903],[2.323916,49.728683],[2.323155,49.728787],[2.321774,49.729641],[2.321053,49.730003],[2.317809,49.732009],[2.316628,49.732915],[2.314706,49.737418],[2.313925,49.742995],[2.313885,49.743978],[2.313545,49.744638],[2.312544,49.745026],[2.310522,49.746565],[2.309361,49.74716],[2.309161,49.747742],[2.312244,49.748092],[2.313205,49.748079],[2.314987,49.747859],[2.316548,49.747975],[2.31847,49.748389],[2.321353,49.748286],[2.323155,49.748325],[2.324096,49.748066],[2.325517,49.747328],[2.32806,49.746708],[2.330342,49.746449],[2.331083,49.746268],[2.336168,49.746604],[2.339071,49.747005],[2.340333,49.74694],[2.341674,49.74663],[2.342955,49.746242],[2.344377,49.746138],[2.346259,49.746177],[2.349322,49.745246],[2.349362,49.745453],[2.349362,49.745453],[2.350252,49.746165],[2.350574,49.746609],[2.350745,49.746997],[2.351346,49.747815],[2.351089,49.749659],[2.351689,49.751115],[2.352569,49.752377],[2.352998,49.753597],[2.35302,49.754692],[2.352698,49.754858],[2.352204,49.754706],[2.351689,49.754345],[2.351561,49.754844],[2.350896,49.755648],[2.351475,49.756203],[2.351904,49.756924],[2.352419,49.75752],[2.351496,49.757839],[2.351496,49.75831],[2.351303,49.758532],[2.352269,49.759793],[2.352719,49.760306],[2.353206,49.761195],[2.353277,49.762371],[2.352333,49.762843],[2.351818,49.763217],[2.351582,49.763702],[2.351475,49.764395],[2.34978,49.766807],[2.348943,49.768165],[2.34787,49.768733],[2.346218,49.77041],[2.345445,49.771338],[2.3439,49.773043],[2.343493,49.773861],[2.341712,49.774775],[2.341347,49.774872],[2.340381,49.77544],[2.340167,49.775842],[2.33875,49.776854],[2.336283,49.778184],[2.332399,49.783075],[2.331584,49.785486],[2.332034,49.785777],[2.332249,49.785555],[2.334738,49.785001],[2.336433,49.78446],[2.336927,49.784391],[2.338579,49.785527],[2.339502,49.785569],[2.342785,49.787494],[2.344093,49.788506],[2.345445,49.790362],[2.346754,49.791553],[2.347355,49.791927],[2.3492,49.793576],[2.349587,49.793534],[2.350123,49.793326],[2.35023,49.793132],[2.35111,49.792869],[2.352119,49.792648],[2.352848,49.792689],[2.354307,49.792523],[2.355337,49.792565],[2.356539,49.792869],[2.357462,49.79316],[2.358062,49.793132],[2.358685,49.794324],[2.359586,49.795626],[2.363534,49.800349],[2.363963,49.801235],[2.365465,49.802745],[2.366216,49.803603],[2.368899,49.806207],[2.370014,49.806207],[2.372182,49.806456],[2.375207,49.807107],[2.376323,49.807246],[2.377331,49.807578],[2.37834,49.808492],[2.378941,49.80935],[2.379713,49.809669],[2.381902,49.811912],[2.382567,49.812771],[2.383039,49.813338],[2.381988,49.814349],[2.382074,49.815678],[2.381559,49.817229],[2.380829,49.818323],[2.38025,49.819444],[2.379949,49.819666],[2.37819,49.819333],[2.377782,49.81932],[2.377267,49.819666],[2.375336,49.822407],[2.380142,49.823251],[2.380164,49.823708],[2.380657,49.823888],[2.382116,49.824165],[2.382996,49.824414],[2.384949,49.824746],[2.386644,49.824788],[2.387545,49.824552],[2.388961,49.824705],[2.389476,49.824649],[2.388618,49.826186],[2.388275,49.827279],[2.387717,49.82811],[2.387502,49.829674],[2.387202,49.830338],[2.387395,49.831224],[2.387846,49.831847],[2.388017,49.832844],[2.388511,49.833439],[2.38879,49.834906],[2.388296,49.835847],[2.386944,49.836968],[2.386494,49.837743],[2.385829,49.838297],[2.385507,49.838933],[2.385056,49.839224],[2.384477,49.839307],[2.383447,49.840497],[2.381966,49.841646],[2.380765,49.842268],[2.37982,49.842476],[2.379155,49.842919],[2.378769,49.842905],[2.378361,49.84249],[2.375851,49.843057],[2.375851,49.843057],[2.376366,49.843444],[2.377267,49.844482],[2.377267,49.845008],[2.376902,49.845382],[2.375722,49.845755],[2.37525,49.84617],[2.375486,49.847513],[2.375894,49.84808],[2.376709,49.848979],[2.376924,49.849034],[2.37746,49.852452],[2.378855,49.853019],[2.379563,49.852355],[2.380743,49.851497],[2.381537,49.851248],[2.382352,49.85111],[2.384005,49.850418],[2.385507,49.849934],[2.386408,49.849685],[2.387245,49.84938],[2.388318,49.849256],[2.389047,49.849021],[2.389948,49.848107],[2.391708,49.847665],[2.392159,49.847222],[2.392738,49.847084],[2.394133,49.847014],[2.394519,49.846627],[2.395227,49.846309],[2.396364,49.847097],[2.397223,49.847457],[2.398789,49.847014],[2.398639,49.846447],[2.400205,49.844994],[2.401042,49.844496],[2.403531,49.844261],[2.405892,49.843984],[2.408402,49.843348],[2.409647,49.843043],[2.411256,49.842407],[2.421835,49.837051],[2.425053,49.838726],[2.426212,49.839556],[2.428165,49.839708],[2.429237,49.839431],[2.429688,49.838975],[2.430289,49.838739],[2.430933,49.837743],[2.431448,49.837383],[2.432091,49.837231],[2.434516,49.837508],[2.435074,49.837549],[2.436125,49.837826],[2.437284,49.838158],[2.438378,49.837798],[2.439172,49.838445],[2.439657,49.838152],[2.441962,49.837272],[2.442327,49.837245],[2.444108,49.839085],[2.446361,49.841189],[2.447648,49.842642],[2.449386,49.843818],[2.449944,49.844372],[2.450416,49.845105],[2.451403,49.844565],[2.452347,49.844358],[2.453635,49.843901],[2.454579,49.843777],[2.455888,49.843237],[2.45666,49.843112],[2.457025,49.843763],[2.456811,49.844275],[2.458077,49.844524],[2.459128,49.844468],[2.460737,49.845022],[2.460995,49.845312],[2.46093,49.847526],[2.461209,49.849408],[2.461124,49.851566],[2.461467,49.85277],[2.461295,49.854167],[2.460823,49.855343],[2.460415,49.858318],[2.460535,49.858776],[2.461112,49.859304],[2.461531,49.860116],[2.461038,49.861527],[2.462347,49.863228],[2.462347,49.865842],[2.462497,49.866174],[2.462475,49.86699],[2.463699,49.868996],[2.463505,49.869604],[2.460373,49.869577],[2.460626,49.869788],[2.463827,49.870877],[2.464965,49.873725],[2.4649,49.874486],[2.468999,49.876519],[2.472689,49.878399],[2.479792,49.882312],[2.481809,49.883819],[2.485478,49.886115],[2.486658,49.887621],[2.487238,49.888658],[2.487366,49.892211],[2.486701,49.893054],[2.486529,49.894727],[2.485778,49.897339],[2.485478,49.897823],[2.487785,49.898297],[2.488074,49.899675],[2.488396,49.900104],[2.488933,49.900629],[2.488675,49.901127],[2.494555,49.901071],[2.500005,49.901652],[2.504747,49.903849],[2.505863,49.904264],[2.507193,49.904582],[2.509682,49.904941],[2.509682,49.904941],[2.509618,49.905328],[2.509124,49.905439],[2.509682,49.90624],[2.508631,49.90776],[2.509039,49.908562],[2.508867,49.908921],[2.508888,49.909114],[2.508738,49.909363],[2.506464,49.90928],[2.505691,49.909418],[2.502344,49.911547],[2.501207,49.91203],[2.497909,49.913154],[2.494755,49.912753],[2.49203,49.912255],[2.491493,49.912946],[2.490849,49.913388],[2.489626,49.913969],[2.488317,49.914591],[2.487888,49.91495],[2.487974,49.915392],[2.488575,49.915876],[2.488632,49.91594],[2.489383,49.916604],[2.490006,49.917087],[2.491057,49.918179],[2.491036,49.918911],[2.489727,49.921467],[2.489641,49.922241],[2.490499,49.923498],[2.4911,49.925459],[2.491593,49.926178],[2.492087,49.927462],[2.492495,49.928968],[2.491765,49.930004],[2.491915,49.930405],[2.492559,49.931261],[2.492752,49.931979],[2.492538,49.932808],[2.492731,49.933485],[2.494919,49.935073],[2.495241,49.936012],[2.495542,49.936371],[2.49552,49.936813],[2.495263,49.937131],[2.495692,49.937711],[2.496014,49.937973],[2.496336,49.938595],[2.496057,49.939782],[2.495563,49.940694],[2.494683,49.941716],[2.494083,49.942323],[2.494469,49.943235],[2.493889,49.94648],[2.493889,49.94648],[2.492053,49.947319],[2.488684,49.949265],[2.485637,49.950273],[2.480766,49.950646],[2.478878,49.950315],[2.477977,49.949845],[2.47744,49.949721],[2.477204,49.950743],[2.476797,49.951875],[2.477698,49.953863],[2.477247,49.955409],[2.476153,49.957618],[2.475788,49.957936],[2.473385,49.959385],[2.472655,49.960144],[2.471089,49.961456],[2.461669,49.958764],[2.460746,49.959164],[2.459845,49.960807],[2.458879,49.961083],[2.458322,49.961442],[2.457399,49.961704],[2.456884,49.962063],[2.455768,49.962574],[2.453601,49.963098],[2.4527,49.963595],[2.451949,49.963678],[2.44961,49.964603],[2.449588,49.965334],[2.44888,49.965403],[2.44549,49.96539],[2.441821,49.965155],[2.436928,49.964755],[2.436649,49.965887],[2.435233,49.965859],[2.434546,49.965942],[2.433688,49.966176],[2.432765,49.967253],[2.432293,49.967557],[2.43195,49.969806],[2.4321,49.972042],[2.431736,49.972429],[2.431006,49.972843],[2.430598,49.974043],[2.429869,49.974857],[2.429654,49.975382],[2.426929,49.97621],[2.425534,49.976734],[2.424268,49.977024],[2.423861,49.977617],[2.422187,49.977797],[2.420492,49.97828],[2.419054,49.978459],[2.416393,49.979066],[2.415342,49.979149],[2.414054,49.979177],[2.411501,49.979549],[2.410042,49.980073],[2.409613,49.980322],[2.407939,49.980763],[2.406008,49.981081],[2.403926,49.981343],[2.403283,49.981743],[2.401931,49.982116],[2.401587,49.982447],[2.401051,49.982654],[2.399292,49.984144],[2.396352,49.985455],[2.391395,49.986531],[2.388412,49.987648],[2.387619,49.988573],[2.387447,49.990118],[2.386825,49.991125],[2.386031,49.991428],[2.384099,49.991925],[2.384207,49.992987],[2.389571,49.996505],[2.390086,49.997015],[2.391352,49.997884],[2.39191,49.998049],[2.392232,49.998381],[2.392318,49.999608],[2.392854,50.000339],[2.393498,50.000353],[2.393884,50.000491],[2.39427,50.001263],[2.394185,50.00158],[2.395107,50.001732],[2.39588,50.00227],[2.395923,50.002463],[2.396674,50.002684],[2.396395,50.00318],[2.397403,50.003787],[2.398133,50.004408],[2.398884,50.005511],[2.400279,50.007966],[2.400858,50.008393],[2.401287,50.008876],[2.400622,50.009896],[2.401545,50.010862],[2.401931,50.011496],[2.402424,50.012006],[2.402553,50.012379],[2.404248,50.014102],[2.404441,50.015081],[2.405171,50.015302],[2.406094,50.015812],[2.407059,50.018211],[2.409012,50.020017],[2.411394,50.021658],[2.411673,50.022678],[2.411952,50.022981],[2.412595,50.023395],[2.413346,50.024263],[2.413668,50.024277],[2.415814,50.024525],[2.413861,50.027489],[2.415342,50.027834],[2.416479,50.027903],[2.416608,50.027351],[2.417101,50.026676],[2.418046,50.026648],[2.419891,50.025931],[2.421157,50.027255],[2.421371,50.027848],[2.421393,50.028881],[2.421264,50.029157],[2.421093,50.029364],[2.419333,50.029198],[2.419848,50.029888],[2.421865,50.030439],[2.422337,50.030701],[2.42474,50.032865],[2.42562,50.033857],[2.426929,50.035732],[2.427058,50.036173],[2.428045,50.037455],[2.430062,50.038419],[2.431156,50.039274],[2.43268,50.040073],[2.434632,50.041424],[2.435963,50.042802],[2.436821,50.043904],[2.438366,50.045447],[2.438538,50.045392],[2.439568,50.04626],[2.439932,50.046798],[2.443516,50.049416],[2.444353,50.049636],[2.445211,50.050229],[2.447099,50.052075],[2.446863,50.05253],[2.447335,50.053136],[2.446241,50.05359],[2.443559,50.055202],[2.441649,50.056456],[2.440555,50.05709],[2.438516,50.05855],[2.436735,50.061553],[2.435898,50.063454],[2.438216,50.065989],[2.439353,50.067035],[2.439589,50.069046],[2.439332,50.069969],[2.438452,50.071085],[2.437336,50.071264],[2.436585,50.071525],[2.436134,50.072007],[2.43725,50.07388],[2.439417,50.074624],[2.440469,50.074817],[2.443366,50.076097],[2.444653,50.076566],[2.445232,50.076634],[2.446391,50.076524],[2.447271,50.077323],[2.447936,50.078783],[2.447936,50.078783],[2.449524,50.080242],[2.450382,50.081275],[2.451155,50.081895],[2.451734,50.082459],[2.453773,50.083519],[2.455403,50.083781],[2.456026,50.08407],[2.458665,50.086906],[2.463707,50.088324],[2.466068,50.090734],[2.466261,50.091147],[2.467463,50.092331],[2.467548,50.093005],[2.468192,50.093845],[2.469952,50.094781],[2.46993,50.095373],[2.470231,50.096061],[2.472333,50.095882],[2.472891,50.095689],[2.473728,50.095676],[2.474372,50.095813],[2.474586,50.096171],[2.474586,50.097135],[2.476239,50.097616],[2.47684,50.097974],[2.477419,50.098594],[2.478492,50.098181],[2.479028,50.098346],[2.481668,50.099695],[2.483513,50.099901],[2.485959,50.1037],[2.483255,50.105186],[2.481453,50.105792],[2.480273,50.106287],[2.479136,50.106398],[2.478706,50.106563],[2.477419,50.108214],[2.476561,50.108654],[2.47317,50.110898],[2.475745,50.113333],[2.47856,50.112705],[2.479405,50.114332],[2.480359,50.115163],[2.480573,50.117791],[2.481174,50.119305],[2.482204,50.119552],[2.484951,50.1198],[2.488191,50.119869],[2.489714,50.120048],[2.490808,50.12024],[2.489113,50.121066],[2.487611,50.121644],[2.48759,50.122125],[2.487955,50.12251],[2.487719,50.123776],[2.487418,50.124037],[2.487053,50.124945],[2.487268,50.125564],[2.487568,50.125702],[2.487568,50.126183],[2.487032,50.126913],[2.486817,50.127394],[2.486302,50.127889],[2.485723,50.128728],[2.484972,50.128935],[2.484414,50.12899],[2.484264,50.12888],[2.482011,50.129127],[2.481324,50.129581],[2.481088,50.130475],[2.480402,50.130943],[2.478814,50.131878],[2.478449,50.133102],[2.474415,50.132869],[2.473471,50.132882],[2.472784,50.132717],[2.471883,50.132098],[2.470939,50.131576],[2.470037,50.131411],[2.467784,50.130599],[2.465982,50.129829],[2.46463,50.12921],[2.463579,50.128866],[2.462463,50.128591],[2.461969,50.128288],[2.460682,50.128013],[2.460403,50.127738],[2.461025,50.127408],[2.460768,50.127325],[2.459468,50.127616],[2.458708,50.128233],[2.457098,50.128041],[2.456498,50.128082],[2.455661,50.128384],[2.454738,50.128494],[2.45476,50.130228],[2.45388,50.130475],[2.452249,50.130214],[2.452056,50.130434],[2.450833,50.130585],[2.448987,50.130572],[2.448279,50.130957],[2.447271,50.131067],[2.445533,50.130792],[2.444052,50.131025],[2.442142,50.131039],[2.44152,50.131204],[2.440941,50.131741],[2.439353,50.132332],[2.437486,50.133281],[2.437186,50.133584],[2.436649,50.135702],[2.436327,50.136307],[2.435576,50.136899],[2.435126,50.138013],[2.434182,50.139237],[2.433002,50.140282],[2.431714,50.140406],[2.430663,50.140158],[2.432165,50.141726],[2.431285,50.143335],[2.428646,50.145631],[2.427573,50.147378],[2.426564,50.148656],[2.425899,50.149309],[2.426049,50.150588],[2.425363,50.152238],[2.425298,50.153819],[2.426242,50.155538],[2.426242,50.156418],[2.425985,50.157146],[2.42474,50.157077],[2.423303,50.156486],[2.422337,50.156596],[2.422015,50.15705],[2.42047,50.157847],[2.419183,50.158658],[2.417531,50.160281],[2.415835,50.161215],[2.417531,50.161765],[2.419054,50.162617],[2.421779,50.164652],[2.428131,50.168253],[2.429783,50.169009],[2.431886,50.169614],[2.435512,50.169985],[2.434783,50.171469],[2.434546,50.172431],[2.435383,50.173544],[2.433449,50.174652],[2.432379,50.175537],[2.431993,50.175716],[2.430877,50.175922],[2.428731,50.177612],[2.426672,50.178478],[2.425813,50.178615],[2.425363,50.17889],[2.425148,50.179866],[2.423903,50.180649],[2.423517,50.181143],[2.422723,50.181267],[2.421715,50.18183],[2.421565,50.182147],[2.420642,50.182627],[2.420384,50.182957],[2.41811,50.183946],[2.417616,50.184702],[2.416797,50.184774],[2.413057,50.186607],[2.408894,50.189251],[2.403883,50.191887],[2.401995,50.193673],[2.402714,50.193853],[2.404015,50.193957],[2.404373,50.194727],[2.403918,50.19531],[2.40395,50.195727],[2.404731,50.19606],[2.406129,50.196393],[2.407008,50.196934],[2.41039,50.196851],[2.410879,50.19708],[2.412188,50.197313],[2.414999,50.197987],[2.415514,50.197437],[2.415771,50.196709],[2.415556,50.196118],[2.416136,50.195899],[2.41678,50.19583],[2.419247,50.194965],[2.420685,50.19583],[2.421178,50.196476],[2.421221,50.197162],[2.421629,50.197684],[2.421736,50.198618],[2.421264,50.199127],[2.421371,50.199731],[2.422187,50.200898],[2.421844,50.201736],[2.421844,50.202588],[2.421007,50.203041],[2.421736,50.203769],[2.423131,50.204785],[2.423667,50.20539],[2.423882,50.206214],[2.424654,50.206818],[2.42738,50.207944],[2.427701,50.207711],[2.427938,50.207711],[2.429847,50.209235],[2.430212,50.209482],[2.431864,50.210951],[2.43195,50.211322],[2.430815,50.212131],[2.430276,50.212901],[2.429611,50.213293],[2.428817,50.213993],[2.428431,50.214995],[2.426543,50.217275],[2.425706,50.217755],[2.424848,50.21781],[2.423968,50.218016],[2.422702,50.217947],[2.42208,50.217975],[2.420899,50.217961],[2.421114,50.218318],[2.420191,50.219815],[2.419118,50.221188],[2.417423,50.225045],[2.413947,50.22915],[2.412917,50.228834],[2.411823,50.22823],[2.411179,50.227516],[2.410364,50.22672],[2.409441,50.226212],[2.40869,50.225938],[2.408475,50.225677],[2.407596,50.225361],[2.405943,50.225018],[2.405278,50.225183],[2.404463,50.2244],[2.40251,50.223123],[2.401845,50.222519],[2.400965,50.221943],[2.39699,50.219789],[2.395299,50.219789],[2.393901,50.220435],[2.392827,50.220351],[2.391819,50.220039],[2.39029,50.219914],[2.388859,50.220601],[2.388455,50.221311],[2.386996,50.221998],[2.385709,50.222423],[2.385022,50.222272],[2.383005,50.222382],[2.377899,50.222349],[2.375817,50.222224],[2.37307,50.221641],[2.370971,50.224014],[2.370906,50.224929],[2.370191,50.226552],[2.370028,50.227655],[2.368565,50.231171],[2.367491,50.233127],[2.366547,50.235779],[2.365324,50.236699],[2.364916,50.237317],[2.364662,50.238827],[2.364304,50.23995],[2.363914,50.241614],[2.363166,50.243881],[2.362213,50.247828],[2.360625,50.251657],[2.360011,50.253386],[2.360271,50.255361],[2.360076,50.255902],[2.359198,50.256443],[2.35923,50.25687],[2.359638,50.257597],[2.359458,50.258688],[2.35897,50.259479],[2.358222,50.260269],[2.357363,50.260848],[2.357363,50.260848]]],"type":"MultiLineString"},"properties":{"geo_point":{"lon":2.3687106291276447,"lat":49.73401219035385},"name":"GR124 De Cires-lès-Mello (Oise) à Rebreuviette (Pas-de-Calais) (2020)","code_gr":"GR124"}}]}