{"type":"FeatureCollection","features":[{"type":"Feature","geometry":{"coordinates":[[[1.660707,50.88781],[1.660707,50.88781],[1.660707,50.88781],[1.662252,50.886849],[1.662853,50.886862],[1.663496,50.886632],[1.663067,50.885942],[1.663239,50.885495],[1.664355,50.88563],[1.665084,50.885116],[1.665406,50.885116],[1.665942,50.884398],[1.666286,50.884249],[1.66753,50.883139],[1.66914,50.882814],[1.669955,50.882652],[1.671371,50.881867],[1.672959,50.880323],[1.673732,50.879389],[1.674526,50.879105],[1.675169,50.87897],[1.675169,50.87897],[1.674104,50.877982],[1.673289,50.877549],[1.672924,50.877115],[1.672688,50.876371],[1.672345,50.875816],[1.673696,50.8748],[1.67537,50.872552],[1.677967,50.869262],[1.679726,50.867664],[1.680756,50.865809],[1.681958,50.865768],[1.684683,50.866228],[1.685412,50.866242],[1.686485,50.866689],[1.687987,50.867014],[1.688631,50.867054],[1.690798,50.86742],[1.691807,50.867623],[1.693781,50.867041],[1.695648,50.867339],[1.697214,50.867461],[1.698781,50.867271],[1.700261,50.86719],[1.70084,50.867041],[1.701913,50.866838],[1.706462,50.864414],[1.706462,50.864414],[1.709166,50.864684],[1.711891,50.864793],[1.712943,50.865213],[1.716462,50.865456],[1.717492,50.865714],[1.717856,50.865971],[1.716311,50.866283],[1.714552,50.866743],[1.712449,50.867109],[1.711398,50.867407],[1.710947,50.86742],[1.707406,50.869262],[1.705518,50.869898],[1.704166,50.870724],[1.703566,50.870521],[1.703437,50.871022],[1.703072,50.87132],[1.701892,50.871821],[1.701785,50.87262],[1.697772,50.873108],[1.698223,50.874286],[1.698437,50.87564],[1.698781,50.876493],[1.698802,50.877589],[1.698351,50.878171],[1.697376,50.878952],[1.697183,50.879832],[1.695445,50.883745],[1.693835,50.884841],[1.693299,50.887183],[1.69332,50.888239],[1.69214,50.888455],[1.691883,50.888753],[1.69169,50.889376],[1.691303,50.889782],[1.69169,50.890851],[1.692119,50.891555],[1.691625,50.891717],[1.689308,50.893748],[1.691797,50.894952],[1.69581,50.897727],[1.696046,50.898715],[1.697076,50.899703],[1.697676,50.90046],[1.697998,50.900975],[1.698792,50.9018],[1.700101,50.902869],[1.701002,50.903167],[1.702848,50.903505],[1.703663,50.90383],[1.704779,50.904466],[1.708899,50.905643],[1.710229,50.90586],[1.717847,50.910149],[1.718533,50.911542],[1.718962,50.911867],[1.719434,50.911935],[1.720894,50.912449],[1.721194,50.912706],[1.721838,50.913464],[1.722954,50.914032],[1.723619,50.914208],[1.723619,50.914208],[1.725023,50.914091],[1.726375,50.914266],[1.726246,50.914794],[1.724937,50.915213],[1.724122,50.915768],[1.724165,50.917417],[1.724873,50.918609],[1.726397,50.919935],[1.731546,50.924628],[1.731289,50.924966],[1.731096,50.925501],[1.733156,50.925785],[1.734271,50.926231],[1.734679,50.926745],[1.734744,50.927489],[1.735452,50.927759],[1.735709,50.927638],[1.73616,50.927813],[1.736739,50.927949],[1.738284,50.928814],[1.739078,50.929193],[1.7394,50.929585],[1.740065,50.929747],[1.740387,50.92991],[1.741889,50.93037],[1.742661,50.930478],[1.743627,50.930451],[1.7447,50.930194],[1.746331,50.92945],[1.747017,50.92945],[1.748069,50.929761],[1.748777,50.929558],[1.749957,50.928868],[1.750708,50.928273],[1.751609,50.928233],[1.752382,50.92849],[1.7556,50.929896],[1.756716,50.929693],[1.759227,50.929044],[1.760428,50.929206],[1.761866,50.929301],[1.763819,50.929761],[1.764806,50.929856],[1.766136,50.929842],[1.766801,50.929977],[1.767424,50.930153],[1.769655,50.930167],[1.770857,50.930045],[1.771629,50.930058],[1.772294,50.929937],[1.772745,50.929328],[1.77311,50.929166],[1.777273,50.929382],[1.777702,50.925163],[1.777423,50.924838],[1.776565,50.924175],[1.772616,50.920428],[1.771822,50.919211],[1.771737,50.917533],[1.771501,50.916559],[1.774161,50.916045],[1.77738,50.914408],[1.778689,50.913489],[1.782186,50.911879],[1.783345,50.911161],[1.782208,50.909836],[1.780899,50.90901],[1.774483,50.905952],[1.771543,50.90395],[1.769827,50.903205],[1.768904,50.904288],[1.768475,50.904112],[1.769119,50.903205],[1.770986,50.901419],[1.771393,50.900648],[1.771629,50.899904],[1.771114,50.89583],[1.770771,50.895072],[1.771114,50.894422],[1.772702,50.892771],[1.772724,50.891458],[1.773925,50.890023],[1.775492,50.889983],[1.777316,50.889062],[1.778474,50.888873],[1.781328,50.888047],[1.781886,50.887858],[1.782616,50.887262],[1.783023,50.886694],[1.783495,50.886166],[1.783538,50.885868],[1.784375,50.885191],[1.785169,50.88515],[1.785856,50.885029],[1.786478,50.884487],[1.797014,50.889469],[1.805339,50.893543],[1.809094,50.895722],[1.811111,50.894409],[1.811583,50.894233],[1.814201,50.892473],[1.815253,50.892297],[1.815253,50.892297],[1.815896,50.893773],[1.817356,50.894165],[1.817356,50.894165],[1.818171,50.892419],[1.819115,50.890849],[1.819587,50.88913],[1.819587,50.88913],[1.82051,50.888589],[1.821819,50.887411],[1.822033,50.887005],[1.830187,50.881333],[1.831711,50.880304],[1.83302,50.879546],[1.833835,50.878923],[1.835423,50.87807],[1.836324,50.877447],[1.841538,50.874279],[1.841538,50.874279],[1.843169,50.873196],[1.84347,50.871787],[1.843963,50.870582],[1.843942,50.869797],[1.843427,50.869255],[1.842987,50.868212],[1.841689,50.866086],[1.840551,50.864854],[1.839521,50.863391],[1.839521,50.863391],[1.833706,50.861766],[1.832676,50.8614],[1.832912,50.861211],[1.833878,50.861576],[1.835959,50.862104],[1.836496,50.861834],[1.837419,50.860601],[1.837494,50.860134],[1.837204,50.859748],[1.837633,50.859639],[1.836303,50.858109],[1.836195,50.857635],[1.836195,50.857635],[1.841603,50.853896],[1.840852,50.853422],[1.846967,50.850496],[1.848748,50.851959],[1.848641,50.851255],[1.84834,50.850618],[1.84937,50.849805],[1.850207,50.849371],[1.850486,50.849358],[1.851216,50.848979],[1.85246,50.848504],[1.852653,50.848233],[1.854649,50.847827],[1.855894,50.847461],[1.856366,50.847543],[1.856688,50.847529],[1.85716,50.847664],[1.857417,50.847637],[1.858039,50.847827],[1.858898,50.847773],[1.859177,50.847448],[1.859262,50.847299],[1.859134,50.847136],[1.866129,50.843762],[1.866322,50.843912],[1.866558,50.843749],[1.878081,50.838641],[1.877201,50.837407],[1.87718,50.836987],[1.876729,50.836134],[1.876708,50.835714],[1.876514,50.834995],[1.876471,50.834385],[1.876235,50.83406],[1.883316,50.830889],[1.882587,50.830374],[1.882544,50.829656],[1.882136,50.829114],[1.881879,50.828734],[1.881621,50.828463],[1.880634,50.827501],[1.880763,50.827121],[1.880935,50.826986],[1.88087,50.826836],[1.88484,50.825034],[1.876214,50.817348],[1.877051,50.81709],[1.878016,50.816399],[1.87851,50.816317],[1.878531,50.815612],[1.87821,50.814324],[1.87821,50.813769],[1.876772,50.813728],[1.87557,50.813755],[1.874562,50.81366],[1.873017,50.813714],[1.872673,50.813484],[1.872888,50.812575],[1.87233,50.811897],[1.870678,50.811599],[1.869433,50.81145],[1.868725,50.811016],[1.867953,50.811179],[1.867137,50.810474],[1.866687,50.809918],[1.866,50.809674],[1.865507,50.80966],[1.865657,50.809254],[1.866472,50.808738],[1.867631,50.808318],[1.868532,50.808047],[1.869798,50.807504],[1.871944,50.806894],[1.872695,50.806487],[1.873596,50.805809],[1.87469,50.804494],[1.875313,50.804453],[1.876193,50.804657],[1.877158,50.805118],[1.877995,50.805701],[1.880227,50.80166],[1.880012,50.801321],[1.88057,50.800778],[1.881214,50.799409],[1.882136,50.799693],[1.882651,50.798961],[1.882716,50.798418],[1.882458,50.798093],[1.882694,50.797808],[1.883209,50.797144],[1.883359,50.796493],[1.884218,50.795747],[1.884411,50.795041],[1.885891,50.793821],[1.886621,50.7934],[1.887823,50.792369],[1.889475,50.791406],[1.89029,50.791081],[1.891406,50.791094],[1.892136,50.791026],[1.893058,50.790782],[1.894088,50.790701],[1.894989,50.790728],[1.89765,50.790538],[1.898551,50.790525],[1.900096,50.790307],[1.901319,50.790253],[1.90177,50.789955],[1.902178,50.789616],[1.903766,50.78906],[1.905418,50.78887],[1.907735,50.788761],[1.908379,50.788395],[1.909624,50.788015],[1.912091,50.787784],[1.913379,50.787825],[1.91428,50.787879],[1.914967,50.787689],[1.915718,50.787717],[1.917949,50.787445],[1.91958,50.786943],[1.920889,50.786713],[1.923078,50.786441],[1.924429,50.786441],[1.92561,50.786808],[1.927026,50.787364],[1.927948,50.787472],[1.929429,50.787852],[1.930674,50.788259],[1.932991,50.789046],[1.933635,50.789412],[1.935244,50.787622],[1.935223,50.787296],[1.935266,50.786618],[1.935223,50.786034],[1.935544,50.785329],[1.936081,50.78537],[1.936703,50.785614],[1.937197,50.785058],[1.937712,50.784339],[1.93887,50.78343],[1.941767,50.782439],[1.943183,50.781313],[1.943999,50.781218],[1.94505,50.781856],[1.945737,50.782629],[1.946531,50.782806],[1.949406,50.784312],[1.952496,50.785641],[1.953118,50.785614],[1.955264,50.786048],[1.956444,50.786835],[1.95683,50.787608],[1.958354,50.787201],[1.958976,50.786821],[1.959212,50.786116],[1.961143,50.784841],[1.961937,50.784732],[1.963633,50.784854],[1.965306,50.784936],[1.966851,50.784936],[1.967366,50.785017],[1.96772,50.78472],[1.968055,50.783952],[1.96816,50.783258],[1.968839,50.783291],[1.97182,50.78404],[1.971994,50.784316],[1.971576,50.784657],[1.971088,50.7849],[1.970687,50.78555],[1.970548,50.786343],[1.970134,50.787065],[1.970005,50.787852],[1.968546,50.789914],[1.968439,50.790755],[1.96919,50.792071],[1.968654,50.792641],[1.967846,50.793053],[1.967323,50.793175],[1.966787,50.793414],[1.966916,50.793712],[1.968053,50.793617],[1.969083,50.793617],[1.96992,50.793414],[1.970156,50.793522],[1.970177,50.793739],[1.968804,50.79416],[1.968761,50.794472],[1.970778,50.795109],[1.971057,50.795367],[1.971192,50.797152],[1.971872,50.798804],[1.971959,50.799652],[1.971855,50.800456],[1.972378,50.802197],[1.972308,50.802615],[1.972029,50.803177],[1.971768,50.80451],[1.971829,50.805036],[1.971465,50.806135],[1.971701,50.806826],[1.971744,50.807708],[1.972108,50.808711],[1.972602,50.809159],[1.97258,50.809633],[1.970928,50.811233],[1.969126,50.812779],[1.968675,50.813985],[1.968761,50.815002],[1.96949,50.815138],[1.970542,50.815531],[1.973336,50.816812],[1.974662,50.816683],[1.976507,50.816141],[1.977365,50.816209],[1.978996,50.816168],[1.97949,50.81629],[1.981056,50.816168],[1.981528,50.815761],[1.983202,50.815382],[1.983824,50.815314],[1.985391,50.814718],[1.986807,50.815924],[1.987901,50.816385],[1.988652,50.817077],[1.994424,50.815314],[2.001205,50.814582],[2.002321,50.814229],[2.003286,50.813538],[2.004252,50.812453],[2.004896,50.810853],[2.008329,50.809891],[2.009337,50.809782],[2.011633,50.809511],[2.012577,50.809281],[2.013436,50.809281],[2.014981,50.809308],[2.016011,50.809023],[2.016848,50.808684],[2.018114,50.809118],[2.018414,50.809104],[2.018822,50.809389],[2.021418,50.81027],[2.021869,50.810338],[2.021919,50.81047],[2.021654,50.811043],[2.021908,50.810813],[2.02296,50.809199],[2.023821,50.808182],[2.024328,50.807199],[2.024574,50.806925],[2.02686,50.805552],[2.02822,50.803558],[2.028885,50.802826],[2.029872,50.802989],[2.030881,50.802975],[2.03204,50.803057],[2.032898,50.803531],[2.03352,50.80364],[2.034893,50.803694],[2.038455,50.804914],[2.039421,50.805145],[2.041202,50.805755],[2.041932,50.80646],[2.042811,50.806989],[2.043884,50.807816],[2.045236,50.808494],[2.045773,50.80863],[2.046395,50.808359],[2.04736,50.807382],[2.047446,50.806921],[2.047704,50.806731],[2.048498,50.806826],[2.048862,50.806352],[2.047768,50.805511],[2.048605,50.804887],[2.049246,50.804818],[2.050433,50.80451],[2.05284,50.804448],[2.054548,50.80449],[2.056776,50.804705],[2.058613,50.804942],[2.057979,50.805887],[2.064354,50.808415],[2.066175,50.807182],[2.066874,50.806771],[2.067476,50.806565],[2.068175,50.805661],[2.068582,50.805332],[2.068826,50.804931],[2.069557,50.804479],[2.069997,50.804017],[2.070826,50.803688],[2.071623,50.803575],[2.074891,50.803462],[2.076095,50.801972],[2.076371,50.801355],[2.076274,50.800707],[2.076583,50.800214],[2.077249,50.799896],[2.078225,50.799597],[2.079136,50.799227],[2.081055,50.798929],[2.083543,50.798128],[2.084779,50.797367],[2.085299,50.797192],[2.086031,50.797254],[2.087348,50.797655],[2.089169,50.79747],[2.089885,50.798117],[2.090665,50.798981],[2.091023,50.799536],[2.092178,50.800152],[2.092747,50.800194],[2.092942,50.799988],[2.094097,50.799166],[2.099154,50.801632],[2.100569,50.801694],[2.104179,50.801591],[2.107204,50.803112],[2.107545,50.803709],[2.107334,50.803986],[2.106049,50.804181],[2.105691,50.804459],[2.105756,50.804931],[2.105415,50.804849],[2.104098,50.805928],[2.103463,50.806216],[2.103057,50.806329],[2.102569,50.806853],[2.102569,50.807151],[2.103659,50.807943],[2.104016,50.808364],[2.104764,50.808939],[2.105155,50.809135],[2.105545,50.809443],[2.106374,50.809751],[2.108212,50.810614],[2.107431,50.811313],[2.112407,50.813481],[2.112506,50.813511],[2.11418,50.813782],[2.115059,50.814107],[2.116883,50.814514],[2.117141,50.814772],[2.116883,50.815545],[2.117055,50.815911],[2.117613,50.816304],[2.117978,50.817239],[2.117742,50.818568],[2.117441,50.81892],[2.117591,50.819476],[2.117548,50.819828],[2.117506,50.822119],[2.117827,50.822933],[2.1186,50.823028],[2.120703,50.823787],[2.122634,50.82479],[2.125102,50.82643],[2.12611,50.827609],[2.125316,50.828612],[2.123557,50.829479],[2.123278,50.829994],[2.123042,50.830875],[2.122419,50.831404],[2.121582,50.831797],[2.121132,50.832109],[2.120853,50.832773],[2.120252,50.833274],[2.118965,50.83383],[2.118943,50.834006],[2.119565,50.833857],[2.122291,50.834114],[2.124436,50.834819],[2.124565,50.833423],[2.125574,50.832488],[2.126389,50.832244],[2.140422,50.833938],[2.142826,50.834236],[2.145915,50.834453],[2.163082,50.831553],[2.164262,50.831431],[2.165463,50.831255],[2.169497,50.831174],[2.171064,50.830753],[2.176772,50.832597],[2.190547,50.833369],[2.192264,50.83406],[2.195805,50.834684],[2.199077,50.834152],[2.200053,50.835407],[2.200471,50.835605],[2.200855,50.835506],[2.201169,50.835043],[2.201362,50.834589],[2.201326,50.834145],[2.201062,50.833532],[2.201378,50.833183],[2.208123,50.832391],[2.209047,50.83107],[2.20936,50.830695],[2.209779,50.829749],[2.210879,50.830801],[2.211208,50.832071],[2.212756,50.831865],[2.213142,50.832719],[2.213357,50.833057],[2.213421,50.833342],[2.214215,50.834128],[2.215074,50.835321],[2.215739,50.836879],[2.216726,50.837286],[2.21737,50.837299],[2.21797,50.837136],[2.218378,50.83673],[2.219344,50.836229],[2.220438,50.836906],[2.221017,50.837353],[2.221661,50.837516],[2.222863,50.837651],[2.223356,50.837977],[2.22503,50.838383],[2.225652,50.838342],[2.22651,50.838505],[2.227369,50.838342],[2.235201,50.838329],[2.23754,50.83902],[2.238613,50.839589],[2.24005,50.842042],[2.240479,50.84215],[2.242432,50.841879],[2.242732,50.841486],[2.243762,50.83944],[2.244513,50.838342],[2.244041,50.837841],[2.248934,50.835293],[2.249878,50.834453],[2.249856,50.833884],[2.250243,50.833139],[2.250286,50.832258],[2.2505,50.831811],[2.251695,50.831851],[2.252759,50.831796],[2.254191,50.832014],[2.255156,50.83196],[2.256766,50.831648],[2.259169,50.831607],[2.258547,50.83093],[2.2558,50.828612],[2.255092,50.827907],[2.254363,50.826972],[2.255178,50.826945],[2.255092,50.826172],[2.255178,50.825766],[2.255671,50.825346],[2.256787,50.824031],[2.258311,50.823312],[2.260027,50.822147],[2.261315,50.821645],[2.262581,50.820235],[2.262752,50.819395],[2.263418,50.81789],[2.263718,50.816683],[2.26389,50.815151],[2.265757,50.809728],[2.26331,50.807423],[2.262001,50.805362],[2.262048,50.804995],[2.266636,50.806528],[2.268718,50.807477],[2.271878,50.809202],[2.275069,50.810664],[2.278181,50.812277],[2.280069,50.81305],[2.281292,50.813294],[2.282408,50.813402],[2.283545,50.812128],[2.284497,50.811228],[2.285068,50.810826],[2.286141,50.809728],[2.288287,50.808359],[2.289017,50.807694],[2.289317,50.807138],[2.289746,50.806759],[2.289618,50.806257],[2.289832,50.806148],[2.290132,50.805158],[2.291098,50.803884],[2.2923,50.803192],[2.29363,50.802189],[2.294467,50.801348],[2.294445,50.80048],[2.293845,50.799598],[2.294188,50.798188],[2.292643,50.797225],[2.292686,50.796533],[2.291613,50.795733],[2.291592,50.789005],[2.291656,50.787784],[2.294274,50.78773],[2.294317,50.787255],[2.294167,50.787133],[2.294188,50.785546],[2.293845,50.785505],[2.294145,50.779468],[2.294145,50.779468],[2.292709,50.778579],[2.291625,50.777761],[2.292277,50.776472],[2.29277,50.776228],[2.294744,50.776014],[2.295882,50.776011],[2.298021,50.776008],[2.300486,50.776803],[2.301866,50.777153],[2.305366,50.777052],[2.305415,50.777247],[2.305736,50.777301],[2.304882,50.78077],[2.304789,50.781243],[2.304143,50.782523],[2.304378,50.782625],[2.304061,50.783239],[2.305088,50.783711],[2.307061,50.78502],[2.307769,50.785847],[2.308544,50.786392],[2.308861,50.787065],[2.308656,50.787408],[2.308899,50.788317],[2.307442,50.788341],[2.307426,50.789429],[2.30719,50.790066],[2.306503,50.790568],[2.305645,50.791016],[2.305838,50.791585],[2.305816,50.793536],[2.30616,50.795912],[2.311417,50.796726],[2.314507,50.79735],[2.315258,50.797621],[2.317747,50.797336],[2.321073,50.796414],[2.32191,50.796238],[2.322918,50.796265],[2.32236,50.801785],[2.322586,50.803263],[2.3225,50.804307],[2.325997,50.804293],[2.327886,50.804131],[2.330225,50.804022],[2.331534,50.804144],[2.33325,50.804131],[2.3334,50.803371],[2.334688,50.803412],[2.334881,50.803141],[2.335589,50.803127],[2.337134,50.802761],[2.337263,50.802015],[2.337563,50.801107],[2.336941,50.799994],[2.337091,50.799452],[2.33634,50.798747],[2.335868,50.79853],[2.335653,50.798218],[2.336254,50.797296],[2.338464,50.795031],[2.34179,50.791043],[2.342842,50.790704],[2.351918,50.793973],[2.356467,50.795953],[2.358828,50.797499],[2.359815,50.797987],[2.36048,50.79853],[2.36078,50.798923],[2.362132,50.799683],[2.363033,50.799927],[2.363656,50.800333],[2.364814,50.800849],[2.365651,50.801107],[2.365716,50.801391],[2.36033,50.804144],[2.361856,50.805898],[2.361894,50.806252],[2.362099,50.806216],[2.362417,50.805496],[2.363594,50.804871],[2.364602,50.804269],[2.366545,50.805402],[2.366123,50.805731],[2.368055,50.807588],[2.36872,50.808402],[2.369449,50.809026],[2.369428,50.809568],[2.368999,50.810856],[2.36872,50.811426],[2.369235,50.811778],[2.369363,50.812795],[2.369363,50.813581],[2.369707,50.81407],[2.371102,50.813853],[2.372904,50.815005],[2.373462,50.815574],[2.374148,50.815995],[2.37505,50.816944],[2.375929,50.817378],[2.377088,50.817703],[2.378826,50.818096],[2.381981,50.818598],[2.382624,50.818598],[2.383804,50.817676],[2.38477,50.81651],[2.386229,50.816632],[2.387109,50.816862],[2.388225,50.816876],[2.389727,50.81731],[2.390904,50.81632],[2.392259,50.815602],[2.392884,50.815376],[2.393743,50.814739],[2.39449,50.81472],[2.396164,50.814897],[2.39728,50.81533],[2.39861,50.815656],[2.399404,50.816008],[2.400069,50.816442],[2.400692,50.816645],[2.401013,50.817093],[2.401679,50.816984],[2.403202,50.816374],[2.40464,50.816063],[2.408631,50.8143],[2.408824,50.813934],[2.40921,50.813988],[2.410605,50.814029],[2.411721,50.813948],[2.41348,50.81327],[2.414274,50.813175],[2.416377,50.812524],[2.418459,50.812253],[2.41921,50.812009],[2.421098,50.811724],[2.422214,50.811588],[2.421956,50.8111],[2.424617,50.810531],[2.424617,50.810531],[2.42584,50.810544],[2.426612,50.810436],[2.4276,50.810395],[2.429059,50.810192],[2.430303,50.809799],[2.432578,50.809663],[2.433586,50.809297],[2.435432,50.809121],[2.435732,50.809853],[2.435818,50.810653],[2.43526,50.811344],[2.436354,50.81289],[2.437363,50.8151],[2.437384,50.816252],[2.437813,50.817594],[2.437878,50.818435],[2.440603,50.816645],[2.442899,50.818164],[2.443028,50.818896],[2.443864,50.819533],[2.447362,50.823125],[2.449508,50.824142],[2.450473,50.822556],[2.452126,50.823369],[2.453692,50.82444],[2.45601,50.82383],[2.457447,50.82322],[2.457941,50.823152],[2.459207,50.822407],[2.463949,50.820075],[2.465558,50.819994],[2.468219,50.81876],[2.467382,50.818462],[2.46676,50.818137],[2.465773,50.81731],[2.464979,50.816957],[2.463026,50.816523],[2.464743,50.815168],[2.464357,50.814869],[2.465129,50.814354],[2.466524,50.812849],[2.467747,50.812171],[2.468004,50.811941],[2.466438,50.810449],[2.466009,50.810219],[2.465301,50.809121],[2.465045,50.80892],[2.465623,50.807683],[2.465987,50.807263],[2.466674,50.806761],[2.469056,50.805392],[2.468906,50.804931],[2.467597,50.804076],[2.466438,50.803642],[2.465751,50.802653],[2.465944,50.802069],[2.466653,50.802056],[2.46676,50.800713],[2.466707,50.800255],[2.4671,50.7997],[2.468948,50.800361],[2.469304,50.800278],[2.469808,50.800396],[2.470172,50.800876],[2.470601,50.800862],[2.471051,50.800713],[2.471438,50.800781],[2.471867,50.801052],[2.472296,50.800944],[2.472704,50.800442],[2.473068,50.800388],[2.473369,50.800469],[2.473669,50.799601],[2.473669,50.799072],[2.474034,50.79815],[2.47442,50.798028],[2.47515,50.798136],[2.4756,50.798313],[2.475815,50.798272],[2.476459,50.797363],[2.477124,50.797051],[2.477746,50.796577],[2.479978,50.798082],[2.48133,50.799452],[2.482123,50.799886],[2.48266,50.799994],[2.484312,50.799289],[2.485407,50.799181],[2.487347,50.798469],[2.487856,50.798941],[2.487572,50.799076],[2.488135,50.799531],[2.4882,50.799591],[2.48856,50.799519],[2.489,50.79932],[2.48935,50.79953],[2.49005,50.79953],[2.49045,50.799461],[2.49105,50.799171],[2.49156,50.799229],[2.49215,50.798759],[2.49294,50.798382],[2.49351,50.798698],[2.49514,50.799198],[2.49556,50.799042],[2.49646,50.798969],[2.49692,50.79884],[2.49701,50.798618],[2.4975,50.79837],[2.499082,50.798457],[2.49915,50.797771],[2.50018,50.797901],[2.50145,50.797749],[2.50179,50.797668],[2.50273,50.79726],[2.50329,50.79731],[2.50364,50.79715],[2.50397,50.797279],[2.5048,50.796989],[2.505262,50.797532],[2.506173,50.797665],[2.50715,50.79792],[2.5083,50.79858],[2.50873,50.799068],[2.50925,50.79929],[2.50993,50.79982],[2.51017,50.800179],[2.51021,50.800388],[2.51007,50.80077],[2.51069,50.801319],[2.5111,50.801498],[2.51141,50.801739],[2.51169,50.802269],[2.51348,50.803051],[2.51607,50.803619],[2.51637,50.80304],[2.51742,50.802818],[2.51828,50.802811],[2.51967,50.803139],[2.5202,50.803188],[2.52103,50.802891],[2.52268,50.802792],[2.52495,50.802811],[2.52556,50.802872],[2.52608,50.802471],[2.52694,50.802189],[2.52844,50.801868],[2.529394,50.801879],[2.530386,50.801602],[2.532972,50.800368],[2.53488,50.799671],[2.535883,50.799371],[2.5366,50.798691],[2.53839,50.798931],[2.53866,50.79916],[2.539396,50.799279],[2.5399,50.798662],[2.53868,50.79859],[2.538602,50.798459],[2.538989,50.797397],[2.539574,50.79638],[2.541038,50.796134],[2.542817,50.79611],[2.54337,50.795609],[2.54469,50.795799],[2.54618,50.795559],[2.55278,50.796841],[2.55597,50.79694],[2.55656,50.796841],[2.55652,50.797089],[2.55772,50.79747],[2.55903,50.798038],[2.55957,50.79834],[2.56245,50.799381],[2.56478,50.80011],[2.56517,50.801601],[2.56546,50.801689],[2.56604,50.80175],[2.56824,50.802761],[2.57247,50.804279],[2.572716,50.80414],[2.573545,50.804366],[2.574977,50.805425],[2.57518,50.805779],[2.57564,50.805924],[2.57507,50.806259],[2.57556,50.806499],[2.5761,50.80661],[2.576372,50.80728],[2.5769,50.807759],[2.576999,50.808334],[2.577209,50.808983],[2.581388,50.809384],[2.58312,50.809433],[2.58318,50.80814],[2.58399,50.806702],[2.58435,50.806889],[2.58475,50.80727],[2.58619,50.806541],[2.58883,50.806461],[2.59104,50.804821],[2.59195,50.80447],[2.59343,50.803268],[2.59459,50.802559],[2.59549,50.802341],[2.59657,50.801819],[2.59839,50.80106],[2.59987,50.800098],[2.60017,50.799789],[2.60034,50.799419],[2.60099,50.798531],[2.60189,50.7985],[2.6022,50.798382],[2.60303,50.79789],[2.6031,50.797531],[2.6034,50.797009],[2.60509,50.795109],[2.6054,50.794418],[2.60571,50.794151],[2.60659,50.793919],[2.60677,50.793739],[2.6069,50.793221],[2.60726,50.792751],[2.6073,50.790821],[2.60718,50.79023],[2.60646,50.789589],[2.60649,50.789299],[2.60732,50.78796],[2.607403,50.787519],[2.605354,50.784918],[2.604898,50.78462],[2.603825,50.784311],[2.602914,50.783684],[2.601115,50.782861],[2.6,50.781856],[2.598756,50.78104],[2.597239,50.779428],[2.596929,50.778732],[2.595792,50.778883],[2.595255,50.7788],[2.595873,50.777669],[2.59436,50.777481],[2.5943,50.77718],[2.59329,50.77565],[2.59258,50.77515],[2.59206,50.775002],[2.592035,50.77481],[2.59061,50.773079],[2.59213,50.773289],[2.59426,50.773739],[2.59532,50.77372],[2.596296,50.773844],[2.59715,50.77383],[2.59839,50.774101],[2.59969,50.773918],[2.60057,50.774052],[2.601597,50.773803],[2.603162,50.773229],[2.59946,50.771832],[2.597206,50.771005],[2.59894,50.76886],[2.599943,50.767673],[2.601809,50.765781],[2.610591,50.772691],[2.617536,50.773447],[2.619606,50.77336],[2.621492,50.77317],[2.62199,50.773412],[2.623263,50.774363],[2.623033,50.774959],[2.623632,50.77769],[2.626478,50.777649],[2.627161,50.777823],[2.627844,50.778235],[2.62998,50.780239],[2.628397,50.781371],[2.628364,50.781926],[2.63123,50.78307],[2.6341,50.784489],[2.63666,50.78616],[2.64135,50.7896],[2.64305,50.791031],[2.64408,50.791771],[2.64391,50.791931],[2.64476,50.79269],[2.64531,50.793331],[2.64571,50.793369],[2.64739,50.79475],[2.647685,50.794759],[2.647616,50.794999],[2.64849,50.795399],[2.648692,50.795661],[2.64878,50.795959],[2.65053,50.797428],[2.65287,50.795849],[2.65287,50.79562],[2.65238,50.795361],[2.65236,50.795151],[2.65273,50.794941],[2.65301,50.794651],[2.65354,50.794441],[2.65389,50.794209],[2.65474,50.79269],[2.65555,50.791431],[2.65609,50.790859],[2.65695,50.7896],[2.65724,50.788681],[2.65758,50.788101],[2.65692,50.787701],[2.657375,50.787129],[2.658156,50.78719],[2.659798,50.786491],[2.660595,50.787015],[2.661034,50.787098],[2.661376,50.787581],[2.662173,50.787694],[2.662498,50.787303],[2.662595,50.786933],[2.663474,50.78756],[2.664417,50.787807],[2.665035,50.789164],[2.66549,50.789637],[2.665913,50.789925],[2.665994,50.79011],[2.666775,50.790028],[2.666905,50.78974],[2.666905,50.789349],[2.667181,50.789287],[2.668515,50.789421],[2.668677,50.789072],[2.668824,50.787982],[2.669279,50.787715],[2.669962,50.787725],[2.670482,50.787098],[2.67284,50.787643],[2.674402,50.788064],[2.67554,50.788198],[2.677898,50.78828],[2.67889,50.788434],[2.679914,50.789185],[2.680988,50.789298],[2.682256,50.789339],[2.682988,50.789658],[2.68372,50.790089],[2.684695,50.789986],[2.685134,50.789801],[2.687444,50.790418],[2.688175,50.790542],[2.688696,50.790357],[2.68998,50.790367],[2.692095,50.790213],[2.693607,50.790028],[2.693851,50.790151],[2.694013,50.790017],[2.695298,50.790285],[2.696599,50.79048],[2.698583,50.790901],[2.700177,50.790994],[2.70029,50.79097],[2.70137,50.79071],[2.70244,50.790218],[2.70176,50.78949],[2.70038,50.788811],[2.69976,50.788601],[2.69977,50.788441],[2.70092,50.787251],[2.70186,50.786179],[2.70242,50.7854],[2.70242,50.784962],[2.70213,50.783901],[2.70246,50.78339],[2.70292,50.783009],[2.70592,50.78376],[2.70728,50.783642],[2.70808,50.78363],[2.7096,50.78376],[2.71044,50.783981],[2.71154,50.784149],[2.71251,50.784359],[2.71369,50.7845],[2.71443,50.78484],[2.71581,50.784241],[2.71614,50.784199],[2.71842,50.78474],[2.71972,50.784031],[2.72142,50.782951],[2.72165,50.783058],[2.72238,50.7826],[2.7237,50.781509],[2.72511,50.78064],[2.72604,50.780399],[2.728444,50.780138],[2.728645,50.780005],[2.729365,50.779853],[2.729425,50.779771],[2.73097,50.77956],[2.731417,50.779398],[2.731958,50.778784],[2.733139,50.778062],[2.7336,50.777729],[2.73382,50.777372],[2.7314,50.776798],[2.73125,50.77634],[2.73102,50.776348],[2.73057,50.775761],[2.73029,50.775661],[2.72967,50.77504],[2.72936,50.774948],[2.72908,50.774738],[2.72881,50.774261],[2.7287,50.77396],[2.7287,50.773899],[2.72853,50.773369],[2.72928,50.773312],[2.72972,50.77309],[2.730081,50.773033],[2.73187,50.773121],[2.7326,50.773251],[2.73362,50.773258],[2.73383,50.77317],[2.73368,50.772968],[2.73255,50.772148],[2.73162,50.77174],[2.73182,50.77058],[2.73228,50.768929],[2.73228,50.768509],[2.73216,50.767872],[2.73267,50.766861],[2.73174,50.76659],[2.72943,50.766232],[2.72906,50.766029],[2.72911,50.765659],[2.72898,50.765049],[2.73045,50.762348],[2.72947,50.761951],[2.73045,50.760929],[2.73154,50.760029],[2.73269,50.758671],[2.73288,50.758659],[2.73388,50.75576],[2.7348,50.754059],[2.73522,50.75346],[2.7359,50.752689],[2.73731,50.75251],[2.73802,50.752201],[2.74014,50.752838],[2.74134,50.753399],[2.74322,50.754028],[2.74461,50.754681],[2.74585,50.755531],[2.74651,50.755859],[2.74768,50.756142],[2.74842,50.756229],[2.74906,50.756229],[2.74944,50.756142],[2.74935,50.755878],[2.74929,50.754452],[2.74917,50.754101],[2.74995,50.75425],[2.75301,50.755421],[2.75404,50.755939],[2.75614,50.756618],[2.75662,50.756889],[2.75838,50.757359],[2.75894,50.75745],[2.76071,50.757511],[2.76168,50.757809],[2.7622,50.75782],[2.7631,50.757549],[2.76329,50.757278],[2.7637,50.75692],[2.76395,50.756481],[2.76432,50.756088],[2.76458,50.75573],[2.76481,50.755531],[2.7628,50.75489],[2.76285,50.754669],[2.76411,50.753899],[2.7629,50.75285],[2.76144,50.751781],[2.761,50.751259],[2.76068,50.751147],[2.760701,50.750332],[2.76005,50.750278],[2.75987,50.74995],[2.75945,50.749691],[2.75867,50.748699],[2.75881,50.748199],[2.76334,50.749458],[2.7643,50.74966],[2.76587,50.749908],[2.76729,50.747532],[2.76719,50.746349],[2.76722,50.746151],[2.76689,50.74609],[2.76697,50.743801],[2.76943,50.744209],[2.77138,50.74485],[2.77401,50.745621],[2.77411,50.744438],[2.77428,50.74395],[2.77494,50.743301],[2.7754,50.742691],[2.77659,50.742729],[2.77754,50.742649],[2.77891,50.74263],[2.78011,50.74279],[2.78384,50.744362]]],"type":"MultiLineString"},"properties":{"geo_point":{"lon":2.1968976325384064,"lat":50.82080316697321},"name":"GR128 De Wissant (Pas-de-Calais) à Bailleul (Nord) (2019)","code_gr":"GR128"}}]}