{"type":"FeatureCollection","features":[{"type":"Feature","geometry":{"coordinates":[[[3.624849,49.973221],[3.625214,49.972476],[3.626909,49.971744],[3.629355,49.970254],[3.629527,49.970723],[3.629377,49.971565],[3.62987,49.972255],[3.629312,49.97289],[3.629291,49.973152],[3.630685,49.973732],[3.632466,49.975043],[3.635792,49.976823],[3.636114,49.97703],[3.6362,49.977899],[3.63738,49.978851],[3.638174,49.979886],[3.639784,49.979362],[3.642659,49.979003],[3.64532,49.978962],[3.651049,49.978451],[3.652787,49.978437],[3.657872,49.977665],[3.659846,49.97754],[3.662293,49.97743],[3.664825,49.977485],[3.665833,49.977361],[3.66652,49.977057],[3.667528,49.976395],[3.668966,49.977223],[3.669974,49.977416],[3.670339,49.977361],[3.671112,49.97754],[3.672185,49.977996],[3.6727,49.977872],[3.673386,49.978037],[3.675038,49.977306],[3.676819,49.977223],[3.680102,49.977665],[3.680811,49.977637],[3.681948,49.977416],[3.683321,49.976699],[3.683836,49.975981],[3.686218,49.976022],[3.686819,49.975871],[3.687763,49.975443],[3.687806,49.974629],[3.688514,49.97387],[3.688385,49.973387],[3.689544,49.973456],[3.690509,49.973262],[3.691604,49.972848],[3.69229,49.972407],[3.694179,49.972089],[3.695745,49.971399],[3.696303,49.971317],[3.701689,49.96915],[3.704114,49.968598],[3.705659,49.968556],[3.707053,49.968018],[3.71216,49.966693],[3.713705,49.9665],[3.714821,49.966569],[3.715851,49.966748],[3.720207,49.96592],[3.723361,49.964319],[3.72658,49.963159],[3.727739,49.963132],[3.730163,49.963449],[3.73306,49.964153],[3.735077,49.964291],[3.741579,49.964581],[3.745312,49.964954],[3.748102,49.964802],[3.749582,49.965189],[3.750398,49.96512],[3.752114,49.96483],[3.753466,49.965037],[3.756814,49.965106],[3.761105,49.964153],[3.7625,49.96414],[3.764431,49.964264],[3.765504,49.964623],[3.766341,49.96512],[3.766834,49.965189],[3.767457,49.964705],[3.769259,49.964126],[3.768379,49.962304],[3.768229,49.960937],[3.76868,49.960123],[3.770117,49.958466],[3.771598,49.958218],[3.772542,49.958273],[3.774602,49.958866],[3.776469,49.95877],[3.782713,49.958038],[3.785181,49.95819],[3.787605,49.957914],[3.788957,49.9579],[3.790824,49.958024],[3.792605,49.958259],[3.795223,49.958052],[3.796811,49.957873],[3.798227,49.957928],[3.799665,49.958218],[3.802776,49.959598],[3.804128,49.95986],[3.805437,49.959805],[3.807132,49.959998],[3.808376,49.960344],[3.809964,49.960633],[3.810887,49.960992],[3.811509,49.961117],[3.817088,49.962649],[3.822539,49.964485],[3.824234,49.965092],[3.826701,49.966238],[3.829856,49.967245],[3.830821,49.966389],[3.830886,49.966196],[3.832152,49.965423],[3.833868,49.964899],[3.832152,49.963532],[3.831508,49.963201],[3.830199,49.962386],[3.831122,49.962594],[3.830135,49.960592],[3.830135,49.960592],[3.83007,49.95964],[3.829813,49.958466],[3.829426,49.957665],[3.829298,49.957113],[3.827259,49.954835],[3.82683,49.953496],[3.825564,49.951108],[3.82565,49.950901],[3.828911,49.950693],[3.83095,49.95068],[3.832152,49.950818],[3.833053,49.949851],[3.833654,49.948484],[3.834812,49.948622],[3.835542,49.948484],[3.837559,49.947918],[3.838696,49.947725],[3.840241,49.946993],[3.839726,49.944922],[3.84258,49.939564],[3.843674,49.939384],[3.848159,49.939619],[3.861313,49.940572],[3.864724,49.942298],[3.866741,49.943113],[3.867492,49.943292],[3.86878,49.943334],[3.870217,49.943997],[3.871119,49.943748],[3.872985,49.9439],[3.874874,49.944011],[3.875603,49.944356],[3.876676,49.944535],[3.878307,49.944411],[3.878994,49.944646],[3.879401,49.944673],[3.880796,49.944245],[3.883371,49.943955],[3.884204,49.94443],[3.885179,49.945602],[3.887033,49.94692],[3.888306,49.947559],[3.890087,49.948043],[3.889379,49.947283],[3.890345,49.947021],[3.89013,49.945668],[3.890409,49.944839],[3.891267,49.94303],[3.891418,49.942077],[3.891804,49.941235],[3.89086,49.938804],[3.890667,49.937962],[3.891099,49.936539],[3.890667,49.935338],[3.889744,49.934882],[3.889315,49.934551],[3.887469,49.932023],[3.887427,49.93125],[3.887126,49.930656],[3.887427,49.929012],[3.887427,49.928266],[3.887663,49.927589],[3.888628,49.92676],[3.889122,49.925103],[3.891654,49.923542],[3.892533,49.923141],[3.892834,49.922616],[3.892812,49.922257],[3.893242,49.922823],[3.893714,49.924053],[3.894293,49.924509],[3.894293,49.924868],[3.894722,49.925324],[3.894679,49.925821],[3.895044,49.926277],[3.896117,49.927106],[3.895859,49.925393],[3.89601,49.924868],[3.896052,49.924343],[3.895859,49.924066],[3.895344,49.92379],[3.895924,49.921055],[3.896718,49.92035],[3.897276,49.919535],[3.897336,49.919247],[3.897014,49.918943],[3.896649,49.918418],[3.896949,49.917727],[3.895774,49.917186],[3.896074,49.916454],[3.895984,49.915889],[3.896177,49.91571],[3.897378,49.915544],[3.897808,49.915226],[3.898151,49.914494],[3.89749,49.91358],[3.897061,49.912502],[3.896589,49.912129],[3.895259,49.911494],[3.895366,49.910817],[3.894829,49.909186],[3.894482,49.907695],[3.891933,49.907403],[3.892254,49.908675],[3.891761,49.909656],[3.891654,49.910361],[3.890924,49.910761],[3.89086,49.911659],[3.890473,49.911936],[3.889203,49.912021],[3.888023,49.912366],[3.887529,49.912919],[3.886392,49.912753],[3.885963,49.912836],[3.884826,49.913402],[3.884203,49.913402],[3.884058,49.913166],[3.883903,49.912794],[3.881414,49.912076],[3.877144,49.911772],[3.87541,49.911245],[3.875084,49.911426],[3.875084,49.91162],[3.875191,49.911896],[3.875084,49.912228],[3.874848,49.912311],[3.874483,49.912214],[3.873324,49.911523],[3.87296,49.911233],[3.871994,49.911357],[3.871629,49.911606],[3.870835,49.911827],[3.869162,49.91191],[3.868346,49.912048],[3.867595,49.912532],[3.864934,49.913983],[3.860428,49.914314],[3.858948,49.914204],[3.85618,49.914079],[3.856823,49.909174],[3.857381,49.906562],[3.857059,49.905802],[3.858197,49.90565],[3.859377,49.905291],[3.860729,49.904544],[3.861866,49.904116],[3.870492,49.901919],[3.872852,49.900799],[3.873732,49.900467],[3.873196,49.899804],[3.873067,49.898864],[3.873475,49.898643],[3.873239,49.898159],[3.876843,49.897275],[3.878496,49.897164],[3.880641,49.895948],[3.881328,49.895464],[3.882916,49.894842],[3.88401,49.894275],[3.884933,49.893515],[3.885148,49.893141],[3.885813,49.893072],[3.886392,49.891496],[3.886328,49.891179],[3.885963,49.890902],[3.885963,49.889036],[3.887444,49.88746],[3.887658,49.886893],[3.887937,49.884515],[3.889782,49.886464],[3.890212,49.887114],[3.891156,49.888137],[3.894696,49.889423],[3.901477,49.89169],[3.903773,49.887888],[3.903837,49.886962],[3.904116,49.886229],[3.904889,49.885192],[3.905082,49.884335],[3.905318,49.883948],[3.906112,49.88345],[3.906949,49.883105],[3.907313,49.883049],[3.907163,49.882289],[3.907743,49.882317],[3.908665,49.882773],[3.91609,49.886036],[3.916154,49.885317],[3.919437,49.882814],[3.919694,49.882303],[3.920124,49.882165],[3.922698,49.883727],[3.927891,49.886437],[3.928621,49.888621],[3.928921,49.890239],[3.929286,49.890847],[3.930252,49.890639],[3.930573,49.89075],[3.931003,49.89169],[3.931518,49.892229],[3.932161,49.892132],[3.932698,49.892381],[3.933728,49.892616],[3.934307,49.893031],[3.935165,49.893418],[3.935595,49.893432],[3.935852,49.893349],[3.936646,49.893667],[3.938019,49.893238],[3.939865,49.892547],[3.940294,49.892533],[3.941066,49.892906],[3.942525,49.892616],[3.94274,49.892284],[3.944285,49.892132],[3.945122,49.891884],[3.94922,49.88822],[3.948855,49.887999],[3.948233,49.887833],[3.947825,49.886879],[3.947031,49.886381],[3.946989,49.885939],[3.947546,49.88457],[3.948855,49.883796],[3.949821,49.882731],[3.950658,49.881459],[3.953598,49.878957],[3.955507,49.879952],[3.956301,49.880104],[3.958318,49.881971],[3.959112,49.883796],[3.959949,49.884874],[3.960271,49.8854],[3.965271,49.884017],[3.96452,49.882925],[3.964369,49.882289],[3.964648,49.881404],[3.964777,49.880519],[3.96497,49.877408],[3.965871,49.876316],[3.966644,49.873273],[3.967953,49.870673],[3.96821,49.86994],[3.968961,49.868765],[3.969369,49.867893],[3.969004,49.866856],[3.96939,49.865694],[3.969433,49.86521],[3.969584,49.865127],[3.969862,49.864602],[3.970721,49.863218],[3.971086,49.862292],[3.971944,49.861517],[3.973253,49.859166],[3.974926,49.859318],[3.976729,49.856745],[3.97542,49.856288],[3.958104,49.847503],[3.958147,49.847198],[3.959155,49.845303],[3.959734,49.84367],[3.959756,49.843241],[3.959348,49.842189],[3.958576,49.840902],[3.959219,49.840044],[3.959434,49.839546],[3.961601,49.840072],[3.962824,49.840197],[3.963983,49.8401],[3.965721,49.840556],[3.970399,49.840944],[3.972244,49.841442],[3.975184,49.842729],[3.976536,49.843089],[3.977201,49.843407],[3.977995,49.843103],[3.978317,49.842812],[3.978896,49.841747],[3.979454,49.841428],[3.979626,49.84093],[3.980312,49.840819],[3.98057,49.840432],[3.979969,49.839366],[3.979454,49.838979],[3.979475,49.838799],[3.980377,49.838079],[3.979433,49.837789],[3.978724,49.837235],[3.978488,49.83628],[3.978617,49.835464],[3.978939,49.834813],[3.979647,49.834633],[3.980591,49.834301],[3.983359,49.832557],[3.991857,49.829],[3.991857,49.82781],[3.988659,49.824917],[3.988016,49.823948],[3.986385,49.817579],[3.986278,49.816555],[3.986235,49.816347],[3.986578,49.816042],[3.988509,49.815779],[3.989046,49.815475],[3.989282,49.815018],[3.989067,49.814547],[3.987029,49.813273],[3.9869,49.812886],[3.986964,49.81229],[3.988273,49.811986],[3.992372,49.811459],[3.99368,49.811044],[3.995354,49.810365],[3.997693,49.809258],[4.000225,49.808455],[4.003701,49.807831],[4.004817,49.807762],[4.008572,49.808718],[4.01031,49.808925],[4.013937,49.809715],[4.01546,49.809507],[4.01679,49.80833],[4.020374,49.809798],[4.020867,49.809825],[4.021425,49.809701],[4.021962,49.808953],[4.024,49.809452],[4.025567,49.81013],[4.026039,49.810684],[4.027262,49.81103],[4.02827,49.811764],[4.028785,49.81247],[4.030759,49.813204],[4.032991,49.81463],[4.033763,49.814907],[4.03475,49.814976],[4.038506,49.814547],[4.039707,49.814644],[4.038463,49.81301],[4.037325,49.810199],[4.037454,49.809188],[4.037304,49.808607],[4.037347,49.80743],[4.03704,49.80676],[4.037218,49.806332],[4.037405,49.806103],[4.037729,49.804681],[4.03873,49.801632],[4.040052,49.802601],[4.040952,49.802924],[4.043875,49.80357],[4.045597,49.803557],[4.047599,49.803803],[4.055407,49.804126],[4.055588,49.803557],[4.055668,49.801141],[4.056869,49.801063],[4.05793,49.80074],[4.058511,49.799383],[4.059592,49.798388],[4.061954,49.796773],[4.064257,49.787441],[4.065498,49.787661],[4.068681,49.788385],[4.069862,49.788553],[4.071464,49.788656],[4.072966,49.788979],[4.074047,49.789057],[4.076069,49.78907],[4.078291,49.788837],[4.079312,49.788889],[4.080393,49.788811],[4.081214,49.788966],[4.081114,49.788643],[4.080233,49.788113],[4.079652,49.78757],[4.078231,49.786885],[4.07705,49.786614],[4.075148,49.784959],[4.070943,49.784946],[4.071124,49.781973],[4.070303,49.781456],[4.070003,49.781185],[4.070023,49.780836],[4.069882,49.780487],[4.069962,49.780241],[4.070763,49.779788],[4.071104,49.778043],[4.070984,49.77728],[4.070903,49.777125],[4.070903,49.776776],[4.071144,49.776505],[4.071424,49.775794],[4.071104,49.775354],[4.071024,49.774927],[4.071464,49.774371],[4.072045,49.774281],[4.078331,49.770958],[4.080754,49.770053],[4.082816,49.769471],[4.084017,49.768954],[4.085879,49.767867],[4.087561,49.766872],[4.089102,49.766148],[4.090424,49.765824],[4.091325,49.76585],[4.095028,49.766755],[4.100394,49.76832],[4.101855,49.766471],[4.102236,49.76563],[4.101916,49.765074],[4.101896,49.764725],[4.102396,49.764324],[4.102556,49.763923],[4.102516,49.762902],[4.10598,49.76254],[4.107722,49.761621],[4.107842,49.762164],[4.107922,49.763535],[4.108663,49.76457],[4.109003,49.764829],[4.109724,49.766367],[4.109924,49.767104],[4.110264,49.767816],[4.110184,49.769445],[4.110344,49.769859],[4.111005,49.77013],[4.111525,49.770454],[4.111886,49.774901],[4.112326,49.775057],[4.114248,49.775432],[4.117091,49.776362],[4.119173,49.777953],[4.120655,49.776802],[4.121236,49.775535],[4.122497,49.774048],[4.125059,49.771747],[4.126061,49.771449],[4.129004,49.770893],[4.130025,49.770454],[4.130165,49.769445],[4.131066,49.768346],[4.131486,49.767686],[4.131646,49.767079],[4.132267,49.7666],[4.133388,49.766057],[4.132968,49.764596],[4.131887,49.762837],[4.132267,49.762591],[4.133308,49.762449],[4.13479,49.762022],[4.135871,49.76188],[4.13563,49.760509],[4.136131,49.759203],[4.137272,49.75822],[4.138013,49.75769],[4.139014,49.756526],[4.139354,49.755206],[4.139314,49.752555],[4.139655,49.751727],[4.141476,49.750123],[4.141877,49.749489],[4.142197,49.749256],[4.143238,49.748855],[4.144159,49.748635],[4.14484,49.748363],[4.146081,49.749334],[4.146942,49.749334],[4.147302,49.74945],[4.147483,49.749838],[4.148564,49.750601],[4.149505,49.751416],[4.150266,49.751856],[4.151607,49.751028],[4.152228,49.750821],[4.153249,49.750019],[4.153989,49.749554],[4.15437,49.749204],[4.15465,49.748726],[4.155931,49.747471],[4.156572,49.747341],[4.157093,49.746475],[4.157813,49.745983],[4.158434,49.745336],[4.158874,49.745026],[4.159115,49.744676],[4.158194,49.743176],[4.158274,49.742969],[4.159695,49.742788],[4.159936,49.742593],[4.159876,49.741921],[4.159996,49.739928],[4.159916,49.739618],[4.159435,49.739113],[4.160036,49.73901],[4.160516,49.738518],[4.160917,49.736926],[4.160877,49.735762],[4.161057,49.735205],[4.162098,49.734364],[4.162638,49.733678],[4.163699,49.731996],[4.16434,49.731129],[4.166502,49.729369],[4.167123,49.728269],[4.167644,49.727648],[4.168184,49.727389],[4.169125,49.727091],[4.170406,49.726457],[4.171708,49.725603],[4.173029,49.724917],[4.174671,49.723791],[4.17425,49.7226],[4.174631,49.721474],[4.174631,49.720788],[4.174471,49.720154],[4.175211,49.720115],[4.175792,49.720206],[4.176873,49.720128],[4.177714,49.720193],[4.178295,49.720529],[4.178835,49.721112],[4.180016,49.72172],[4.181198,49.721681],[4.182759,49.721811],[4.184,49.721668],[4.185642,49.721397],[4.187204,49.721565],[4.186443,49.722898],[4.186383,49.72361],[4.185902,49.724141],[4.185782,49.724581],[4.185842,49.725292],[4.185422,49.726198],[4.185282,49.726858],[4.185342,49.727881],[4.184741,49.728476],[4.184241,49.729576],[4.184421,49.729887],[4.186223,49.73043],[4.186903,49.730521],[4.188445,49.730508],[4.189346,49.730262],[4.195733,49.725888],[4.199196,49.724425],[4.201879,49.723908],[4.20328,49.723791],[4.204362,49.722846],[4.206344,49.721992],[4.206804,49.721487],[4.207164,49.720387],[4.207184,49.71996],[4.207044,49.719585],[4.207084,49.719196],[4.207865,49.718251],[4.207485,49.717526],[4.207425,49.71706],[4.207505,49.716737],[4.207725,49.716387],[4.207885,49.715106],[4.207625,49.714601],[4.206384,49.713449],[4.206123,49.712724],[4.206424,49.711105],[4.205282,49.71051],[4.204982,49.70994],[4.206624,49.709604],[4.208326,49.709461],[4.209287,49.709448],[4.211249,49.709772],[4.211969,49.709772],[4.213211,49.709448],[4.215233,49.708529],[4.215693,49.708244],[4.215793,49.708037],[4.215393,49.707571],[4.215393,49.707196],[4.215653,49.706924],[4.216134,49.706807],[4.216774,49.706768],[4.219257,49.70625],[4.218917,49.705914],[4.218456,49.705189],[4.217575,49.704464],[4.217755,49.704269],[4.218716,49.70392],[4.219517,49.703557],[4.221639,49.702366],[4.22196,49.701913],[4.22218,49.700968],[4.2223,49.699906],[4.223041,49.698054],[4.223301,49.697044],[4.224703,49.693185],[4.224883,49.69119],[4.224903,49.69005],[4.224683,49.688742],[4.225944,49.683691],[4.225704,49.683211],[4.225043,49.682421],[4.224022,49.681968],[4.223662,49.681592],[4.223601,49.681229],[4.223922,49.680374],[4.223221,49.678664],[4.225924,49.677641],[4.225183,49.677421],[4.224763,49.677071],[4.224562,49.676345],[4.224162,49.675853],[4.223601,49.675607],[4.223121,49.675296],[4.223001,49.674804],[4.223421,49.67334],[4.223281,49.672536],[4.223722,49.671526],[4.224042,49.671279],[4.226204,49.670515],[4.226865,49.670191],[4.227305,49.66966],[4.228106,49.669232],[4.229788,49.669025],[4.23187,49.668688],[4.23235,49.668351],[4.233652,49.667263],[4.234353,49.666991],[4.236034,49.666537],[4.236695,49.665967],[4.239518,49.663919],[4.239898,49.663479],[4.24108,49.661626],[4.242841,49.659435],[4.243322,49.657077],[4.244103,49.655936],[4.245104,49.654809],[4.245084,49.654485],[4.244523,49.653512],[4.244523,49.652981],[4.244003,49.651918],[4.243442,49.65127],[4.242441,49.650661],[4.242441,49.650415],[4.242761,49.650324],[4.244783,49.650674],[4.245584,49.650479],[4.246025,49.650479],[4.246966,49.650855],[4.247586,49.650376],[4.247346,49.649805],[4.247486,49.649144],[4.247526,49.647679],[4.247907,49.647316],[4.247947,49.647044],[4.248167,49.646992],[4.248107,49.646526],[4.247706,49.64602],[4.246345,49.645294],[4.246545,49.645113],[4.247606,49.644957],[4.248968,49.644529],[4.250129,49.643492],[4.25125,49.642909],[4.25153,49.642649],[4.252111,49.641068],[4.255034,49.637437],[4.256115,49.635363],[4.257837,49.635661],[4.258277,49.635531],[4.258317,49.635233],[4.258097,49.634689],[4.258077,49.634235],[4.257476,49.631434],[4.265405,49.631823],[4.265825,49.632082],[4.266866,49.632355],[4.266886,49.631927],[4.267086,49.631499],[4.267667,49.630941],[4.269048,49.630033],[4.269609,49.629411],[4.269789,49.628957],[4.269589,49.628114],[4.269369,49.62766],[4.269509,49.627349],[4.27055,49.626791],[4.27083,49.626506],[4.271411,49.625404],[4.271911,49.624664],[4.272532,49.624094],[4.273293,49.623614],[4.274834,49.622862],[4.276076,49.6222],[4.276857,49.621565],[4.277237,49.621098],[4.277277,49.620696],[4.276196,49.618672],[4.275395,49.618361],[4.273613,49.617855],[4.272993,49.617583],[4.272632,49.617142],[4.272632,49.616727],[4.272932,49.615546],[4.273273,49.615235],[4.275755,49.614327],[4.276356,49.613977],[4.276556,49.613535],[4.276376,49.613328],[4.275795,49.613276],[4.274714,49.613367],[4.273753,49.613289],[4.272572,49.612744],[4.271831,49.612679],[4.271411,49.612511],[4.27087,49.611732],[4.27069,49.610889],[4.27023,49.610163],[4.27017,49.609773],[4.27029,49.609644],[4.269969,49.609332],[4.269829,49.60871],[4.269969,49.608126],[4.269169,49.607438],[4.268848,49.606932],[4.267847,49.605998],[4.267447,49.605362],[4.266806,49.604973],[4.265064,49.604195],[4.264003,49.603857],[4.262882,49.603234],[4.26132,49.602689],[4.260299,49.60243],[4.259479,49.601989],[4.256816,49.599666],[4.254694,49.598252],[4.253012,49.597292],[4.25095,49.596448]]],"type":"MultiLineString"},"properties":{"geo_point":{"lon":3.9854442800206655,"lat":49.83457045302936},"name":"GR122 De Hannapes (Aisne) à Chappes (Ardennes) (2019)","code_gr":"GR122"}},{"type":"Feature","geometry":{"coordinates":[[[3.595803,50.452915],[3.596833,50.452395],[3.597434,50.45189],[3.598013,50.451275],[3.598893,50.449635],[3.600373,50.449676],[3.600438,50.449335],[3.607647,50.449403],[3.607647,50.449731],[3.626702,50.450018],[3.627238,50.44995],[3.627775,50.450004],[3.638225,50.450168],[3.63919,50.450223],[3.640091,50.450141],[3.643675,50.45025],[3.64464,50.450373],[3.645713,50.450264],[3.651807,50.450346],[3.652601,50.450469],[3.65303,50.449717],[3.653331,50.448324],[3.654211,50.448091],[3.654919,50.447668],[3.656528,50.446219],[3.659275,50.443336],[3.660004,50.442325],[3.661613,50.439278],[3.661635,50.438635],[3.661334,50.438048],[3.660433,50.437214],[3.660219,50.436777],[3.660219,50.436285],[3.660734,50.435533],[3.661871,50.434562],[3.661699,50.435956],[3.665261,50.437433],[3.665819,50.436845],[3.666012,50.435109],[3.666184,50.433742],[3.665755,50.431938],[3.668866,50.430954],[3.66936,50.430161],[3.669467,50.428425],[3.669295,50.427687],[3.668931,50.427113],[3.669188,50.425172],[3.668888,50.424051],[3.669038,50.422943],[3.668137,50.422643],[3.667943,50.422069],[3.668051,50.421549],[3.667407,50.421453],[3.667471,50.420934],[3.668008,50.419621],[3.668416,50.418856],[3.669553,50.416531],[3.672857,50.409517],[3.673222,50.4083],[3.673158,50.407725],[3.673437,50.407137],[3.672814,50.406549],[3.672686,50.405688],[3.672814,50.405455],[3.672793,50.405072],[3.673372,50.404293],[3.673737,50.403937],[3.674016,50.403062],[3.673823,50.401571],[3.673501,50.401065],[3.673072,50.400094],[3.672836,50.399738],[3.672557,50.397974],[3.6729,50.397112],[3.672793,50.395785],[3.672664,50.395457],[3.672814,50.395252],[3.672128,50.394089],[3.672278,50.39387],[3.672857,50.393665],[3.672643,50.392256],[3.67275,50.39201],[3.672643,50.391791],[3.672643,50.391271],[3.673115,50.390888],[3.673093,50.390546],[3.673544,50.390163],[3.673823,50.389629],[3.67363,50.389164],[3.673587,50.388754],[3.673007,50.387974],[3.672256,50.387728],[3.672063,50.387358],[3.671505,50.38744],[3.671012,50.387276],[3.670883,50.386879],[3.670089,50.386961],[3.669746,50.387262],[3.669188,50.386989],[3.668051,50.384485],[3.667107,50.383254],[3.666849,50.382569],[3.663888,50.379176],[3.66406,50.379094],[3.663266,50.378177],[3.66245,50.377479],[3.660026,50.37596],[3.658781,50.375823],[3.65788,50.375344],[3.656099,50.374688],[3.655348,50.374263],[3.654168,50.373976],[3.652687,50.372717],[3.651378,50.372594],[3.650992,50.372361],[3.650606,50.371896],[3.650048,50.370336],[3.648567,50.368638],[3.64831,50.368255],[3.651142,50.367845],[3.652601,50.367968],[3.652387,50.36768],[3.652387,50.367201],[3.653009,50.367119],[3.653481,50.366941],[3.654726,50.366558],[3.654854,50.366394],[3.654275,50.365696],[3.653095,50.363122],[3.653095,50.362328],[3.652301,50.360741],[3.651657,50.359112],[3.651271,50.358605],[3.651056,50.357428],[3.651185,50.356278],[3.650498,50.355607],[3.650391,50.355203],[3.650584,50.354669],[3.651121,50.354738],[3.652194,50.354546],[3.652387,50.354642],[3.654253,50.354286],[3.653717,50.352971],[3.653223,50.35241],[3.653073,50.352068],[3.652945,50.351479],[3.653352,50.350466],[3.653481,50.349932],[3.654017,50.348576],[3.654404,50.347796],[3.654511,50.347193],[3.654811,50.346536],[3.654833,50.345838],[3.654447,50.345632],[3.654146,50.344633],[3.653481,50.343962],[3.65273,50.343825],[3.651099,50.344058],[3.65082,50.343975],[3.649876,50.344099],[3.649383,50.343441],[3.647988,50.342921],[3.648224,50.342565],[3.648353,50.341921],[3.648202,50.34162],[3.648481,50.341278],[3.648448,50.340887],[3.647997,50.339928],[3.649113,50.339791],[3.648791,50.339353],[3.648705,50.338969],[3.647912,50.337408],[3.647482,50.336997],[3.647461,50.336723],[3.647225,50.336422],[3.647289,50.336148],[3.647139,50.335874],[3.647053,50.335504],[3.646817,50.335148],[3.646753,50.334737],[3.650873,50.33445],[3.652182,50.334148],[3.652139,50.333984],[3.652129,50.333896],[3.65303,50.333047],[3.652172,50.331759],[3.651593,50.331102],[3.650863,50.329855],[3.650262,50.328198],[3.650219,50.327307],[3.649855,50.326691],[3.648288,50.323417],[3.647816,50.322184],[3.647323,50.319868],[3.647258,50.318498],[3.647408,50.317786],[3.64861,50.316279],[3.648739,50.315607],[3.648975,50.315086],[3.649447,50.31447],[3.650649,50.313141],[3.654318,50.31114],[3.655648,50.310537],[3.656452,50.310077],[3.657138,50.309694],[3.657825,50.309365],[3.65804,50.309132],[3.658254,50.308967],[3.658726,50.309077],[3.65952,50.309515],[3.660808,50.308789],[3.662803,50.309557],[3.663125,50.309461],[3.663833,50.308858],[3.665035,50.308515],[3.665936,50.308172],[3.666408,50.307775],[3.667481,50.30735],[3.667417,50.307145],[3.666558,50.306295],[3.664885,50.305651],[3.663962,50.305418],[3.663597,50.305527],[3.663018,50.305432],[3.661773,50.305075],[3.65952,50.304705],[3.659348,50.30502],[3.659434,50.305322],[3.658512,50.306638],[3.658104,50.306898],[3.65761,50.308008],[3.657117,50.307912],[3.655379,50.307282],[3.654735,50.306898],[3.653791,50.306281],[3.652418,50.306418],[3.65231,50.306775],[3.650336,50.307035],[3.647676,50.306747],[3.645916,50.307035],[3.645315,50.307035],[3.642826,50.307556],[3.640466,50.308296],[3.63596,50.310036],[3.634651,50.310598],[3.632441,50.310242],[3.632097,50.310639],[3.631175,50.310516],[3.630981,50.31079],[3.630188,50.311352],[3.629136,50.31116],[3.629844,50.309721],[3.630745,50.309077],[3.63096,50.308817],[3.631153,50.308323],[3.63169,50.307432],[3.631711,50.307131],[3.630552,50.307295],[3.631003,50.30672],[3.63184,50.306336],[3.632419,50.305802],[3.633771,50.30561],[3.633664,50.305034],[3.635445,50.3045],[3.636346,50.304335],[3.636754,50.304061],[3.63714,50.303458],[3.638706,50.302526],[3.639307,50.302074],[3.641174,50.301676],[3.64171,50.301361],[3.643126,50.300127],[3.644457,50.299182],[3.646731,50.298277],[3.647611,50.297852],[3.650036,50.297098],[3.652782,50.296372],[3.653834,50.295974],[3.654864,50.295426],[3.656924,50.294562],[3.658168,50.29422],[3.659134,50.294083],[3.659863,50.293973],[3.660679,50.293397],[3.660744,50.293323],[3.661581,50.29298],[3.662311,50.292527],[3.665658,50.291102],[3.666388,50.290937],[3.667203,50.290924],[3.668576,50.290636],[3.669757,50.290485],[3.67083,50.289936],[3.671409,50.289909],[3.671945,50.289991],[3.671774,50.28984],[3.670615,50.289662],[3.670121,50.288895],[3.668727,50.288415],[3.667546,50.28788],[3.667074,50.287743],[3.666431,50.287496],[3.666517,50.287181],[3.666517,50.287181],[3.665916,50.286824],[3.665079,50.286619],[3.663641,50.285892],[3.66274,50.285111],[3.659199,50.281285],[3.65862,50.2799],[3.657526,50.277967],[3.656732,50.275073],[3.656281,50.274099],[3.655637,50.273496],[3.655359,50.272701],[3.655037,50.269889],[3.654801,50.268943],[3.654286,50.268243],[3.653749,50.267297],[3.652998,50.266556],[3.651324,50.265075],[3.650058,50.263635],[3.649694,50.262757],[3.649951,50.261989],[3.649887,50.261728],[3.649887,50.261728],[3.650139,50.261488],[3.650611,50.261241],[3.650847,50.260829],[3.652242,50.259801],[3.652907,50.258689],[3.653894,50.257935],[3.654001,50.257647],[3.657606,50.256508],[3.658701,50.256028],[3.660181,50.255603],[3.661361,50.255397],[3.662052,50.255355],[3.661945,50.254971],[3.661945,50.253805],[3.66158,50.253187],[3.660829,50.252721],[3.660572,50.252419],[3.660057,50.251513],[3.660572,50.251486],[3.661795,50.251349],[3.662674,50.251006],[3.663898,50.250169],[3.665228,50.249455],[3.666408,50.248961],[3.666816,50.248426],[3.668833,50.246807],[3.671472,50.245407],[3.674262,50.245284],[3.675914,50.245641],[3.676558,50.24538],[3.677309,50.246039],[3.678188,50.246519],[3.678596,50.247342],[3.679669,50.248207],[3.680377,50.248536],[3.680656,50.248824],[3.680695,50.248907],[3.681682,50.250019],[3.682476,50.25017],[3.684536,50.25113],[3.687175,50.250293],[3.688055,50.249538],[3.688055,50.249538],[3.690544,50.248633],[3.692411,50.248729],[3.694084,50.248729],[3.69505,50.24855],[3.698311,50.24829],[3.700114,50.248221],[3.700736,50.247947],[3.701251,50.247713],[3.701487,50.247274],[3.702195,50.24689],[3.703955,50.246753],[3.705543,50.246835],[3.706143,50.246767],[3.707839,50.24593],[3.708997,50.2449],[3.709212,50.244255],[3.711701,50.242568],[3.713568,50.241964],[3.70795,50.238024],[3.727326,50.226577],[3.710864,50.222198],[3.710499,50.222102],[3.710006,50.222377],[3.7058,50.222967],[3.701809,50.219727],[3.70462,50.218244],[3.702109,50.216281],[3.696766,50.216171],[3.698183,50.213493],[3.71537,50.206009],[3.717259,50.205226],[3.717259,50.205226],[3.721447,50.200913],[3.720359,50.20022],[3.719844,50.199739],[3.719651,50.198819],[3.718686,50.198558],[3.716154,50.198709],[3.71315,50.200027],[3.712463,50.199588],[3.712184,50.199203],[3.711626,50.198654],[3.710875,50.198159],[3.710682,50.197514],[3.709824,50.197074],[3.708987,50.196236],[3.71066,50.195453],[3.712463,50.194451],[3.712613,50.194244],[3.71433,50.194052],[3.717756,50.194677],[3.718357,50.194512],[3.719366,50.19443],[3.720074,50.194663],[3.720374,50.194993],[3.72134,50.194869],[3.721297,50.194416],[3.720868,50.193798],[3.724372,50.192321],[3.723707,50.192019],[3.723256,50.191566],[3.722291,50.190412],[3.72184,50.190123],[3.720767,50.190123],[3.720209,50.189532],[3.719801,50.18945],[3.720295,50.188846],[3.717699,50.177854],[3.718149,50.177785],[3.717613,50.177551],[3.716304,50.171312],[3.711304,50.171298],[3.713729,50.168714],[3.705489,50.165471],[3.703472,50.16679],[3.703472,50.16679],[3.703208,50.166577],[3.702607,50.166536],[3.701985,50.165793],[3.701255,50.166178],[3.70029,50.165821],[3.700011,50.165807],[3.699402,50.166568],[3.701127,50.168226],[3.696355,50.171241],[3.682772,50.173797],[3.667837,50.169303],[3.667867,50.168597],[3.668404,50.168584],[3.668854,50.166494],[3.669219,50.165202],[3.668468,50.164625],[3.667095,50.165532],[3.665829,50.166618],[3.664713,50.167979],[3.662975,50.167168],[3.660657,50.165903],[3.66055,50.165628],[3.659627,50.165065],[3.658726,50.165518],[3.658061,50.166041],[3.657503,50.166604],[3.656452,50.16611],[3.658125,50.164721],[3.659198,50.164735],[3.660271,50.164543],[3.661323,50.164089],[3.66261,50.163677],[3.661988,50.162921],[3.660979,50.160735],[3.662825,50.158604],[3.664391,50.157271],[3.665614,50.156473],[3.669369,50.156377],[3.671386,50.157188],[3.673038,50.152679],[3.678982,50.155016],[3.679081,50.155021],[3.684124,50.150717],[3.676249,50.142687],[3.676185,50.142261],[3.677279,50.141394],[3.677729,50.140858],[3.679918,50.140377],[3.681485,50.140212],[3.683523,50.139799],[3.690218,50.139483],[3.690904,50.139345],[3.692428,50.139386],[3.693522,50.139153],[3.69526,50.138974],[3.696698,50.138712],[3.698329,50.138657],[3.700625,50.138314],[3.701462,50.138547],[3.703114,50.137997],[3.703436,50.137709],[3.704165,50.137351],[3.704294,50.137255],[3.705238,50.13731],[3.707363,50.139469],[3.709465,50.140982],[3.709744,50.140748],[3.710367,50.141147],[3.71071,50.140995],[3.712148,50.140693],[3.71277,50.140115],[3.71219,50.139675],[3.711675,50.139194],[3.712813,50.13863],[3.713864,50.138286],[3.716976,50.137695],[3.717426,50.137447],[3.717984,50.137172],[3.71925,50.136429],[3.720216,50.136017],[3.71998,50.135384],[3.7194,50.134779],[3.718091,50.134628],[3.717319,50.134366],[3.715431,50.133073],[3.714444,50.132936],[3.713521,50.133239],[3.711761,50.133128],[3.710581,50.133321],[3.70835,50.132908],[3.707105,50.132606],[3.705174,50.132496],[3.703607,50.132262],[3.702277,50.131904],[3.701419,50.131726],[3.700281,50.131327],[3.69893,50.131189],[3.693973,50.129607],[3.690776,50.128287],[3.68984,50.128186],[3.688617,50.127264],[3.687214,50.126416],[3.686591,50.126196],[3.668395,50.112823],[3.663439,50.110786],[3.662645,50.110745],[3.661765,50.11091],[3.655113,50.114088],[3.654255,50.114212],[3.653439,50.11413],[3.652517,50.113841],[3.646959,50.110442],[3.642603,50.105501],[3.640264,50.103602],[3.635501,50.099666],[3.635136,50.09906],[3.634814,50.09906],[3.633698,50.097959],[3.633205,50.097051],[3.632325,50.093816],[3.632282,50.092756],[3.63269,50.091641],[3.639234,50.081535],[3.640286,50.080571],[3.645843,50.076192],[3.645071,50.075876],[3.645521,50.074884],[3.646144,50.073989],[3.646079,50.071042],[3.646358,50.070629],[3.646337,50.069472],[3.642818,50.069141],[3.640694,50.067736],[3.639556,50.066593],[3.638591,50.065739],[3.637668,50.065147],[3.637668,50.064472],[3.637046,50.063604],[3.635651,50.061056],[3.634728,50.060284],[3.6346,50.058728],[3.633505,50.055532],[3.632668,50.054085],[3.632561,50.052941],[3.633033,50.049621],[3.633012,50.049194],[3.633226,50.048574],[3.633162,50.047403],[3.63299,50.046769],[3.63314,50.046038],[3.632861,50.045432],[3.632969,50.044275],[3.632776,50.043269],[3.63196,50.043186],[3.631188,50.042883],[3.631338,50.042525],[3.630179,50.042649],[3.621897,50.045529],[3.620695,50.044771],[3.617133,50.039989],[3.616897,50.039934],[3.616661,50.039603],[3.619064,50.03817],[3.612927,50.026095],[3.61046,50.022911],[3.608228,50.021601],[3.607541,50.021339],[3.602628,50.017865],[3.599954,50.014951],[3.599825,50.014055],[3.598988,50.012152],[3.60343,50.009904],[3.60152,50.008249],[3.601434,50.007932],[3.600404,50.007973],[3.599782,50.007574],[3.599653,50.007077],[3.59931,50.006843],[3.599203,50.006456],[3.59813,50.005477],[3.597744,50.005326],[3.596091,50.003436],[3.596327,50.00334],[3.594782,50.001326],[3.597851,50.001547],[3.597229,49.996154],[3.603365,49.997243],[3.603357,49.996862],[3.603644,49.996498],[3.605825,49.996117],[3.607949,49.994972],[3.607262,49.993841],[3.611575,49.991551],[3.612069,49.990516],[3.611833,49.989882],[3.60664,49.987495],[3.606404,49.986874],[3.606305,49.985545],[3.609194,49.984115],[3.613893,49.982542],[3.614987,49.981507],[3.615395,49.980693],[3.615502,49.980086],[3.616318,49.978706],[3.617412,49.977298],[3.618142,49.976802],[3.618922,49.976687],[3.619974,49.976549],[3.620789,49.976314],[3.621926,49.976217],[3.622484,49.976093],[3.623621,49.974272],[3.624909,49.973361]]],"type":"MultiLineString"},"properties":{"geo_point":{"lon":3.6641933712068346,"lat":50.21848551532614},"name":"GR122 De Condé-sur-l'Escaut (Nord) à Hannapes (Aisne) (2019)","code_gr":"GR122"}},{"type":"Feature","geometry":{"coordinates":[[[3.595803,50.452915],[3.596833,50.452395],[3.597434,50.45189],[3.598013,50.451275],[3.598893,50.449635],[3.600373,50.449676],[3.600438,50.449335],[3.607647,50.449403],[3.607647,50.449731],[3.626702,50.450018],[3.627238,50.44995],[3.627775,50.450004],[3.638225,50.450168],[3.63919,50.450223],[3.640091,50.450141],[3.643675,50.45025],[3.64464,50.450373],[3.645713,50.450264],[3.651807,50.450346],[3.652601,50.450469],[3.65303,50.449717],[3.653331,50.448324],[3.654211,50.448091],[3.654919,50.447668],[3.656528,50.446219],[3.659275,50.443336],[3.660004,50.442325],[3.661613,50.439278],[3.661635,50.438635],[3.661334,50.438048],[3.660433,50.437214],[3.660219,50.436777],[3.660219,50.436285],[3.660734,50.435533],[3.661871,50.434562],[3.661699,50.435956],[3.665261,50.437433],[3.665819,50.436845],[3.666012,50.435109],[3.666184,50.433742],[3.665755,50.431938],[3.668866,50.430954],[3.66936,50.430161],[3.669467,50.428425],[3.669295,50.427687],[3.668931,50.427113],[3.669188,50.425172],[3.668888,50.424051],[3.669038,50.422943],[3.668137,50.422643],[3.667943,50.422069],[3.668051,50.421549],[3.667407,50.421453],[3.667471,50.420934],[3.668008,50.419621],[3.668416,50.418856],[3.669553,50.416531],[3.672857,50.409517],[3.673222,50.4083],[3.673158,50.407725],[3.673437,50.407137],[3.672814,50.406549],[3.672686,50.405688],[3.672814,50.405455],[3.672793,50.405072],[3.673372,50.404293],[3.673737,50.403937],[3.674016,50.403062],[3.673823,50.401571],[3.673501,50.401065],[3.673072,50.400094],[3.672836,50.399738],[3.672557,50.397974],[3.6729,50.397112],[3.672793,50.395785],[3.672664,50.395457],[3.672814,50.395252],[3.672128,50.394089],[3.672278,50.39387],[3.672857,50.393665],[3.672643,50.392256],[3.67275,50.39201],[3.672643,50.391791],[3.672643,50.391271],[3.673115,50.390888],[3.673093,50.390546],[3.673544,50.390163],[3.673823,50.389629],[3.67363,50.389164],[3.673587,50.388754],[3.673007,50.387974],[3.672256,50.387728],[3.672063,50.387358],[3.671505,50.38744],[3.671012,50.387276],[3.670883,50.386879],[3.670089,50.386961],[3.669746,50.387262],[3.669188,50.386989],[3.668051,50.384485],[3.667107,50.383254],[3.666849,50.382569],[3.663888,50.379176],[3.66406,50.379094],[3.663266,50.378177],[3.66245,50.377479],[3.660026,50.37596],[3.658781,50.375823],[3.65788,50.375344],[3.656099,50.374688],[3.655348,50.374263],[3.654168,50.373976],[3.652687,50.372717],[3.651378,50.372594],[3.650992,50.372361],[3.650606,50.371896],[3.650048,50.370336],[3.648567,50.368638],[3.64831,50.368255],[3.651142,50.367845],[3.652601,50.367968],[3.652387,50.36768],[3.652387,50.367201],[3.653009,50.367119],[3.653481,50.366941],[3.654726,50.366558],[3.654854,50.366394],[3.654275,50.365696],[3.653095,50.363122],[3.653095,50.362328],[3.652301,50.360741],[3.651657,50.359112],[3.651271,50.358605],[3.651056,50.357428],[3.651185,50.356278],[3.650498,50.355607],[3.650391,50.355203],[3.650584,50.354669],[3.651121,50.354738],[3.652194,50.354546],[3.652387,50.354642],[3.654253,50.354286],[3.653717,50.352971],[3.653223,50.35241],[3.653073,50.352068],[3.652945,50.351479],[3.653352,50.350466],[3.653481,50.349932],[3.654017,50.348576],[3.654404,50.347796],[3.654511,50.347193],[3.654811,50.346536],[3.654833,50.345838],[3.654447,50.345632],[3.654146,50.344633],[3.653481,50.343962],[3.65273,50.343825],[3.651099,50.344058],[3.65082,50.343975],[3.649876,50.344099],[3.649383,50.343441],[3.647988,50.342921],[3.648224,50.342565],[3.648353,50.341921],[3.648202,50.34162],[3.648481,50.341278],[3.648448,50.340887],[3.647997,50.339928],[3.649113,50.339791],[3.648791,50.339353],[3.648705,50.338969],[3.647912,50.337408],[3.647482,50.336997],[3.647461,50.336723],[3.647225,50.336422],[3.647289,50.336148],[3.647139,50.335874],[3.647053,50.335504],[3.646817,50.335148],[3.646753,50.334737],[3.650873,50.33445],[3.652182,50.334148],[3.652139,50.333984],[3.652129,50.333896],[3.65303,50.333047],[3.652172,50.331759],[3.651593,50.331102],[3.650863,50.329855],[3.650262,50.328198],[3.650219,50.327307],[3.649855,50.326691],[3.648288,50.323417],[3.647816,50.322184],[3.647323,50.319868],[3.647258,50.318498],[3.647408,50.317786],[3.64861,50.316279],[3.648739,50.315607],[3.648975,50.315086],[3.649447,50.31447],[3.650649,50.313141],[3.654318,50.31114],[3.655648,50.310537],[3.656452,50.310077],[3.657138,50.309694],[3.657825,50.309365],[3.65804,50.309132],[3.658254,50.308967],[3.658726,50.309077],[3.65952,50.309515],[3.660808,50.308789],[3.662803,50.309557],[3.663125,50.309461],[3.663833,50.308858],[3.665035,50.308515],[3.665936,50.308172],[3.666408,50.307775],[3.667481,50.30735],[3.667417,50.307145],[3.666558,50.306295],[3.664885,50.305651],[3.663962,50.305418],[3.663597,50.305527],[3.663018,50.305432],[3.661773,50.305075],[3.65952,50.304705],[3.659348,50.30502],[3.659434,50.305322],[3.658512,50.306638],[3.658104,50.306898],[3.65761,50.308008],[3.657117,50.307912],[3.655379,50.307282],[3.654735,50.306898],[3.653791,50.306281],[3.652418,50.306418],[3.65231,50.306775],[3.650336,50.307035],[3.647676,50.306747],[3.645916,50.307035],[3.645315,50.307035],[3.642826,50.307556],[3.640466,50.308296],[3.63596,50.310036],[3.634651,50.310598],[3.632441,50.310242],[3.632097,50.310639],[3.631175,50.310516],[3.630981,50.31079],[3.630188,50.311352],[3.629136,50.31116],[3.629844,50.309721],[3.630745,50.309077],[3.63096,50.308817],[3.631153,50.308323],[3.63169,50.307432],[3.631711,50.307131],[3.630552,50.307295],[3.631003,50.30672],[3.63184,50.306336],[3.632419,50.305802],[3.633771,50.30561],[3.633664,50.305034],[3.635445,50.3045],[3.636346,50.304335],[3.636754,50.304061],[3.63714,50.303458],[3.638706,50.302526],[3.639307,50.302074],[3.641174,50.301676],[3.64171,50.301361],[3.643126,50.300127],[3.644457,50.299182],[3.646731,50.298277],[3.647611,50.297852],[3.650036,50.297098],[3.652782,50.296372],[3.653834,50.295974],[3.654864,50.295426],[3.656924,50.294562],[3.658168,50.29422],[3.659134,50.294083],[3.659863,50.293973],[3.660679,50.293397],[3.660744,50.293323],[3.661581,50.29298],[3.662311,50.292527],[3.665658,50.291102],[3.666388,50.290937],[3.667203,50.290924],[3.668576,50.290636],[3.669757,50.290485],[3.67083,50.289936],[3.671409,50.289909],[3.671945,50.289991],[3.671774,50.28984],[3.670615,50.289662],[3.670121,50.288895],[3.668727,50.288415],[3.667546,50.28788],[3.667074,50.287743],[3.666431,50.287496],[3.666517,50.287181],[3.666517,50.287181],[3.665916,50.286824],[3.665079,50.286619],[3.663641,50.285892],[3.66274,50.285111],[3.659199,50.281285],[3.65862,50.2799],[3.657526,50.277967],[3.656732,50.275073],[3.656281,50.274099],[3.655637,50.273496],[3.655359,50.272701],[3.655037,50.269889],[3.654801,50.268943],[3.654286,50.268243],[3.653749,50.267297],[3.652998,50.266556],[3.651324,50.265075],[3.650058,50.263635],[3.649694,50.262757],[3.649951,50.261989],[3.649887,50.261728],[3.649887,50.261728],[3.650139,50.261488],[3.650611,50.261241],[3.650847,50.260829],[3.652242,50.259801],[3.652907,50.258689],[3.653894,50.257935],[3.654001,50.257647],[3.657606,50.256508],[3.658701,50.256028],[3.660181,50.255603],[3.661361,50.255397],[3.662052,50.255355],[3.661945,50.254971],[3.661945,50.253805],[3.66158,50.253187],[3.660829,50.252721],[3.660572,50.252419],[3.660057,50.251513],[3.660572,50.251486],[3.661795,50.251349],[3.662674,50.251006],[3.663898,50.250169],[3.665228,50.249455],[3.666408,50.248961],[3.666816,50.248426],[3.668833,50.246807],[3.671472,50.245407],[3.674262,50.245284],[3.675914,50.245641],[3.676558,50.24538],[3.677309,50.246039],[3.678188,50.246519],[3.678596,50.247342],[3.679669,50.248207],[3.680377,50.248536],[3.680656,50.248824],[3.680695,50.248907],[3.681682,50.250019],[3.682476,50.25017],[3.684536,50.25113],[3.687175,50.250293],[3.688055,50.249538],[3.688055,50.249538],[3.690544,50.248633],[3.692411,50.248729],[3.694084,50.248729],[3.69505,50.24855],[3.698311,50.24829],[3.700114,50.248221],[3.700736,50.247947],[3.701251,50.247713],[3.701487,50.247274],[3.702195,50.24689],[3.703955,50.246753],[3.705543,50.246835],[3.706143,50.246767],[3.707839,50.24593],[3.708997,50.2449],[3.709212,50.244255],[3.711701,50.242568],[3.713568,50.241964],[3.70795,50.238024],[3.727326,50.226577],[3.710864,50.222198],[3.710499,50.222102],[3.710006,50.222377],[3.7058,50.222967],[3.701809,50.219727],[3.70462,50.218244],[3.702109,50.216281],[3.696766,50.216171],[3.698183,50.213493],[3.71537,50.206009],[3.717259,50.205226],[3.717259,50.205226],[3.721447,50.200913],[3.720359,50.20022],[3.719844,50.199739],[3.719651,50.198819],[3.718686,50.198558],[3.716154,50.198709],[3.71315,50.200027],[3.712463,50.199588],[3.712184,50.199203],[3.711626,50.198654],[3.710875,50.198159],[3.710682,50.197514],[3.709824,50.197074],[3.708987,50.196236],[3.71066,50.195453],[3.712463,50.194451],[3.712613,50.194244],[3.71433,50.194052],[3.717756,50.194677],[3.718357,50.194512],[3.719366,50.19443],[3.720074,50.194663],[3.720374,50.194993],[3.72134,50.194869],[3.721297,50.194416],[3.720868,50.193798],[3.724372,50.192321],[3.723707,50.192019],[3.723256,50.191566],[3.722291,50.190412],[3.72184,50.190123],[3.720767,50.190123],[3.720209,50.189532],[3.719801,50.18945],[3.720295,50.188846],[3.717699,50.177854],[3.718149,50.177785],[3.717613,50.177551],[3.716304,50.171312],[3.711304,50.171298],[3.713729,50.168714],[3.705489,50.165471],[3.703472,50.16679],[3.703472,50.16679],[3.703208,50.166577],[3.702607,50.166536],[3.701985,50.165793],[3.701255,50.166178],[3.70029,50.165821],[3.700011,50.165807],[3.699402,50.166568],[3.701127,50.168226],[3.696355,50.171241],[3.682772,50.173797],[3.667837,50.169303],[3.667867,50.168597],[3.668404,50.168584],[3.668854,50.166494],[3.669219,50.165202],[3.668468,50.164625],[3.667095,50.165532],[3.665829,50.166618],[3.664713,50.167979],[3.662975,50.167168],[3.660657,50.165903],[3.66055,50.165628],[3.659627,50.165065],[3.658726,50.165518],[3.658061,50.166041],[3.657503,50.166604],[3.656452,50.16611],[3.658125,50.164721],[3.659198,50.164735],[3.660271,50.164543],[3.661323,50.164089],[3.66261,50.163677],[3.661988,50.162921],[3.660979,50.160735],[3.662825,50.158604],[3.664391,50.157271],[3.665614,50.156473],[3.669369,50.156377],[3.671386,50.157188],[3.673038,50.152679],[3.678982,50.155016],[3.679081,50.155021],[3.684124,50.150717],[3.676249,50.142687],[3.676185,50.142261],[3.677279,50.141394],[3.677729,50.140858],[3.679918,50.140377],[3.681485,50.140212],[3.683523,50.139799],[3.690218,50.139483],[3.690904,50.139345],[3.692428,50.139386],[3.693522,50.139153],[3.69526,50.138974],[3.696698,50.138712],[3.698329,50.138657],[3.700625,50.138314],[3.701462,50.138547],[3.703114,50.137997],[3.703436,50.137709],[3.704165,50.137351],[3.704294,50.137255],[3.705238,50.13731],[3.707363,50.139469],[3.709465,50.140982],[3.709744,50.140748],[3.710367,50.141147],[3.71071,50.140995],[3.712148,50.140693],[3.71277,50.140115],[3.71219,50.139675],[3.711675,50.139194],[3.712813,50.13863],[3.713864,50.138286],[3.716976,50.137695],[3.717426,50.137447],[3.717984,50.137172],[3.71925,50.136429],[3.720216,50.136017],[3.71998,50.135384],[3.7194,50.134779],[3.718091,50.134628],[3.717319,50.134366],[3.715431,50.133073],[3.714444,50.132936],[3.713521,50.133239],[3.711761,50.133128],[3.710581,50.133321],[3.70835,50.132908],[3.707105,50.132606],[3.705174,50.132496],[3.703607,50.132262],[3.702277,50.131904],[3.701419,50.131726],[3.700281,50.131327],[3.69893,50.131189],[3.693973,50.129607],[3.690776,50.128287],[3.68984,50.128186],[3.688617,50.127264],[3.687214,50.126416],[3.686591,50.126196],[3.668395,50.112823],[3.663439,50.110786],[3.662645,50.110745],[3.661765,50.11091],[3.655113,50.114088],[3.654255,50.114212],[3.653439,50.11413],[3.652517,50.113841],[3.646959,50.110442],[3.642603,50.105501],[3.640264,50.103602],[3.635501,50.099666],[3.635136,50.09906],[3.634814,50.09906],[3.633698,50.097959],[3.633205,50.097051],[3.632325,50.093816],[3.632282,50.092756],[3.63269,50.091641],[3.639234,50.081535],[3.640286,50.080571],[3.645843,50.076192],[3.645071,50.075876],[3.645521,50.074884],[3.646144,50.073989],[3.646079,50.071042],[3.646358,50.070629],[3.646337,50.069472],[3.642818,50.069141],[3.640694,50.067736],[3.639556,50.066593],[3.638591,50.065739],[3.637668,50.065147],[3.637668,50.064472],[3.637046,50.063604],[3.635651,50.061056],[3.634728,50.060284],[3.6346,50.058728],[3.633505,50.055532],[3.632668,50.054085],[3.632561,50.052941],[3.633033,50.049621],[3.633012,50.049194],[3.633226,50.048574],[3.633162,50.047403],[3.63299,50.046769],[3.63314,50.046038],[3.632861,50.045432],[3.632969,50.044275],[3.632776,50.043269],[3.63196,50.043186],[3.631188,50.042883],[3.631338,50.042525],[3.630179,50.042649],[3.621897,50.045529],[3.620695,50.044771],[3.617133,50.039989],[3.616897,50.039934],[3.616661,50.039603],[3.619064,50.03817],[3.612927,50.026095],[3.61046,50.022911],[3.608228,50.021601],[3.607541,50.021339],[3.602628,50.017865],[3.599954,50.014951],[3.599825,50.014055],[3.598988,50.012152],[3.60343,50.009904],[3.60152,50.008249],[3.601434,50.007932],[3.600404,50.007973],[3.599782,50.007574],[3.599653,50.007077],[3.59931,50.006843],[3.599203,50.006456],[3.59813,50.005477],[3.597744,50.005326],[3.596091,50.003436],[3.596327,50.00334],[3.594782,50.001326],[3.597851,50.001547],[3.597229,49.996154],[3.603365,49.997243],[3.603357,49.996862],[3.603644,49.996498],[3.605825,49.996117],[3.607949,49.994972],[3.607262,49.993841],[3.611575,49.991551],[3.612069,49.990516],[3.611833,49.989882],[3.60664,49.987495],[3.606404,49.986874],[3.606305,49.985545],[3.609194,49.984115],[3.613893,49.982542],[3.614987,49.981507],[3.615395,49.980693],[3.615502,49.980086],[3.616318,49.978706],[3.617412,49.977298],[3.618142,49.976802],[3.618922,49.976687],[3.619974,49.976549],[3.620789,49.976314],[3.621926,49.976217],[3.622484,49.976093],[3.623621,49.974272],[3.624909,49.973361],[3.624965,49.972991],[3.625298,49.972515],[3.626909,49.971744],[3.629355,49.970254],[3.629527,49.970723],[3.629462,49.97147],[3.62987,49.972255],[3.629312,49.97289],[3.629291,49.973152],[3.630414,49.973549],[3.632466,49.975043],[3.635792,49.976823],[3.636114,49.97703],[3.6362,49.977899],[3.63738,49.978851],[3.638174,49.979886],[3.639784,49.979362],[3.642659,49.979003],[3.64532,49.978962],[3.651049,49.978451],[3.652787,49.978437],[3.657872,49.977665],[3.659846,49.97754],[3.662293,49.97743],[3.664825,49.977485],[3.665833,49.977361],[3.66652,49.977057],[3.667528,49.976395],[3.668966,49.977223],[3.669974,49.977416],[3.670339,49.977361],[3.671112,49.97754],[3.672185,49.977996],[3.6727,49.977872],[3.673386,49.978037],[3.675038,49.977306],[3.676819,49.977223],[3.680102,49.977665],[3.680811,49.977637],[3.681948,49.977416],[3.683321,49.976699],[3.683836,49.975981],[3.686218,49.976022],[3.686819,49.975871],[3.687763,49.975443],[3.687806,49.974629],[3.688514,49.97387],[3.688385,49.973387],[3.689544,49.973456],[3.690509,49.973262],[3.691604,49.972848],[3.69229,49.972407],[3.694179,49.972089],[3.695745,49.971399],[3.696303,49.971317],[3.701689,49.96915],[3.704114,49.968598],[3.705659,49.968556],[3.707053,49.968018],[3.71216,49.966693],[3.713705,49.9665],[3.714821,49.966569],[3.715851,49.966748],[3.720207,49.96592],[3.723361,49.964319],[3.72658,49.963159],[3.727739,49.963132],[3.730163,49.963449],[3.73306,49.964153],[3.735077,49.964291],[3.741579,49.964581],[3.745312,49.964954],[3.748102,49.964802],[3.749582,49.965189],[3.750398,49.96512],[3.752114,49.96483],[3.753466,49.965037],[3.756814,49.965106],[3.761105,49.964153],[3.7625,49.96414],[3.764431,49.964264],[3.765504,49.964623],[3.766341,49.96512],[3.766834,49.965189],[3.767457,49.964705],[3.769259,49.964126],[3.768379,49.962304],[3.768229,49.960937],[3.76868,49.960123],[3.770117,49.958466],[3.771598,49.958218],[3.772542,49.958273],[3.774602,49.958866],[3.776469,49.95877],[3.782713,49.958038],[3.785181,49.95819],[3.787605,49.957914],[3.788957,49.9579],[3.790824,49.958024],[3.792605,49.958259],[3.795223,49.958052],[3.796811,49.957873],[3.798227,49.957928],[3.799665,49.958218],[3.802776,49.959598],[3.804128,49.95986],[3.805437,49.959805],[3.807132,49.959998],[3.808376,49.960344],[3.809964,49.960633],[3.810887,49.960992],[3.811509,49.961117],[3.817088,49.962649],[3.822539,49.964485],[3.824234,49.965092],[3.826701,49.966238],[3.829856,49.967245],[3.830821,49.966389],[3.830886,49.966196],[3.832152,49.965423],[3.833868,49.964899],[3.832152,49.963532],[3.831508,49.963201],[3.830199,49.962386],[3.831122,49.962594],[3.830135,49.960592],[3.830135,49.960592],[3.83007,49.95964],[3.829813,49.958466],[3.829426,49.957665],[3.829298,49.957113],[3.827259,49.954835],[3.82683,49.953496],[3.825564,49.951108],[3.82565,49.950901],[3.828911,49.950693],[3.83095,49.95068],[3.832152,49.950818],[3.833053,49.949851],[3.833654,49.948484],[3.834812,49.948622],[3.835542,49.948484],[3.837559,49.947918],[3.838696,49.947725],[3.840241,49.946993],[3.839726,49.944922],[3.84258,49.939564],[3.843674,49.939384],[3.848159,49.939619],[3.861313,49.940572],[3.864724,49.942298],[3.866741,49.943113],[3.867492,49.943292],[3.86878,49.943334],[3.870217,49.943997],[3.871119,49.943748],[3.872985,49.9439],[3.874874,49.944011],[3.875603,49.944356],[3.876676,49.944535],[3.878307,49.944411],[3.878994,49.944646],[3.879401,49.944673],[3.880796,49.944245],[3.883371,49.943955],[3.884204,49.94443],[3.885179,49.945602],[3.887033,49.94692],[3.888306,49.947559],[3.890087,49.948043],[3.889379,49.947283],[3.890345,49.947021],[3.89013,49.945668],[3.890409,49.944839],[3.891267,49.94303],[3.891418,49.942077],[3.891804,49.941235],[3.89086,49.938804],[3.890667,49.937962],[3.891099,49.936539],[3.890667,49.935338],[3.889744,49.934882],[3.889315,49.934551],[3.887469,49.932023],[3.887427,49.93125],[3.887126,49.930656],[3.887427,49.929012],[3.887427,49.928266],[3.887663,49.927589],[3.888628,49.92676],[3.889122,49.925103],[3.891654,49.923542],[3.892533,49.923141],[3.892834,49.922616],[3.892812,49.922257],[3.893242,49.922823],[3.893714,49.924053],[3.894293,49.924509],[3.894293,49.924868],[3.894722,49.925324],[3.894679,49.925821],[3.895044,49.926277],[3.896117,49.927106],[3.895859,49.925393],[3.89601,49.924868],[3.896052,49.924343],[3.895859,49.924066],[3.895344,49.92379],[3.895924,49.921055],[3.896718,49.92035],[3.897276,49.919535],[3.897336,49.919247],[3.897014,49.918943],[3.896649,49.918418],[3.896949,49.917727],[3.895774,49.917186],[3.896074,49.916454],[3.895984,49.915889],[3.896177,49.91571],[3.897378,49.915544],[3.897808,49.915226],[3.898151,49.914494],[3.89749,49.91358],[3.897061,49.912502],[3.896589,49.912129],[3.895259,49.911494],[3.895366,49.910817],[3.894829,49.909186],[3.894482,49.907695],[3.891933,49.907403],[3.892254,49.908675],[3.891761,49.909656],[3.891654,49.910361],[3.890924,49.910761],[3.89086,49.911659],[3.890473,49.911936],[3.889203,49.912021],[3.888023,49.912366],[3.887529,49.912919],[3.886392,49.912753],[3.885963,49.912836],[3.884826,49.913402],[3.884203,49.913402],[3.884058,49.913166],[3.883903,49.912794],[3.881414,49.912076],[3.877144,49.911772],[3.87541,49.911245],[3.875084,49.911426],[3.875084,49.91162],[3.875191,49.911896],[3.875084,49.912228],[3.874848,49.912311],[3.874483,49.912214],[3.873324,49.911523],[3.87296,49.911233],[3.871994,49.911357],[3.871629,49.911606],[3.870835,49.911827],[3.869162,49.91191],[3.868346,49.912048],[3.867595,49.912532],[3.864934,49.913983],[3.860428,49.914314],[3.858948,49.914204],[3.85618,49.914079],[3.856823,49.909174],[3.857381,49.906562],[3.857059,49.905802],[3.858197,49.90565],[3.859377,49.905291],[3.860729,49.904544],[3.861866,49.904116],[3.870492,49.901919],[3.872852,49.900799],[3.873732,49.900467],[3.873196,49.899804],[3.873067,49.898864],[3.873475,49.898643],[3.873239,49.898159],[3.876843,49.897275],[3.878496,49.897164],[3.880641,49.895948],[3.881328,49.895464],[3.882916,49.894842],[3.88401,49.894275],[3.884933,49.893515],[3.885148,49.893141],[3.885813,49.893072],[3.886392,49.891496],[3.886328,49.891179],[3.885963,49.890902],[3.885963,49.889036],[3.887444,49.88746],[3.887658,49.886893],[3.887937,49.884515],[3.889782,49.886464],[3.890212,49.887114],[3.891156,49.888137],[3.894696,49.889423],[3.901477,49.89169],[3.903773,49.887888],[3.903837,49.886962],[3.904116,49.886229],[3.904889,49.885192],[3.905082,49.884335],[3.905318,49.883948],[3.906112,49.88345],[3.906949,49.883105],[3.907313,49.883049],[3.907163,49.882289],[3.907743,49.882317],[3.908665,49.882773],[3.91609,49.886036],[3.916154,49.885317],[3.919437,49.882814],[3.919694,49.882303],[3.920124,49.882165],[3.922698,49.883727],[3.927891,49.886437],[3.928621,49.888621],[3.928921,49.890239],[3.929286,49.890847],[3.930252,49.890639],[3.930573,49.89075],[3.931003,49.89169],[3.931518,49.892229],[3.932161,49.892132],[3.932698,49.892381],[3.933728,49.892616],[3.934307,49.893031],[3.935165,49.893418],[3.935595,49.893432],[3.935852,49.893349],[3.936646,49.893667],[3.938019,49.893238],[3.939865,49.892547],[3.940294,49.892533],[3.941066,49.892906],[3.942525,49.892616],[3.94274,49.892284],[3.944285,49.892132],[3.945122,49.891884],[3.94922,49.88822],[3.948855,49.887999],[3.948233,49.887833],[3.947825,49.886879],[3.947031,49.886381],[3.946989,49.885939],[3.947546,49.88457],[3.948855,49.883796],[3.949821,49.882731],[3.950658,49.881459],[3.953598,49.878957],[3.955507,49.879952],[3.956301,49.880104],[3.958318,49.881971],[3.959112,49.883796],[3.959949,49.884874],[3.960271,49.8854],[3.965271,49.884017],[3.96452,49.882925],[3.964369,49.882289],[3.964648,49.881404],[3.964777,49.880519],[3.96497,49.877408],[3.965871,49.876316],[3.966644,49.873273],[3.967953,49.870673],[3.96821,49.86994],[3.968961,49.868765],[3.969369,49.867893],[3.969004,49.866856],[3.96939,49.865694],[3.969433,49.86521],[3.969584,49.865127],[3.969862,49.864602],[3.970721,49.863218],[3.971086,49.862292],[3.971944,49.861517],[3.973253,49.859166],[3.974926,49.859318],[3.976729,49.856745],[3.97542,49.856288],[3.958104,49.847503],[3.958147,49.847198],[3.959155,49.845303],[3.959734,49.84367],[3.959756,49.843241],[3.959348,49.842189],[3.958576,49.840902],[3.959219,49.840044],[3.959434,49.839546],[3.961601,49.840072],[3.962824,49.840197],[3.963983,49.8401],[3.965721,49.840556],[3.970399,49.840944],[3.972244,49.841442],[3.975184,49.842729],[3.976536,49.843089],[3.977201,49.843407],[3.977995,49.843103],[3.978317,49.842812],[3.978896,49.841747],[3.979454,49.841428],[3.979626,49.84093],[3.980312,49.840819],[3.98057,49.840432],[3.979969,49.839366],[3.979454,49.838979],[3.979475,49.838799],[3.980377,49.838079],[3.979433,49.837789],[3.978724,49.837235],[3.978488,49.83628],[3.978617,49.835464],[3.978939,49.834813],[3.979647,49.834633],[3.980591,49.834301],[3.983359,49.832557],[3.991857,49.829],[3.991857,49.82781],[3.988659,49.824917],[3.988016,49.823948],[3.986385,49.817579],[3.986278,49.816555],[3.986235,49.816347],[3.986578,49.816042],[3.988509,49.815779],[3.989046,49.815475],[3.989282,49.815018],[3.989067,49.814547],[3.987029,49.813273],[3.9869,49.812886],[3.986964,49.81229],[3.988273,49.811986],[3.992372,49.811459],[3.99368,49.811044],[3.995354,49.810365],[3.997693,49.809258],[4.000225,49.808455],[4.003701,49.807831],[4.004817,49.807762],[4.008572,49.808718],[4.01031,49.808925],[4.013937,49.809715],[4.01546,49.809507],[4.01679,49.80833],[4.020374,49.809798],[4.020867,49.809825],[4.021425,49.809701],[4.021962,49.808953],[4.024,49.809452],[4.025567,49.81013],[4.026039,49.810684],[4.027262,49.81103],[4.02827,49.811764],[4.028785,49.81247],[4.030759,49.813204],[4.032991,49.81463],[4.033763,49.814907],[4.03475,49.814976],[4.038506,49.814547],[4.039707,49.814644],[4.038463,49.81301],[4.037325,49.810199],[4.037454,49.809188],[4.037304,49.808607],[4.037347,49.80743],[4.03704,49.80676],[4.037218,49.806332],[4.037405,49.806103],[4.037729,49.804681],[4.03873,49.801632],[4.040052,49.802601],[4.040952,49.802924],[4.043875,49.80357],[4.045597,49.803557],[4.047599,49.803803],[4.055407,49.804126],[4.055588,49.803557],[4.055668,49.801141],[4.056869,49.801063],[4.05793,49.80074],[4.058511,49.799383],[4.059592,49.798388],[4.061954,49.796773],[4.064257,49.787441],[4.065498,49.787661],[4.068681,49.788385],[4.069862,49.788553],[4.071464,49.788656],[4.072966,49.788979],[4.074047,49.789057],[4.076069,49.78907],[4.078291,49.788837],[4.079312,49.788889],[4.080393,49.788811],[4.081214,49.788966],[4.081114,49.788643],[4.080233,49.788113],[4.079652,49.78757],[4.078231,49.786885],[4.07705,49.786614],[4.075148,49.784959],[4.070943,49.784946],[4.071124,49.781973],[4.070303,49.781456],[4.070003,49.781185],[4.070023,49.780836],[4.069882,49.780487],[4.069962,49.780241],[4.070763,49.779788],[4.071104,49.778043],[4.070984,49.77728],[4.070903,49.777125],[4.070903,49.776776],[4.071144,49.776505],[4.071424,49.775794],[4.071104,49.775354],[4.071024,49.774927],[4.071464,49.774371],[4.072045,49.774281],[4.078331,49.770958],[4.080754,49.770053],[4.082816,49.769471],[4.084017,49.768954],[4.085879,49.767867],[4.087561,49.766872],[4.089102,49.766148],[4.090424,49.765824],[4.091325,49.76585],[4.095028,49.766755],[4.100394,49.76832],[4.101855,49.766471],[4.102236,49.76563],[4.101916,49.765074],[4.101896,49.764725],[4.102396,49.764324],[4.102556,49.763923],[4.102516,49.762902],[4.10598,49.76254],[4.107722,49.761621],[4.107842,49.762164],[4.107922,49.763535],[4.108663,49.76457],[4.109003,49.764829],[4.109724,49.766367],[4.109924,49.767104],[4.110264,49.767816],[4.110184,49.769445],[4.110344,49.769859],[4.111005,49.77013],[4.111525,49.770454],[4.111886,49.774901],[4.112326,49.775057],[4.114248,49.775432],[4.117091,49.776362],[4.119173,49.777953],[4.120655,49.776802],[4.121236,49.775535],[4.122497,49.774048],[4.125059,49.771747],[4.126061,49.771449],[4.129004,49.770893],[4.130025,49.770454],[4.130165,49.769445],[4.131066,49.768346],[4.131486,49.767686],[4.131646,49.767079],[4.132267,49.7666],[4.133388,49.766057],[4.132968,49.764596],[4.131887,49.762837],[4.132267,49.762591],[4.133308,49.762449],[4.13479,49.762022],[4.135871,49.76188],[4.13563,49.760509],[4.136131,49.759203],[4.137272,49.75822],[4.138013,49.75769],[4.139014,49.756526],[4.139354,49.755206],[4.139314,49.752555],[4.139655,49.751727],[4.141476,49.750123],[4.141877,49.749489],[4.142197,49.749256],[4.143238,49.748855],[4.144159,49.748635],[4.14484,49.748363],[4.146081,49.749334],[4.146942,49.749334],[4.147302,49.74945],[4.147483,49.749838],[4.148564,49.750601],[4.149505,49.751416],[4.150266,49.751856],[4.151607,49.751028],[4.152228,49.750821],[4.153249,49.750019],[4.153989,49.749554],[4.15437,49.749204],[4.15465,49.748726],[4.155931,49.747471],[4.156572,49.747341],[4.157093,49.746475],[4.157813,49.745983],[4.158434,49.745336],[4.158874,49.745026],[4.159115,49.744676],[4.158194,49.743176],[4.158274,49.742969],[4.159695,49.742788],[4.159936,49.742593],[4.159876,49.741921],[4.159996,49.739928],[4.159916,49.739618],[4.159435,49.739113],[4.160036,49.73901],[4.160516,49.738518],[4.160917,49.736926],[4.160877,49.735762],[4.161057,49.735205],[4.162098,49.734364],[4.162638,49.733678],[4.163699,49.731996],[4.16434,49.731129],[4.166502,49.729369],[4.167123,49.728269],[4.167644,49.727648],[4.168184,49.727389],[4.169125,49.727091],[4.170406,49.726457],[4.171708,49.725603],[4.173029,49.724917],[4.174671,49.723791],[4.17425,49.7226],[4.174631,49.721474],[4.174631,49.720788],[4.174471,49.720154],[4.175211,49.720115],[4.175792,49.720206],[4.176873,49.720128],[4.177714,49.720193],[4.178295,49.720529],[4.178835,49.721112],[4.180016,49.72172],[4.181198,49.721681],[4.182759,49.721811],[4.184,49.721668],[4.185642,49.721397],[4.187204,49.721565],[4.186443,49.722898],[4.186383,49.72361],[4.185902,49.724141],[4.185782,49.724581],[4.185842,49.725292],[4.185422,49.726198],[4.185282,49.726858],[4.185342,49.727881],[4.184741,49.728476],[4.184241,49.729576],[4.184421,49.729887],[4.186223,49.73043],[4.186903,49.730521],[4.188445,49.730508],[4.189346,49.730262],[4.195733,49.725888],[4.199196,49.724425],[4.201879,49.723908],[4.20328,49.723791],[4.204362,49.722846],[4.206344,49.721992],[4.206804,49.721487],[4.207164,49.720387],[4.207184,49.71996],[4.207044,49.719585],[4.207084,49.719196],[4.207865,49.718251],[4.207485,49.717526],[4.207425,49.71706],[4.207505,49.716737],[4.207725,49.716387],[4.207885,49.715106],[4.207625,49.714601],[4.206384,49.713449],[4.206123,49.712724],[4.206424,49.711105],[4.205282,49.71051],[4.204982,49.70994],[4.206624,49.709604],[4.208326,49.709461],[4.209287,49.709448],[4.211249,49.709772],[4.211969,49.709772],[4.213211,49.709448],[4.215233,49.708529],[4.215693,49.708244],[4.215793,49.708037],[4.215393,49.707571],[4.215393,49.707196],[4.215653,49.706924],[4.216134,49.706807],[4.216774,49.706768],[4.219257,49.70625],[4.218917,49.705914],[4.218456,49.705189],[4.217575,49.704464],[4.217755,49.704269],[4.218716,49.70392],[4.219517,49.703557],[4.221639,49.702366],[4.22196,49.701913],[4.22218,49.700968],[4.2223,49.699906],[4.223041,49.698054],[4.223301,49.697044],[4.224703,49.693185],[4.224883,49.69119],[4.224903,49.69005],[4.224683,49.688742],[4.225944,49.683691],[4.225704,49.683211],[4.225043,49.682421],[4.224022,49.681968],[4.223662,49.681592],[4.223601,49.681229],[4.223922,49.680374],[4.223221,49.678664],[4.225924,49.677641],[4.225183,49.677421],[4.224763,49.677071],[4.224562,49.676345],[4.224162,49.675853],[4.223601,49.675607],[4.223121,49.675296],[4.223001,49.674804],[4.223421,49.67334],[4.223281,49.672536],[4.223722,49.671526],[4.224042,49.671279],[4.226204,49.670515],[4.226865,49.670191],[4.227305,49.66966],[4.228106,49.669232],[4.229788,49.669025],[4.23187,49.668688],[4.23235,49.668351],[4.233652,49.667263],[4.234353,49.666991],[4.236034,49.666537],[4.236695,49.665967],[4.239518,49.663919],[4.239898,49.663479],[4.24108,49.661626],[4.242841,49.659435],[4.243322,49.657077],[4.244103,49.655936],[4.245104,49.654809],[4.245084,49.654485],[4.244523,49.653512],[4.244523,49.652981],[4.244003,49.651918],[4.243442,49.65127],[4.242441,49.650661],[4.242441,49.650415],[4.242761,49.650324],[4.244783,49.650674],[4.245584,49.650479],[4.246025,49.650479],[4.246966,49.650855],[4.247586,49.650376],[4.247346,49.649805],[4.247486,49.649144],[4.247526,49.647679],[4.247907,49.647316],[4.247947,49.647044],[4.248167,49.646992],[4.248107,49.646526],[4.247706,49.64602],[4.246345,49.645294],[4.246545,49.645113],[4.247606,49.644957],[4.248968,49.644529],[4.250129,49.643492],[4.25125,49.642909],[4.25153,49.642649],[4.252111,49.641068],[4.255034,49.637437],[4.256115,49.635363],[4.257837,49.635661],[4.258277,49.635531],[4.258317,49.635233],[4.258097,49.634689],[4.258077,49.634235],[4.257476,49.631434],[4.265405,49.631823],[4.265825,49.632082],[4.266866,49.632355],[4.266886,49.631927],[4.267086,49.631499],[4.267667,49.630941],[4.269048,49.630033],[4.269609,49.629411],[4.269789,49.628957],[4.269589,49.628114],[4.269369,49.62766],[4.269509,49.627349],[4.27055,49.626791],[4.27083,49.626506],[4.271411,49.625404],[4.271911,49.624664],[4.272532,49.624094],[4.273293,49.623614],[4.274834,49.622862],[4.276076,49.6222],[4.276857,49.621565],[4.277237,49.621098],[4.277277,49.620696],[4.276196,49.618672],[4.275395,49.618361],[4.273613,49.617855],[4.272993,49.617583],[4.272632,49.617142],[4.272632,49.616727],[4.272932,49.615546],[4.273273,49.615235],[4.275755,49.614327],[4.276356,49.613977],[4.276556,49.613535],[4.276376,49.613328],[4.275795,49.613276],[4.274714,49.613367],[4.273753,49.613289],[4.272572,49.612744],[4.271831,49.612679],[4.271411,49.612511],[4.27087,49.611732],[4.27069,49.610889],[4.27023,49.610163],[4.27017,49.609773],[4.27029,49.609644],[4.269969,49.609332],[4.269829,49.60871],[4.269969,49.608126],[4.269169,49.607438],[4.268848,49.606932],[4.267847,49.605998],[4.267447,49.605362],[4.266806,49.604973],[4.265064,49.604195],[4.264003,49.603857],[4.262882,49.603234],[4.26132,49.602689],[4.260299,49.60243],[4.259479,49.601989],[4.256816,49.599666],[4.254694,49.598252],[4.253012,49.597292],[4.25095,49.596448]]],"type":"MultiLineString"},"properties":{"geo_point":{"lon":3.835149328085914,"lat":50.01418185335178},"name":"GR122 De Condé-sur-l'Escaut (Nord) à Chappes (Ardennes) (2020)","code_gr":"GR122"}}]}