{"type":"FeatureCollection","features":[{"type":"Feature","geometry":{"coordinates":[[[2.126764,50.573018],[2.12781,50.573128],[2.130058,50.573195],[2.131313,50.572807],[2.132864,50.572442],[2.134311,50.572719],[2.135357,50.572841],[2.137291,50.57263],[2.138947,50.572088],[2.140777,50.57221],[2.141526,50.572199],[2.143583,50.5718],[2.144524,50.571767],[2.145187,50.571833],[2.146685,50.571977],[2.148184,50.572055],[2.149875,50.571944],[2.150415,50.57201],[2.151234,50.571645],[2.153353,50.572661],[2.153976,50.573601],[2.156207,50.573411],[2.158374,50.572756],[2.160027,50.572893],[2.161808,50.572838],[2.162065,50.572443],[2.161893,50.571911],[2.16243,50.57093],[2.162602,50.57078],[2.163782,50.570753],[2.169361,50.568559],[2.170949,50.568218],[2.170262,50.566705],[2.169854,50.566024],[2.169747,50.564838],[2.170584,50.564007],[2.17067,50.562562],[2.171163,50.561771],[2.170927,50.561185],[2.170906,50.560776],[2.170348,50.560476],[2.170412,50.559263],[2.170305,50.558868],[2.170369,50.557941],[2.170639,50.55754],[2.171124,50.557428],[2.172236,50.557107],[2.173936,50.556389],[2.174459,50.557042],[2.175626,50.557464],[2.177205,50.557309],[2.178609,50.557246],[2.181978,50.55595],[2.183544,50.555691],[2.184789,50.556727],[2.185475,50.556986],[2.186591,50.557164],[2.187557,50.557286],[2.188351,50.557736],[2.189896,50.557777],[2.189981,50.556428],[2.190625,50.554383],[2.191119,50.553156],[2.191076,50.551997],[2.193071,50.552638],[2.195432,50.552788],[2.196397,50.552883],[2.197985,50.553047],[2.199981,50.553742],[2.20056,50.554165],[2.203285,50.552474],[2.205324,50.550947],[2.206139,50.55047],[2.209444,50.552774],[2.209873,50.552992],[2.211225,50.554042],[2.213349,50.555473],[2.214551,50.556141],[2.215323,50.557096],[2.216761,50.559604],[2.218627,50.561485],[2.221696,50.563243],[2.223241,50.563748],[2.224979,50.564756],[2.226653,50.565956],[2.228219,50.566896],[2.231631,50.567659],[2.233069,50.568109],[2.233541,50.568804],[2.235751,50.569145],[2.236995,50.569499],[2.238712,50.569417],[2.238326,50.571666],[2.238326,50.573043],[2.237896,50.573465],[2.23633,50.573983],[2.235987,50.574446],[2.236705,50.575129],[2.23767,50.57577],[2.239291,50.575591],[2.241845,50.576259],[2.248153,50.577308],[2.252767,50.577662],[2.254698,50.577621],[2.255878,50.575536],[2.257466,50.571666],[2.257359,50.570004],[2.256758,50.567482],[2.256865,50.564906],[2.25666,50.563272],[2.25929,50.564497],[2.261178,50.565547],[2.262594,50.566405],[2.265126,50.569336],[2.266252,50.570387],[2.267089,50.570918],[2.268753,50.570985],[2.27137,50.570903],[2.273581,50.570821],[2.274761,50.571135],[2.275898,50.570085],[2.276542,50.570058],[2.276756,50.569895],[2.276649,50.569554],[2.276821,50.569036],[2.27725,50.569036],[2.277658,50.569131],[2.278022,50.568736],[2.279632,50.569268],[2.280383,50.569608],[2.279996,50.569935],[2.27976,50.57044],[2.280393,50.570564],[2.28285,50.572116],[2.283194,50.572756],[2.284138,50.573043],[2.286369,50.572361],[2.28888,50.571312],[2.289974,50.571067],[2.292678,50.570985],[2.293751,50.570562],[2.294716,50.569785],[2.294416,50.5689],[2.293944,50.568218],[2.293944,50.565738],[2.294051,50.56477],[2.295467,50.563829],[2.296476,50.563352],[2.295982,50.562821],[2.295467,50.562684],[2.295146,50.56233],[2.294962,50.561896],[2.295434,50.561432],[2.29552,50.560996],[2.295284,50.560587],[2.293922,50.559059],[2.295231,50.558431],[2.295875,50.558377],[2.297291,50.558172],[2.298278,50.557709],[2.299866,50.556687],[2.300274,50.555896],[2.301476,50.55501],[2.30184,50.555664],[2.302377,50.55591],[2.302978,50.555978],[2.303299,50.556128],[2.305038,50.555569],[2.305252,50.554396],[2.306175,50.553278],[2.306733,50.552133],[2.307355,50.551356],[2.30757,50.550702],[2.308085,50.550279],[2.308492,50.549611],[2.309446,50.548508],[2.309811,50.548385],[2.310433,50.547622],[2.311184,50.547022],[2.311635,50.54559],[2.313299,50.544361],[2.315445,50.54323],[2.31508,50.54252],[2.315015,50.542139],[2.315004,50.541036],[2.31611,50.539479],[2.315745,50.538252],[2.316281,50.538211],[2.317183,50.538211],[2.321817,50.534938],[2.323298,50.533833],[2.325465,50.531705],[2.329135,50.534106],[2.331559,50.533588],[2.334284,50.533165],[2.334885,50.532947],[2.337803,50.531433],[2.340571,50.53056],[2.34364,50.530137],[2.345914,50.529414],[2.346859,50.529223],[2.349455,50.528241],[2.349455,50.527927],[2.349133,50.527382],[2.348747,50.527109],[2.348403,50.526549],[2.349197,50.525676],[2.349798,50.525867],[2.350657,50.52584],[2.351622,50.52569],[2.352781,50.525635],[2.355141,50.524735],[2.355763,50.524305],[2.3566,50.524005],[2.358725,50.524619],[2.359519,50.525492],[2.359476,50.525779],[2.360355,50.525438],[2.362222,50.525833],[2.362845,50.526188],[2.364304,50.52657],[2.365956,50.52687],[2.367136,50.527225],[2.367522,50.526597],[2.367243,50.526106],[2.367286,50.525738],[2.368574,50.52582],[2.369797,50.526011],[2.371256,50.526433],[2.371578,50.527347],[2.374539,50.527811],[2.375483,50.528029],[2.376771,50.528193],[2.381244,50.530043],[2.382488,50.530398],[2.385096,50.531521],[2.385847,50.531767],[2.38604,50.532094],[2.386684,50.532326],[2.386877,50.532244],[2.388722,50.532462],[2.390675,50.531971],[2.391083,50.53159],[2.391727,50.531221],[2.392349,50.53133],[2.392993,50.530689],[2.393293,50.530185],[2.391104,50.529612],[2.390525,50.529121],[2.39001,50.528862],[2.390482,50.528316],[2.390503,50.527293],[2.390203,50.526884],[2.389624,50.526556],[2.389817,50.526052],[2.389688,50.525779],[2.388572,50.525247],[2.387971,50.524537],[2.387285,50.524128],[2.386169,50.523705],[2.385278,50.522991],[2.383132,50.521585],[2.384667,50.520608],[2.385675,50.519612],[2.385976,50.518794],[2.388444,50.516038],[2.388701,50.515301],[2.38883,50.513132],[2.389195,50.512777],[2.389323,50.512094],[2.390053,50.511617],[2.39089,50.509966],[2.391619,50.509406],[2.392091,50.508779],[2.392563,50.508383],[2.393701,50.506895],[2.39428,50.505681],[2.395117,50.504944],[2.395503,50.50433],[2.395997,50.504207],[2.397112,50.504671],[2.39722,50.505189],[2.398314,50.506213],[2.398979,50.50639],[2.400546,50.506554],[2.401425,50.506909],[2.402799,50.507032],[2.4037,50.50725],[2.404601,50.506254],[2.404751,50.505995],[2.405588,50.505381],[2.404472,50.504712],[2.402713,50.504425],[2.402048,50.503961],[2.400996,50.502965],[2.399494,50.502187],[2.399516,50.502064],[2.398958,50.501273],[2.39664,50.499976],[2.39546,50.499512],[2.394151,50.498529],[2.393465,50.497546],[2.39149,50.497041],[2.386813,50.495103],[2.384839,50.49438],[2.382757,50.493206],[2.381405,50.492905],[2.379517,50.493055],[2.377586,50.493451],[2.377586,50.492428],[2.376513,50.490271],[2.374239,50.488605],[2.374196,50.487759],[2.374947,50.487499],[2.375419,50.487158],[2.375483,50.486516],[2.377543,50.486448],[2.378552,50.486298],[2.378788,50.48653],[2.381062,50.486721],[2.381813,50.486721],[2.38456,50.486079],[2.38604,50.485943],[2.387585,50.485711],[2.389988,50.485656],[2.391662,50.485847],[2.393701,50.485929],[2.395246,50.485998],[2.396469,50.485738],[2.398378,50.485779],[2.399966,50.485615],[2.400524,50.485233],[2.401146,50.48511],[2.402734,50.485015],[2.403721,50.484537],[2.404151,50.484509],[2.404859,50.48496],[2.407906,50.486434],[2.409622,50.485192],[2.409858,50.485547],[2.41075,50.485317],[2.411403,50.485288],[2.412819,50.485083],[2.414171,50.485383],[2.414879,50.485288],[2.415695,50.485356],[2.417068,50.485369],[2.418227,50.484892],[2.418935,50.484537],[2.420394,50.484277],[2.421574,50.483663],[2.421317,50.483485],[2.423505,50.483007],[2.424686,50.483007],[2.427303,50.483308],[2.427775,50.48313],[2.427861,50.482543],[2.428247,50.482052],[2.42872,50.481874],[2.429578,50.480836],[2.430071,50.480058],[2.431724,50.478502],[2.430908,50.477942],[2.428119,50.476945],[2.426981,50.47644],[2.425565,50.475443],[2.424986,50.474801],[2.421746,50.472561],[2.420673,50.471851],[2.4193,50.470117],[2.417841,50.469106],[2.417991,50.468901],[2.417798,50.468396],[2.417755,50.467522],[2.4193,50.463574],[2.419343,50.462536],[2.418506,50.462659],[2.417883,50.462031],[2.417948,50.461771],[2.416553,50.460678],[2.41666,50.458698],[2.416403,50.4577],[2.416167,50.455924],[2.415158,50.453206],[2.416446,50.453219],[2.417347,50.453124],[2.417283,50.454463],[2.417669,50.454312],[2.417883,50.454367],[2.418119,50.454804],[2.418699,50.4549],[2.420673,50.455378],[2.420651,50.455597],[2.421617,50.455583],[2.423334,50.45617],[2.424149,50.456321],[2.425608,50.457072],[2.428011,50.458083],[2.429406,50.457318],[2.431573,50.455829],[2.432732,50.453862],[2.433676,50.452468],[2.43447,50.450678],[2.435092,50.44953],[2.435865,50.449011],[2.436745,50.448041],[2.437388,50.446975],[2.43771,50.446033],[2.440156,50.442398],[2.441186,50.441414],[2.441852,50.440922],[2.442989,50.439487],[2.443171,50.438566],[2.443847,50.437738],[2.445349,50.437164],[2.444545,50.43646],[2.445317,50.436063],[2.446154,50.435858],[2.446562,50.435558],[2.448084,50.435095],[2.448792,50.435313],[2.449136,50.435259],[2.449222,50.434683],[2.448278,50.434287],[2.448171,50.434041],[2.448965,50.433795],[2.450338,50.433672],[2.448922,50.432974],[2.45051,50.432633],[2.451218,50.432223],[2.45154,50.432469],[2.454072,50.428669],[2.454522,50.428095],[2.454501,50.426441],[2.454372,50.425689],[2.454415,50.423734],[2.454007,50.423187],[2.453535,50.423228],[2.453256,50.4229],[2.453814,50.422613],[2.454415,50.419496],[2.455724,50.41765],[2.45935,50.416132],[2.463599,50.412823],[2.466539,50.411825],[2.469393,50.411456],[2.471152,50.411169],[2.473276,50.412564],[2.475808,50.41404],[2.476645,50.414177],[2.477504,50.414245],[2.477847,50.414204],[2.479542,50.414669],[2.4804,50.415271],[2.482289,50.416105],[2.482696,50.416761],[2.485207,50.417964],[2.486237,50.418525],[2.487632,50.419263],[2.490078,50.421164],[2.493039,50.423105],[2.495592,50.424814],[2.496129,50.425347],[2.496515,50.425402],[2.497245,50.425716],[2.49791,50.426441],[2.499176,50.426017],[2.499927,50.427192],[2.500227,50.42722],[2.501558,50.426851],[2.50203,50.426878],[2.502952,50.427233],[2.504733,50.427015],[2.508682,50.425702],[2.510248,50.425087],[2.512694,50.425005],[2.513488,50.424787],[2.514797,50.424691],[2.516385,50.423939],[2.517222,50.423488],[2.518037,50.423392],[2.520591,50.423884],[2.520891,50.426304],[2.521127,50.427165],[2.52117,50.427917],[2.520332,50.429463],[2.5225,50.430065],[2.527157,50.431047],[2.529324,50.431034],[2.531426,50.43135],[2.53252,50.431404],[2.533315,50.431676],[2.534345,50.432277],[2.535268,50.432291],[2.536426,50.433084],[2.537499,50.433138],[2.539645,50.433959],[2.542692,50.434765],[2.543979,50.435161],[2.545675,50.434478],[2.546404,50.435271],[2.547968,50.43643],[2.549169,50.437094],[2.54993,50.437629],[2.551051,50.438279],[2.552412,50.438981],[2.552472,50.439223],[2.552332,50.439504],[2.553133,50.439657],[2.554194,50.44009],[2.555235,50.441646],[2.555736,50.441365],[2.557738,50.439708],[2.558438,50.438981],[2.55966,50.437986],[2.56022,50.437221],[2.560861,50.436698],[2.563704,50.43527],[2.564685,50.435895],[2.566106,50.436941],[2.567608,50.437795],[2.568409,50.438114],[2.56937,50.438573],[2.571212,50.439147],[2.571592,50.439606],[2.571692,50.439899],[2.571632,50.440345],[2.571472,50.440715],[2.571692,50.441276],[2.572513,50.441977],[2.573874,50.443201],[2.574055,50.442283],[2.574515,50.441671],[2.575356,50.441123],[2.575856,50.440677],[2.577478,50.439618],[2.577919,50.439529],[2.57888,50.438879],[2.5797,50.438866],[2.580661,50.438318],[2.582603,50.437068],[2.583785,50.437081],[2.583965,50.437004],[2.583985,50.436698],[2.584225,50.436507],[2.584485,50.436456],[2.584966,50.436469],[2.585446,50.436418],[2.586067,50.436137],[2.586628,50.436099],[2.587629,50.435321],[2.587328,50.4349],[2.586708,50.434479],[2.586628,50.434263],[2.586367,50.434033],[2.586447,50.433663],[2.587008,50.433357],[2.58919,50.432605],[2.590872,50.432337],[2.591315,50.432523],[2.591809,50.432838],[2.592581,50.43292],[2.594491,50.432455],[2.596229,50.432564],[2.596379,50.432469],[2.596186,50.431471],[2.597581,50.431129],[2.59831,50.431075],[2.600349,50.430856],[2.601357,50.429094],[2.601807,50.427987],[2.600735,50.427985],[2.598761,50.427548],[2.59846,50.427589],[2.598139,50.427493],[2.597323,50.42737],[2.596679,50.426167],[2.596658,50.425894],[2.596594,50.425689],[2.596229,50.42562],[2.596701,50.424828],[2.597152,50.424581],[2.598289,50.424322],[2.59919,50.424499],[2.601293,50.423898],[2.601615,50.42413],[2.602709,50.423611],[2.602688,50.423228],[2.60198,50.422449],[2.602044,50.421957],[2.603524,50.421533],[2.603954,50.421355],[2.604297,50.421259],[2.604855,50.420918],[2.606872,50.419988],[2.60758,50.419933],[2.61097,50.420343],[2.611485,50.420521],[2.616206,50.424882],[2.617129,50.425661],[2.617343,50.426249],[2.620111,50.426755],[2.621249,50.427808],[2.624553,50.426769],[2.626828,50.426618],[2.628222,50.426413],[2.63084,50.426154],[2.632492,50.426154],[2.63393,50.425825],[2.633608,50.42413],[2.633651,50.423255],[2.634874,50.423064],[2.635904,50.423146],[2.637084,50.423515],[2.638114,50.423488],[2.641741,50.424458],[2.642041,50.424841],[2.642341,50.424814],[2.642771,50.424568],[2.643564,50.424376],[2.646461,50.42346],[2.646697,50.424035],[2.646933,50.425115],[2.647534,50.427056],[2.647556,50.427739],[2.648586,50.429913],[2.650646,50.428491],[2.650989,50.428136],[2.652512,50.427192],[2.656503,50.425443],[2.658327,50.42491],[2.659272,50.424499],[2.661653,50.422558],[2.660838,50.421861],[2.665838,50.419523],[2.667275,50.419127],[2.66764,50.419359],[2.669442,50.418757],[2.669807,50.418757],[2.670022,50.418552],[2.674807,50.417869],[2.675558,50.417527],[2.676116,50.417472],[2.677832,50.416611],[2.678626,50.416009],[2.682145,50.417992],[2.68309,50.417254],[2.683368,50.416843],[2.684356,50.417076],[2.684806,50.415599],[2.685171,50.415121],[2.684806,50.414163],[2.684549,50.413124],[2.684613,50.412564],[2.6856,50.412003],[2.687231,50.411415],[2.688261,50.410718],[2.688583,50.410253],[2.688518,50.409815],[2.689098,50.409446],[2.688561,50.408912],[2.689377,50.407983],[2.690042,50.407572],[2.691286,50.406984],[2.694119,50.406724],[2.694612,50.406547],[2.694913,50.406519],[2.697101,50.403921],[2.697101,50.403921],[2.699483,50.403442],[2.701286,50.403018],[2.703303,50.40295],[2.704032,50.402827],[2.704912,50.402854],[2.70665,50.402594],[2.708388,50.402088],[2.710427,50.401295],[2.712057,50.40057],[2.713624,50.400187],[2.71401,50.399749],[2.714997,50.399462],[2.716478,50.399421],[2.717486,50.399695],[2.717915,50.399093],[2.717615,50.398477],[2.716971,50.395755],[2.716821,50.395003],[2.716821,50.394469],[2.715061,50.394428],[2.713688,50.394907],[2.712508,50.394976],[2.712143,50.394907],[2.710169,50.395167],[2.709225,50.395632],[2.706478,50.395974],[2.705985,50.39648],[2.705406,50.395755],[2.704912,50.395359],[2.704547,50.394757],[2.704097,50.394278],[2.704182,50.394223],[2.703238,50.393006],[2.701758,50.391419],[2.700985,50.389941],[2.699419,50.388519],[2.698518,50.387315],[2.698646,50.386795],[2.698539,50.385892],[2.699548,50.382663],[2.70047,50.381637],[2.701135,50.381554],[2.702015,50.381664],[2.703281,50.381404],[2.703732,50.381377],[2.70532,50.379762],[2.704204,50.379297],[2.703453,50.379105],[2.702616,50.378667],[2.702616,50.378065],[2.702401,50.377956],[2.703453,50.375821],[2.703067,50.375424],[2.703174,50.375096],[2.703861,50.374261],[2.704161,50.373604],[2.703732,50.373084],[2.706285,50.370511],[2.707423,50.370456],[2.708345,50.369567],[2.709482,50.368828],[2.710191,50.368568],[2.712894,50.366911],[2.71346,50.366434],[2.714587,50.365848],[2.715047,50.365378],[2.715116,50.364513],[2.715783,50.363588],[2.716012,50.36287],[2.716219,50.360581],[2.718243,50.356854],[2.716909,50.356282],[2.716081,50.35615],[2.708216,50.35549],[2.706905,50.356194],[2.706779,50.356248],[2.703303,50.354235],[2.699827,50.353154],[2.69605,50.352113],[2.694698,50.351785],[2.694119,50.351442],[2.69266,50.350361],[2.692445,50.34995],[2.690557,50.350443],[2.689977,50.349745],[2.689784,50.349348],[2.689763,50.348855],[2.689312,50.348184],[2.688239,50.347458],[2.688754,50.346787],[2.688797,50.346417],[2.686759,50.345336],[2.686265,50.344774],[2.685321,50.344322],[2.684034,50.344089],[2.683755,50.343761],[2.683647,50.343049],[2.683454,50.342857],[2.682467,50.342925],[2.681802,50.342775],[2.681695,50.342159],[2.677897,50.340447],[2.677661,50.340173],[2.678648,50.34005],[2.681609,50.33931],[2.682725,50.338721],[2.683497,50.338091],[2.683991,50.338392],[2.68854,50.337475],[2.687746,50.336242],[2.686716,50.335831],[2.686501,50.334914],[2.686544,50.334215],[2.686437,50.333955],[2.686072,50.333859],[2.686888,50.332065],[2.687574,50.33127],[2.688304,50.328791],[2.68869,50.328586],[2.69075,50.32764],[2.691823,50.32701],[2.693132,50.326613],[2.695792,50.324887],[2.698775,50.321435],[2.699827,50.321914],[2.701221,50.321695],[2.701758,50.3219],[2.702809,50.322695],[2.70429,50.32212],[2.704879,50.322117],[2.705015,50.322495],[2.705228,50.322369],[2.706629,50.321996],[2.70695,50.320982],[2.706822,50.320489],[2.706307,50.319927],[2.706071,50.319325],[2.70635,50.318818],[2.706564,50.318297],[2.707809,50.317927],[2.707465,50.317557],[2.706912,50.317098],[2.708733,50.316207],[2.709507,50.31549],[2.710432,50.315325],[2.711024,50.31487],[2.71204,50.314483],[2.71245,50.314182],[2.71421,50.313698],[2.714984,50.31362],[2.715469,50.313485],[2.716444,50.312961],[2.71683,50.312509],[2.715714,50.312303],[2.714963,50.31048],[2.715865,50.309658]]],"type":"MultiLineString"},"properties":{"geo_point":{"lon":2.4625680067654248,"lat":50.46663592831651},"name":"GR127 De St Aubin (Dennebroeucq) à Duisans (Pas-de-Calais) (2020)","code_gr":"GR127"}}]}