{"type":"FeatureCollection","features":[{"type":"Feature","geometry":{"coordinates":[[[3.608708,50.496467],[3.607513,50.495896],[3.60699,50.495278],[3.606168,50.494993],[3.605794,50.494922],[3.602766,50.494044],[3.602159,50.49359],[3.60163,50.492867],[3.601208,50.493187],[3.600494,50.493204],[3.599173,50.492918],[3.593309,50.490699],[3.593679,50.490296],[3.593864,50.488666],[3.594418,50.487825],[3.59352,50.487271],[3.593546,50.486733],[3.590429,50.486447],[3.590007,50.4888],[3.585859,50.488598],[3.583825,50.485943],[3.582979,50.485506],[3.582847,50.48643],[3.583006,50.48722],[3.582715,50.488531],[3.581077,50.488598],[3.577775,50.488313],[3.572307,50.488061],[3.562717,50.486212],[3.562136,50.48596],[3.561608,50.485674],[3.559732,50.484884],[3.558623,50.484312],[3.556879,50.483136],[3.55429,50.482194],[3.551807,50.481724],[3.551199,50.481472],[3.55001,50.48095],[3.548584,50.480614],[3.54824,50.479068],[3.547923,50.477941],[3.547976,50.476832],[3.54367,50.475218],[3.541663,50.474999],[3.539972,50.474478],[3.538862,50.474781],[3.53836,50.474781],[3.537426,50.474229],[3.537183,50.473943],[3.536099,50.473194],[3.535427,50.472588],[3.533166,50.470971],[3.529935,50.471625],[3.529879,50.471387],[3.53029,50.471244],[3.532681,50.469485],[3.533503,50.468557],[3.535576,50.467571],[3.537257,50.467143],[3.538565,50.466929],[3.539985,50.466524],[3.538266,50.4648],[3.53765,50.464895],[3.535838,50.463623],[3.536155,50.463254],[3.535968,50.463123],[3.535856,50.462695],[3.535987,50.462481],[3.535894,50.462255],[3.534848,50.463076],[3.52859,50.466144],[3.523677,50.468974],[3.522799,50.46914],[3.522425,50.469592],[3.521342,50.468557],[3.521342,50.468843],[3.521491,50.469128],[3.521678,50.469152],[3.521996,50.46895],[3.522313,50.468605],[3.524069,50.467547],[3.527338,50.465668],[3.531093,50.46373],[3.534474,50.461875],[3.536062,50.461185],[3.537612,50.459663],[3.538303,50.45908],[3.5392,50.45801],[3.541031,50.457166],[3.540358,50.4565],[3.539835,50.456131],[3.539518,50.455168],[3.538957,50.455346],[3.535053,50.456179],[3.533914,50.455382],[3.533839,50.455061],[3.533372,50.454894],[3.530663,50.452872],[3.529673,50.452254],[3.526348,50.449792],[3.525638,50.450648],[3.524499,50.451219],[3.516747,50.444046],[3.519549,50.441976],[3.519941,50.441917],[3.521323,50.440894],[3.520557,50.440834],[3.519567,50.440572],[3.517569,50.440132],[3.517064,50.439906],[3.516037,50.439692],[3.515159,50.439692],[3.5143,50.439525],[3.513795,50.439169],[3.512936,50.438931],[3.512413,50.438883],[3.51189,50.438562],[3.51075,50.438264],[3.510265,50.438193],[3.506753,50.436896],[3.506734,50.436527],[3.505875,50.436039],[3.505483,50.436385],[3.504829,50.436551],[3.503988,50.437324],[3.504306,50.437991],[3.481143,50.432506],[3.481143,50.432327],[3.480732,50.432268],[3.480302,50.432303],[3.479686,50.432113],[3.478808,50.431994],[3.478247,50.431292],[3.477706,50.431054],[3.477351,50.430709],[3.477295,50.430411],[3.477425,50.430019],[3.477089,50.429876],[3.476286,50.429947],[3.476099,50.430316],[3.475408,50.430507],[3.474922,50.430887],[3.473503,50.43084],[3.472662,50.430423],[3.47141,50.429198],[3.471336,50.428591],[3.470813,50.427294],[3.471579,50.426996],[3.471784,50.426508],[3.471541,50.426163],[3.470981,50.426175],[3.470738,50.425949],[3.470701,50.425532],[3.470308,50.425163],[3.470159,50.424318],[3.47029,50.424092],[3.470159,50.42389],[3.460128,50.426092],[3.458708,50.424545],[3.457923,50.424806],[3.45613,50.422831],[3.446996,50.426258],[3.446062,50.426163],[3.443596,50.425687],[3.444362,50.425033],[3.443708,50.42433],[3.442027,50.422962],[3.431136,50.414618],[3.429287,50.411928],[3.428446,50.410535],[3.427886,50.409749],[3.42783,50.409321],[3.427961,50.406987],[3.429605,50.402749],[3.429978,50.401487],[3.440611,50.406543],[3.441112,50.406148],[3.441452,50.40542],[3.441893,50.404872],[3.442773,50.404336],[3.443354,50.398746],[3.443594,50.398466],[3.443434,50.397636],[3.443534,50.396985],[3.444575,50.397087],[3.444015,50.396717],[3.444655,50.396921],[3.445036,50.397202],[3.445596,50.397406],[3.445937,50.397292],[3.446197,50.396883],[3.446377,50.396743],[3.446297,50.396296],[3.446858,50.39659],[3.447286,50.396613],[3.447312,50.396411],[3.447128,50.396117],[3.447207,50.395797],[3.433344,50.390233],[3.433018,50.390256],[3.432438,50.390021],[3.431843,50.389967],[3.431617,50.38975],[3.431306,50.389705],[3.43081,50.389425],[3.429876,50.389326],[3.429635,50.389199],[3.429069,50.389272],[3.428262,50.389813],[3.426379,50.390102],[3.425855,50.390391],[3.425346,50.390301],[3.425147,50.390436],[3.424907,50.390265],[3.424624,50.390274],[3.424369,50.390373],[3.423873,50.390274],[3.423533,50.389876],[3.423066,50.389813],[3.422642,50.389597],[3.417002,50.395046],[3.414602,50.393773],[3.378811,50.398438],[3.377759,50.398917],[3.377566,50.400366],[3.377438,50.40116],[3.377609,50.401666],[3.356946,50.404934],[3.359392,50.411211],[3.359778,50.411772],[3.360164,50.412046],[3.358212,50.413591],[3.357139,50.413974],[3.355637,50.413003],[3.35289,50.411499],[3.350809,50.412811],[3.333411,50.408114],[3.33308,50.408457],[3.332159,50.408751],[3.331859,50.409567],[3.331518,50.409835],[3.331859,50.410065],[3.33328,50.410409],[3.336804,50.411698],[3.338205,50.412476],[3.339447,50.412936],[3.340167,50.412999],[3.340688,50.413178],[3.341749,50.413829],[3.341629,50.414058],[3.341068,50.413918],[3.340448,50.413918],[3.340408,50.414211],[3.338466,50.414301],[3.335843,50.414556],[3.335222,50.414811],[3.333921,50.415015],[3.329216,50.415628],[3.329156,50.415972],[3.331218,50.420756],[3.324912,50.421228],[3.324751,50.420373],[3.324411,50.420246],[3.320387,50.421062],[3.319266,50.420003],[3.317724,50.418319],[3.316483,50.41638],[3.315542,50.416176],[3.314581,50.416253],[3.308354,50.414684],[3.30385,50.420985],[3.308775,50.423855],[3.309055,50.424149],[3.309896,50.425616],[3.305051,50.42721],[3.305391,50.428957],[3.306252,50.431814],[3.306573,50.433638],[3.297663,50.433689],[3.297403,50.433944],[3.286832,50.434314],[3.286772,50.433115],[3.281366,50.433332],[3.28463,50.420654],[3.28507,50.417018],[3.279024,50.417082],[3.280125,50.410626],[3.280666,50.408432],[3.281086,50.408087],[3.281166,50.407858],[3.280165,50.407819],[3.279525,50.407679],[3.278824,50.407437],[3.279224,50.406786],[3.279284,50.405752],[3.278744,50.405714],[3.276401,50.405076],[3.2753,50.404821],[3.27466,50.404412],[3.273608,50.403582],[3.272132,50.403011],[3.270208,50.402618],[3.269853,50.402469],[3.268975,50.401862],[3.268331,50.40166],[3.267453,50.401499],[3.264249,50.400832],[3.262764,50.400266],[3.259766,50.399516],[3.259374,50.39935],[3.259056,50.399088],[3.258487,50.39854],[3.257907,50.398284],[3.256535,50.39779],[3.25614,50.397611],[3.252877,50.394803],[3.252517,50.394343],[3.250935,50.391765],[3.244048,50.387106],[3.243467,50.38694],[3.243392,50.386441],[3.241611,50.386482],[3.242469,50.385086],[3.241868,50.384717],[3.241031,50.384388],[3.24028,50.383786],[3.240087,50.383499],[3.239551,50.382897],[3.239186,50.382788],[3.23483,50.380585],[3.234766,50.380092],[3.234336,50.379175],[3.234293,50.37886],[3.234422,50.378559],[3.23498,50.377957],[3.235302,50.377232],[3.234851,50.377054],[3.235152,50.376603],[3.23513,50.376069],[3.23468,50.375699],[3.231783,50.375563],[3.228049,50.374988],[3.226805,50.374919],[3.227856,50.374221],[3.233263,50.371443],[3.230538,50.370827],[3.227749,50.370444],[3.226547,50.370116],[3.223372,50.370198],[3.222449,50.370348],[3.222041,50.370567],[3.216376,50.371471],[3.213973,50.371936],[3.212686,50.372114],[3.210454,50.37262],[3.208866,50.372826],[3.207879,50.372839],[3.207493,50.372182],[3.206785,50.370006],[3.206785,50.369596],[3.203931,50.365791],[3.203223,50.365052],[3.200734,50.362163],[3.199618,50.361109],[3.198438,50.360945],[3.197644,50.361068],[3.197215,50.360822],[3.195541,50.359562],[3.194833,50.358632],[3.194318,50.358248],[3.193932,50.357413],[3.193202,50.35692],[3.190069,50.356318],[3.188031,50.355688],[3.186014,50.35473],[3.184876,50.3551],[3.185134,50.356126],[3.185112,50.357276],[3.185563,50.35807],[3.185778,50.359207],[3.186615,50.361027],[3.184168,50.360439],[3.183181,50.358878],[3.182473,50.358508],[3.181529,50.357687],[3.180692,50.356756],[3.179641,50.355839],[3.179362,50.355236],[3.179018,50.353936],[3.178246,50.352498],[3.17816,50.351923],[3.177795,50.351485],[3.175306,50.349582],[3.174706,50.349185],[3.174448,50.348665],[3.174191,50.348021],[3.17389,50.347679],[3.172967,50.347131],[3.172431,50.346296],[3.171895,50.345926],[3.1708,50.345296],[3.169985,50.343653],[3.170371,50.342954],[3.170199,50.341311],[3.169556,50.339955],[3.168762,50.338641],[3.168418,50.33749],[3.168418,50.336614],[3.167882,50.336997],[3.165736,50.33886],[3.165092,50.334915],[3.16447,50.331505],[3.164213,50.331505],[3.162646,50.330176],[3.162303,50.326012],[3.162689,50.325697],[3.162603,50.325354],[3.16226,50.32482],[3.164127,50.324327],[3.163419,50.321847],[3.163526,50.321231],[3.162625,50.318997],[3.162689,50.318354],[3.16241,50.31786],[3.162029,50.317977],[3.161633,50.318302],[3.161506,50.318293],[3.161548,50.318076],[3.161831,50.317724],[3.160571,50.316087],[3.160421,50.315644],[3.160101,50.315439],[3.159821,50.315056],[3.159921,50.314468],[3.15932,50.313356],[3.157098,50.311821],[3.156718,50.310696],[3.153374,50.310619],[3.153134,50.308612],[3.151808,50.308321],[3.150732,50.306043],[3.150477,50.303783],[3.150534,50.299551],[3.150506,50.298827],[3.150811,50.298139],[3.151232,50.297742],[3.152813,50.296438],[3.154715,50.295543],[3.155376,50.296438],[3.157999,50.295402],[3.1594,50.294699],[3.159741,50.294366],[3.157018,50.291706],[3.157999,50.291092],[3.158439,50.290861],[3.15872,50.290414],[3.161583,50.289288],[3.162123,50.288789],[3.176478,50.284952],[3.175697,50.283941],[3.173835,50.282278],[3.170492,50.27986],[3.165306,50.276469],[3.166508,50.274614],[3.166628,50.274128],[3.166888,50.273616],[3.166888,50.272311],[3.166167,50.269995],[3.165867,50.267461],[3.165166,50.265759],[3.164586,50.263903],[3.164305,50.263532],[3.163424,50.262956],[3.162764,50.26238],[3.162363,50.262495],[3.161623,50.262303],[3.161202,50.262354],[3.159861,50.263148],[3.15914,50.263941],[3.158079,50.264249],[3.157638,50.264505],[3.157338,50.264824],[3.154035,50.26636],[3.154135,50.267589],[3.153594,50.268421],[3.152914,50.269009],[3.152333,50.269188],[3.151712,50.269035],[3.150831,50.268472],[3.149971,50.268331],[3.148589,50.268369],[3.147808,50.267947],[3.146207,50.268139],[3.145085,50.268523],[3.143884,50.269355],[3.141181,50.27002],[3.138298,50.266258],[3.137878,50.265426],[3.138158,50.264581],[3.14002,50.263724],[3.140561,50.263199],[3.140381,50.261484],[3.140501,50.260793],[3.139059,50.259935],[3.137498,50.261139],[3.136997,50.261894],[3.134234,50.263097],[3.131772,50.263621],[3.13013,50.263916],[3.126626,50.265042],[3.122702,50.265183],[3.122162,50.265004],[3.121841,50.264709],[3.12052,50.264965],[3.119479,50.264952],[3.118518,50.264633],[3.117637,50.264901],[3.116996,50.264876],[3.116316,50.264709],[3.115615,50.264428],[3.114494,50.26421],[3.114133,50.264325],[3.113573,50.264901],[3.11055,50.265644],[3.108267,50.265733],[3.106065,50.265541],[3.105284,50.265554],[3.103062,50.263724],[3.103242,50.263148],[3.103082,50.26293],[3.10112,50.264133],[3.100399,50.264863],[3.099298,50.267538],[3.099879,50.267896],[3.100199,50.268254],[3.100107,50.268741],[3.0995,50.268792],[3.098813,50.268741],[3.098403,50.268834],[3.09732,50.269205],[3.095709,50.269425],[3.094282,50.269383],[3.092991,50.269735],[3.091758,50.270237],[3.090955,50.27038],[3.089573,50.270452],[3.088527,50.270583],[3.085613,50.27032],[3.083539,50.270261],[3.082381,50.270177],[3.079822,50.27007],[3.079112,50.269998],[3.078309,50.270225],[3.077337,50.270225],[3.076515,50.27038],[3.07575,50.270225],[3.074834,50.269938],[3.074199,50.26995],[3.073676,50.270129],[3.072499,50.270296],[3.0722,50.270201],[3.071584,50.27044],[3.070146,50.270559],[3.068446,50.270559],[3.067811,50.27069],[3.06301,50.271359],[3.062356,50.271562],[3.062095,50.271801],[3.062188,50.273102],[3.061497,50.273401],[3.06088,50.273448],[3.060002,50.273401],[3.058863,50.273604],[3.057705,50.273484],[3.056864,50.273926],[3.055818,50.274356],[3.05522,50.274953],[3.054193,50.275585],[3.052755,50.276015],[3.052138,50.276349],[3.051017,50.277245],[3.050195,50.277555],[3.048962,50.277889],[3.047972,50.277997],[3.047431,50.278128],[3.046441,50.27857],[3.045376,50.278916],[3.04334,50.276361],[3.042835,50.275955],[3.041883,50.27623],[3.040855,50.275084],[3.040388,50.274368],[3.03994,50.274117],[3.037661,50.275048],[3.037773,50.275335],[3.036877,50.275347],[3.036185,50.275848],[3.03428,50.276493],[3.032057,50.27746],[3.030955,50.278355],[3.030282,50.278964],[3.028825,50.27937],[3.02791,50.279346],[3.026192,50.283297],[3.025202,50.283679],[3.024305,50.283786],[3.02268,50.28387],[3.021634,50.283786],[3.020886,50.285971],[3.018608,50.285612],[3.016758,50.286066],[3.014535,50.286185],[3.012499,50.28609],[3.010145,50.286436],[3.009361,50.286615],[3.007829,50.286687],[3.00669,50.286973],[3.005774,50.287307],[3.005177,50.287642],[3.002823,50.28788],[3.001852,50.287618],[2.999535,50.287594],[2.999367,50.287928],[2.99834,50.288012],[2.995874,50.288131],[2.995426,50.28868],[2.993277,50.28862],[2.992586,50.288023],[2.992642,50.287045],[2.992138,50.286364],[2.991129,50.285481],[2.990569,50.285445],[2.989971,50.284884],[2.989018,50.283798],[2.98631,50.281566],[2.985563,50.280539],[2.984162,50.279059],[2.983022,50.277651],[2.982013,50.276696],[2.980967,50.276063],[2.979884,50.275454],[2.978502,50.274881],[2.977362,50.274368],[2.973645,50.277149],[2.971721,50.279083],[2.969722,50.28011],[2.966546,50.27845],[2.966154,50.278856],[2.96479,50.2782],[2.964118,50.277806],[2.961764,50.277042],[2.958775,50.27629],[2.955338,50.275609],[2.953993,50.275538],[2.952854,50.275156],[2.951677,50.274857],[2.951135,50.274594],[2.950426,50.274057],[2.949267,50.27346],[2.948315,50.273066],[2.946503,50.27241],[2.945233,50.272278],[2.943869,50.271992],[2.942748,50.273568],[2.941459,50.273627],[2.93748,50.272995],[2.936602,50.27272],[2.935836,50.272183],[2.935089,50.271992],[2.930083,50.271395],[2.927318,50.270834],[2.925749,50.270595],[2.924703,50.270583],[2.922181,50.270464],[2.919211,50.270392],[2.918203,50.270296],[2.916073,50.270535],[2.913495,50.269879],[2.911627,50.269544],[2.910581,50.269556],[2.91017,50.269508],[2.906939,50.270619],[2.904062,50.271789],[2.903146,50.271956],[2.901708,50.271849],[2.900176,50.271932],[2.898645,50.27235],[2.897505,50.272517],[2.895581,50.271813],[2.89474,50.271466],[2.893956,50.270929],[2.893993,50.270655],[2.893545,50.270595],[2.892592,50.270308],[2.8922,50.270034],[2.891901,50.269711],[2.891546,50.269711],[2.891266,50.269783],[2.890967,50.270487],[2.890276,50.271156],[2.888931,50.271908],[2.887941,50.272469],[2.886353,50.273233],[2.885307,50.27395],[2.884597,50.274606],[2.884429,50.274976],[2.883943,50.276123],[2.882953,50.277328],[2.880861,50.279262],[2.87989,50.279764],[2.878452,50.280456],[2.877835,50.280933],[2.877256,50.281864],[2.876882,50.282151],[2.876191,50.282521],[2.875892,50.282963],[2.875892,50.283273],[2.876266,50.284168],[2.876247,50.284586],[2.87593,50.284944],[2.875257,50.285254],[2.873856,50.285839],[2.873557,50.286257],[2.873632,50.286746],[2.874323,50.287689],[2.874323,50.288059],[2.873632,50.289491],[2.873165,50.291413],[2.873651,50.292535],[2.87395,50.293609],[2.87451,50.294384],[2.874566,50.29479],[2.874249,50.295387],[2.875033,50.296174],[2.874155,50.29664],[2.873464,50.297272],[2.872605,50.297642],[2.870755,50.297284],[2.870214,50.297308],[2.868906,50.298036],[2.868757,50.298251],[2.867225,50.298382],[2.866478,50.298251],[2.863657,50.297141],[2.859529,50.295721],[2.85329,50.296055],[2.848115,50.295948],[2.846285,50.296616],[2.844417,50.297046],[2.843034,50.297618],[2.842044,50.297773],[2.840438,50.297845],[2.838458,50.298143],[2.83814,50.298573],[2.837673,50.298633],[2.835824,50.299205],[2.832779,50.299886],[2.831864,50.300017],[2.829454,50.299981],[2.828483,50.300053],[2.825512,50.300518],[2.823327,50.30047],[2.822598,50.300566],[2.821814,50.300864],[2.820077,50.301258],[2.816266,50.301317],[2.814734,50.301222],[2.813445,50.300828],[2.812735,50.30047],[2.811839,50.29985],[2.810811,50.299349],[2.809653,50.299003],[2.808346,50.298859],[2.807001,50.298871],[2.804329,50.298967],[2.802573,50.298692],[2.801845,50.298466],[2.801341,50.29843],[2.800369,50.298322],[2.799118,50.298406],[2.798296,50.298573],[2.797212,50.299122],[2.79682,50.298919],[2.795419,50.298943],[2.795027,50.299014],[2.794373,50.298871],[2.788358,50.29874],[2.787573,50.298824],[2.785892,50.299289],[2.784715,50.299313],[2.781222,50.300041],[2.779746,50.300148],[2.77913,50.299969],[2.776428,50.2987],[2.774743,50.299668],[2.774443,50.299723],[2.774142,50.299942],[2.774979,50.300326],[2.775451,50.300888],[2.774571,50.301203],[2.773327,50.301957],[2.773241,50.302436],[2.773112,50.302601],[2.773091,50.30293],[2.772747,50.302861],[2.772018,50.302834],[2.770323,50.303368],[2.769379,50.303725],[2.768499,50.303834],[2.767748,50.303738],[2.76719,50.303684],[2.765881,50.303368],[2.764529,50.3033],[2.764014,50.303053],[2.763499,50.302985],[2.763692,50.302258],[2.763993,50.301491],[2.764628,50.300826],[2.764671,50.300539],[2.763941,50.300251],[2.762697,50.299963],[2.761645,50.300196],[2.761281,50.301334],[2.759714,50.301128],[2.759422,50.301409],[2.758907,50.301518],[2.758221,50.301477],[2.757899,50.301258],[2.757641,50.301285],[2.757105,50.301162],[2.756375,50.301189],[2.755689,50.301463],[2.752684,50.300065],[2.751697,50.301477],[2.750925,50.302203],[2.747921,50.304643],[2.745046,50.30637],[2.744767,50.30685],[2.744423,50.306863],[2.743737,50.306041],[2.743243,50.30589],[2.74202,50.305315],[2.741312,50.305219],[2.740518,50.305493],[2.739982,50.305616],[2.738587,50.305616],[2.737922,50.305698],[2.736441,50.305685],[2.734875,50.305767],[2.729703,50.306904],[2.727944,50.307178],[2.725798,50.307343],[2.71994,50.308042],[2.717515,50.308768],[2.715799,50.309618],[2.7142,50.308926],[2.713127,50.309967],[2.711368,50.310214],[2.708943,50.31083],[2.707634,50.310995],[2.70684,50.311214],[2.706218,50.311488],[2.705381,50.311488],[2.705038,50.311831],[2.704351,50.311886],[2.703664,50.312502],[2.703557,50.3129],[2.703128,50.313146],[2.702527,50.31316],[2.701883,50.312872],[2.699416,50.312187],[2.698836,50.312023],[2.698064,50.311982],[2.69609,50.31157],[2.695382,50.310611],[2.693536,50.310241],[2.692142,50.310296],[2.689245,50.310995],[2.689052,50.311118],[2.688773,50.311118],[2.688086,50.311392],[2.68594,50.312173],[2.685168,50.312543],[2.684138,50.312954],[2.683215,50.313229],[2.682378,50.313736],[2.67931,50.312406],[2.678237,50.311475],[2.678173,50.31105],[2.67858,50.310228],[2.673237,50.309446],[2.670341,50.309035],[2.667594,50.308473],[2.665019,50.30735],[2.66444,50.307185],[2.663775,50.307158],[2.662358,50.308775],[2.660535,50.30835],[2.658861,50.308062],[2.658196,50.307843],[2.656887,50.30724],[2.655792,50.308309],[2.654247,50.310118],[2.653518,50.310639],[2.652917,50.310502],[2.651415,50.309844],[2.650986,50.309775],[2.650578,50.309296],[2.649613,50.308898],[2.648389,50.308473],[2.647531,50.307953],[2.646415,50.306966],[2.643626,50.305856],[2.641866,50.304979],[2.64015,50.304198],[2.639334,50.303937],[2.638798,50.303581],[2.636867,50.302553],[2.634206,50.301662],[2.631202,50.300374],[2.628307,50.300593],[2.627425,50.301059],[2.626331,50.30147],[2.625601,50.301799],[2.624185,50.302745],[2.623799,50.301511],[2.621546,50.299346],[2.620773,50.29829],[2.620645,50.297948],[2.620237,50.297536],[2.620258,50.296508],[2.620902,50.295083],[2.620173,50.295275],[2.618799,50.294891],[2.610881,50.295261],[2.609229,50.295713],[2.607792,50.295384],[2.60807,50.296042],[2.607191,50.296166],[2.606032,50.29622],[2.604144,50.296659],[2.60232,50.296371],[2.600968,50.296289],[2.596827,50.295494],[2.595046,50.294863],[2.587192,50.293767],[2.58627,50.293493],[2.584295,50.292492],[2.583137,50.29219],[2.580948,50.291491],[2.579961,50.291203],[2.578437,50.290532],[2.577922,50.2906],[2.576785,50.290943],[2.57627,50.29119],[2.574339,50.291491],[2.574725,50.291848],[2.574489,50.292314],[2.572215,50.294397],[2.565735,50.292752],[2.564361,50.292286],[2.562409,50.292122],[2.560692,50.29171],[2.55949,50.29171],[2.558332,50.291573],[2.555006,50.291395],[2.553718,50.291546],[2.55301,50.290915],[2.552366,50.290765],[2.550929,50.290806],[2.549985,50.290573],[2.546938,50.290353],[2.546594,50.290436],[2.546122,50.290202],[2.544706,50.28853],[2.542346,50.286693],[2.541273,50.285582],[2.540801,50.284883],[2.540157,50.28454],[2.539535,50.284033],[2.539191,50.283306],[2.538183,50.282703],[2.537475,50.281565],[2.537153,50.280413],[2.536488,50.280523],[2.53578,50.280344],[2.533848,50.280386],[2.532282,50.281565],[2.532003,50.281688],[2.524171,50.279645],[2.524085,50.279412],[2.523742,50.279152],[2.52415,50.278877],[2.524134,50.278841],[2.523083,50.278251],[2.522718,50.278169],[2.521237,50.277524],[2.520787,50.277483],[2.51995,50.27714],[2.518555,50.277442],[2.517933,50.277483],[2.516624,50.277757],[2.512826,50.278361],[2.510916,50.278525],[2.505209,50.280939],[2.504776,50.281853],[2.508187,50.282388],[2.506878,50.283238],[2.505724,50.284325],[2.504454,50.285473],[2.501407,50.286817],[2.501085,50.286652],[2.498252,50.289188],[2.497244,50.292218],[2.496943,50.29411],[2.496407,50.294631],[2.494991,50.295426],[2.493403,50.29692],[2.492394,50.297715],[2.484348,50.292972],[2.483275,50.292561],[2.473941,50.289778],[2.474155,50.289517],[2.473919,50.288284],[2.473018,50.288338],[2.472868,50.287941],[2.468619,50.288393],[2.467825,50.288188],[2.463083,50.286172],[2.45995,50.285706],[2.457976,50.285542],[2.456667,50.285596],[2.455595,50.2855],[2.453127,50.285569],[2.451303,50.285898],[2.448814,50.286131],[2.447956,50.286419],[2.445424,50.286213],[2.444372,50.286241],[2.44272,50.285939],[2.441604,50.285117],[2.438471,50.283375],[2.436347,50.282799],[2.435231,50.282758],[2.434373,50.283005],[2.433,50.283115],[2.431648,50.282114],[2.429717,50.281277],[2.427936,50.282566],[2.427549,50.282594],[2.426519,50.282306],[2.42609,50.282265],[2.424653,50.281031],[2.425361,50.280482],[2.424695,50.279961],[2.42285,50.278905],[2.411821,50.27401],[2.406843,50.272501],[2.404847,50.272158],[2.402487,50.271555],[2.401993,50.272213],[2.401135,50.274407],[2.398732,50.274092],[2.396586,50.274558],[2.395341,50.273927],[2.394612,50.274064],[2.393153,50.274942],[2.39223,50.275381],[2.391565,50.275477],[2.389998,50.275326],[2.389677,50.275463],[2.389033,50.275943],[2.388282,50.276094],[2.387166,50.276176],[2.386029,50.27608],[2.384634,50.275861],[2.381995,50.275902],[2.381008,50.276039],[2.380321,50.274421],[2.380192,50.273475],[2.37987,50.272954],[2.378047,50.271664],[2.37781,50.271349],[2.377725,50.271033],[2.375772,50.270841],[2.375729,50.270142],[2.376072,50.269031],[2.374978,50.268894],[2.375257,50.268249],[2.374978,50.26766],[2.375751,50.266823],[2.375965,50.266233],[2.373991,50.265149],[2.37397,50.263723],[2.372038,50.263284],[2.369421,50.262488],[2.366889,50.261899],[2.365837,50.26172],[2.364764,50.261405],[2.363005,50.260211],[2.362211,50.26065],[2.360408,50.261185],[2.359335,50.260842],[2.357726,50.261021],[2.357297,50.260966],[2.35631,50.261226],[2.356417,50.262488],[2.354336,50.26279],[2.353885,50.262982],[2.354057,50.263243],[2.352254,50.263956],[2.351289,50.264025],[2.349637,50.263819],[2.348585,50.263668],[2.346933,50.263792],[2.345195,50.264038],[2.344208,50.26408],[2.343006,50.264587],[2.342019,50.264711],[2.342362,50.265588],[2.342362,50.26611],[2.341568,50.266398],[2.341375,50.266741],[2.340839,50.267234],[2.341225,50.267769],[2.341354,50.268153],[2.341247,50.268674],[2.341869,50.269141],[2.340839,50.270142],[2.340217,50.270457],[2.336462,50.271184],[2.333243,50.271212],[2.330947,50.271514],[2.328737,50.271952],[2.326484,50.272515],[2.323973,50.27246],[2.322578,50.272144],[2.321463,50.272103],[2.32054,50.271939],[2.319102,50.271939],[2.319252,50.271747],[2.319853,50.271514],[2.320004,50.271308],[2.320068,50.270526],[2.320733,50.270553],[2.32084,50.269909],[2.32054,50.268716],[2.320282,50.268167],[2.319961,50.268071],[2.319489,50.267769],[2.318866,50.268085],[2.317622,50.268181],[2.316699,50.268455],[2.31539,50.26851],[2.314103,50.268812],[2.312686,50.26899],[2.311764,50.269292],[2.310648,50.269868],[2.309725,50.270005],[2.306743,50.269717],[2.305734,50.270183],[2.30376,50.270238],[2.302773,50.27032],[2.302194,50.270636],[2.29934,50.27054],[2.298825,50.270457],[2.297816,50.270869],[2.298052,50.271294],[2.296765,50.271856],[2.295821,50.272186],[2.295349,50.27283],[2.294576,50.273296],[2.293675,50.273722],[2.293589,50.273955],[2.293954,50.274174],[2.294705,50.274394],[2.29537,50.274777],[2.295241,50.275052],[2.294877,50.275271],[2.295392,50.275532],[2.29507,50.276039],[2.295499,50.276382],[2.295649,50.278069],[2.296078,50.278562],[2.296228,50.279234],[2.296121,50.279536],[2.29625,50.279687],[2.295306,50.279796],[2.29449,50.27933],[2.293375,50.278891],[2.29301,50.279522],[2.292409,50.279536],[2.292387,50.279714],[2.291915,50.280167],[2.291272,50.280372],[2.289877,50.280386],[2.287002,50.280592],[2.286294,50.280496],[2.285221,50.280208],[2.284684,50.280263],[2.283075,50.280688],[2.281895,50.280893],[2.280071,50.281771],[2.278783,50.282306],[2.277796,50.283032],[2.276251,50.283526],[2.274642,50.283759],[2.274191,50.283937],[2.273805,50.284225],[2.272518,50.284458],[2.269385,50.284609],[2.268441,50.284719],[2.266896,50.285007],[2.264707,50.284952],[2.263484,50.285144],[2.262411,50.285144],[2.261381,50.283965],[2.258077,50.284705],[2.257562,50.285363],[2.256575,50.285281],[2.25636,50.285555],[2.256596,50.28598],[2.256939,50.286419],[2.256896,50.286584],[2.255952,50.286913],[2.254515,50.287201],[2.253399,50.287667],[2.252648,50.288517],[2.252176,50.289092],[2.251167,50.289901],[2.25018,50.290436],[2.248764,50.290888],[2.246468,50.291286],[2.244773,50.291464],[2.243807,50.291725],[2.24237,50.291944],[2.24149,50.292232],[2.240632,50.292218],[2.239988,50.291286],[2.239666,50.2913],[2.239108,50.291149],[2.23855,50.291121],[2.238121,50.290902],[2.23752,50.29119],[2.236726,50.290642],[2.235246,50.289298],[2.233529,50.290148],[2.232842,50.290025],[2.232542,50.290422],[2.230804,50.290792],[2.230031,50.291067],[2.228701,50.29145],[2.225826,50.294233],[2.227092,50.296111],[2.227671,50.296372],[2.226942,50.297208],[2.22765,50.297701],[2.228272,50.298304],[2.230096,50.298908],[2.229817,50.299237],[2.228723,50.299894],[2.227542,50.299675],[2.226684,50.299579],[2.224903,50.298784],[2.224388,50.298784],[2.219796,50.300703],[2.218444,50.301155],[2.217093,50.30169],[2.216127,50.301731],[2.215097,50.302046],[2.213552,50.302266],[2.211642,50.302649],[2.21072,50.302937],[2.210226,50.303184],[2.209539,50.303225],[2.20881,50.303115],[2.207994,50.302882],[2.207587,50.302965],[2.206922,50.303335],[2.205377,50.302457],[2.204776,50.30243],[2.202909,50.30291],[2.202287,50.303472],[2.200484,50.303828],[2.200227,50.304116],[2.19969,50.304075],[2.198317,50.304733],[2.197137,50.304787],[2.19645,50.304952],[2.195635,50.305281],[2.19424,50.305637],[2.192051,50.306117],[2.189691,50.306185],[2.187824,50.306117],[2.186751,50.306254],[2.185185,50.30661],[2.183533,50.307008],[2.181838,50.308035],[2.181516,50.308679],[2.180293,50.309858],[2.178683,50.310845],[2.177975,50.311557],[2.177267,50.311694],[2.176538,50.312092],[2.175272,50.312996],[2.174349,50.313215],[2.170379,50.314928],[2.16907,50.315531],[2.168555,50.315997],[2.167954,50.316846],[2.167332,50.317436],[2.166924,50.317997],[2.166495,50.318285],[2.166173,50.318943],[2.16538,50.318847],[2.163448,50.320121],[2.162354,50.320833],[2.161217,50.321354],[2.160788,50.321299],[2.160444,50.321025],[2.157891,50.322354],[2.156839,50.323176],[2.155831,50.323519],[2.154629,50.323861],[2.153792,50.324395],[2.153492,50.325026],[2.153492,50.325341],[2.153556,50.32556],[2.153256,50.325889],[2.152462,50.325902],[2.150638,50.326889],[2.150381,50.329231],[2.151303,50.329656],[2.151024,50.330327],[2.150896,50.331245],[2.149823,50.332738],[2.149544,50.332765],[2.149394,50.333121],[2.148042,50.334532],[2.147098,50.336846],[2.14684,50.338052],[2.146196,50.339024],[2.143579,50.341229],[2.139502,50.341407],[2.138236,50.341284],[2.137721,50.341421],[2.133257,50.343858],[2.132957,50.344926],[2.13167,50.346241],[2.130682,50.347241],[2.130446,50.347911],[2.130575,50.348596],[2.13006,50.348528],[2.128558,50.349007],[2.127271,50.349842],[2.126949,50.350267],[2.12697,50.350664],[2.127807,50.354155],[2.127142,50.354223],[2.124352,50.354785],[2.120297,50.355332],[2.118816,50.35588],[2.115233,50.356879],[2.114418,50.357482],[2.113903,50.357564],[2.113194,50.357564],[2.111478,50.357974],[2.110233,50.358495],[2.108238,50.359412],[2.106349,50.359699],[2.106843,50.36126],[2.1065,50.361739],[2.10459,50.362204],[2.102702,50.361766],[2.102659,50.360726],[2.102251,50.360192],[2.101285,50.360315],[2.100642,50.360589],[2.098496,50.360452],[2.098196,50.361055],[2.096951,50.361602],[2.096908,50.362341],[2.096629,50.363026],[2.096372,50.36345],[2.096457,50.363957],[2.096264,50.364066],[2.095363,50.363779],[2.094719,50.364778],[2.093561,50.366325],[2.090836,50.368884],[2.087188,50.37106],[2.088883,50.372566],[2.090192,50.373455],[2.095706,50.377916],[2.097487,50.378477],[2.094784,50.381077],[2.089784,50.382911],[2.089355,50.382883],[2.080472,50.377711],[2.079055,50.379134],[2.076802,50.380708],[2.074742,50.380749],[2.074335,50.381077],[2.073305,50.381843],[2.072489,50.382186],[2.07058,50.381282],[2.063906,50.384936],[2.063835,50.384994],[2.063835,50.384994],[2.061432,50.385336],[2.060573,50.385637],[2.060681,50.385925],[2.060402,50.386458],[2.060402,50.387047],[2.059071,50.388114],[2.058299,50.389195],[2.057934,50.390015],[2.057441,50.390316],[2.056239,50.390631],[2.051497,50.390617],[2.047935,50.390508],[2.042828,50.391753],[2.041605,50.391903],[2.040875,50.392423],[2.040575,50.393025],[2.026499,50.39334],[2.022636,50.393052],[2.022636,50.393052],[2.021134,50.392574],[2.014654,50.392601],[2.012337,50.392067],[2.008667,50.39245],[2.004741,50.393832],[2.003625,50.393928],[2.00253,50.393873],[2.002488,50.394256],[2.0012,50.394735],[1.999762,50.399618],[1.999934,50.4013],[2.000063,50.403133],[2.001694,50.405048],[2.002101,50.405157],[2.002788,50.405499],[2.003389,50.405472],[2.004505,50.405239],[2.005749,50.404843],[2.006672,50.404938],[2.006693,50.405157],[2.004676,50.406798],[2.004676,50.406798],[2.001672,50.408549],[2.001672,50.408549],[2.000835,50.409246],[2.000256,50.409629],[1.999097,50.411516],[1.999269,50.412118],[2.000106,50.412829],[2.001264,50.41462],[2.002659,50.415167],[2.0009,50.41637],[1.999827,50.41622],[1.997874,50.415454],[1.997466,50.415318],[1.997359,50.416015],[1.997037,50.416398],[1.996029,50.416398],[1.995364,50.41622],[1.992832,50.416275],[1.993025,50.417136],[1.993454,50.417779],[1.992939,50.418025],[1.992016,50.418285],[1.990385,50.418339],[1.989656,50.418093],[1.988969,50.417956],[1.987145,50.418558],[1.986308,50.419187],[1.98457,50.420732],[1.983626,50.421292],[1.982532,50.421566],[1.975301,50.423863],[1.973691,50.424669],[1.968992,50.42486],[1.965344,50.425394],[1.96425,50.425462],[1.959207,50.426269],[1.952405,50.426733],[1.951611,50.42672],[1.949551,50.427212],[1.945088,50.426925],[1.943629,50.426925],[1.940046,50.426515],[1.936355,50.426706],[1.933051,50.426528],[1.930797,50.426583],[1.928995,50.426815],[1.928051,50.426815],[1.927085,50.426911],[1.925433,50.426733],[1.924081,50.426747],[1.922987,50.427034],[1.920669,50.42795],[1.91773,50.428852],[1.916314,50.42918],[1.915048,50.429057],[1.913674,50.429207],[1.913073,50.429057],[1.912451,50.428647],[1.912215,50.428223],[1.912344,50.427991],[1.913267,50.427595],[1.913245,50.427526],[1.91082,50.427977],[1.910177,50.428059],[1.909533,50.428442],[1.909254,50.428975],[1.909833,50.429549],[1.906422,50.430547],[1.906529,50.430793],[1.905606,50.431818],[1.906143,50.432064],[1.907194,50.43242],[1.908481,50.433144],[1.909597,50.434552],[1.910692,50.435085],[1.91155,50.435673],[1.911722,50.436206],[1.913867,50.437162],[1.91464,50.437176],[1.91582,50.4376],[1.916528,50.43801],[1.917365,50.438625],[1.919489,50.439212],[1.920305,50.439759],[1.920905,50.440128],[1.92142,50.440114],[1.921893,50.440442],[1.922772,50.440538],[1.923588,50.440893],[1.924746,50.441659],[1.925691,50.442055],[1.925862,50.442492],[1.92539,50.443107],[1.925691,50.443408],[1.925776,50.444528],[1.926141,50.444842],[1.926012,50.445102],[1.92509,50.445075],[1.925819,50.445676],[1.926034,50.446332],[1.926034,50.446332],[1.924124,50.448013],[1.921871,50.448846],[1.92142,50.448955],[1.920112,50.44942],[1.919532,50.449037],[1.918245,50.450363],[1.916893,50.451046],[1.913481,50.453409],[1.912558,50.456565],[1.911893,50.457276],[1.91067,50.459216],[1.909662,50.460472],[1.909533,50.461388],[1.909168,50.462262],[1.909254,50.465909],[1.907859,50.469105],[1.907945,50.469897],[1.907859,50.470033],[1.907215,50.469965],[1.903611,50.470102],[1.90316,50.469678],[1.903031,50.469405],[1.902302,50.469514],[1.901808,50.469323],[1.900843,50.46864],[1.899083,50.468162],[1.898461,50.46819],[1.897903,50.468449],[1.89595,50.468285],[1.893053,50.468326],[1.891208,50.468121],[1.888526,50.467753],[1.887496,50.467807],[1.886294,50.468135],[1.884385,50.468149],[1.881445,50.470115],[1.878441,50.472642],[1.877776,50.473461],[1.87505,50.475291],[1.873892,50.475701],[1.871446,50.476247],[1.870351,50.476903],[1.869836,50.476944],[1.867991,50.476766],[1.866553,50.476411],[1.864128,50.478077],[1.863613,50.477913],[1.862584,50.477777],[1.861124,50.477381],[1.85988,50.477613],[1.859193,50.478173],[1.858785,50.478855],[1.858485,50.479702],[1.857477,50.480221],[1.855846,50.481641],[1.855224,50.48287],[1.853936,50.483047],[1.853056,50.483416],[1.851983,50.483225],[1.849838,50.483156],[1.847413,50.482747],[1.845289,50.482542],[1.843551,50.482228],[1.842263,50.481887],[1.84192,50.481668],[1.83235,50.478582],[1.824754,50.476684],[1.823531,50.476561],[1.822737,50.47622],[1.821406,50.476029],[1.820634,50.476206],[1.819947,50.476234],[1.818145,50.476671],[1.815312,50.476957],[1.813166,50.476602],[1.810849,50.476548],[1.807523,50.475578],[1.800936,50.474335],[1.795915,50.474458],[1.794026,50.474595],[1.791044,50.474636],[1.787138,50.47409],[1.785229,50.474021],[1.784027,50.47383],[1.783297,50.473857],[1.782589,50.474021],[1.781731,50.474363],[1.780186,50.474554],[1.77877,50.474868],[1.776259,50.474977],[1.776066,50.474376],[1.775508,50.473816],[1.773277,50.472164],[1.769629,50.469596],[1.769629,50.469596],[1.767419,50.467391],[1.766754,50.467309],[1.766518,50.467227],[1.765595,50.467158],[1.765144,50.467077],[1.764737,50.466735],[1.762119,50.467391],[1.760402,50.466831],[1.760381,50.466653],[1.760187,50.46638],[1.760252,50.466107],[1.759737,50.465998],[1.759587,50.465478],[1.759823,50.4647],[1.758728,50.464577],[1.758192,50.4647],[1.757291,50.465301],[1.757098,50.465506],[1.756819,50.46556],[1.756497,50.465369],[1.755789,50.465233],[1.755338,50.465478],[1.755102,50.465301],[1.754201,50.465219],[1.753514,50.465287],[1.753064,50.465123],[1.750982,50.46399],[1.74712,50.462282],[1.742421,50.45981],[1.741348,50.45955],[1.740961,50.459864],[1.739717,50.460329],[1.738172,50.460698],[1.737335,50.460985],[1.736842,50.461285],[1.735962,50.461517],[1.734653,50.462118],[1.733559,50.46246],[1.731263,50.463621],[1.729954,50.464167],[1.728773,50.464536],[1.727357,50.464741],[1.726499,50.465055],[1.727379,50.46694],[1.727679,50.468552],[1.727465,50.469835],[1.726971,50.470628],[1.726649,50.473455],[1.726649,50.473455],[1.72616,50.474422],[1.726053,50.475337],[1.727683,50.475746],[1.730087,50.476006],[1.729851,50.476415],[1.730108,50.476771],[1.730752,50.480089],[1.732855,50.481208],[1.732683,50.481509],[1.733048,50.482232],[1.733627,50.482669],[1.734121,50.483366],[1.734292,50.484103],[1.730623,50.484772],[1.730151,50.484717],[1.729186,50.48499],[1.728628,50.4854],[1.728113,50.485577],[1.727362,50.486137],[1.726096,50.486683],[1.725388,50.487093],[1.724529,50.487134],[1.723692,50.487393],[1.722512,50.487434],[1.721396,50.487421],[1.719036,50.487816],[1.717727,50.487748],[1.71674,50.487776],[1.716332,50.487653],[1.713972,50.487816],[1.713221,50.487243],[1.712041,50.48682],[1.71056,50.486547],[1.707835,50.486315],[1.707149,50.486369],[1.704724,50.487229],[1.703587,50.487871],[1.703114,50.488076],[1.702814,50.488349],[1.701441,50.488909],[1.700754,50.48955],[1.700432,50.489537],[1.699831,50.489837],[1.697986,50.48981],[1.696956,50.490055],[1.696076,50.490383],[1.695368,50.490506],[1.695733,50.491229],[1.695712,50.492635],[1.699402,50.49714],[1.700647,50.496744],[1.702106,50.496785],[1.703758,50.497058],[1.703501,50.49744],[1.70408,50.498259],[1.704681,50.498642],[1.706269,50.499856],[1.707921,50.500389],[1.708436,50.499788],[1.710324,50.499706],[1.713414,50.50249],[1.718049,50.504824],[1.718907,50.504415],[1.719723,50.504715],[1.721504,50.505834],[1.722577,50.506271],[1.724122,50.507158],[1.724722,50.507649],[1.727211,50.508577],[1.727683,50.508973],[1.728091,50.509027],[1.728896,50.509778],[1.729282,50.510433],[1.729282,50.511006],[1.730891,50.512671],[1.731707,50.512507],[1.732608,50.512425],[1.732737,50.513421],[1.733144,50.514063],[1.733037,50.514949],[1.733767,50.516273],[1.733767,50.516273],[1.734647,50.5163],[1.73587,50.516614],[1.736878,50.517037],[1.736921,50.517515],[1.73647,50.518933],[1.737307,50.520612],[1.737844,50.522371],[1.739088,50.526669],[1.740633,50.528415],[1.743208,50.533393],[1.745332,50.537744],[1.745697,50.538126],[1.749259,50.543908],[1.748873,50.545776],[1.749924,50.546048],[1.750869,50.546471],[1.752628,50.546676],[1.753551,50.546867],[1.757542,50.548135],[1.757199,50.549307],[1.759988,50.549703],[1.760954,50.55003],[1.761919,50.551066],[1.764644,50.552061],[1.767756,50.553643],[1.770309,50.554229],[1.771833,50.55517],[1.772112,50.55566],[1.773463,50.555633],[1.77312,50.556669],[1.77194,50.557405],[1.770245,50.558319],[1.769215,50.559955],[1.768893,50.561059],[1.769043,50.561563],[1.769301,50.561863],[1.769601,50.562681],[1.769537,50.563512],[1.770095,50.564562],[1.77003,50.565052],[1.768807,50.56587],[1.768485,50.565761],[1.767734,50.566347],[1.767305,50.56677],[1.766876,50.567097],[1.766576,50.567519],[1.765739,50.568092],[1.764387,50.570204],[1.764516,50.573802],[1.763378,50.57616],[1.772004,50.57744],[1.773013,50.577822],[1.774236,50.578435],[1.775674,50.578762],[1.776446,50.578694],[1.777111,50.578462],[1.778935,50.577549],[1.779836,50.576855],[1.779836,50.577168],[1.78475,50.578571],[1.785673,50.578667],[1.785115,50.579198],[1.783806,50.582291],[1.783634,50.583163],[1.783763,50.584308],[1.783506,50.585561],[1.783076,50.586392],[1.782948,50.588136],[1.78327,50.588749],[1.782476,50.588735],[1.780823,50.588872],[1.778699,50.589757],[1.777927,50.590016],[1.777154,50.590425],[1.775438,50.590697],[1.773764,50.591187],[1.772348,50.591501],[1.770953,50.591378],[1.765245,50.59225],[1.761962,50.593367],[1.761683,50.594375],[1.76134,50.59477],[1.760439,50.595029],[1.759473,50.595574],[1.759237,50.597399],[1.758937,50.59857],[1.758336,50.599782],[1.75855,50.600314],[1.75752,50.600518],[1.757306,50.601253],[1.757306,50.602111],[1.757113,50.602098],[1.757091,50.602356],[1.75634,50.604331],[1.755911,50.604876],[1.755632,50.605516],[1.755096,50.606388],[1.755203,50.608253],[1.754881,50.60873],[1.753637,50.608185],[1.75222,50.607082],[1.751276,50.606891],[1.74956,50.606755],[1.746684,50.607205],[1.744281,50.607055],[1.722265,50.606932],[1.721579,50.607109],[1.719476,50.608158],[1.71733,50.607872],[1.715528,50.607082],[1.712824,50.606605],[1.709863,50.60636],[1.70776,50.606524],[1.707202,50.606633],[1.703554,50.607218],[1.695894,50.610146],[1.692182,50.611753],[1.691087,50.612066],[1.687869,50.612434],[1.685294,50.612651],[1.684135,50.613264],[1.683577,50.613468],[1.68317,50.613754],[1.682655,50.616396],[1.682655,50.616396],[1.680552,50.618125],[1.679457,50.619228],[1.677612,50.620807],[1.676818,50.621242],[1.675316,50.622563],[1.674093,50.622808],[1.672913,50.62338],[1.67214,50.623353],[1.671282,50.623026],[1.670831,50.622931],[1.670123,50.622835],[1.669587,50.622958],[1.669072,50.623516],[1.668965,50.623965],[1.668493,50.624755],[1.668214,50.62534],[1.667849,50.625708],[1.66742,50.62662],[1.667849,50.628307],[1.667119,50.629532],[1.665982,50.630227],[1.665596,50.630975],[1.664888,50.631207],[1.662549,50.63122],[1.660167,50.631384],[1.658879,50.63137],[1.657506,50.631234],[1.657292,50.631697],[1.65624,50.632826],[1.655918,50.633316],[1.655253,50.633507],[1.655747,50.634119],[1.655768,50.634773],[1.655146,50.63514],[1.655725,50.635535],[1.656272,50.636392],[1.653504,50.638066],[1.643848,50.641073],[1.629493,50.639849],[1.617069,50.633412],[1.616275,50.638433],[1.615245,50.638161],[1.61473,50.637807],[1.614537,50.637345],[1.613915,50.637277],[1.613529,50.637944],[1.612885,50.637236],[1.612306,50.635943],[1.611533,50.635766],[1.611254,50.635916],[1.610331,50.639944],[1.610696,50.640502],[1.611319,50.640951],[1.611683,50.641359],[1.611683,50.641359],[1.611726,50.641958],[1.610846,50.643319],[1.610932,50.643604],[1.611319,50.643849],[1.611662,50.64389],[1.611898,50.645196],[1.61222,50.64521],[1.612627,50.645428],[1.612713,50.645795],[1.612906,50.646122],[1.612563,50.646788],[1.612563,50.647088],[1.612112,50.646816],[1.608787,50.646149],[1.607499,50.646666],[1.606898,50.647278],[1.606233,50.647714],[1.605332,50.647863],[1.603315,50.647646],[1.602242,50.647265],[1.601877,50.646761],[1.601083,50.646285],[1.599753,50.646054],[1.598079,50.646217],[1.597156,50.646135],[1.595869,50.646231],[1.595375,50.646339],[1.593423,50.646734],[1.59235,50.647101],[1.590247,50.647129],[1.588616,50.647877],[1.585741,50.648544],[1.585011,50.648857],[1.584754,50.650149],[1.58411,50.650775],[1.58411,50.650775],[1.583896,50.651061],[1.583617,50.65121],[1.58308,50.651237],[1.582673,50.651795],[1.582951,50.652271],[1.581707,50.652557],[1.582136,50.652938],[1.581256,50.653768],[1.581557,50.653918],[1.581814,50.654135],[1.582243,50.654176],[1.582437,50.654407],[1.582501,50.654761],[1.58263,50.65506],[1.583123,50.655237],[1.583273,50.655428],[1.583102,50.655673],[1.583145,50.656053],[1.582737,50.656067],[1.58293,50.65623],[1.583145,50.656271],[1.583102,50.656462],[1.582994,50.656788],[1.583445,50.657237],[1.582994,50.657795],[1.5822,50.657808],[1.58175,50.658121],[1.581707,50.65842],[1.581299,50.658448],[1.581063,50.658652],[1.580613,50.658624],[1.580484,50.658774],[1.581707,50.659291],[1.581728,50.659631],[1.581578,50.659794],[1.581771,50.660025],[1.581449,50.660338],[1.581085,50.660896],[1.580613,50.660978],[1.579111,50.662011],[1.578059,50.662392],[1.577501,50.662773],[1.577866,50.6631],[1.578124,50.66314],[1.578402,50.663263],[1.578317,50.66348],[1.577802,50.66348],[1.577115,50.663698],[1.57645,50.663698],[1.576257,50.663902],[1.576107,50.6645],[1.575205,50.664242],[1.57233,50.664487],[1.571944,50.664364],[1.57145,50.664419],[1.571107,50.664405],[1.570892,50.665752],[1.570742,50.666133],[1.570485,50.667248],[1.570699,50.667928],[1.570764,50.668975],[1.570613,50.669505],[1.570957,50.670933],[1.571794,50.671709],[1.571901,50.672456],[1.569712,50.676522]]],"type":"MultiLineString"},"properties":{"geo_point":{"lon":2.563547397879611,"lat":50.39327166750106},"name":"GR121 De Bon-Secours (Belgique) à Equihen-Plage (Pas-de-Calais) (2020)","code_gr":"GR121"}},{"type":"Feature","geometry":{"coordinates":[[[2.776452,50.298758],[2.774743,50.299668],[2.774443,50.299723],[2.774142,50.299942],[2.774979,50.300326],[2.775451,50.300888],[2.774571,50.301203],[2.773327,50.301957],[2.773241,50.302436],[2.773112,50.302601],[2.773091,50.30293],[2.772747,50.302861],[2.772018,50.302834],[2.770323,50.303368],[2.769379,50.303725],[2.768499,50.303834],[2.767748,50.303738],[2.76719,50.303684],[2.765881,50.303368],[2.764529,50.3033],[2.764014,50.303053],[2.763499,50.302985],[2.763692,50.302258],[2.763993,50.301491],[2.764628,50.300826],[2.764671,50.300539],[2.763941,50.300251],[2.762697,50.299963],[2.761645,50.300196],[2.761281,50.301334],[2.759714,50.301128],[2.759422,50.301409],[2.758907,50.301518],[2.758221,50.301477],[2.757899,50.301258],[2.757641,50.301285],[2.757105,50.301162],[2.756375,50.301189],[2.755689,50.301463],[2.752684,50.300065],[2.751697,50.301477],[2.750925,50.302203],[2.747921,50.304643],[2.745046,50.30637],[2.744767,50.30685],[2.744423,50.306863],[2.743737,50.306041],[2.743243,50.30589],[2.74202,50.305315],[2.741312,50.305219],[2.740518,50.305493],[2.739982,50.305616],[2.738587,50.305616],[2.737922,50.305698],[2.736441,50.305685],[2.734875,50.305767],[2.729703,50.306904],[2.727944,50.307178],[2.725798,50.307343],[2.71994,50.308042],[2.717515,50.308768],[2.715799,50.309618],[2.7142,50.308926],[2.713127,50.309967],[2.711368,50.310214],[2.708943,50.31083],[2.707634,50.310995],[2.70684,50.311214],[2.706218,50.311488],[2.705381,50.311488],[2.705038,50.311831],[2.704351,50.311886],[2.703664,50.312502],[2.703557,50.3129],[2.703128,50.313146],[2.702527,50.31316],[2.701883,50.312872],[2.699416,50.312187],[2.698836,50.312023],[2.698064,50.311982],[2.69609,50.31157],[2.695382,50.310611],[2.693536,50.310241],[2.692142,50.310296],[2.689245,50.310995],[2.689052,50.311118],[2.688773,50.311118],[2.688086,50.311392],[2.68594,50.312173],[2.685168,50.312543],[2.684138,50.312954],[2.683215,50.313229],[2.682378,50.313736],[2.67931,50.312406],[2.678237,50.311475],[2.678173,50.31105],[2.67858,50.310228],[2.673237,50.309446],[2.670341,50.309035],[2.667594,50.308473],[2.665019,50.30735],[2.66444,50.307185],[2.663775,50.307158],[2.662358,50.308775],[2.660535,50.30835],[2.658861,50.308062],[2.658196,50.307843],[2.656887,50.30724],[2.655792,50.308309],[2.654247,50.310118],[2.653518,50.310639],[2.652917,50.310502],[2.651415,50.309844],[2.650986,50.309775],[2.650578,50.309296],[2.649613,50.308898],[2.648389,50.308473],[2.647531,50.307953],[2.646415,50.306966],[2.643626,50.305856],[2.641866,50.304979],[2.64015,50.304198],[2.639334,50.303937],[2.638798,50.303581],[2.636867,50.302553],[2.634206,50.301662],[2.631202,50.300374],[2.628307,50.300593],[2.627425,50.301059],[2.626331,50.30147],[2.625601,50.301799],[2.624185,50.302745],[2.623799,50.301511],[2.621546,50.299346],[2.620773,50.29829],[2.620645,50.297948],[2.620237,50.297536],[2.620258,50.296508],[2.620902,50.295083],[2.620173,50.295275],[2.618799,50.294891],[2.610881,50.295261],[2.609229,50.295713],[2.607792,50.295384],[2.60807,50.296042],[2.607191,50.296166],[2.606032,50.29622],[2.604144,50.296659],[2.60232,50.296371],[2.600968,50.296289],[2.596827,50.295494],[2.595046,50.294863],[2.587192,50.293767],[2.58627,50.293493],[2.584295,50.292492],[2.583137,50.29219],[2.580948,50.291491],[2.579961,50.291203],[2.578437,50.290532],[2.577922,50.2906],[2.576785,50.290943],[2.57627,50.29119],[2.574339,50.291491],[2.574725,50.291848],[2.574489,50.292314],[2.572215,50.294397],[2.565735,50.292752],[2.564361,50.292286],[2.562409,50.292122],[2.560692,50.29171],[2.55949,50.29171],[2.558332,50.291573],[2.555006,50.291395],[2.553718,50.291546],[2.55301,50.290915],[2.552366,50.290765],[2.550929,50.290806],[2.549985,50.290573],[2.546938,50.290353],[2.546594,50.290436],[2.546122,50.290202],[2.544706,50.28853],[2.542346,50.286693],[2.541273,50.285582],[2.540801,50.284883],[2.540157,50.28454],[2.539535,50.284033],[2.539191,50.283306],[2.538183,50.282703],[2.537475,50.281565],[2.537153,50.280413],[2.536488,50.280523],[2.53578,50.280344],[2.533848,50.280386],[2.532282,50.281565],[2.532003,50.281688],[2.524171,50.279645],[2.524085,50.279412],[2.523742,50.279152],[2.52415,50.278877],[2.524134,50.278841],[2.523083,50.278251],[2.522718,50.278169],[2.521237,50.277524],[2.520787,50.277483],[2.51995,50.27714],[2.518555,50.277442],[2.517933,50.277483],[2.516624,50.277757],[2.512826,50.278361],[2.510916,50.278525],[2.505209,50.280939],[2.504776,50.281853],[2.508187,50.282388],[2.506878,50.283238],[2.505724,50.284325],[2.504454,50.285473],[2.501407,50.286817],[2.501085,50.286652],[2.498252,50.289188],[2.497244,50.292218],[2.496943,50.29411],[2.496407,50.294631],[2.494991,50.295426],[2.493403,50.29692],[2.492394,50.297715],[2.484348,50.292972],[2.483275,50.292561],[2.473941,50.289778],[2.474155,50.289517],[2.473919,50.288284],[2.473018,50.288338],[2.472868,50.287941],[2.468619,50.288393],[2.467825,50.288188],[2.463083,50.286172],[2.45995,50.285706],[2.457976,50.285542],[2.456667,50.285596],[2.455595,50.2855],[2.453127,50.285569],[2.451303,50.285898],[2.448814,50.286131],[2.447956,50.286419],[2.445424,50.286213],[2.444372,50.286241],[2.44272,50.285939],[2.441604,50.285117],[2.438471,50.283375],[2.436347,50.282799],[2.435231,50.282758],[2.434373,50.283005],[2.433,50.283115],[2.431648,50.282114],[2.429717,50.281277],[2.427936,50.282566],[2.427549,50.282594],[2.426519,50.282306],[2.42609,50.282265],[2.424653,50.281031],[2.425361,50.280482],[2.424695,50.279961],[2.42285,50.278905],[2.411821,50.27401],[2.406843,50.272501],[2.404847,50.272158],[2.402487,50.271555],[2.401993,50.272213],[2.401135,50.274407],[2.398732,50.274092],[2.396586,50.274558],[2.395341,50.273927],[2.394612,50.274064],[2.393153,50.274942],[2.39223,50.275381],[2.391565,50.275477],[2.389998,50.275326],[2.389677,50.275463],[2.389033,50.275943],[2.388282,50.276094],[2.387166,50.276176],[2.386029,50.27608],[2.384634,50.275861],[2.381995,50.275902],[2.381008,50.276039],[2.380321,50.274421],[2.380192,50.273475],[2.37987,50.272954],[2.378047,50.271664],[2.37781,50.271349],[2.377725,50.271033],[2.375772,50.270841],[2.375729,50.270142],[2.376072,50.269031],[2.374978,50.268894],[2.375257,50.268249],[2.374978,50.26766],[2.375751,50.266823],[2.375965,50.266233],[2.373991,50.265149],[2.37397,50.263723],[2.372038,50.263284],[2.369421,50.262488],[2.366889,50.261899],[2.365837,50.26172],[2.364764,50.261405],[2.363005,50.260211],[2.362211,50.26065],[2.360408,50.261185],[2.359335,50.260842],[2.357726,50.261021],[2.357297,50.260966],[2.35631,50.261226],[2.356417,50.262488],[2.354336,50.26279],[2.353885,50.262982],[2.354057,50.263243],[2.352254,50.263956],[2.351289,50.264025],[2.349637,50.263819],[2.348585,50.263668],[2.346933,50.263792],[2.345195,50.264038],[2.344208,50.26408],[2.343006,50.264587],[2.342019,50.264711],[2.342362,50.265588],[2.342362,50.26611],[2.341568,50.266398],[2.341375,50.266741],[2.340839,50.267234],[2.341225,50.267769],[2.341354,50.268153],[2.341247,50.268674],[2.341869,50.269141],[2.340839,50.270142],[2.340217,50.270457],[2.336462,50.271184],[2.333243,50.271212],[2.330947,50.271514],[2.328737,50.271952],[2.326484,50.272515],[2.323973,50.27246],[2.322578,50.272144],[2.321463,50.272103],[2.32054,50.271939],[2.319102,50.271939],[2.319252,50.271747],[2.319853,50.271514],[2.320004,50.271308],[2.320068,50.270526],[2.320733,50.270553],[2.32084,50.269909],[2.32054,50.268716],[2.320282,50.268167],[2.319961,50.268071],[2.319489,50.267769],[2.318866,50.268085],[2.317622,50.268181],[2.316699,50.268455],[2.31539,50.26851],[2.314103,50.268812],[2.312686,50.26899],[2.311764,50.269292],[2.310648,50.269868],[2.309725,50.270005],[2.306743,50.269717],[2.305734,50.270183],[2.30376,50.270238],[2.302773,50.27032],[2.302194,50.270636],[2.29934,50.27054],[2.298825,50.270457],[2.297816,50.270869],[2.298052,50.271294],[2.296765,50.271856],[2.295821,50.272186],[2.295349,50.27283],[2.294576,50.273296],[2.293675,50.273722],[2.293589,50.273955],[2.293954,50.274174],[2.294705,50.274394],[2.29537,50.274777],[2.295241,50.275052],[2.294877,50.275271],[2.295392,50.275532],[2.29507,50.276039],[2.295499,50.276382],[2.295649,50.278069],[2.296078,50.278562],[2.296228,50.279234],[2.296121,50.279536],[2.29625,50.279687],[2.295306,50.279796],[2.29449,50.27933],[2.293375,50.278891],[2.29301,50.279522],[2.292409,50.279536],[2.292387,50.279714],[2.291915,50.280167],[2.291272,50.280372],[2.289877,50.280386],[2.287002,50.280592],[2.286294,50.280496],[2.285221,50.280208],[2.284684,50.280263],[2.283075,50.280688],[2.281895,50.280893],[2.280071,50.281771],[2.278783,50.282306],[2.277796,50.283032],[2.276251,50.283526],[2.274642,50.283759],[2.274191,50.283937],[2.273805,50.284225],[2.272518,50.284458],[2.269385,50.284609],[2.268441,50.284719],[2.266896,50.285007],[2.264707,50.284952],[2.263484,50.285144],[2.262411,50.285144],[2.261381,50.283965],[2.258077,50.284705],[2.257562,50.285363],[2.256575,50.285281],[2.25636,50.285555],[2.256596,50.28598],[2.256939,50.286419],[2.256896,50.286584],[2.255952,50.286913],[2.254515,50.287201],[2.253399,50.287667],[2.252648,50.288517],[2.252176,50.289092],[2.251167,50.289901],[2.25018,50.290436],[2.248764,50.290888],[2.246468,50.291286],[2.244773,50.291464],[2.243807,50.291725],[2.24237,50.291944],[2.24149,50.292232],[2.240632,50.292218],[2.239988,50.291286],[2.239666,50.2913],[2.239108,50.291149],[2.23855,50.291121],[2.238121,50.290902],[2.23752,50.29119],[2.236726,50.290642],[2.235246,50.289298],[2.233529,50.290148],[2.232842,50.290025],[2.232542,50.290422],[2.230804,50.290792],[2.230031,50.291067],[2.228701,50.29145],[2.225826,50.294233],[2.227092,50.296111],[2.227671,50.296372],[2.226942,50.297208],[2.22765,50.297701],[2.228272,50.298304],[2.230096,50.298908],[2.229817,50.299237],[2.228723,50.299894],[2.227542,50.299675],[2.226684,50.299579],[2.224903,50.298784],[2.224388,50.298784],[2.219796,50.300703],[2.218444,50.301155],[2.217093,50.30169],[2.216127,50.301731],[2.215097,50.302046],[2.213552,50.302266],[2.211642,50.302649],[2.21072,50.302937],[2.210226,50.303184],[2.209539,50.303225],[2.20881,50.303115],[2.207994,50.302882],[2.207587,50.302965],[2.206922,50.303335],[2.205377,50.302457],[2.204776,50.30243],[2.202909,50.30291],[2.202287,50.303472],[2.200484,50.303828],[2.200227,50.304116],[2.19969,50.304075],[2.198317,50.304733],[2.197137,50.304787],[2.19645,50.304952],[2.195635,50.305281],[2.19424,50.305637],[2.192051,50.306117],[2.189691,50.306185],[2.187824,50.306117],[2.186751,50.306254],[2.185185,50.30661],[2.183533,50.307008],[2.181838,50.308035],[2.181516,50.308679],[2.180293,50.309858],[2.178683,50.310845],[2.177975,50.311557],[2.177267,50.311694],[2.176538,50.312092],[2.175272,50.312996],[2.174349,50.313215],[2.170379,50.314928],[2.16907,50.315531],[2.168555,50.315997],[2.167954,50.316846],[2.167332,50.317436],[2.166924,50.317997],[2.166495,50.318285],[2.166173,50.318943],[2.16538,50.318847],[2.163448,50.320121],[2.162354,50.320833],[2.161217,50.321354],[2.160788,50.321299],[2.160444,50.321025],[2.157891,50.322354],[2.156839,50.323176],[2.155831,50.323519],[2.154629,50.323861],[2.153792,50.324395],[2.153492,50.325026],[2.153492,50.325341],[2.153556,50.32556],[2.153256,50.325889],[2.152462,50.325902],[2.150638,50.326889],[2.150381,50.329231],[2.151303,50.329656],[2.151024,50.330327],[2.150896,50.331245],[2.149823,50.332738],[2.149544,50.332765],[2.149394,50.333121],[2.148042,50.334532],[2.147098,50.336846],[2.14684,50.338052],[2.146196,50.339024],[2.143579,50.341229],[2.139502,50.341407],[2.138236,50.341284],[2.137721,50.341421],[2.133257,50.343858],[2.132957,50.344926],[2.13167,50.346241],[2.130682,50.347241],[2.130446,50.347911],[2.130575,50.348596],[2.13006,50.348528],[2.128558,50.349007],[2.127271,50.349842],[2.126949,50.350267],[2.12697,50.350664],[2.127807,50.354155],[2.127142,50.354223],[2.124352,50.354785],[2.120297,50.355332],[2.118816,50.35588],[2.115233,50.356879],[2.114418,50.357482],[2.113903,50.357564],[2.113194,50.357564],[2.111478,50.357974],[2.110233,50.358495],[2.108238,50.359412],[2.106349,50.359699],[2.106843,50.36126],[2.1065,50.361739],[2.10459,50.362204],[2.102702,50.361766],[2.102659,50.360726],[2.102251,50.360192],[2.101285,50.360315],[2.100642,50.360589],[2.098496,50.360452],[2.098196,50.361055],[2.096951,50.361602],[2.096908,50.362341],[2.096629,50.363026],[2.096372,50.36345],[2.096457,50.363957],[2.096264,50.364066],[2.095363,50.363779],[2.094719,50.364778],[2.093561,50.366325],[2.090836,50.368884],[2.087188,50.37106],[2.088883,50.372566],[2.090192,50.373455],[2.095706,50.377916],[2.097487,50.378477],[2.094784,50.381077],[2.089784,50.382911],[2.089355,50.382883],[2.080472,50.377711],[2.079055,50.379134],[2.076802,50.380708],[2.074742,50.380749],[2.074335,50.381077],[2.073305,50.381843],[2.072489,50.382186],[2.07058,50.381282],[2.063906,50.384936]]],"type":"MultiLineString"},"properties":{"geo_point":{"lon":2.4025498660885036,"lat":50.30219022099068},"name":"GR121 De Arras à Grigny (Pas-de-Calais) (2019)","code_gr":"GR121"}},{"type":"Feature","geometry":{"coordinates":[[[3.608708,50.496467],[3.607513,50.495896],[3.60699,50.495278],[3.606168,50.494993],[3.605794,50.494922],[3.602766,50.494044],[3.602159,50.49359],[3.60163,50.492867],[3.601208,50.493187],[3.600494,50.493204],[3.599173,50.492918],[3.593309,50.490699],[3.593679,50.490296],[3.593864,50.488666],[3.594418,50.487825],[3.59352,50.487271],[3.593546,50.486733],[3.590429,50.486447],[3.590007,50.4888],[3.585859,50.488598],[3.583825,50.485943],[3.582979,50.485506],[3.582847,50.48643],[3.583006,50.48722],[3.582715,50.488531],[3.581077,50.488598],[3.577775,50.488313],[3.572307,50.488061],[3.562717,50.486212],[3.562136,50.48596],[3.561608,50.485674],[3.559732,50.484884],[3.558623,50.484312],[3.556879,50.483136],[3.55429,50.482194],[3.551807,50.481724],[3.551199,50.481472],[3.55001,50.48095],[3.548584,50.480614],[3.54824,50.479068],[3.547923,50.477941],[3.547976,50.476832],[3.54367,50.475218],[3.541663,50.474999],[3.539972,50.474478],[3.538862,50.474781],[3.53836,50.474781],[3.537426,50.474229],[3.537183,50.473943],[3.536099,50.473194],[3.535427,50.472588],[3.533166,50.470971],[3.529935,50.471625],[3.529879,50.471387],[3.53029,50.471244],[3.532681,50.469485],[3.533503,50.468557],[3.535576,50.467571],[3.537257,50.467143],[3.538565,50.466929],[3.539985,50.466524],[3.538266,50.4648],[3.53765,50.464895],[3.535838,50.463623],[3.536155,50.463254],[3.535968,50.463123],[3.535856,50.462695],[3.535987,50.462481],[3.535894,50.462255],[3.534848,50.463076],[3.52859,50.466144],[3.523677,50.468974],[3.522799,50.46914],[3.522425,50.469592],[3.521342,50.468557],[3.521342,50.468843],[3.521491,50.469128],[3.521678,50.469152],[3.521996,50.46895],[3.522313,50.468605],[3.524069,50.467547],[3.527338,50.465668],[3.531093,50.46373],[3.534474,50.461875],[3.536062,50.461185],[3.537612,50.459663],[3.538303,50.45908],[3.5392,50.45801],[3.541031,50.457166],[3.540358,50.4565],[3.539835,50.456131],[3.539518,50.455168],[3.538957,50.455346],[3.535053,50.456179],[3.533914,50.455382],[3.533839,50.455061],[3.533372,50.454894],[3.530663,50.452872],[3.529673,50.452254],[3.526348,50.449792],[3.525638,50.450648],[3.524499,50.451219],[3.516747,50.444046],[3.519549,50.441976],[3.519941,50.441917],[3.521323,50.440894],[3.520557,50.440834],[3.519567,50.440572],[3.517569,50.440132],[3.517064,50.439906],[3.516037,50.439692],[3.515159,50.439692],[3.5143,50.439525],[3.513795,50.439169],[3.512936,50.438931],[3.512413,50.438883],[3.51189,50.438562],[3.51075,50.438264],[3.510265,50.438193],[3.506753,50.436896],[3.506734,50.436527],[3.505875,50.436039],[3.505483,50.436385],[3.504829,50.436551],[3.503988,50.437324],[3.504306,50.437991],[3.481143,50.432506],[3.481143,50.432327],[3.480732,50.432268],[3.480302,50.432303],[3.479686,50.432113],[3.478808,50.431994],[3.478247,50.431292],[3.477706,50.431054],[3.477351,50.430709],[3.477295,50.430411],[3.477425,50.430019],[3.477089,50.429876],[3.476286,50.429947],[3.476099,50.430316],[3.475408,50.430507],[3.474922,50.430887],[3.473503,50.43084],[3.472662,50.430423],[3.47141,50.429198],[3.471336,50.428591],[3.470813,50.427294],[3.471579,50.426996],[3.471784,50.426508],[3.471541,50.426163],[3.470981,50.426175],[3.470738,50.425949],[3.470701,50.425532],[3.470308,50.425163],[3.470159,50.424318],[3.47029,50.424092],[3.470159,50.42389],[3.460128,50.426092],[3.458708,50.424545],[3.457923,50.424806],[3.45613,50.422831],[3.446996,50.426258],[3.446062,50.426163],[3.443596,50.425687],[3.444362,50.425033],[3.443708,50.42433],[3.442027,50.422962],[3.431136,50.414618],[3.429287,50.411928],[3.428446,50.410535],[3.427886,50.409749],[3.42783,50.409321],[3.427961,50.406987],[3.429605,50.402749],[3.429978,50.401487],[3.440611,50.406543],[3.441112,50.406148],[3.441452,50.40542],[3.441893,50.404872],[3.442773,50.404336],[3.443354,50.398746],[3.443594,50.398466],[3.443434,50.397636],[3.443534,50.396985],[3.444575,50.397087],[3.444015,50.396717],[3.444655,50.396921],[3.445036,50.397202],[3.445596,50.397406],[3.445937,50.397292],[3.446197,50.396883],[3.446377,50.396743],[3.446297,50.396296],[3.446858,50.39659],[3.447286,50.396613],[3.447312,50.396411],[3.447128,50.396117],[3.447207,50.395797],[3.433344,50.390233],[3.433018,50.390256],[3.432438,50.390021],[3.431843,50.389967],[3.431617,50.38975],[3.431306,50.389705],[3.43081,50.389425],[3.429876,50.389326],[3.429635,50.389199],[3.429069,50.389272],[3.428262,50.389813],[3.426379,50.390102],[3.425855,50.390391],[3.425346,50.390301],[3.425147,50.390436],[3.424907,50.390265],[3.424624,50.390274],[3.424369,50.390373],[3.423873,50.390274],[3.423533,50.389876],[3.423066,50.389813],[3.422642,50.389597],[3.417002,50.395046],[3.414602,50.393773],[3.378811,50.398438],[3.377759,50.398917],[3.377566,50.400366],[3.377438,50.40116],[3.377609,50.401666],[3.356946,50.404934],[3.359392,50.411211],[3.359778,50.411772],[3.360164,50.412046],[3.358212,50.413591],[3.357139,50.413974],[3.355637,50.413003],[3.35289,50.411499],[3.350809,50.412811],[3.333411,50.408114],[3.33308,50.408457],[3.332159,50.408751],[3.331859,50.409567],[3.331518,50.409835],[3.331859,50.410065],[3.33328,50.410409],[3.336804,50.411698],[3.338205,50.412476],[3.339447,50.412936],[3.340167,50.412999],[3.340688,50.413178],[3.341749,50.413829],[3.341629,50.414058],[3.341068,50.413918],[3.340448,50.413918],[3.340408,50.414211],[3.338466,50.414301],[3.335843,50.414556],[3.335222,50.414811],[3.333921,50.415015],[3.329216,50.415628],[3.329156,50.415972],[3.331218,50.420756],[3.324912,50.421228],[3.324751,50.420373],[3.324411,50.420246],[3.320387,50.421062],[3.319266,50.420003],[3.317724,50.418319],[3.316483,50.41638],[3.315542,50.416176],[3.314581,50.416253],[3.308354,50.414684],[3.30385,50.420985],[3.308775,50.423855],[3.309055,50.424149],[3.309896,50.425616],[3.305051,50.42721],[3.305391,50.428957],[3.306252,50.431814],[3.306573,50.433638],[3.297663,50.433689],[3.297403,50.433944],[3.286832,50.434314],[3.286772,50.433115],[3.281366,50.433332],[3.28463,50.420654],[3.28507,50.417018],[3.279024,50.417082],[3.280125,50.410626],[3.280666,50.408432],[3.281086,50.408087],[3.281166,50.407858],[3.280165,50.407819],[3.279525,50.407679],[3.278824,50.407437],[3.279224,50.406786],[3.279284,50.405752],[3.278744,50.405714],[3.276401,50.405076],[3.2753,50.404821],[3.27466,50.404412],[3.273608,50.403582],[3.272132,50.403011],[3.270208,50.402618],[3.269853,50.402469],[3.268975,50.401862],[3.268331,50.40166],[3.267453,50.401499],[3.264249,50.400832],[3.262764,50.400266],[3.259766,50.399516],[3.259374,50.39935],[3.259056,50.399088],[3.258487,50.39854],[3.257907,50.398284],[3.256535,50.39779],[3.25614,50.397611],[3.252877,50.394803],[3.252517,50.394343],[3.250935,50.391765],[3.244048,50.387106],[3.243467,50.38694],[3.243392,50.386441],[3.241611,50.386482],[3.242469,50.385086],[3.241868,50.384717],[3.241031,50.384388],[3.24028,50.383786],[3.240087,50.383499],[3.239551,50.382897],[3.239186,50.382788],[3.23483,50.380585],[3.234766,50.380092],[3.234336,50.379175],[3.234293,50.37886],[3.234422,50.378559],[3.23498,50.377957],[3.235302,50.377232],[3.234851,50.377054],[3.235152,50.376603],[3.23513,50.376069],[3.23468,50.375699],[3.231783,50.375563],[3.228049,50.374988],[3.226805,50.374919],[3.227856,50.374221],[3.233263,50.371443],[3.230538,50.370827],[3.227749,50.370444],[3.226547,50.370116],[3.223372,50.370198],[3.222449,50.370348],[3.222041,50.370567],[3.216376,50.371471],[3.213973,50.371936],[3.212686,50.372114],[3.210454,50.37262],[3.208866,50.372826],[3.207879,50.372839],[3.207493,50.372182],[3.206785,50.370006],[3.206785,50.369596],[3.203931,50.365791],[3.203223,50.365052],[3.200734,50.362163],[3.199618,50.361109],[3.198438,50.360945],[3.197644,50.361068],[3.197215,50.360822],[3.195541,50.359562],[3.194833,50.358632],[3.194318,50.358248],[3.193932,50.357413],[3.193202,50.35692],[3.190069,50.356318],[3.188031,50.355688],[3.186014,50.35473],[3.184876,50.3551],[3.185134,50.356126],[3.185112,50.357276],[3.185563,50.35807],[3.185778,50.359207],[3.186615,50.361027],[3.184168,50.360439],[3.183181,50.358878],[3.182473,50.358508],[3.181529,50.357687],[3.180692,50.356756],[3.179641,50.355839],[3.179362,50.355236],[3.179018,50.353936],[3.178246,50.352498],[3.17816,50.351923],[3.177795,50.351485],[3.175306,50.349582],[3.174706,50.349185],[3.174448,50.348665],[3.174191,50.348021],[3.17389,50.347679],[3.172967,50.347131],[3.172431,50.346296],[3.171895,50.345926],[3.1708,50.345296],[3.169985,50.343653],[3.170371,50.342954],[3.170199,50.341311],[3.169556,50.339955],[3.168762,50.338641],[3.168418,50.33749],[3.168418,50.336614],[3.167882,50.336997],[3.165736,50.33886],[3.165092,50.334915],[3.16447,50.331505],[3.164213,50.331505],[3.162646,50.330176],[3.162303,50.326012],[3.162689,50.325697],[3.162603,50.325354],[3.16226,50.32482],[3.164127,50.324327],[3.163419,50.321847],[3.163526,50.321231],[3.162625,50.318997],[3.162689,50.318354],[3.16241,50.31786],[3.162029,50.317977],[3.161633,50.318302],[3.161506,50.318293],[3.161548,50.318076],[3.161831,50.317724],[3.160571,50.316087],[3.160421,50.315644],[3.160101,50.315439],[3.159821,50.315056],[3.159921,50.314468],[3.15932,50.313356],[3.157098,50.311821],[3.156718,50.310696],[3.153374,50.310619],[3.153134,50.308612],[3.151808,50.308321],[3.150732,50.306043],[3.150477,50.303783],[3.150534,50.299551],[3.150506,50.298827],[3.150811,50.298139],[3.151232,50.297742],[3.152813,50.296438],[3.154715,50.295543],[3.155376,50.296438],[3.157999,50.295402],[3.1594,50.294699],[3.159741,50.294366],[3.157018,50.291706],[3.157999,50.291092],[3.158439,50.290861],[3.15872,50.290414],[3.161583,50.289288],[3.162123,50.288789],[3.176478,50.284952],[3.175697,50.283941],[3.173835,50.282278],[3.170492,50.27986],[3.165306,50.276469],[3.166508,50.274614],[3.166628,50.274128],[3.166888,50.273616],[3.166888,50.272311],[3.166167,50.269995],[3.165867,50.267461],[3.165166,50.265759],[3.164586,50.263903],[3.164305,50.263532],[3.163424,50.262956],[3.162764,50.26238],[3.162363,50.262495],[3.161623,50.262303],[3.161202,50.262354],[3.159861,50.263148],[3.15914,50.263941],[3.158079,50.264249],[3.157638,50.264505],[3.157338,50.264824],[3.154035,50.26636],[3.154135,50.267589],[3.153594,50.268421],[3.152914,50.269009],[3.152333,50.269188],[3.151712,50.269035],[3.150831,50.268472],[3.149971,50.268331],[3.148589,50.268369],[3.147808,50.267947],[3.146207,50.268139],[3.145085,50.268523],[3.143884,50.269355],[3.141181,50.27002],[3.138298,50.266258],[3.137878,50.265426],[3.138158,50.264581],[3.14002,50.263724],[3.140561,50.263199],[3.140381,50.261484],[3.140501,50.260793],[3.139059,50.259935],[3.137498,50.261139],[3.136997,50.261894],[3.134234,50.263097],[3.131772,50.263621],[3.13013,50.263916],[3.126626,50.265042],[3.122702,50.265183],[3.122162,50.265004],[3.121841,50.264709],[3.12052,50.264965],[3.119479,50.264952],[3.118518,50.264633],[3.117637,50.264901],[3.116996,50.264876],[3.116316,50.264709],[3.115615,50.264428],[3.114494,50.26421],[3.114133,50.264325],[3.113573,50.264901],[3.11055,50.265644],[3.108267,50.265733],[3.106065,50.265541],[3.105284,50.265554],[3.103062,50.263724],[3.103242,50.263148],[3.103082,50.26293],[3.10112,50.264133],[3.100399,50.264863],[3.099298,50.267538],[3.099879,50.267896],[3.100199,50.268254],[3.100107,50.268741],[3.0995,50.268792],[3.098813,50.268741],[3.098403,50.268834],[3.09732,50.269205],[3.095709,50.269425],[3.094282,50.269383],[3.092991,50.269735],[3.091758,50.270237],[3.090955,50.27038],[3.089573,50.270452],[3.088527,50.270583],[3.085613,50.27032],[3.083539,50.270261],[3.082381,50.270177],[3.079822,50.27007],[3.079112,50.269998],[3.078309,50.270225],[3.077337,50.270225],[3.076515,50.27038],[3.07575,50.270225],[3.074834,50.269938],[3.074199,50.26995],[3.073676,50.270129],[3.072499,50.270296],[3.0722,50.270201],[3.071584,50.27044],[3.070146,50.270559],[3.068446,50.270559],[3.067811,50.27069],[3.06301,50.271359],[3.062356,50.271562],[3.062095,50.271801],[3.062188,50.273102],[3.061497,50.273401],[3.06088,50.273448],[3.060002,50.273401],[3.058863,50.273604],[3.057705,50.273484],[3.056864,50.273926],[3.055818,50.274356],[3.05522,50.274953],[3.054193,50.275585],[3.052755,50.276015],[3.052138,50.276349],[3.051017,50.277245],[3.050195,50.277555],[3.048962,50.277889],[3.047972,50.277997],[3.047431,50.278128],[3.046441,50.27857],[3.045376,50.278916],[3.04334,50.276361],[3.042835,50.275955],[3.041883,50.27623],[3.040855,50.275084],[3.040388,50.274368],[3.03994,50.274117],[3.037661,50.275048],[3.037773,50.275335],[3.036877,50.275347],[3.036185,50.275848],[3.03428,50.276493],[3.032057,50.27746],[3.030955,50.278355],[3.030282,50.278964],[3.028825,50.27937],[3.02791,50.279346],[3.026192,50.283297],[3.025202,50.283679],[3.024305,50.283786],[3.02268,50.28387],[3.021634,50.283786],[3.020886,50.285971],[3.018608,50.285612],[3.016758,50.286066],[3.014535,50.286185],[3.012499,50.28609],[3.010145,50.286436],[3.009361,50.286615],[3.007829,50.286687],[3.00669,50.286973],[3.005774,50.287307],[3.005177,50.287642],[3.002823,50.28788],[3.001852,50.287618],[2.999535,50.287594],[2.999367,50.287928],[2.99834,50.288012],[2.995874,50.288131],[2.995426,50.28868],[2.993277,50.28862],[2.992586,50.288023],[2.992642,50.287045],[2.992138,50.286364],[2.991129,50.285481],[2.990569,50.285445],[2.989971,50.284884],[2.989018,50.283798],[2.98631,50.281566],[2.985563,50.280539],[2.984162,50.279059],[2.983022,50.277651],[2.982013,50.276696],[2.980967,50.276063],[2.979884,50.275454],[2.978502,50.274881],[2.977362,50.274368],[2.973645,50.277149],[2.971721,50.279083],[2.969722,50.28011],[2.966546,50.27845],[2.966154,50.278856],[2.96479,50.2782],[2.964118,50.277806],[2.961764,50.277042],[2.958775,50.27629],[2.955338,50.275609],[2.953993,50.275538],[2.952854,50.275156],[2.951677,50.274857],[2.951135,50.274594],[2.950426,50.274057],[2.949267,50.27346],[2.948315,50.273066],[2.946503,50.27241],[2.945233,50.272278],[2.943869,50.271992],[2.942748,50.273568],[2.941459,50.273627],[2.93748,50.272995],[2.936602,50.27272],[2.935836,50.272183],[2.935089,50.271992],[2.930083,50.271395],[2.927318,50.270834],[2.925749,50.270595],[2.924703,50.270583],[2.922181,50.270464],[2.919211,50.270392],[2.918203,50.270296],[2.916073,50.270535],[2.913495,50.269879],[2.911627,50.269544],[2.910581,50.269556],[2.91017,50.269508],[2.906939,50.270619],[2.904062,50.271789],[2.903146,50.271956],[2.901708,50.271849],[2.900176,50.271932],[2.898645,50.27235],[2.897505,50.272517],[2.895581,50.271813],[2.89474,50.271466],[2.893956,50.270929],[2.893993,50.270655],[2.893545,50.270595],[2.892592,50.270308],[2.8922,50.270034],[2.891901,50.269711],[2.891546,50.269711],[2.891266,50.269783],[2.890967,50.270487],[2.890276,50.271156],[2.888931,50.271908],[2.887941,50.272469],[2.886353,50.273233],[2.885307,50.27395],[2.884597,50.274606],[2.884429,50.274976],[2.883943,50.276123],[2.882953,50.277328],[2.880861,50.279262],[2.87989,50.279764],[2.878452,50.280456],[2.877835,50.280933],[2.877256,50.281864],[2.876882,50.282151],[2.876191,50.282521],[2.875892,50.282963],[2.875892,50.283273],[2.876266,50.284168],[2.876247,50.284586],[2.87593,50.284944],[2.875257,50.285254],[2.873856,50.285839],[2.873557,50.286257],[2.873632,50.286746],[2.874323,50.287689],[2.874323,50.288059],[2.873632,50.289491],[2.873165,50.291413],[2.873651,50.292535],[2.87395,50.293609],[2.87451,50.294384],[2.874566,50.29479],[2.874249,50.295387],[2.875033,50.296174],[2.874155,50.29664],[2.873464,50.297272],[2.872605,50.297642],[2.870755,50.297284],[2.870214,50.297308],[2.868906,50.298036],[2.868757,50.298251],[2.867225,50.298382],[2.866478,50.298251],[2.863657,50.297141],[2.859529,50.295721],[2.85329,50.296055],[2.848115,50.295948],[2.846285,50.296616],[2.844417,50.297046],[2.843034,50.297618],[2.842044,50.297773],[2.840438,50.297845],[2.838458,50.298143],[2.83814,50.298573],[2.837673,50.298633],[2.835824,50.299205],[2.832779,50.299886],[2.831864,50.300017],[2.829454,50.299981],[2.828483,50.300053],[2.825512,50.300518],[2.823327,50.30047],[2.822598,50.300566],[2.821814,50.300864],[2.820077,50.301258],[2.816266,50.301317],[2.814734,50.301222],[2.813445,50.300828],[2.812735,50.30047],[2.811839,50.29985],[2.810811,50.299349],[2.809653,50.299003],[2.808346,50.298859],[2.807001,50.298871],[2.804329,50.298967],[2.802573,50.298692],[2.801845,50.298466],[2.801341,50.29843],[2.800369,50.298322],[2.799118,50.298406],[2.798296,50.298573],[2.797212,50.299122],[2.79682,50.298919],[2.795419,50.298943],[2.795027,50.299014],[2.794373,50.298871],[2.788358,50.29874],[2.787573,50.298824],[2.785892,50.299289],[2.784715,50.299313],[2.781222,50.300041],[2.779746,50.300148],[2.77913,50.299969],[2.776421,50.298704]]],"type":"MultiLineString"},"properties":{"geo_point":{"lon":3.232454707786039,"lat":50.36279289713286},"name":"GR121 De Bon-Secours (Belgique) à Arras (Pas-de-Calais) (2019)","code_gr":"GR121"}},{"type":"Feature","geometry":{"coordinates":[[[2.063835,50.384994],[2.061432,50.385336],[2.060573,50.385637],[2.060681,50.385925],[2.060402,50.386458],[2.060402,50.387047],[2.059071,50.388114],[2.058299,50.389195],[2.057934,50.390015],[2.057441,50.390316],[2.056239,50.390631],[2.051497,50.390617],[2.047935,50.390508],[2.042828,50.391753],[2.041605,50.391903],[2.040875,50.392423],[2.040575,50.393025],[2.026499,50.39334],[2.022636,50.393052],[2.022636,50.393052],[2.021134,50.392574],[2.014654,50.392601],[2.012337,50.392067],[2.008667,50.39245],[2.004741,50.393832],[2.003625,50.393928],[2.00253,50.393873],[2.002488,50.394256],[2.0012,50.394735],[1.999762,50.399618],[1.999934,50.4013],[2.000063,50.403133],[2.001694,50.405048],[2.002101,50.405157],[2.002788,50.405499],[2.003389,50.405472],[2.004505,50.405239],[2.005749,50.404843],[2.006672,50.404938],[2.006693,50.405157],[2.004676,50.406798],[2.004676,50.406798],[2.001672,50.408549],[2.001672,50.408549],[2.000835,50.409246],[2.000256,50.409629],[1.999097,50.411516],[1.999269,50.412118],[2.000106,50.412829],[2.001264,50.41462],[2.002659,50.415167],[2.0009,50.41637],[1.999827,50.41622],[1.997874,50.415454],[1.997466,50.415318],[1.997359,50.416015],[1.997037,50.416398],[1.996029,50.416398],[1.995364,50.41622],[1.992832,50.416275],[1.993025,50.417136],[1.993454,50.417779],[1.992939,50.418025],[1.992016,50.418285],[1.990385,50.418339],[1.989656,50.418093],[1.988969,50.417956],[1.987145,50.418558],[1.986308,50.419187],[1.98457,50.420732],[1.983626,50.421292],[1.982532,50.421566],[1.975301,50.423863],[1.973691,50.424669],[1.968992,50.42486],[1.965344,50.425394],[1.96425,50.425462],[1.959207,50.426269],[1.952405,50.426733],[1.951611,50.42672],[1.949551,50.427212],[1.945088,50.426925],[1.943629,50.426925],[1.940046,50.426515],[1.936355,50.426706],[1.933051,50.426528],[1.930797,50.426583],[1.928995,50.426815],[1.928051,50.426815],[1.927085,50.426911],[1.925433,50.426733],[1.924081,50.426747],[1.922987,50.427034],[1.920669,50.42795],[1.91773,50.428852],[1.916314,50.42918],[1.915048,50.429057],[1.913674,50.429207],[1.913073,50.429057],[1.912451,50.428647],[1.912215,50.428223],[1.912344,50.427991],[1.913267,50.427595],[1.913245,50.427526],[1.91082,50.427977],[1.910177,50.428059],[1.909533,50.428442],[1.909254,50.428975],[1.909833,50.429549],[1.906422,50.430547],[1.906529,50.430793],[1.905606,50.431818],[1.906143,50.432064],[1.907194,50.43242],[1.908481,50.433144],[1.909597,50.434552],[1.910692,50.435085],[1.91155,50.435673],[1.911722,50.436206],[1.913867,50.437162],[1.91464,50.437176],[1.91582,50.4376],[1.916528,50.43801],[1.917365,50.438625],[1.919489,50.439212],[1.920305,50.439759],[1.920905,50.440128],[1.92142,50.440114],[1.921893,50.440442],[1.922772,50.440538],[1.923588,50.440893],[1.924746,50.441659],[1.925691,50.442055],[1.925862,50.442492],[1.92539,50.443107],[1.925691,50.443408],[1.925776,50.444528],[1.926141,50.444842],[1.926012,50.445102],[1.92509,50.445075],[1.925819,50.445676],[1.926034,50.446332],[1.926034,50.446332],[1.924124,50.448013],[1.921871,50.448846],[1.92142,50.448955],[1.920112,50.44942],[1.919532,50.449037],[1.918245,50.450363],[1.916893,50.451046],[1.913481,50.453409],[1.912558,50.456565],[1.911893,50.457276],[1.91067,50.459216],[1.909662,50.460472],[1.909533,50.461388],[1.909168,50.462262],[1.909254,50.465909],[1.907859,50.469105],[1.907945,50.469897],[1.907859,50.470033],[1.907215,50.469965],[1.903611,50.470102],[1.90316,50.469678],[1.903031,50.469405],[1.902302,50.469514],[1.901808,50.469323],[1.900843,50.46864],[1.899083,50.468162],[1.898461,50.46819],[1.897903,50.468449],[1.89595,50.468285],[1.893053,50.468326],[1.891208,50.468121],[1.888526,50.467753],[1.887496,50.467807],[1.886294,50.468135],[1.884385,50.468149],[1.881445,50.470115],[1.878441,50.472642],[1.877776,50.473461],[1.87505,50.475291],[1.873892,50.475701],[1.871446,50.476247],[1.870351,50.476903],[1.869836,50.476944],[1.867991,50.476766],[1.866553,50.476411],[1.864128,50.478077],[1.863613,50.477913],[1.862584,50.477777],[1.861124,50.477381],[1.85988,50.477613],[1.859193,50.478173],[1.858785,50.478855],[1.858485,50.479702],[1.857477,50.480221],[1.855846,50.481641],[1.855224,50.48287],[1.853936,50.483047],[1.853056,50.483416],[1.851983,50.483225],[1.849838,50.483156],[1.847413,50.482747],[1.845289,50.482542],[1.843551,50.482228],[1.842263,50.481887],[1.84192,50.481668],[1.83235,50.478582],[1.824754,50.476684],[1.823531,50.476561],[1.822737,50.47622],[1.821406,50.476029],[1.820634,50.476206],[1.819947,50.476234],[1.818145,50.476671],[1.815312,50.476957],[1.813166,50.476602],[1.810849,50.476548],[1.807523,50.475578],[1.800936,50.474335],[1.795915,50.474458],[1.794026,50.474595],[1.791044,50.474636],[1.787138,50.47409],[1.785229,50.474021],[1.784027,50.47383],[1.783297,50.473857],[1.782589,50.474021],[1.781731,50.474363],[1.780186,50.474554],[1.77877,50.474868],[1.776259,50.474977],[1.776066,50.474376],[1.775508,50.473816],[1.773277,50.472164],[1.769629,50.469596],[1.769629,50.469596],[1.767419,50.467391],[1.766754,50.467309],[1.766518,50.467227],[1.765595,50.467158],[1.765144,50.467077],[1.764737,50.466735],[1.762119,50.467391],[1.760402,50.466831],[1.760381,50.466653],[1.760187,50.46638],[1.760252,50.466107],[1.759737,50.465998],[1.759587,50.465478],[1.759823,50.4647],[1.758728,50.464577],[1.758192,50.4647],[1.757291,50.465301],[1.757098,50.465506],[1.756819,50.46556],[1.756497,50.465369],[1.755789,50.465233],[1.755338,50.465478],[1.755102,50.465301],[1.754201,50.465219],[1.753514,50.465287],[1.753064,50.465123],[1.750982,50.46399],[1.74712,50.462282],[1.742421,50.45981],[1.741348,50.45955],[1.740961,50.459864],[1.739717,50.460329],[1.738172,50.460698],[1.737335,50.460985],[1.736842,50.461285],[1.735962,50.461517],[1.734653,50.462118],[1.733559,50.46246],[1.731263,50.463621],[1.729954,50.464167],[1.728773,50.464536],[1.727357,50.464741],[1.726499,50.465055],[1.727379,50.46694],[1.727679,50.468552],[1.727465,50.469835],[1.726971,50.470628],[1.726649,50.473455],[1.726649,50.473455],[1.72616,50.474422],[1.726053,50.475337],[1.727683,50.475746],[1.730087,50.476006],[1.729851,50.476415],[1.730108,50.476771],[1.730752,50.480089],[1.732855,50.481208],[1.732683,50.481509],[1.733048,50.482232],[1.733627,50.482669],[1.734121,50.483366],[1.734292,50.484103],[1.730623,50.484772],[1.730151,50.484717],[1.729186,50.48499],[1.728628,50.4854],[1.728113,50.485577],[1.727362,50.486137],[1.726096,50.486683],[1.725388,50.487093],[1.724529,50.487134],[1.723692,50.487393],[1.722512,50.487434],[1.721396,50.487421],[1.719036,50.487816],[1.717727,50.487748],[1.71674,50.487776],[1.716332,50.487653],[1.713972,50.487816],[1.713221,50.487243],[1.712041,50.48682],[1.71056,50.486547],[1.707835,50.486315],[1.707149,50.486369],[1.704724,50.487229],[1.703587,50.487871],[1.703114,50.488076],[1.702814,50.488349],[1.701441,50.488909],[1.700754,50.48955],[1.700432,50.489537],[1.699831,50.489837],[1.697986,50.48981],[1.696956,50.490055],[1.696076,50.490383],[1.695368,50.490506],[1.695733,50.491229],[1.695712,50.492635],[1.699402,50.49714],[1.700647,50.496744],[1.702106,50.496785],[1.703758,50.497058],[1.703501,50.49744],[1.70408,50.498259],[1.704681,50.498642],[1.706269,50.499856],[1.707921,50.500389],[1.708436,50.499788],[1.710324,50.499706],[1.713414,50.50249],[1.718049,50.504824],[1.718907,50.504415],[1.719723,50.504715],[1.721504,50.505834],[1.722577,50.506271],[1.724122,50.507158],[1.724722,50.507649],[1.727211,50.508577],[1.727683,50.508973],[1.728091,50.509027],[1.728896,50.509778],[1.729282,50.510433],[1.729282,50.511006],[1.730891,50.512671],[1.731707,50.512507],[1.732608,50.512425],[1.732737,50.513421],[1.733144,50.514063],[1.733037,50.514949],[1.733767,50.516273],[1.733767,50.516273],[1.734647,50.5163],[1.73587,50.516614],[1.736878,50.517037],[1.736921,50.517515],[1.73647,50.518933],[1.737307,50.520612],[1.737844,50.522371],[1.739088,50.526669],[1.740633,50.528415],[1.743208,50.533393],[1.745332,50.537744],[1.745697,50.538126],[1.749259,50.543908],[1.748873,50.545776],[1.749924,50.546048],[1.750869,50.546471],[1.752628,50.546676],[1.753551,50.546867],[1.757542,50.548135],[1.757199,50.549307],[1.759988,50.549703],[1.760954,50.55003],[1.761919,50.551066],[1.764644,50.552061],[1.767756,50.553643],[1.770309,50.554229],[1.771833,50.55517],[1.772112,50.55566],[1.773463,50.555633],[1.77312,50.556669],[1.77194,50.557405],[1.770245,50.558319],[1.769215,50.559955],[1.768893,50.561059],[1.769043,50.561563],[1.769301,50.561863],[1.769601,50.562681],[1.769537,50.563512],[1.770095,50.564562],[1.77003,50.565052],[1.768807,50.56587],[1.768485,50.565761],[1.767734,50.566347],[1.767305,50.56677],[1.766876,50.567097],[1.766576,50.567519],[1.765739,50.568092],[1.764387,50.570204],[1.764516,50.573802],[1.763378,50.57616],[1.772004,50.57744],[1.773013,50.577822],[1.774236,50.578435],[1.775674,50.578762],[1.776446,50.578694],[1.777111,50.578462],[1.778935,50.577549],[1.779836,50.576855],[1.779836,50.577168],[1.78475,50.578571],[1.785673,50.578667],[1.785115,50.579198],[1.783806,50.582291],[1.783634,50.583163],[1.783763,50.584308],[1.783506,50.585561],[1.783076,50.586392],[1.782948,50.588136],[1.78327,50.588749],[1.782476,50.588735],[1.780823,50.588872],[1.778699,50.589757],[1.777927,50.590016],[1.777154,50.590425],[1.775438,50.590697],[1.773764,50.591187],[1.772348,50.591501],[1.770953,50.591378],[1.765245,50.59225],[1.761962,50.593367],[1.761683,50.594375],[1.76134,50.59477],[1.760439,50.595029],[1.759473,50.595574],[1.759237,50.597399],[1.758937,50.59857],[1.758336,50.599782],[1.75855,50.600314],[1.75752,50.600518],[1.757306,50.601253],[1.757306,50.602111],[1.757113,50.602098],[1.757091,50.602356],[1.75634,50.604331],[1.755911,50.604876],[1.755632,50.605516],[1.755096,50.606388],[1.755203,50.608253],[1.754881,50.60873],[1.753637,50.608185],[1.75222,50.607082],[1.751276,50.606891],[1.74956,50.606755],[1.746684,50.607205],[1.744281,50.607055],[1.722265,50.606932],[1.721579,50.607109],[1.719476,50.608158],[1.71733,50.607872],[1.715528,50.607082],[1.712824,50.606605],[1.709863,50.60636],[1.70776,50.606524],[1.707202,50.606633],[1.703554,50.607218],[1.695894,50.610146],[1.692182,50.611753],[1.691087,50.612066],[1.687869,50.612434],[1.685294,50.612651],[1.684135,50.613264],[1.683577,50.613468],[1.68317,50.613754],[1.682655,50.616396],[1.682655,50.616396],[1.680552,50.618125],[1.679457,50.619228],[1.677612,50.620807],[1.676818,50.621242],[1.675316,50.622563],[1.674093,50.622808],[1.672913,50.62338],[1.67214,50.623353],[1.671282,50.623026],[1.670831,50.622931],[1.670123,50.622835],[1.669587,50.622958],[1.669072,50.623516],[1.668965,50.623965],[1.668493,50.624755],[1.668214,50.62534],[1.667849,50.625708],[1.66742,50.62662],[1.667849,50.628307],[1.667119,50.629532],[1.665982,50.630227],[1.665596,50.630975],[1.664888,50.631207],[1.662549,50.63122],[1.660167,50.631384],[1.658879,50.63137],[1.657506,50.631234],[1.657292,50.631697],[1.65624,50.632826],[1.655918,50.633316],[1.655253,50.633507],[1.655747,50.634119],[1.655768,50.634773],[1.655146,50.63514],[1.655725,50.635535],[1.656272,50.636392],[1.653504,50.638066],[1.643848,50.641073],[1.629493,50.639849],[1.617069,50.633412],[1.616275,50.638433],[1.615245,50.638161],[1.61473,50.637807],[1.614537,50.637345],[1.613915,50.637277],[1.613529,50.637944],[1.612885,50.637236],[1.612306,50.635943],[1.611533,50.635766],[1.611254,50.635916],[1.610331,50.639944],[1.610696,50.640502],[1.611319,50.640951],[1.611683,50.641359],[1.611683,50.641359],[1.611726,50.641958],[1.610846,50.643319],[1.610932,50.643604],[1.611319,50.643849],[1.611662,50.64389],[1.611898,50.645196],[1.61222,50.64521],[1.612627,50.645428],[1.612713,50.645795],[1.612906,50.646122],[1.612563,50.646788],[1.612563,50.647088],[1.612112,50.646816],[1.608787,50.646149],[1.607499,50.646666],[1.606898,50.647278],[1.606233,50.647714],[1.605332,50.647863],[1.603315,50.647646],[1.602242,50.647265],[1.601877,50.646761],[1.601083,50.646285],[1.599753,50.646054],[1.598079,50.646217],[1.597156,50.646135],[1.595869,50.646231],[1.595375,50.646339],[1.593423,50.646734],[1.59235,50.647101],[1.590247,50.647129],[1.588616,50.647877],[1.585741,50.648544],[1.585011,50.648857],[1.584754,50.650149],[1.58411,50.650775],[1.58411,50.650775],[1.583896,50.651061],[1.583617,50.65121],[1.58308,50.651237],[1.582673,50.651795],[1.582951,50.652271],[1.581707,50.652557],[1.582136,50.652938],[1.581256,50.653768],[1.581557,50.653918],[1.581814,50.654135],[1.582243,50.654176],[1.582437,50.654407],[1.582501,50.654761],[1.58263,50.65506],[1.583123,50.655237],[1.583273,50.655428],[1.583102,50.655673],[1.583145,50.656053],[1.582737,50.656067],[1.58293,50.65623],[1.583145,50.656271],[1.583102,50.656462],[1.582994,50.656788],[1.583445,50.657237],[1.582994,50.657795],[1.5822,50.657808],[1.58175,50.658121],[1.581707,50.65842],[1.581299,50.658448],[1.581063,50.658652],[1.580613,50.658624],[1.580484,50.658774],[1.581707,50.659291],[1.581728,50.659631],[1.581578,50.659794],[1.581771,50.660025],[1.581449,50.660338],[1.581085,50.660896],[1.580613,50.660978],[1.579111,50.662011],[1.578059,50.662392],[1.577501,50.662773],[1.577866,50.6631],[1.578124,50.66314],[1.578402,50.663263],[1.578317,50.66348],[1.577802,50.66348],[1.577115,50.663698],[1.57645,50.663698],[1.576257,50.663902],[1.576107,50.6645],[1.575205,50.664242],[1.57233,50.664487],[1.571944,50.664364],[1.57145,50.664419],[1.571107,50.664405],[1.570892,50.665752],[1.570742,50.666133],[1.570485,50.667248],[1.570699,50.667928],[1.570764,50.668975],[1.570613,50.669505],[1.570957,50.670933],[1.571794,50.671709],[1.571901,50.672456],[1.569712,50.676522]]],"type":"MultiLineString"},"properties":{"geo_point":{"lon":1.7940003378747094,"lat":50.51710107324561},"name":"GR121 De Grigny à Equihen-Plage (Pas-de-Calais) (2019)","code_gr":"GR121"}},{"type":"Feature","geometry":{"coordinates":[[[3.162571,50.262474],[3.163558,50.262048],[3.165103,50.26176],[3.164481,50.260457],[3.162486,50.259771],[3.163473,50.258838],[3.164009,50.25866],[3.174073,50.256931],[3.176111,50.256781],[3.178128,50.256849],[3.179845,50.257041],[3.181797,50.257466],[3.184995,50.258372],[3.187205,50.258866],[3.189072,50.259085],[3.190853,50.259168],[3.192998,50.259058],[3.197955,50.258523],[3.19832,50.258687],[3.198256,50.259003],[3.198728,50.259689],[3.198749,50.26021],[3.1995,50.26069],[3.199843,50.26091],[3.200423,50.261266],[3.20126,50.261253],[3.202332,50.261458],[3.203019,50.261829],[3.203706,50.262062],[3.204028,50.262048],[3.204392,50.262185],[3.205122,50.262323],[3.206281,50.262295],[3.207289,50.262391],[3.208662,50.262391],[3.20907,50.26294],[3.2098,50.263557],[3.210916,50.263722],[3.211581,50.263598],[3.212911,50.262926],[3.214113,50.262926],[3.214885,50.263009],[3.215722,50.26294],[3.217203,50.262954],[3.218512,50.263283],[3.219477,50.263475],[3.220035,50.263475],[3.220142,50.263557],[3.221301,50.263543],[3.222803,50.263187],[3.223146,50.262967],[3.223704,50.262954],[3.224842,50.262981],[3.226902,50.26187],[3.227588,50.260635],[3.228253,50.260361],[3.230399,50.260155],[3.234133,50.260004],[3.240634,50.260361],[3.246407,50.259593],[3.249067,50.25962],[3.261813,50.260443],[3.264431,50.260443],[3.26692,50.260238],[3.268165,50.2601],[3.270675,50.259661],[3.273336,50.258989],[3.277971,50.257384],[3.280717,50.256781],[3.281104,50.257055],[3.281447,50.257617],[3.281447,50.25711],[3.280996,50.255642],[3.281039,50.255079],[3.282069,50.253817],[3.282284,50.25309],[3.282069,50.252322],[3.282005,50.251814],[3.281125,50.249811],[3.28076,50.249523],[3.281125,50.249372],[3.287798,50.249646],[3.288678,50.249907],[3.297154,50.25545],[3.297883,50.257178],[3.29827,50.257124],[3.299235,50.25663],[3.300458,50.256575],[3.300544,50.256204],[3.300909,50.256026],[3.305437,50.254832],[3.306359,50.257645],[3.306316,50.258139],[3.30608,50.258413],[3.30681,50.259222],[3.307239,50.260567],[3.30769,50.261006],[3.30799,50.262062],[3.308698,50.263036],[3.308913,50.264051],[3.308612,50.264504],[3.307797,50.264997],[3.307582,50.265327],[3.307818,50.265752],[3.308205,50.265985],[3.308913,50.26663],[3.309792,50.266863],[3.310608,50.267247],[3.310822,50.267137],[3.31123,50.266616],[3.312603,50.266054],[3.312668,50.264517],[3.31226,50.263585],[3.312797,50.263502],[3.313354,50.264024],[3.31402,50.263859],[3.314492,50.26412],[3.31903,50.263531],[3.319738,50.264272],[3.32051,50.264724],[3.321433,50.26504],[3.32139,50.265342],[3.321648,50.265492],[3.32227,50.265355],[3.323836,50.265876],[3.323729,50.26504],[3.325371,50.264833],[3.328493,50.264532],[3.331422,50.263804],[3.331186,50.263393],[3.33022,50.262378],[3.330413,50.261993],[3.330735,50.261884],[3.333074,50.261623],[3.334104,50.261554],[3.335756,50.261609],[3.339876,50.261198],[3.341228,50.261116],[3.342859,50.260882],[3.348674,50.259799],[3.351807,50.259469],[3.352558,50.259757],[3.354081,50.259675],[3.356012,50.25962],[3.356763,50.259442],[3.359081,50.258729],[3.359853,50.258413],[3.364102,50.256136],[3.366398,50.255258],[3.368243,50.254517],[3.369016,50.254407],[3.371655,50.254489],[3.372556,50.25438],[3.374359,50.253749],[3.375346,50.252747],[3.374766,50.252212],[3.375753,50.251567],[3.37526,50.251169],[3.374788,50.250291],[3.374487,50.249893],[3.374251,50.249523],[3.377513,50.248329],[3.376805,50.24789],[3.377084,50.247163],[3.376762,50.245187],[3.389057,50.241523],[3.390495,50.240658],[3.395194,50.243691],[3.396675,50.244267],[3.39719,50.244514],[3.399786,50.245461],[3.402897,50.247615],[3.404485,50.249207],[3.405408,50.250264],[3.407639,50.251883],[3.410182,50.253146],[3.412167,50.254339],[3.413605,50.256108],[3.415128,50.257686],[3.417317,50.258166],[3.418111,50.259442],[3.421716,50.261431],[3.422853,50.26187],[3.42781,50.262199],[3.432874,50.262131],[3.434569,50.26235],[3.434998,50.262666],[3.436736,50.263598],[3.438174,50.26427],[3.442165,50.266712],[3.443409,50.267247],[3.444482,50.267398],[3.445941,50.267343],[3.447529,50.267123],[3.448559,50.267233],[3.451263,50.267946],[3.45255,50.268084],[3.454396,50.268166],[3.456348,50.268125],[3.462206,50.269661],[3.463129,50.269633],[3.464245,50.268948],[3.465489,50.269825],[3.466391,50.270223],[3.466755,50.270278],[3.47418,50.26737],[3.476154,50.267329],[3.476368,50.26748],[3.476604,50.268577],[3.476991,50.269181],[3.478149,50.270127],[3.479244,50.270429],[3.480166,50.270895],[3.481733,50.272335],[3.482956,50.272061],[3.484243,50.271636],[3.485252,50.271197],[3.489737,50.269606],[3.49302,50.268797],[3.493685,50.268509],[3.494436,50.26807],[3.497075,50.267604],[3.498126,50.267658],[3.4995,50.267014],[3.499607,50.266493],[3.499929,50.266643],[3.500337,50.266904],[3.501667,50.266767],[3.502354,50.266493],[3.503233,50.266383],[3.506323,50.263955],[3.507461,50.264792],[3.508276,50.265052],[3.510765,50.265519],[3.512138,50.265944],[3.512868,50.266026],[3.513018,50.265752],[3.512997,50.265368],[3.513319,50.264984],[3.513748,50.26508],[3.515679,50.264956],[3.516258,50.264613],[3.516988,50.264874],[3.518275,50.264792],[3.518812,50.264668],[3.519262,50.264956],[3.520421,50.264929],[3.523704,50.263063],[3.527116,50.260224],[3.532909,50.261747],[3.533188,50.260539],[3.532802,50.259812],[3.532652,50.259305],[3.532738,50.255779],[3.533167,50.254627],[3.533081,50.253954],[3.532781,50.253721],[3.531429,50.252802],[3.530098,50.251498],[3.530184,50.251265],[3.530656,50.250854],[3.531064,50.25084],[3.531686,50.250607],[3.533339,50.249687],[3.534283,50.249509],[3.535012,50.249358],[3.536064,50.24859],[3.536064,50.248411],[3.536729,50.248329],[3.537222,50.248082],[3.538295,50.247808],[3.538832,50.247972],[3.540977,50.247794],[3.541664,50.247643],[3.542372,50.247629],[3.543853,50.247204],[3.544582,50.246916],[3.547329,50.246627],[3.547758,50.246627],[3.548638,50.24682],[3.549882,50.246778],[3.55117,50.246847],[3.552028,50.246696],[3.553015,50.246627],[3.553959,50.246394],[3.555504,50.246175],[3.556835,50.24542],[3.557972,50.245132],[3.558594,50.245118],[3.559238,50.245008],[3.560912,50.243965],[3.56147,50.244171],[3.562199,50.244693],[3.564023,50.247025],[3.566212,50.247012],[3.568615,50.246902],[3.575138,50.246902],[3.577649,50.246861],[3.580588,50.246504],[3.583979,50.245406],[3.58606,50.244981],[3.58679,50.244007],[3.587262,50.243691],[3.588292,50.243403],[3.5893,50.243018],[3.590416,50.242511],[3.59106,50.24155],[3.592497,50.24107],[3.592884,50.24107],[3.593871,50.240466],[3.593828,50.239917],[3.594064,50.239643],[3.594064,50.239066],[3.594321,50.238366],[3.594815,50.238078],[3.595244,50.237392],[3.594922,50.236815],[3.594793,50.236294],[3.595137,50.235113],[3.594965,50.234674],[3.595287,50.234139],[3.596059,50.233686],[3.596746,50.233082],[3.598656,50.232972],[3.599321,50.232766],[3.600179,50.232698],[3.600801,50.232533],[3.601896,50.232451],[3.602561,50.232272],[3.603612,50.232176],[3.60475,50.231394],[3.606252,50.229911],[3.606702,50.229129],[3.607282,50.228731],[3.609234,50.227797],[3.610414,50.22755],[3.611616,50.227495],[3.61241,50.227495],[3.613054,50.228292],[3.613483,50.22799],[3.613397,50.228648],[3.614534,50.229568],[3.614727,50.229925],[3.616337,50.231394],[3.617088,50.231792],[3.61962,50.233343],[3.621208,50.232876],[3.622731,50.23197],[3.623117,50.231847],[3.622645,50.232711],[3.622431,50.233535],[3.623225,50.237611],[3.623868,50.240507],[3.624727,50.244898],[3.624555,50.246655],[3.624834,50.247945],[3.624641,50.248219],[3.624984,50.249728],[3.625478,50.249674],[3.625714,50.249975],[3.626658,50.25003],[3.627795,50.249893],[3.62802,50.250237],[3.629104,50.250373],[3.629619,50.250552],[3.629641,50.250318],[3.629769,50.25014],[3.629834,50.249866],[3.631529,50.249262],[3.632301,50.249482],[3.632666,50.250195],[3.632859,50.25095],[3.634168,50.251018],[3.634383,50.25095],[3.636056,50.251101],[3.636164,50.25132],[3.637086,50.251841],[3.637279,50.251649],[3.637794,50.2518],[3.637794,50.2518],[3.638202,50.251732],[3.638417,50.251553],[3.638417,50.251553],[3.638835,50.251574],[3.639093,50.251053],[3.639822,50.250586],[3.640251,50.250476],[3.641882,50.250476],[3.641775,50.248857],[3.64495,50.250045],[3.642097,50.251115],[3.641496,50.251458],[3.64141,50.251788],[3.643062,50.253695],[3.642869,50.253791],[3.640702,50.254038],[3.641367,50.254628],[3.642955,50.255643],[3.644049,50.256631],[3.645144,50.25718],[3.645937,50.257673],[3.646667,50.25803],[3.647246,50.258497],[3.648319,50.259964],[3.648469,50.260801],[3.649864,50.261693]]],"type":"MultiLineString"},"properties":{"geo_point":{"lon":3.418777318432071,"lat":50.255384605653184},"name":"GR121C De Aubigny-au-Bac à Le Quesnoy (Nord) (2019)","code_gr":"GR121"}}]}