{"type":"FeatureCollection","features":[{"type":"Feature","geometry":{"coordinates":[[[4.306469,46.948429],[4.306942,46.948122],[4.306577,46.947726],[4.307392,46.947082],[4.308122,46.947155],[4.308787,46.946452],[4.309688,46.945632],[4.309967,46.945221],[4.311319,46.943859],[4.313014,46.942497],[4.3134,46.942335],[4.313422,46.942101],[4.314409,46.941369],[4.314838,46.941251],[4.31516,46.941032],[4.317456,46.940416],[4.317928,46.940123],[4.318314,46.939288],[4.318293,46.938438],[4.318572,46.937838],[4.319408,46.937296],[4.320503,46.937061],[4.321597,46.936944],[4.322391,46.93605],[4.32267,46.934629],[4.322842,46.93205],[4.32267,46.931669],[4.322649,46.931288],[4.321833,46.930673],[4.321726,46.930263],[4.320331,46.929955],[4.323314,46.928358],[4.324623,46.928138],[4.325545,46.927815],[4.326382,46.926878],[4.326683,46.926247],[4.326425,46.925808],[4.325846,46.925441],[4.325846,46.924929],[4.325631,46.924328],[4.325889,46.923873],[4.325588,46.923785],[4.324365,46.923038],[4.322777,46.922935],[4.31928,46.921323],[4.318314,46.921177],[4.319001,46.92018],[4.318529,46.919814],[4.318164,46.918934],[4.318357,46.918729],[4.318228,46.918378],[4.318142,46.917264],[4.317821,46.916003],[4.317241,46.915695],[4.317649,46.914728],[4.318657,46.913292],[4.319687,46.912676],[4.320159,46.91209],[4.320953,46.911445],[4.321189,46.911049],[4.322112,46.910228],[4.322928,46.909891],[4.323872,46.90929],[4.325524,46.909158],[4.328571,46.908337],[4.329601,46.907853],[4.328485,46.906578],[4.332905,46.904804],[4.332884,46.904262],[4.332283,46.903206],[4.331489,46.902062],[4.33121,46.901344],[4.331189,46.90108],[4.331017,46.901007],[4.330738,46.900582],[4.330116,46.900362],[4.327648,46.900626],[4.327026,46.901065],[4.326704,46.901065],[4.327863,46.898676],[4.328163,46.898236],[4.327176,46.898192],[4.326833,46.897767],[4.32679,46.897547],[4.32606,46.89677],[4.326489,46.895465],[4.326253,46.89501],[4.325717,46.894775],[4.32561,46.894101],[4.325073,46.893793],[4.324194,46.893119],[4.323614,46.892957],[4.322799,46.893456],[4.322198,46.89284],[4.322155,46.892415],[4.321554,46.892327],[4.320825,46.891608],[4.319902,46.891168],[4.319108,46.890684],[4.321232,46.889658],[4.322541,46.888397],[4.322649,46.887693],[4.323829,46.887473],[4.324816,46.887136],[4.32591,46.887312],[4.326768,46.887062],[4.327133,46.886534],[4.32782,46.885904],[4.328592,46.885874],[4.329665,46.885478],[4.330051,46.885537],[4.330502,46.885889],[4.330888,46.885889],[4.333184,46.885229],[4.334279,46.885141],[4.336296,46.884481],[4.338184,46.884906],[4.339107,46.885537],[4.339729,46.885654],[4.341467,46.88517],[4.342948,46.884584],[4.343527,46.885112],[4.343548,46.885552],[4.344407,46.885948],[4.344965,46.886036],[4.345437,46.88627],[4.34548,46.88583],[4.346166,46.8852],[4.346896,46.885112],[4.348097,46.884804],[4.34917,46.884173],[4.350136,46.884041],[4.350887,46.884144],[4.352282,46.885654],[4.354148,46.886549],[4.355071,46.886725],[4.356037,46.887238],[4.358054,46.887825],[4.358054,46.88891],[4.358783,46.888793],[4.359406,46.888617],[4.360006,46.888617],[4.360071,46.888265],[4.361294,46.886842],[4.362195,46.886138],[4.362925,46.885112],[4.363568,46.884129],[4.36359,46.883777],[4.363826,46.883425],[4.363804,46.882619],[4.364319,46.881783],[4.364362,46.881548],[4.364641,46.881621],[4.365306,46.882135],[4.365886,46.882193],[4.367302,46.882897],[4.368547,46.882809],[4.369748,46.882971],[4.370542,46.881973],[4.371336,46.88146],[4.372645,46.880331],[4.375821,46.879392],[4.377151,46.878101],[4.377087,46.877734],[4.376808,46.877397],[4.376593,46.876869],[4.3761,46.87703],[4.37567,46.87684],[4.375756,46.875358],[4.374641,46.873906],[4.375113,46.873393],[4.374834,46.873114],[4.374276,46.872762],[4.373739,46.872703],[4.372838,46.872894],[4.372345,46.872703],[4.371636,46.872645],[4.374297,46.871999],[4.374877,46.864312],[4.376164,46.86396],[4.378202,46.86327],[4.381764,46.862889],[4.38464,46.862742],[4.387773,46.862771],[4.389747,46.862948],[4.391678,46.863446],[4.394618,46.863476],[4.398587,46.858957],[4.403587,46.856418],[4.400819,46.854026],[4.395969,46.851238],[4.398695,46.85024],[4.399467,46.848582],[4.399252,46.847848],[4.398888,46.84754],[4.399381,46.846263],[4.398823,46.845867],[4.397944,46.845486],[4.397965,46.843607],[4.397858,46.843035],[4.398094,46.842007],[4.39848,46.841449],[4.399553,46.838411],[4.399274,46.837736],[4.399789,46.837222],[4.400197,46.836811],[4.401935,46.83844],[4.40305,46.838029],[4.403973,46.838015],[4.40481,46.83778],[4.406012,46.836826],[4.406784,46.835945],[4.406999,46.83596],[4.407342,46.835681],[4.409187,46.835446],[4.410883,46.835006],[4.411376,46.834712],[4.411676,46.834213],[4.412685,46.833758],[4.413994,46.833993],[4.414745,46.834389],[4.415732,46.833728],[4.416118,46.833361],[4.416526,46.833743],[4.416912,46.834389],[4.417513,46.834081],[4.417577,46.834888],[4.418328,46.834844],[4.418607,46.835182],[4.420367,46.834433],[4.420753,46.834095],[4.421526,46.833817],[4.421912,46.833817],[4.42174,46.834418],[4.422019,46.835916],[4.422319,46.836165],[4.424036,46.836884],[4.425238,46.837751],[4.426032,46.837927],[4.426568,46.838279],[4.427512,46.838279],[4.428156,46.837883],[4.428628,46.837927],[4.42895,46.838954],[4.429915,46.838396],[4.42998,46.838235],[4.430795,46.838279],[4.431997,46.838338],[4.432619,46.840525],[4.433306,46.840598],[4.434207,46.840481],[4.435409,46.840466],[4.437426,46.84095],[4.440172,46.840686],[4.442082,46.84026],[4.444356,46.8396],[4.445708,46.839483],[4.446588,46.839673],[4.447682,46.839791],[4.449678,46.839703],[4.451352,46.839189],[4.45206,46.83916],[4.452553,46.838837],[4.453047,46.83891],[4.45412,46.838778],[4.454978,46.838514],[4.4556,46.838411],[4.456265,46.838117],[4.456995,46.83822],[4.45736,46.838147],[4.457403,46.838499],[4.457961,46.838528],[4.458561,46.838382],[4.459398,46.838308],[4.460106,46.838851],[4.460793,46.839218],[4.461136,46.839497],[4.461802,46.839879],[4.461759,46.840202],[4.463347,46.841126],[4.46502,46.841978],[4.466801,46.843152],[4.467016,46.843622],[4.467702,46.844121],[4.468132,46.845794],[4.471522,46.846351],[4.475105,46.846425],[4.479697,46.847305],[4.48165,46.848553],[4.484525,46.849477],[4.485233,46.851855],[4.485126,46.852354],[4.484568,46.852588],[4.484482,46.852882],[4.485448,46.853484],[4.485684,46.853953],[4.486778,46.85432],[4.487401,46.854746],[4.488237,46.854628],[4.488624,46.854701],[4.488967,46.855303],[4.489418,46.855391],[4.491306,46.854452],[4.493387,46.85432],[4.494052,46.854878],[4.493859,46.856668],[4.49343,46.857049],[4.492314,46.857343],[4.492314,46.859969],[4.492143,46.860864],[4.492121,46.862023],[4.49225,46.863461],[4.492765,46.864253],[4.49313,46.863813],[4.494288,46.863446],[4.496177,46.862375],[4.498301,46.861495],[4.50197,46.859573],[4.501563,46.861407],[4.506884,46.862757],[4.507807,46.862742],[4.509309,46.862948],[4.510403,46.863329],[4.510918,46.863402],[4.522956,46.86795],[4.525445,46.869168],[4.526775,46.870444],[4.527419,46.871412],[4.53038,46.872469],[4.532075,46.872557],[4.533492,46.873598],[4.533814,46.874185],[4.533921,46.876341],[4.53362,46.878101],[4.533685,46.879583],[4.534028,46.881123],[4.53405,46.88278],[4.534414,46.883132],[4.542161,46.884276],[4.546409,46.884261],[4.549671,46.8841],[4.550465,46.884408],[4.550679,46.88495],[4.550636,46.886138],[4.551065,46.887136],[4.551623,46.887517],[4.554971,46.88891],[4.555679,46.889731],[4.556559,46.890054],[4.557181,46.890054],[4.558297,46.889863],[4.560893,46.889863],[4.56173,46.889717],[4.563232,46.889819],[4.564755,46.889467],[4.566751,46.888705],[4.568918,46.8874],[4.570785,46.887004],[4.571364,46.886622],[4.572416,46.886549],[4.573081,46.887077],[4.572673,46.890758],[4.573553,46.891799],[4.574004,46.893324],[4.57409,46.895289],[4.574626,46.896843],[4.576407,46.900875],[4.576493,46.901476],[4.576965,46.90281],[4.57778,46.90413],[4.57866,46.904936],[4.579433,46.905376],[4.581385,46.907311],[4.583016,46.909334],[4.583617,46.909979],[4.584904,46.910976],[4.5872,46.913585],[4.587951,46.914728],[4.588337,46.915651],[4.588552,46.916062],[4.588981,46.915988],[4.589518,46.91637],[4.590118,46.917132],[4.590741,46.917733],[4.591063,46.918246],[4.59162,46.918759],[4.591835,46.919066],[4.592522,46.920092],[4.593251,46.922115],[4.594753,46.923243],[4.595762,46.92506],[4.59677,46.927859],[4.597908,46.929178],[4.598938,46.929882],[4.599281,46.930497],[4.599238,46.931318],[4.599431,46.93164],[4.600461,46.931786],[4.60059,46.932021],[4.601255,46.931669],[4.602178,46.932167],[4.602778,46.932739],[4.603444,46.934439],[4.603723,46.934951],[4.603937,46.936417],[4.604366,46.937134],[4.605096,46.937882],[4.605804,46.938834],[4.606684,46.939684],[4.605954,46.939845],[4.60574,46.940109],[4.60589,46.941413],[4.605611,46.941735],[4.60619,46.942086],[4.606576,46.942248],[4.606684,46.942467],[4.608465,46.943053],[4.609409,46.943654],[4.610825,46.944035],[4.613121,46.944152],[4.613808,46.944577],[4.615117,46.945207],[4.615932,46.945426],[4.617112,46.9461],[4.617842,46.946833],[4.618786,46.947258],[4.619601,46.947228],[4.621168,46.948459],[4.622841,46.948473],[4.62355,46.948254],[4.623893,46.948503],[4.626275,46.949147],[4.629193,46.950158],[4.629193,46.950158],[4.630759,46.951681],[4.632261,46.951271],[4.633163,46.951344],[4.633785,46.95133],[4.63415,46.951374],[4.634536,46.951623]]],"type":"MultiLineString"},"properties":{"geo_point":{"lon":4.446859283298077,"lat":46.88397142949556},"name":"GR137 De Autun (Saône-et-Loire) à Nolay (Côte-d'Or) (2019)","code_gr":"GR137"}}]}