{"type":"FeatureCollection","features":[{"type":"Feature","geometry":{"coordinates":[[[2.834322,48.069118],[2.835996,48.069218],[2.836897,48.069077],[2.836946,48.068479],[2.835812,48.067046],[2.837759,48.066617],[2.838942,48.066469],[2.84052,48.066041],[2.840914,48.066041],[2.843798,48.065267],[2.84471,48.065316],[2.846657,48.065679],[2.85139,48.065514],[2.852844,48.065053],[2.853731,48.065151],[2.855136,48.064954],[2.856541,48.064888],[2.85802,48.064937],[2.860115,48.064888],[2.863098,48.065596],[2.864256,48.065349],[2.865858,48.065069],[2.867386,48.065102],[2.8682,48.064937],[2.868939,48.063619],[2.870073,48.062302],[2.873647,48.061214],[2.87695,48.060918],[2.87939,48.061165],[2.888436,48.059435],[2.889669,48.059303],[2.891098,48.059023],[2.892577,48.059172],[2.892183,48.060177],[2.892183,48.060638],[2.892848,48.06077],[2.894993,48.060918],[2.897186,48.060885],[2.89813,48.060572],[2.899051,48.060103],[2.900893,48.059715],[2.901944,48.059452],[2.903422,48.058842],[2.903003,48.058612],[2.90219,48.057409],[2.904408,48.057046],[2.909165,48.056404],[2.909165,48.057409],[2.909167,48.057472],[2.909489,48.057758],[2.910604,48.057518],[2.911355,48.05756],[2.913158,48.056828],[2.914059,48.056282],[2.914209,48.05637],[2.914767,48.056084],[2.915883,48.055752],[2.916549,48.055326],[2.91727,48.055005],[2.91795,48.054577],[2.919172,48.054055],[2.920325,48.053413],[2.921891,48.053055],[2.923822,48.053158],[2.925968,48.052467],[2.926698,48.052067],[2.928801,48.051678],[2.931344,48.051445],[2.931685,48.051325],[2.933266,48.051325],[2.934568,48.051579],[2.935429,48.051566],[2.936118,48.051479],[2.936568,48.051994],[2.93644,48.054161],[2.93644,48.054161],[2.93733,48.05399],[2.939304,48.053789],[2.941107,48.054047],[2.941579,48.053803],[2.942544,48.053775],[2.94387,48.054097],[2.944776,48.053746],[2.94542,48.053057],[2.946631,48.052664],[2.947863,48.05413],[2.949368,48.053674],[2.949657,48.053589],[2.951009,48.052883],[2.951267,48.053101],[2.95191,48.052982],[2.952747,48.052597],[2.953949,48.052326],[2.95558,48.052509],[2.957103,48.053112],[2.957919,48.053215],[2.958133,48.052826],[2.959571,48.053013],[2.962554,48.050892],[2.968583,48.050732],[2.971652,48.049915],[2.972274,48.049541],[2.974463,48.049095],[2.97605,48.049599],[2.978454,48.049713],[2.98178,48.049885],[2.984526,48.049915],[2.986121,48.049799],[2.987487,48.049801],[2.988818,48.049843],[2.989483,48.049599],[2.992337,48.049713],[2.994268,48.049686],[2.995319,48.049442],[2.997293,48.049198],[2.997766,48.049141],[2.998688,48.049355],[3.000405,48.049458],[3.002572,48.049042],[3.004396,48.049713],[3.005555,48.050518],[3.006155,48.050545],[3.00667,48.050259],[3.007357,48.050617],[3.008001,48.050591],[3.014588,48.049629],[3.013816,48.05069],[3.013859,48.052109],[3.014803,48.052052],[3.016455,48.051334],[3.018494,48.050903],[3.020116,48.051178],[3.022442,48.051407],[3.025553,48.051506],[3.028901,48.050961],[3.032312,48.049671],[3.032548,48.047604],[3.033321,48.045525],[3.034136,48.044849],[3.036089,48.044205],[3.036089,48.044205],[3.037945,48.043619],[3.039063,48.044112],[3.039654,48.043453],[3.040689,48.043453],[3.041996,48.043321],[3.042988,48.043719],[3.04376,48.043748],[3.045348,48.043891],[3.046764,48.043647],[3.047987,48.043274],[3.049082,48.043303],[3.050133,48.043203],[3.051463,48.043475],[3.05245,48.042873],[3.05303,48.043016],[3.054403,48.042944],[3.055862,48.043102],[3.056637,48.043025],[3.057795,48.043453],[3.058931,48.043719],[3.060969,48.041998],[3.062214,48.042055],[3.063218,48.042267],[3.0651,48.042999],[3.068125,48.045338],[3.069091,48.045368],[3.072181,48.045181],[3.073983,48.045166],[3.074927,48.045368],[3.075185,48.045109],[3.076282,48.045678],[3.076172,48.044594],[3.075786,48.044334],[3.075936,48.043945],[3.076966,48.043404],[3.080249,48.042198],[3.08115,48.041752],[3.082781,48.041653],[3.083231,48.041409],[3.083296,48.04052],[3.086622,48.039097],[3.088574,48.037964],[3.089626,48.037922],[3.090677,48.039211],[3.090913,48.040302],[3.091514,48.040619],[3.092759,48.040848],[3.094819,48.040218],[3.095462,48.040276],[3.0966,48.041393],[3.096771,48.041981],[3.097651,48.04224],[3.097844,48.042755],[3.098402,48.042728],[3.098896,48.042515],[3.102372,48.042515],[3.109002,48.041679],[3.109946,48.042198],[3.110118,48.042641],[3.11044,48.043934],[3.112757,48.043747],[3.114817,48.043274],[3.11589,48.0429],[3.118298,48.043],[3.120096,48.042542],[3.12078,48.042464],[3.121126,48.042526],[3.12149,48.044048],[3.122199,48.044334],[3.123186,48.044407],[3.123958,48.043819],[3.124344,48.043732],[3.12501,48.043331],[3.125567,48.043461],[3.128271,48.0429],[3.131983,48.043991],[3.133335,48.044838],[3.13458,48.045383],[3.135653,48.047691],[3.137578,48.049023],[3.1393,48.050545],[3.139579,48.051792],[3.139966,48.052223],[3.140051,48.053413],[3.139687,48.055065],[3.142519,48.05518],[3.14563,48.055424],[3.146553,48.055637],[3.148699,48.055019],[3.150501,48.055737],[3.154321,48.056454],[3.156917,48.056454],[3.162475,48.057285],[3.165135,48.057602],[3.166852,48.058064],[3.167646,48.058449],[3.168783,48.058334],[3.169835,48.057961],[3.170671,48.05756],[3.173418,48.057602],[3.174384,48.057716],[3.175757,48.057648],[3.175757,48.057648],[3.178343,48.058407],[3.179008,48.058923],[3.179823,48.059268],[3.180917,48.059511],[3.183083,48.060226],[3.184414,48.060292],[3.187495,48.060786],[3.189319,48.060671],[3.189291,48.060264],[3.189689,48.059897],[3.193792,48.060687],[3.196221,48.061214],[3.197569,48.061161],[3.198781,48.061201],[3.19935,48.061318],[3.201249,48.061775],[3.20318,48.06271],[3.203523,48.063137],[3.204575,48.063713],[3.205497,48.064014],[3.205991,48.064457],[3.20657,48.064442],[3.208652,48.066338],[3.209467,48.066738],[3.211269,48.068287],[3.213673,48.069805],[3.213673,48.069805],[3.214436,48.070603],[3.214781,48.071592],[3.215865,48.072761],[3.218084,48.076664],[3.218108,48.077339],[3.218429,48.077504],[3.218971,48.077669],[3.21952,48.078195],[3.220624,48.077977],[3.221064,48.078231],[3.221645,48.078231],[3.222365,48.078592],[3.224668,48.078084]]],"type":"MultiLineString"},"properties":{"geo_point":{"lon":3.030994212069824,"lat":48.053664951661624},"name":"GR132 De La Sausselière (Loiret) à Chaumot (Yonne) (2020)","code_gr":"GR132"}}]}