{"type":"FeatureCollection","features":[{"type":"Feature","geometry":{"coordinates":[[[4.036349,46.92229],[4.03739,46.921674],[4.038216,46.921586],[4.038667,46.921704],[4.039053,46.921103],[4.039354,46.920648],[4.039182,46.92015],[4.03989,46.920135],[4.040941,46.920092],[4.042529,46.920165],[4.043055,46.920011],[4.044138,46.919915],[4.047057,46.919315],[4.047937,46.918795],[4.048688,46.918098],[4.049009,46.917922],[4.050061,46.918129],[4.051541,46.918118],[4.052839,46.917912],[4.052871,46.918358],[4.052507,46.918861],[4.051766,46.919399],[4.051659,46.919888],[4.052399,46.920277],[4.052947,46.920712],[4.05359,46.920841],[4.054964,46.921558],[4.056154,46.921486],[4.057614,46.921024],[4.057614,46.921024],[4.058172,46.920091],[4.058901,46.919564],[4.059695,46.919461],[4.060425,46.919432],[4.061004,46.9193],[4.060704,46.920165],[4.060554,46.921762],[4.058966,46.922832],[4.05873,46.92333],[4.059588,46.923641],[4.05991,46.924309],[4.061272,46.925861],[4.062667,46.926285],[4.063911,46.92746],[4.06566,46.928535],[4.066991,46.928799],[4.068589,46.928829],[4.069405,46.928402],[4.071518,46.927971],[4.072473,46.927326],[4.073213,46.927086],[4.073589,46.927166],[4.074619,46.927849],[4.074973,46.92868],[4.075348,46.929165],[4.075413,46.92976],[4.077591,46.929043],[4.078202,46.929085],[4.079221,46.92902],[4.079865,46.929245],[4.080702,46.929371],[4.0817,46.929855],[4.082644,46.930485],[4.083384,46.931068],[4.084296,46.931526],[4.084908,46.931728],[4.085444,46.932014],[4.086185,46.932213],[4.086657,46.932262],[4.087987,46.932499],[4.089296,46.932396],[4.089714,46.932522],[4.090197,46.932938],[4.092536,46.933296],[4.093459,46.933334],[4.093845,46.933445],[4.095089,46.933334],[4.095379,46.933445],[4.096699,46.93351],[4.097461,46.933304],[4.097493,46.933102],[4.098362,46.932697],[4.09848,46.931854],[4.098426,46.931252],[4.098587,46.930981],[4.099209,46.93063],[4.099574,46.929855],[4.099821,46.929436],[4.100422,46.929443],[4.101226,46.929085],[4.102417,46.928249],[4.103962,46.927849],[4.104756,46.926807],[4.105078,46.926682],[4.106462,46.926968],[4.108436,46.926895],[4.110131,46.92704],[4.110775,46.927368],[4.112599,46.927715],[4.114498,46.927429],[4.115785,46.927429],[4.117019,46.927406],[4.118843,46.927547],[4.119272,46.927738],[4.119852,46.928192],[4.120731,46.928322],[4.122598,46.928917],[4.12484,46.930264],[4.126396,46.930843],[4.127555,46.930882],[4.129518,46.931194],[4.132351,46.931519],[4.134314,46.931431],[4.134775,46.931648],[4.135076,46.931957],[4.135773,46.931896],[4.137286,46.931313],[4.138412,46.931202],[4.139174,46.93137],[4.139957,46.931713],[4.141062,46.931911],[4.142125,46.931957],[4.142779,46.931686],[4.143487,46.93132],[4.144582,46.931416],[4.145129,46.931351],[4.145901,46.931114],[4.146985,46.931194],[4.148594,46.931187],[4.149377,46.931599],[4.14971,46.931759],[4.14942,46.929085],[4.14883,46.928162],[4.150418,46.928616],[4.15089,46.928425],[4.152639,46.928432],[4.153068,46.928654],[4.153326,46.928543],[4.153605,46.928226],[4.154162,46.928211],[4.154978,46.927853],[4.156147,46.927898],[4.156866,46.92786],[4.157499,46.927971],[4.158443,46.92767],[4.159323,46.927811],[4.159698,46.928089],[4.159935,46.928051],[4.160299,46.927685],[4.161565,46.926929],[4.162982,46.9263],[4.163883,46.926052],[4.165106,46.926083],[4.165589,46.92627],[4.165803,46.926468],[4.167391,46.926537],[4.167777,46.926453],[4.16855,46.926617],[4.169483,46.926395],[4.17046,46.926418],[4.171318,46.926258],[4.172434,46.925926],[4.173249,46.925903],[4.1737,46.925648],[4.174987,46.924652],[4.177004,46.923317],[4.178023,46.922665],[4.178227,46.92202],[4.178324,46.919983],[4.17827,46.91901],[4.178399,46.918094],[4.178839,46.917126],[4.179579,46.917549],[4.180137,46.917743],[4.180394,46.917213],[4.18136,46.916641],[4.182379,46.915878],[4.183839,46.914582],[4.184932,46.913199],[4.186542,46.911175],[4.186832,46.909973],[4.187583,46.909073],[4.189332,46.907928],[4.189643,46.907475],[4.189782,46.906952],[4.191649,46.907188],[4.194009,46.907665],[4.196917,46.90704],[4.198548,46.906864],[4.199288,46.907101],[4.199685,46.907459],[4.199942,46.908001],[4.200865,46.908413],[4.201573,46.908787],[4.202324,46.908897],[4.206423,46.909489],[4.207367,46.909298],[4.208622,46.909241],[4.209598,46.908714],[4.209598,46.908714],[4.210693,46.908732],[4.212388,46.910007],[4.212603,46.910432],[4.213525,46.911077],[4.215671,46.911722],[4.21653,46.910931],[4.219813,46.910916],[4.221765,46.910053],[4.222913,46.909996],[4.225252,46.909447],[4.227676,46.908718],[4.2295,46.908104],[4.231914,46.907787],[4.234028,46.9077],[4.235294,46.907475],[4.236892,46.907501],[4.236989,46.908104],[4.237515,46.90834],[4.238663,46.908691],[4.239897,46.90929],[4.24054,46.90976],[4.24098,46.910179],[4.241302,46.910221],[4.241914,46.910172],[4.242396,46.910435],[4.243287,46.911087],[4.244006,46.911327],[4.244875,46.91151],[4.246033,46.911087],[4.246999,46.911247],[4.247621,46.911205],[4.248233,46.910927],[4.24893,46.910778],[4.249692,46.910881],[4.250432,46.911461],[4.251087,46.91185],[4.251806,46.911865],[4.25202,46.911804],[4.251516,46.912449],[4.251355,46.91309],[4.250861,46.913704],[4.250454,46.915318],[4.249681,46.915867],[4.248995,46.917252],[4.24878,46.917461],[4.248952,46.918388],[4.249252,46.918301],[4.249617,46.917919],[4.250228,46.917549],[4.250754,46.91684],[4.251688,46.916519],[4.252546,46.91637],[4.252106,46.916798],[4.251548,46.918232],[4.251999,46.918797],[4.252084,46.919186],[4.252675,46.919998],[4.253232,46.920395],[4.254048,46.920506],[4.255368,46.92057],[4.256762,46.920864],[4.257588,46.92131],[4.258189,46.921741],[4.258726,46.921875],[4.259423,46.92181],[4.259884,46.921543],[4.261107,46.920418],[4.262159,46.919598],[4.262964,46.919537],[4.263575,46.919407],[4.264069,46.919495],[4.266,46.920673],[4.266558,46.920849],[4.267255,46.921246],[4.26777,46.921238],[4.268671,46.921001],[4.269551,46.92049],[4.270431,46.919163],[4.270806,46.91914],[4.271042,46.919567],[4.271021,46.920666],[4.271252,46.920895],[4.271831,46.921013],[4.272453,46.921112],[4.273006,46.921333],[4.274111,46.92149],[4.275087,46.921432],[4.275838,46.921345],[4.276401,46.921494],[4.276605,46.921822],[4.277233,46.923134],[4.278091,46.923588],[4.279368,46.92466],[4.279969,46.925114],[4.280409,46.925529],[4.280816,46.925751],[4.280956,46.925999],[4.281578,46.926624],[4.281728,46.927238],[4.28234,46.927883],[4.283112,46.928303],[4.283971,46.928974],[4.28411,46.929523],[4.284335,46.929459],[4.284861,46.928909],[4.285773,46.928368],[4.287007,46.927994],[4.287833,46.927979],[4.288627,46.928089],[4.288487,46.928394],[4.287146,46.932858],[4.286975,46.933685],[4.287264,46.934002],[4.287479,46.934052],[4.288648,46.932819],[4.289657,46.932632],[4.290558,46.932587],[4.290279,46.932903],[4.289732,46.933304],[4.28955,46.933743],[4.289947,46.934856],[4.29014,46.935612],[4.290183,46.936031],[4.289893,46.936321],[4.289378,46.936558],[4.289271,46.93726],[4.289324,46.937561],[4.289517,46.937584],[4.291524,46.936504],[4.291878,46.936623],[4.2925,46.937233],[4.29294,46.937267],[4.294142,46.936878],[4.294914,46.936543],[4.296373,46.936329],[4.297071,46.936558],[4.297575,46.936684],[4.298111,46.936878],[4.298422,46.937298],[4.298015,46.937927],[4.29736,46.938183],[4.297349,46.938515],[4.297575,46.938889],[4.298776,46.939671],[4.298991,46.94014],[4.300193,46.941929],[4.300343,46.942383],[4.299753,46.943398],[4.299152,46.943951],[4.299012,46.944263],[4.299603,46.944931],[4.299388,46.945282],[4.300096,46.945496],[4.300386,46.945793],[4.300418,46.946255],[4.300128,46.946716],[4.301019,46.947136],[4.301673,46.946945],[4.30222,46.947067],[4.303443,46.947788],[4.304023,46.947956],[4.305096,46.947868],[4.305815,46.948029],[4.306072,46.948158],[4.30604,46.948299],[4.306501,46.948441],[4.306887,46.948189],[4.306608,46.947773],[4.307381,46.947105],[4.308196,46.947186],[4.308776,46.946468],[4.309698,46.94561],[4.310846,46.944286],[4.311962,46.943268],[4.3134,46.942337],[4.313743,46.941833],[4.31428,46.94138],[4.314762,46.941189],[4.315031,46.940968],[4.317069,46.940563],[4.317809,46.940239],[4.318126,46.939823],[4.318335,46.939289],[4.318228,46.938679],[4.318351,46.938129],[4.318839,46.937649],[4.319521,46.937309],[4.320475,46.937111],[4.321473,46.936962],[4.32187,46.936646],[4.322315,46.935963],[4.322525,46.934696],[4.322482,46.934361],[4.322632,46.933727],[4.32267,46.932926],[4.322798,46.932384],[4.322771,46.931931],[4.322627,46.931637],[4.322605,46.931362],[4.322047,46.930916],[4.32179,46.930588],[4.321656,46.930256],[4.321285,46.930134],[4.320347,46.930061],[4.320347,46.92989],[4.321817,46.929192],[4.323356,46.928375],[4.324472,46.928139],[4.325405,46.927841],[4.325915,46.927414],[4.326446,46.926739],[4.326591,46.926205],[4.32636,46.925758],[4.325872,46.925529],[4.325797,46.925354],[4.325835,46.925011],[4.325652,46.924572],[4.325641,46.924194],[4.325883,46.923923],[4.324461,46.923073],[4.324096,46.922997],[4.322798,46.922939],[4.319515,46.921432],[4.318963,46.921261],[4.318298,46.92115],[4.318963,46.920254],[4.318544,46.919785],[4.318238,46.919159],[4.318179,46.918858],[4.318346,46.918652],[4.318206,46.918213],[4.31819,46.917294],[4.317831,46.916016],[4.317133,46.915668],[4.317691,46.9147],[4.318721,46.913483],[4.320803,46.911652],[4.32106,46.911167],[4.32209,46.910244],[4.322948,46.909893],[4.323957,46.909218],[4.325545,46.909161],[4.328527,46.90834],[4.329557,46.907841],[4.328485,46.906624],[4.328485,46.906624],[4.332959,46.904803],[4.33283,46.904187],[4.332101,46.902853],[4.331178,46.901431],[4.331178,46.901035],[4.330985,46.900962],[4.330749,46.900595],[4.330126,46.900361],[4.328946,46.900434],[4.32753,46.900669],[4.326994,46.901021],[4.32665,46.901079],[4.327788,46.898777],[4.328195,46.898235],[4.327122,46.89822],[4.326801,46.897766],[4.326822,46.897502],[4.326092,46.896813],[4.326532,46.895481],[4.326274,46.895069],[4.325738,46.894775],[4.325523,46.894115],[4.324172,46.893135],[4.323549,46.893002],[4.322734,46.893444],[4.322133,46.892826],[4.322112,46.89246],[4.321597,46.892357],[4.320738,46.891624],[4.319043,46.890717],[4.321232,46.889706],[4.322562,46.888371],[4.322734,46.887711],[4.32327,46.887371],[4.323184,46.887138],[4.323614,46.886871],[4.324257,46.8862],[4.324257,46.885654],[4.324515,46.885262],[4.324729,46.884586],[4.324601,46.883911],[4.324601,46.883911],[4.324183,46.883248],[4.321694,46.881899],[4.32002,46.882412],[4.318496,46.882559],[4.31723,46.882178],[4.316329,46.881532],[4.31575,46.880315],[4.314999,46.878892],[4.314634,46.878672],[4.314312,46.87813],[4.313561,46.877983],[4.31296,46.878174],[4.311597,46.878193],[4.310696,46.877575],[4.310224,46.876724],[4.308937,46.876034],[4.308443,46.874641],[4.307542,46.87344],[4.308422,46.871677],[4.308422,46.871105],[4.308786,46.870621],[4.308786,46.870197],[4.309108,46.869213],[4.308679,46.868423],[4.306791,46.86879],[4.30634,46.868423],[4.305482,46.868259],[4.305267,46.868053],[4.303894,46.867409],[4.30325,46.866913],[4.302306,46.86681],[4.30104,46.867012],[4.299989,46.866852],[4.299366,46.866821],[4.297543,46.866207],[4.297671,46.865295],[4.296963,46.863537],[4.295139,46.863873],[4.29647,46.861702],[4.295032,46.859722],[4.294989,46.859501],[4.295912,46.859501],[4.297779,46.859093],[4.302156,46.855774],[4.302285,46.85479],[4.303122,46.854202],[4.305525,46.853542],[4.306362,46.852856],[4.30531,46.853062],[4.304152,46.852867],[4.3028,46.85281],[4.30119,46.852398],[4.300096,46.852325],[4.299002,46.852104],[4.299002,46.852104],[4.297468,46.85247],[4.295665,46.852001],[4.294807,46.850827],[4.293541,46.849858],[4.292554,46.848581],[4.291706,46.847851],[4.290955,46.847382],[4.290247,46.846661],[4.288938,46.846352],[4.287136,46.845562],[4.286749,46.845119],[4.286106,46.844532],[4.285891,46.842949],[4.285505,46.842403],[4.284346,46.841599],[4.284153,46.840836],[4.283445,46.840099],[4.283273,46.83897],[4.283788,46.837971],[4.284282,46.837383],[4.28426,46.836563],[4.283617,46.835754],[4.282844,46.833878],[4.281578,46.832455],[4.280205,46.831291],[4.280334,46.830471],[4.28117,46.829739],[4.282694,46.828812],[4.282866,46.827595],[4.282672,46.826389],[4.282115,46.825657],[4.281342,46.824657],[4.281085,46.82159],[4.282157,46.820415],[4.282265,46.819241],[4.282801,46.818081],[4.283466,46.816963],[4.283595,46.815582],[4.283917,46.815159],[4.286041,46.814217],[4.286578,46.812382],[4.285934,46.811104],[4.286256,46.810192],[4.285569,46.809341],[4.283488,46.807831],[4.283016,46.806461],[4.283144,46.805862],[4.282908,46.805199],[4.283724,46.804363],[4.283659,46.803204],[4.28441,46.802235],[4.284153,46.801617],[4.282415,46.799442],[4.281406,46.79887],[4.280741,46.79903],[4.280398,46.798958],[4.28014,46.798649],[4.278295,46.799267],[4.277737,46.800354],[4.276321,46.801308],[4.275999,46.801586],[4.273918,46.801117],[4.271986,46.801117],[4.270656,46.801338],[4.271536,46.802204],[4.272115,46.802967],[4.272394,46.803631],[4.271042,46.804893],[4.269304,46.805759],[4.26733,46.805477],[4.26645,46.805729],[4.264262,46.805611],[4.263403,46.805786],[4.262245,46.80695],[4.261172,46.807507],[4.260871,46.807255],[4.260528,46.807255],[4.260056,46.80645],[4.258618,46.806744],[4.25688,46.806553],[4.25643,46.806156],[4.25643,46.805817],[4.256258,46.805683],[4.255636,46.805641],[4.254541,46.805157],[4.253855,46.804539],[4.253855,46.804539],[4.252814,46.804111],[4.252278,46.804081],[4.251892,46.802789],[4.252407,46.80226],[4.25275,46.802084],[4.253201,46.801188],[4.25275,46.800732],[4.251291,46.800336],[4.250476,46.799425],[4.250583,46.799205],[4.250862,46.797986],[4.25084,46.797178],[4.250894,46.796711],[4.25025,46.795742],[4.250379,46.795387],[4.249198,46.794846],[4.248211,46.794758],[4.247847,46.795094],[4.246902,46.795181],[4.246688,46.795639],[4.246345,46.795845],[4.244242,46.795593],[4.243169,46.7953],[4.241216,46.79549],[4.240937,46.79583],[4.240315,46.795856],[4.239693,46.795696],[4.237912,46.795387],[4.237332,46.794655],[4.236002,46.793552],[4.234693,46.792816],[4.233084,46.79229],[4.231882,46.791435],[4.230852,46.790966],[4.229286,46.790806],[4.22787,46.790981],[4.225852,46.791466],[4.2239,46.791569],[4.222591,46.791157],[4.221368,46.791084],[4.220467,46.790554],[4.220102,46.7901],[4.219158,46.789982],[4.218535,46.789734],[4.217613,46.789642],[4.217334,46.789349],[4.217463,46.788776],[4.216604,46.788219],[4.216604,46.788219],[4.215736,46.78851],[4.213547,46.788848],[4.212581,46.788319],[4.211165,46.788202],[4.210779,46.787629],[4.210478,46.78757],[4.209899,46.787967],[4.209384,46.787922],[4.209148,46.787761],[4.209663,46.786894],[4.209727,46.786497],[4.209019,46.785792],[4.208483,46.785763],[4.207925,46.785322],[4.207045,46.785175],[4.206337,46.785263],[4.205758,46.784984],[4.20535,46.784514],[4.205651,46.783471],[4.206723,46.783044],[4.206273,46.78256],[4.207496,46.782236],[4.207689,46.781678],[4.207582,46.780973],[4.209577,46.778739],[4.208461,46.778342],[4.208419,46.777622],[4.208097,46.777446],[4.207496,46.777637],[4.207238,46.777549],[4.207131,46.777255],[4.206874,46.77702],[4.20638,46.776858],[4.205758,46.776432],[4.204814,46.776212],[4.203934,46.775756],[4.20344,46.775359],[4.201831,46.774463],[4.201616,46.773919],[4.20035,46.773287],[4.19843,46.772938],[4.19461,46.772305],[4.194417,46.771469],[4.194696,46.771393],[4.195447,46.771351],[4.195919,46.770985],[4.195554,46.770512],[4.195383,46.769646],[4.194911,46.769203],[4.191971,46.767662],[4.191456,46.766705],[4.190404,46.765648],[4.189332,46.765251],[4.188581,46.76469],[4.187829,46.76437],[4.187057,46.76437],[4.186327,46.764572],[4.185641,46.764278],[4.185233,46.763809],[4.184525,46.763355],[4.183238,46.763206],[4.182143,46.763721],[4.181199,46.763325],[4.179611,46.763397],[4.179182,46.764046],[4.178495,46.764191],[4.178045,46.76368],[4.17695,46.763325],[4.176586,46.762691],[4.177337,46.761341],[4.177058,46.760487],[4.175963,46.760342],[4.175899,46.759769],[4.17562,46.759357],[4.175985,46.758533],[4.175878,46.757931],[4.176521,46.756725],[4.176242,46.756577],[4.174762,46.756695],[4.173539,46.757591],[4.17165,46.757782],[4.170406,46.758076],[4.169762,46.758282],[4.168947,46.757812],[4.168539,46.757374],[4.166608,46.757282],[4.166179,46.757034],[4.164569,46.755268],[4.164484,46.754181],[4.164462,46.7533],[4.164827,46.752434],[4.16502,46.752228],[4.164956,46.751461],[4.164762,46.751064],[4.164441,46.750931],[4.16429,46.750713],[4.163861,46.750626],[4.163647,46.750286],[4.163132,46.75005],[4.163196,46.749683],[4.163218,46.749302],[4.162874,46.749138],[4.163132,46.748711],[4.162853,46.748344],[4.16266,46.747726],[4.162016,46.747139],[4.161286,46.746536],[4.159763,46.745655],[4.15869,46.745361],[4.158261,46.744656],[4.158132,46.744156],[4.157681,46.743904],[4.157124,46.742874],[4.157016,46.741684],[4.156373,46.740509],[4.155943,46.738289],[4.155536,46.737656],[4.15442,46.737579],[4.15369,46.737228],[4.153905,46.736816],[4.15472,46.736271],[4.15472,46.735683],[4.155214,46.734993],[4.156308,46.734638],[4.157038,46.734535],[4.156394,46.7342],[4.155686,46.733685],[4.155321,46.733067],[4.15472,46.732918],[4.153497,46.733288],[4.153476,46.734097],[4.153218,46.734257],[4.152489,46.734432],[4.151781,46.73505],[4.151802,46.735508],[4.151073,46.735863],[4.149699,46.735508],[4.149163,46.735554],[4.147811,46.736214],[4.148498,46.735668],[4.149055,46.735199],[4.149592,46.735199],[4.1503,46.735359],[4.150536,46.735199],[4.150536,46.734787],[4.151373,46.734081],[4.151416,46.733433],[4.151866,46.732185],[4.151738,46.731567],[4.151266,46.730949],[4.150794,46.73061],[4.150493,46.729874],[4.149806,46.728947],[4.149442,46.727962],[4.151673,46.726479],[4.153004,46.72496],[4.153218,46.723991],[4.153841,46.723404],[4.154141,46.722786],[4.156244,46.721256],[4.157746,46.719341],[4.157724,46.718388],[4.157574,46.716724],[4.156802,46.715813],[4.159205,46.714108],[4.161737,46.712784],[4.155729,46.708294],[4.154227,46.709087],[4.153733,46.709782],[4.150965,46.709442],[4.149914,46.709175],[4.14721,46.708778],[4.144549,46.708958],[4.142296,46.708763],[4.141245,46.709015],[4.138262,46.709236],[4.138176,46.709251],[4.138134,46.708649],[4.136825,46.708485],[4.136589,46.709663],[4.135344,46.712532],[4.135795,46.714119],[4.13573,46.715546],[4.133885,46.714767],[4.133327,46.713856],[4.13264,46.713135],[4.132769,46.712296],[4.133542,46.710838],[4.133477,46.70969],[4.133284,46.709206],[4.133606,46.708515],[4.13352,46.707825],[4.133756,46.70092],[4.134142,46.699642],[4.133391,46.699745],[4.13116,46.700348],[4.130087,46.700378],[4.129658,46.700245],[4.129186,46.699776],[4.128821,46.699802],[4.128134,46.698627],[4.126525,46.697304],[4.125173,46.696892],[4.12425,46.6968],[4.122598,46.696934],[4.121161,46.696552],[4.120688,46.695858],[4.119508,46.694519],[4.118671,46.693916],[4.11762,46.693695],[4.116654,46.693253],[4.115946,46.691887],[4.115195,46.691311],[4.114637,46.691326],[4.114122,46.691795],[4.113092,46.691311],[4.112835,46.690868],[4.112127,46.690193],[4.111848,46.689709],[4.111333,46.689194],[4.111075,46.688751],[4.109681,46.687454],[4.109702,46.687057],[4.109445,46.686779],[4.108329,46.686764],[4.108286,46.686409],[4.107471,46.686043],[4.107127,46.685482],[4.105775,46.684143],[4.104316,46.683983],[4.101355,46.682774],[4.100711,46.682819],[4.09848,46.682495],[4.098909,46.681892],[4.098845,46.681496],[4.100304,46.680992],[4.100282,46.68005],[4.100668,46.679623],[4.103351,46.678917],[4.103909,46.678886],[4.100883,46.677563],[4.09951,46.677094],[4.097879,46.677166],[4.097106,46.67802],[4.096162,46.678505],[4.095905,46.678963],[4.094961,46.679504],[4.092257,46.679298],[4.091313,46.678638],[4.090347,46.678242],[4.08936,46.677547],[4.088116,46.677635],[4.086785,46.677372],[4.084897,46.676636],[4.081228,46.675812],[4.078374,46.6759],[4.076314,46.675617],[4.075048,46.675648],[4.072087,46.675251],[4.069855,46.67522],[4.067323,46.675472],[4.065757,46.675442],[4.064126,46.675632],[4.064126,46.674854],[4.064298,46.674427],[4.065135,46.673546],[4.065092,46.672718],[4.065328,46.672234],[4.063268,46.671642],[4.062066,46.671894],[4.060092,46.671158],[4.059556,46.670261],[4.058611,46.669788],[4.058139,46.669849],[4.055457,46.669201],[4.053483,46.66917],[4.051638,46.668919],[4.050114,46.668434],[4.049149,46.668259],[4.049149,46.668259],[4.049149,46.668259],[4.049149,46.668259],[4.047078,46.667401],[4.046714,46.667828],[4.046499,46.667813],[4.045855,46.667283],[4.045169,46.667121],[4.044375,46.667239],[4.043988,46.667916],[4.04386,46.667548],[4.043688,46.667357],[4.043752,46.66637],[4.043302,46.665987],[4.042894,46.666149],[4.042379,46.666105],[4.04225,46.666252],[4.039611,46.666076],[4.039311,46.666679],[4.039075,46.667313],[4.037487,46.668859],[4.035985,46.669772],[4.034665,46.670231],[4.036295,46.671745],[4.036746,46.673],[4.035244,46.673279],[4.033957,46.673176],[4.033227,46.673439],[4.032605,46.673855],[4.031703,46.673985],[4.030802,46.673855],[4.029408,46.67437],[4.027776,46.674193],[4.025953,46.673735],[4.025459,46.673927],[4.024709,46.673943],[4.024709,46.673943],[4.025787,46.674446],[4.025916,46.675124],[4.026431,46.675433],[4.028534,46.675978],[4.029456,46.675948],[4.030486,46.676449],[4.031666,46.676993],[4.031602,46.678053],[4.03186,46.678966],[4.032718,46.679511],[4.033319,46.680026],[4.033705,46.680115],[4.03452,46.680792],[4.035207,46.680983],[4.035379,46.681189],[4.035014,46.682426],[4.035486,46.684722],[4.035421,46.685267],[4.035722,46.685826],[4.035765,46.686238],[4.035121,46.686665],[4.034906,46.687225],[4.03422,46.688093],[4.033705,46.688299],[4.033104,46.688873],[4.032224,46.689462],[4.031988,46.689727],[4.030272,46.690257],[4.028877,46.690625],[4.028426,46.690919],[4.027954,46.691302],[4.027289,46.69164],[4.026946,46.692303],[4.026302,46.693186],[4.025594,46.693583],[4.024414,46.693745],[4.024027,46.694083],[4.023234,46.694231],[4.021195,46.694334],[4.020616,46.694495],[4.019071,46.69504],[4.017762,46.694731],[4.017182,46.694628],[4.016152,46.694584],[4.015401,46.694451],[4.0142,46.694466],[4.012741,46.69426],[4.012011,46.693848],[4.011346,46.694113],[4.010037,46.694275],[4.008192,46.694422],[4.007398,46.69504],[4.006969,46.695305],[4.006282,46.696041],[4.005831,46.696188],[4.005445,46.696173],[4.004222,46.695879],[4.0036,46.695953],[4.00272,46.695746],[4.002269,46.695746],[4.001733,46.696173],[4.000982,46.696703],[3.999759,46.697925],[3.998879,46.698175],[3.996605,46.699102],[3.995274,46.700309],[3.99463,46.70047],[3.992184,46.700412],[3.988172,46.701206],[3.98624,46.700868],[3.985082,46.700956],[3.982442,46.701795],[3.982292,46.702119],[3.982314,46.702854],[3.981949,46.703325],[3.97946,46.704517],[3.97873,46.705003],[3.976134,46.706195],[3.97519,46.706563],[3.974653,46.706975],[3.974246,46.708181]]],"type":"MultiLineString"},"properties":{"geo_point":{"lon":4.185159751011765,"lat":46.82174333848073},"name":"GR131 Du Mont-Beuvray (Morvan) à Issy-l'Evêque (Saône-et-Loire) (2020)","code_gr":"GR131"}}]}