{"type":"FeatureCollection","features":[{"type":"Feature","geometry":{"coordinates":[[[4.134669,49.160651],[4.134669,49.160651],[4.134249,49.160795],[4.133728,49.160808],[4.132868,49.160625],[4.131586,49.160586],[4.131006,49.160376],[4.130665,49.160088],[4.130525,49.159826],[4.130125,49.159643],[4.128984,49.159185],[4.128163,49.159041],[4.127462,49.158989],[4.126321,49.15836],[4.124359,49.157679],[4.123538,49.157561],[4.122517,49.157601],[4.121936,49.157457],[4.121516,49.157234],[4.121215,49.156776],[4.121015,49.156422],[4.120535,49.156121],[4.119994,49.156003],[4.119334,49.156056],[4.11593,49.156802],[4.112967,49.156488],[4.112947,49.155571],[4.111866,49.155466],[4.111886,49.15527],[4.110825,49.155191],[4.110584,49.154943],[4.110244,49.153096],[4.110064,49.150752],[4.110164,49.149927],[4.109984,49.149548],[4.109543,49.149063],[4.109103,49.148775],[4.108983,49.148435],[4.109143,49.148094],[4.105399,49.148225],[4.104398,49.148435],[4.101996,49.148251],[4.100995,49.148042],[4.100274,49.147767],[4.099773,49.147439],[4.099413,49.147007],[4.098032,49.146064],[4.09681,49.145318],[4.095088,49.1463],[4.094688,49.146143],[4.094047,49.146195],[4.093447,49.145933],[4.093006,49.14558],[4.092466,49.145527],[4.091905,49.145305],[4.091545,49.144807],[4.091445,49.144427],[4.091024,49.144126],[4.090243,49.14372],[4.089463,49.143222],[4.089002,49.143275],[4.088321,49.143563],[4.08686,49.143681],[4.08646,49.143838],[4.085499,49.144021],[4.084437,49.144126],[4.083737,49.144191],[4.083056,49.144362],[4.082676,49.144296],[4.081695,49.14448],[4.080413,49.144519],[4.078812,49.144571],[4.078051,49.144715],[4.077751,49.144938],[4.07709,49.145292],[4.076709,49.145671],[4.075889,49.145829],[4.075448,49.145802],[4.075208,49.145868],[4.074968,49.146156],[4.074287,49.146365],[4.074067,49.146667],[4.073446,49.14685],[4.072926,49.147099],[4.072285,49.147885],[4.071524,49.148304],[4.071084,49.148173],[4.070603,49.148343],[4.070203,49.148788],[4.069522,49.148723],[4.069422,49.148985],[4.068981,49.14905],[4.068601,49.149063],[4.0677,49.149233],[4.066839,49.149757],[4.065818,49.150713],[4.065218,49.151617],[4.064557,49.152206],[4.063876,49.152717],[4.063436,49.153908],[4.063236,49.15417],[4.063256,49.15434],[4.062435,49.154694],[4.062715,49.155231],[4.062695,49.155571],[4.062054,49.155885],[4.062034,49.155964],[4.060393,49.156475],[4.059251,49.157129],[4.058711,49.157182],[4.05807,49.157051],[4.05775,49.157103],[4.057089,49.157627],[4.055648,49.157993],[4.054226,49.158517],[4.053465,49.158949],[4.052564,49.159722],[4.052625,49.160691],[4.052284,49.161005],[4.051023,49.161528],[4.050202,49.162288],[4.049702,49.162667],[4.049361,49.162759],[4.049081,49.163505],[4.04784,49.16361],[4.046778,49.163518],[4.045757,49.163545],[4.045577,49.162523],[4.044816,49.162484],[4.044456,49.161816],[4.044456,49.161398],[4.043895,49.160468],[4.043295,49.160494],[4.042754,49.160429],[4.042234,49.160219],[4.041833,49.159931],[4.041553,49.1598],[4.040812,49.159682],[4.039431,49.159853],[4.03879,49.159853],[4.03857,49.15963],[4.037989,49.15963],[4.036928,49.160298],[4.035807,49.160547],[4.035247,49.160494],[4.035146,49.16018],[4.035507,49.159722],[4.036728,49.158779],[4.036668,49.15857],[4.036007,49.158609],[4.035707,49.158412],[4.035927,49.157221],[4.035527,49.156514],[4.03413,49.156849],[4.03413,49.156849],[4.0341,49.157619],[4.03397,49.15794],[4.0314,49.161781],[4.03103,49.16185],[4.03009,49.161659],[4.02974,49.1618],[4.02988,49.16272],[4.02957,49.16341],[4.02895,49.163712],[4.02578,49.16433],[4.02563,49.164909],[4.02513,49.165371],[4.02492,49.165829],[4.02465,49.166],[4.0232,49.165359],[4.02158,49.16531],[4.02088,49.165218],[4.0204,49.165089],[4.01729,49.165501],[4.01528,49.166069],[4.01368,49.166759],[4.01234,49.1674],[4.01126,49.167679],[4.00942,49.167709],[4.00895,49.167641],[4.00737,49.167099],[4.0068,49.167419],[4.00648,49.167511],[4.00595,49.167591],[4.00514,49.167809],[4.00443,49.168079],[4.0029,49.16853],[4.00236,49.168579],[4.00192,49.168491],[4.00012,49.167961],[3.99758,49.16806],[3.99561,49.167992],[3.99408,49.167568],[3.98975,49.166199],[3.98778,49.166039],[3.98727,49.165958],[3.98659,49.16576],[3.98618,49.16571],[3.98517,49.165749],[3.98526,49.16523],[3.9852,49.16478],[3.98603,49.163448],[3.9861,49.163109],[3.98589,49.161869],[3.98577,49.160301],[3.98554,49.159531],[3.98489,49.15921],[3.98481,49.158878],[3.98445,49.158241],[3.98398,49.158298],[3.98363,49.157551],[3.98332,49.157318],[3.9824,49.157001],[3.98198,49.157021],[3.98151,49.15712],[3.98124,49.157059],[3.97982,49.15567],[3.97834,49.155991],[3.97708,49.155949],[3.97473,49.156059],[3.97381,49.155941],[3.97274,49.155979],[3.97231,49.1562],[3.97163,49.156681],[3.97075,49.15699],[3.96998,49.157581],[3.96939,49.15786],[3.96903,49.158081],[3.96877,49.157921],[3.96858,49.157871],[3.96851,49.15802],[3.96826,49.158169],[3.96814,49.15839],[3.96811,49.15868],[3.96848,49.15934],[3.96677,49.159988],[3.96476,49.1604],[3.96442,49.16037],[3.96369,49.160671],[3.96319,49.16114],[3.96283,49.16124],[3.96259,49.1614],[3.9622,49.162182],[3.96196,49.162392],[3.96163,49.162521],[3.96143,49.16267],[3.96123,49.162621],[3.96044,49.163441],[3.96016,49.16391],[3.95976,49.164742],[3.95878,49.16576],[3.95852,49.165569],[3.95819,49.165409],[3.95784,49.165379],[3.95772,49.1656],[3.95636,49.166641],[3.955353,49.167264],[3.955241,49.167373],[3.954587,49.167691],[3.954736,49.167911],[3.954438,49.168192],[3.955297,49.168815],[3.956735,49.170073],[3.95719,49.17049],[3.9569,49.170879],[3.95622,49.171299],[3.95586,49.171391],[3.95513,49.172192],[3.95422,49.172562],[3.95324,49.171429],[3.9527,49.171589],[3.95134,49.171539],[3.9507,49.1716],[3.94999,49.171009],[3.94916,49.170631],[3.94821,49.17028],[3.94725,49.17009],[3.94692,49.170101],[3.94575,49.170349],[3.94459,49.170738],[3.94426,49.17075],[3.94342,49.170689],[3.94299,49.170731],[3.94272,49.170879],[3.94188,49.1716],[3.94086,49.172058],[3.94037,49.172611],[3.93954,49.173031],[3.93915,49.17329],[3.93834,49.173561],[3.93712,49.173389],[3.93656,49.173809],[3.9365,49.174049],[3.93661,49.174561],[3.93707,49.17527],[3.93727,49.175941],[3.93783,49.177052],[3.93838,49.177471],[3.94091,49.178501],[3.94184,49.178768],[3.94315,49.17905],[3.94572,49.179501],[3.94677,49.179859],[3.94725,49.180149],[3.94753,49.1805],[3.94782,49.18214],[3.94748,49.18327],[3.94691,49.18417],[3.94664,49.18486],[3.94669,49.184978],[3.94719,49.185162],[3.94693,49.185341],[3.9467,49.18528],[3.94625,49.185009],[3.9453,49.18462],[3.94488,49.184521],[3.94338,49.184731],[3.942688,49.184421],[3.941436,49.183994],[3.940708,49.186619],[3.93966,49.1884],[3.93806,49.190739],[3.93775,49.190971],[3.93724,49.191181],[3.93656,49.191639],[3.93634,49.192211],[3.93421,49.194229],[3.93362,49.194981],[3.93337,49.19516],[3.93356,49.195461],[3.93351,49.195782],[3.933852,49.196874],[3.93388,49.19791],[3.93401,49.199169],[3.93406,49.200771],[3.93434,49.200878],[3.93452,49.201092],[3.9347,49.202122],[3.93469,49.202572],[3.93321,49.203388],[3.93207,49.203732],[3.930359,49.204124],[3.93027,49.204651],[3.93009,49.205078],[3.92975,49.205441],[3.92934,49.205669],[3.92909,49.206009],[3.9285,49.20623],[3.92817,49.206501],[3.92732,49.206791],[3.92603,49.20565],[3.92492,49.205891],[3.92417,49.20644],[3.92136,49.20763],[3.920627,49.208029],[3.919973,49.207224],[3.919338,49.20726],[3.918684,49.207419],[3.918142,49.207797],[3.916909,49.209664],[3.916499,49.210531],[3.915975,49.211056],[3.914107,49.211678],[3.912912,49.211959],[3.910895,49.211983],[3.908989,49.212154],[3.904954,49.213094],[3.901349,49.212874],[3.90006,49.212508],[3.898865,49.211751],[3.898173,49.211556],[3.896324,49.211483],[3.895091,49.211532],[3.894587,49.211629],[3.893447,49.211605],[3.892233,49.211312],[3.890701,49.211141],[3.888516,49.211068],[3.88704,49.211312],[3.885789,49.211812],[3.884967,49.211812],[3.883939,49.212032],[3.882744,49.21191],[3.881959,49.21213],[3.880446,49.212923],[3.879419,49.213228],[3.878634,49.213289],[3.876,49.212947],[3.872507,49.213191],[3.870396,49.21324],[3.868248,49.213545],[3.863672,49.214533],[3.859917,49.213997],[3.859394,49.213411],[3.858871,49.213228],[3.857675,49.213081],[3.857059,49.213655],[3.855975,49.214082],[3.85534,49.214216],[3.854873,49.214533],[3.854705,49.214875],[3.854742,49.215351],[3.853827,49.215778],[3.852931,49.216071],[3.85209,49.216071],[3.851436,49.216376],[3.850782,49.216425],[3.848429,49.216547],[3.846841,49.216803],[3.845178,49.217315],[3.842937,49.217767],[3.842152,49.218035],[3.840004,49.218499],[3.838584,49.218694],[3.83839,49.218601],[3.8354,49.215939],[3.83513,49.21545],[3.83482,49.214569],[3.83276,49.21349],[3.83043,49.212669],[3.82836,49.211472],[3.823996,49.217808],[3.82381,49.218571],[3.82375,49.2197],[3.82387,49.22023],[3.82177,49.220402],[3.820088,49.219925],[3.819573,49.219643],[3.819337,49.21928],[3.819324,49.219288],[3.818917,49.220085],[3.818423,49.220966],[3.818071,49.221508],[3.818125,49.221684],[3.819327,49.222859],[3.819723,49.22331],[3.818371,49.223869],[3.818269,49.22393],[3.817803,49.223686],[3.817551,49.22374],[3.816553,49.223561],[3.816172,49.223606],[3.815812,49.223734],[3.815392,49.224147],[3.815383,49.224457],[3.815553,49.224639],[3.815559,49.224894],[3.813724,49.225326],[3.810936,49.225885],[3.810269,49.226073],[3.8097,49.226388],[3.808993,49.226918],[3.807771,49.226208],[3.806784,49.225735],[3.805647,49.224834],[3.80525,49.224663],[3.803909,49.224079],[3.803726,49.223896],[3.803544,49.223632],[3.803394,49.222923],[3.803244,49.222404],[3.802814,49.221928],[3.801849,49.221233],[3.800519,49.220329],[3.799596,49.21944],[3.799188,49.218887],[3.798255,49.218521],[3.796109,49.217667],[3.794843,49.218178],[3.794253,49.218605],[3.790605,49.220905],[3.790498,49.221134],[3.790487,49.221668],[3.789918,49.221992],[3.789886,49.222755],[3.789672,49.223244],[3.789672,49.223995],[3.789275,49.224422],[3.788481,49.224815],[3.787837,49.227491],[3.787655,49.229633],[3.786829,49.23007],[3.783567,49.231317],[3.782365,49.231485],[3.779104,49.232816],[3.777452,49.233741],[3.776593,49.234287],[3.776078,49.234749],[3.775799,49.234898],[3.774936,49.235126],[3.774276,49.235409],[3.774024,49.235661],[3.773729,49.235867],[3.773385,49.23595],[3.772817,49.236076],[3.772275,49.236282],[3.771792,49.236523],[3.771352,49.236881],[3.770617,49.237476],[3.769314,49.238224],[3.767924,49.238941],[3.767436,49.23922],[3.767232,49.23941],[3.767211,49.239743],[3.767061,49.240143],[3.765988,49.241642],[3.765038,49.243057],[3.764673,49.243427],[3.764255,49.24366],[3.763547,49.243842],[3.762023,49.242735],[3.761669,49.242596],[3.761358,49.242622],[3.760371,49.242889],[3.760017,49.242916],[3.759599,49.242805],[3.759116,49.24263],[3.756466,49.243492],[3.752915,49.245033],[3.752625,49.245201],[3.75152,49.245621],[3.749653,49.247017],[3.748902,49.247849],[3.748559,49.248119],[3.748055,49.248386],[3.747207,49.248779],[3.746563,49.248894],[3.74549,49.249149],[3.745061,49.249283],[3.744729,49.249516],[3.744611,49.250355],[3.744396,49.250645],[3.743366,49.251335],[3.742905,49.25161],[3.741521,49.252121],[3.741285,49.252266],[3.740845,49.252821],[3.740565,49.253036],[3.740544,49.253612],[3.739402,49.254084],[3.738592,49.254333],[3.738034,49.254193],[3.737669,49.253871],[3.736918,49.253703],[3.736575,49.253549],[3.735963,49.25383],[3.735116,49.254082],[3.733732,49.254265],[3.730502,49.254739],[3.724762,49.2575],[3.721511,49.258745],[3.717027,49.260985],[3.710868,49.264094],[3.707671,49.263996],[3.706899,49.264192],[3.704195,49.26534],[3.702532,49.265714],[3.700799,49.266083],[3.700247,49.266396],[3.698487,49.267314],[3.696105,49.268183],[3.694212,49.267803],[3.693026,49.268154],[3.692758,49.268116],[3.692383,49.268219],[3.691256,49.267791],[3.689035,49.269615],[3.688402,49.270815],[3.688472,49.272053],[3.688091,49.272507],[3.687678,49.272667],[3.686895,49.272724],[3.686487,49.272949],[3.685838,49.273511],[3.685033,49.273811],[3.683918,49.274483],[3.683488,49.275239],[3.682458,49.276345],[3.682072,49.277073],[3.68145,49.277409],[3.67718,49.27997],[3.677437,49.2806],[3.678381,49.281216],[3.678725,49.281776],[3.680205,49.282504],[3.679605,49.282798],[3.678575,49.283876],[3.678446,49.284436],[3.678424,49.286073],[3.677909,49.287781],[3.677158,49.289502],[3.677115,49.290034],[3.677394,49.291294],[3.679068,49.293281],[3.680034,49.294526],[3.68012,49.298613],[3.678854,49.300418],[3.678403,49.302097],[3.678596,49.30288],[3.679283,49.303496],[3.680034,49.303832],[3.680913,49.304125],[3.681686,49.304195],[3.6816,49.304797],[3.679755,49.30705],[3.679862,49.307441],[3.679583,49.313163],[3.682137,49.314394],[3.683746,49.31424],[3.684905,49.314338],[3.700676,49.313625],[3.705804,49.313471],[3.707027,49.313345],[3.710568,49.313205],[3.710954,49.315163],[3.710825,49.315471],[3.711298,49.317094],[3.712778,49.319723],[3.712199,49.320171],[3.712285,49.320814],[3.712585,49.321374],[3.711534,49.322003],[3.711641,49.322367],[3.711469,49.322647],[3.711834,49.32329],[3.71177,49.323458],[3.711147,49.323989],[3.712113,49.324325],[3.712821,49.324758],[3.712049,49.325052],[3.711555,49.325122],[3.710246,49.325877],[3.709645,49.325751],[3.708208,49.326576],[3.707306,49.326604],[3.706598,49.326493],[3.705912,49.326283],[3.705354,49.326297],[3.70471,49.325863],[3.703144,49.328101],[3.702693,49.328954],[3.702435,49.33031],[3.702457,49.331289],[3.703101,49.332967],[3.70162,49.333275],[3.700891,49.333568],[3.700268,49.334072],[3.699496,49.335079],[3.698959,49.33554],[3.701556,49.33842],[3.705204,49.34172],[3.706985,49.343062],[3.707263,49.343495],[3.707242,49.344013],[3.707864,49.345788],[3.708208,49.346235],[3.708401,49.347032],[3.708336,49.347815],[3.708916,49.348905],[3.709517,49.350303],[3.710139,49.351659],[3.711104,49.353113],[3.711641,49.353364],[3.712285,49.353336],[3.713121,49.353267],[3.714023,49.353686],[3.715289,49.354399],[3.713937,49.355559],[3.711405,49.356747],[3.709409,49.356677],[3.707821,49.356733],[3.706663,49.356313],[3.705847,49.356984],[3.704989,49.357222],[3.703787,49.35725],[3.7028,49.357404],[3.700397,49.358019],[3.699818,49.358354],[3.699174,49.358102],[3.69808,49.35746],[3.697608,49.357026],[3.696771,49.356705],[3.695076,49.356481],[3.693917,49.356076],[3.693681,49.355545],[3.694561,49.353211],[3.69396,49.353169],[3.692994,49.353211],[3.691514,49.352987],[3.690805,49.353448],[3.689539,49.35451],[3.688788,49.354902],[3.687308,49.35507],[3.685527,49.35486],[3.684497,49.354315],[3.68351,49.354734],[3.682544,49.355349],[3.68293,49.355838],[3.682909,49.35623],[3.683274,49.356509],[3.683445,49.357278],[3.68263,49.357082],[3.681278,49.3563],[3.678789,49.354329],[3.675506,49.355894],[3.67306,49.357753],[3.672416,49.357446],[3.672116,49.357781],[3.672073,49.358172],[3.67115,49.358913],[3.670142,49.359276],[3.669562,49.359318],[3.66894,49.359584],[3.668618,49.360059],[3.667159,49.360339],[3.666387,49.360325],[3.665679,49.360716],[3.665292,49.36161],[3.664563,49.362379],[3.664477,49.364028],[3.665185,49.364978],[3.666515,49.36597],[3.667417,49.366445],[3.668146,49.366571],[3.670571,49.366613],[3.671279,49.36727],[3.672416,49.367927],[3.672974,49.369575],[3.673661,49.370637],[3.673918,49.371196],[3.674369,49.371909],[3.675399,49.374591],[3.675935,49.375723],[3.676257,49.377525],[3.676751,49.377916],[3.676279,49.378168],[3.676708,49.379998],[3.677373,49.380459],[3.679605,49.37983],[3.680785,49.379174],[3.683081,49.377679],[3.683553,49.37705],[3.685291,49.377763],[3.68587,49.38085],[3.687093,49.383546],[3.688231,49.385655],[3.687866,49.386745],[3.687823,49.387737],[3.685184,49.387681],[3.685377,49.389497],[3.686128,49.39046],[3.686106,49.391033],[3.686578,49.391494],[3.686965,49.391689],[3.686814,49.392248],[3.687158,49.392681],[3.686256,49.393393],[3.68572,49.393924],[3.685355,49.394008],[3.684583,49.393924],[3.684475,49.394985],[3.683767,49.395614],[3.683853,49.397317],[3.684089,49.397848],[3.68499,49.398546],[3.686492,49.399273],[3.687651,49.39944],[3.688273,49.39965],[3.690934,49.40011],[3.690333,49.401339],[3.690784,49.401465],[3.691514,49.401968],[3.692286,49.402191],[3.693767,49.402345],[3.694561,49.402763],[3.69544,49.403894],[3.69602,49.404244],[3.696556,49.40476],[3.697801,49.405179],[3.698723,49.405793],[3.699667,49.405877],[3.700697,49.406436],[3.701513,49.406715],[3.702843,49.407664],[3.703444,49.408404],[3.703315,49.408725],[3.702714,49.408977],[3.701599,49.409088],[3.70132,49.40927],[3.701856,49.409982],[3.70177,49.410373],[3.701255,49.410736],[3.700848,49.411392],[3.700032,49.411839],[3.698852,49.412244],[3.699753,49.414994],[3.700976,49.416404],[3.701406,49.417255],[3.702114,49.418093],[3.70295,49.418651],[3.703723,49.419028],[3.704388,49.4196],[3.704839,49.42034],[3.706148,49.421206],[3.707135,49.421596],[3.708229,49.421722],[3.709023,49.422127],[3.708701,49.422657],[3.708808,49.423648],[3.709216,49.424081],[3.709152,49.424262],[3.707478,49.424053],[3.706791,49.423955],[3.705933,49.424053],[3.705246,49.424653],[3.70456,49.424765],[3.7028,49.424695],[3.701577,49.424821],[3.700418,49.424779],[3.696771,49.424151],[3.696792,49.423844],[3.696642,49.423425],[3.696942,49.422713],[3.696342,49.422406],[3.695419,49.422141],[3.695247,49.422434],[3.694646,49.422853],[3.694174,49.423648],[3.692844,49.424904],[3.692522,49.425351],[3.69175,49.425756],[3.691127,49.42623],[3.690398,49.426621],[3.690162,49.425909],[3.689196,49.424667],[3.688166,49.423718],[3.68793,49.423285],[3.687587,49.422043],[3.686728,49.421527],[3.686256,49.421917],[3.685269,49.422183],[3.684862,49.422071],[3.684154,49.422699],[3.684046,49.423076],[3.684132,49.423411],[3.68484,49.424276],[3.684819,49.425002],[3.685184,49.425686],[3.685913,49.426579],[3.686621,49.427403],[3.686836,49.427779],[3.686986,49.428519],[3.687565,49.429301],[3.688359,49.430124],[3.689904,49.431254],[3.692136,49.432133],[3.692694,49.432482],[3.696084,49.433236],[3.69853,49.43371],[3.69853,49.437185],[3.699024,49.439124],[3.699689,49.440506],[3.696921,49.440631],[3.697135,49.441957],[3.697436,49.442906],[3.706298,49.442487],[3.705783,49.443896],[3.70589,49.445194],[3.704517,49.445403],[3.703809,49.445696],[3.703272,49.44571],[3.702586,49.445542],[3.702071,49.445542],[3.701019,49.445849],[3.699775,49.44578],[3.698852,49.446059],[3.697994,49.446798],[3.697393,49.447649],[3.697007,49.448946],[3.6972,49.449379],[3.696814,49.449853],[3.697243,49.450132],[3.697972,49.45295],[3.697779,49.453452],[3.6972,49.453773],[3.695827,49.454122],[3.694925,49.45454],[3.693852,49.454958],[3.693573,49.455433],[3.694067,49.456451],[3.695076,49.458766],[3.69559,49.459394],[3.696427,49.460105],[3.696878,49.460677],[3.696792,49.460998],[3.696513,49.463689],[3.696556,49.464484],[3.696878,49.465112],[3.696878,49.465586],[3.696706,49.466604],[3.697007,49.467273],[3.696599,49.467929],[3.695076,49.469407],[3.694088,49.469937],[3.69381,49.470592],[3.693745,49.47122],[3.693144,49.471443],[3.692265,49.471359],[3.691084,49.470746],[3.689883,49.470509],[3.688617,49.470104],[3.688037,49.469714],[3.687479,49.468682],[3.686986,49.468236],[3.686879,49.467929],[3.686535,49.467789],[3.686535,49.467246],[3.686471,49.467036],[3.686793,49.466004],[3.685119,49.46673],[3.684862,49.467204],[3.684196,49.46751],[3.683639,49.467664],[3.683167,49.468124],[3.683145,49.469337],[3.682673,49.47023],[3.682652,49.470606],[3.683059,49.471652],[3.682716,49.472335],[3.682501,49.472433],[3.682373,49.472698],[3.681965,49.472921],[3.681321,49.472977],[3.679647,49.473785],[3.679562,49.474218],[3.678596,49.474329],[3.67836,49.47412],[3.677502,49.474413],[3.676965,49.474399],[3.677051,49.474901],[3.675764,49.475152],[3.675914,49.475444],[3.679368,49.477257],[3.679755,49.477703],[3.680398,49.478275],[3.680806,49.478818],[3.680956,49.479306],[3.679411,49.479516],[3.677952,49.479962],[3.675892,49.480227],[3.674755,49.480645],[3.672588,49.481328],[3.671064,49.481551],[3.669949,49.481802],[3.66909,49.482206],[3.668382,49.483308],[3.667889,49.484339],[3.667889,49.484966],[3.667717,49.485566],[3.667073,49.4859],[3.666537,49.48689],[3.665936,49.488646],[3.665249,49.489538],[3.664627,49.489831],[3.663597,49.490779],[3.66276,49.491211],[3.662009,49.491769],[3.661559,49.49241],[3.660078,49.49411],[3.658125,49.496967],[3.657439,49.499894],[3.657417,49.501106],[3.657181,49.50197],[3.655443,49.504478],[3.655229,49.50544],[3.655937,49.507196],[3.656366,49.507934],[3.657246,49.509327],[3.65761,49.511543],[3.658447,49.511835],[3.658769,49.5121],[3.659048,49.513089],[3.65937,49.513786],[3.658533,49.515012],[3.657632,49.515402],[3.657138,49.51582],[3.656301,49.51621],[3.654499,49.51784],[3.653877,49.518508],[3.653104,49.519581],[3.652396,49.520152],[3.651581,49.520626],[3.649628,49.52135],[3.646817,49.522395],[3.646002,49.522548],[3.640809,49.525696],[3.637826,49.527228],[3.636217,49.527743],[3.636067,49.527325],[3.635659,49.52688],[3.633406,49.527771],[3.63272,49.527952],[3.631496,49.528523],[3.626325,49.529401],[3.625338,49.529261],[3.624008,49.529596],[3.622828,49.530027],[3.616498,49.532799],[3.615489,49.53362],[3.612828,49.534804],[3.612185,49.53486],[3.61124,49.534776],[3.610833,49.534804],[3.610296,49.536183],[3.60918,49.538216],[3.608429,49.538982],[3.608138,49.539084],[3.607727,49.539148],[3.607359,49.539644],[3.606694,49.540462],[3.60815,49.542518],[3.608172,49.543549],[3.60903,49.544816],[3.608944,49.545108],[3.608,49.546445],[3.607635,49.54721],[3.607593,49.547837],[3.607829,49.548394],[3.608987,49.5498],[3.609266,49.550552],[3.609374,49.551401],[3.608429,49.552055],[3.608022,49.552487],[3.606884,49.553057],[3.609288,49.553837],[3.609588,49.554199],[3.609717,49.554519],[3.610725,49.555229],[3.610983,49.555646],[3.61094,49.556106],[3.610404,49.556746],[3.610404,49.55715],[3.610725,49.55772],[3.610532,49.558416],[3.610125,49.558973],[3.609953,49.55992],[3.609978,49.560355],[3.610191,49.5603],[3.61029,49.560741],[3.610559,49.561044],[3.610913,49.561099],[3.611111,49.56132],[3.611677,49.561659],[3.611606,49.562027],[3.612807,49.56287],[3.614303,49.563167],[3.615013,49.563451],[3.616918,49.56373],[3.616862,49.564081],[3.61712,49.564192],[3.617055,49.564346],[3.618236,49.56454],[3.619287,49.564568],[3.620145,49.564443]]],"type":"MultiLineString"},"properties":{"geo_point":{"lon":3.795391029040891,"lat":49.30718269352124},"name":"GR142 De Verzenay (Marne) à Laon (Aisne) (2019)","code_gr":"GR142"}}]}