{"type":"FeatureCollection","features":[{"type":"Feature","geometry":{"coordinates":[[[2.780268,50.286797],[2.780225,50.286852],[2.778115,50.285148],[2.779688,50.283222],[2.780518,50.281534],[2.781704,50.279524],[2.781798,50.278264],[2.783552,50.274207],[2.784141,50.272352],[2.78442,50.269744],[2.785078,50.266506],[2.784841,50.265824],[2.784211,50.264925],[2.784246,50.263543],[2.787146,50.25887],[2.786447,50.258332],[2.786434,50.254956],[2.786554,50.253676],[2.786334,50.252089],[2.786275,50.24857],[2.786615,50.247224],[2.787075,50.246315],[2.787135,50.243665],[2.787696,50.241834],[2.787736,50.240835],[2.787175,50.237339],[2.787315,50.236724],[2.788216,50.235521],[2.789135,50.231045],[2.789277,50.227632],[2.789043,50.226796],[2.789478,50.225006],[2.789538,50.224148],[2.790033,50.223249],[2.789978,50.221214],[2.790218,50.219972],[2.790258,50.21887],[2.789938,50.218127],[2.789898,50.216897],[2.790831,50.216092],[2.792528,50.214062],[2.792649,50.21327],[2.793392,50.21215],[2.792126,50.211855],[2.791077,50.21183],[2.790724,50.211551],[2.799412,50.208907],[2.807683,50.202867],[2.809295,50.202158],[2.810539,50.201932],[2.81094,50.201445],[2.807716,50.199446],[2.807329,50.198865],[2.805365,50.197989],[2.804353,50.197305],[2.803959,50.19692],[2.802112,50.195537],[2.802751,50.195088],[2.803024,50.194689],[2.803012,50.191833],[2.803336,50.187398],[2.803818,50.186608],[2.803459,50.18618],[2.804211,50.181875],[2.805559,50.180213],[2.802871,50.1795],[2.80169,50.179257],[2.80137,50.178167],[2.800809,50.177052],[2.799888,50.17491],[2.799548,50.172135],[2.796193,50.16565],[2.794363,50.161342],[2.7916,50.162061],[2.790919,50.162176],[2.788484,50.162206],[2.789468,50.161212],[2.790582,50.160483],[2.791139,50.159842],[2.79198,50.159149],[2.793007,50.15721],[2.794695,50.154956],[2.795117,50.153788],[2.797462,50.152648],[2.797029,50.152288],[2.79777,50.151686],[2.79829,50.150808],[2.799283,50.14993],[2.79936,50.149329],[2.800367,50.147817],[2.801898,50.14696],[2.802695,50.145908],[2.804799,50.147197],[2.807466,50.145581],[2.808843,50.144539],[2.81052,50.143745],[2.811571,50.14283],[2.813282,50.1421],[2.819889,50.138687],[2.822102,50.136887],[2.823988,50.13602],[2.825034,50.134696],[2.826378,50.133589],[2.826853,50.132774],[2.831161,50.133105],[2.832589,50.133373],[2.832983,50.133292],[2.83332,50.13289],[2.833231,50.131466],[2.833423,50.130936],[2.833263,50.129947],[2.832142,50.129216],[2.831781,50.128613],[2.831651,50.127819],[2.8323,50.126608],[2.837087,50.122375],[2.837467,50.121489],[2.838168,50.120975],[2.838918,50.120508],[2.838989,50.118459],[2.839269,50.117432],[2.839218,50.116756],[2.838668,50.115584],[2.838208,50.114582],[2.837527,50.113658],[2.837218,50.112563],[2.837418,50.110966],[2.837868,50.109716],[2.837808,50.108715],[2.838563,50.107812],[2.839905,50.107619],[2.837934,50.1058],[2.841131,50.104554],[2.84019,50.104054],[2.84059,50.103784],[2.841732,50.103579],[2.842965,50.103557],[2.843714,50.103103],[2.844474,50.102256],[2.845332,50.102719],[2.846429,50.10281],[2.847155,50.102491],[2.847602,50.101939],[2.846602,50.101631],[2.846535,50.101195],[2.847264,50.10027],[2.848715,50.100732],[2.848747,50.101012],[2.84956,50.100985],[2.84978,50.100676],[2.851442,50.101318],[2.853504,50.09997],[2.855666,50.098878],[2.855766,50.09717],[2.856023,50.095358],[2.856283,50.095149],[2.857611,50.09386],[2.858276,50.092808],[2.859369,50.092031],[2.860398,50.09045],[2.85965,50.087691],[2.85947,50.087306],[2.858343,50.086274],[2.857428,50.085918],[2.856807,50.084274],[2.855135,50.080983],[2.854905,50.079224],[2.855512,50.079128],[2.860113,50.077738],[2.862702,50.077499],[2.865937,50.077876],[2.868079,50.077979],[2.871723,50.077966],[2.873772,50.078279],[2.875945,50.078221],[2.878075,50.078631],[2.878855,50.077727],[2.879722,50.078519],[2.879691,50.078737],[2.879971,50.079418],[2.880091,50.080536],[2.880732,50.083118],[2.881096,50.085796],[2.884196,50.087267],[2.886239,50.085849],[2.88898,50.085405],[2.891464,50.084863],[2.891942,50.085584],[2.893598,50.089405],[2.894126,50.09035],[2.894776,50.091298],[2.898847,50.091591],[2.899051,50.090299],[2.899014,50.089137],[2.900254,50.086055],[2.902985,50.085044],[2.904729,50.083882],[2.90788,50.084685],[2.911804,50.081204],[2.913125,50.080574],[2.9149,50.080012],[2.918159,50.078111],[2.921094,50.077272],[2.922092,50.077382],[2.922538,50.077239],[2.923837,50.075705],[2.925885,50.075132],[2.927196,50.073676],[2.928201,50.07167],[2.929311,50.071002],[2.929105,50.070407],[2.928561,50.069912],[2.927393,50.069047],[2.920564,50.065932],[2.922856,50.063163],[2.924137,50.062109],[2.925879,50.060991],[2.928682,50.059782],[2.931024,50.058484],[2.929018,50.057251],[2.927697,50.056213],[2.928295,50.053869],[2.9281,50.052668],[2.926908,50.050723],[2.925566,50.049351],[2.925001,50.047911],[2.924998,50.047236],[2.924597,50.045963],[2.924717,50.045423],[2.925666,50.043555],[2.924878,50.042196],[2.924003,50.03534],[2.923439,50.032937],[2.92224,50.030279],[2.921995,50.029272],[2.922015,50.028321],[2.921539,50.026501],[2.91779,50.021118],[2.912041,50.014077],[2.911908,50.013332],[2.912089,50.012386],[2.914307,50.011559],[2.914279,50.010094],[2.914575,50.009763],[2.91713,50.007751],[2.918248,50.007043],[2.918944,50.006258],[2.919912,50.005435],[2.920551,50.004337],[2.921354,50.00353],[2.921454,50.001729],[2.921734,50.001214],[2.921654,50.000172],[2.921995,49.997984],[2.920702,49.995815],[2.920354,49.994488],[2.919921,49.993768],[2.919752,49.992565],[2.919752,49.991793],[2.919452,49.990673],[2.91943,49.989833],[2.919609,49.988349],[2.9203,49.986939],[2.922233,49.984848],[2.921474,49.984301],[2.921554,49.984018],[2.92225,49.98426],[2.923728,49.983475],[2.9275,49.980414],[2.929431,49.978742],[2.929582,49.97744],[2.929843,49.97668],[2.929723,49.975225],[2.930023,49.974079],[2.930864,49.969224],[2.931084,49.965168],[2.930944,49.963841],[2.931244,49.962502],[2.931284,49.961768],[2.931052,49.961203],[2.931289,49.960937],[2.932365,49.960815],[2.934407,49.960995],[2.935769,49.961124],[2.93645,49.961549],[2.93687,49.962116],[2.937431,49.96227],[2.937971,49.962116],[2.938472,49.961601],[2.939052,49.961497],[2.940294,49.961794],[2.941215,49.961755],[2.941726,49.961593],[2.9429,49.961026],[2.943203,49.958872],[2.942816,49.95869],[2.941635,49.958651],[2.932866,49.956719],[2.93419,49.95488],[2.937931,49.952468],[2.936935,49.951949],[2.934886,49.950035],[2.932196,49.948719],[2.933948,49.947516],[2.935958,49.946396],[2.938331,49.94574],[2.937024,49.944424],[2.934442,49.942574],[2.932726,49.940649],[2.931632,49.939027],[2.930792,49.9361],[2.931208,49.935439],[2.932062,49.934585],[2.930626,49.93412],[2.930477,49.932717],[2.931499,49.932235],[2.932063,49.931345],[2.932146,49.929749],[2.932546,49.929443],[2.932526,49.929031],[2.933987,49.928695],[2.934448,49.929005],[2.935208,49.928051],[2.936149,49.927548],[2.938792,49.929108],[2.940498,49.92792],[2.941114,49.927948],[2.941855,49.928231],[2.943041,49.929046],[2.945702,49.92984],[2.948127,49.930034],[2.950509,49.929661],[2.951966,49.929056],[2.952804,49.928556],[2.956131,49.92571],[2.959073,49.923746],[2.962256,49.921581],[2.96554,49.919364],[2.969026,49.917047],[2.970507,49.916453],[2.971966,49.916102],[2.986192,49.914049],[2.998957,49.914383],[3.002315,49.914797],[3.00438,49.915277],[3.00464,49.915032],[3.005601,49.915071],[3.006342,49.915432],[3.007186,49.914804],[3.008004,49.914852],[3.008424,49.914774],[3.008844,49.915084],[3.009545,49.914929],[3.010223,49.914328],[3.011207,49.914117],[3.011848,49.913807],[3.012869,49.912402],[3.014651,49.911848],[3.015334,49.911229],[3.017593,49.910092],[3.020276,49.908998],[3.021337,49.908405],[3.022659,49.908044],[3.024541,49.906819],[3.026122,49.905968],[3.02638,49.904972],[3.028826,49.903521],[3.029899,49.902282],[3.031229,49.901802],[3.034641,49.899747],[3.035693,49.898853],[3.036487,49.898509],[3.037574,49.897522],[3.039136,49.896709],[3.040818,49.89542],[3.040778,49.895033],[3.042109,49.894938],[3.041819,49.893111],[3.044561,49.893021],[3.045617,49.892643],[3.047982,49.892526],[3.050728,49.892673],[3.05309,49.892247],[3.055333,49.891989],[3.056754,49.891718],[3.05907,49.890659],[3.060755,49.890335],[3.064282,49.890467],[3.064736,49.889231],[3.06494,49.887823],[3.065433,49.887663],[3.065991,49.886595],[3.066635,49.883934],[3.06391,49.881459],[3.062365,49.878334],[3.06252,49.875296],[3.06234,49.874535],[3.062472,49.873909],[3.061759,49.87158],[3.061959,49.870354],[3.063201,49.868199],[3.065755,49.866469],[3.067285,49.864625],[3.068651,49.862706],[3.070261,49.861904],[3.071009,49.861979],[3.07211,49.861966],[3.073501,49.862132],[3.07436,49.862388],[3.077055,49.861953],[3.078039,49.862789],[3.079638,49.86345],[3.083502,49.863592],[3.085593,49.864193],[3.086183,49.86402],[3.086644,49.860272],[3.086054,49.859552],[3.087025,49.859475],[3.09149,49.858494],[3.093672,49.858352],[3.094093,49.857823],[3.094733,49.857436],[3.095454,49.857539],[3.097236,49.857475],[3.100419,49.856842],[3.105183,49.855499],[3.11045,49.854609],[3.113973,49.853886],[3.117103,49.85334],[3.119206,49.852476],[3.125471,49.850574],[3.127527,49.853215],[3.127848,49.854635],[3.128929,49.856016],[3.131251,49.857475],[3.131812,49.8575],[3.132352,49.857436],[3.133013,49.857733],[3.133947,49.856647],[3.135685,49.856038],[3.138359,49.855771],[3.144485,49.85488],[3.146227,49.854519],[3.148378,49.854627],[3.156371,49.854544],[3.160662,49.855939],[3.164267,49.855928],[3.165683,49.855249],[3.167168,49.855926],[3.169599,49.854302],[3.169942,49.853563],[3.170435,49.853328],[3.171036,49.853175],[3.171573,49.852913],[3.171337,49.852553],[3.171594,49.85211],[3.171508,49.851488],[3.171422,49.850284],[3.173375,49.848541],[3.173697,49.847876],[3.174233,49.847544],[3.176851,49.846631],[3.177924,49.845178],[3.178139,49.845068],[3.178353,49.844625],[3.179276,49.843615],[3.179576,49.842798],[3.180177,49.841871],[3.180714,49.84075],[3.183675,49.83754],[3.185198,49.835893],[3.18728,49.834093],[3.187623,49.833692],[3.189147,49.833609],[3.193095,49.833069],[3.19464,49.833208],[3.196099,49.832986],[3.196914,49.832682],[3.198309,49.832737],[3.200047,49.833166],[3.203609,49.834592],[3.204703,49.834716],[3.205841,49.834993],[3.208244,49.835976],[3.209746,49.836266],[3.21172,49.836861],[3.211892,49.836737],[3.213909,49.837401],[3.220947,49.839532],[3.222685,49.839892],[3.223093,49.839602],[3.224401,49.839311],[3.226247,49.8392],[3.236139,49.839159],[3.248949,49.840044],[3.250537,49.839906],[3.251889,49.839602],[3.257704,49.837567],[3.259528,49.837041],[3.261223,49.836848],[3.263884,49.836806],[3.265128,49.837041],[3.270493,49.838619],[3.271801,49.838854],[3.273218,49.839007],[3.27685,49.842477],[3.277462,49.842925]]],"type":"MultiLineString"},"properties":{"geo_point":{"lon":2.960190792101477,"lat":50.00693526923134},"name":"GR145 Via Francigena. De Arras (Pas-de-Calais) à Saint Quentin (Aisne) (2020)","code_gr":"GR145"}},{"type":"Feature","geometry":{"coordinates":[[[2.257083,50.637794],[2.260836,50.634916],[2.262873,50.633835],[2.265441,50.633855],[2.267945,50.633461],[2.271767,50.632361],[2.273321,50.631129],[2.275199,50.630603],[2.276775,50.629613],[2.277879,50.629168],[2.280078,50.628477],[2.283533,50.626616],[2.285626,50.625181],[2.287869,50.624291],[2.291227,50.622422],[2.299759,50.618571],[2.302095,50.617931],[2.302883,50.617054],[2.304073,50.616373],[2.305735,50.615692],[2.307675,50.614529],[2.310271,50.613255],[2.311183,50.612945],[2.312159,50.612103],[2.314756,50.61147],[2.315589,50.61093],[2.316065,50.610439],[2.316675,50.610123],[2.317511,50.609594],[2.318218,50.609297],[2.321804,50.611102],[2.324286,50.609185],[2.326424,50.607868],[2.323712,50.606642],[2.327036,50.605091],[2.33006,50.603432],[2.333953,50.601432],[2.337803,50.599868],[2.340476,50.598529],[2.341475,50.597898],[2.340505,50.597267],[2.341081,50.596409],[2.337256,50.595299],[2.336061,50.59445],[2.335516,50.593751],[2.33527,50.592952],[2.335575,50.591663],[2.333693,50.590901],[2.332927,50.590765],[2.332947,50.590518],[2.331949,50.589481],[2.331079,50.588826],[2.330133,50.587322],[2.329905,50.586712],[2.330566,50.586173],[2.329367,50.5848],[2.327233,50.583861],[2.326453,50.582594],[2.326167,50.581802],[2.325034,50.580722],[2.325372,50.579473],[2.327887,50.576589],[2.328899,50.575804],[2.331175,50.575037],[2.334928,50.574434],[2.33719,50.572938],[2.34131,50.570241],[2.341095,50.570125],[2.34882,50.565553],[2.351224,50.564443],[2.354014,50.563497],[2.356419,50.562616],[2.364262,50.559826],[2.358075,50.558189],[2.357845,50.557693],[2.357937,50.557254],[2.358121,50.556232],[2.357362,50.555852],[2.359156,50.554712],[2.361534,50.555917],[2.36301,50.556202],[2.363713,50.556299],[2.365382,50.555843],[2.366794,50.555687],[2.367832,50.55527],[2.368826,50.554989],[2.369985,50.553851],[2.370869,50.55254],[2.371685,50.552152],[2.372264,50.551478],[2.376024,50.550077],[2.387005,50.541311],[2.38772,50.540414],[2.3905,50.538153],[2.392233,50.536413],[2.393151,50.535246],[2.393057,50.534014],[2.392619,50.532481],[2.391767,50.532161],[2.391566,50.531363],[2.391758,50.531189],[2.392091,50.531312],[2.39355,50.531523],[2.393786,50.531059],[2.394011,50.530425],[2.394204,50.530207],[2.394655,50.529934],[2.394977,50.529688],[2.395234,50.529497],[2.395962,50.529056],[2.397015,50.528795],[2.397916,50.528434],[2.398292,50.528318],[2.398453,50.52842],[2.398658,50.529145],[2.399186,50.529738],[2.399693,50.529815],[2.399693,50.528977],[2.400066,50.528421],[2.400779,50.527717],[2.402051,50.527038],[2.402514,50.526722],[2.403174,50.526067],[2.406964,50.524036],[2.411433,50.520414],[2.416919,50.524104],[2.424839,50.518547],[2.426807,50.519593],[2.426724,50.519895],[2.428596,50.520987],[2.432459,50.518307],[2.432984,50.517694],[2.43456,50.51678],[2.435437,50.516099],[2.436668,50.516625],[2.439178,50.518783],[2.440719,50.519781],[2.442225,50.521115],[2.442814,50.52096],[2.442903,50.521701],[2.444565,50.523242],[2.445116,50.523437],[2.446465,50.52483],[2.447191,50.524791],[2.448109,50.524304],[2.448592,50.524823],[2.449296,50.525194],[2.449898,50.525453],[2.449375,50.525765],[2.449107,50.526139],[2.449076,50.526526],[2.449277,50.526979],[2.450313,50.527889],[2.448951,50.527724],[2.448913,50.528036],[2.448983,50.528441],[2.448505,50.528564],[2.446728,50.529516],[2.448421,50.531334],[2.449324,50.532455],[2.449412,50.533627],[2.44908,50.534335],[2.448528,50.535085],[2.448341,50.535917],[2.4488,50.537187],[2.451297,50.542104],[2.451595,50.541837],[2.452249,50.541457],[2.452643,50.541117],[2.45238,50.540816],[2.45309,50.54008],[2.453799,50.540033],[2.454752,50.539831],[2.455516,50.539526],[2.456524,50.539303],[2.457798,50.538732],[2.458792,50.538203],[2.460009,50.537717],[2.461645,50.536808],[2.462615,50.536417],[2.462867,50.536058],[2.463678,50.535479],[2.464427,50.53521],[2.464769,50.534797],[2.467016,50.534058],[2.466615,50.533594],[2.466408,50.532921],[2.466931,50.532268],[2.467697,50.531615],[2.468609,50.530582],[2.468764,50.530017],[2.469198,50.529308],[2.471415,50.528064],[2.471863,50.527934],[2.47417,50.526846],[2.475692,50.52572],[2.474832,50.525079],[2.477819,50.523609],[2.478945,50.522809],[2.479997,50.522234],[2.480702,50.522715],[2.485518,50.525131],[2.487535,50.525523],[2.488559,50.525629],[2.489106,50.525468],[2.49005,50.524795],[2.4914,50.523366],[2.492772,50.522223],[2.49412,50.520701],[2.495274,50.520012],[2.496291,50.519333],[2.49719,50.519016],[2.497968,50.519065],[2.499315,50.518385],[2.500103,50.517767],[2.502812,50.516419],[2.503482,50.515978],[2.50385,50.515287],[2.504443,50.514773],[2.503046,50.513979],[2.503031,50.513824],[2.503338,50.513573],[2.503237,50.51255],[2.501932,50.512167],[2.502769,50.510908],[2.502572,50.510686],[2.501128,50.510234],[2.499936,50.509522],[2.501083,50.508987],[2.497796,50.508318],[2.497963,50.50788],[2.497958,50.507496],[2.498556,50.50708],[2.498817,50.506806],[2.49882,50.506341],[2.501557,50.502785],[2.50266,50.501882],[2.504793,50.502119],[2.50562,50.502139],[2.505896,50.501917],[2.505855,50.501854],[2.506038,50.501657],[2.505846,50.501596],[2.506112,50.501187],[2.506435,50.500661],[2.506957,50.50036],[2.507704,50.500489],[2.508256,50.500337],[2.508607,50.500304],[2.50878,50.500173],[2.508734,50.499982],[2.508176,50.499507],[2.508182,50.499156],[2.507492,50.498582],[2.506682,50.498298],[2.506566,50.498018],[2.505883,50.497796],[2.505324,50.49788],[2.505048,50.497499],[2.50372,50.497199],[2.50335,50.497159],[2.502193,50.496726],[2.50153,50.49628],[2.500903,50.495396],[2.500552,50.49427],[2.499517,50.493509],[2.500502,50.493003],[2.501121,50.492175],[2.501714,50.491657],[2.506298,50.488315],[2.506687,50.487786],[2.509085,50.488677],[2.510517,50.489282],[2.51092,50.488878],[2.510893,50.488333],[2.511636,50.487725],[2.51308,50.485916],[2.515384,50.482785],[2.517545,50.482849],[2.519019,50.482803],[2.525089,50.483261],[2.528429,50.483164],[2.529441,50.481802],[2.529457,50.481139],[2.529257,50.480453],[2.529361,50.479851],[2.529855,50.47928],[2.530628,50.478824],[2.530989,50.478115],[2.530448,50.477602],[2.530639,50.4775],[2.531068,50.477807],[2.531167,50.477576],[2.530975,50.476958],[2.53089,50.47655],[2.530995,50.476441],[2.530909,50.476323],[2.531398,50.475954],[2.531837,50.476259],[2.534606,50.47473],[2.536139,50.475899],[2.536426,50.47565],[2.536465,50.475853],[2.537475,50.475156],[2.536754,50.474974],[2.536622,50.474812],[2.528676,50.472133],[2.527271,50.471478],[2.526516,50.470996],[2.525969,50.470524],[2.525484,50.469914],[2.525043,50.468985],[2.524462,50.466092],[2.524453,50.465147],[2.524772,50.464272],[2.527349,50.459731],[2.528496,50.457966],[2.528766,50.456707],[2.528537,50.455727],[2.528094,50.455103],[2.524743,50.450441],[2.527739,50.448558],[2.530713,50.446833],[2.53275,50.445335],[2.53409,50.44449],[2.534765,50.443844],[2.535477,50.443542],[2.535682,50.443344],[2.537433,50.442403],[2.540005,50.440757],[2.540902,50.440314],[2.541554,50.440516],[2.542828,50.440335],[2.543657,50.440527],[2.546094,50.440715],[2.547141,50.440593],[2.548399,50.440274],[2.549343,50.439905],[2.550738,50.44024],[2.551514,50.44004],[2.551946,50.439485],[2.552566,50.439508],[2.55282,50.439656],[2.553178,50.439629],[2.554266,50.440038],[2.555265,50.441655],[2.557735,50.439728],[2.561008,50.43659],[2.563667,50.435247],[2.564264,50.43564],[2.567329,50.437723],[2.571177,50.439182],[2.57153,50.439482],[2.571751,50.44001],[2.571445,50.440753],[2.571788,50.441381],[2.573075,50.442393],[2.573869,50.443199],[2.57408,50.442147],[2.574947,50.441305],[2.577454,50.43966],[2.577837,50.439532],[2.578908,50.438834],[2.579821,50.438843],[2.581861,50.437534],[2.582781,50.437042],[2.583746,50.43711],[2.583987,50.436948],[2.584023,50.436615],[2.584405,50.436448],[2.585306,50.436461],[2.586122,50.436106],[2.586615,50.436106],[2.587648,50.435411],[2.587259,50.43489],[2.586759,50.434511],[2.586422,50.434042],[2.586508,50.433619],[2.58698,50.433386],[2.589169,50.43258],[2.590907,50.432293],[2.591851,50.432812],[2.592516,50.432935],[2.594554,50.432443],[2.596164,50.43258],[2.596397,50.432524],[2.596164,50.431486],[2.597127,50.431207],[2.600327,50.430844],[2.601811,50.428067],[2.600703,50.427982],[2.597235,50.427363],[2.596529,50.425677],[2.59615,50.42563],[2.596468,50.425011],[2.596893,50.424734],[2.597506,50.424509],[2.598391,50.424356],[2.599341,50.42449],[2.601392,50.423908],[2.601666,50.42413],[2.602799,50.423477],[2.601945,50.422211],[2.60211,50.421903],[2.603288,50.421548],[2.604337,50.421254],[2.60538,50.420661],[2.607217,50.419904],[2.611291,50.420372],[2.617278,50.425759],[2.617407,50.426224],[2.620111,50.426766],[2.621379,50.427795],[2.623608,50.42703],[2.624702,50.426784],[2.626526,50.426688],[2.629273,50.426347],[2.63114,50.42621],[2.63232,50.426169],[2.633592,50.425912],[2.633972,50.425786],[2.633629,50.4239],[2.633672,50.423202],[2.635281,50.423079],[2.636998,50.423435],[2.638264,50.423517],[2.641783,50.42446],[2.642091,50.424849],[2.64292,50.424487],[2.646551,50.423528],[2.64688,50.424889],[2.64724,50.42596],[2.647561,50.427019],[2.647571,50.427682],[2.648241,50.429314],[2.648542,50.429856],[2.651645,50.427784],[2.653016,50.426968],[2.65636,50.425494],[2.658702,50.424774],[2.659423,50.424398],[2.659933,50.423875],[2.661725,50.422542],[2.660844,50.421808],[2.663564,50.420598],[2.665369,50.419804],[2.667346,50.419102],[2.667595,50.419287],[2.670058,50.418562],[2.674562,50.417911],[2.675541,50.417539],[2.676327,50.417414],[2.678719,50.415987],[2.682098,50.417998],[2.683007,50.417365],[2.683431,50.416825],[2.684383,50.417076],[2.684819,50.41558],[2.685171,50.415101],[2.684559,50.413161],[2.684747,50.412393],[2.686966,50.411571],[2.688526,50.410455],[2.688519,50.409789],[2.689091,50.409464],[2.688532,50.408892],[2.689286,50.407964],[2.691257,50.406982],[2.693951,50.406768],[2.694886,50.406527],[2.695604,50.40554],[2.696556,50.404742],[2.69715,50.403913],[2.701568,50.402944],[2.702253,50.403025],[2.705106,50.402828],[2.708204,50.402174],[2.710032,50.401414],[2.711997,50.400541],[2.713662,50.400202],[2.713912,50.399735],[2.715421,50.399407],[2.716493,50.399384],[2.71748,50.399662],[2.717824,50.399008],[2.71714,50.3967],[2.716843,50.394555],[2.716345,50.394471],[2.714678,50.394529],[2.713989,50.39485],[2.713,50.395035],[2.712456,50.394901],[2.710308,50.395117],[2.709019,50.395733],[2.708614,50.39565],[2.706415,50.395996],[2.706035,50.396342],[2.704977,50.395399],[2.704434,50.394592],[2.703166,50.392863],[2.701826,50.39149],[2.701205,50.39019],[2.699542,50.388608],[2.69856,50.38733],[2.698667,50.386796],[2.698581,50.386099],[2.698729,50.385259],[2.699182,50.383622],[2.699701,50.382533],[2.700398,50.381635],[2.70118,50.381555],[2.702072,50.381646],[2.703887,50.38134],[2.705374,50.379673],[2.704389,50.379347],[2.703345,50.379038],[2.702615,50.378614],[2.702457,50.37798],[2.703467,50.37589],[2.703075,50.37539],[2.704188,50.373629],[2.703861,50.373036],[2.706331,50.370478],[2.707465,50.370472],[2.708515,50.369343],[2.710327,50.368502],[2.713556,50.366456],[2.71461,50.365845],[2.715061,50.365339],[2.715168,50.364504],[2.715898,50.363354],[2.716048,50.362779],[2.716219,50.360658],[2.717206,50.358714],[2.718258,50.356852],[2.716949,50.356304],[2.715855,50.356113],[2.708173,50.355524],[2.7068,50.35625],[2.703229,50.354174],[2.69985,50.353146],[2.694613,50.351718],[2.693027,50.350692],[2.692449,50.349981],[2.690577,50.350464],[2.68986,50.349514],[2.689665,50.348468],[2.688254,50.347431],[2.688971,50.346453],[2.686733,50.345341],[2.686048,50.344594],[2.685352,50.344264],[2.683969,50.344036],[2.683797,50.343735],[2.683733,50.343009],[2.683153,50.342859],[2.682338,50.342886],[2.681758,50.342708],[2.681758,50.342174],[2.678132,50.340517],[2.677672,50.340171],[2.68097,50.339515],[2.682252,50.338942],[2.683368,50.338161],[2.684029,50.338359],[2.688555,50.337444],[2.687991,50.33634],[2.686741,50.335795],[2.6865,50.33487],[2.686516,50.334053],[2.68599,50.333818],[2.687611,50.331174],[2.688024,50.330012],[2.688288,50.328849],[2.688981,50.328387],[2.690537,50.327762],[2.691765,50.327052],[2.69338,50.326507],[2.696045,50.324673],[2.698839,50.321409],[2.69988,50.321922],[2.701425,50.321722],[2.702208,50.322135],[2.702745,50.322711],[2.704295,50.322135],[2.704901,50.322113],[2.705079,50.322501],[2.706637,50.322],[2.707,50.320726],[2.706372,50.319982],[2.706088,50.319374],[2.706646,50.318223],[2.707872,50.317888],[2.706948,50.317174],[2.708956,50.316101],[2.709549,50.315423],[2.710368,50.315401],[2.711317,50.314753],[2.711983,50.314544],[2.712434,50.314225],[2.714245,50.313667],[2.715442,50.313602],[2.71637,50.312955],[2.716799,50.31253],[2.715747,50.312297],[2.714978,50.310479],[2.71594,50.309543],[2.717902,50.308695],[2.720255,50.307984],[2.729856,50.306899],[2.731562,50.306473],[2.731798,50.306528],[2.734973,50.305884],[2.737935,50.305815],[2.740273,50.305665],[2.741539,50.305212],[2.743716,50.305999],[2.744486,50.306823],[2.744795,50.30683],[2.744997,50.306412],[2.748449,50.30427],[2.75085,50.30232],[2.7519,50.301261],[2.752693,50.300052],[2.755716,50.301528],[2.756195,50.301284],[2.757005,50.301151],[2.757876,50.301308],[2.758587,50.301565],[2.759308,50.301446],[2.759764,50.301151],[2.761259,50.301388],[2.761653,50.300122],[2.762106,50.29996],[2.762345,50.299497],[2.762611,50.299031],[2.762697,50.297167],[2.762522,50.29682],[2.766948,50.293431],[2.768447,50.292849],[2.770125,50.291743],[2.773526,50.290007],[2.777009,50.288585],[2.780135,50.287411]]],"type":"MultiLineString"},"properties":{"geo_point":{"lon":2.5399770138656486,"lat":50.46310831980946},"name":"GR145 Via Francigena. De Thérouanne à Arras (Pas-de-Calais) (2020)","code_gr":"GR145"}},{"type":"Feature","geometry":{"coordinates":[[[1.850732,50.960832],[1.850303,50.961237],[1.848286,50.96094],[1.847985,50.961454],[1.847599,50.961454],[1.846398,50.963819],[1.842085,50.96544],[1.8373,50.963589],[1.832064,50.962427],[1.829446,50.961913],[1.829017,50.96167],[1.828674,50.961724],[1.826935,50.961305],[1.826785,50.961427],[1.825734,50.96121],[1.825455,50.961967],[1.823953,50.961602],[1.822175,50.961399],[1.819257,50.960859],[1.818506,50.960859],[1.817175,50.960467],[1.814236,50.960129],[1.812056,50.959772],[1.812146,50.959413],[1.812417,50.959255],[1.812648,50.958372],[1.812276,50.958423],[1.810204,50.95836],[1.809584,50.958202],[1.808813,50.957786],[1.808743,50.957691],[1.808823,50.95759],[1.808492,50.957351],[1.808072,50.957225],[1.807131,50.957092],[1.806125,50.956912],[1.80579,50.956853],[1.805179,50.956909],[1.803758,50.956922],[1.802134,50.956763],[1.800995,50.957345],[1.799966,50.957507],[1.798057,50.957034],[1.797551,50.957023],[1.796683,50.956871],[1.79657,50.956708],[1.79618,50.956676],[1.795889,50.956708],[1.795529,50.956619],[1.794495,50.956574],[1.794194,50.956331],[1.793851,50.956371],[1.793336,50.956277],[1.793036,50.956147],[1.792656,50.956203],[1.792413,50.956317],[1.792027,50.956223],[1.791685,50.956172],[1.791395,50.955756],[1.790225,50.955668],[1.789602,50.955696],[1.788712,50.95532],[1.787714,50.955385],[1.78708,50.955447],[1.78644,50.955182],[1.785789,50.955049],[1.784848,50.955024],[1.784302,50.954993],[1.78368,50.95483],[1.782092,50.954182],[1.782065,50.953908],[1.781899,50.953803],[1.780676,50.953654],[1.779603,50.953898],[1.779303,50.953763],[1.778122,50.953614],[1.776513,50.953006],[1.77632,50.952762],[1.775827,50.952708],[1.775075,50.952789],[1.775059,50.952019],[1.76839,50.95015],[1.762479,50.948745],[1.761184,50.948434],[1.75757,50.947103],[1.754867,50.946321],[1.751634,50.945426],[1.750593,50.945199],[1.749662,50.945123],[1.749047,50.94499],[1.744376,50.943521],[1.743505,50.943161],[1.742825,50.942772],[1.741864,50.942152],[1.741832,50.941855],[1.737396,50.939189],[1.736495,50.938567],[1.735465,50.937999],[1.73452,50.937282],[1.733147,50.935376],[1.732267,50.934524],[1.730594,50.933144],[1.729714,50.932062],[1.72965,50.931156],[1.729435,50.930183],[1.7301,50.929724],[1.72965,50.928182],[1.729714,50.927614],[1.731001,50.925532],[1.730165,50.925248],[1.728727,50.925261],[1.727697,50.924774],[1.726667,50.923949],[1.726216,50.923949],[1.724865,50.923178],[1.723792,50.922935],[1.721925,50.922853],[1.72156,50.922718],[1.721002,50.922786],[1.718256,50.922367],[1.717719,50.922542],[1.717655,50.922867],[1.718234,50.923489],[1.71729,50.923814],[1.714071,50.924964],[1.71394,50.924898],[1.71326,50.925118],[1.712737,50.925118],[1.71211,50.924865],[1.711848,50.924613],[1.710837,50.924118],[1.711116,50.923712],[1.711046,50.923514],[1.710384,50.923097],[1.709478,50.922833],[1.708833,50.922756],[1.70824,50.92258],[1.70845,50.922295],[1.708293,50.922108],[1.707752,50.921932],[1.70716,50.921954],[1.707526,50.92178],[1.707526,50.921592],[1.706261,50.922092],[1.70518,50.922585],[1.704617,50.922643],[1.703306,50.921693],[1.703129,50.921434],[1.703486,50.921131],[1.70347,50.920957],[1.702868,50.921044],[1.701763,50.920701],[1.700379,50.919758],[1.699128,50.918827],[1.697372,50.917791],[1.696382,50.917167],[1.694196,50.916083],[1.693188,50.915247],[1.693038,50.915012],[1.692366,50.914658],[1.689433,50.911738],[1.688051,50.910171],[1.684464,50.906826],[1.683792,50.90672],[1.68254,50.905518],[1.68198,50.904847],[1.680691,50.903787],[1.680579,50.903528],[1.678692,50.901784],[1.676301,50.89977],[1.674993,50.898533],[1.674433,50.898191],[1.674115,50.897814],[1.673686,50.897555],[1.673518,50.897366],[1.673032,50.896977],[1.672677,50.896848],[1.671108,50.895658],[1.670529,50.89488],[1.669718,50.894681],[1.664933,50.891717],[1.66223,50.889917],[1.661414,50.889159],[1.660663,50.887886],[1.66233,50.88687],[1.66305,50.88683],[1.66356,50.88661],[1.663088,50.885871],[1.66327,50.885458],[1.66445,50.885627],[1.66754,50.8832],[1.67019,50.88249],[1.67132,50.88192],[1.673758,50.879385],[1.67535,50.8789],[1.6769,50.87754],[1.67762,50.87744],[1.6784,50.87757],[1.681153,50.877181],[1.68205,50.87682],[1.68265,50.87724],[1.688988,50.878101],[1.693953,50.878528],[1.6974,50.87896],[1.698857,50.877684],[1.69877,50.87647],[1.6979,50.87313],[1.70183,50.87257],[1.70187,50.871845],[1.70264,50.8715],[1.70344,50.87094],[1.70367,50.87053],[1.70415,50.87064],[1.705647,50.869888],[1.707447,50.869174],[1.71092,50.86743],[1.715229,50.866592],[1.71795,50.86589],[1.718143,50.866121],[1.719537,50.866515],[1.72243,50.86711],[1.73572,50.87279],[1.7363,50.87156],[1.73762,50.86992],[1.73823,50.86883],[1.73873,50.86872],[1.73923,50.86881],[1.74088,50.86846],[1.73958,50.86616],[1.73988,50.86594],[1.74059,50.86468],[1.74664,50.86902],[1.74717,50.86977],[1.74812,50.87033],[1.74872,50.86978],[1.74886,50.8691],[1.7508,50.86707],[1.75109,50.86628],[1.75085,50.86531],[1.751362,50.864654],[1.756176,50.866888],[1.758101,50.86569],[1.760904,50.864529],[1.762773,50.864154],[1.764726,50.86351],[1.766397,50.863385],[1.766992,50.863135],[1.767331,50.862813],[1.767445,50.862206],[1.766907,50.861956],[1.765802,50.860865],[1.765774,50.860276],[1.766397,50.859686],[1.766001,50.859096],[1.765179,50.858667],[1.765066,50.858238],[1.7624,50.85452],[1.763764,50.854217],[1.76426,50.85361],[1.77069,50.85143],[1.78209,50.84858],[1.78338,50.84874],[1.786137,50.847952],[1.790471,50.845581],[1.797316,50.843685],[1.801265,50.842302],[1.804145,50.842268],[1.805546,50.84214],[1.807788,50.842181],[1.809011,50.842465],[1.80892,50.8419],[1.81103,50.83983],[1.81167,50.83962],[1.812953,50.839791],[1.814579,50.840315],[1.816785,50.840609],[1.81736,50.840794],[1.8184,50.84298],[1.81915,50.84329],[1.820611,50.842998],[1.822309,50.84295],[1.82508,50.842089],[1.825806,50.842916],[1.825801,50.843526],[1.82639,50.84856],[1.82712,50.84897],[1.829572,50.851363],[1.831249,50.853521],[1.83181,50.854],[1.8327,50.85509],[1.8345,50.8546],[1.835462,50.856407],[1.835951,50.858024],[1.837249,50.859744],[1.837512,50.860239],[1.837412,50.860644],[1.836451,50.861882],[1.836051,50.862084],[1.833648,50.861528],[1.832968,50.861238],[1.832567,50.861528],[1.832667,50.861768],[1.834249,50.861895],[1.840556,50.863664],[1.852588,50.866027],[1.858074,50.866697],[1.858895,50.866595],[1.860336,50.866305],[1.861798,50.866292],[1.862899,50.866178],[1.8641,50.866166],[1.8637,50.865736],[1.861577,50.86283],[1.861818,50.862741],[1.862679,50.861478],[1.862899,50.860934],[1.863019,50.860075],[1.863339,50.859228],[1.863139,50.857876],[1.863359,50.856574],[1.863299,50.854084],[1.862979,50.853427],[1.862318,50.852732],[1.861938,50.851974],[1.860456,50.84985],[1.862018,50.849041],[1.864601,50.848068],[1.865942,50.847651],[1.867363,50.847044],[1.867524,50.847107],[1.867463,50.847651],[1.868144,50.848346],[1.867644,50.845413],[1.867183,50.844667],[1.86629,50.84389],[1.87809,50.83863],[1.877274,50.837411],[1.877214,50.836968],[1.87674,50.836173],[1.876713,50.835552],[1.876493,50.835008],[1.876513,50.834553],[1.876233,50.834073],[1.88329,50.83086],[1.882619,50.830355],[1.882359,50.829331],[1.880657,50.827446],[1.88084,50.82686],[1.88482,50.82504],[1.87626,50.81742],[1.877234,50.81705],[1.87846,50.81622],[1.87839,50.81494],[1.878175,50.813685],[1.875852,50.813723],[1.874562,50.813662],[1.87298,50.8137],[1.87268,50.8135],[1.872972,50.812603],[1.872305,50.811834],[1.869506,50.811446],[1.868705,50.810991],[1.867884,50.81113],[1.866643,50.80989],[1.8655,50.80959],[1.86577,50.80913],[1.866723,50.808612],[1.868505,50.808018],[1.869786,50.807499],[1.87204,50.806833],[1.872829,50.806411],[1.873626,50.805806],[1.87475,50.80445],[1.87578,50.80455],[1.877194,50.805103],[1.87805,50.80571],[1.880282,50.801581],[1.88004,50.80127],[1.88056,50.80068],[1.88119,50.79939],[1.882179,50.799654],[1.882623,50.79902],[1.88266,50.79846],[1.882479,50.797959],[1.883152,50.797231],[1.883325,50.796497],[1.884142,50.79579],[1.88453,50.79492],[1.8879,50.7923],[1.89019,50.79108],[1.891845,50.791049],[1.893328,50.790774],[1.898611,50.790494],[1.90141,50.79018],[1.90234,50.78955],[1.903421,50.789189],[1.90456,50.78895],[1.907605,50.788758],[1.909694,50.788007],[1.91175,50.78777],[1.91441,50.78783],[1.917756,50.787505],[1.92024,50.78679],[1.92425,50.78638],[1.925603,50.786761],[1.926913,50.787305],[1.928607,50.787594],[1.931169,50.788404],[1.93257,50.788891],[1.933612,50.789404],[1.935295,50.787599],[1.935261,50.785983],[1.935529,50.785289],[1.93675,50.78553],[1.93805,50.78398],[1.938777,50.783417],[1.940479,50.78291],[1.94182,50.782404],[1.943102,50.781366],[1.944003,50.781189],[1.944944,50.781834],[1.945384,50.782316],[1.945724,50.782657],[1.946245,50.782733],[1.947646,50.783328],[1.949328,50.784278],[1.952471,50.785619],[1.953513,50.78567],[1.954714,50.78591],[1.955435,50.786151],[1.956395,50.786834],[1.956816,50.787594],[1.957837,50.787353],[1.958598,50.787087],[1.958978,50.786746],[1.959178,50.786113],[1.959879,50.785619],[1.961241,50.784796],[1.962021,50.784746],[1.964784,50.784923],[1.966826,50.784948],[1.967327,50.785024],[1.967687,50.784771],[1.968068,50.783898],[1.968148,50.783278],[1.968868,50.783316],[1.971111,50.783885],[1.971711,50.783974],[1.971912,50.784164],[1.971932,50.784366],[1.971051,50.784936],[1.97065,50.785632],[1.97053,50.786404],[1.97021,50.787125],[1.96999,50.787872],[1.968608,50.789809],[1.968508,50.790315],[1.968508,50.790733],[1.969149,50.792024],[1.968668,50.792593],[1.967947,50.792998],[1.966826,50.793378],[1.966906,50.793681],[1.967287,50.793707],[1.968188,50.793618],[1.969009,50.793618],[1.96993,50.793403],[1.97021,50.79353],[1.97013,50.793719],[1.968828,50.794162],[1.968748,50.794403],[1.968888,50.794517],[1.97007,50.794846],[1.970951,50.7952],[1.971211,50.797339],[1.971831,50.798743],[1.971952,50.79968],[1.971872,50.800515],[1.972312,50.802299],[1.972252,50.802615],[1.971992,50.803324],[1.971791,50.805247],[1.971531,50.806133],[1.971711,50.806803],[1.971791,50.807701],[1.972072,50.808676],[1.972572,50.809118],[1.972572,50.809612],[1.97059,50.811535],[1.969269,50.812686],[1.968948,50.81323],[1.968728,50.813989],[1.968748,50.814976],[1.969829,50.815254],[1.973433,50.816784],[1.974494,50.816696],[1.975836,50.816354],[1.976616,50.816114],[1.977818,50.816203],[1.978959,50.816152],[1.979499,50.816291],[1.980956,50.816158],[1.981627,50.8157],[1.982426,50.815568],[1.983202,50.815382],[1.983824,50.815314],[1.985391,50.814718],[1.986807,50.815924],[1.987901,50.816385],[1.988652,50.817077],[1.994424,50.815314],[2.001205,50.814582],[2.002321,50.814229],[2.003286,50.813538],[2.004252,50.812453],[2.004896,50.810853],[2.008329,50.809891],[2.009337,50.809782],[2.011633,50.809511],[2.012577,50.809281],[2.013436,50.809281],[2.014981,50.809308],[2.016011,50.809023],[2.016848,50.808684],[2.018114,50.809118],[2.018414,50.809104],[2.018822,50.809389],[2.021418,50.81027],[2.021869,50.810338],[2.021919,50.81047],[2.021654,50.811043],[2.021908,50.810813],[2.02296,50.809199],[2.023821,50.808182],[2.024328,50.807199],[2.024574,50.806925],[2.02686,50.805552],[2.02822,50.803558],[2.028885,50.802826],[2.029872,50.802989],[2.030881,50.802975],[2.03204,50.803057],[2.032898,50.803531],[2.03352,50.80364],[2.034893,50.803694],[2.038455,50.804914],[2.039421,50.805145],[2.041202,50.805755],[2.041932,50.80646],[2.042811,50.806989],[2.043884,50.807816],[2.045236,50.808494],[2.045773,50.80863],[2.046395,50.808359],[2.04736,50.807382],[2.047446,50.806921],[2.047704,50.806731],[2.048498,50.806826],[2.048862,50.806352],[2.047768,50.805511],[2.048605,50.804887],[2.049246,50.804818],[2.050433,50.80451],[2.05284,50.804448],[2.054548,50.80449],[2.056776,50.804705],[2.058613,50.804942],[2.057979,50.805887],[2.064354,50.808415],[2.066175,50.807182],[2.066874,50.806771],[2.067476,50.806565],[2.068175,50.805661],[2.068582,50.805332],[2.068826,50.804931],[2.069557,50.804479],[2.069997,50.804017],[2.070826,50.803688],[2.071623,50.803575],[2.074891,50.803462],[2.076095,50.801972],[2.076371,50.801355],[2.076274,50.800707],[2.076583,50.800214],[2.077249,50.799896],[2.078225,50.799597],[2.079136,50.799227],[2.081055,50.798929],[2.083543,50.798128],[2.084779,50.797367],[2.085136,50.797141],[2.085901,50.796288],[2.087836,50.794952],[2.08982,50.79379],[2.090763,50.793194],[2.091462,50.792546],[2.093088,50.791837],[2.09408,50.791487],[2.094796,50.791313],[2.095593,50.79085],[2.096308,50.7905],[2.096666,50.789945],[2.09717,50.789472],[2.098406,50.788907],[2.095463,50.786851],[2.09652,50.786954],[2.099154,50.786954],[2.103968,50.787324],[2.105203,50.787643],[2.109025,50.78901],[2.11044,50.789287],[2.1107,50.786224],[2.11096,50.785874],[2.113383,50.784353],[2.113562,50.783941],[2.114294,50.783746],[2.115205,50.783715],[2.115757,50.7839],[2.116375,50.783941],[2.120099,50.783756],[2.122945,50.78206],[2.125254,50.781073],[2.126929,50.780456],[2.127889,50.78026],[2.129043,50.780199],[2.130474,50.779829],[2.130832,50.779829],[2.131743,50.779674],[2.132816,50.779777],[2.135922,50.778996],[2.136752,50.779458],[2.141972,50.775808],[2.142866,50.774975],[2.143321,50.774749],[2.143175,50.774049],[2.142817,50.773443],[2.142882,50.772702],[2.144947,50.773227],[2.147078,50.773535],[2.148184,50.773813],[2.151046,50.770316],[2.151338,50.769977],[2.152867,50.768671],[2.151973,50.768321],[2.149387,50.767426],[2.146574,50.766192],[2.147663,50.765092],[2.150395,50.762798],[2.152184,50.763621],[2.152656,50.763847],[2.153566,50.764248],[2.154152,50.764351],[2.155436,50.764238],[2.156558,50.763868],[2.156949,50.763569],[2.157437,50.763014],[2.159437,50.761615],[2.161388,50.759568],[2.161941,50.758827],[2.162283,50.758179],[2.162933,50.757716],[2.163535,50.757665],[2.164803,50.757706],[2.166039,50.757654],[2.166511,50.757562],[2.168348,50.758488],[2.168641,50.758529],[2.169308,50.758776],[2.170235,50.758498],[2.170739,50.758272],[2.171357,50.757603],[2.171812,50.757336],[2.172446,50.757089],[2.173829,50.756914],[2.171877,50.756122],[2.171649,50.755566],[2.171633,50.75499],[2.171015,50.754115],[2.170674,50.752387],[2.169747,50.75213],[2.16747,50.751358],[2.166576,50.751194],[2.167535,50.749774],[2.165763,50.749208],[2.165437,50.748899],[2.164657,50.747973],[2.162559,50.747047],[2.16251,50.746821],[2.162559,50.745751],[2.161144,50.745257],[2.161876,50.744145],[2.162494,50.743446],[2.163584,50.742746],[2.165177,50.741459],[2.162966,50.740266],[2.162071,50.739864],[2.160998,50.738598],[2.161014,50.738249],[2.161193,50.737806],[2.161713,50.737456],[2.162315,50.736612],[2.163014,50.735923],[2.163258,50.735552],[2.163893,50.735336],[2.164771,50.734893],[2.166267,50.734338],[2.167633,50.733751],[2.168917,50.73337],[2.17121,50.732104],[2.172625,50.731651],[2.174024,50.731528],[2.175276,50.731239],[2.178122,50.732063],[2.179341,50.730395],[2.192042,50.724065],[2.191961,50.723818],[2.191635,50.723663],[2.191066,50.7232],[2.1917,50.722541],[2.193099,50.721748],[2.187082,50.719998],[2.186545,50.71868],[2.186594,50.71832],[2.186887,50.71764],[2.187001,50.716786],[2.186854,50.714665],[2.185797,50.709681],[2.185797,50.708816],[2.185553,50.708012],[2.185667,50.707611],[2.185992,50.707333],[2.186708,50.706808],[2.186773,50.706602],[2.187293,50.706241],[2.18783,50.706107],[2.187749,50.705603],[2.186903,50.705932],[2.186383,50.705984],[2.185749,50.705798],[2.185,50.705994],[2.184773,50.705788],[2.184773,50.705623],[2.183309,50.705757],[2.182773,50.705747],[2.182415,50.705139],[2.181797,50.704583],[2.181179,50.704408],[2.180024,50.704398],[2.179081,50.704048],[2.179032,50.703945],[2.17939,50.703852],[2.180236,50.703821],[2.180886,50.703656],[2.180187,50.70309],[2.179764,50.702163],[2.179813,50.701761],[2.180073,50.701184],[2.179943,50.70069],[2.179341,50.699917],[2.178528,50.699114],[2.177406,50.698135],[2.176772,50.697219],[2.175796,50.696498],[2.175016,50.695581],[2.174772,50.695117],[2.174479,50.69485],[2.174007,50.694747],[2.171812,50.693407],[2.170901,50.693109],[2.169861,50.692604],[2.169194,50.692089],[2.169422,50.691471],[2.169357,50.691193],[2.168966,50.690585],[2.168852,50.690224],[2.168641,50.689956],[2.169308,50.689441],[2.169535,50.689184],[2.17017,50.688844],[2.170788,50.687752],[2.171275,50.68667],[2.172007,50.685732],[2.173194,50.683641],[2.174316,50.682167],[2.175227,50.681518],[2.175878,50.681065],[2.177748,50.679447],[2.179585,50.678118],[2.180463,50.680075],[2.181862,50.68159],[2.182512,50.682136],[2.18396,50.682971],[2.185131,50.681539],[2.185488,50.680786],[2.18718,50.678519],[2.189212,50.676263],[2.189196,50.676005],[2.18757,50.675356],[2.193245,50.670048],[2.199783,50.668203],[2.199766,50.66607],[2.194481,50.661328],[2.196611,50.660473],[2.198059,50.659421],[2.196611,50.658689],[2.196075,50.657978],[2.194693,50.65739],[2.193213,50.656473],[2.19253,50.656132],[2.192074,50.655617],[2.193522,50.655225],[2.1944,50.654627],[2.19614,50.65373],[2.196384,50.653462],[2.18783,50.652462],[2.187944,50.651503],[2.187537,50.649616],[2.187489,50.648101],[2.187147,50.647348],[2.186171,50.646667],[2.185488,50.646079],[2.185797,50.645904],[2.18648,50.644976],[2.187115,50.644234],[2.187456,50.643584],[2.188952,50.642315],[2.189993,50.641666],[2.191863,50.640923],[2.191863,50.640614],[2.192351,50.640047],[2.192611,50.639562],[2.193018,50.639108],[2.193034,50.638469],[2.19279,50.636509],[2.19079,50.636241],[2.190221,50.636231],[2.189912,50.636282],[2.189017,50.636128],[2.18718,50.63556],[2.187407,50.63489],[2.186806,50.63423],[2.1877,50.633064],[2.187944,50.632569],[2.187863,50.63227],[2.188513,50.630362],[2.188676,50.629784],[2.188936,50.629279],[2.188936,50.628866],[2.189521,50.628164],[2.190286,50.626792],[2.191505,50.625214],[2.192107,50.623883],[2.191814,50.622975],[2.192855,50.622965],[2.194302,50.622759],[2.196221,50.622728],[2.197229,50.622408],[2.198075,50.622284],[2.199848,50.621686],[2.200433,50.621593],[2.201425,50.621304],[2.20432,50.621221],[2.205198,50.621067],[2.206824,50.621067],[2.207491,50.620582],[2.208336,50.619777],[2.208613,50.619364],[2.207967,50.619121],[2.208028,50.618904],[2.208529,50.618543],[2.208559,50.618399],[2.209098,50.618245],[2.209955,50.618177],[2.210807,50.618246],[2.212271,50.618103],[2.212445,50.617948],[2.212498,50.617727],[2.213526,50.617926],[2.214258,50.617959],[2.215304,50.616411],[2.2156,50.616422],[2.217099,50.616997],[2.217796,50.617251],[2.218476,50.617705],[2.221892,50.619109],[2.223129,50.619618],[2.224524,50.620436],[2.228097,50.622106],[2.230362,50.623079],[2.231547,50.623621],[2.23268,50.623963],[2.233604,50.624041],[2.23526,50.624804],[2.236462,50.62529],[2.237351,50.625522],[2.239757,50.626606],[2.241743,50.628021],[2.242772,50.629105],[2.243713,50.629812],[2.244445,50.629945],[2.246815,50.630288],[2.248767,50.63105],[2.250284,50.631216],[2.251417,50.63094],[2.251852,50.631073],[2.252689,50.632101],[2.255042,50.633317],[2.255791,50.633361],[2.256192,50.633836],[2.259992,50.63555],[2.261048,50.63475],[2.262873,50.633835],[2.265441,50.633855],[2.267945,50.633461],[2.271767,50.632361],[2.273321,50.631129],[2.275199,50.630603],[2.276775,50.629613],[2.277879,50.629168],[2.280078,50.628477],[2.283533,50.626616],[2.285626,50.625181],[2.287869,50.624291],[2.291227,50.622422],[2.299759,50.618571],[2.302095,50.617931],[2.302883,50.617054],[2.304073,50.616373],[2.305735,50.615692],[2.307675,50.614529],[2.310271,50.613255],[2.311183,50.612945],[2.312159,50.612103],[2.314756,50.61147],[2.315589,50.61093],[2.316065,50.610439],[2.316675,50.610123],[2.317511,50.609594],[2.318218,50.609297],[2.321804,50.611102],[2.324286,50.609185],[2.326424,50.607868],[2.323712,50.606642],[2.327036,50.605091],[2.33006,50.603432],[2.333953,50.601432],[2.337803,50.599868],[2.340476,50.598529],[2.341475,50.597898],[2.340505,50.597267],[2.341081,50.596409],[2.337256,50.595299],[2.336061,50.59445],[2.335516,50.593751],[2.33527,50.592952],[2.335575,50.591663],[2.333693,50.590901],[2.332927,50.590765],[2.332947,50.590518],[2.331949,50.589481],[2.331079,50.588826],[2.330133,50.587322],[2.329905,50.586712],[2.330566,50.586173],[2.329367,50.5848],[2.327233,50.583861],[2.326453,50.582594],[2.326167,50.581802],[2.325034,50.580722],[2.325372,50.579473],[2.327887,50.576589],[2.328899,50.575804],[2.331175,50.575037],[2.334928,50.574434],[2.33719,50.572938],[2.34131,50.570241],[2.341095,50.570125],[2.34882,50.565553],[2.351224,50.564443],[2.354014,50.563497],[2.356419,50.562616],[2.364262,50.559826],[2.358075,50.558189],[2.357845,50.557693],[2.357937,50.557254],[2.358121,50.556232],[2.357362,50.555852],[2.359156,50.554712],[2.361534,50.555917],[2.36301,50.556202],[2.363713,50.556299],[2.365382,50.555843],[2.366794,50.555687],[2.367832,50.55527],[2.368826,50.554989],[2.369985,50.553851],[2.370869,50.55254],[2.371685,50.552152],[2.372264,50.551478],[2.376024,50.550077],[2.387005,50.541311],[2.38772,50.540414],[2.3905,50.538153],[2.392233,50.536413],[2.393151,50.535246],[2.393057,50.534014],[2.392619,50.532481],[2.391767,50.532161],[2.391566,50.531363],[2.391758,50.531189],[2.392091,50.531312],[2.39355,50.531523],[2.393786,50.531059],[2.394011,50.530425],[2.394204,50.530207],[2.394655,50.529934],[2.394977,50.529688],[2.395234,50.529497],[2.395962,50.529056],[2.397015,50.528795],[2.397916,50.528434],[2.398292,50.528318],[2.398453,50.52842],[2.398658,50.529145],[2.399186,50.529738],[2.399693,50.529815],[2.399693,50.528977],[2.400066,50.528421],[2.400779,50.527717],[2.402051,50.527038],[2.402514,50.526722],[2.403174,50.526067],[2.406964,50.524036],[2.411433,50.520414],[2.416919,50.524104],[2.424839,50.518547],[2.426807,50.519593],[2.426724,50.519895],[2.428596,50.520987],[2.432459,50.518307],[2.432984,50.517694],[2.43456,50.51678],[2.435437,50.516099],[2.436668,50.516625],[2.439178,50.518783],[2.440719,50.519781],[2.442225,50.521115],[2.442814,50.52096],[2.442903,50.521701],[2.444565,50.523242],[2.445116,50.523437],[2.446465,50.52483],[2.447191,50.524791],[2.448109,50.524304],[2.448592,50.524823],[2.449296,50.525194],[2.449898,50.525453],[2.449375,50.525765],[2.449107,50.526139],[2.449076,50.526526],[2.449277,50.526979],[2.450313,50.527889],[2.448951,50.527724],[2.448913,50.528036],[2.448983,50.528441],[2.448505,50.528564],[2.446728,50.529516],[2.448421,50.531334],[2.449324,50.532455],[2.449412,50.533627],[2.44908,50.534335],[2.448528,50.535085],[2.448341,50.535917],[2.4488,50.537187],[2.451297,50.542104],[2.451595,50.541837],[2.452249,50.541457],[2.452643,50.541117],[2.45238,50.540816],[2.45309,50.54008],[2.453799,50.540033],[2.454752,50.539831],[2.455516,50.539526],[2.456524,50.539303],[2.457798,50.538732],[2.458792,50.538203],[2.460009,50.537717],[2.461645,50.536808],[2.462615,50.536417],[2.462867,50.536058],[2.463678,50.535479],[2.464427,50.53521],[2.464769,50.534797],[2.467016,50.534058],[2.466615,50.533594],[2.466408,50.532921],[2.466931,50.532268],[2.467697,50.531615],[2.468609,50.530582],[2.468764,50.530017],[2.469198,50.529308],[2.471415,50.528064],[2.471863,50.527934],[2.47417,50.526846],[2.475692,50.52572],[2.474832,50.525079],[2.477819,50.523609],[2.478945,50.522809],[2.479997,50.522234],[2.480702,50.522715],[2.485518,50.525131],[2.487535,50.525523],[2.488559,50.525629],[2.489106,50.525468],[2.49005,50.524795],[2.4914,50.523366],[2.492772,50.522223],[2.49412,50.520701],[2.495274,50.520012],[2.496291,50.519333],[2.49719,50.519016],[2.497968,50.519065],[2.499315,50.518385],[2.500103,50.517767],[2.502812,50.516419],[2.503482,50.515978],[2.50385,50.515287],[2.504443,50.514773],[2.503046,50.513979],[2.503031,50.513824],[2.503338,50.513573],[2.503237,50.51255],[2.501932,50.512167],[2.502769,50.510908],[2.502572,50.510686],[2.501128,50.510234],[2.499936,50.509522],[2.501083,50.508987],[2.497796,50.508318],[2.497963,50.50788],[2.497958,50.507496],[2.498556,50.50708],[2.498817,50.506806],[2.49882,50.506341],[2.501557,50.502785],[2.50266,50.501882],[2.504793,50.502119],[2.50562,50.502139],[2.505896,50.501917],[2.505855,50.501854],[2.506038,50.501657],[2.505846,50.501596],[2.506112,50.501187],[2.506435,50.500661],[2.506957,50.50036],[2.507704,50.500489],[2.508256,50.500337],[2.508607,50.500304],[2.50878,50.500173],[2.508734,50.499982],[2.508176,50.499507],[2.508182,50.499156],[2.507492,50.498582],[2.506682,50.498298],[2.506566,50.498018],[2.505883,50.497796],[2.505324,50.49788],[2.505048,50.497499],[2.50372,50.497199],[2.50335,50.497159],[2.502193,50.496726],[2.50153,50.49628],[2.500903,50.495396],[2.500552,50.49427],[2.499517,50.493509],[2.500502,50.493003],[2.501121,50.492175],[2.501714,50.491657],[2.506298,50.488315],[2.506687,50.487786],[2.509085,50.488677],[2.510517,50.489282],[2.51092,50.488878],[2.510893,50.488333],[2.511636,50.487725],[2.51308,50.485916],[2.515384,50.482785],[2.517545,50.482849],[2.519019,50.482803],[2.525089,50.483261],[2.528429,50.483164],[2.529441,50.481802],[2.529457,50.481139],[2.529257,50.480453],[2.529361,50.479851],[2.529855,50.47928],[2.530628,50.478824],[2.530989,50.478115],[2.530448,50.477602],[2.530639,50.4775],[2.531068,50.477807],[2.531167,50.477576],[2.530975,50.476958],[2.53089,50.47655],[2.530995,50.476441],[2.530909,50.476323],[2.531398,50.475954],[2.531837,50.476259],[2.534606,50.47473],[2.536139,50.475899],[2.536426,50.47565],[2.536465,50.475853],[2.537475,50.475156],[2.536754,50.474974],[2.536622,50.474812],[2.528676,50.472133],[2.527271,50.471478],[2.526516,50.470996],[2.525969,50.470524],[2.525484,50.469914],[2.525043,50.468985],[2.524462,50.466092],[2.524453,50.465147],[2.524772,50.464272],[2.527349,50.459731],[2.528496,50.457966],[2.528766,50.456707],[2.528537,50.455727],[2.528094,50.455103],[2.524743,50.450441],[2.527739,50.448558],[2.530713,50.446833],[2.53275,50.445335],[2.53409,50.44449],[2.534765,50.443844],[2.535477,50.443542],[2.535682,50.443344],[2.537433,50.442403],[2.540005,50.440757],[2.540902,50.440314],[2.541554,50.440516],[2.542828,50.440335],[2.543657,50.440527],[2.546094,50.440715],[2.547141,50.440593],[2.548399,50.440274],[2.549343,50.439905],[2.550738,50.44024],[2.551514,50.44004],[2.551946,50.439485],[2.552566,50.439508],[2.55282,50.439656],[2.553178,50.439629],[2.554266,50.440038],[2.555265,50.441655],[2.557735,50.439728],[2.561008,50.43659],[2.563667,50.435247],[2.564264,50.43564],[2.567329,50.437723],[2.571177,50.439182],[2.57153,50.439482],[2.571751,50.44001],[2.571445,50.440753],[2.571788,50.441381],[2.573075,50.442393],[2.573869,50.443199],[2.57408,50.442147],[2.574947,50.441305],[2.577454,50.43966],[2.577837,50.439532],[2.578908,50.438834],[2.579821,50.438843],[2.581861,50.437534],[2.582781,50.437042],[2.583746,50.43711],[2.583987,50.436948],[2.584023,50.436615],[2.584405,50.436448],[2.585306,50.436461],[2.586122,50.436106],[2.586615,50.436106],[2.587648,50.435411],[2.587259,50.43489],[2.586759,50.434511],[2.586422,50.434042],[2.586508,50.433619],[2.58698,50.433386],[2.589169,50.43258],[2.590907,50.432293],[2.591851,50.432812],[2.592516,50.432935],[2.594554,50.432443],[2.596164,50.43258],[2.596397,50.432524],[2.596164,50.431486],[2.597127,50.431207],[2.600327,50.430844],[2.601811,50.428067],[2.600703,50.427982],[2.597235,50.427363],[2.596529,50.425677],[2.59615,50.42563],[2.596468,50.425011],[2.596893,50.424734],[2.597506,50.424509],[2.598391,50.424356],[2.599341,50.42449],[2.601392,50.423908],[2.601666,50.42413],[2.602799,50.423477],[2.601945,50.422211],[2.60211,50.421903],[2.603288,50.421548],[2.604337,50.421254],[2.60538,50.420661],[2.607217,50.419904],[2.611291,50.420372],[2.617278,50.425759],[2.617407,50.426224],[2.620111,50.426766],[2.621379,50.427795],[2.623608,50.42703],[2.624702,50.426784],[2.626526,50.426688],[2.629273,50.426347],[2.63114,50.42621],[2.63232,50.426169],[2.633592,50.425912],[2.633972,50.425786],[2.633629,50.4239],[2.633672,50.423202],[2.635281,50.423079],[2.636998,50.423435],[2.638264,50.423517],[2.641783,50.42446],[2.642091,50.424849],[2.64292,50.424487],[2.646551,50.423528],[2.64688,50.424889],[2.64724,50.42596],[2.647561,50.427019],[2.647571,50.427682],[2.648241,50.429314],[2.648542,50.429856],[2.651645,50.427784],[2.653016,50.426968],[2.65636,50.425494],[2.658702,50.424774],[2.659423,50.424398],[2.659933,50.423875],[2.661725,50.422542],[2.660844,50.421808],[2.663564,50.420598],[2.665369,50.419804],[2.667346,50.419102],[2.667595,50.419287],[2.670058,50.418562],[2.674562,50.417911],[2.675541,50.417539],[2.676327,50.417414],[2.678719,50.415987],[2.682098,50.417998],[2.683007,50.417365],[2.683431,50.416825],[2.684383,50.417076],[2.684819,50.41558],[2.685171,50.415101],[2.684559,50.413161],[2.684747,50.412393],[2.686966,50.411571],[2.688526,50.410455],[2.688519,50.409789],[2.689091,50.409464],[2.688532,50.408892],[2.689286,50.407964],[2.691257,50.406982],[2.693951,50.406768],[2.694886,50.406527],[2.695604,50.40554],[2.696556,50.404742],[2.69715,50.403913],[2.701568,50.402944],[2.702253,50.403025],[2.705106,50.402828],[2.708204,50.402174],[2.710032,50.401414],[2.711997,50.400541],[2.713662,50.400202],[2.713912,50.399735],[2.715421,50.399407],[2.716493,50.399384],[2.71748,50.399662],[2.717824,50.399008],[2.71714,50.3967],[2.716843,50.394555],[2.716345,50.394471],[2.714678,50.394529],[2.713989,50.39485],[2.713,50.395035],[2.712456,50.394901],[2.710308,50.395117],[2.709019,50.395733],[2.708614,50.39565],[2.706415,50.395996],[2.706035,50.396342],[2.704977,50.395399],[2.704434,50.394592],[2.703166,50.392863],[2.701826,50.39149],[2.701205,50.39019],[2.699542,50.388608],[2.69856,50.38733],[2.698667,50.386796],[2.698581,50.386099],[2.698729,50.385259],[2.699182,50.383622],[2.699701,50.382533],[2.700398,50.381635],[2.70118,50.381555],[2.702072,50.381646],[2.703887,50.38134],[2.705374,50.379673],[2.704389,50.379347],[2.703345,50.379038],[2.702615,50.378614],[2.702457,50.37798],[2.703467,50.37589],[2.703075,50.37539],[2.704188,50.373629],[2.703861,50.373036],[2.706331,50.370478],[2.707465,50.370472],[2.708515,50.369343],[2.710327,50.368502],[2.713556,50.366456],[2.71461,50.365845],[2.715061,50.365339],[2.715168,50.364504],[2.715898,50.363354],[2.716048,50.362779],[2.716219,50.360658],[2.717206,50.358714],[2.718258,50.356852],[2.716949,50.356304],[2.715855,50.356113],[2.708173,50.355524],[2.7068,50.35625],[2.703229,50.354174],[2.69985,50.353146],[2.694613,50.351718],[2.693027,50.350692],[2.692449,50.349981],[2.690577,50.350464],[2.68986,50.349514],[2.689665,50.348468],[2.688254,50.347431],[2.688971,50.346453],[2.686733,50.345341],[2.686048,50.344594],[2.685352,50.344264],[2.683969,50.344036],[2.683797,50.343735],[2.683733,50.343009],[2.683153,50.342859],[2.682338,50.342886],[2.681758,50.342708],[2.681758,50.342174],[2.678132,50.340517],[2.677672,50.340171],[2.68097,50.339515],[2.682252,50.338942],[2.683368,50.338161],[2.684029,50.338359],[2.688555,50.337444],[2.687991,50.33634],[2.686741,50.335795],[2.6865,50.33487],[2.686516,50.334053],[2.68599,50.333818],[2.687611,50.331174],[2.688024,50.330012],[2.688288,50.328849],[2.688981,50.328387],[2.690537,50.327762],[2.691765,50.327052],[2.69338,50.326507],[2.696045,50.324673],[2.698839,50.321409],[2.69988,50.321922],[2.701425,50.321722],[2.702208,50.322135],[2.702745,50.322711],[2.704295,50.322135],[2.704901,50.322113],[2.705079,50.322501],[2.706637,50.322],[2.707,50.320726],[2.706372,50.319982],[2.706088,50.319374],[2.706646,50.318223],[2.707872,50.317888],[2.706948,50.317174],[2.708956,50.316101],[2.709549,50.315423],[2.710368,50.315401],[2.711317,50.314753],[2.711983,50.314544],[2.712434,50.314225],[2.714245,50.313667],[2.715442,50.313602],[2.71637,50.312955],[2.716799,50.31253],[2.715747,50.312297],[2.714978,50.310479],[2.71594,50.309543],[2.717902,50.308695],[2.720255,50.307984],[2.729856,50.306899],[2.731562,50.306473],[2.731798,50.306528],[2.734973,50.305884],[2.737935,50.305815],[2.740273,50.305665],[2.741539,50.305212],[2.743716,50.305999],[2.744486,50.306823],[2.744795,50.30683],[2.744997,50.306412],[2.748449,50.30427],[2.75085,50.30232],[2.7519,50.301261],[2.752693,50.300052],[2.755716,50.301528],[2.756195,50.301284],[2.757005,50.301151],[2.757876,50.301308],[2.758587,50.301565],[2.759308,50.301446],[2.759764,50.301151],[2.761259,50.301388],[2.761653,50.300122],[2.762106,50.29996],[2.762345,50.299497],[2.762611,50.299031],[2.762697,50.297167],[2.762522,50.29682],[2.766948,50.293431],[2.768447,50.292849],[2.770125,50.291743],[2.773526,50.290007],[2.777009,50.288585],[2.780135,50.287411],[2.780268,50.286797],[2.780268,50.286797],[2.780225,50.286852],[2.778115,50.285148],[2.779688,50.283222],[2.780518,50.281534],[2.781704,50.279524],[2.781798,50.278264],[2.783552,50.274207],[2.784141,50.272352],[2.78442,50.269744],[2.785078,50.266506],[2.784841,50.265824],[2.784211,50.264925],[2.784246,50.263543],[2.787146,50.25887],[2.786447,50.258332],[2.786434,50.254956],[2.786554,50.253676],[2.786334,50.252089],[2.786275,50.24857],[2.786615,50.247224],[2.787075,50.246315],[2.787135,50.243665],[2.787696,50.241834],[2.787736,50.240835],[2.787175,50.237339],[2.787315,50.236724],[2.788216,50.235521],[2.789135,50.231045],[2.789277,50.227632],[2.789043,50.226796],[2.789478,50.225006],[2.789538,50.224148],[2.790033,50.223249],[2.789978,50.221214],[2.790218,50.219972],[2.790258,50.21887],[2.789938,50.218127],[2.789898,50.216897],[2.790831,50.216092],[2.792528,50.214062],[2.792649,50.21327],[2.793392,50.21215],[2.792126,50.211855],[2.791077,50.21183],[2.790724,50.211551],[2.799412,50.208907],[2.807683,50.202867],[2.809295,50.202158],[2.810539,50.201932],[2.81094,50.201445],[2.807716,50.199446],[2.807329,50.198865],[2.805365,50.197989],[2.804353,50.197305],[2.803959,50.19692],[2.802112,50.195537],[2.802751,50.195088],[2.803024,50.194689],[2.803012,50.191833],[2.803336,50.187398],[2.803818,50.186608],[2.803459,50.18618],[2.804211,50.181875],[2.805559,50.180213],[2.802871,50.1795],[2.80169,50.179257],[2.80137,50.178167],[2.800809,50.177052],[2.799888,50.17491],[2.799548,50.172135],[2.796193,50.16565],[2.794363,50.161342],[2.7916,50.162061],[2.790919,50.162176],[2.788484,50.162206],[2.789468,50.161212],[2.790582,50.160483],[2.791139,50.159842],[2.79198,50.159149],[2.793007,50.15721],[2.794695,50.154956],[2.795117,50.153788],[2.797462,50.152648],[2.797029,50.152288],[2.79777,50.151686],[2.79829,50.150808],[2.799283,50.14993],[2.79936,50.149329],[2.800367,50.147817],[2.801898,50.14696],[2.802695,50.145908],[2.804799,50.147197],[2.807466,50.145581],[2.808843,50.144539],[2.81052,50.143745],[2.811571,50.14283],[2.813282,50.1421],[2.819889,50.138687],[2.822102,50.136887],[2.823988,50.13602],[2.825034,50.134696],[2.826378,50.133589],[2.826853,50.132774],[2.831161,50.133105],[2.832589,50.133373],[2.832983,50.133292],[2.83332,50.13289],[2.833231,50.131466],[2.833423,50.130936],[2.833263,50.129947],[2.832142,50.129216],[2.831781,50.128613],[2.831651,50.127819],[2.8323,50.126608],[2.837087,50.122375],[2.837467,50.121489],[2.838168,50.120975],[2.838918,50.120508],[2.838989,50.118459],[2.839269,50.117432],[2.839218,50.116756],[2.838668,50.115584],[2.838208,50.114582],[2.837527,50.113658],[2.837218,50.112563],[2.837418,50.110966],[2.837868,50.109716],[2.837808,50.108715],[2.838563,50.107812],[2.839905,50.107619],[2.837934,50.1058],[2.841131,50.104554],[2.84019,50.104054],[2.84059,50.103784],[2.841732,50.103579],[2.842965,50.103557],[2.843714,50.103103],[2.844474,50.102256],[2.845332,50.102719],[2.846429,50.10281],[2.847155,50.102491],[2.847602,50.101939],[2.846602,50.101631],[2.846535,50.101195],[2.847264,50.10027],[2.848715,50.100732],[2.848747,50.101012],[2.84956,50.100985],[2.84978,50.100676],[2.851442,50.101318],[2.853504,50.09997],[2.855666,50.098878],[2.855766,50.09717],[2.856023,50.095358],[2.856283,50.095149],[2.857611,50.09386],[2.858276,50.092808],[2.859369,50.092031],[2.860398,50.09045],[2.85965,50.087691],[2.85947,50.087306],[2.858343,50.086274],[2.857428,50.085918],[2.856807,50.084274],[2.855135,50.080983],[2.854905,50.079224],[2.855512,50.079128],[2.860113,50.077738],[2.862702,50.077499],[2.865937,50.077876],[2.868079,50.077979],[2.871723,50.077966],[2.873772,50.078279],[2.875945,50.078221],[2.878075,50.078631],[2.878855,50.077727],[2.879722,50.078519],[2.879691,50.078737],[2.879971,50.079418],[2.880091,50.080536],[2.880732,50.083118],[2.881096,50.085796],[2.884196,50.087267],[2.886239,50.085849],[2.88898,50.085405],[2.891464,50.084863],[2.891942,50.085584],[2.893598,50.089405],[2.894126,50.09035],[2.894776,50.091298],[2.898847,50.091591],[2.899051,50.090299],[2.899014,50.089137],[2.900254,50.086055],[2.902985,50.085044],[2.904729,50.083882],[2.90788,50.084685],[2.911804,50.081204],[2.913125,50.080574],[2.9149,50.080012],[2.918159,50.078111],[2.921094,50.077272],[2.922092,50.077382],[2.922538,50.077239],[2.923837,50.075705],[2.925885,50.075132],[2.927196,50.073676],[2.928201,50.07167],[2.929311,50.071002],[2.929105,50.070407],[2.928561,50.069912],[2.927393,50.069047],[2.920564,50.065932],[2.922856,50.063163],[2.924137,50.062109],[2.925879,50.060991],[2.928682,50.059782],[2.931024,50.058484],[2.929018,50.057251],[2.927697,50.056213],[2.928295,50.053869],[2.9281,50.052668],[2.926908,50.050723],[2.925566,50.049351],[2.925001,50.047911],[2.924998,50.047236],[2.924597,50.045963],[2.924717,50.045423],[2.925666,50.043555],[2.924878,50.042196],[2.924003,50.03534],[2.923439,50.032937],[2.92224,50.030279],[2.921995,50.029272],[2.922015,50.028321],[2.921539,50.026501],[2.91779,50.021118],[2.912041,50.014077],[2.911908,50.013332],[2.912089,50.012386],[2.914307,50.011559],[2.914279,50.010094],[2.914575,50.009763],[2.91713,50.007751],[2.918248,50.007043],[2.918944,50.006258],[2.919912,50.005435],[2.920551,50.004337],[2.921354,50.00353],[2.921454,50.001729],[2.921734,50.001214],[2.921654,50.000172],[2.921995,49.997984],[2.920702,49.995815],[2.920354,49.994488],[2.919921,49.993768],[2.919752,49.992565],[2.919752,49.991793],[2.919452,49.990673],[2.91943,49.989833],[2.919609,49.988349],[2.9203,49.986939],[2.922233,49.984848],[2.921474,49.984301],[2.921554,49.984018],[2.92225,49.98426],[2.923728,49.983475],[2.9275,49.980414],[2.929431,49.978742],[2.929582,49.97744],[2.929843,49.97668],[2.929723,49.975225],[2.930023,49.974079],[2.930864,49.969224],[2.931084,49.965168],[2.930944,49.963841],[2.931244,49.962502],[2.931284,49.961768],[2.931052,49.961203],[2.931289,49.960937],[2.932365,49.960815],[2.934407,49.960995],[2.935769,49.961124],[2.93645,49.961549],[2.93687,49.962116],[2.937431,49.96227],[2.937971,49.962116],[2.938472,49.961601],[2.939052,49.961497],[2.940294,49.961794],[2.941215,49.961755],[2.941726,49.961593],[2.9429,49.961026],[2.943203,49.958872],[2.942816,49.95869],[2.941635,49.958651],[2.932866,49.956719],[2.93419,49.95488],[2.937931,49.952468],[2.936935,49.951949],[2.934886,49.950035],[2.932196,49.948719],[2.933948,49.947516],[2.935958,49.946396],[2.938331,49.94574],[2.937024,49.944424],[2.934442,49.942574],[2.932726,49.940649],[2.931632,49.939027],[2.930792,49.9361],[2.931208,49.935439],[2.932062,49.934585],[2.930626,49.93412],[2.930477,49.932717],[2.931499,49.932235],[2.932063,49.931345],[2.932146,49.929749],[2.932546,49.929443],[2.932526,49.929031],[2.933987,49.928695],[2.934448,49.929005],[2.935208,49.928051],[2.936149,49.927548],[2.938792,49.929108],[2.940498,49.92792],[2.941114,49.927948],[2.941855,49.928231],[2.943041,49.929046],[2.945702,49.92984],[2.948127,49.930034],[2.950509,49.929661],[2.951966,49.929056],[2.952804,49.928556],[2.956131,49.92571],[2.959073,49.923746],[2.962256,49.921581],[2.96554,49.919364],[2.969026,49.917047],[2.970507,49.916453],[2.971966,49.916102],[2.986192,49.914049],[2.998957,49.914383],[3.002315,49.914797],[3.00438,49.915277],[3.00464,49.915032],[3.005601,49.915071],[3.006342,49.915432],[3.007186,49.914804],[3.008004,49.914852],[3.008424,49.914774],[3.008844,49.915084],[3.009545,49.914929],[3.010223,49.914328],[3.011207,49.914117],[3.011848,49.913807],[3.012869,49.912402],[3.014651,49.911848],[3.015334,49.911229],[3.017593,49.910092],[3.020276,49.908998],[3.021337,49.908405],[3.022659,49.908044],[3.024541,49.906819],[3.026122,49.905968],[3.02638,49.904972],[3.028826,49.903521],[3.029899,49.902282],[3.031229,49.901802],[3.034641,49.899747],[3.035693,49.898853],[3.036487,49.898509],[3.037574,49.897522],[3.039136,49.896709],[3.040818,49.89542],[3.040778,49.895033],[3.042109,49.894938],[3.041819,49.893111],[3.044561,49.893021],[3.045617,49.892643],[3.047982,49.892526],[3.050728,49.892673],[3.05309,49.892247],[3.055333,49.891989],[3.056754,49.891718],[3.05907,49.890659],[3.060755,49.890335],[3.064282,49.890467],[3.064736,49.889231],[3.06494,49.887823],[3.065433,49.887663],[3.065991,49.886595],[3.066635,49.883934],[3.06391,49.881459],[3.062365,49.878334],[3.06252,49.875296],[3.06234,49.874535],[3.062472,49.873909],[3.061759,49.87158],[3.061959,49.870354],[3.063201,49.868199],[3.065755,49.866469],[3.067285,49.864625],[3.068651,49.862706],[3.070261,49.861904],[3.071009,49.861979],[3.07211,49.861966],[3.073501,49.862132],[3.07436,49.862388],[3.077055,49.861953],[3.078039,49.862789],[3.079638,49.86345],[3.083502,49.863592],[3.085593,49.864193],[3.086183,49.86402],[3.086644,49.860272],[3.086054,49.859552],[3.087025,49.859475],[3.09149,49.858494],[3.093672,49.858352],[3.094093,49.857823],[3.094733,49.857436],[3.095454,49.857539],[3.097236,49.857475],[3.100419,49.856842],[3.105183,49.855499],[3.11045,49.854609],[3.113973,49.853886],[3.117103,49.85334],[3.119206,49.852476],[3.125471,49.850574],[3.127527,49.853215],[3.127848,49.854635],[3.128929,49.856016],[3.131251,49.857475],[3.131812,49.8575],[3.132352,49.857436],[3.133013,49.857733],[3.133947,49.856647],[3.135685,49.856038],[3.138359,49.855771],[3.144485,49.85488],[3.146227,49.854519],[3.148378,49.854627],[3.156371,49.854544],[3.160662,49.855939],[3.164267,49.855928],[3.165683,49.855249],[3.167168,49.855926],[3.169599,49.854302],[3.169942,49.853563],[3.170435,49.853328],[3.171036,49.853175],[3.171573,49.852913],[3.171337,49.852553],[3.171594,49.85211],[3.171508,49.851488],[3.171422,49.850284],[3.173375,49.848541],[3.173697,49.847876],[3.174233,49.847544],[3.176851,49.846631],[3.177924,49.845178],[3.178139,49.845068],[3.178353,49.844625],[3.179276,49.843615],[3.179576,49.842798],[3.180177,49.841871],[3.180714,49.84075],[3.183675,49.83754],[3.185198,49.835893],[3.18728,49.834093],[3.187623,49.833692],[3.189147,49.833609],[3.193095,49.833069],[3.19464,49.833208],[3.196099,49.832986],[3.196914,49.832682],[3.198309,49.832737],[3.200047,49.833166],[3.203609,49.834592],[3.204703,49.834716],[3.205841,49.834993],[3.208244,49.835976],[3.209746,49.836266],[3.21172,49.836861],[3.211892,49.836737],[3.213909,49.837401],[3.220947,49.839532],[3.222685,49.839892],[3.223093,49.839602],[3.224401,49.839311],[3.226247,49.8392],[3.236139,49.839159],[3.248949,49.840044],[3.250537,49.839906],[3.251889,49.839602],[3.257704,49.837567],[3.259528,49.837041],[3.261223,49.836848],[3.263884,49.836806],[3.265128,49.837041],[3.270493,49.838619],[3.271801,49.838854],[3.273218,49.839007],[3.27685,49.842477],[3.277462,49.842925]]],"type":"MultiLineString"},"properties":{"geo_point":{"lon":2.4320847081655095,"lat":50.46353844087322},"name":"GR145 Via Francigena (2020)","code_gr":"GR145"}},{"type":"Feature","geometry":{"coordinates":[[[1.850732,50.960832],[1.850303,50.961237],[1.848286,50.96094],[1.847985,50.961454],[1.847599,50.961454],[1.846398,50.963819],[1.842085,50.96544],[1.8373,50.963589],[1.832064,50.962427],[1.829446,50.961913],[1.829017,50.96167],[1.828674,50.961724],[1.826935,50.961305],[1.826785,50.961427],[1.825734,50.96121],[1.825455,50.961967],[1.823953,50.961602],[1.822175,50.961399],[1.819257,50.960859],[1.818506,50.960859],[1.817175,50.960467],[1.814236,50.960129],[1.812056,50.959772],[1.812146,50.959413],[1.812417,50.959255],[1.812648,50.958372],[1.812276,50.958423],[1.810204,50.95836],[1.809584,50.958202],[1.808813,50.957786],[1.808743,50.957691],[1.808823,50.95759],[1.808492,50.957351],[1.808072,50.957225],[1.807131,50.957092],[1.806125,50.956912],[1.80579,50.956853],[1.805179,50.956909],[1.803758,50.956922],[1.802134,50.956763],[1.800995,50.957345],[1.799966,50.957507],[1.798057,50.957034],[1.797551,50.957023],[1.796683,50.956871],[1.79657,50.956708],[1.79618,50.956676],[1.795889,50.956708],[1.795529,50.956619],[1.794495,50.956574],[1.794194,50.956331],[1.793851,50.956371],[1.793336,50.956277],[1.793036,50.956147],[1.792656,50.956203],[1.792413,50.956317],[1.792027,50.956223],[1.791685,50.956172],[1.791395,50.955756],[1.790225,50.955668],[1.789602,50.955696],[1.788712,50.95532],[1.787714,50.955385],[1.78708,50.955447],[1.78644,50.955182],[1.785789,50.955049],[1.784848,50.955024],[1.784302,50.954993],[1.78368,50.95483],[1.782092,50.954182],[1.782065,50.953908],[1.781899,50.953803],[1.780676,50.953654],[1.779603,50.953898],[1.779303,50.953763],[1.778122,50.953614],[1.776513,50.953006],[1.77632,50.952762],[1.775827,50.952708],[1.775075,50.952789],[1.775059,50.952019],[1.76839,50.95015],[1.762479,50.948745],[1.761184,50.948434],[1.75757,50.947103],[1.754867,50.946321],[1.751634,50.945426],[1.750593,50.945199],[1.749662,50.945123],[1.749047,50.94499],[1.744376,50.943521],[1.743505,50.943161],[1.742825,50.942772],[1.741864,50.942152],[1.741832,50.941855],[1.737396,50.939189],[1.736495,50.938567],[1.735465,50.937999],[1.73452,50.937282],[1.733147,50.935376],[1.732267,50.934524],[1.730594,50.933144],[1.729714,50.932062],[1.72965,50.931156],[1.729435,50.930183],[1.7301,50.929724],[1.72965,50.928182],[1.729714,50.927614],[1.731001,50.925532],[1.730165,50.925248],[1.728727,50.925261],[1.727697,50.924774],[1.726667,50.923949],[1.726216,50.923949],[1.724865,50.923178],[1.723792,50.922935],[1.721925,50.922853],[1.72156,50.922718],[1.721002,50.922786],[1.718256,50.922367],[1.717719,50.922542],[1.717655,50.922867],[1.718234,50.923489],[1.71729,50.923814],[1.714071,50.924964],[1.71394,50.924898],[1.71326,50.925118],[1.712737,50.925118],[1.71211,50.924865],[1.711848,50.924613],[1.710837,50.924118],[1.711116,50.923712],[1.711046,50.923514],[1.710384,50.923097],[1.709478,50.922833],[1.708833,50.922756],[1.70824,50.92258],[1.70845,50.922295],[1.708293,50.922108],[1.707752,50.921932],[1.70716,50.921954],[1.707526,50.92178],[1.707526,50.921592],[1.706261,50.922092],[1.70518,50.922585],[1.704617,50.922643],[1.703306,50.921693],[1.703129,50.921434],[1.703486,50.921131],[1.70347,50.920957],[1.702868,50.921044],[1.701763,50.920701],[1.700379,50.919758],[1.699128,50.918827],[1.697372,50.917791],[1.696382,50.917167],[1.694196,50.916083],[1.693188,50.915247],[1.693038,50.915012],[1.692366,50.914658],[1.689433,50.911738],[1.688051,50.910171],[1.684464,50.906826],[1.683792,50.90672],[1.68254,50.905518],[1.68198,50.904847],[1.680691,50.903787],[1.680579,50.903528],[1.678692,50.901784],[1.676301,50.89977],[1.674993,50.898533],[1.674433,50.898191],[1.674115,50.897814],[1.673686,50.897555],[1.673518,50.897366],[1.673032,50.896977],[1.672677,50.896848],[1.671108,50.895658],[1.670529,50.89488],[1.669718,50.894681],[1.664933,50.891717],[1.66223,50.889917],[1.661414,50.889159],[1.660663,50.887886],[1.66233,50.88687],[1.66305,50.88683],[1.66356,50.88661],[1.663088,50.885871],[1.66327,50.885458],[1.66445,50.885627],[1.66754,50.8832],[1.67019,50.88249],[1.67132,50.88192],[1.673758,50.879385],[1.67535,50.8789],[1.6769,50.87754],[1.67762,50.87744],[1.6784,50.87757],[1.681153,50.877181],[1.68205,50.87682],[1.68265,50.87724],[1.688988,50.878101],[1.693953,50.878528],[1.6974,50.87896],[1.698857,50.877684],[1.69877,50.87647],[1.6979,50.87313],[1.70183,50.87257],[1.70187,50.871845],[1.70264,50.8715],[1.70344,50.87094],[1.70367,50.87053],[1.70415,50.87064],[1.705647,50.869888],[1.707447,50.869174],[1.71092,50.86743],[1.715229,50.866592],[1.71795,50.86589],[1.718143,50.866121],[1.719537,50.866515],[1.72243,50.86711],[1.73572,50.87279],[1.7363,50.87156],[1.73762,50.86992],[1.73823,50.86883],[1.73873,50.86872],[1.73923,50.86881],[1.74088,50.86846],[1.73958,50.86616],[1.73988,50.86594],[1.74059,50.86468],[1.74664,50.86902],[1.74717,50.86977],[1.74812,50.87033],[1.74872,50.86978],[1.74886,50.8691],[1.7508,50.86707],[1.75109,50.86628],[1.75085,50.86531],[1.751362,50.864654],[1.756176,50.866888],[1.758101,50.86569],[1.760904,50.864529],[1.762773,50.864154],[1.764726,50.86351],[1.766397,50.863385],[1.766992,50.863135],[1.767331,50.862813],[1.767445,50.862206],[1.766907,50.861956],[1.765802,50.860865],[1.765774,50.860276],[1.766397,50.859686],[1.766001,50.859096],[1.765179,50.858667],[1.765066,50.858238],[1.7624,50.85452],[1.763764,50.854217],[1.76426,50.85361],[1.77069,50.85143],[1.78209,50.84858],[1.78338,50.84874],[1.786137,50.847952],[1.790471,50.845581],[1.797316,50.843685],[1.801265,50.842302],[1.804145,50.842268],[1.805546,50.84214],[1.807788,50.842181],[1.809011,50.842465],[1.80892,50.8419],[1.81103,50.83983],[1.81167,50.83962],[1.812953,50.839791],[1.814579,50.840315],[1.816785,50.840609],[1.81736,50.840794],[1.8184,50.84298],[1.81915,50.84329],[1.820611,50.842998],[1.822309,50.84295],[1.82508,50.842089],[1.825806,50.842916],[1.825801,50.843526],[1.82639,50.84856],[1.82712,50.84897],[1.829572,50.851363],[1.831249,50.853521],[1.83181,50.854],[1.8327,50.85509],[1.8345,50.8546],[1.835462,50.856407],[1.835951,50.858024],[1.837249,50.859744],[1.837512,50.860239],[1.837412,50.860644],[1.836451,50.861882],[1.836051,50.862084],[1.833648,50.861528],[1.832968,50.861238],[1.832567,50.861528],[1.832667,50.861768],[1.834249,50.861895],[1.840556,50.863664],[1.852588,50.866027],[1.858074,50.866697],[1.858895,50.866595],[1.860336,50.866305],[1.861798,50.866292],[1.862899,50.866178],[1.8641,50.866166],[1.8637,50.865736],[1.861577,50.86283],[1.861818,50.862741],[1.862679,50.861478],[1.862899,50.860934],[1.863019,50.860075],[1.863339,50.859228],[1.863139,50.857876],[1.863359,50.856574],[1.863299,50.854084],[1.862979,50.853427],[1.862318,50.852732],[1.861938,50.851974],[1.860456,50.84985],[1.862018,50.849041],[1.864601,50.848068],[1.865942,50.847651],[1.867363,50.847044],[1.867524,50.847107],[1.867463,50.847651],[1.868144,50.848346],[1.867644,50.845413],[1.867183,50.844667],[1.86629,50.84389],[1.87809,50.83863],[1.877274,50.837411],[1.877214,50.836968],[1.87674,50.836173],[1.876713,50.835552],[1.876493,50.835008],[1.876513,50.834553],[1.876233,50.834073],[1.88329,50.83086],[1.882619,50.830355],[1.882359,50.829331],[1.880657,50.827446],[1.88084,50.82686],[1.88482,50.82504],[1.87626,50.81742],[1.877234,50.81705],[1.87846,50.81622],[1.87839,50.81494],[1.878175,50.813685],[1.875852,50.813723],[1.874562,50.813662],[1.87298,50.8137],[1.87268,50.8135],[1.872972,50.812603],[1.872305,50.811834],[1.869506,50.811446],[1.868705,50.810991],[1.867884,50.81113],[1.866643,50.80989],[1.8655,50.80959],[1.86577,50.80913],[1.866723,50.808612],[1.868505,50.808018],[1.869786,50.807499],[1.87204,50.806833],[1.872829,50.806411],[1.873626,50.805806],[1.87475,50.80445],[1.87578,50.80455],[1.877194,50.805103],[1.87805,50.80571],[1.880282,50.801581],[1.88004,50.80127],[1.88056,50.80068],[1.88119,50.79939],[1.882179,50.799654],[1.882623,50.79902],[1.88266,50.79846],[1.882479,50.797959],[1.883152,50.797231],[1.883325,50.796497],[1.884142,50.79579],[1.88453,50.79492],[1.8879,50.7923],[1.89019,50.79108],[1.891845,50.791049],[1.893328,50.790774],[1.898611,50.790494],[1.90141,50.79018],[1.90234,50.78955],[1.903421,50.789189],[1.90456,50.78895],[1.907605,50.788758],[1.909694,50.788007],[1.91175,50.78777],[1.91441,50.78783],[1.917756,50.787505],[1.92024,50.78679],[1.92425,50.78638],[1.925603,50.786761],[1.926913,50.787305],[1.928607,50.787594],[1.931169,50.788404],[1.93257,50.788891],[1.933612,50.789404],[1.935295,50.787599],[1.935261,50.785983],[1.935529,50.785289],[1.93675,50.78553],[1.93805,50.78398],[1.938777,50.783417],[1.940479,50.78291],[1.94182,50.782404],[1.943102,50.781366],[1.944003,50.781189],[1.944944,50.781834],[1.945384,50.782316],[1.945724,50.782657],[1.946245,50.782733],[1.947646,50.783328],[1.949328,50.784278],[1.952471,50.785619],[1.953513,50.78567],[1.954714,50.78591],[1.955435,50.786151],[1.956395,50.786834],[1.956816,50.787594],[1.957837,50.787353],[1.958598,50.787087],[1.958978,50.786746],[1.959178,50.786113],[1.959879,50.785619],[1.961241,50.784796],[1.962021,50.784746],[1.964784,50.784923],[1.966826,50.784948],[1.967327,50.785024],[1.967687,50.784771],[1.968068,50.783898],[1.968148,50.783278],[1.968868,50.783316],[1.971111,50.783885],[1.971711,50.783974],[1.971912,50.784164],[1.971932,50.784366],[1.971051,50.784936],[1.97065,50.785632],[1.97053,50.786404],[1.97021,50.787125],[1.96999,50.787872],[1.968608,50.789809],[1.968508,50.790315],[1.968508,50.790733],[1.969149,50.792024],[1.968668,50.792593],[1.967947,50.792998],[1.966826,50.793378],[1.966906,50.793681],[1.967287,50.793707],[1.968188,50.793618],[1.969009,50.793618],[1.96993,50.793403],[1.97021,50.79353],[1.97013,50.793719],[1.968828,50.794162],[1.968748,50.794403],[1.968888,50.794517],[1.97007,50.794846],[1.970951,50.7952],[1.971211,50.797339],[1.971831,50.798743],[1.971952,50.79968],[1.971872,50.800515],[1.972312,50.802299],[1.972252,50.802615],[1.971992,50.803324],[1.971791,50.805247],[1.971531,50.806133],[1.971711,50.806803],[1.971791,50.807701],[1.972072,50.808676],[1.972572,50.809118],[1.972572,50.809612],[1.97059,50.811535],[1.969269,50.812686],[1.968948,50.81323],[1.968728,50.813989],[1.968748,50.814976],[1.969829,50.815254],[1.973433,50.816784],[1.974494,50.816696],[1.975836,50.816354],[1.976616,50.816114],[1.977818,50.816203],[1.978959,50.816152],[1.979499,50.816291],[1.980956,50.816158],[1.981627,50.8157],[1.982426,50.815568],[1.983202,50.815382],[1.983824,50.815314],[1.985391,50.814718],[1.986807,50.815924],[1.987901,50.816385],[1.988652,50.817077],[1.994424,50.815314],[2.001205,50.814582],[2.002321,50.814229],[2.003286,50.813538],[2.004252,50.812453],[2.004896,50.810853],[2.008329,50.809891],[2.009337,50.809782],[2.011633,50.809511],[2.012577,50.809281],[2.013436,50.809281],[2.014981,50.809308],[2.016011,50.809023],[2.016848,50.808684],[2.018114,50.809118],[2.018414,50.809104],[2.018822,50.809389],[2.021418,50.81027],[2.021869,50.810338],[2.021919,50.81047],[2.021654,50.811043],[2.021908,50.810813],[2.02296,50.809199],[2.023821,50.808182],[2.024328,50.807199],[2.024574,50.806925],[2.02686,50.805552],[2.02822,50.803558],[2.028885,50.802826],[2.029872,50.802989],[2.030881,50.802975],[2.03204,50.803057],[2.032898,50.803531],[2.03352,50.80364],[2.034893,50.803694],[2.038455,50.804914],[2.039421,50.805145],[2.041202,50.805755],[2.041932,50.80646],[2.042811,50.806989],[2.043884,50.807816],[2.045236,50.808494],[2.045773,50.80863],[2.046395,50.808359],[2.04736,50.807382],[2.047446,50.806921],[2.047704,50.806731],[2.048498,50.806826],[2.048862,50.806352],[2.047768,50.805511],[2.048605,50.804887],[2.049246,50.804818],[2.050433,50.80451],[2.05284,50.804448],[2.054548,50.80449],[2.056776,50.804705],[2.058613,50.804942],[2.057979,50.805887],[2.064354,50.808415],[2.066175,50.807182],[2.066874,50.806771],[2.067476,50.806565],[2.068175,50.805661],[2.068582,50.805332],[2.068826,50.804931],[2.069557,50.804479],[2.069997,50.804017],[2.070826,50.803688],[2.071623,50.803575],[2.074891,50.803462],[2.076095,50.801972],[2.076371,50.801355],[2.076274,50.800707],[2.076583,50.800214],[2.077249,50.799896],[2.078225,50.799597],[2.079136,50.799227],[2.081055,50.798929],[2.083543,50.798128],[2.084779,50.797367],[2.085136,50.797141],[2.085901,50.796288],[2.087836,50.794952],[2.08982,50.79379],[2.090763,50.793194],[2.091462,50.792546],[2.093088,50.791837],[2.09408,50.791487],[2.094796,50.791313],[2.095593,50.79085],[2.096308,50.7905],[2.096666,50.789945],[2.09717,50.789472],[2.098406,50.788907],[2.095463,50.786851],[2.09652,50.786954],[2.099154,50.786954],[2.103968,50.787324],[2.105203,50.787643],[2.109025,50.78901],[2.11044,50.789287],[2.1107,50.786224],[2.11096,50.785874],[2.113383,50.784353],[2.113562,50.783941],[2.114294,50.783746],[2.115205,50.783715],[2.115757,50.7839],[2.116375,50.783941],[2.120099,50.783756],[2.122945,50.78206],[2.125254,50.781073],[2.126929,50.780456],[2.127889,50.78026],[2.129043,50.780199],[2.130474,50.779829],[2.130832,50.779829],[2.131743,50.779674],[2.132816,50.779777],[2.135922,50.778996],[2.136752,50.779458],[2.141972,50.775808],[2.142866,50.774975],[2.143321,50.774749],[2.143175,50.774049],[2.142817,50.773443],[2.142882,50.772702],[2.144947,50.773227],[2.147078,50.773535],[2.148184,50.773813],[2.151046,50.770316],[2.151338,50.769977],[2.152867,50.768671],[2.151973,50.768321],[2.149387,50.767426],[2.146574,50.766192],[2.147663,50.765092],[2.150395,50.762798],[2.152184,50.763621],[2.152656,50.763847],[2.153566,50.764248],[2.154152,50.764351],[2.155436,50.764238],[2.156558,50.763868],[2.156949,50.763569],[2.157437,50.763014],[2.159437,50.761615],[2.161388,50.759568],[2.161941,50.758827],[2.162283,50.758179],[2.162933,50.757716],[2.163535,50.757665],[2.164803,50.757706],[2.166039,50.757654],[2.166511,50.757562],[2.168348,50.758488],[2.168641,50.758529],[2.169308,50.758776],[2.170235,50.758498],[2.170739,50.758272],[2.171357,50.757603],[2.171812,50.757336],[2.172446,50.757089],[2.173829,50.756914],[2.171877,50.756122],[2.171649,50.755566],[2.171633,50.75499],[2.171015,50.754115],[2.170674,50.752387],[2.169747,50.75213],[2.16747,50.751358],[2.166576,50.751194],[2.167535,50.749774],[2.165763,50.749208],[2.165437,50.748899],[2.164657,50.747973],[2.162559,50.747047],[2.16251,50.746821],[2.162559,50.745751],[2.161144,50.745257],[2.161876,50.744145],[2.162494,50.743446],[2.163584,50.742746],[2.165177,50.741459],[2.162966,50.740266],[2.162071,50.739864],[2.160998,50.738598],[2.161014,50.738249],[2.161193,50.737806],[2.161713,50.737456],[2.162315,50.736612],[2.163014,50.735923],[2.163258,50.735552],[2.163893,50.735336],[2.164771,50.734893],[2.166267,50.734338],[2.167633,50.733751],[2.168917,50.73337],[2.17121,50.732104],[2.172625,50.731651],[2.174024,50.731528],[2.175276,50.731239],[2.178122,50.732063],[2.179341,50.730395],[2.192042,50.724065],[2.191961,50.723818],[2.191635,50.723663],[2.191066,50.7232],[2.1917,50.722541],[2.193099,50.721748],[2.187082,50.719998],[2.186545,50.71868],[2.186594,50.71832],[2.186887,50.71764],[2.187001,50.716786],[2.186854,50.714665],[2.185797,50.709681],[2.185797,50.708816],[2.185553,50.708012],[2.185667,50.707611],[2.185992,50.707333],[2.186708,50.706808],[2.186773,50.706602],[2.187293,50.706241],[2.18783,50.706107],[2.187749,50.705603],[2.186903,50.705932],[2.186383,50.705984],[2.185749,50.705798],[2.185,50.705994],[2.184773,50.705788],[2.184773,50.705623],[2.183309,50.705757],[2.182773,50.705747],[2.182415,50.705139],[2.181797,50.704583],[2.181179,50.704408],[2.180024,50.704398],[2.179081,50.704048],[2.179032,50.703945],[2.17939,50.703852],[2.180236,50.703821],[2.180886,50.703656],[2.180187,50.70309],[2.179764,50.702163],[2.179813,50.701761],[2.180073,50.701184],[2.179943,50.70069],[2.179341,50.699917],[2.178528,50.699114],[2.177406,50.698135],[2.176772,50.697219],[2.175796,50.696498],[2.175016,50.695581],[2.174772,50.695117],[2.174479,50.69485],[2.174007,50.694747],[2.171812,50.693407],[2.170901,50.693109],[2.169861,50.692604],[2.169194,50.692089],[2.169422,50.691471],[2.169357,50.691193],[2.168966,50.690585],[2.168852,50.690224],[2.168641,50.689956],[2.169308,50.689441],[2.169535,50.689184],[2.17017,50.688844],[2.170788,50.687752],[2.171275,50.68667],[2.172007,50.685732],[2.173194,50.683641],[2.174316,50.682167],[2.175227,50.681518],[2.175878,50.681065],[2.177748,50.679447],[2.179585,50.678118],[2.180463,50.680075],[2.181862,50.68159],[2.182512,50.682136],[2.18396,50.682971],[2.185131,50.681539],[2.185488,50.680786],[2.18718,50.678519],[2.189212,50.676263],[2.189196,50.676005],[2.18757,50.675356],[2.193245,50.670048],[2.199783,50.668203],[2.199766,50.66607],[2.194481,50.661328],[2.196611,50.660473],[2.198059,50.659421],[2.196611,50.658689],[2.196075,50.657978],[2.194693,50.65739],[2.193213,50.656473],[2.19253,50.656132],[2.192074,50.655617],[2.193522,50.655225],[2.1944,50.654627],[2.19614,50.65373],[2.196384,50.653462],[2.18783,50.652462],[2.187944,50.651503],[2.187537,50.649616],[2.187489,50.648101],[2.187147,50.647348],[2.186171,50.646667],[2.185488,50.646079],[2.185797,50.645904],[2.18648,50.644976],[2.187115,50.644234],[2.187456,50.643584],[2.188952,50.642315],[2.189993,50.641666],[2.191863,50.640923],[2.191863,50.640614],[2.192351,50.640047],[2.192611,50.639562],[2.193018,50.639108],[2.193034,50.638469],[2.19279,50.636509],[2.19079,50.636241],[2.190221,50.636231],[2.189912,50.636282],[2.189017,50.636128],[2.18718,50.63556],[2.187407,50.63489],[2.186806,50.63423],[2.1877,50.633064],[2.187944,50.632569],[2.187863,50.63227],[2.188513,50.630362],[2.188676,50.629784],[2.188936,50.629279],[2.188936,50.628866],[2.189521,50.628164],[2.190286,50.626792],[2.191505,50.625214],[2.192107,50.623883],[2.191814,50.622975],[2.192855,50.622965],[2.194302,50.622759],[2.196221,50.622728],[2.197229,50.622408],[2.198075,50.622284],[2.199848,50.621686],[2.200433,50.621593],[2.201425,50.621304],[2.20432,50.621221],[2.205198,50.621067],[2.206824,50.621067],[2.207491,50.620582],[2.208336,50.619777],[2.208613,50.619364],[2.207967,50.619121],[2.208028,50.618904],[2.208529,50.618543],[2.208559,50.618399],[2.209098,50.618245],[2.209955,50.618177],[2.210807,50.618246],[2.212271,50.618103],[2.212445,50.617948],[2.212498,50.617727],[2.213526,50.617926],[2.214258,50.617959],[2.215304,50.616411],[2.2156,50.616422],[2.217099,50.616997],[2.217796,50.617251],[2.218476,50.617705],[2.221892,50.619109],[2.223129,50.619618],[2.224524,50.620436],[2.228097,50.622106],[2.230362,50.623079],[2.231547,50.623621],[2.23268,50.623963],[2.233604,50.624041],[2.23526,50.624804],[2.236462,50.62529],[2.237351,50.625522],[2.239757,50.626606],[2.241743,50.628021],[2.242772,50.629105],[2.243713,50.629812],[2.244445,50.629945],[2.246815,50.630288],[2.248767,50.63105],[2.250284,50.631216],[2.251417,50.63094],[2.251852,50.631073],[2.252689,50.632101],[2.255042,50.633317],[2.255791,50.633361],[2.256192,50.633836],[2.259992,50.63555]]],"type":"MultiLineString"},"properties":{"geo_point":{"lon":1.9530942589001032,"lat":50.806724521792596},"name":"GR145 Via Francigena. De Calais à Thérouanne (Pas-de-Calais) (2020)","code_gr":"GR145"}}]}