{"type":"FeatureCollection","features":[{"type":"Feature","geometry":{"coordinates":[[[5.25373,43.46072],[5.25394,43.460522],[5.25482,43.460152],[5.25569,43.459999],[5.25614,43.460011],[5.25662,43.459942],[5.25751,43.459942],[5.25873,43.459518],[5.25971,43.459412],[5.26073,43.459412],[5.26145,43.459068],[5.26329,43.458691],[5.26408,43.45863],[5.26587,43.458778],[5.26638,43.45866],[5.26747,43.458759],[5.26791,43.459049],[5.26858,43.459148],[5.26907,43.45932],[5.26965,43.459358],[5.26996,43.45924],[5.27028,43.459251],[5.27059,43.459042],[5.27089,43.459091],[5.27121,43.458961],[5.27156,43.458881],[5.27296,43.458099],[5.27393,43.457951],[5.27427,43.458092],[5.27448,43.458569],[5.27474,43.458549],[5.27477,43.456581],[5.27498,43.456051],[5.27539,43.455872],[5.27595,43.45586],[5.27659,43.45575],[5.27695,43.455879],[5.27709,43.45573],[5.27697,43.455238],[5.27716,43.454571],[5.27766,43.453751],[5.27838,43.452709],[5.27945,43.45163],[5.27983,43.451401],[5.27991,43.451229],[5.27939,43.450569],[5.27956,43.45047],[5.27982,43.45047],[5.28008,43.45055],[5.2803,43.450439],[5.2805,43.450481],[5.28077,43.450432],[5.28164,43.450779],[5.28216,43.45092],[5.28217,43.45113],[5.28286,43.45166],[5.28307,43.451908],[5.28324,43.452042],[5.28371,43.45224],[5.28404,43.452511],[5.28418,43.45274],[5.28453,43.452881],[5.28459,43.45298],[5.28491,43.453091],[5.28509,43.453259],[5.28529,43.453812],[5.28558,43.454189],[5.28587,43.455109],[5.28589,43.455582],[5.28579,43.456329],[5.28585,43.456619],[5.28682,43.45715],[5.28738,43.457699],[5.28775,43.457951],[5.28805,43.458309],[5.28875,43.458809],[5.29003,43.459862],[5.2902,43.460289],[5.29053,43.460609],[5.29073,43.461121],[5.29061,43.46143],[5.29066,43.461578],[5.29079,43.461681],[5.29089,43.461891],[5.2912,43.462109],[5.29147,43.462109],[5.29148,43.46196],[5.29183,43.461788],[5.29203,43.46175],[5.29234,43.461842],[5.29277,43.4617],[5.29307,43.46143],[5.29325,43.461349],[5.29357,43.460918],[5.29374,43.460609],[5.29397,43.460548],[5.29428,43.460621],[5.29489,43.460449],[5.29517,43.460468],[5.29536,43.460739],[5.295,43.461441],[5.29491,43.461899],[5.29499,43.462189],[5.29521,43.462231],[5.29538,43.462139],[5.29564,43.46217],[5.2958,43.462318],[5.29588,43.462582],[5.29605,43.462818],[5.29621,43.462921],[5.29655,43.46291],[5.29672,43.46307],[5.297,43.463131],[5.29745,43.46302],[5.29749,43.462791],[5.29873,43.462002],[5.29898,43.461731],[5.29936,43.461788],[5.30002,43.46069],[5.30002,43.460541],[5.3028,43.461712],[5.30793,43.455029],[5.30814,43.454979],[5.30853,43.455139],[5.30908,43.45443],[5.31132,43.45536],[5.31219,43.455959],[5.31265,43.455929],[5.31506,43.456848],[5.3155,43.456749],[5.31546,43.45647],[5.31617,43.45652],[5.3174,43.453522],[5.31672,43.453339],[5.31643,43.45335],[5.31577,43.453861],[5.31377,43.453651],[5.31169,43.45269],[5.30995,43.452049],[5.30884,43.451881],[5.30651,43.450508],[5.30608,43.450489],[5.30401,43.45126],[5.30092,43.451019],[5.29955,43.45047],[5.29898,43.449982],[5.29847,43.449131],[5.29891,43.44722],[5.29965,43.44643],[5.29982,43.445938],[5.30009,43.445671],[5.30028,43.445389],[5.30081,43.44519],[5.30136,43.444679],[5.3017,43.444061],[5.30169,43.443459],[5.302,43.44318],[5.30258,43.44286],[5.30303,43.4422],[5.3027,43.441971],[5.30258,43.441738],[5.30257,43.44125],[5.30275,43.440701],[5.30267,43.440369],[5.30243,43.440201],[5.30175,43.439968],[5.30185,43.4398],[5.30176,43.439651],[5.30188,43.439449],[5.30223,43.439369],[5.30231,43.438999],[5.30266,43.438999],[5.30276,43.438862],[5.30312,43.438721],[5.30346,43.438728],[5.30376,43.43837],[5.30388,43.438019],[5.30411,43.437729],[5.30454,43.437431],[5.30464,43.437191],[5.30477,43.437099],[5.30516,43.436619],[5.30509,43.43639],[5.3048,43.436321],[5.30454,43.436199],[5.30392,43.436081],[5.30355,43.435909],[5.30332,43.43573],[5.30281,43.435581],[5.3027,43.435329],[5.30251,43.4352],[5.30275,43.43486],[5.30301,43.434719],[5.30312,43.434509],[5.30391,43.433891],[5.30422,43.433769],[5.30412,43.433498],[5.30376,43.433338],[5.30351,43.433289],[5.30288,43.43338],[5.30249,43.433811],[5.30199,43.434052],[5.30152,43.434151],[5.30125,43.434261],[5.3011,43.43425],[5.30081,43.43383],[5.30009,43.4338],[5.29997,43.433651],[5.2995,43.43367],[5.29941,43.433472],[5.29951,43.433041],[5.29963,43.432751],[5.29961,43.432571],[5.29933,43.43269],[5.29905,43.43251],[5.2988,43.432152],[5.29843,43.43203],[5.29818,43.43203],[5.29785,43.43198],[5.29747,43.431999],[5.29722,43.43227],[5.29664,43.43187],[5.29628,43.43153],[5.29589,43.430779],[5.29545,43.430302],[5.2952,43.42989],[5.29479,43.429569],[5.2948,43.429321],[5.29504,43.428841],[5.295,43.428131],[5.2949,43.427589],[5.29471,43.427341],[5.29451,43.427158],[5.29472,43.426739],[5.2947,43.426399],[5.29484,43.426189],[5.29489,43.42598],[5.29478,43.425579],[5.29484,43.425411],[5.29437,43.424541],[5.29423,43.423771],[5.29436,43.423309],[5.29383,43.422531],[5.29342,43.42136],[5.29297,43.420898],[5.29257,43.420681],[5.29236,43.420712],[5.2912,43.420101],[5.28974,43.420059],[5.28683,43.42194],[5.28643,43.421959],[5.28083,43.420551],[5.27969,43.420502],[5.27965,43.420368],[5.27911,43.420219],[5.27885,43.41988],[5.27839,43.419941],[5.27635,43.419731],[5.27594,43.41943],[5.27539,43.419201],[5.27472,43.419029],[5.27411,43.418941],[5.27397,43.419029],[5.27408,43.419411],[5.27394,43.419498],[5.27373,43.41906],[5.27351,43.418941],[5.27289,43.419151],[5.27141,43.420109],[5.27011,43.421398],[5.27007,43.421741],[5.26988,43.421791],[5.26955,43.42168],[5.26931,43.4217],[5.26845,43.421101],[5.26829,43.420818],[5.26822,43.420448],[5.26838,43.4202],[5.27172,43.417542],[5.27157,43.41711],[5.27112,43.416882],[5.27087,43.41655],[5.26987,43.416489],[5.26913,43.416321],[5.2692,43.416142],[5.27008,43.41613],[5.27146,43.416],[5.27179,43.414902],[5.27178,43.414612],[5.27219,43.414558],[5.27236,43.414391],[5.27276,43.414249],[5.27292,43.413879],[5.27267,43.412781],[5.27282,43.412418],[5.27299,43.41153],[5.27323,43.41135],[5.27318,43.411041],[5.2732,43.410542],[5.27342,43.410358],[5.27314,43.410179],[5.27294,43.409962],[5.27241,43.409771],[5.271791,43.409508],[5.27142,43.409534],[5.269607,43.409206],[5.269221,43.408997],[5.268245,43.408882],[5.267204,43.408569],[5.26663,43.408348],[5.265584,43.408146],[5.264581,43.408146],[5.263969,43.408035],[5.262564,43.408035],[5.261641,43.407841],[5.260976,43.408016],[5.260531,43.407894],[5.259876,43.408447],[5.259061,43.408684],[5.258626,43.408501],[5.25841,43.408539],[5.258315,43.409145],[5.257967,43.409611],[5.257806,43.410305],[5.25699,43.410503],[5.2561,43.410286],[5.25556,43.409889],[5.25482,43.409611],[5.25494,43.40892],[5.25529,43.408428],[5.25722,43.40678],[5.258567,43.406651],[5.25862,43.406101],[5.25896,43.405682],[5.25949,43.405479],[5.25879,43.405022],[5.25733,43.406261],[5.25664,43.406601],[5.25499,43.407902],[5.25395,43.408829],[5.253326,43.409805],[5.252511,43.409412],[5.25285,43.40881],[5.25315,43.408039],[5.25305,43.407921],[5.252634,43.40781],[5.25256,43.407242],[5.252109,43.406624],[5.251594,43.406342],[5.251336,43.406361],[5.250129,43.4063],[5.249582,43.406384],[5.248455,43.40638],[5.247914,43.406429],[5.247576,43.406338],[5.247163,43.406418],[5.246653,43.40641],[5.246245,43.406319],[5.244958,43.406387],[5.244266,43.406326],[5.243622,43.406368],[5.242801,43.406204],[5.242174,43.406284],[5.24168,43.406403],[5.240752,43.406265],[5.23991,43.406319],[5.239239,43.406216],[5.237904,43.406227],[5.237464,43.406059],[5.23689,43.406002],[5.235377,43.405994],[5.234663,43.405849],[5.23432,43.405964],[5.234191,43.406147],[5.233848,43.406063],[5.23341,43.405849],[5.232577,43.406811],[5.232062,43.406853],[5.231633,43.40712],[5.230962,43.407825],[5.230007,43.408539],[5.229782,43.408546],[5.228832,43.409081],[5.228564,43.40712],[5.228387,43.406952],[5.22732,43.407558],[5.225989,43.406673],[5.225303,43.40604],[5.224192,43.405521],[5.223098,43.40519],[5.222878,43.405544],[5.220485,43.40509],[5.218613,43.404797],[5.217535,43.404469],[5.217074,43.404205],[5.21709,43.403736],[5.21179,43.405773],[5.207954,43.407356],[5.207831,43.407158],[5.204569,43.408531],[5.20451,43.408691],[5.201774,43.40995],[5.200347,43.40976],[5.199725,43.410061],[5.198641,43.409946],[5.197569,43.409744],[5.197214,43.409328],[5.194758,43.408985],[5.193577,43.410603],[5.19354,43.410915],[5.193856,43.411507],[5.194554,43.411903],[5.19486,43.412331],[5.196565,43.412624],[5.198169,43.413074],[5.198513,43.413563],[5.199435,43.414013],[5.199832,43.414322],[5.202633,43.41518],[5.203759,43.415386],[5.20321,43.417122],[5.20238,43.418499],[5.20239,43.418861],[5.20208,43.419559],[5.20197,43.420109],[5.20223,43.420551],[5.20181,43.42152],[5.20088,43.421391],[5.2005,43.422352],[5.20006,43.422279],[5.19954,43.423531],[5.199553,43.42355],[5.200696,43.423561],[5.202826,43.423851],[5.202295,43.425613],[5.201919,43.427475],[5.201581,43.428432],[5.20135,43.428688],[5.200605,43.428532],[5.200449,43.428654],[5.200036,43.430229],[5.198851,43.430271],[5.19818,43.430386],[5.197976,43.430023],[5.196694,43.429096],[5.196356,43.428848],[5.195766,43.428608],[5.194243,43.427563],[5.19384,43.427589],[5.192381,43.42794],[5.191759,43.428463],[5.19266,43.429062],[5.19339,43.42942],[5.193797,43.429867],[5.194253,43.430119],[5.194666,43.430656],[5.194398,43.430866],[5.194076,43.43124],[5.193856,43.431671],[5.193186,43.432034],[5.192274,43.432751],[5.190992,43.431423],[5.190493,43.431652],[5.185429,43.427094],[5.183449,43.425514],[5.18221,43.425323],[5.181733,43.425358],[5.180665,43.42458],[5.179989,43.42416],[5.17941,43.423599],[5.178868,43.423252],[5.176036,43.42099],[5.174298,43.419724],[5.173563,43.419502],[5.172962,43.418957],[5.169384,43.416553],[5.166809,43.414974],[5.163692,43.412956],[5.158269,43.40974],[5.155152,43.40815],[5.153875,43.407738],[5.153124,43.407604],[5.1507,43.406334],[5.151166,43.405716],[5.14864,43.404503],[5.148189,43.404388],[5.145963,43.403267],[5.143694,43.402187],[5.143645,43.402023],[5.143302,43.401855],[5.143034,43.401878],[5.140604,43.400848],[5.140218,43.401337],[5.138222,43.400459],[5.137085,43.400116],[5.137079,43.399277],[5.136779,43.399174],[5.135733,43.399376],[5.135084,43.399342],[5.133008,43.398643],[5.133024,43.398327],[5.133383,43.397858],[5.134301,43.397148],[5.134998,43.396366],[5.136704,43.394829],[5.136854,43.393425],[5.137637,43.393398],[5.137761,43.391483],[5.137594,43.391003],[5.138388,43.390545],[5.139306,43.390186],[5.139391,43.389805],[5.139745,43.389423],[5.140668,43.389126],[5.140851,43.389252],[5.141274,43.389175],[5.1421,43.388863],[5.142369,43.389111],[5.145346,43.387962],[5.146328,43.387791],[5.146494,43.387554],[5.146022,43.386837],[5.147138,43.386471],[5.147535,43.38615],[5.147679,43.385857],[5.148586,43.385445],[5.149283,43.385052],[5.149149,43.384434],[5.149289,43.384026],[5.148618,43.383369],[5.148371,43.382973],[5.147417,43.382957],[5.146242,43.382862],[5.145544,43.382847],[5.145142,43.38258],[5.144504,43.38271],[5.144032,43.382252],[5.143855,43.381844],[5.143147,43.381855],[5.142755,43.381462],[5.142471,43.380951],[5.141703,43.38084],[5.140539,43.380898],[5.139863,43.380707],[5.139252,43.380291],[5.138775,43.37973],[5.138973,43.379745],[5.139831,43.3801],[5.139971,43.380013],[5.139526,43.379532],[5.138699,43.37899],[5.138474,43.378624],[5.137879,43.378204],[5.137525,43.37822],[5.137176,43.378139],[5.136575,43.378475],[5.136312,43.37886],[5.135942,43.378666],[5.134875,43.379272],[5.133727,43.379475],[5.132546,43.379635],[5.131962,43.379971],[5.131302,43.379723],[5.130926,43.379421],[5.130808,43.379066],[5.130653,43.378971],[5.130336,43.378895],[5.130073,43.378616],[5.129682,43.378452],[5.129381,43.378529],[5.129145,43.37886],[5.12877,43.37875],[5.128078,43.378902],[5.127531,43.378822],[5.127053,43.378872],[5.126506,43.378315],[5.126297,43.378239],[5.125916,43.378391],[5.125852,43.378044],[5.125374,43.377899],[5.124473,43.377312],[5.124382,43.377048],[5.124661,43.376686],[5.124661,43.376419],[5.124511,43.376225],[5.124173,43.376083],[5.123867,43.37574],[5.123486,43.375618],[5.122515,43.375961],[5.121871,43.376129],[5.121206,43.376465],[5.118358,43.376232],[5.116442,43.376656],[5.11464,43.376926],[5.111775,43.377209],[5.106373,43.377769],[5.104759,43.377705],[5.104099,43.377712],[5.102929,43.377644],[5.101374,43.377666],[5.099759,43.377434],[5.099346,43.377316],[5.098949,43.377373],[5.096202,43.377357],[5.0941,43.377396],[5.089803,43.377258],[5.08697,43.377167],[5.086504,43.377136],[5.084175,43.377396],[5.083231,43.377411],[5.082276,43.377365],[5.080935,43.377522],[5.078666,43.377983],[5.078537,43.378498],[5.07821,43.379116],[5.078173,43.37933],[5.077958,43.37952],[5.077797,43.379871],[5.077561,43.380089],[5.077105,43.380196],[5.077025,43.380344],[5.077094,43.380562],[5.076783,43.381161],[5.076896,43.381512],[5.076767,43.38216],[5.076579,43.382431],[5.076381,43.382603],[5.076231,43.382938],[5.075909,43.383247],[5.07571,43.38364],[5.075249,43.383873],[5.075056,43.384144],[5.075303,43.384445],[5.075415,43.385605],[5.07533,43.385643],[5.074949,43.384666],[5.074745,43.384602],[5.074477,43.384628],[5.074326,43.384785],[5.07379,43.38504],[5.073538,43.385395],[5.073398,43.386234],[5.072572,43.386566],[5.072384,43.386814],[5.071676,43.387169],[5.07121,43.387306],[5.070845,43.387512],[5.070571,43.387478],[5.070029,43.387577],[5.069252,43.387833],[5.068849,43.387978],[5.067648,43.388016],[5.066795,43.388149],[5.066092,43.388535],[5.065314,43.389153],[5.064853,43.389442],[5.064526,43.3895],[5.06364,43.389313],[5.063313,43.389328],[5.062948,43.389507],[5.062246,43.390034],[5.061892,43.390209],[5.061886,43.39043],[5.062187,43.390827],[5.06223,43.391212],[5.061554,43.391434],[5.061345,43.391396],[5.061184,43.391502],[5.061023,43.391552],[5.060787,43.392117],[5.06047,43.392509],[5.0604,43.392937],[5.060164,43.393631],[5.059816,43.393909],[5.059698,43.394539],[5.058931,43.396061],[5.059129,43.396786],[5.059043,43.396885],[5.059156,43.397518],[5.059317,43.397594],[5.05892,43.398537],[5.058593,43.39949],[5.057772,43.399536],[5.057665,43.399975],[5.058255,43.400131],[5.057906,43.400734],[5.058721,43.401337],[5.057182,43.402264],[5.057707,43.40255],[5.057096,43.403584],[5.056629,43.405331],[5.056157,43.40596],[5.05583,43.406223],[5.055985,43.406818],[5.056758,43.407314],[5.057101,43.40731],[5.057284,43.407562],[5.05693,43.407879],[5.056731,43.408516],[5.057852,43.409576],[5.058142,43.411457],[5.05812,43.412018],[5.058351,43.412197],[5.058464,43.412704],[5.058625,43.41291],[5.058619,43.413219],[5.058855,43.413494],[5.05899,43.41394],[5.058931,43.414478],[5.058995,43.414993],[5.059097,43.415855],[5.058507,43.416977],[5.058512,43.417797],[5.05929,43.417824],[5.059547,43.419392],[5.059987,43.419426],[5.060245,43.420086],[5.060824,43.419964],[5.060905,43.420139],[5.060706,43.420406],[5.060647,43.421181],[5.060685,43.421665],[5.061119,43.421848],[5.060921,43.422646],[5.060508,43.422985],[5.060304,43.423454],[5.059644,43.423687],[5.059038,43.423592],[5.057815,43.423725],[5.057273,43.423542],[5.055245,43.422569],[5.054274,43.422287],[5.05333,43.421745],[5.052912,43.421722],[5.052778,43.421562],[5.052236,43.421387],[5.052027,43.421413],[5.051833,43.421204],[5.051683,43.420952],[5.051887,43.420593],[5.05142,43.420238],[5.051179,43.419971],[5.051184,43.419704],[5.051013,43.419464],[5.050997,43.41925],[5.051377,43.419209],[5.051265,43.418324],[5.051029,43.418293],[5.050975,43.418144],[5.050793,43.418106],[5.050626,43.417782],[5.050825,43.417198],[5.050825,43.416721],[5.050578,43.416359],[5.050433,43.416264],[5.050653,43.415733],[5.050803,43.415638],[5.050836,43.415466],[5.050637,43.415375],[5.05016,43.415554],[5.049843,43.415543],[5.049505,43.415569],[5.048733,43.415489],[5.048384,43.415562],[5.048164,43.415497],[5.047751,43.415112],[5.047402,43.41507],[5.046426,43.415527],[5.045975,43.415607],[5.044924,43.416199],[5.044747,43.414902],[5.044484,43.414772],[5.043905,43.414703],[5.043706,43.414558],[5.04384,43.414413],[5.044447,43.414219],[5.044468,43.41412],[5.043932,43.414101],[5.043433,43.413956],[5.042945,43.413937],[5.042778,43.413841],[5.042709,43.413616],[5.042419,43.413876],[5.042188,43.414127],[5.041931,43.41415],[5.041282,43.414009],[5.040783,43.413967],[5.040525,43.413395],[5.038455,43.414177],[5.037602,43.414131],[5.037028,43.413963],[5.035193,43.414089],[5.0339,43.4142],[5.032892,43.414524],[5.032071,43.414673],[5.030826,43.414394],[5.029861,43.414299],[5.029571,43.414192],[5.029415,43.413986],[5.026546,43.41378],[5.025183,43.413963],[5.024872,43.413857],[5.025199,43.412914],[5.025483,43.412663],[5.024555,43.412262],[5.021642,43.412605],[5.02161,43.412308],[5.021101,43.412304],[5.018789,43.411854],[5.018574,43.411579],[5.017989,43.411457],[5.017608,43.411629],[5.017544,43.411625],[5.015259,43.411167],[5.012373,43.411377],[5.01072,43.411346],[5.010334,43.409809],[5.007502,43.410698],[5.006837,43.410751],[5.005356,43.410557],[5.003908,43.408958],[5.003285,43.408195],[5.000732,43.40897],[5.000367,43.408897],[5.000303,43.407307],[4.999874,43.40641],[4.998919,43.405506],[4.99776,43.404945],[4.997084,43.404839],[4.996966,43.404564],[4.995121,43.404675],[4.992235,43.405132],[4.989338,43.405087],[4.987836,43.405251],[4.987975,43.406731],[4.986345,43.406811],[4.985958,43.403942],[4.984478,43.404049],[4.984478,43.404633],[4.983984,43.40464],[4.983845,43.404041],[4.9826,43.403606],[4.982321,43.403137],[4.980079,43.403809],[4.978641,43.404228],[4.977815,43.404339],[4.97745,43.404488],[4.97744,43.405125],[4.977257,43.405499],[4.97759,43.405743],[4.977783,43.406746],[4.977558,43.407612],[4.976957,43.40836],[4.97671,43.408657],[4.976656,43.409077],[4.975991,43.410271],[4.975798,43.411175],[4.974693,43.41243],[4.976056,43.412788],[4.976538,43.412857],[4.9773,43.413231],[4.977772,43.413582],[4.977241,43.414001],[4.977214,43.414318],[4.976807,43.414948],[4.976898,43.415131],[4.976758,43.41547],[4.977171,43.416138],[4.977547,43.415951],[4.977821,43.415546],[4.978459,43.41502],[4.979103,43.414677],[4.979886,43.414391],[4.981146,43.414265],[4.981173,43.414608],[4.981393,43.414734],[4.981919,43.414825],[4.982209,43.414993],[4.983051,43.415638],[4.983357,43.415676],[4.98385,43.415359],[4.984666,43.416363],[4.984472,43.416702],[4.98473,43.41703],[4.985089,43.417053],[4.985476,43.416954],[4.985588,43.417095],[4.985792,43.417171],[4.985712,43.417309],[4.98584,43.417461],[4.988061,43.416588],[4.988807,43.417511],[4.98908,43.418301],[4.988914,43.418957],[4.988335,43.419292],[4.986328,43.419933],[4.984762,43.420872],[4.982257,43.422749],[4.98201,43.423351],[4.981382,43.424129],[4.981517,43.424206],[4.981409,43.424614],[4.9812,43.425125],[4.981173,43.425507],[4.981238,43.425724],[4.981248,43.425961],[4.981179,43.426582],[4.98156,43.427261],[4.982327,43.428436],[4.983083,43.429932],[4.983464,43.430111],[4.984317,43.430305],[4.984285,43.431004],[4.983759,43.431164],[4.983147,43.431488],[4.98252,43.43214],[4.982048,43.433735],[4.980524,43.435371],[4.980095,43.436005],[4.979296,43.436764],[4.979054,43.437279],[4.978797,43.437637],[4.9787,43.438129],[4.978582,43.439793],[4.978427,43.440517],[4.97847,43.441059],[4.978598,43.441547],[4.978668,43.442673],[4.978513,43.44326],[4.978652,43.443859],[4.978979,43.444279],[4.979725,43.444386],[4.980808,43.444122],[4.981924,43.44368],[4.982085,43.44371],[4.982193,43.443604],[4.982257,43.443344],[4.98289,43.442856],[4.983185,43.442841],[4.983341,43.44294],[4.983453,43.443703],[4.983829,43.443844],[4.984285,43.443928],[4.98458,43.444122],[4.984328,43.445084],[4.98436,43.445934],[4.984623,43.446468],[4.985089,43.446632],[4.985653,43.446598],[4.986087,43.446739],[4.986275,43.446938],[4.986387,43.447521],[4.986548,43.447685],[4.986768,43.447872],[4.987455,43.448044],[4.987814,43.448334],[4.987943,43.448662],[4.98782,43.449215],[4.987772,43.449715],[4.987943,43.450378],[4.988126,43.450794],[4.988099,43.451054],[4.987847,43.45163],[4.987659,43.451824],[4.987525,43.452312],[4.987632,43.452885],[4.987552,43.453423],[4.987589,43.453808],[4.987482,43.454315],[4.987541,43.455002],[4.987294,43.455357],[4.987417,43.455837],[4.987643,43.455933],[4.987653,43.456608],[4.987879,43.456661],[4.988308,43.456703],[4.988544,43.456848],[4.988641,43.457066],[4.988973,43.45718],[4.989306,43.457344],[4.989531,43.457394],[4.989794,43.457527],[4.990159,43.457638],[4.990464,43.457821],[4.990448,43.457973],[4.989161,43.458527],[4.9887,43.458542],[4.988276,43.458603],[4.987863,43.458649],[4.987181,43.45863],[4.986666,43.45871],[4.986463,43.459],[4.986409,43.459911],[4.98525,43.460873],[4.985036,43.461189],[4.984826,43.461597],[4.98459,43.461693],[4.984124,43.461651],[4.983716,43.461685],[4.983845,43.461945],[4.983834,43.462269],[4.983287,43.462746],[4.982938,43.462872],[4.982128,43.462902],[4.981683,43.462791],[4.981393,43.462891],[4.981173,43.463127],[4.981211,43.463631],[4.981168,43.463779],[4.981291,43.46434],[4.980991,43.464649],[4.98053,43.465233],[4.980374,43.4659],[4.980138,43.466541],[4.9801,43.467197],[4.979945,43.467777],[4.98002,43.469498],[4.980197,43.471481],[4.979478,43.47295],[4.978062,43.474335],[4.977719,43.474529],[4.977654,43.475086],[4.978389,43.475842],[4.978244,43.476173],[4.978083,43.476448],[4.977697,43.47694],[4.977316,43.4772],[4.976522,43.478176],[4.976034,43.478516],[4.975412,43.478851],[4.975031,43.47934],[4.974747,43.479607],[4.974473,43.480209],[4.974291,43.480808],[4.973808,43.481518],[4.973234,43.482037],[4.972966,43.482113],[4.97259,43.482731],[4.972676,43.482857],[4.973191,43.482803],[4.973674,43.483013],[4.97391,43.4832],[4.974591,43.483311],[4.974784,43.483227],[4.975069,43.483009],[4.975433,43.482906],[4.975981,43.482914],[4.976479,43.482761],[4.977225,43.482334],[4.977772,43.481934],[4.978035,43.48196],[4.978293,43.481861],[4.978867,43.481804],[4.979446,43.481834],[4.980025,43.481987],[4.981157,43.482189],[4.981903,43.482063],[4.982412,43.481747],[4.983265,43.481579],[4.984279,43.481636],[4.984966,43.481815],[4.986087,43.481937],[4.986838,43.48193],[4.986886,43.482079],[4.986758,43.482586],[4.987171,43.483414],[4.987348,43.483894],[4.988582,43.485779],[4.988893,43.486427],[4.989118,43.486996],[4.989579,43.487072],[4.990073,43.487358],[4.990459,43.487217],[4.991028,43.486565],[4.991934,43.486027],[4.992417,43.485611],[4.993211,43.48513],[4.993522,43.484722],[4.993694,43.484673],[4.993678,43.484146],[4.993989,43.483906],[4.994364,43.483852],[4.994895,43.483952],[4.995078,43.483883],[4.995791,43.483009],[4.995866,43.481018],[4.996076,43.478897],[4.996119,43.477825],[4.996414,43.476242],[4.99761,43.475464],[4.997621,43.475006],[4.99798,43.474899],[4.998093,43.474735],[4.998693,43.47459],[4.998795,43.474819],[4.999198,43.4744],[4.999402,43.474384],[4.999541,43.474236],[5.000287,43.474354],[4.999992,43.475067],[5.000158,43.475651],[5.00019,43.476421],[5.000222,43.477287],[5.000153,43.477894],[5.000319,43.478512],[5.000453,43.478725],[5.00055,43.479183],[5.000871,43.479458],[5.00151,43.479237],[5.001901,43.479275],[5.002089,43.479416],[5.002143,43.47971],[5.002475,43.4799],[5.002722,43.480244],[5.002679,43.480789],[5.00276,43.481148],[5.00276,43.481419],[5.002974,43.481834],[5.00299,43.482697],[5.002926,43.483353],[5.002695,43.484028],[5.002781,43.486004],[5.001998,43.487293],[5.001011,43.488464],[5.000442,43.489857],[5.000485,43.490524],[5.00026,43.49139],[4.999906,43.491989],[5.000013,43.492863],[4.999777,43.493687],[4.999809,43.494541],[4.999423,43.49543],[4.999455,43.496223],[4.999294,43.496605],[4.998661,43.497009],[4.997846,43.497841],[4.997503,43.499569],[4.998039,43.501724],[4.998415,43.502567],[4.998415,43.503452],[4.998704,43.503998],[4.998779,43.504292],[4.99909,43.504543],[4.999423,43.505695],[4.99938,43.507423],[4.99879,43.508495],[4.999144,43.509483],[4.999144,43.509483],[4.999336,43.509701],[4.999572,43.510395],[4.999992,43.511467],[4.999799,43.511555],[4.999863,43.512108],[4.999713,43.512508],[4.998854,43.512386],[4.997309,43.513771],[4.997374,43.513882],[4.996655,43.514542],[4.996666,43.514729],[4.996419,43.515575],[4.996033,43.51619],[4.99614,43.516636],[4.996108,43.517342],[4.996408,43.517776],[4.996516,43.518059],[4.996837,43.51833],[4.998178,43.518703],[4.998533,43.51899],[4.998758,43.519356],[4.999133,43.519482],[4.99908,43.519707],[4.999133,43.52005],[4.999498,43.520149],[4.999402,43.520367],[4.999917,43.520523],[5.000281,43.520401],[5.001268,43.520664],[5.002116,43.521061],[5.002363,43.521488],[5.002642,43.521736],[5.002599,43.522438],[5.002781,43.522968],[5.002556,43.52327],[5.002599,43.524101],[5.00217,43.524639],[5.001708,43.524982],[5.001204,43.5261],[5.002663,43.526638],[5.002652,43.527161],[5.002384,43.527626],[5.002524,43.527813],[5.002706,43.528404],[5.002964,43.528576],[5.002974,43.52943],[5.003361,43.530209],[5.003393,43.530746],[5.0035,43.53167],[5.003479,43.532356],[5.004015,43.532688],[5.004208,43.533306],[5.004283,43.534813],[5.004036,43.535225],[5.003092,43.535965],[5.002438,43.536766],[5.003178,43.537155],[5.002824,43.537544],[5.002459,43.538315],[5.002449,43.538624],[5.002652,43.538639],[5.002846,43.538921],[5.003242,43.539021],[5.004283,43.538849],[5.005893,43.539066],[5.006901,43.539101],[5.006858,43.539417],[5.00703,43.539761],[5.00733,43.539993],[5.007437,43.540359],[5.007094,43.54089],[5.007362,43.541565],[5.006772,43.543064],[5.006193,43.543056],[5.005903,43.543259],[5.005571,43.543282],[5.00541,43.54372],[5.005141,43.543854],[5.005061,43.54406],[5.00505,43.545364],[5.00519,43.545467],[5.005222,43.54557],[5.005442,43.545624],[5.005592,43.545742],[5.005758,43.546444],[5.00608,43.546627],[5.006284,43.546673],[5.00645,43.546768],[5.00667,43.54681],[5.006601,43.546539],[5.006767,43.546513],[5.007051,43.546886],[5.00725,43.547646],[5.007121,43.548294],[5.007164,43.548611],[5.007035,43.548878],[5.006992,43.5494],[5.007116,43.549641],[5.007057,43.54987],[5.007094,43.550011],[5.00755,43.550255],[5.007958,43.550552],[5.008285,43.550724],[5.008564,43.551037],[5.008848,43.551128],[5.00953,43.551163],[5.009921,43.551277],[5.010098,43.551445],[5.010281,43.551926],[5.010248,43.552631],[5.010329,43.552902],[5.010484,43.553131],[5.010468,43.553295],[5.010501,43.554058],[5.010447,43.554405],[5.01049,43.554794],[5.010324,43.555252],[5.010152,43.555935],[5.010329,43.556236],[5.010356,43.556549],[5.010468,43.556973],[5.011273,43.558144],[5.011547,43.55827],[5.011611,43.558426],[5.011482,43.558662],[5.011488,43.558857],[5.011745,43.559124],[5.012298,43.559624],[5.012212,43.560101],[5.012335,43.560612],[5.013161,43.561287],[5.01321,43.561604],[5.012389,43.561749],[5.012405,43.56184],[5.012539,43.561928],[5.012464,43.562096],[5.012131,43.56216],[5.012657,43.563099],[5.012947,43.564137],[5.013365,43.564964],[5.013295,43.565327],[5.012775,43.566071],[5.012298,43.567169],[5.012351,43.567581],[5.012947,43.568584],[5.014384,43.570255],[5.015227,43.570072],[5.015473,43.569908],[5.015768,43.569862],[5.015865,43.570141],[5.01469,43.570576],[5.013848,43.570999],[5.013338,43.571419],[5.012968,43.571934],[5.012754,43.572433],[5.012695,43.573204],[5.012861,43.574287],[5.012861,43.57486],[5.012695,43.575195],[5.011852,43.576279],[5.011316,43.577286],[5.01101,43.577648],[5.010442,43.578014],[5.009803,43.578243],[5.008816,43.5784],[5.005335,43.578751],[5.003715,43.578991],[5.002765,43.579239],[5.000517,43.579956],[5.000861,43.581104],[5.001794,43.581081],[5.001853,43.581455],[5.002078,43.581482],[5.003902,43.583317],[5.00725,43.586658],[5.008478,43.586849],[5.010045,43.5886],[5.010281,43.58894],[5.011863,43.590675],[5.01278,43.590698],[5.013193,43.590977],[5.01343,43.590191],[5.016611,43.590778],[5.016777,43.590984],[5.017093,43.591621],[5.01793,43.592632],[5.018719,43.593433],[5.019164,43.593769],[5.019647,43.59396],[5.021342,43.594269],[5.021455,43.594582],[5.021648,43.594837],[5.021954,43.595367],[5.02227,43.595547],[5.023177,43.595673],[5.023466,43.595745],[5.023767,43.595268],[5.023992,43.594883],[5.025446,43.595207],[5.02551,43.595051],[5.025988,43.594658],[5.026025,43.594795],[5.026363,43.594688],[5.027071,43.594658],[5.027543,43.594833],[5.027559,43.595425],[5.028809,43.595482],[5.029051,43.595661],[5.029072,43.595779],[5.028927,43.595997],[5.031309,43.59634],[5.032543,43.595833],[5.03345,43.595627],[5.033825,43.595188],[5.033868,43.595219],[5.033568,43.595577],[5.033498,43.595985],[5.033734,43.596184],[5.034072,43.596367],[5.034844,43.596935],[5.035499,43.596943],[5.035686,43.597],[5.035842,43.597019],[5.035896,43.597099],[5.03589,43.597233],[5.036159,43.597507],[5.03626,43.597645],[5.03684,43.598183],[5.037135,43.598328],[5.037457,43.598373],[5.037773,43.598236],[5.038261,43.598286],[5.038825,43.598236],[5.039254,43.59811],[5.039576,43.598164],[5.03993,43.598309],[5.040085,43.598312],[5.040096,43.59856],[5.040632,43.598709],[5.040869,43.598701],[5.04118,43.598774],[5.041378,43.598629],[5.041834,43.598816],[5.04222,43.59885],[5.042553,43.598942],[5.0428,43.59893],[5.043615,43.59903],[5.043663,43.599255],[5.044034,43.59967],[5.044388,43.600296],[5.044795,43.600689],[5.045444,43.600594],[5.045359,43.600075],[5.045745,43.600304],[5.046855,43.60067],[5.046517,43.600857],[5.046195,43.601322],[5.046217,43.602634],[5.046174,43.603577],[5.044393,43.605282],[5.044017,43.605522],[5.043744,43.605904],[5.043213,43.606422],[5.042886,43.606628],[5.042531,43.607048],[5.042585,43.60738],[5.042322,43.60791],[5.042751,43.607841],[5.043336,43.608013],[5.043765,43.608322],[5.044715,43.608456],[5.045294,43.608444],[5.046979,43.608677],[5.04737,43.608707],[5.047649,43.608524],[5.047778,43.608246],[5.048352,43.607891],[5.048878,43.607727],[5.049484,43.607811],[5.050042,43.607758],[5.050583,43.607388],[5.051136,43.607388],[5.051742,43.607471],[5.052906,43.607513],[5.054038,43.607479],[5.054457,43.607361],[5.055315,43.606998],[5.056715,43.606586],[5.05775,43.606148],[5.058099,43.606125],[5.058807,43.606396],[5.060019,43.606503],[5.061425,43.606449],[5.061774,43.606308],[5.062256,43.606312],[5.062943,43.606514],[5.062814,43.606876],[5.06297,43.60714],[5.063705,43.607475],[5.065679,43.609936],[5.066333,43.609573],[5.066805,43.609577],[5.067583,43.609398],[5.067546,43.608833],[5.06805,43.60886],[5.068758,43.608887],[5.068597,43.609154],[5.068544,43.609726],[5.068334,43.610004],[5.068318,43.610386],[5.069332,43.610565],[5.070303,43.610569],[5.070738,43.610691],[5.071923,43.610516],[5.072701,43.610531],[5.073157,43.610672],[5.073672,43.61095],[5.074895,43.61195],[5.075442,43.612514],[5.075582,43.612743],[5.076445,43.613064],[5.077674,43.613258],[5.080147,43.613911],[5.082872,43.614548],[5.087389,43.615669],[5.086874,43.61668],[5.086595,43.617496],[5.086611,43.617661],[5.086992,43.618191],[5.087212,43.618755],[5.087239,43.619175],[5.086831,43.620434],[5.086198,43.621498],[5.086654,43.621784],[5.086788,43.622185],[5.086691,43.622505],[5.087442,43.622711],[5.087056,43.623356],[5.087469,43.626328],[5.087657,43.626598],[5.08844,43.627228],[5.089046,43.627895],[5.089599,43.628845],[5.090092,43.630859],[5.08976,43.631691],[5.089889,43.632801],[5.090055,43.633205],[5.090468,43.633488],[5.090543,43.633678],[5.090248,43.634338],[5.090339,43.635418],[5.090602,43.635811],[5.090731,43.636417],[5.090044,43.639221],[5.095881,43.639828],[5.095972,43.639893],[5.096439,43.639957],[5.096358,43.64045],[5.096771,43.640747],[5.096954,43.640755],[5.097168,43.640675],[5.097458,43.640675],[5.097646,43.640419],[5.097554,43.640217],[5.09823,43.639889],[5.099035,43.640057],[5.099099,43.640575],[5.099732,43.640594],[5.100467,43.640717],[5.103176,43.64143],[5.103568,43.641441],[5.104195,43.641243],[5.105124,43.640789],[5.106588,43.640457],[5.107318,43.640121],[5.108171,43.639912],[5.108669,43.639908],[5.109141,43.639748],[5.109957,43.639297],[5.110767,43.639053],[5.113454,43.638996],[5.114254,43.638885],[5.1178,43.637794],[5.118663,43.637672],[5.119575,43.637676],[5.120063,43.637627],[5.120187,43.637928],[5.12001,43.638096],[5.120037,43.638218],[5.120321,43.638233],[5.121109,43.638577],[5.121276,43.63871],[5.122644,43.638584],[5.122907,43.638645],[5.123228,43.638454],[5.123518,43.638378],[5.123464,43.638603],[5.123593,43.638763],[5.123829,43.638756],[5.124366,43.638405],[5.12502,43.638458],[5.125245,43.638603],[5.125111,43.638901],[5.124956,43.639099],[5.124999,43.639286],[5.125331,43.639404],[5.125546,43.639416],[5.1259,43.639603],[5.126458,43.639698],[5.126742,43.639702],[5.127439,43.639988],[5.127933,43.640366],[5.12796,43.640671],[5.128078,43.640766],[5.128164,43.640907],[5.128335,43.64098],[5.128646,43.640816],[5.129006,43.640781],[5.129387,43.640553],[5.129687,43.640499],[5.130095,43.640343],[5.130744,43.639698],[5.131007,43.639606],[5.131366,43.639641],[5.131372,43.639404],[5.131259,43.639111],[5.131415,43.638763],[5.13193,43.638721],[5.132396,43.637657],[5.132289,43.637405],[5.132214,43.637341],[5.1323,43.637295],[5.132836,43.637333],[5.134172,43.63728],[5.134354,43.637161],[5.134896,43.637241],[5.135331,43.637383],[5.136344,43.637947],[5.138013,43.638477],[5.138839,43.63855],[5.139944,43.638771],[5.141113,43.638847],[5.142422,43.639111],[5.143404,43.63913],[5.143817,43.639225],[5.145877,43.639473],[5.146145,43.63855],[5.146269,43.637562],[5.14625,43.63752],[5.14664,43.636051],[5.14733,43.63464],[5.14735,43.634392],[5.14783,43.63414],[5.14859,43.633099],[5.14875,43.63203],[5.14844,43.63142],[5.1485,43.630859],[5.14868,43.63052],[5.1496,43.630219],[5.15076,43.630379],[5.15089,43.629639],[5.15108,43.629101],[5.15122,43.629131],[5.15135,43.628769],[5.15106,43.628632],[5.15105,43.62841],[5.15122,43.62812],[5.15135,43.627991],[5.15127,43.627731],[5.15134,43.627609],[5.15172,43.627659],[5.15198,43.626831],[5.15076,43.626019],[5.15064,43.62582],[5.15149,43.625141],[5.15292,43.621319],[5.15362,43.620171],[5.1552,43.618252],[5.15713,43.61705],[5.15757,43.615261],[5.15757,43.61491],[5.15801,43.61364],[5.15813,43.613541],[5.15851,43.612099],[5.15862,43.611099],[5.159,43.610111],[5.15946,43.60778],[5.15945,43.60743],[5.15955,43.607159],[5.15942,43.606522],[5.1597,43.60582],[5.16016,43.605141],[5.15994,43.604462],[5.16007,43.603649],[5.16074,43.603191],[5.1608,43.602661],[5.16022,43.602291],[5.15991,43.601719],[5.16005,43.60043],[5.15959,43.598869],[5.16035,43.598461],[5.15929,43.597172],[5.15943,43.596569],[5.15854,43.59412],[5.15929,43.592659],[5.16106,43.59008],[5.16174,43.58955],[5.16227,43.58876],[5.16228,43.588341],[5.16354,43.587582],[5.16381,43.587601],[5.16469,43.585239],[5.16565,43.584862],[5.16629,43.583569],[5.16772,43.581581],[5.16838,43.580891],[5.16882,43.57967],[5.16914,43.579071],[5.1694,43.578251],[5.17023,43.576672],[5.17082,43.575241],[5.1712,43.574841],[5.17078,43.57444],[5.17069,43.574059],[5.17089,43.57365],[5.17077,43.573132],[5.17089,43.572639],[5.17077,43.57233],[5.17082,43.571911],[5.17098,43.571491],[5.17108,43.570679],[5.17124,43.5704],[5.17161,43.570229],[5.17281,43.570061],[5.17359,43.570332],[5.17438,43.570171],[5.17486,43.56992],[5.1764,43.569592],[5.17809,43.56905],[5.17877,43.568699],[5.17927,43.56826],[5.17963,43.56776],[5.17963,43.566818],[5.17979,43.566189],[5.1801,43.565559],[5.18053,43.565239],[5.18093,43.56464],[5.18279,43.56461],[5.1835,43.56485],[5.18466,43.565041],[5.18615,43.564812],[5.18751,43.564541],[5.18845,43.564289],[5.18927,43.563709],[5.19007,43.56345],[5.1903,43.563171],[5.19076,43.56308],[5.19102,43.56287],[5.19275,43.562618],[5.19347,43.56234],[5.19364,43.562031],[5.19355,43.561939],[5.19322,43.561939],[5.19283,43.561859],[5.19211,43.561951],[5.19166,43.56218],[5.19098,43.562069],[5.19058,43.561829],[5.19081,43.561161],[5.19194,43.560322],[5.19218,43.559841],[5.1924,43.559029],[5.193,43.558472],[5.19345,43.55756],[5.1935,43.55682],[5.19333,43.556179],[5.19351,43.555779],[5.19335,43.55513],[5.19271,43.554691],[5.19285,43.553848],[5.19319,43.553749],[5.19321,43.553612],[5.19302,43.55357],[5.1934,43.552101],[5.1938,43.551682],[5.19413,43.55122],[5.19398,43.55093],[5.19393,43.550381],[5.19515,43.55043],[5.1971,43.550678],[5.19801,43.550671],[5.198,43.549702],[5.19933,43.549671],[5.20053,43.54958],[5.20183,43.54929],[5.20115,43.541489],[5.1979,43.54126],[5.19775,43.535992],[5.19333,43.534481],[5.19556,43.53162],[5.19568,43.531799],[5.19651,43.532219],[5.19757,43.532249],[5.19788,43.532108],[5.19803,43.531849],[5.19804,43.531738],[5.1982,43.531559],[5.19838,43.531609],[5.19858,43.531551],[5.19882,43.531658],[5.19984,43.531651],[5.20024,43.531799],[5.20093,43.532299],[5.20188,43.533119],[5.20217,43.533951],[5.20204,43.53463],[5.20224,43.534859],[5.20186,43.535419],[5.20177,43.535671],[5.20188,43.535912],[5.20237,43.536301],[5.20285,43.536518],[5.20303,43.53651],[5.20524,43.53746],[5.20548,43.537781],[5.2061,43.538151],[5.20614,43.538631],[5.20631,43.538761],[5.20708,43.539001],[5.20742,43.53928],[5.20778,43.539669],[5.20798,43.539982],[5.20895,43.540741],[5.20952,43.540859],[5.21067,43.540352],[5.21121,43.540298],[5.21162,43.540321],[5.21224,43.54015],[5.21265,43.540131],[5.21298,43.540169],[5.2132,43.540081],[5.21369,43.540009],[5.21448,43.539558],[5.21461,43.539242],[5.21447,43.53862],[5.21513,43.5382],[5.21675,43.538181],[5.21726,43.538078],[5.21781,43.537498],[5.21949,43.538319],[5.21961,43.53886],[5.22092,43.539982],[5.22155,43.540321],[5.22229,43.540428],[5.2232,43.540359],[5.22355,43.540421],[5.22447,43.54073],[5.22471,43.541409],[5.22664,43.541931],[5.22752,43.541649],[5.22913,43.54208],[5.22958,43.542091],[5.23077,43.542332],[5.23273,43.542419],[5.23273,43.542271],[5.23299,43.54208],[5.23297,43.54158],[5.23391,43.539799],[5.23453,43.538979],[5.23421,43.53875],[5.23459,43.538712],[5.23552,43.539219],[5.23592,43.539391],[5.23678,43.53952],[5.23728,43.539688],[5.23704,43.540161],[5.23771,43.540279],[5.23836,43.54023],[5.23853,43.540352],[5.23895,43.540401],[5.23937,43.540321],[5.23999,43.539299],[5.24045,43.53944],[5.24082,43.539341],[5.24148,43.539322],[5.2418,43.53912],[5.24184,43.538811],[5.24229,43.538559],[5.24259,43.538311],[5.24267,43.538471],[5.24309,43.538521],[5.24368,43.53883],[5.24423,43.539009],[5.2456,43.53717],[5.24567,43.536781],[5.24596,43.53656],[5.24668,43.536659],[5.24707,43.536591],[5.24722,43.53643],[5.24729,43.536282],[5.24788,43.536388],[5.24814,43.536388],[5.24816,43.536259],[5.24809,43.536072],[5.24834,43.53524],[5.24816,43.53484],[5.24837,43.533649],[5.24917,43.5336],[5.24941,43.533409],[5.24995,43.532299],[5.24944,43.531898],[5.24822,43.53141],[5.24905,43.52985],[5.24989,43.528831],[5.25085,43.528091],[5.25133,43.527962],[5.25199,43.527519],[5.25183,43.527328],[5.25186,43.527061],[5.25228,43.526588],[5.25246,43.526051],[5.25323,43.524811],[5.25362,43.524551],[5.25342,43.524288],[5.25343,43.52335],[5.25324,43.52322],[5.25302,43.523289],[5.2527,43.522911],[5.25236,43.52264],[5.25211,43.522289],[5.25225,43.522072],[5.25276,43.521729],[5.25299,43.52174],[5.25331,43.52182],[5.25413,43.52142],[5.25478,43.521],[5.255,43.52058],[5.25544,43.52034],[5.25592,43.520012],[5.25638,43.519798],[5.2577,43.519482],[5.25733,43.5191],[5.25726,43.518841],[5.25735,43.518581],[5.25768,43.518421],[5.2583,43.51823],[5.25881,43.51796],[5.25926,43.517151],[5.25921,43.516239],[5.2596,43.514179],[5.25966,43.513081],[5.25958,43.511391],[5.25976,43.510769],[5.25938,43.508251],[5.25912,43.507011],[5.25907,43.506271],[5.25925,43.506039],[5.25936,43.50573],[5.25915,43.50526],[5.25881,43.50502],[5.25814,43.504299],[5.25824,43.504101],[5.25772,43.503139],[5.25677,43.503368],[5.25665,43.503799],[5.25645,43.50399],[5.25546,43.504292],[5.25489,43.504341],[5.25464,43.504238],[5.25392,43.504539],[5.25301,43.50457],[5.25229,43.504372],[5.25149,43.504391],[5.25113,43.504292],[5.25046,43.504742],[5.25018,43.50478],[5.2499,43.50507],[5.24967,43.505508],[5.24946,43.505741],[5.24904,43.505249],[5.24896,43.504951],[5.24805,43.50362],[5.24795,43.50322],[5.24846,43.50219],[5.24862,43.501701],[5.24885,43.50132],[5.24904,43.500889],[5.24902,43.50013],[5.24939,43.499241],[5.24921,43.498669],[5.24913,43.498131],[5.24881,43.497971],[5.24847,43.497601],[5.24805,43.497379],[5.24791,43.497211],[5.24786,43.49691],[5.24734,43.496571],[5.24705,43.496239],[5.24649,43.495892],[5.246,43.49519],[5.24624,43.49448],[5.24624,43.493801],[5.24584,43.49321],[5.24487,43.492962],[5.24441,43.49258],[5.2444,43.49157],[5.24431,43.49102],[5.24451,43.490429],[5.24555,43.489349],[5.24633,43.488838],[5.24693,43.4888],[5.24773,43.488419],[5.24853,43.48761],[5.24893,43.48698],[5.24903,43.486252],[5.24913,43.48624],[5.24929,43.486568],[5.24981,43.48724],[5.25049,43.487659],[5.25088,43.487701],[5.25248,43.48822],[5.25279,43.48822],[5.25312,43.488468],[5.25478,43.488941],[5.25493,43.48904],[5.2554,43.48885],[5.25567,43.488609],[5.25569,43.48893],[5.25583,43.48893],[5.25606,43.48867],[5.25702,43.488281],[5.25781,43.488171],[5.25827,43.487911],[5.2585,43.487331],[5.25898,43.486481],[5.25901,43.484749],[5.25934,43.483959],[5.25938,43.483158],[5.25948,43.482559],[5.25938,43.482182],[5.2591,43.48167],[5.25908,43.481461],[5.25848,43.4809],[5.258,43.480202],[5.25734,43.480221],[5.25667,43.48019],[5.25545,43.47887],[5.25446,43.478088],[5.25394,43.47794],[5.25383,43.47781],[5.25407,43.47752],[5.25193,43.475681],[5.24952,43.47403],[5.24823,43.471901],[5.24849,43.471199],[5.24827,43.470749],[5.24731,43.470181],[5.24767,43.469799],[5.24832,43.469601],[5.24856,43.469379],[5.24885,43.469219],[5.24956,43.468418],[5.25015,43.46748],[5.25087,43.466919],[5.25077,43.466621],[5.25139,43.46603],[5.25196,43.465092],[5.25238,43.46413],[5.25268,43.463058],[5.25271,43.462589],[5.25301,43.461761],[5.253171,43.461506],[5.253498,43.461155]]],"type":"MultiLineString"},"properties":{"geo_point":{"lon":5.133290423164195,"lat":43.485024793376645},"name":"GR2013 Tour de l'étang de Berre (Bouches-du-Rhône)","code_gr":"GR2013"}},{"type":"Feature","geometry":{"coordinates":[[[5.373692,43.296099],[5.372851,43.296338],[5.370208,43.296107],[5.3699,43.296834],[5.369579,43.296834],[5.36915,43.29747],[5.36875,43.2976],[5.367381,43.297687],[5.365541,43.297743],[5.36558,43.29731],[5.3651,43.297272],[5.36464,43.296982],[5.36362,43.295712],[5.361967,43.295401],[5.361653,43.296025],[5.362563,43.296462],[5.36299,43.297352],[5.36538,43.304852],[5.36622,43.305168],[5.367343,43.308909],[5.366479,43.309071],[5.366546,43.309439],[5.366901,43.309717],[5.367213,43.311135],[5.36712,43.311867],[5.366854,43.312319],[5.366181,43.313052],[5.36567,43.313831],[5.365441,43.314336],[5.365342,43.314778],[5.36482,43.315632],[5.36365,43.31702],[5.362746,43.318318],[5.362598,43.318962],[5.362889,43.320819],[5.36486,43.320808],[5.36479,43.321129],[5.36493,43.32159],[5.36428,43.322369],[5.36388,43.323051],[5.36184,43.32502],[5.360349,43.32735],[5.35913,43.328732],[5.35905,43.329151],[5.35901,43.33025],[5.35908,43.330429],[5.35801,43.330471],[5.35754,43.330799],[5.35681,43.331089],[5.35566,43.33197],[5.3554,43.33289],[5.35542,43.33345],[5.35481,43.333569],[5.35488,43.3339],[5.35453,43.335468],[5.354266,43.335925],[5.35346,43.33633],[5.35292,43.336349],[5.35253,43.33643],[5.35255,43.336529],[5.35279,43.336578],[5.35272,43.337219],[5.352,43.337219],[5.35213,43.337631],[5.352049,43.338422],[5.351749,43.338755],[5.35188,43.339081],[5.35166,43.339008],[5.351621,43.339392],[5.351134,43.339285],[5.35079,43.33942],[5.3506,43.340469],[5.350723,43.341242],[5.350331,43.341671],[5.35017,43.342102],[5.350235,43.342525],[5.350181,43.34288],[5.349714,43.343361],[5.349188,43.343548],[5.348459,43.343193],[5.348062,43.343285],[5.347751,43.343674],[5.347555,43.343739],[5.347359,43.344101],[5.346946,43.344763],[5.346276,43.345596],[5.34575,43.346516],[5.345551,43.346806],[5.345693,43.346833],[5.345986,43.346657],[5.346689,43.346112],[5.346989,43.345787],[5.347129,43.345846],[5.34774,43.345717],[5.348234,43.345852],[5.348614,43.346096],[5.348604,43.346458],[5.348727,43.346851],[5.349441,43.347187],[5.349585,43.346943],[5.349789,43.346924],[5.350009,43.347103],[5.350454,43.347157],[5.351248,43.346813],[5.351817,43.346684],[5.353207,43.346933],[5.354204,43.346947],[5.354398,43.347071],[5.35458,43.347424],[5.354859,43.34766],[5.35562,43.348146],[5.35569,43.348434],[5.356117,43.348339],[5.356479,43.348384],[5.356811,43.349148],[5.357012,43.349355],[5.357385,43.349937],[5.357332,43.350479],[5.357525,43.350925],[5.357675,43.352009],[5.357396,43.352486],[5.357707,43.352627],[5.357224,43.353692],[5.357101,43.353981],[5.35679,43.354383],[5.356661,43.354237],[5.356173,43.354074],[5.355883,43.35424],[5.355717,43.354599],[5.355765,43.354884],[5.355368,43.355319],[5.354961,43.355545],[5.354677,43.355622],[5.354703,43.355813],[5.354435,43.356014],[5.35451,43.356183],[5.35458,43.356386],[5.354601,43.356589],[5.354413,43.356785],[5.354118,43.357026],[5.354033,43.357128],[5.35385,43.357342],[5.353925,43.357891],[5.353743,43.358536],[5.353775,43.358852],[5.354038,43.359222],[5.354306,43.359508],[5.354483,43.359961],[5.355486,43.361584],[5.355358,43.362389],[5.355229,43.363766],[5.355304,43.363998],[5.355325,43.364597],[5.354853,43.364925],[5.35451,43.365188],[5.354531,43.365974],[5.352509,43.365831],[5.352222,43.365908],[5.351199,43.365923],[5.349725,43.366047],[5.349334,43.365908],[5.348829,43.365955],[5.3487,43.366155],[5.34876,43.366319],[5.348888,43.366164],[5.34899,43.366432],[5.349065,43.366848],[5.348716,43.368507],[5.349188,43.369156],[5.349805,43.369934],[5.35024,43.370255],[5.350165,43.369864],[5.350589,43.369765],[5.351291,43.370762],[5.352123,43.371877],[5.35311,43.37195],[5.353388,43.371724],[5.353726,43.371774],[5.354177,43.371431],[5.354644,43.371165],[5.35614,43.371309],[5.356006,43.372496],[5.356511,43.372543],[5.35654,43.372417],[5.357238,43.372463],[5.35757,43.372587],[5.357793,43.372742],[5.356615,43.373703],[5.356661,43.373883],[5.35705,43.374531],[5.357367,43.374737],[5.357734,43.375088],[5.358729,43.376465],[5.358584,43.37645],[5.35856,43.376556],[5.358238,43.376656],[5.354529,43.37711],[5.353984,43.377432],[5.353587,43.377755],[5.351302,43.381081],[5.350849,43.381248],[5.350836,43.381526],[5.350395,43.38224],[5.350385,43.382725],[5.350833,43.383652],[5.350607,43.383835],[5.350605,43.38406],[5.350634,43.384399],[5.35043,43.385025],[5.350173,43.38533],[5.349202,43.385883],[5.348252,43.386574],[5.348545,43.386948],[5.348504,43.387173],[5.34774,43.38829],[5.347217,43.389198],[5.347005,43.389393],[5.346163,43.390289],[5.345911,43.390835],[5.345042,43.391795],[5.344991,43.392529],[5.345136,43.393154],[5.34491,43.393852],[5.344672,43.39439],[5.344666,43.394684],[5.344527,43.394859],[5.344296,43.395397],[5.34413,43.395683],[5.343888,43.396603],[5.343695,43.397682],[5.343795,43.398167],[5.34418,43.398433],[5.344543,43.398628],[5.344728,43.398853],[5.344749,43.399063],[5.34454,43.399185],[5.344095,43.399624],[5.343824,43.40007],[5.342896,43.400913],[5.342491,43.401348],[5.342212,43.401718],[5.341973,43.401794],[5.341517,43.401764],[5.341343,43.401852],[5.34089,43.402626],[5.340678,43.402793],[5.341279,43.402777],[5.342172,43.402822],[5.342524,43.402788],[5.343264,43.402629],[5.344151,43.402534],[5.344567,43.402289],[5.3455,43.402408],[5.345694,43.402557],[5.346136,43.403023],[5.346093,43.403713],[5.345484,43.404778],[5.345267,43.405064],[5.345267,43.4053],[5.34561,43.405701],[5.345769,43.406075],[5.345852,43.406303],[5.346082,43.406685],[5.346238,43.407089],[5.346286,43.407646],[5.346493,43.408096],[5.346702,43.408226],[5.347421,43.408546],[5.347676,43.408726],[5.347993,43.40883],[5.34847,43.408733],[5.349379,43.408596],[5.350666,43.408535],[5.351417,43.408581],[5.35248,43.408573],[5.352783,43.408522],[5.352999,43.408528],[5.352732,43.408721],[5.35319,43.40867],[5.353799,43.408697],[5.354499,43.40857],[5.355599,43.408614],[5.356383,43.408744],[5.356969,43.408841],[5.357334,43.408949],[5.357809,43.408949],[5.358412,43.409082],[5.358981,43.409187],[5.359928,43.409431],[5.360373,43.4091],[5.360679,43.409035],[5.361012,43.409073],[5.361116,43.408833],[5.361419,43.408611],[5.362071,43.408539],[5.362865,43.408665],[5.363292,43.409313],[5.363372,43.409592],[5.363039,43.409825],[5.362194,43.410789],[5.36186,43.411011],[5.361054,43.411428],[5.36073,43.411778],[5.360986,43.412024],[5.361028,43.412481],[5.360824,43.412523],[5.360592,43.413563],[5.359373,43.415788],[5.360078,43.415911],[5.36033,43.417132],[5.359322,43.418988],[5.359563,43.419543],[5.359352,43.420109],[5.363667,43.421423],[5.363989,43.421864],[5.363613,43.42273],[5.365137,43.423149],[5.365786,43.422942],[5.366569,43.423338],[5.367406,43.423563],[5.367899,43.423954],[5.368672,43.424204],[5.369552,43.424983],[5.369831,43.425443],[5.369549,43.426048],[5.37034,43.426933],[5.371043,43.427483],[5.372213,43.427757],[5.373897,43.427883],[5.374777,43.42828],[5.374943,43.428734],[5.374567,43.429405],[5.374229,43.430755],[5.374272,43.430942],[5.373961,43.431191],[5.373543,43.431705],[5.373414,43.43219],[5.373119,43.432568],[5.372577,43.433501],[5.372057,43.43395],[5.371413,43.434731],[5.371408,43.435081],[5.371601,43.435552],[5.371531,43.435901],[5.371108,43.436678],[5.371076,43.437007],[5.371258,43.43757],[5.371215,43.437721],[5.371365,43.437965],[5.371322,43.438297],[5.371485,43.438592],[5.371874,43.438917],[5.372092,43.438989],[5.372459,43.439209],[5.372384,43.439307],[5.372631,43.439545],[5.373302,43.439831],[5.373881,43.440311],[5.375093,43.440675],[5.375774,43.440598],[5.375544,43.440758],[5.374803,43.442816],[5.374621,43.443045],[5.373613,43.443991],[5.372449,43.444856],[5.372132,43.444832],[5.371741,43.445338],[5.371319,43.445542],[5.370125,43.445902],[5.36828,43.447235],[5.366934,43.447815],[5.366626,43.447689],[5.366285,43.447416],[5.365695,43.447275],[5.365341,43.447174],[5.364043,43.447063],[5.363023,43.446915],[5.362401,43.446617],[5.361253,43.44636],[5.3611,43.445999],[5.360261,43.445988],[5.359558,43.445648],[5.358233,43.445339],[5.356833,43.445374],[5.355905,43.445648],[5.35363,43.445625],[5.351463,43.445831],[5.349918,43.445805],[5.348641,43.445557],[5.347837,43.445606],[5.347107,43.4459],[5.347005,43.44617],[5.346793,43.446485],[5.346581,43.44697],[5.345728,43.448321],[5.343615,43.449497],[5.343277,43.450069],[5.343304,43.450645],[5.342783,43.45171],[5.342102,43.452576],[5.341287,43.453979],[5.340385,43.455101],[5.339634,43.456486],[5.338036,43.458176],[5.338465,43.45882],[5.338562,43.459381],[5.33928,43.45929],[5.339849,43.459305],[5.341458,43.458057],[5.342188,43.457741],[5.34266,43.45784],[5.342145,43.45887],[5.341619,43.45953],[5.341136,43.460487],[5.340471,43.460823],[5.339667,43.4608],[5.338368,43.461048],[5.337564,43.461136],[5.336899,43.461384],[5.336899,43.461639],[5.33545,43.462212],[5.335525,43.462687],[5.335762,43.462949],[5.335568,43.463302],[5.335166,43.463324],[5.334707,43.463047],[5.334335,43.463362],[5.334007,43.463383],[5.333701,43.463528],[5.333208,43.463985],[5.332865,43.464188],[5.332875,43.465042],[5.332382,43.465256],[5.332575,43.465816],[5.332575,43.46582],[5.332296,43.466066],[5.332189,43.466396],[5.331652,43.466801],[5.331255,43.467369],[5.331019,43.467553],[5.330837,43.467907],[5.330574,43.468006],[5.33029,43.468479],[5.330091,43.468575],[5.330139,43.468723],[5.329898,43.469063],[5.329818,43.469467],[5.329651,43.469761],[5.329426,43.469837],[5.328981,43.470409],[5.328922,43.470757],[5.328509,43.471092],[5.328814,43.471291],[5.328927,43.471476],[5.328348,43.471977],[5.328171,43.472317],[5.327119,43.473255],[5.326813,43.473625],[5.326352,43.473961],[5.325966,43.474113],[5.325639,43.474358],[5.325403,43.474346],[5.324829,43.474838],[5.324786,43.475231],[5.323536,43.475918],[5.323262,43.476337],[5.322731,43.476742],[5.322677,43.477036],[5.322463,43.477459],[5.322146,43.477772],[5.322087,43.478111],[5.321674,43.478268],[5.321374,43.478588],[5.320542,43.480171],[5.320677,43.480453],[5.320521,43.480766],[5.320521,43.48103],[5.320317,43.481655],[5.320333,43.482044],[5.319963,43.482368],[5.31978,43.482781],[5.319904,43.483044],[5.319459,43.483238],[5.319099,43.483772],[5.319057,43.484184],[5.319341,43.484573],[5.319711,43.484772],[5.319985,43.485027],[5.320961,43.485424],[5.321218,43.485676],[5.321969,43.48595],[5.322672,43.485737],[5.323176,43.485748],[5.324646,43.486462],[5.325982,43.486843],[5.326551,43.487732],[5.326543,43.488044],[5.326309,43.488247],[5.326309,43.488247],[5.326267,43.488434],[5.326293,43.488548],[5.326878,43.489017],[5.327109,43.489128],[5.328305,43.488438],[5.329201,43.487923],[5.329753,43.48772],[5.330257,43.487728],[5.330869,43.487946],[5.331282,43.488018],[5.331507,43.488232],[5.331416,43.488441],[5.330858,43.489052],[5.330729,43.489422],[5.330842,43.490025],[5.331041,43.490761],[5.331985,43.490833],[5.332387,43.49099],[5.332065,43.491355],[5.331802,43.491586],[5.331459,43.491918],[5.332253,43.492108],[5.331808,43.492095],[5.331518,43.492279],[5.331384,43.492511],[5.331818,43.492716],[5.331885,43.492935],[5.332144,43.492974],[5.332274,43.493076],[5.332167,43.493385],[5.332135,43.493687],[5.331953,43.494884],[5.331926,43.495686],[5.331507,43.496391],[5.331228,43.496616],[5.331057,43.496922],[5.330778,43.497215],[5.330665,43.497631],[5.330665,43.497826],[5.331159,43.497704],[5.331309,43.497791],[5.331502,43.49807],[5.332006,43.498508],[5.332033,43.498756],[5.33221,43.498959],[5.332328,43.4995],[5.332435,43.499672],[5.332473,43.499802],[5.332725,43.499989],[5.332945,43.500031],[5.333213,43.500153],[5.333283,43.500248],[5.333776,43.500511],[5.334045,43.50061],[5.334098,43.500759],[5.334404,43.501011],[5.334817,43.501148],[5.334989,43.500999],[5.33523,43.501034],[5.335348,43.501129],[5.335718,43.501186],[5.33604,43.501064],[5.336319,43.500809],[5.336357,43.500542],[5.336882,43.50029],[5.337092,43.500084],[5.337988,43.499508],[5.338411,43.499355],[5.339468,43.499004],[5.339565,43.499126],[5.340171,43.499233],[5.34045,43.499599],[5.340616,43.499744],[5.340809,43.499508],[5.341684,43.49931],[5.341807,43.499157],[5.342472,43.499294],[5.343223,43.499313],[5.344065,43.499771],[5.344763,43.500034],[5.34494,43.499863],[5.345321,43.49968],[5.345744,43.499306],[5.345964,43.499222],[5.346125,43.49902],[5.346276,43.498924],[5.346377,43.498741],[5.346973,43.498297],[5.347134,43.498311],[5.347375,43.498705],[5.347515,43.499052],[5.347654,43.499108],[5.347976,43.499129],[5.348501,43.499234],[5.348791,43.499184],[5.34951,43.498925],[5.350028,43.499507],[5.350192,43.499543],[5.350738,43.500106],[5.352906,43.501396],[5.353657,43.501457],[5.354612,43.501748],[5.357857,43.503075],[5.358839,43.503265],[5.359719,43.503265],[5.360234,43.503048],[5.360765,43.502583],[5.361511,43.501507],[5.362042,43.500889],[5.363603,43.499794],[5.364434,43.499035],[5.364901,43.498566],[5.367846,43.498669],[5.371247,43.498764],[5.374063,43.498928],[5.375968,43.499256],[5.377668,43.499718],[5.378972,43.500191],[5.380592,43.500973],[5.381531,43.501534],[5.382416,43.502029],[5.383639,43.503307],[5.384084,43.503502],[5.385221,43.503944],[5.386063,43.504478],[5.386047,43.504602],[5.386589,43.504891],[5.386777,43.505117],[5.386994,43.50525],[5.387458,43.505104],[5.386906,43.505737],[5.386648,43.506622],[5.386342,43.507732],[5.385876,43.507705],[5.385348,43.507634],[5.384723,43.507688],[5.384223,43.50806],[5.384073,43.510139],[5.383714,43.510811],[5.382845,43.51189],[5.381858,43.514313],[5.382271,43.514332],[5.383,43.513786],[5.383934,43.513363],[5.384524,43.513325],[5.385033,43.513462],[5.385575,43.513794],[5.386181,43.514179],[5.38675,43.514393],[5.387115,43.514679],[5.387319,43.514999],[5.387764,43.515564],[5.388258,43.516075],[5.389025,43.516342],[5.389797,43.516479],[5.389883,43.516869],[5.392533,43.518524],[5.395438,43.52009],[5.39727,43.521065],[5.399877,43.522919],[5.40015,43.523376],[5.400344,43.523834],[5.400842,43.524521],[5.401175,43.525317],[5.401453,43.525657],[5.401218,43.525895],[5.401234,43.526175],[5.401894,43.526657],[5.405332,43.528176],[5.405676,43.528076],[5.405826,43.527626],[5.406314,43.527393],[5.406904,43.526772],[5.407103,43.526424],[5.407087,43.525978],[5.407403,43.525684],[5.407956,43.525951],[5.408406,43.526157],[5.408717,43.526249],[5.409232,43.526107],[5.409464,43.526144],[5.40993,43.525858],[5.410316,43.525498],[5.410498,43.525416],[5.410681,43.52512],[5.410783,43.524902],[5.411051,43.524948],[5.411341,43.525101],[5.411544,43.525177],[5.411834,43.525416],[5.41215,43.52514],[5.412355,43.524628],[5.412462,43.52403],[5.412548,43.524048],[5.412655,43.524261],[5.41302,43.524151],[5.413277,43.524181],[5.414178,43.524577],[5.414506,43.524914],[5.414296,43.525344],[5.414994,43.525742],[5.415202,43.525844],[5.415868,43.525806],[5.415927,43.525612],[5.416206,43.525593],[5.416512,43.525356],[5.416866,43.525269],[5.417477,43.525043],[5.417864,43.52512],[5.418175,43.525013],[5.418674,43.524593],[5.419516,43.524166],[5.420095,43.524357],[5.420879,43.524457],[5.421254,43.524359],[5.422585,43.524214],[5.422941,43.52409],[5.423534,43.524014],[5.423534,43.524186],[5.42451,43.524098],[5.42502,43.523846],[5.426286,43.523941],[5.426447,43.522984],[5.426248,43.521629],[5.42671,43.521595],[5.427552,43.521805],[5.427541,43.522045],[5.427814,43.522272],[5.428152,43.522453],[5.429515,43.522171],[5.43083,43.52354],[5.433034,43.523132],[5.433335,43.523849],[5.433914,43.523983],[5.435202,43.523853],[5.435684,43.524487],[5.435829,43.524807],[5.43622,43.524909],[5.436575,43.524965],[5.437283,43.524655],[5.437787,43.525303],[5.437975,43.525368],[5.439815,43.524536],[5.441328,43.526245],[5.442615,43.526455],[5.445431,43.526554],[5.445699,43.526332],[5.451273,43.527039],[5.451386,43.527218],[5.451939,43.527515],[5.451509,43.528267],[5.451182,43.528481],[5.451418,43.529202],[5.453194,43.529444],[5.45513,43.530445],[5.456525,43.531094],[5.45733,43.530342],[5.457893,43.53035],[5.458912,43.530602],[5.459196,43.53079],[5.459685,43.530838],[5.460827,43.530945],[5.460854,43.5312],[5.462801,43.532108],[5.464829,43.532703],[5.465312,43.53273],[5.46558,43.532619],[5.46565,43.532215],[5.466299,43.53207],[5.467393,43.532097],[5.468584,43.531845],[5.469523,43.531796],[5.470494,43.531734],[5.471057,43.531624],[5.471282,43.531536],[5.471605,43.531541],[5.472438,43.531362],[5.473256,43.531282],[5.473621,43.531372],[5.474258,43.531362],[5.47422,43.531731],[5.47429,43.53191],[5.47485,43.531841],[5.47587,43.531601],[5.4765,43.531651],[5.47722,43.531189],[5.47753,43.530891],[5.47785,43.530998],[5.47822,43.530998],[5.4786,43.531139],[5.47927,43.53104],[5.47961,43.531059],[5.47996,43.530899],[5.48023,43.530682],[5.48108,43.530472],[5.48189,43.530441],[5.48305,43.530041],[5.48376,43.529701],[5.48423,43.529079],[5.484509,43.529],[5.48658,43.529049],[5.48755,43.529331],[5.48865,43.529549],[5.48907,43.529449],[5.49069,43.528709],[5.49105,43.528519],[5.49204,43.528809],[5.49246,43.52903],[5.49314,43.529701],[5.49379,43.53009],[5.49509,43.53038],[5.49687,43.530689],[5.49727,43.530571],[5.49885,43.53059],[5.4993,43.53054],[5.49963,43.530621],[5.50084,43.531319],[5.50139,43.531582],[5.50157,43.531761],[5.50224,43.532059],[5.50255,43.532108],[5.502898,43.532209],[5.503429,43.532146],[5.50366,43.531849],[5.50409,43.531479],[5.50429,43.531391],[5.50479,43.530651],[5.50507,43.529949],[5.50503,43.529659],[5.50523,43.529072],[5.505,43.52882],[5.50444,43.528721],[5.50367,43.528801],[5.50352,43.528751],[5.50394,43.528648],[5.50454,43.528389],[5.50519,43.528488],[5.50615,43.528809],[5.50662,43.52877],[5.506875,43.528966],[5.507096,43.529119],[5.507268,43.52938],[5.50718,43.52956],[5.50712,43.529678],[5.50734,43.529949],[5.50742,43.530472],[5.50805,43.530991],[5.5086,43.531631],[5.50864,43.53236],[5.5086,43.532669],[5.50872,43.532871],[5.50955,43.5331],[5.51049,43.533249],[5.51069,43.53318],[5.51092,43.533031],[5.51154,43.533119],[5.5118,43.53302],[5.5118,43.532829],[5.51135,43.53257],[5.51138,43.532299],[5.51117,43.532021],[5.51085,43.53194],[5.51079,43.53183],[5.51101,43.531521],[5.51137,43.531391],[5.51178,43.531502],[5.51368,43.531109],[5.51371,43.530128],[5.51388,43.529839],[5.51411,43.52898],[5.51433,43.528751],[5.51445,43.527981],[5.51483,43.527309],[5.51504,43.527142],[5.51553,43.5271],[5.51655,43.527081],[5.51763,43.526909],[5.51796,43.526932],[5.51866,43.5266],[5.51993,43.526291],[5.52021,43.526001],[5.52053,43.525982],[5.52194,43.525719],[5.52236,43.525909],[5.52299,43.52597],[5.52354,43.525829],[5.52405,43.525459],[5.5258,43.524971],[5.52682,43.524399],[5.5272,43.52438],[5.52769,43.524429],[5.52873,43.524368],[5.52963,43.524132],[5.53063,43.524021],[5.53135,43.524021],[5.53169,43.523811],[5.53202,43.523949],[5.53222,43.524422],[5.53244,43.524609],[5.53259,43.524872],[5.53304,43.524948],[5.53554,43.524872],[5.53618,43.525188],[5.53705,43.524979],[5.53737,43.52499],[5.53744,43.525139],[5.53678,43.52549],[5.53726,43.52549],[5.5379,43.5257],[5.53859,43.525799],[5.54006,43.525761],[5.54073,43.525551],[5.54114,43.5257],[5.54159,43.525581],[5.54197,43.525639],[5.54304,43.52541],[5.54362,43.52541],[5.54518,43.525669],[5.54533,43.525532],[5.54591,43.525318],[5.54695,43.524719],[5.5473,43.524342],[5.54797,43.523178],[5.54786,43.52301],[5.54706,43.522678],[5.54678,43.522362],[5.54661,43.52182],[5.54661,43.521431],[5.54653,43.521111],[5.54665,43.520721],[5.5458,43.52071],[5.54352,43.519779],[5.54219,43.519501],[5.54133,43.517799],[5.54132,43.517448],[5.54157,43.517021],[5.54141,43.516338],[5.54185,43.515591],[5.54284,43.515202],[5.54332,43.514809],[5.54356,43.51416],[5.54347,43.513432],[5.54411,43.512741],[5.54334,43.512321],[5.54279,43.511799],[5.54237,43.511108],[5.540523,43.510228],[5.53982,43.51144],[5.53643,43.510899],[5.53594,43.510719],[5.5351,43.510578],[5.53458,43.510422],[5.53271,43.510159],[5.53221,43.51012],[5.53021,43.509392],[5.52915,43.50914],[5.52746,43.508438],[5.52601,43.508129],[5.52343,43.507851],[5.5231,43.507771],[5.52284,43.504631],[5.52184,43.504238],[5.52056,43.50341],[5.51751,43.502201],[5.51526,43.501751],[5.5147,43.500759],[5.51374,43.50079],[5.51321,43.50069],[5.51253,43.500351],[5.51156,43.500381],[5.51136,43.500278],[5.51064,43.498711],[5.51052,43.498219],[5.51031,43.498058],[5.50967,43.497829],[5.5093,43.497532],[5.50904,43.497219],[5.50838,43.496719],[5.50793,43.49604],[5.50755,43.495811],[5.50696,43.49564],[5.50633,43.495239],[5.50601,43.494881],[5.50572,43.494678],[5.50526,43.494511],[5.50489,43.494148],[5.50409,43.493629],[5.50333,43.49332],[5.50283,43.492981],[5.50247,43.49234],[5.50065,43.490891],[5.50042,43.49054],[5.50008,43.48938],[5.49951,43.488602],[5.49941,43.487251],[5.49886,43.48695],[5.49832,43.486431],[5.49663,43.485592],[5.49646,43.486061],[5.4965,43.486568],[5.49628,43.486698],[5.49549,43.486851],[5.49514,43.487],[5.49292,43.486031],[5.491248,43.484756],[5.48863,43.484879],[5.48851,43.484699],[5.48685,43.484772],[5.486638,43.484896],[5.486168,43.484974],[5.48102,43.48476],[5.478819,43.485186],[5.477571,43.485181],[5.476722,43.485281],[5.475057,43.485243],[5.47405,43.485069],[5.472624,43.48477],[5.471595,43.4849],[5.47049,43.484718],[5.47015,43.484741],[5.46995,43.484879],[5.46953,43.485691],[5.469,43.48571],[5.467817,43.485559],[5.46715,43.485168],[5.466126,43.484301],[5.46567,43.48399],[5.46519,43.483639],[5.46499,43.483158],[5.46381,43.482471],[5.46368,43.482052],[5.46332,43.481838],[5.46307,43.48148],[5.46288,43.481331],[5.46277,43.480949],[5.46251,43.480652],[5.46202,43.480259],[5.46194,43.479599],[5.46131,43.47871],[5.46112,43.47818],[5.46065,43.477661],[5.459529,43.476738],[5.45809,43.47546],[5.457652,43.475166],[5.456203,43.47438],[5.455195,43.473671],[5.453929,43.473088],[5.453478,43.472607],[5.453521,43.472137],[5.453156,43.471928],[5.452287,43.471708],[5.4513,43.471195],[5.450431,43.470238],[5.450764,43.469637],[5.451172,43.469821],[5.453682,43.470177],[5.45483,43.470119],[5.455699,43.469995],[5.456734,43.46958],[5.456997,43.469212],[5.457105,43.468596],[5.457024,43.468398],[5.457062,43.467763],[5.457351,43.467892],[5.459186,43.46781],[5.459497,43.467394],[5.46057,43.467785],[5.460999,43.467388],[5.46086,43.466938],[5.461042,43.466228],[5.461235,43.465939],[5.460795,43.464922],[5.460516,43.464359],[5.460398,43.462917],[5.46057,43.461262],[5.46219,43.45961],[5.462512,43.459572],[5.462329,43.459288],[5.463488,43.458387],[5.463188,43.458214],[5.463048,43.457794],[5.465194,43.45525],[5.4683,43.454205],[5.468144,43.454651],[5.468461,43.45459],[5.468585,43.454422],[5.469212,43.454617],[5.469104,43.454865],[5.469126,43.455205],[5.469147,43.455571],[5.46933,43.455846],[5.469711,43.456089],[5.470118,43.456162],[5.470421,43.456141],[5.470814,43.455855],[5.470992,43.455801],[5.471497,43.456514],[5.471953,43.456451],[5.473455,43.456445],[5.474668,43.456596],[5.475794,43.456722],[5.476872,43.456699],[5.477843,43.456622],[5.478272,43.455753],[5.47904,43.455582],[5.479394,43.455379],[5.479807,43.455296],[5.480434,43.455383],[5.480558,43.455292],[5.480831,43.454781],[5.481121,43.454597],[5.481545,43.454521],[5.481824,43.454571],[5.482333,43.45435],[5.483444,43.453999],[5.483986,43.453709],[5.483181,43.452606],[5.48493,43.451992],[5.485938,43.451931],[5.486507,43.45195],[5.487081,43.45211],[5.487295,43.452023],[5.487569,43.451725],[5.488223,43.451305],[5.488524,43.450699],[5.489559,43.449875],[5.49023,43.449516],[5.490879,43.44902],[5.491099,43.448746],[5.491163,43.448112],[5.493363,43.446423],[5.493878,43.446491],[5.493963,43.445938],[5.495079,43.445],[5.49524,43.444721],[5.495546,43.444534],[5.496238,43.44453],[5.497606,43.443745],[5.497949,43.443394],[5.498056,43.443104],[5.49862,43.442364],[5.498909,43.441303],[5.499676,43.440006],[5.500664,43.439171],[5.501205,43.43861],[5.501516,43.438465],[5.501667,43.438255],[5.501978,43.438099],[5.502761,43.437794],[5.503072,43.437523],[5.503576,43.436653],[5.503539,43.436314],[5.505095,43.434185],[5.505835,43.433746],[5.506597,43.432854],[5.507348,43.432652],[5.508002,43.432255],[5.508131,43.431725],[5.508378,43.431278],[5.508109,43.430275],[5.507712,43.429714],[5.508024,43.428967],[5.507777,43.428566],[5.508592,43.427898],[5.508608,43.427624],[5.50856,43.427349],[5.508089,43.427335],[5.508005,43.427601],[5.506892,43.427261],[5.507868,43.426817],[5.508807,43.426115],[5.509984,43.425718],[5.51026,43.425289],[5.510432,43.425247],[5.51069,43.424999],[5.511693,43.424583],[5.512095,43.424206],[5.512744,43.423954],[5.513125,43.423504],[5.51408,43.422752],[5.512964,43.421238],[5.512508,43.420799],[5.511076,43.420536],[5.510427,43.420528],[5.509987,43.420345],[5.509804,43.419922],[5.509751,43.419888],[5.50885,43.419628],[5.508002,43.419029],[5.506854,43.418648],[5.506543,43.417976],[5.506071,43.417744],[5.505738,43.416847],[5.505143,43.41652],[5.50562,43.415257],[5.505534,43.415062],[5.505588,43.414433],[5.505813,43.414112],[5.505298,43.414246],[5.504826,43.41467],[5.50487,43.414034],[5.505636,43.413792],[5.507905,43.413083],[5.509225,43.41256],[5.510287,43.411751],[5.512916,43.411137],[5.513495,43.411213],[5.513935,43.411125],[5.514225,43.410816],[5.515223,43.410427],[5.515662,43.410465],[5.515984,43.410614],[5.516467,43.410473],[5.516768,43.409966],[5.517315,43.409622],[5.517969,43.408718],[5.519686,43.409187],[5.520458,43.40892],[5.521982,43.408276],[5.522615,43.408157],[5.523891,43.40765],[5.524149,43.407051],[5.525994,43.406677],[5.526413,43.406349],[5.526778,43.406288],[5.527003,43.4067],[5.526563,43.407223],[5.526574,43.407566],[5.527024,43.407722],[5.528913,43.408951],[5.529267,43.408943],[5.529846,43.409367],[5.530908,43.409451],[5.530447,43.409748],[5.530951,43.410216],[5.530972,43.410745],[5.530704,43.411212],[5.530034,43.411695],[5.530342,43.41189],[5.531355,43.411348],[5.532496,43.411243],[5.533193,43.411274],[5.534824,43.410736],[5.53579,43.410278],[5.53683,43.410503],[5.53756,43.410988],[5.539201,43.411228],[5.540349,43.411346],[5.541304,43.411667],[5.542399,43.411781],[5.542656,43.411938],[5.543407,43.412296],[5.544394,43.413082],[5.544856,43.413139],[5.545843,43.413849],[5.546358,43.413994],[5.546551,43.413605],[5.54728,43.413296],[5.547399,43.412583],[5.547763,43.412536],[5.549104,43.408718],[5.548235,43.408134],[5.549222,43.408089],[5.549877,43.40815],[5.550853,43.407993],[5.551829,43.408314],[5.551701,43.407814],[5.552419,43.407192],[5.55199,43.407127],[5.552677,43.406948],[5.554157,43.405827],[5.553685,43.405544],[5.552602,43.405468],[5.553348,43.40523],[5.553688,43.405196],[5.553964,43.404952],[5.554528,43.404726],[5.554595,43.404582],[5.554693,43.40472],[5.554426,43.404921],[5.55581,43.404991],[5.556271,43.404781],[5.556614,43.403824],[5.557269,43.403324],[5.559168,43.402119],[5.55979,43.40144],[5.559876,43.400829],[5.559189,43.400448],[5.558063,43.400059],[5.556818,43.398975],[5.555552,43.397362],[5.555155,43.397102],[5.554576,43.397011],[5.554383,43.396435],[5.553793,43.396004],[5.553632,43.395592],[5.554125,43.394756],[5.554104,43.394321],[5.553417,43.394127],[5.552301,43.394073],[5.5514,43.393845],[5.551497,43.392963],[5.551175,43.392433],[5.551411,43.391754],[5.550671,43.39093],[5.550789,43.390297],[5.551207,43.389675],[5.551969,43.389091],[5.552462,43.388428],[5.55479,43.387135],[5.556464,43.386703],[5.558363,43.385544],[5.559211,43.385502],[5.559425,43.385334],[5.559254,43.385114],[5.559382,43.384621],[5.557601,43.384015],[5.556293,43.384254],[5.555702,43.384254],[5.554876,43.384068],[5.55434,43.384125],[5.554072,43.383568],[5.554243,43.383148],[5.554018,43.382423],[5.554447,43.381683],[5.5536,43.381138],[5.553632,43.380936],[5.554007,43.380749],[5.553626,43.380367],[5.553321,43.379921],[5.553117,43.379784],[5.552988,43.379505],[5.55257,43.379242],[5.551947,43.378593],[5.551497,43.377918],[5.550955,43.377533],[5.550537,43.3773],[5.55037,43.376926],[5.550537,43.376637],[5.550778,43.376545],[5.550585,43.376083],[5.550633,43.375427],[5.550805,43.374741],[5.550714,43.374664],[5.550638,43.374512],[5.550424,43.374416],[5.550456,43.374096],[5.550773,43.373207],[5.550703,43.373039],[5.550279,43.372955],[5.549845,43.373127],[5.549313,43.373356],[5.548959,43.37331],[5.548595,43.373138],[5.54845,43.372856],[5.548407,43.372486],[5.548165,43.372231],[5.54779,43.372166],[5.547439,43.372107],[5.547315,43.371982],[5.547042,43.371834],[5.547032,43.371584],[5.546717,43.371316],[5.546648,43.371141],[5.54679,43.371053],[5.547115,43.371247],[5.547251,43.371236],[5.547227,43.371165],[5.547293,43.371042],[5.547219,43.370793],[5.547053,43.370783],[5.546757,43.370419],[5.546733,43.370225],[5.546548,43.370172],[5.546504,43.370068],[5.547023,43.370036],[5.547201,43.370107],[5.547413,43.370014],[5.54764,43.369808],[5.547763,43.369568],[5.547557,43.36919],[5.547522,43.369003],[5.547583,43.368736],[5.547683,43.368629],[5.547712,43.368511],[5.547889,43.368393],[5.547978,43.368263],[5.548222,43.368149],[5.548224,43.367797],[5.547888,43.367834],[5.547884,43.367683],[5.548104,43.367161],[5.548686,43.367001],[5.548756,43.366896],[5.548399,43.366753],[5.548478,43.366651],[5.548641,43.36667],[5.548868,43.366798],[5.549512,43.366749],[5.549635,43.366573],[5.549544,43.366291],[5.549761,43.366085],[5.549839,43.365925],[5.54971,43.365799],[5.549453,43.365788],[5.549179,43.365669],[5.548704,43.365331],[5.548208,43.365055],[5.548165,43.364941],[5.547559,43.364864],[5.546781,43.364841],[5.544475,43.364941],[5.542758,43.364971],[5.542045,43.365128],[5.541943,43.364475],[5.541342,43.364368],[5.540869,43.364365],[5.540822,43.363945],[5.54058,43.363792],[5.539963,43.36367],[5.539652,43.363461],[5.53955,43.363235],[5.539883,43.36282],[5.540012,43.362597],[5.539988,43.362456],[5.539853,43.362472],[5.539499,43.362702],[5.538963,43.362915],[5.538745,43.362945],[5.538601,43.36233],[5.538273,43.362041],[5.538019,43.361744],[5.537796,43.361488],[5.537517,43.361343],[5.537144,43.361309],[5.536965,43.361214],[5.53663,43.360928],[5.536587,43.360735],[5.536433,43.360423],[5.536426,43.360073],[5.536337,43.359658],[5.536248,43.359437],[5.536479,43.359154],[5.536632,43.359177],[5.536887,43.359123],[5.537179,43.35915],[5.537343,43.359196],[5.537557,43.359379],[5.537874,43.35947],[5.538507,43.359413],[5.539346,43.359474],[5.539526,43.359425],[5.539899,43.359203],[5.540049,43.3592],[5.540425,43.359364],[5.540714,43.359417],[5.541028,43.359501],[5.541742,43.359474],[5.542136,43.359497],[5.542463,43.359436],[5.542825,43.359333],[5.543303,43.359257],[5.543619,43.359138],[5.544005,43.358929],[5.544188,43.358891],[5.545572,43.359085],[5.545754,43.359009],[5.54603,43.358986],[5.546492,43.358845],[5.546709,43.358791],[5.546913,43.358643],[5.547007,43.358444],[5.547221,43.358238],[5.547369,43.358212],[5.547565,43.358192],[5.547897,43.358067],[5.548182,43.357903],[5.548353,43.3577],[5.548393,43.357574],[5.548511,43.357533],[5.549064,43.357574],[5.549437,43.357559],[5.549788,43.357494],[5.549976,43.357506],[5.550046,43.358013],[5.550059,43.358501],[5.550191,43.358772],[5.550478,43.358929],[5.550765,43.359001],[5.55144,43.358982],[5.552366,43.358749],[5.552669,43.358696],[5.552913,43.358624],[5.553272,43.358536],[5.553533,43.358414],[5.553801,43.358284],[5.554074,43.358261],[5.554573,43.358292],[5.555059,43.358414],[5.55544,43.358582],[5.555941,43.358547],[5.556102,43.358471],[5.556357,43.358196],[5.55706,43.35775],[5.557282,43.357697],[5.5575,43.357471],[5.558143,43.357239],[5.558355,43.357109],[5.558462,43.356915],[5.558589,43.356579],[5.558889,43.356041],[5.559415,43.355659],[5.559425,43.355431],[5.559117,43.355206],[5.559602,43.354374],[5.560184,43.353825],[5.560954,43.353878],[5.561491,43.353634],[5.562684,43.353455],[5.563022,43.35339],[5.563642,43.353455],[5.56395,43.353157],[5.56395,43.353157],[5.564538,43.35325],[5.565289,43.353125],[5.566319,43.353266],[5.566834,43.353515],[5.56692,43.353952],[5.566684,43.354186],[5.566298,43.354202],[5.566448,43.354514],[5.567295,43.354446],[5.567129,43.354618],[5.567043,43.354942],[5.56697,43.355114],[5.567046,43.355637],[5.567303,43.356163],[5.567507,43.356422],[5.567746,43.356548],[5.568059,43.356678],[5.568317,43.356911],[5.568963,43.357052],[5.569492,43.357082],[5.56962,43.357147],[5.570221,43.357121],[5.572407,43.357903],[5.573209,43.358315],[5.573748,43.358753],[5.574167,43.35891],[5.574633,43.35873],[5.57495,43.358932],[5.575068,43.359291],[5.574628,43.35955],[5.573904,43.359802],[5.573142,43.359791],[5.57282,43.359837],[5.572241,43.359673],[5.571855,43.359478],[5.571603,43.359566],[5.571431,43.359715],[5.572203,43.360291],[5.573947,43.360992],[5.575261,43.360889],[5.577434,43.361462],[5.577364,43.361622],[5.577739,43.361935],[5.57789,43.362305],[5.578201,43.362289],[5.578812,43.361813],[5.579343,43.361275],[5.579885,43.360909],[5.580545,43.361156],[5.580878,43.361179],[5.581082,43.361401],[5.581339,43.36113],[5.581951,43.360813],[5.582197,43.360558],[5.583061,43.360191],[5.58342,43.360115],[5.583678,43.359917],[5.584016,43.359219],[5.58444,43.359112],[5.585271,43.359272],[5.586049,43.359558],[5.586462,43.3596],[5.587519,43.359245],[5.587717,43.359337],[5.587846,43.35976],[5.588114,43.360077],[5.588109,43.360367],[5.588425,43.36039],[5.588753,43.360306],[5.588597,43.360558],[5.588286,43.360783],[5.588071,43.361427],[5.588302,43.36171],[5.588801,43.361847],[5.589225,43.361763],[5.590335,43.362041],[5.590523,43.361744],[5.590941,43.361435],[5.591311,43.36132],[5.591859,43.361305],[5.592674,43.361382],[5.593581,43.361065],[5.594922,43.360889],[5.595464,43.360645],[5.595678,43.360485],[5.596,43.360909],[5.596279,43.361118],[5.596375,43.361366],[5.596563,43.361561],[5.596499,43.361839],[5.596536,43.362186],[5.596386,43.362686],[5.596831,43.362938],[5.597062,43.363201],[5.596579,43.363251],[5.596247,43.36338],[5.596268,43.363541],[5.596697,43.364048],[5.597014,43.364586],[5.597668,43.365295],[5.597899,43.365757],[5.598285,43.365993],[5.598468,43.366421],[5.59873,43.366547],[5.600077,43.36673],[5.600973,43.366737],[5.601638,43.366978],[5.602266,43.367126],[5.602657,43.367336],[5.602979,43.367332],[5.603371,43.366856],[5.603408,43.366577],[5.60336,43.366306],[5.603805,43.36615],[5.603939,43.365902],[5.604621,43.365963],[5.604798,43.365898],[5.604932,43.365337],[5.605259,43.365253],[5.605983,43.365631],[5.60631,43.365559],[5.606643,43.3652],[5.607249,43.365234],[5.607678,43.364876],[5.608343,43.365154],[5.608488,43.365471],[5.608461,43.365688],[5.608596,43.365849],[5.608923,43.365791],[5.609191,43.365475],[5.608993,43.365261],[5.609009,43.365055],[5.609229,43.365009],[5.609888,43.365231],[5.610441,43.365219],[5.61072,43.365101],[5.61094,43.364815],[5.611482,43.364735],[5.612163,43.36348],[5.61263,43.363914],[5.612683,43.364174],[5.612378,43.364777],[5.613332,43.365162],[5.614845,43.365593],[5.615081,43.365875],[5.615441,43.365871],[5.615897,43.365768],[5.616353,43.365883],[5.616921,43.365845],[5.619029,43.36639],[5.619244,43.367058],[5.620301,43.367615],[5.621551,43.367905],[5.621921,43.368343],[5.622763,43.368481],[5.623364,43.368298],[5.624126,43.368404],[5.625708,43.369011],[5.628165,43.368622],[5.630536,43.368446],[5.631984,43.368721],[5.63265,43.369267],[5.63274,43.36919],[5.63312,43.369492],[5.63427,43.36956],[5.63432,43.369251],[5.63632,43.368992],[5.637,43.368641],[5.63776,43.368038],[5.636984,43.366875],[5.63726,43.36615],[5.63774,43.3657],[5.63821,43.36515],[5.63919,43.36451],[5.64028,43.364811],[5.64088,43.365292],[5.641608,43.365547],[5.642552,43.365471],[5.64458,43.364578],[5.64621,43.364239],[5.64728,43.364128],[5.64819,43.364151],[5.64897,43.364109],[5.64935,43.363899],[5.6518,43.363159],[5.65305,43.362968],[5.653764,43.363052],[5.65447,43.362728],[5.65489,43.362629],[5.65578,43.36211],[5.65625,43.361992],[5.65688,43.362091],[5.65733,43.362019],[5.65789,43.362019],[5.65849,43.36179],[5.65897,43.361431],[5.65965,43.360592],[5.66017,43.3601],[5.660909,43.359859],[5.6611,43.359581],[5.66218,43.359249],[5.66288,43.359131],[5.66281,43.35894],[5.66307,43.358479],[5.66328,43.35833],[5.66369,43.358212],[5.66445,43.35788],[5.6662,43.357262],[5.6666,43.356972],[5.66712,43.356339],[5.66705,43.355808],[5.66705,43.355808],[5.667074,43.355052],[5.667138,43.354646],[5.667653,43.354233],[5.667782,43.354061],[5.668361,43.35378],[5.668651,43.353492],[5.668662,43.353305],[5.668072,43.353055],[5.667814,43.352868],[5.668286,43.352836],[5.668769,43.352595],[5.66936,43.352428],[5.66965,43.352219],[5.66994,43.352299],[5.67188,43.351299],[5.67225,43.35051],[5.67269,43.349899],[5.67259,43.348999],[5.67218,43.34853],[5.672271,43.347884],[5.672424,43.347756],[5.672779,43.34784],[5.673971,43.347776],[5.674924,43.3475],[5.67532,43.346958],[5.67571,43.346352],[5.67653,43.345718],[5.6768,43.34565],[5.67706,43.345032],[5.67722,43.34343],[5.67737,43.34343],[5.6774,43.343769],[5.67774,43.34407],[5.67789,43.344021],[5.67775,43.343849],[5.67792,43.343159],[5.67843,43.342701],[5.67855,43.342312],[5.6788,43.34219],[5.67926,43.341728],[5.67936,43.341751],[5.67924,43.342079],[5.67903,43.342281],[5.67904,43.342579],[5.67944,43.342442],[5.68001,43.34182],[5.68124,43.341228],[5.68163,43.34079],[5.68213,43.3405],[5.68259,43.340328],[5.68275,43.34013],[5.68264,43.339809],[5.68276,43.339401],[5.68294,43.339432],[5.6829,43.339661],[5.68316,43.340149],[5.68302,43.340542],[5.68346,43.340809],[5.68329,43.34053],[5.68348,43.339611],[5.68443,43.339699],[5.68494,43.339451],[5.68635,43.339149],[5.68681,43.33897],[5.68725,43.338989],[5.68919,43.339649],[5.69044,43.340321],[5.69098,43.34037],[5.69194,43.340759],[5.69256,43.340759],[5.69306,43.3409],[5.69346,43.34095],[5.69592,43.341869],[5.69792,43.342258],[5.6983,43.341831],[5.69786,43.341499],[5.69773,43.341301],[5.69768,43.341],[5.69739,43.340759],[5.69752,43.340649],[5.69808,43.3405],[5.69855,43.340599],[5.69901,43.34],[5.69931,43.340019],[5.70011,43.339901],[5.70044,43.340019],[5.70119,43.339378],[5.70116,43.338959],[5.70086,43.338661],[5.70127,43.338211],[5.70169,43.337559],[5.70223,43.336979],[5.70238,43.336529],[5.70272,43.336071],[5.70333,43.335529],[5.70375,43.334942],[5.70414,43.334541],[5.70452,43.333721],[5.70476,43.333382],[5.70515,43.33316],[5.70569,43.333038],[5.7064,43.332371],[5.70719,43.331848],[5.70753,43.33149],[5.70748,43.331219],[5.7071,43.330688],[5.70701,43.329861],[5.70751,43.32917],[5.70844,43.328918],[5.70851,43.328381],[5.70929,43.328239],[5.70977,43.328079],[5.71055,43.327621],[5.71145,43.32666],[5.71169,43.326488],[5.71024,43.325481],[5.70969,43.325199],[5.70952,43.324902],[5.70862,43.324581],[5.70817,43.324131],[5.70749,43.323978],[5.70658,43.323601],[5.7055,43.323238],[5.70532,43.323051],[5.70506,43.323021],[5.70466,43.322819],[5.70422,43.322788],[5.70361,43.322811],[5.7032,43.322521],[5.70281,43.322418],[5.70131,43.321381],[5.70103,43.32103],[5.70048,43.320911],[5.70008,43.321171],[5.69915,43.320332],[5.6983,43.319691],[5.69674,43.31889],[5.69524,43.31818],[5.69397,43.31768],[5.69273,43.317108],[5.69224,43.31702],[5.69134,43.316479],[5.69028,43.315979],[5.68936,43.315411],[5.68957,43.31509],[5.68889,43.31403],[5.68853,43.31385],[5.68817,43.313519],[5.68767,43.31321],[5.68729,43.312889],[5.68675,43.312641],[5.68644,43.312328],[5.6863,43.31208],[5.6858,43.31176],[5.68538,43.311581],[5.68486,43.311169],[5.68476,43.310982],[5.68447,43.310791],[5.68418,43.31041],[5.68319,43.30986],[5.68292,43.30962],[5.68296,43.309471],[5.68264,43.309212],[5.68206,43.309231],[5.68099,43.30875],[5.68095,43.30835],[5.68113,43.30814],[5.68114,43.307892],[5.68175,43.3078],[5.68287,43.307529],[5.68281,43.307419],[5.68182,43.307339],[5.67944,43.306782],[5.67783,43.30711],[5.67782,43.307381],[5.67748,43.307838],[5.67705,43.30793],[5.67521,43.307522],[5.67488,43.307232],[5.6745,43.307098],[5.67437,43.307159],[5.67431,43.307491],[5.67377,43.306862],[5.6737,43.30666],[5.67359,43.306751],[5.67345,43.307621],[5.67392,43.308048],[5.67501,43.30806],[5.67509,43.308109],[5.67415,43.3083],[5.67324,43.308208],[5.67274,43.307968],[5.67269,43.30732],[5.67223,43.306358],[5.67245,43.305538],[5.67197,43.30513],[5.67149,43.305],[5.67112,43.305038],[5.67041,43.304588],[5.6703,43.304451],[5.67017,43.30444],[5.67002,43.304169],[5.66981,43.30397],[5.6698,43.303829],[5.66935,43.303478],[5.66908,43.303421],[5.66876,43.303509],[5.66816,43.303139],[5.66766,43.302711],[5.66717,43.302601],[5.66695,43.302059],[5.66682,43.301891],[5.66642,43.301868],[5.66652,43.30175],[5.66654,43.30154],[5.66633,43.301689],[5.66609,43.301769],[5.6652,43.3018],[5.66386,43.30138],[5.66382,43.301022],[5.66397,43.300941],[5.66415,43.30056],[5.66384,43.300331],[5.66364,43.299671],[5.66365,43.29929],[5.66353,43.299061],[5.66332,43.298931],[5.66295,43.298191],[5.66294,43.297409],[5.66261,43.297009],[5.66255,43.296619],[5.66257,43.29591],[5.6627,43.295681],[5.66267,43.2953],[5.66272,43.295059],[5.66267,43.294552],[5.66281,43.294071],[5.66272,43.29372],[5.66235,43.293251],[5.66186,43.292969],[5.66146,43.29224],[5.66091,43.29166],[5.66131,43.29171],[5.66168,43.291698],[5.66137,43.291458],[5.66109,43.29137],[5.66085,43.291168],[5.66044,43.291012],[5.660151,43.290779],[5.66007,43.290588],[5.65973,43.290421],[5.65957,43.290272],[5.6583,43.290321],[5.65778,43.290531],[5.65755,43.290569],[5.65705,43.290871],[5.65618,43.290642],[5.65577,43.29063],[5.65536,43.290859],[5.65454,43.291088],[5.65388,43.291119],[5.65299,43.291012],[5.65209,43.290779],[5.65163,43.29081],[5.65088,43.291039],[5.65026,43.290989],[5.64971,43.291],[5.64917,43.290939],[5.64853,43.29105],[5.64856,43.291199],[5.64815,43.291382],[5.64779,43.291649],[5.64759,43.29163],[5.64632,43.292068],[5.64586,43.291851],[5.6456,43.291649],[5.64523,43.291649],[5.64466,43.2915],[5.64418,43.291759],[5.64297,43.29213],[5.6423,43.292301],[5.64193,43.292149],[5.64105,43.292431],[5.64101,43.29253],[5.63916,43.29285],[5.63857,43.29311],[5.63806,43.293591],[5.63724,43.293739],[5.6368,43.293991],[5.63614,43.294651],[5.6355,43.295109],[5.63501,43.295898],[5.63457,43.296322],[5.63373,43.296291],[5.6331,43.296509],[5.632777,43.296961],[5.631992,43.297444],[5.631486,43.297506],[5.63098,43.297296],[5.630176,43.297014],[5.629271,43.297321],[5.629037,43.297244],[5.628472,43.296782],[5.628389,43.297186],[5.62768,43.297119],[5.62708,43.297291],[5.62633,43.297611],[5.624229,43.298103],[5.623221,43.298429],[5.622891,43.298712],[5.62194,43.300091],[5.6215,43.3004],[5.61809,43.301769],[5.61772,43.302811],[5.61739,43.304081],[5.61637,43.30521],[5.61563,43.305599],[5.61514,43.306301],[5.61503,43.306801],[5.61514,43.30724],[5.61508,43.307621],[5.61532,43.308079],[5.61504,43.308601],[5.61504,43.309601],[5.61485,43.31036],[5.61474,43.311192],[5.61399,43.312531],[5.61354,43.312901],[5.61327,43.313709],[5.61276,43.313839],[5.61223,43.313358],[5.61208,43.312561],[5.61185,43.31192],[5.61135,43.311562],[5.61064,43.310791],[5.60995,43.310299],[5.60908,43.309429],[5.60807,43.30872],[5.6079,43.308491],[5.60523,43.306599],[5.60387,43.305988],[5.60297,43.305222],[5.60041,43.305462],[5.60091,43.307652],[5.59922,43.30772],[5.59921,43.30806],[5.59279,43.308891],[5.5928,43.308151],[5.59236,43.307362],[5.59225,43.306492],[5.589765,43.306882],[5.587,43.306911],[5.58692,43.30658],[5.58499,43.305592],[5.5834,43.304588],[5.58326,43.30431],[5.58319,43.303761],[5.58256,43.30368],[5.58199,43.303169],[5.58133,43.302971],[5.58134,43.30262],[5.58153,43.301899],[5.58062,43.301651],[5.5803,43.299839],[5.57876,43.299511],[5.57813,43.298672],[5.57683,43.298271],[5.5752,43.298031],[5.5738,43.297508],[5.57379,43.296848],[5.57349,43.296268],[5.57284,43.295582],[5.57323,43.295052],[5.57272,43.294971],[5.57213,43.29459],[5.57174,43.294418],[5.57157,43.2943],[5.57048,43.29409],[5.56948,43.294109],[5.56912,43.294029],[5.56863,43.294041],[5.56862,43.294044],[5.567333,43.294193],[5.566485,43.295918],[5.565954,43.295757],[5.565611,43.29583],[5.564328,43.295673],[5.564318,43.295376],[5.564125,43.295292],[5.564023,43.294739],[5.563964,43.293854],[5.56465,43.293579],[5.565283,43.292995],[5.566024,43.292679],[5.567708,43.292732],[5.5681,43.292824],[5.568835,43.292812],[5.57009,43.292458],[5.569282,43.292191],[5.570068,43.291557],[5.570996,43.291073],[5.571388,43.291466],[5.573453,43.290257],[5.572348,43.289066],[5.571973,43.288441],[5.571801,43.288017],[5.572037,43.287457],[5.572021,43.286983],[5.571603,43.286247],[5.571442,43.285172],[5.571265,43.285126],[5.57097,43.28476],[5.571291,43.284546],[5.571259,43.284073],[5.571908,43.282612],[5.572236,43.282356],[5.572777,43.282085],[5.572874,43.281513],[5.573266,43.281204],[5.573491,43.280663],[5.573534,43.279613],[5.573829,43.278954],[5.574086,43.278004],[5.57451,43.277496],[5.575159,43.276619],[5.575787,43.276031],[5.576173,43.275475],[5.575867,43.27528],[5.576146,43.274326],[5.576227,43.273392],[5.576012,43.272591],[5.575867,43.272488],[5.575374,43.27248],[5.574585,43.272053],[5.574006,43.271912],[5.5734,43.2719],[5.572697,43.271759],[5.571597,43.271683],[5.571206,43.271339],[5.570712,43.271423],[5.569666,43.271275],[5.569301,43.271],[5.56877,43.271118],[5.567542,43.27066],[5.565519,43.270058],[5.565809,43.27037],[5.565412,43.270306],[5.565407,43.270416],[5.565235,43.270496],[5.565096,43.270649],[5.564774,43.270786],[5.564323,43.270737],[5.563529,43.270435],[5.563207,43.270805],[5.562982,43.270634],[5.562703,43.270771],[5.562113,43.270405],[5.561142,43.27063],[5.560675,43.270512],[5.560128,43.270142],[5.5592,43.270241],[5.558535,43.26981],[5.558615,43.269245],[5.558444,43.26907],[5.558095,43.269024],[5.557054,43.26923],[5.556389,43.269054],[5.554302,43.267937],[5.553417,43.268044],[5.553111,43.26799],[5.552993,43.267761],[5.553192,43.267303],[5.553846,43.266842],[5.553782,43.266647],[5.553321,43.266479],[5.552575,43.265987],[5.55228,43.265705],[5.551835,43.265747],[5.55154,43.265907],[5.550805,43.265644],[5.55022,43.265621],[5.549222,43.265884],[5.548557,43.265816],[5.548375,43.265762],[5.548117,43.265919],[5.54816,43.266416],[5.547881,43.266707],[5.547377,43.266949],[5.546615,43.267612],[5.54595,43.268009],[5.54581,43.267796],[5.545757,43.267612],[5.545446,43.267597],[5.545038,43.267802],[5.544673,43.268126],[5.543965,43.26812],[5.543665,43.26815],[5.543793,43.268574],[5.544738,43.26897],[5.545424,43.269581],[5.544319,43.269581],[5.543504,43.269775],[5.542852,43.269908],[5.541793,43.270252],[5.541691,43.269995],[5.541186,43.269644],[5.540703,43.269775],[5.540059,43.269678],[5.539658,43.269565],[5.539073,43.269672],[5.538832,43.269366],[5.538514,43.269227],[5.538089,43.269181],[5.537581,43.26895],[5.536466,43.268862],[5.535726,43.268653],[5.535243,43.268631],[5.534782,43.268414],[5.534336,43.268431],[5.533977,43.268291],[5.534309,43.268135],[5.533483,43.268089],[5.532442,43.267895],[5.531219,43.267918],[5.528934,43.267776],[5.527893,43.267597],[5.52652,43.267738],[5.526026,43.267658],[5.52549,43.267181],[5.523784,43.266691],[5.521767,43.266331],[5.520855,43.266293],[5.520169,43.266174],[5.519557,43.266247],[5.518688,43.266106],[5.518248,43.266277],[5.517991,43.266785],[5.517733,43.266853],[5.516542,43.266121],[5.515298,43.265377],[5.514858,43.265018],[5.514761,43.265465],[5.515555,43.266346],[5.517089,43.267151],[5.517315,43.267723],[5.516886,43.268337],[5.517819,43.268566],[5.518581,43.268513],[5.518785,43.268612],[5.518506,43.268791],[5.51857,43.268902],[5.51813,43.26899],[5.517304,43.268909],[5.516886,43.26897],[5.516617,43.268829],[5.516317,43.268822],[5.516006,43.268665],[5.515298,43.268581],[5.514482,43.268246],[5.513206,43.268059],[5.511843,43.268246],[5.511822,43.268394],[5.511467,43.268372],[5.511178,43.268185],[5.510416,43.26844],[5.509869,43.267864],[5.509276,43.267976],[5.509139,43.268144],[5.508309,43.268026],[5.50809,43.26819],[5.508072,43.268299],[5.507846,43.268364],[5.507584,43.26873],[5.507396,43.268974],[5.506575,43.26899],[5.505792,43.268597],[5.505416,43.268559],[5.504762,43.268806],[5.504456,43.268787],[5.504145,43.268986],[5.503737,43.268963],[5.503287,43.26881],[5.502884,43.268852],[5.502541,43.269104],[5.502166,43.269112],[5.501822,43.268978],[5.501457,43.269043],[5.500363,43.268894],[5.499601,43.268864],[5.498389,43.268269],[5.498174,43.267723],[5.497241,43.267315],[5.4962,43.2673],[5.495589,43.267159],[5.494076,43.26712],[5.493228,43.267059],[5.492327,43.267368],[5.491211,43.268166],[5.490417,43.268135],[5.490106,43.268364],[5.490149,43.269157],[5.490375,43.269527],[5.490299,43.269901],[5.489913,43.270153],[5.489269,43.270252],[5.489538,43.269894],[5.48972,43.269573],[5.489377,43.269356],[5.48928,43.269035],[5.489141,43.269276],[5.489076,43.269493],[5.488679,43.269901],[5.488111,43.26981],[5.487456,43.269985],[5.487252,43.270283],[5.487274,43.270744],[5.486416,43.270885],[5.486008,43.271423],[5.485858,43.271824],[5.48559,43.27195],[5.485815,43.272064],[5.486201,43.272129],[5.486373,43.272377],[5.48663,43.272511],[5.487092,43.2729],[5.487703,43.272892],[5.487832,43.273071],[5.487735,43.273449],[5.487542,43.273628],[5.487971,43.274548],[5.487907,43.275463],[5.487671,43.275681],[5.487671,43.275993],[5.487338,43.276379],[5.487285,43.276836],[5.486909,43.277206],[5.48589,43.277214],[5.485332,43.2775],[5.485064,43.278042],[5.484527,43.278145],[5.484098,43.278149],[5.483465,43.278877],[5.482382,43.279533],[5.482124,43.279854],[5.482124,43.280689],[5.481867,43.280846],[5.481062,43.280956],[5.480826,43.281368],[5.480729,43.281906],[5.480397,43.281956],[5.480429,43.282867],[5.480096,43.282822],[5.47883,43.282852],[5.478348,43.283157],[5.478122,43.282673],[5.477693,43.28265],[5.477157,43.282501],[5.476953,43.282368],[5.476942,43.282845],[5.476491,43.283218],[5.474861,43.283672],[5.473573,43.283733],[5.473133,43.283592],[5.472844,43.283298],[5.472651,43.283298],[5.472232,43.28347],[5.471267,43.283134],[5.470397,43.282963],[5.469711,43.283165],[5.468584,43.283024],[5.467522,43.282619],[5.46734,43.282204],[5.467447,43.281807],[5.467007,43.281742],[5.466846,43.281391],[5.466825,43.280766],[5.466685,43.28072],[5.46647,43.280912],[5.465998,43.280979],[5.466245,43.281734],[5.466492,43.282227],[5.466599,43.282978],[5.46646,43.283569],[5.466546,43.283829],[5.466084,43.28389],[5.465677,43.283718],[5.465226,43.283001],[5.464797,43.282925],[5.464518,43.282791],[5.463713,43.282822],[5.463552,43.282913],[5.463316,43.28297],[5.463134,43.283314],[5.462598,43.28339],[5.462458,43.283478],[5.462029,43.283405],[5.461439,43.283588],[5.461128,43.283554],[5.460516,43.283727],[5.459872,43.283882],[5.460066,43.28521],[5.458424,43.286201],[5.457544,43.286148],[5.456922,43.285915],[5.456482,43.285545],[5.455517,43.285484],[5.454669,43.285297],[5.452287,43.284546],[5.449659,43.283806],[5.449562,43.283947],[5.446612,43.282906],[5.446279,43.282979],[5.444519,43.282334],[5.443296,43.281799],[5.44188,43.281376],[5.440314,43.282204],[5.440207,43.282612],[5.4404,43.283768],[5.440153,43.284462],[5.439713,43.28493],[5.437299,43.284672],[5.432858,43.283031],[5.436795,43.278946],[5.434681,43.277981],[5.43466,43.27784],[5.434853,43.277527],[5.435421,43.276783],[5.436022,43.276619],[5.435722,43.275963],[5.436323,43.275806],[5.436569,43.275524],[5.436891,43.275551],[5.437428,43.274769],[5.43775,43.274488],[5.438136,43.274426],[5.438361,43.273808],[5.437986,43.273262],[5.438372,43.27309],[5.438275,43.272831],[5.437953,43.272839],[5.43717,43.272808],[5.435926,43.273808],[5.435561,43.273697],[5.43599,43.273331],[5.435454,43.273026],[5.434542,43.273167],[5.434381,43.273098],[5.433244,43.273026],[5.432181,43.272755],[5.431731,43.272823],[5.431387,43.273136],[5.428534,43.272263],[5.422912,43.270184],[5.420583,43.269157],[5.418395,43.268021],[5.419822,43.267918],[5.420573,43.267723],[5.420243,43.267479],[5.419376,43.265766],[5.419339,43.265497],[5.418931,43.265415],[5.417676,43.265575],[5.417247,43.264736],[5.417193,43.264011],[5.416914,43.263489],[5.416421,43.263126],[5.415992,43.262955],[5.416346,43.262356],[5.414447,43.261753],[5.41508,43.261143],[5.41582,43.260197],[5.415895,43.259964],[5.415691,43.259956],[5.415294,43.259644],[5.415219,43.259293],[5.41472,43.259335],[5.414495,43.258881],[5.413824,43.258461],[5.413245,43.257736],[5.412585,43.257149],[5.411797,43.256496],[5.41185,43.256188],[5.410734,43.256542],[5.410563,43.25684],[5.408267,43.256596],[5.407473,43.256008],[5.40655,43.255329],[5.40728,43.254814],[5.408052,43.25386],[5.407677,43.253338],[5.40625,43.252228],[5.404447,43.251266],[5.40346,43.250996],[5.40331,43.250431],[5.402699,43.249859],[5.402613,43.249969],[5.401411,43.249023],[5.400199,43.247734],[5.400317,43.247658],[5.398858,43.246319],[5.397881,43.246681],[5.396862,43.247265],[5.396358,43.247101],[5.39566,43.247383],[5.395027,43.247623],[5.393912,43.248375],[5.393729,43.248562],[5.393407,43.24865],[5.393032,43.248917],[5.39257,43.249069],[5.39257,43.249069],[5.3921,43.249161],[5.39191,43.249249],[5.39146,43.249199],[5.39127,43.24929],[5.39095,43.249222],[5.39076,43.249371],[5.39087,43.24968],[5.39063,43.249821],[5.39019,43.249748],[5.39017,43.250149],[5.38943,43.250729],[5.39107,43.25193],[5.39028,43.25246],[5.39011,43.2528],[5.38919,43.253391],[5.38869,43.253578],[5.3881,43.254002],[5.38777,43.254459],[5.387547,43.254375],[5.387088,43.254721],[5.38592,43.25552],[5.38552,43.256069],[5.38517,43.255932],[5.38443,43.25692],[5.38347,43.258011],[5.38327,43.25787],[5.383209,43.257992],[5.38326,43.258469],[5.38367,43.2589],[5.38392,43.25946],[5.38403,43.260502],[5.38383,43.261219],[5.38337,43.261791],[5.38279,43.262009],[5.38214,43.261959],[5.38016,43.26144],[5.37822,43.26083],[5.37682,43.260769],[5.375387,43.260056],[5.375076,43.26069],[5.37401,43.260159],[5.37303,43.260872],[5.37265,43.261978],[5.37229,43.262581],[5.3722,43.26289],[5.37183,43.26342],[5.371775,43.263739],[5.371452,43.263964],[5.37124,43.264271],[5.37124,43.264561],[5.37198,43.264832],[5.37215,43.264992],[5.3725,43.265011],[5.3729,43.265369],[5.372392,43.266527],[5.372503,43.266763],[5.371895,43.267608],[5.37262,43.267841],[5.37251,43.268421],[5.37258,43.26894],[5.37252,43.269691],[5.37219,43.27055],[5.37241,43.271591],[5.37264,43.27206],[5.37271,43.273369],[5.37284,43.273762],[5.37264,43.27462],[5.37263,43.275311],[5.37273,43.27594],[5.37302,43.27639],[5.37301,43.277039],[5.37273,43.277691],[5.37248,43.277748],[5.37157,43.27829],[5.37196,43.278938],[5.37129,43.279209],[5.37134,43.279541],[5.37057,43.279579],[5.36979,43.279541],[5.36955,43.27943],[5.36881,43.27977],[5.36866,43.280312],[5.36891,43.280579],[5.36886,43.280899],[5.36907,43.281399],[5.36952,43.281921],[5.36963,43.282188],[5.36991,43.282471],[5.37039,43.28265],[5.37042,43.28307],[5.37056,43.283138],[5.37066,43.2831],[5.37072,43.28294],[5.37077,43.283051],[5.37088,43.282928],[5.371,43.283169],[5.37109,43.283001],[5.37117,43.28302],[5.37123,43.28334],[5.3707,43.283642],[5.37056,43.283772],[5.37022,43.28373],[5.37012,43.283791],[5.37065,43.28437],[5.371033,43.284613],[5.37057,43.285141],[5.37038,43.28574],[5.36923,43.287701],[5.36864,43.288361],[5.36869,43.289242],[5.36972,43.2892],[5.37035,43.289291],[5.37061,43.289459],[5.37067,43.289688],[5.37088,43.289532],[5.37087,43.289841],[5.37105,43.289581],[5.37105,43.289921],[5.3713,43.289902],[5.3716,43.289951],[5.37168,43.29023],[5.37209,43.29071],[5.37208,43.291019],[5.3716,43.292141],[5.371851,43.292249],[5.371329,43.29342],[5.374233,43.294293]]],"type":"MultiLineString"},"properties":{"geo_point":{"lon":5.488174588677404,"lat":43.383764614251184},"name":"GR2013 Tour de la chaîne de l'Etoile (Bouches-du-Rhône)","code_gr":"GR2013"}}]}