{"type":"FeatureCollection","features":[{"type":"Feature","geometry":{"coordinates":[[[3.201437,48.285918],[3.20193,48.284747],[3.202746,48.283847],[3.20354,48.283176],[3.203711,48.282434],[3.203733,48.281377],[3.20354,48.280535],[3.204098,48.279906],[3.204334,48.279521],[3.206136,48.278264],[3.206415,48.277893],[3.206308,48.277593],[3.204312,48.27635],[3.206994,48.273766],[3.207938,48.273294],[3.208797,48.272423],[3.208968,48.271766],[3.209741,48.270981],[3.21002,48.271123],[3.212895,48.267995],[3.213882,48.268081],[3.214354,48.267624],[3.214977,48.26741],[3.215985,48.267553],[3.216822,48.268181],[3.217745,48.268524],[3.218903,48.268495],[3.21974,48.268252],[3.220598,48.267638],[3.221028,48.26761],[3.221779,48.267438],[3.222422,48.267467],[3.223366,48.267296],[3.225298,48.26751],[3.225834,48.266981],[3.225984,48.266496],[3.228495,48.264139],[3.22916,48.263696],[3.229954,48.26241],[3.230362,48.261982],[3.231477,48.262296],[3.231628,48.262168],[3.232808,48.262553],[3.233859,48.262667],[3.234095,48.26171],[3.234546,48.260725],[3.235297,48.259639],[3.235855,48.259053],[3.235855,48.258868],[3.23652,48.25791],[3.236949,48.257439],[3.237378,48.256968],[3.238709,48.256053],[3.239095,48.255653],[3.239245,48.255296],[3.239739,48.254525],[3.239846,48.25411],[3.239846,48.253039],[3.241455,48.250881],[3.240683,48.25071],[3.241026,48.250238],[3.240704,48.250067],[3.240769,48.249367],[3.239932,48.249152],[3.239374,48.249081],[3.238816,48.249124],[3.237936,48.249024],[3.236842,48.248938],[3.236305,48.248738],[3.235597,48.248609],[3.235533,48.248352],[3.235812,48.247781],[3.236091,48.247152],[3.236627,48.24638],[3.237014,48.245609],[3.237893,48.244294],[3.239074,48.242022],[3.238988,48.241565],[3.237207,48.240221],[3.235726,48.23965],[3.235297,48.239207],[3.234374,48.237549],[3.233559,48.235505],[3.234439,48.234433],[3.236112,48.234662],[3.237421,48.234919],[3.238709,48.235105],[3.24034,48.235019],[3.241863,48.235076],[3.242893,48.235291],[3.24418,48.235319],[3.245811,48.235534],[3.246176,48.235076],[3.246305,48.234276],[3.246691,48.233375],[3.246562,48.232889],[3.245318,48.232032],[3.245253,48.231775],[3.246648,48.231074],[3.247657,48.229731],[3.248515,48.230045],[3.249008,48.230374],[3.249931,48.229616],[3.250596,48.228902],[3.251304,48.228315],[3.252506,48.2257],[3.253257,48.224656],[3.254394,48.222397],[3.255403,48.221039],[3.256068,48.21971],[3.255145,48.220153],[3.251197,48.216493],[3.246755,48.215377],[3.248644,48.214977],[3.249545,48.214577],[3.250124,48.21472],[3.251884,48.214291],[3.253021,48.214248],[3.254459,48.214048],[3.255574,48.213747],[3.256261,48.21369],[3.256626,48.212332],[3.257377,48.212418],[3.257205,48.212232],[3.257785,48.211074],[3.258493,48.211174],[3.260381,48.211131],[3.261025,48.211016],[3.262419,48.211088],[3.263492,48.210859],[3.262934,48.210602],[3.262419,48.209944],[3.261626,48.209243],[3.261411,48.2088],[3.261325,48.208271],[3.260767,48.207685],[3.259909,48.206912],[3.259587,48.206255],[3.259544,48.20471],[3.259201,48.203738],[3.258664,48.202922],[3.258493,48.202021],[3.258192,48.201249],[3.258085,48.200663],[3.257248,48.199418],[3.256411,48.198432],[3.255746,48.197945],[3.256304,48.197845],[3.257699,48.197216],[3.259308,48.19703],[3.259716,48.197817],[3.260445,48.19806],[3.262098,48.197931],[3.262999,48.19796],[3.262484,48.196715],[3.262655,48.196029],[3.262076,48.195399],[3.262033,48.194756],[3.262419,48.194026],[3.262419,48.193096],[3.262033,48.192424],[3.261518,48.190693],[3.261668,48.190064],[3.261561,48.189678],[3.261196,48.189449],[3.261111,48.188977],[3.261175,48.18839],[3.260724,48.187818],[3.259029,48.187074],[3.258686,48.186774],[3.256948,48.185915],[3.256733,48.18457],[3.257012,48.184313],[3.256948,48.184012],[3.256647,48.183812],[3.25742,48.182711],[3.258128,48.181924],[3.258171,48.181265],[3.257849,48.181165],[3.258064,48.180893],[3.258257,48.18035],[3.257956,48.179291],[3.250704,48.178619],[3.249995,48.178289],[3.249695,48.178046],[3.249867,48.177202],[3.251498,48.177388],[3.252485,48.177173],[3.253515,48.176758],[3.253901,48.176415],[3.254802,48.1761],[3.253858,48.175428],[3.253836,48.174913],[3.253321,48.174469],[3.251605,48.172437],[3.247421,48.169747],[3.245854,48.168559],[3.244953,48.167113],[3.24418,48.166455],[3.240769,48.164409],[3.239739,48.163535],[3.23888,48.163206],[3.237571,48.162491],[3.237464,48.161818],[3.237507,48.160902],[3.23755,48.160487],[3.237078,48.159213],[3.236971,48.158139],[3.236627,48.157667],[3.23564,48.157338],[3.236348,48.15605],[3.236327,48.154561],[3.236799,48.153673],[3.236584,48.153043],[3.236692,48.152442],[3.237078,48.151698],[3.237142,48.151283],[3.237657,48.150238],[3.238044,48.149908],[3.237979,48.149192],[3.238065,48.148949],[3.23313,48.147102],[3.232229,48.147274],[3.2321,48.14673],[3.231435,48.145828],[3.231199,48.145427],[3.231027,48.144339],[3.230684,48.143752],[3.230233,48.143466],[3.229739,48.142836],[3.228667,48.142363],[3.228173,48.141905],[3.227186,48.139728],[3.225877,48.138998],[3.224182,48.138468],[3.223088,48.138554],[3.222465,48.137752],[3.221972,48.136793],[3.220942,48.135662],[3.220513,48.134086],[3.219869,48.133399],[3.219247,48.132926],[3.218775,48.132654],[3.218517,48.132311],[3.218302,48.130764],[3.217809,48.128816],[3.218217,48.127756],[3.218624,48.127198],[3.218603,48.126825],[3.21826,48.126009],[3.217702,48.125579],[3.215298,48.124677],[3.213196,48.12376],[3.210041,48.122185],[3.209934,48.122228],[3.208539,48.121168],[3.207187,48.119821],[3.208754,48.119277],[3.209612,48.118575],[3.209891,48.117601],[3.210706,48.116784],[3.211822,48.115438],[3.212316,48.115022],[3.212337,48.114478],[3.213217,48.113647],[3.211758,48.112945],[3.211286,48.112515],[3.209891,48.110481],[3.209569,48.110552],[3.20929,48.110452],[3.208818,48.110008],[3.208217,48.10995],[3.207445,48.110022],[3.206758,48.10995],[3.206286,48.109635],[3.205578,48.10869],[3.205256,48.10677],[3.204698,48.105165],[3.205299,48.104735],[3.208647,48.103746],[3.209955,48.102801],[3.210706,48.1025],[3.212917,48.101697],[3.21459,48.101411],[3.213603,48.09992],[3.21929,48.093672],[3.21959,48.09274],[3.220083,48.092712],[3.221006,48.092955],[3.223796,48.09274],[3.224396,48.092525],[3.225233,48.092411],[3.226263,48.091766],[3.228988,48.09092],[3.230877,48.091021],[3.232379,48.089143],[3.233409,48.089143],[3.234675,48.088885],[3.235168,48.088412],[3.235018,48.087882],[3.234718,48.087638],[3.234203,48.087323],[3.233945,48.087065],[3.232271,48.086377],[3.230791,48.085531],[3.229997,48.084929],[3.227615,48.082263],[3.226521,48.080743],[3.225684,48.079166],[3.224225,48.077675],[3.224096,48.077374],[3.223903,48.077216],[3.22401,48.076844],[3.223624,48.075826],[3.224032,48.075912],[3.228001,48.07508],[3.236584,48.073044],[3.239653,48.071123],[3.241434,48.072069],[3.242485,48.072385],[3.243537,48.072456],[3.245039,48.072069],[3.245961,48.072098],[3.246777,48.072442],[3.247485,48.07293],[3.248257,48.073862],[3.24991,48.075109],[3.250682,48.075625],[3.25124,48.075625],[3.25242,48.076313],[3.25418,48.076872],[3.255167,48.07713],[3.256347,48.077173],[3.259995,48.076801],[3.262698,48.076715],[3.264737,48.076729],[3.265917,48.076557],[3.266368,48.076614],[3.266003,48.077446],[3.266132,48.077833],[3.267033,48.078478],[3.265252,48.078894],[3.264158,48.079309],[3.264673,48.079381],[3.266325,48.079223],[3.267634,48.079252],[3.270209,48.079682],[3.271346,48.079668],[3.272569,48.079352],[3.274436,48.079453],[3.27538,48.079998],[3.275959,48.080141],[3.276388,48.080471],[3.276968,48.080643],[3.277654,48.080571],[3.278813,48.080872],[3.278985,48.08113],[3.2798,48.081359],[3.280723,48.081187],[3.281946,48.081288],[3.28289,48.080815],[3.283405,48.080585],[3.283598,48.080643],[3.284156,48.082134],[3.283834,48.083037],[3.285508,48.083266],[3.28568,48.083137],[3.286624,48.083094],[3.28687,48.083151],[3.286903,48.082979],[3.287053,48.082972],[3.287793,48.083108],[3.28892,48.083209],[3.289628,48.083158],[3.292632,48.082277],[3.293061,48.082865],[3.29334,48.083725],[3.293383,48.084714],[3.293147,48.085789],[3.297052,48.085345],[3.298876,48.084843],[3.299069,48.084312],[3.299284,48.084384],[3.299734,48.084972],[3.300056,48.085818],[3.29834,48.086162],[3.299198,48.087151],[3.299949,48.087767],[3.300421,48.088054],[3.301644,48.086807],[3.302781,48.08662],[3.303339,48.087581],[3.305442,48.088742],[3.306772,48.089],[3.30806,48.089229],[3.314068,48.089645],[3.314991,48.08986],[3.316042,48.089817],[3.316943,48.08953],[3.318274,48.089358],[3.319454,48.089057],[3.319432,48.088828],[3.31881,48.088512],[3.318338,48.087968],[3.318317,48.086749],[3.319154,48.086592],[3.319733,48.086319],[3.321235,48.085316],[3.321686,48.084914],[3.322866,48.084226],[3.325398,48.083022],[3.326063,48.082793],[3.326943,48.082736],[3.328337,48.082951],[3.328788,48.082807],[3.329346,48.082363],[3.330569,48.081833],[3.332071,48.081015],[3.33323,48.080542],[3.334045,48.079481],[3.332886,48.079223],[3.332393,48.078722],[3.33205,48.078578],[3.331191,48.077847],[3.331234,48.076729],[3.330805,48.0766],[3.330569,48.07627],[3.33235,48.07541],[3.335805,48.073618],[3.337521,48.073245],[3.338895,48.073188],[3.338551,48.071912],[3.339002,48.07141],[3.340139,48.070707],[3.340826,48.069947],[3.34147,48.069703],[3.34265,48.069431],[3.344066,48.069001],[3.344688,48.068642],[3.34531,48.06794],[3.345825,48.067839],[3.346255,48.066893],[3.346276,48.066319],[3.34574,48.065459],[3.345332,48.064283],[3.345654,48.064039],[3.346576,48.063652],[3.346641,48.063408],[3.345804,48.062562],[3.345589,48.062075],[3.345911,48.061501],[3.345933,48.060928],[3.346405,48.059709],[3.347113,48.058647],[3.341813,48.052853],[3.344495,48.051433],[3.347263,48.050371],[3.348465,48.049281],[3.347542,48.048736],[3.34707,48.048048],[3.345997,48.047703],[3.345418,48.047417],[3.34501,48.04713],[3.345074,48.046656],[3.344731,48.046125],[3.344838,48.045695],[3.344817,48.045136],[3.345225,48.044591],[3.345139,48.044189],[3.345482,48.044103],[3.345482,48.043357],[3.345697,48.04307],[3.345546,48.041879],[3.345761,48.041004],[3.34619,48.04043],[3.347864,48.039139],[3.347435,48.038766],[3.352434,48.034289],[3.356983,48.03043],[3.358593,48.029253],[3.360288,48.028607],[3.3637,48.025364],[3.364579,48.023182],[3.37121,48.021676],[3.370437,48.018949],[3.368731,48.017305],[3.366167,48.014255],[3.367026,48.014255],[3.36739,48.014155],[3.367884,48.014198],[3.368678,48.012547],[3.368613,48.012332],[3.369364,48.012274],[3.37033,48.011815],[3.37033,48.011815],[3.370845,48.011355],[3.370845,48.011011],[3.369665,48.01025],[3.36945,48.009619],[3.369236,48.008628],[3.367884,48.008585],[3.367734,48.008197],[3.367605,48.007408],[3.364665,48.007264],[3.362283,48.007537],[3.359751,48.007551],[3.3587,48.007681],[3.358679,48.006661],[3.358314,48.005857],[3.357541,48.00646],[3.357048,48.006676],[3.355803,48.006719],[3.35473,48.006532],[3.352713,48.005541],[3.352542,48.003876],[3.352563,48.003029],[3.352885,48.002168],[3.353271,48.001306],[3.353572,48.000904],[3.354044,48.000761],[3.354687,48.000804],[3.355331,48.000588],[3.355846,48.000287],[3.356318,48.000071],[3.357713,47.999741],[3.358271,47.999755],[3.359086,47.999554],[3.359601,47.999554],[3.360545,47.99931],[3.362155,47.999397],[3.36282,47.999253],[3.363099,47.999038],[3.363635,47.998994],[3.364751,47.998506],[3.365245,47.998061],[3.36533,47.997674],[3.364215,47.997745],[3.363056,47.997544],[3.362069,47.997171],[3.361532,47.996826],[3.361211,47.996223],[3.361683,47.996108],[3.362047,47.995749],[3.36312,47.995031],[3.364064,47.994156],[3.365631,47.993294],[3.366554,47.993495],[3.368034,47.993237],[3.368656,47.993193],[3.367498,47.991872],[3.370995,47.991441],[3.373356,47.991729],[3.373635,47.991901],[3.373892,47.991327],[3.375394,47.99025],[3.375737,47.989675],[3.375501,47.9889],[3.37563,47.988469],[3.376252,47.987851],[3.37681,47.987148],[3.379106,47.986358],[3.379514,47.986444],[3.379814,47.987076],[3.380673,47.988095],[3.382046,47.98933],[3.383677,47.990077],[3.387432,47.99114],[3.388376,47.991585],[3.388848,47.991628],[3.389084,47.991772],[3.389685,47.991643],[3.39035,47.991887],[3.391251,47.992102],[3.391788,47.991226],[3.391616,47.990235],[3.391917,47.98956],[3.387282,47.988656],[3.386295,47.988354],[3.385029,47.98834],[3.384642,47.98821],[3.384557,47.987722],[3.383591,47.986846],[3.38372,47.986501],[3.384943,47.986688],[3.387818,47.987492],[3.390586,47.988095],[3.391959,47.988081],[3.392582,47.987995],[3.393397,47.987765],[3.394212,47.987851],[3.394942,47.987693],[3.395478,47.987363],[3.395757,47.986889],[3.396315,47.986501],[3.396101,47.98607],[3.396165,47.984921],[3.398676,47.984562],[3.400736,47.983916],[3.402538,47.983471],[3.402688,47.983126],[3.402259,47.981877],[3.400907,47.980584],[3.40065,47.980067],[3.4064,47.977395],[3.406229,47.977266],[3.413996,47.973718],[3.415777,47.973646],[3.416164,47.974436],[3.417043,47.975671],[3.418503,47.975226],[3.419039,47.976447],[3.421614,47.975671],[3.422515,47.977007],[3.425884,47.975959],[3.427,47.977596],[3.428352,47.977424],[3.432729,47.976289],[3.43466,47.975542],[3.438158,47.974968],[3.440711,47.974264],[3.438973,47.970529],[3.443179,47.969796],[3.445046,47.969724],[3.449638,47.968647],[3.451011,47.968029],[3.452985,47.967411],[3.45438,47.967081],[3.454787,47.967195],[3.455152,47.966923],[3.457062,47.966448],[3.45895,47.96629],[3.45968,47.96642],[3.460366,47.966764],[3.461997,47.967095],[3.462684,47.967138],[3.463778,47.966994],[3.464615,47.967138],[3.467233,47.966966],[3.467984,47.96675],[3.46998,47.966391],[3.471031,47.966305],[3.472554,47.96606],[3.474807,47.966032],[3.476653,47.965759],[3.478884,47.965515],[3.48118,47.96504],[3.483562,47.965141],[3.484506,47.965112],[3.484657,47.962339],[3.488261,47.962583],[3.492038,47.962569],[3.496029,47.962368],[3.497789,47.962037],[3.498711,47.961736],[3.49914,47.961333],[3.499956,47.96096],[3.500385,47.960112],[3.500707,47.958445],[3.500771,47.956635],[3.5009,47.955614],[3.501136,47.954968],[3.50223,47.954321],[3.50384,47.954393],[3.505149,47.95422],[3.505964,47.95376],[3.506822,47.952841],[3.507037,47.952223],[3.506973,47.951432],[3.506737,47.950843],[3.503711,47.948256],[3.50311,47.947566],[3.503003,47.946761],[3.503346,47.945669],[3.504097,47.944433],[3.505041,47.943571],[3.508861,47.941501],[3.510127,47.941184],[3.511994,47.941228],[3.512938,47.940696],[3.513431,47.939876],[3.51386,47.938683],[3.513968,47.937332],[3.513882,47.936498],[3.514139,47.935549],[3.515341,47.933566],[3.515813,47.932574],[3.51592,47.931538],[3.51562,47.930978],[3.515191,47.930388],[3.514912,47.929482],[3.515105,47.928447],[3.51532,47.928059],[3.519482,47.926003],[3.520469,47.925327],[3.521199,47.924206],[3.522057,47.923372],[3.522658,47.923098],[3.523023,47.922782],[3.522765,47.922811],[3.521864,47.922437],[3.519354,47.921876],[3.516392,47.920826],[3.515212,47.920079],[3.515856,47.917663],[3.51474,47.917145],[3.513689,47.916225],[3.512916,47.916038],[3.510213,47.915836],[3.509741,47.915405],[3.509741,47.915405],[3.506393,47.914794],[3.505299,47.914348],[3.503818,47.914046],[3.502917,47.913571],[3.501265,47.915182],[3.496437,47.912579],[3.495471,47.911097],[3.494849,47.909832],[3.497081,47.908652],[3.498904,47.906926],[3.500085,47.906178],[3.501007,47.905689],[3.501694,47.904941],[3.506179,47.901892],[3.504462,47.900683],[3.502252,47.899791],[3.504119,47.897231],[3.500814,47.894094],[3.501758,47.893317],[3.5009,47.892612],[3.499849,47.891001],[3.498862,47.889922],[3.498304,47.889404],[3.497488,47.888094],[3.49678,47.887691],[3.495557,47.886814],[3.493905,47.885993],[3.492446,47.88536],[3.491566,47.885116],[3.490407,47.88454],[3.492381,47.883159],[3.494334,47.882382],[3.4953,47.881907],[3.496823,47.881432],[3.497896,47.880626],[3.498904,47.88018],[3.499763,47.87959],[3.501308,47.878352],[3.50266,47.877546],[3.506179,47.875833],[3.508475,47.874624],[3.50929,47.874049],[3.509526,47.873718],[3.510427,47.873315],[3.5115,47.873185],[3.512981,47.873243],[3.51474,47.873574],[3.514526,47.872854],[3.514654,47.872336],[3.51532,47.871559],[3.515813,47.870162],[3.51665,47.868651],[3.517122,47.868133],[3.518152,47.867413],[3.517401,47.866693],[3.515169,47.86367],[3.51459,47.863066],[3.51532,47.862691],[3.518538,47.861727],[3.519418,47.861209],[3.521929,47.860849],[3.522701,47.857005],[3.524074,47.857105],[3.525598,47.856875],[3.525276,47.856011],[3.525276,47.85483],[3.525662,47.854125],[3.52607,47.853808],[3.525555,47.853506],[3.525276,47.853002],[3.524246,47.852383],[3.52416,47.851792],[3.524203,47.851044],[3.524396,47.850698],[3.524267,47.849618],[3.524117,47.847775],[3.524332,47.846652],[3.522701,47.84645],[3.520019,47.846205],[3.518088,47.846176],[3.516328,47.846565],[3.514826,47.847372],[3.513646,47.847847],[3.510792,47.84861],[3.502917,47.8492],[3.501286,47.841553],[3.502037,47.841208],[3.507445,47.840473],[3.506822,47.838126],[3.509097,47.836513],[3.507359,47.834784],[3.511157,47.833041],[3.505471,47.82944],[3.505127,47.828172],[3.505256,47.827726],[3.504934,47.827495],[3.505192,47.827005],[3.504998,47.826616],[3.504677,47.825219],[3.504226,47.824513],[3.503346,47.823994],[3.502381,47.823577],[3.50193,47.823548],[3.501501,47.823317],[3.500428,47.822453],[3.500685,47.821934],[3.501372,47.821228],[3.501737,47.820061],[3.502166,47.819384],[3.502166,47.819384],[3.50311,47.819024],[3.503475,47.818548],[3.503904,47.817612],[3.504312,47.817266],[3.504269,47.816805],[3.504076,47.816589],[3.504827,47.815883],[3.505513,47.815422],[3.508389,47.815119],[3.509633,47.814485],[3.511908,47.813649],[3.514311,47.812914],[3.515126,47.812511],[3.515577,47.812007],[3.519675,47.810018],[3.522229,47.809168]]],"type":"MultiLineString"},"properties":{"geo_point":{"lon":3.3563932760175668,"lat":48.04075488412696},"name":"GR213 De Pont-sur-Yonne à St Georges-sur-Baulche (Yonne) (2020)","code_gr":"GR213"}}]}