{"type":"FeatureCollection","features":[{"type":"Feature","geometry":{"coordinates":[[[0.598197,49.852759],[0.599613,49.852897],[0.601298,49.85316],[0.602961,49.853596],[0.608207,49.855404],[0.609049,49.855479],[0.609559,49.855236],[0.610557,49.854298],[0.612381,49.854754],[0.614322,49.855195],[0.61517,49.855208],[0.615557,49.85467],[0.616361,49.854034],[0.61759,49.853357],[0.618389,49.852776],[0.619376,49.851839],[0.620663,49.85099],[0.621548,49.849952],[0.622216,49.848955],[0.622862,49.848263],[0.623608,49.847564],[0.624228,49.846696],[0.624965,49.845807],[0.6257,49.845985],[0.628377,49.84693],[0.627814,49.847576],[0.62724,49.848429],[0.629246,49.848678],[0.630759,49.848791],[0.631913,49.848791],[0.634761,49.848472],[0.636177,49.848498],[0.640126,49.848002],[0.64403,49.848001],[0.646691,49.848389],[0.645576,49.8507],[0.646563,49.851391],[0.648569,49.853944],[0.649583,49.85457],[0.652989,49.855769],[0.650859,49.857966],[0.648816,49.860203],[0.65167,49.861046],[0.652518,49.861241],[0.653843,49.861621],[0.655704,49.86203],[0.655897,49.862225],[0.657517,49.862527],[0.658129,49.862556],[0.659866,49.862846],[0.663407,49.862915],[0.666647,49.863037],[0.667913,49.863176],[0.672923,49.864022],[0.677349,49.865052],[0.679758,49.865543],[0.681141,49.865798],[0.682198,49.865891],[0.685262,49.866274],[0.688067,49.866481],[0.689553,49.866792],[0.690915,49.867083],[0.693297,49.868176],[0.695164,49.868961],[0.695808,49.86911],[0.698426,49.869593],[0.701988,49.869801],[0.70438,49.870087],[0.704348,49.870716],[0.704477,49.871315],[0.704745,49.871456],[0.706322,49.871681],[0.707545,49.871662],[0.70791,49.871796],[0.708683,49.871716],[0.709144,49.87151],[0.709487,49.871567],[0.710056,49.871143],[0.711021,49.87064],[0.711354,49.870564],[0.711654,49.870319],[0.711687,49.869911],[0.711526,49.869678],[0.71085,49.869354],[0.710721,49.868622],[0.711515,49.868496],[0.711783,49.868881],[0.712395,49.8694],[0.712599,49.870369],[0.712792,49.87044],[0.716354,49.869665],[0.716252,49.869366],[0.715389,49.869446],[0.715359,49.869391],[0.715774,49.869268],[0.715951,49.869255],[0.7163,49.869205],[0.716316,49.869125],[0.716472,49.869076],[0.716949,49.869049],[0.716997,49.869087],[0.717244,49.86895],[0.71725,49.868748],[0.715946,49.867306],[0.716053,49.86705],[0.716359,49.866962],[0.717502,49.866554],[0.719186,49.86618],[0.719422,49.866028],[0.720119,49.8661],[0.721761,49.866229],[0.724416,49.866749],[0.725811,49.86652],[0.727136,49.866688],[0.72859,49.867115],[0.729024,49.867123],[0.729802,49.867004],[0.730838,49.866791],[0.7311,49.867031],[0.731744,49.86734],[0.732592,49.867584],[0.733885,49.867817],[0.735778,49.868191],[0.736889,49.868481],[0.738868,49.868786],[0.740837,49.868992],[0.741781,49.869041],[0.744887,49.869007],[0.745842,49.868973],[0.746357,49.868912],[0.746909,49.868908],[0.749506,49.869049],[0.752875,49.868951],[0.753486,49.868973],[0.753529,49.868813],[0.753626,49.867561],[0.754087,49.865714],[0.75442,49.865361],[0.754817,49.863758],[0.754945,49.862713],[0.754741,49.861717],[0.754216,49.860002],[0.755085,49.857677],[0.757864,49.857269],[0.757188,49.85585],[0.757005,49.855141],[0.755364,49.854518],[0.755632,49.854212],[0.756394,49.853745],[0.75737,49.854053],[0.758271,49.854248],[0.75855,49.854256],[0.758604,49.854595],[0.758507,49.85482],[0.75973,49.855251],[0.761071,49.856262],[0.762885,49.858265],[0.763453,49.85907],[0.765867,49.861345],[0.766919,49.862195],[0.768389,49.863029],[0.770996,49.864056],[0.777154,49.866138],[0.773495,49.870853],[0.77798,49.871767],[0.77989,49.872002],[0.784214,49.873081],[0.786885,49.873936],[0.788777,49.874128],[0.790518,49.873838],[0.791047,49.874673],[0.791522,49.874792],[0.794363,49.874906],[0.79442,49.874993],[0.794154,49.875771],[0.79425,49.875881],[0.794266,49.876003],[0.794454,49.876127],[0.794754,49.876189],[0.795044,49.876237],[0.795366,49.876347],[0.795565,49.876478],[0.795779,49.876506],[0.796009,49.876523],[0.796214,49.876549],[0.79653,49.87653],[0.796975,49.876583],[0.797099,49.876785],[0.79718,49.876847],[0.797271,49.876945],[0.797367,49.876905],[0.797485,49.876792],[0.797711,49.876718],[0.797818,49.876804],[0.799212,49.876653],[0.799567,49.876637],[0.799668,49.876511],[0.799572,49.876369],[0.799073,49.876034],[0.798885,49.875381],[0.79888,49.874981],[0.798993,49.874718],[0.79895,49.874576],[0.799175,49.874322],[0.799593,49.874084],[0.799824,49.873913],[0.800006,49.873715],[0.800704,49.873191],[0.800988,49.872948],[0.801128,49.872688],[0.801235,49.872074],[0.801192,49.871618],[0.800918,49.871101],[0.800669,49.870823],[0.800779,49.870687],[0.80129,49.87042],[0.801919,49.870022],[0.802222,49.870285],[0.802423,49.870373],[0.80245,49.87048],[0.802675,49.870836],[0.802409,49.870991],[0.802319,49.871164],[0.802984,49.871334],[0.803713,49.871503],[0.804078,49.871655],[0.804931,49.872044],[0.805709,49.872314],[0.807136,49.872822],[0.808182,49.872189],[0.809534,49.87125],[0.810521,49.87043],[0.811159,49.869781],[0.811406,49.869297],[0.813133,49.869999],[0.813975,49.870461],[0.815091,49.871117],[0.815858,49.871647],[0.8167,49.872349],[0.81795,49.873425],[0.820595,49.875366],[0.821496,49.875984],[0.822151,49.876965],[0.823342,49.878281],[0.824801,49.880199],[0.825616,49.880505],[0.827934,49.881706],[0.829403,49.882259],[0.829425,49.882484],[0.830186,49.882683],[0.830584,49.884506],[0.830423,49.885151],[0.829929,49.886162],[0.829768,49.887047],[0.831474,49.887272],[0.83627,49.888138],[0.839939,49.888206],[0.843673,49.888554],[0.844574,49.885899],[0.84392,49.885029],[0.843759,49.884281],[0.843298,49.883665],[0.842643,49.882538],[0.844821,49.882614],[0.846355,49.882732],[0.847272,49.882953],[0.848254,49.883381],[0.848168,49.88403],[0.848243,49.884211],[0.848941,49.88464],[0.849531,49.88499],[0.849907,49.885159],[0.850502,49.88565],[0.851119,49.886307],[0.852363,49.887959],[0.8529,49.888428],[0.854144,49.889202],[0.854144,49.890614],[0.85438,49.890923],[0.855399,49.891357],[0.85703,49.891628],[0.858833,49.892532],[0.859391,49.892623],[0.860173,49.892652],[0.860592,49.892582],[0.863081,49.892021],[0.86542,49.891655],[0.866514,49.891212],[0.868821,49.890709],[0.871015,49.892272],[0.871857,49.892645],[0.873477,49.89035],[0.874475,49.889755],[0.875462,49.889036],[0.878455,49.887918],[0.880097,49.887716],[0.88161,49.887349],[0.883842,49.886768],[0.884421,49.886878],[0.885236,49.887591],[0.887725,49.890245],[0.888219,49.890559],[0.888605,49.89068],[0.889077,49.890557],[0.889399,49.890294],[0.889485,49.889933],[0.890107,49.88905],[0.895021,49.885484],[0.8953,49.884724],[0.896201,49.885108],[0.897156,49.885676],[0.897757,49.886195],[0.898143,49.886676],[0.898272,49.887134],[0.907284,49.894239],[0.910428,49.895756],[0.911028,49.895973],[0.910792,49.896263],[0.911415,49.896778],[0.912788,49.897621],[0.913711,49.898586],[0.91473,49.898773],[0.914998,49.899044],[0.91723,49.900024],[0.918195,49.900883],[0.918667,49.900999],[0.919633,49.901752],[0.920083,49.901793],[0.920856,49.902355],[0.921489,49.902884],[0.921865,49.903385],[0.922111,49.903682],[0.922964,49.904286],[0.923208,49.904547],[0.923828,49.904628],[0.924482,49.904792],[0.930598,49.906715],[0.933301,49.907459],[0.93666,49.908198],[0.938333,49.907702],[0.943601,49.90847],[0.94446,49.908415],[0.94506,49.908629],[0.94623,49.909148],[0.946847,49.909313],[0.94697,49.909099],[0.952861,49.909144],[0.955596,49.909491],[0.956959,49.910575],[0.958579,49.911729],[0.958794,49.912172],[0.958954,49.91229],[0.959008,49.912518],[0.958997,49.912546],[0.9592,49.912789],[0.959039,49.913017],[0.958803,49.913107],[0.958674,49.913349],[0.958363,49.913563],[0.958513,49.913673],[0.958481,49.91377],[0.958985,49.914074],[0.958824,49.914468],[0.959318,49.914862],[0.959307,49.915069],[0.959189,49.915235],[0.958781,49.915428],[0.959115,49.915653],[0.961003,49.914776],[0.960252,49.916244],[0.9639,49.916759],[0.964405,49.917193],[0.96625,49.917734],[0.966577,49.917689],[0.966818,49.917492],[0.967172,49.916658],[0.967913,49.916954],[0.968986,49.91759],[0.969779,49.91774],[0.970638,49.917617],[0.971217,49.91747],[0.971174,49.917239],[0.971368,49.91677],[0.971593,49.916613],[0.97244,49.916573],[0.974457,49.916775],[0.974468,49.916122],[0.974677,49.915543],[0.974961,49.91513],[0.975535,49.914757],[0.976131,49.914522],[0.97817,49.913886],[0.978277,49.913223],[0.979671,49.913156],[0.980261,49.913259],[0.981173,49.913258],[0.981442,49.914099],[0.981399,49.914936],[0.982032,49.915797],[0.983534,49.916034],[0.984703,49.916232],[0.985883,49.91674],[0.986077,49.916919],[0.986505,49.91688],[0.986607,49.916736],[0.986516,49.916386],[0.985529,49.915082],[0.986366,49.915199],[0.986645,49.915115],[0.986554,49.914559],[0.986398,49.914087],[0.98708,49.914188],[0.98848,49.9146],[0.990358,49.914224],[0.991849,49.913534],[0.992718,49.912863],[0.993264,49.912021],[0.993254,49.911648],[0.993898,49.91229],[0.994167,49.912648],[0.994547,49.912901],[0.99585,49.913402],[0.995636,49.913761],[0.995738,49.915888],[0.996298,49.916185],[0.997453,49.916237],[0.997895,49.916112],[0.998293,49.915772],[0.997953,49.914175],[0.999434,49.914356],[1.001043,49.914921],[1.00173,49.914963],[1.00246,49.915184],[1.004992,49.915061],[1.005453,49.915096],[1.005935,49.915055],[1.007084,49.915504],[1.007309,49.91593],[1.007395,49.916199],[1.007685,49.916302],[1.008146,49.915089],[1.008081,49.913485],[1.008961,49.913408],[1.011966,49.911386],[1.012695,49.910667],[1.013575,49.910582],[1.012877,49.909387],[1.012378,49.908762],[1.010957,49.907632],[1.010216,49.906789],[1.010056,49.906342],[1.01027,49.905912],[1.010936,49.905565],[1.014058,49.904774],[1.014632,49.904749],[1.015453,49.905181],[1.016224,49.90527],[1.017093,49.905552],[1.018671,49.905843],[1.01969,49.90601],[1.020881,49.906901],[1.021707,49.907756],[1.022737,49.909416],[1.024046,49.910473],[1.024894,49.91155],[1.026095,49.91247],[1.026878,49.913887],[1.027329,49.914474],[1.028852,49.915827],[1.027854,49.916552],[1.027715,49.916787],[1.031786,49.917776],[1.03215,49.917265],[1.031067,49.916844],[1.031469,49.916433],[1.031893,49.915883],[1.031743,49.915414],[1.031421,49.915047],[1.03273,49.914516],[1.033867,49.914212],[1.033545,49.913797],[1.034275,49.913355],[1.034124,49.913244],[1.03436,49.912885],[1.034232,49.912125],[1.034446,49.911158],[1.034725,49.910854],[1.034264,49.910577],[1.034157,49.910253],[1.034398,49.909835],[1.034444,49.909453],[1.034682,49.908809],[1.034661,49.907537],[1.034897,49.906971],[1.034768,49.906273],[1.034564,49.905817],[1.034468,49.90476],[1.034661,49.903854],[1.034575,49.903574],[1.033813,49.902604],[1.033776,49.902224],[1.033835,49.90183],[1.03406,49.901332],[1.034972,49.90174],[1.036313,49.902237],[1.037547,49.902845],[1.038196,49.90269],[1.038891,49.902681],[1.039714,49.902756],[1.040943,49.90259],[1.042462,49.902572],[1.043402,49.90261],[1.044081,49.902548],[1.045492,49.902651],[1.047299,49.903853],[1.047986,49.904648],[1.048254,49.904814],[1.048941,49.904814],[1.049574,49.904544],[1.050116,49.904133],[1.051183,49.902851],[1.051274,49.902163],[1.05143,49.901891],[1.052031,49.902188],[1.052535,49.902865],[1.053275,49.903445],[1.053823,49.90368],[1.053318,49.904696],[1.052771,49.905536],[1.052417,49.905885],[1.052278,49.90632],[1.052626,49.906493],[1.05379,49.906734],[1.054252,49.907142],[1.054971,49.907944],[1.055292,49.9085],[1.055829,49.90907],[1.056891,49.909712],[1.058854,49.910286],[1.059369,49.91068],[1.059809,49.911212],[1.061,49.911758],[1.061086,49.913063],[1.06276,49.914576],[1.062776,49.914737],[1.060067,49.917233],[1.058838,49.918457],[1.057859,49.919539],[1.055818,49.921326],[1.059215,49.923019],[1.063474,49.92378],[1.066285,49.922791],[1.065631,49.924084],[1.065266,49.925014],[1.067369,49.924979],[1.06798,49.925006],[1.068785,49.925123],[1.069568,49.924427],[1.06982,49.924421],[1.070094,49.924152],[1.070609,49.923517],[1.07166,49.922983],[1.072465,49.923645],[1.074708,49.924737],[1.077669,49.926735],[1.078774,49.927218],[1.079235,49.927327],[1.079846,49.926424],[1.08181,49.926424],[1.083784,49.927335],[1.085941,49.927239],[1.085839,49.92738],[1.085566,49.927633],[1.085704,49.928102],[1.085978,49.92828],[1.086042,49.928404],[1.086386,49.928442],[1.086381,49.928498],[1.086677,49.928555],[1.086842,49.928647],[1.087194,49.928808],[1.087226,49.929112],[1.086909,49.929457],[1.08734,49.929656],[1.08747,49.92985],[1.088451,49.929697],[1.088263,49.930951],[1.088751,49.931176],[1.088371,49.931548],[1.088362,49.931689],[1.091611,49.933051],[1.091828,49.933076],[1.092244,49.933318],[1.093212,49.933425],[1.09447,49.93339],[1.095581,49.933527],[1.096404,49.933793],[1.097282,49.934154],[1.098568,49.934522],[1.099893,49.934711],[1.101409,49.934727],[1.101723,49.934667],[1.102372,49.935133],[1.102991,49.935226],[1.103954,49.935113],[1.104973,49.935225],[1.105982,49.935221],[1.106036,49.9361],[1.106636,49.936215],[1.107323,49.936618],[1.107806,49.936528],[1.108289,49.936321],[1.108858,49.936457],[1.108449,49.936672],[1.109501,49.937066],[1.109592,49.937225],[1.109458,49.937522],[1.10934,49.937659],[1.109576,49.937804],[1.109651,49.937931],[1.109962,49.938114],[1.111229,49.937922],[1.113803,49.938211],[1.11494,49.938398],[1.115821,49.9384],[1.116035,49.938698],[1.1167,49.938649],[1.117011,49.938535],[1.119232,49.93831],[1.120348,49.938364],[1.12215,49.938334],[1.123138,49.938578],[1.123492,49.938614],[1.123722,49.93889],[1.123224,49.93998],[1.125498,49.940395],[1.129038,49.941086],[1.133287,49.941113],[1.135948,49.941347],[1.13804,49.9413],[1.139338,49.941573],[1.142063,49.94203],[1.144767,49.942722],[1.145797,49.942983],[1.147964,49.943693],[1.149305,49.944245],[1.150925,49.944667],[1.153983,49.946455],[1.156118,49.947453],[1.156096,49.947769],[1.156826,49.948321],[1.159272,49.949046],[1.16056,49.949578],[1.161182,49.950121],[1.162544,49.950773],[1.163628,49.950963],[1.162705,49.952171],[1.164218,49.952952],[1.164958,49.953304],[1.165892,49.954574],[1.166536,49.956381],[1.166922,49.956668],[1.167394,49.956854],[1.168123,49.957398],[1.167662,49.957813],[1.167914,49.958047],[1.168102,49.958363],[1.168864,49.958756],[1.169357,49.958371],[1.169819,49.958219],[1.170317,49.95799],[1.170049,49.958291],[1.169696,49.958445],[1.169556,49.95857],[1.169663,49.95872],[1.169599,49.95924],[1.170135,49.959438],[1.170822,49.959496],[1.171133,49.959625],[1.171546,49.959675],[1.172045,49.959641],[1.173273,49.959972],[1.173917,49.960072],[1.174089,49.96014],[1.175467,49.960236],[1.176036,49.960297],[1.177356,49.958199],[1.181288,49.958931],[1.182709,49.959415],[1.182586,49.959743],[1.182741,49.960561],[1.183541,49.961445],[1.184227,49.96188],[1.185107,49.962154],[1.186175,49.962643],[1.187205,49.962952],[1.18934,49.962894],[1.191153,49.963314],[1.191357,49.963463],[1.191534,49.963902],[1.191995,49.964073],[1.192252,49.964334],[1.192344,49.964724],[1.192564,49.965114],[1.192928,49.965045],[1.193079,49.965307],[1.194162,49.965096],[1.19471,49.96619],[1.197188,49.967205],[1.197778,49.968227],[1.19825,49.968346],[1.198797,49.968323],[1.197745,49.96858],[1.197467,49.968784],[1.197971,49.968765],[1.198223,49.968879],[1.198432,49.96911],[1.198325,49.969241],[1.198626,49.969311],[1.198706,49.96947],[1.199108,49.969643],[1.199259,49.969765],[1.200471,49.970013],[1.201099,49.970226],[1.201335,49.970348],[1.201801,49.970463],[1.201801,49.970463],[1.202629,49.970243],[1.202878,49.970271],[1.205625,49.96947],[1.206955,49.970671],[1.209483,49.971149],[1.211023,49.970442],[1.212702,49.970867],[1.213571,49.969662],[1.213742,49.969288],[1.214676,49.968002],[1.215829,49.967346],[1.217374,49.967052],[1.218828,49.96671],[1.220652,49.965881],[1.221891,49.965492],[1.222299,49.966076],[1.222524,49.966476],[1.227475,49.964943],[1.228495,49.965618],[1.229825,49.965695],[1.2302,49.965902],[1.230345,49.966136],[1.230125,49.966854],[1.23313,49.969064],[1.233253,49.969328],[1.233183,49.969621],[1.23255,49.970525],[1.232218,49.971207],[1.231585,49.973649],[1.23137,49.974991],[1.230565,49.976785],[1.230383,49.977639],[1.230496,49.978119],[1.23078,49.978434],[1.230769,49.978859],[1.230973,49.979317],[1.232024,49.979687],[1.23373,49.980076],[1.23343,49.980301],[1.233194,49.980801],[1.233709,49.981297],[1.230994,49.983318],[1.229691,49.984434],[1.230742,49.984844],[1.230608,49.985085],[1.231251,49.985373],[1.231327,49.985588],[1.231616,49.985887],[1.231581,49.986417],[1.231967,49.986535],[1.233104,49.987252],[1.233769,49.987569],[1.235475,49.988825],[1.236273,49.988953],[1.236841,49.989339],[1.237571,49.989724],[1.23859,49.990386],[1.239996,49.990921],[1.240361,49.991207],[1.242682,49.992375],[1.244592,49.990872],[1.244495,49.991741],[1.244292,49.992417],[1.244807,49.992637],[1.245212,49.993336],[1.24536,49.993938],[1.245672,49.994289],[1.246541,49.994663],[1.247013,49.994987],[1.248289,49.995586],[1.249845,49.996471],[1.250736,49.99707],[1.252495,49.997993],[1.252919,49.998408],[1.254566,49.999596],[1.254855,49.999443],[1.254855,49.999443],[1.255096,49.999127],[1.255482,49.99921],[1.256061,49.999693],[1.257273,50.000479],[1.257091,50.000869],[1.256469,50.001231],[1.256571,50.001507],[1.258821,50.002989],[1.259999,50.003893],[1.260449,50.003893],[1.261501,50.004196],[1.261937,50.004434],[1.262135,50.004837],[1.26265,50.005263],[1.263546,50.00593],[1.264651,50.006574],[1.265134,50.006945],[1.266588,50.008062],[1.26891,50.009404],[1.271195,50.010802],[1.271335,50.011058],[1.272665,50.011797],[1.273153,50.012022],[1.274157,50.012848],[1.274967,50.013291],[1.275584,50.013454],[1.275868,50.013481],[1.276082,50.013802],[1.27649,50.014046],[1.27649,50.014046],[1.277154,50.014325],[1.27842,50.013794],[1.278624,50.014097],[1.281113,50.015449],[1.281392,50.015835],[1.283205,50.017165],[1.284289,50.017848],[1.285018,50.017544],[1.285426,50.018372],[1.286241,50.019061],[1.285512,50.019351],[1.285694,50.019619],[1.286859,50.020492],[1.28745,50.020916],[1.28848,50.021773],[1.289402,50.022255],[1.29003,50.022575],[1.290765,50.023033],[1.292331,50.024226],[1.292991,50.0247],[1.29335,50.02494],[1.293747,50.025087],[1.29409,50.025282],[1.294348,50.025326],[1.294595,50.025307],[1.29481,50.025176],[1.295008,50.025361],[1.29497,50.025756],[1.295373,50.025962],[1.295507,50.026147],[1.295845,50.026403],[1.296264,50.026554],[1.29643,50.026709],[1.297309,50.027127],[1.298505,50.027741],[1.299499,50.028141],[1.301529,50.02887],[1.30161,50.029003],[1.302053,50.02913],[1.303705,50.029803],[1.304814,50.03023],[1.305391,50.029621],[1.305298,50.028361],[1.305503,50.027293],[1.305466,50.026789],[1.306138,50.027185],[1.306225,50.027199],[1.30688,50.027229],[1.307352,50.027069],[1.307588,50.026779],[1.308006,50.026913],[1.308317,50.026655],[1.308607,50.026637],[1.308591,50.026746],[1.30899,50.026835],[1.309326,50.026827],[1.309379,50.027417],[1.309325,50.027966],[1.30961,50.028714],[1.309618,50.02935],[1.309359,50.030406],[1.309057,50.031034],[1.309004,50.031963],[1.308886,50.032191],[1.314668,50.034009],[1.314974,50.033972],[1.315387,50.033748],[1.31617,50.034456],[1.316664,50.034708],[1.317351,50.034914],[1.317566,50.035513],[1.321245,50.038296],[1.323284,50.037227],[1.326814,50.039539],[1.325092,50.040474],[1.3244,50.04072],[1.325344,50.041542],[1.326063,50.042412],[1.32706,50.042795],[1.327661,50.043186],[1.329345,50.044569],[1.329603,50.044677],[1.330075,50.044407],[1.330107,50.044098],[1.330456,50.044109],[1.33043,50.044245],[1.330735,50.044376],[1.330655,50.04528],[1.330821,50.04543],[1.332972,50.045781],[1.334775,50.046225],[1.335165,50.04648],[1.336597,50.048178],[1.33734,50.048643],[1.355721,50.056052],[1.358489,50.056878],[1.358146,50.057133],[1.358414,50.057264],[1.359154,50.057292],[1.360592,50.057795],[1.362545,50.058411],[1.363253,50.058683],[1.364272,50.058876],[1.365817,50.059351],[1.366016,50.059334],[1.366751,50.059616],[1.367819,50.059673],[1.368415,50.059828],[1.369801,50.060094],[1.371352,50.0605],[1.371789,50.060759],[1.372731,50.060508]]],"type":"MultiLineString"},"properties":{"geo_point":{"lon":0.990039785116052,"lat":49.92337122104514},"name":"GR21 De Veulettes-sur-Mer à Le Tréport (Seine-Maritime) (2019)","code_gr":"GR21"}},{"type":"Feature","geometry":{"coordinates":[[[0.093974,49.50266],[0.092751,49.502284],[0.092665,49.502061],[0.093072,49.501963],[0.096034,49.502019],[0.097257,49.502298],[0.097879,49.502298],[0.098437,49.502144],[0.098523,49.499984],[0.098866,49.499956],[0.099381,49.500026],[0.101377,49.500082],[0.102943,49.500026],[0.106784,49.500472],[0.107964,49.500528],[0.110303,49.500946],[0.111805,49.501308],[0.114659,49.501754],[0.116011,49.501852],[0.116333,49.501782],[0.116719,49.50188],[0.116933,49.501726],[0.11762,49.501921],[0.118135,49.501907],[0.118264,49.502339],[0.122169,49.503231],[0.125452,49.503663],[0.125581,49.503803],[0.12631,49.503928],[0.125495,49.505168],[0.125688,49.505461],[0.127684,49.506659],[0.129272,49.506561],[0.132576,49.507523],[0.133713,49.507732],[0.134078,49.507899],[0.135194,49.508024],[0.135602,49.508345],[0.134979,49.508651],[0.135838,49.509251],[0.137168,49.509515],[0.138176,49.510783],[0.140129,49.510198],[0.141395,49.51024],[0.145558,49.514573],[0.145558,49.514573],[0.144764,49.515367],[0.145772,49.515785],[0.146094,49.516217],[0.145966,49.516648],[0.1453,49.516844],[0.144764,49.516648],[0.144142,49.516147],[0.141181,49.519839],[0.141181,49.519839],[0.135559,49.526719],[0.143305,49.529213],[0.143691,49.529199],[0.143584,49.529059],[0.143884,49.528502],[0.143391,49.528279],[0.143391,49.528001],[0.143906,49.527806],[0.143541,49.52743],[0.14412,49.527123],[0.144979,49.527667],[0.145858,49.526998],[0.145923,49.526775],[0.146202,49.526566],[0.149528,49.527472],[0.149399,49.528043],[0.149764,49.527583],[0.15,49.527555],[0.150558,49.527792],[0.150729,49.528112],[0.150944,49.528252],[0.151094,49.528154],[0.151351,49.527764],[0.152124,49.527653],[0.154291,49.527304],[0.154656,49.526914],[0.157553,49.526371],[0.158626,49.525647],[0.159377,49.525494],[0.159892,49.52555],[0.160385,49.525243],[0.161565,49.525104],[0.162853,49.525076],[0.164398,49.524463],[0.165685,49.524198],[0.166436,49.524143],[0.167595,49.524324],[0.168024,49.524728],[0.168968,49.524839],[0.169698,49.5247],[0.171178,49.525034],[0.17165,49.525215],[0.172251,49.525382],[0.173453,49.525355],[0.175019,49.525313],[0.176993,49.525452],[0.177315,49.525591],[0.178302,49.525271],[0.178474,49.525146],[0.178968,49.525341],[0.179053,49.52555],[0.17871,49.52587],[0.178882,49.526051],[0.180276,49.526107],[0.181585,49.525967],[0.181972,49.526288],[0.181778,49.527263],[0.181542,49.527639],[0.181693,49.527792],[0.181414,49.528224],[0.181221,49.528182],[0.180276,49.529338],[0.179933,49.530006],[0.179375,49.530731],[0.178817,49.531692],[0.178302,49.532068],[0.177702,49.532276],[0.177959,49.533586],[0.177873,49.534296],[0.178345,49.534282],[0.179161,49.533962],[0.178667,49.535034],[0.178152,49.535953],[0.177959,49.537011],[0.178667,49.537081],[0.180169,49.537499],[0.180985,49.538251],[0.181285,49.539629],[0.181285,49.539629],[0.181821,49.540047],[0.183087,49.541467],[0.184697,49.542191],[0.184825,49.542971],[0.185598,49.543402],[0.186027,49.54382],[0.187121,49.544516],[0.188666,49.545004],[0.19049,49.545505],[0.190018,49.546062],[0.189653,49.54634],[0.189181,49.547245],[0.189353,49.547579],[0.189031,49.548303],[0.189739,49.548651],[0.190297,49.549278],[0.190791,49.551143],[0.191091,49.551436],[0.190984,49.551895],[0.191606,49.552758],[0.191756,49.553176],[0.192829,49.555027],[0.193215,49.555598],[0.193366,49.556029],[0.193044,49.556656],[0.193409,49.556767],[0.193795,49.557936],[0.194589,49.558521],[0.196477,49.560567],[0.197807,49.56111],[0.198623,49.562028],[0.198644,49.562822],[0.199653,49.56381],[0.199438,49.565229],[0.200017,49.565508],[0.201584,49.566036],[0.201198,49.566454],[0.200919,49.567052],[0.200854,49.567484],[0.201219,49.567929],[0.20182,49.569168],[0.201691,49.569933],[0.200811,49.572285],[0.200017,49.573036],[0.200747,49.573356],[0.200876,49.573634],[0.202356,49.574094],[0.202678,49.574024],[0.204824,49.575221],[0.205511,49.576195],[0.205296,49.576348],[0.205253,49.577016],[0.204459,49.578045],[0.204137,49.57888],[0.203987,49.579645],[0.204202,49.58023],[0.20476,49.581231],[0.204974,49.582442],[0.205747,49.583221],[0.206841,49.583527],[0.207206,49.583847],[0.208128,49.584181],[0.208536,49.584723],[0.210618,49.58553],[0.210918,49.585558],[0.211047,49.585335],[0.211583,49.585474],[0.211755,49.586156],[0.212077,49.586712],[0.212978,49.586949],[0.213707,49.586156],[0.213922,49.586184],[0.213922,49.586365],[0.214587,49.586309],[0.216583,49.586699],[0.218106,49.586671],[0.219415,49.586838],[0.221175,49.587102],[0.221947,49.586462],[0.222269,49.586907],[0.22523,49.587811],[0.224286,49.589008],[0.225745,49.589383],[0.225252,49.590538],[0.225917,49.590886],[0.226239,49.590955],[0.225981,49.592332],[0.226089,49.592541],[0.226024,49.593292],[0.226174,49.594266],[0.226046,49.594419],[0.225917,49.59517],[0.225144,49.595809],[0.224994,49.596143],[0.225402,49.596338],[0.225702,49.59688],[0.225681,49.597103],[0.224587,49.597826],[0.224029,49.598591],[0.223449,49.599008],[0.223406,49.599481],[0.223836,49.600385],[0.224715,49.601025],[0.227226,49.602374],[0.227741,49.602888],[0.228213,49.602916],[0.229093,49.603305],[0.229415,49.603347],[0.230294,49.60382],[0.231067,49.604529],[0.231238,49.605016],[0.231474,49.604891],[0.231925,49.605322],[0.232097,49.605669],[0.232612,49.605781],[0.233427,49.606851],[0.233835,49.607074],[0.235036,49.607171],[0.235315,49.60699],[0.235659,49.607213],[0.236367,49.607338],[0.239285,49.607421],[0.241366,49.609062],[0.244006,49.610731],[0.249671,49.613706],[0.253812,49.614916],[0.261859,49.61803],[0.262588,49.619003],[0.263275,49.619337],[0.265292,49.620268],[0.265592,49.620741],[0.266815,49.621658],[0.267309,49.621894],[0.26703,49.622103],[0.264326,49.623159],[0.263103,49.62448],[0.262738,49.625856],[0.262116,49.627413],[0.261065,49.629108],[0.260571,49.629512],[0.258425,49.630165],[0.258339,49.631846],[0.259198,49.633028],[0.259005,49.633945],[0.25894,49.635432],[0.258618,49.636836],[0.258769,49.637336],[0.259305,49.637739],[0.259048,49.638017],[0.258597,49.638003],[0.257803,49.638142],[0.256558,49.638156],[0.251151,49.638892],[0.248254,49.639448],[0.247503,49.639434],[0.245143,49.638823],[0.243662,49.638336],[0.240487,49.637683],[0.237182,49.636738],[0.23641,49.636335],[0.234307,49.635627],[0.234521,49.635279],[0.233105,49.634779],[0.231668,49.634362],[0.231324,49.634015],[0.230723,49.633903],[0.230809,49.634098],[0.231045,49.634251],[0.230037,49.635627],[0.229693,49.635613],[0.227998,49.636961],[0.222806,49.638587],[0.224715,49.640504],[0.226174,49.640879],[0.227934,49.641463],[0.229951,49.642519],[0.229972,49.642964],[0.229608,49.644047],[0.229801,49.644839],[0.229822,49.645506],[0.229929,49.646437],[0.229844,49.647563],[0.229994,49.64848],[0.230573,49.64891],[0.23171,49.649383],[0.233105,49.650258],[0.233964,49.6503],[0.233577,49.650925],[0.232976,49.651244],[0.232204,49.651383],[0.229307,49.651703],[0.228771,49.652064],[0.228535,49.652467],[0.228642,49.6528],[0.229522,49.653245],[0.230981,49.655078],[0.231432,49.656579],[0.231453,49.657245],[0.230938,49.658107],[0.23023,49.658496],[0.229393,49.658801],[0.2292,49.659121],[0.229243,49.65944],[0.230359,49.66051],[0.230638,49.661343],[0.230444,49.661871],[0.228277,49.662996],[0.227312,49.66344],[0.22641,49.66419],[0.226003,49.664885],[0.225938,49.665635],[0.226174,49.666232],[0.22699,49.667329],[0.227033,49.667885],[0.226625,49.668412],[0.226003,49.668662],[0.224479,49.669037],[0.223921,49.669468],[0.223406,49.670579],[0.223406,49.671329],[0.223084,49.672329],[0.22272,49.672745],[0.22111,49.67319],[0.220724,49.673537],[0.220467,49.674231],[0.221261,49.67537],[0.222333,49.676036],[0.221625,49.676383],[0.220853,49.676508],[0.219651,49.67648],[0.217806,49.675953],[0.216626,49.676717],[0.215639,49.677786],[0.215252,49.678063],[0.213965,49.678508],[0.213171,49.678535],[0.211733,49.678466],[0.21066,49.678605],[0.209738,49.678938],[0.209867,49.678994],[0.21066,49.678827],[0.211369,49.678896],[0.211347,49.679119],[0.211068,49.679882],[0.211133,49.680493],[0.211304,49.681118],[0.211218,49.681326],[0.211218,49.681895],[0.210081,49.683936],[0.209716,49.684533],[0.207549,49.687102],[0.206905,49.688268],[0.20609,49.689378],[0.205682,49.689614],[0.204931,49.689253],[0.202185,49.687726],[0.20197,49.688212],[0.20152,49.690461],[0.200983,49.691335],[0.199395,49.693223],[0.196584,49.695361],[0.194675,49.695291],[0.1921,49.69482],[0.191027,49.694514],[0.190018,49.694139],[0.18637,49.696777],[0.185619,49.696915],[0.184418,49.697623],[0.183838,49.697748],[0.18268,49.697929],[0.182358,49.698151],[0.182744,49.698664],[0.183345,49.698734],[0.183795,49.698678],[0.184611,49.698747],[0.18577,49.6994],[0.18622,49.70008],[0.187014,49.700926],[0.187465,49.700982],[0.187357,49.701218],[0.187744,49.701579],[0.189289,49.70255],[0.189632,49.702966],[0.189739,49.703757],[0.190104,49.70391],[0.190941,49.703771],[0.191456,49.703841],[0.192143,49.704285],[0.192958,49.704299],[0.193022,49.70459],[0.193172,49.704743],[0.193258,49.704979],[0.193988,49.705548],[0.194696,49.7057],[0.195533,49.706033],[0.197013,49.706366],[0.197829,49.70638],[0.198709,49.706783],[0.19976,49.707074],[0.20109,49.707782],[0.202228,49.708489],[0.202228,49.708489],[0.202775,49.708892],[0.20359,49.709752],[0.203762,49.710057],[0.204062,49.709988],[0.204298,49.710182],[0.204363,49.71064],[0.20462,49.710751],[0.204792,49.710918],[0.205006,49.710945],[0.205028,49.71114],[0.205264,49.710599],[0.2058,49.710404],[0.207152,49.710168],[0.207903,49.709919],[0.208397,49.710071],[0.208912,49.710155],[0.209448,49.71039],[0.210113,49.710529],[0.211251,49.710446],[0.213375,49.711154],[0.215649,49.711778],[0.220477,49.713429],[0.222087,49.713873],[0.223632,49.714345],[0.224833,49.714636],[0.225842,49.715039],[0.225863,49.715635],[0.225434,49.717356],[0.226228,49.717245],[0.227365,49.717272],[0.228267,49.717397],[0.228588,49.717369],[0.231035,49.717994],[0.231614,49.717952],[0.23479,49.718327],[0.235283,49.718493],[0.238373,49.718895],[0.238652,49.719215],[0.239103,49.719381],[0.239489,49.719339],[0.24009,49.719659],[0.240626,49.719867],[0.241184,49.720227],[0.242858,49.720685],[0.243201,49.72099],[0.243587,49.721032],[0.244124,49.721365],[0.244746,49.721559],[0.24524,49.721642],[0.245797,49.721809],[0.246076,49.721934],[0.24745,49.7221],[0.248008,49.722475],[0.248694,49.722683],[0.249231,49.723002],[0.249853,49.722877],[0.250969,49.722919],[0.251505,49.723127],[0.251999,49.723154],[0.252127,49.722405],[0.252406,49.721961],[0.253544,49.721018],[0.253243,49.720463],[0.252256,49.718091],[0.252707,49.718132],[0.254681,49.718035],[0.255089,49.718202],[0.255582,49.718271],[0.260088,49.718382],[0.260281,49.719769],[0.260625,49.72013],[0.261462,49.720657],[0.26335,49.721712],[0.264187,49.722378],[0.265281,49.723501],[0.266461,49.724916],[0.267083,49.726067],[0.267641,49.726622],[0.268371,49.727233],[0.268736,49.727774],[0.267727,49.729299],[0.268242,49.729535],[0.269637,49.730437],[0.270345,49.730756],[0.271203,49.72984],[0.272319,49.729202],[0.274207,49.730215],[0.280494,49.730936],[0.282619,49.731574],[0.28455,49.731962],[0.28588,49.732281],[0.286996,49.732656],[0.288305,49.732919],[0.288627,49.733113],[0.290944,49.733113],[0.291567,49.733321],[0.291846,49.733086],[0.292296,49.732337],[0.292489,49.732406],[0.292833,49.733571],[0.293348,49.734681],[0.293906,49.735208],[0.294635,49.735221],[0.294528,49.73554],[0.294013,49.736414],[0.294227,49.736913],[0.294142,49.737219],[0.29927,49.738175],[0.300021,49.737787],[0.300579,49.737385],[0.305106,49.73837],[0.305879,49.738494],[0.308239,49.739118],[0.308733,49.739174],[0.308904,49.739368],[0.309398,49.739285],[0.310514,49.739576],[0.31105,49.739562],[0.312488,49.73873],[0.313282,49.738397],[0.313282,49.738647],[0.313947,49.738605],[0.313496,49.739215],[0.314805,49.738841],[0.315707,49.738855],[0.316608,49.739007],[0.318303,49.739063],[0.319741,49.739229],[0.321114,49.73959],[0.321522,49.739548],[0.322702,49.739451],[0.324354,49.73891],[0.325877,49.739756],[0.327101,49.740228],[0.327787,49.740408],[0.328796,49.740796],[0.331564,49.741476],[0.33268,49.741698],[0.33313,49.741531],[0.333388,49.741892],[0.333752,49.742072],[0.33504,49.742349],[0.336284,49.742544],[0.33725,49.742765],[0.341005,49.744471],[0.344353,49.745663],[0.345661,49.746163],[0.345919,49.746509],[0.347163,49.746773],[0.348151,49.747535],[0.348687,49.74827],[0.349116,49.7487],[0.349095,49.749421],[0.349352,49.749532],[0.35006,49.749754],[0.350961,49.750447],[0.353944,49.751972],[0.35742,49.753552],[0.359373,49.754703],[0.35903,49.754897],[0.358901,49.75516],[0.359072,49.755604],[0.358772,49.755729],[0.358407,49.755604],[0.357528,49.755063],[0.357356,49.755146],[0.357377,49.755313],[0.357635,49.755382],[0.357839,49.75541],[0.358032,49.755597],[0.357935,49.755722],[0.357635,49.75559],[0.35756,49.755632],[0.35756,49.755722],[0.357817,49.755819],[0.357946,49.756165],[0.358193,49.756359],[0.358997,49.756734],[0.359341,49.756803],[0.359362,49.757094],[0.35977,49.757524],[0.359405,49.757704],[0.359877,49.758078],[0.360285,49.758342],[0.363933,49.76196],[0.363933,49.76196],[0.366207,49.760962],[0.366765,49.760795],[0.367838,49.761599],[0.368417,49.761447],[0.369683,49.761391],[0.370112,49.761461],[0.371164,49.761211],[0.371164,49.761211],[0.371228,49.760865],[0.373503,49.760282],[0.374404,49.761932],[0.373717,49.762265],[0.371979,49.762736],[0.372129,49.763207],[0.372902,49.763651],[0.37331,49.764496],[0.373031,49.764607],[0.372709,49.764662],[0.372087,49.765231],[0.3717,49.766021],[0.372022,49.766561],[0.371765,49.766852],[0.371142,49.766838],[0.370327,49.767019],[0.370134,49.767379],[0.369619,49.767684],[0.369297,49.767698],[0.368632,49.767365],[0.368138,49.767531],[0.368632,49.767822],[0.369319,49.768113],[0.37022,49.76828],[0.372666,49.767975],[0.373009,49.767809],[0.373202,49.767822],[0.373503,49.768016],[0.37449,49.767933],[0.375455,49.768127],[0.376357,49.768238],[0.376915,49.768432],[0.377558,49.768238],[0.37906,49.768529],[0.379382,49.768709],[0.379811,49.768682],[0.381013,49.76889],[0.381721,49.769056],[0.382064,49.767989],[0.381764,49.767864],[0.381678,49.76767],[0.382279,49.766755],[0.386313,49.76724],[0.391699,49.768779],[0.394918,49.770026],[0.397299,49.76749],[0.397149,49.767032],[0.398501,49.766977],[0.400518,49.766797],[0.401419,49.766922],[0.403222,49.76749],[0.403608,49.767725],[0.40408,49.768307],[0.404981,49.768585],[0.405861,49.768987],[0.406462,49.769472],[0.407642,49.770262],[0.408929,49.770705],[0.412363,49.770844],[0.412534,49.769084],[0.415174,49.770095],[0.417427,49.77083],[0.420238,49.771606],[0.421332,49.77198],[0.421847,49.772243],[0.422169,49.772257],[0.422898,49.772811],[0.424315,49.773726],[0.426761,49.774599],[0.429293,49.775694],[0.43234,49.776872],[0.435709,49.777426],[0.437189,49.777578],[0.438283,49.77798],[0.439035,49.778271],[0.437575,49.778812],[0.436224,49.77913],[0.434421,49.779906],[0.433348,49.780266],[0.433005,49.780488],[0.432147,49.781264],[0.431782,49.781707],[0.430773,49.782068],[0.430451,49.782345],[0.430258,49.782802],[0.43028,49.783065],[0.430645,49.783633],[0.431245,49.785836],[0.431267,49.786612],[0.431632,49.786875],[0.432533,49.786709],[0.433906,49.786792],[0.434593,49.787083],[0.435301,49.787748],[0.438112,49.787679],[0.439185,49.787886],[0.440451,49.787526],[0.448412,49.789563],[0.448347,49.789812],[0.451051,49.790297],[0.452789,49.790588],[0.454269,49.790865],[0.455943,49.791364],[0.457209,49.791848],[0.45796,49.791003],[0.458969,49.791336],[0.460535,49.791987],[0.463711,49.793538],[0.468281,49.795658],[0.469354,49.796281],[0.475234,49.800436],[0.479525,49.803095],[0.482336,49.803995],[0.483237,49.804342],[0.483752,49.804286],[0.483945,49.804466],[0.483624,49.80484],[0.484525,49.805436],[0.484932,49.80556],[0.485512,49.806183],[0.487143,49.80599],[0.487314,49.806086],[0.487915,49.806031],[0.48828,49.806197],[0.488838,49.806834],[0.489524,49.807084],[0.489954,49.807097],[0.490404,49.807208],[0.490147,49.80779],[0.49019,49.808081],[0.490447,49.808261],[0.491348,49.808247],[0.492357,49.807914],[0.491391,49.808884],[0.491155,49.809258],[0.490941,49.810088],[0.49122,49.810573],[0.49255,49.810684],[0.493344,49.810324],[0.493408,49.810919],[0.493215,49.811667],[0.498322,49.813606],[0.503665,49.813495],[0.503965,49.81373],[0.507656,49.813675],[0.508021,49.81661],[0.508965,49.817385],[0.511755,49.818022],[0.512205,49.81805],[0.512141,49.818188],[0.512677,49.818285],[0.513621,49.818687],[0.5139,49.818493],[0.514008,49.818798],[0.513943,49.819379],[0.514201,49.819739],[0.514544,49.819864],[0.514909,49.820237],[0.515531,49.820556],[0.516132,49.821193],[0.517741,49.82194],[0.521411,49.823366],[0.521968,49.823767],[0.522591,49.824031],[0.523578,49.823657],[0.524715,49.822798],[0.524865,49.821885],[0.524694,49.820971],[0.524479,49.820265],[0.524221,49.819753],[0.523835,49.819351],[0.524136,49.818161],[0.524393,49.817496],[0.524543,49.816928],[0.525659,49.815669],[0.526303,49.81517],[0.52656,49.814672],[0.527333,49.813938],[0.528084,49.813564],[0.52935,49.813162],[0.5295,49.812761],[0.528985,49.811861],[0.527998,49.810836],[0.527547,49.810005],[0.527419,49.809382],[0.527333,49.808718],[0.528298,49.808219],[0.529371,49.807499],[0.53083,49.806294],[0.531581,49.80556],[0.531474,49.805339],[0.530659,49.805034],[0.529307,49.804854],[0.529028,49.804674],[0.529543,49.804009],[0.529758,49.804051],[0.530466,49.803552],[0.530981,49.804162],[0.53171,49.803372],[0.533362,49.8034],[0.534757,49.803081],[0.536152,49.803428],[0.537032,49.803483],[0.538298,49.803871],[0.540443,49.80592],[0.541001,49.806973],[0.540873,49.807942],[0.541495,49.809244],[0.541388,49.809895],[0.541581,49.810462],[0.544091,49.810116],[0.546044,49.809438],[0.54731,49.808718],[0.547846,49.808648],[0.551129,49.809382],[0.552352,49.809839],[0.552546,49.809175],[0.552674,49.808579],[0.553125,49.808662],[0.555228,49.808607],[0.555678,49.808178],[0.559798,49.808261],[0.559927,49.807097],[0.566278,49.808039],[0.567115,49.807527],[0.568059,49.807333],[0.568768,49.807374],[0.569905,49.807817],[0.57072,49.808094],[0.572716,49.808358],[0.57336,49.808399],[0.573123,49.809922],[0.573274,49.810199],[0.574175,49.810892],[0.57469,49.811016],[0.576964,49.811985],[0.578145,49.812276],[0.579711,49.812927],[0.580741,49.813329],[0.581878,49.81391],[0.582629,49.813426],[0.583187,49.812872],[0.585226,49.814021],[0.586599,49.814575],[0.586921,49.814339],[0.588251,49.814644],[0.589088,49.814672],[0.589324,49.81517],[0.589303,49.815752],[0.589088,49.816181],[0.58765,49.818285],[0.589582,49.818451],[0.591878,49.819351],[0.59235,49.818548],[0.592629,49.817745],[0.592865,49.817898],[0.594023,49.818853],[0.594624,49.819601],[0.594431,49.820251],[0.59441,49.820639],[0.594989,49.823186],[0.596062,49.825304],[0.597178,49.825775],[0.5981,49.825858],[0.598722,49.826204],[0.599216,49.826951],[0.599001,49.827837],[0.599216,49.8281],[0.598959,49.828225],[0.599345,49.828917],[0.600482,49.830038],[0.600654,49.830467],[0.600461,49.831228],[0.600031,49.831782],[0.599838,49.832931],[0.599946,49.833567],[0.599688,49.834467],[0.599237,49.834965],[0.598615,49.835173],[0.596942,49.834882],[0.595633,49.835201],[0.594796,49.835644],[0.594388,49.836211],[0.594152,49.837456],[0.594152,49.838481],[0.59456,49.839006],[0.595182,49.839435],[0.595611,49.839851],[0.596255,49.840335],[0.596834,49.840805],[0.597285,49.840958],[0.597671,49.841359],[0.597392,49.841913],[0.597092,49.842286],[0.595869,49.843393],[0.596083,49.843532],[0.59604,49.843836],[0.595826,49.844057],[0.596126,49.84421],[0.595847,49.84486],[0.596405,49.845192],[0.596684,49.845289],[0.597671,49.84623],[0.598186,49.84652],[0.598765,49.846935],[0.599667,49.847959],[0.600246,49.848471],[0.600418,49.849246],[0.600654,49.849993],[0.60016,49.850768],[0.600053,49.851266],[0.60001,49.851792],[0.60031,49.852069],[0.600246,49.852387],[0.599838,49.852428],[0.598336,49.852138],[0.59795,49.851875],[0.5978,49.852069],[0.597843,49.852331],[0.598229,49.852525],[0.598208,49.852774]]],"type":"MultiLineString"},"properties":{"geo_point":{"lon":0.31799788626938535,"lat":49.693300304037635},"name":"GR21 Du Havre à Veulettes-sur-Mer (Seine-Maritime) (2019)","code_gr":"GR21"}},{"type":"Feature","geometry":{"coordinates":[[[0.093974,49.50266],[0.092751,49.502284],[0.092665,49.502061],[0.093072,49.501963],[0.096034,49.502019],[0.097257,49.502298],[0.097879,49.502298],[0.098437,49.502144],[0.098523,49.499984],[0.098866,49.499956],[0.099381,49.500026],[0.101377,49.500082],[0.102943,49.500026],[0.106784,49.500472],[0.107964,49.500528],[0.110303,49.500946],[0.111805,49.501308],[0.114659,49.501754],[0.116011,49.501852],[0.116333,49.501782],[0.116719,49.50188],[0.116933,49.501726],[0.11762,49.501921],[0.118135,49.501907],[0.118264,49.502339],[0.122169,49.503231],[0.125452,49.503663],[0.125581,49.503803],[0.12631,49.503928],[0.125495,49.505168],[0.125688,49.505461],[0.127684,49.506659],[0.129272,49.506561],[0.132576,49.507523],[0.133713,49.507732],[0.134078,49.507899],[0.135194,49.508024],[0.135602,49.508345],[0.134979,49.508651],[0.135838,49.509251],[0.137168,49.509515],[0.138176,49.510783],[0.140129,49.510198],[0.141395,49.51024],[0.145558,49.514573],[0.145558,49.514573],[0.144764,49.515367],[0.145772,49.515785],[0.146094,49.516217],[0.145966,49.516648],[0.1453,49.516844],[0.144764,49.516648],[0.144142,49.516147],[0.141181,49.519839],[0.141181,49.519839],[0.135559,49.526719],[0.143305,49.529213],[0.143691,49.529199],[0.143584,49.529059],[0.143884,49.528502],[0.143391,49.528279],[0.143391,49.528001],[0.143906,49.527806],[0.143541,49.52743],[0.14412,49.527123],[0.144979,49.527667],[0.145858,49.526998],[0.145923,49.526775],[0.146202,49.526566],[0.149528,49.527472],[0.149399,49.528043],[0.149764,49.527583],[0.15,49.527555],[0.150558,49.527792],[0.150729,49.528112],[0.150944,49.528252],[0.151094,49.528154],[0.151351,49.527764],[0.152124,49.527653],[0.154291,49.527304],[0.154656,49.526914],[0.157553,49.526371],[0.158626,49.525647],[0.159377,49.525494],[0.159892,49.52555],[0.160385,49.525243],[0.161565,49.525104],[0.162853,49.525076],[0.164398,49.524463],[0.165685,49.524198],[0.166436,49.524143],[0.167595,49.524324],[0.168024,49.524728],[0.168968,49.524839],[0.169698,49.5247],[0.171178,49.525034],[0.17165,49.525215],[0.172251,49.525382],[0.173453,49.525355],[0.175019,49.525313],[0.176993,49.525452],[0.177315,49.525591],[0.178302,49.525271],[0.178474,49.525146],[0.178968,49.525341],[0.179053,49.52555],[0.17871,49.52587],[0.178882,49.526051],[0.180276,49.526107],[0.181585,49.525967],[0.181972,49.526288],[0.181778,49.527263],[0.181542,49.527639],[0.181693,49.527792],[0.181414,49.528224],[0.181221,49.528182],[0.180276,49.529338],[0.179933,49.530006],[0.179375,49.530731],[0.178817,49.531692],[0.178302,49.532068],[0.177702,49.532276],[0.177959,49.533586],[0.177873,49.534296],[0.178345,49.534282],[0.179161,49.533962],[0.178667,49.535034],[0.178152,49.535953],[0.177959,49.537011],[0.178667,49.537081],[0.180169,49.537499],[0.180985,49.538251],[0.181285,49.539629],[0.181285,49.539629],[0.181821,49.540047],[0.183087,49.541467],[0.184697,49.542191],[0.184825,49.542971],[0.185598,49.543402],[0.186027,49.54382],[0.187121,49.544516],[0.188666,49.545004],[0.19049,49.545505],[0.190018,49.546062],[0.189653,49.54634],[0.189181,49.547245],[0.189353,49.547579],[0.189031,49.548303],[0.189739,49.548651],[0.190297,49.549278],[0.190791,49.551143],[0.191091,49.551436],[0.190984,49.551895],[0.191606,49.552758],[0.191756,49.553176],[0.192829,49.555027],[0.193215,49.555598],[0.193366,49.556029],[0.193044,49.556656],[0.193409,49.556767],[0.193795,49.557936],[0.194589,49.558521],[0.196477,49.560567],[0.197807,49.56111],[0.198623,49.562028],[0.198644,49.562822],[0.199653,49.56381],[0.199438,49.565229],[0.200017,49.565508],[0.201584,49.566036],[0.201198,49.566454],[0.200919,49.567052],[0.200854,49.567484],[0.201219,49.567929],[0.20182,49.569168],[0.201691,49.569933],[0.200811,49.572285],[0.200017,49.573036],[0.200747,49.573356],[0.200876,49.573634],[0.202356,49.574094],[0.202678,49.574024],[0.204824,49.575221],[0.205511,49.576195],[0.205296,49.576348],[0.205253,49.577016],[0.204459,49.578045],[0.204137,49.57888],[0.203987,49.579645],[0.204202,49.58023],[0.20476,49.581231],[0.204974,49.582442],[0.205747,49.583221],[0.206841,49.583527],[0.207206,49.583847],[0.208128,49.584181],[0.208536,49.584723],[0.210618,49.58553],[0.210918,49.585558],[0.211047,49.585335],[0.211583,49.585474],[0.211755,49.586156],[0.212077,49.586712],[0.212978,49.586949],[0.213707,49.586156],[0.213922,49.586184],[0.213922,49.586365],[0.214587,49.586309],[0.216583,49.586699],[0.218106,49.586671],[0.219415,49.586838],[0.221175,49.587102],[0.221947,49.586462],[0.222269,49.586907],[0.22523,49.587811],[0.224286,49.589008],[0.225745,49.589383],[0.225252,49.590538],[0.225917,49.590886],[0.226239,49.590955],[0.225981,49.592332],[0.226089,49.592541],[0.226024,49.593292],[0.226174,49.594266],[0.226046,49.594419],[0.225917,49.59517],[0.225144,49.595809],[0.224994,49.596143],[0.225402,49.596338],[0.225702,49.59688],[0.225681,49.597103],[0.224587,49.597826],[0.224029,49.598591],[0.223449,49.599008],[0.223406,49.599481],[0.223836,49.600385],[0.224715,49.601025],[0.227226,49.602374],[0.227741,49.602888],[0.228213,49.602916],[0.229093,49.603305],[0.229415,49.603347],[0.230294,49.60382],[0.231067,49.604529],[0.231238,49.605016],[0.231474,49.604891],[0.231925,49.605322],[0.232097,49.605669],[0.232612,49.605781],[0.233427,49.606851],[0.233835,49.607074],[0.235036,49.607171],[0.235315,49.60699],[0.235659,49.607213],[0.236367,49.607338],[0.239285,49.607421],[0.241366,49.609062],[0.244006,49.610731],[0.249671,49.613706],[0.253812,49.614916],[0.261859,49.61803],[0.262588,49.619003],[0.263275,49.619337],[0.265292,49.620268],[0.265592,49.620741],[0.266815,49.621658],[0.267309,49.621894],[0.26703,49.622103],[0.264326,49.623159],[0.263103,49.62448],[0.262738,49.625856],[0.262116,49.627413],[0.261065,49.629108],[0.260571,49.629512],[0.258425,49.630165],[0.258339,49.631846],[0.259198,49.633028],[0.259005,49.633945],[0.25894,49.635432],[0.258618,49.636836],[0.258769,49.637336],[0.259305,49.637739],[0.259048,49.638017],[0.258597,49.638003],[0.257803,49.638142],[0.256558,49.638156],[0.251151,49.638892],[0.248254,49.639448],[0.247503,49.639434],[0.245143,49.638823],[0.243662,49.638336],[0.240487,49.637683],[0.237182,49.636738],[0.23641,49.636335],[0.234307,49.635627],[0.234521,49.635279],[0.233105,49.634779],[0.231668,49.634362],[0.231324,49.634015],[0.230723,49.633903],[0.230809,49.634098],[0.231045,49.634251],[0.230037,49.635627],[0.229693,49.635613],[0.227998,49.636961],[0.222806,49.638587],[0.224715,49.640504],[0.226174,49.640879],[0.227934,49.641463],[0.229951,49.642519],[0.229972,49.642964],[0.229608,49.644047],[0.229801,49.644839],[0.229822,49.645506],[0.229929,49.646437],[0.229844,49.647563],[0.229994,49.64848],[0.230573,49.64891],[0.23171,49.649383],[0.233105,49.650258],[0.233964,49.6503],[0.233577,49.650925],[0.232976,49.651244],[0.232204,49.651383],[0.229307,49.651703],[0.228771,49.652064],[0.228535,49.652467],[0.228642,49.6528],[0.229522,49.653245],[0.230981,49.655078],[0.231432,49.656579],[0.231453,49.657245],[0.230938,49.658107],[0.23023,49.658496],[0.229393,49.658801],[0.2292,49.659121],[0.229243,49.65944],[0.230359,49.66051],[0.230638,49.661343],[0.230444,49.661871],[0.228277,49.662996],[0.227312,49.66344],[0.22641,49.66419],[0.226003,49.664885],[0.225938,49.665635],[0.226174,49.666232],[0.22699,49.667329],[0.227033,49.667885],[0.226625,49.668412],[0.226003,49.668662],[0.224479,49.669037],[0.223921,49.669468],[0.223406,49.670579],[0.223406,49.671329],[0.223084,49.672329],[0.22272,49.672745],[0.22111,49.67319],[0.220724,49.673537],[0.220467,49.674231],[0.221261,49.67537],[0.222333,49.676036],[0.221625,49.676383],[0.220853,49.676508],[0.219651,49.67648],[0.217806,49.675953],[0.216626,49.676717],[0.215639,49.677786],[0.215252,49.678063],[0.213965,49.678508],[0.213171,49.678535],[0.211733,49.678466],[0.21066,49.678605],[0.209738,49.678938],[0.209867,49.678994],[0.21066,49.678827],[0.211369,49.678896],[0.211347,49.679119],[0.211068,49.679882],[0.211133,49.680493],[0.211304,49.681118],[0.211218,49.681326],[0.211218,49.681895],[0.210081,49.683936],[0.209716,49.684533],[0.207549,49.687102],[0.206905,49.688268],[0.20609,49.689378],[0.205682,49.689614],[0.204931,49.689253],[0.202185,49.687726],[0.20197,49.688212],[0.20152,49.690461],[0.200983,49.691335],[0.199395,49.693223],[0.196584,49.695361],[0.194675,49.695291],[0.1921,49.69482],[0.191027,49.694514],[0.190018,49.694139],[0.18637,49.696777],[0.185619,49.696915],[0.184418,49.697623],[0.183838,49.697748],[0.18268,49.697929],[0.182358,49.698151],[0.182744,49.698664],[0.183345,49.698734],[0.183795,49.698678],[0.184611,49.698747],[0.18577,49.6994],[0.18622,49.70008],[0.187014,49.700926],[0.187465,49.700982],[0.187357,49.701218],[0.187744,49.701579],[0.189289,49.70255],[0.189632,49.702966],[0.189739,49.703757],[0.190104,49.70391],[0.190941,49.703771],[0.191456,49.703841],[0.192143,49.704285],[0.192958,49.704299],[0.193022,49.70459],[0.193172,49.704743],[0.193258,49.704979],[0.193988,49.705548],[0.194696,49.7057],[0.195533,49.706033],[0.197013,49.706366],[0.197829,49.70638],[0.198709,49.706783],[0.19976,49.707074],[0.20109,49.707782],[0.202228,49.708489],[0.202228,49.708489],[0.202775,49.708892],[0.20359,49.709752],[0.203762,49.710057],[0.204062,49.709988],[0.204298,49.710182],[0.204363,49.71064],[0.20462,49.710751],[0.204792,49.710918],[0.205006,49.710945],[0.205028,49.71114],[0.205264,49.710599],[0.2058,49.710404],[0.207152,49.710168],[0.207903,49.709919],[0.208397,49.710071],[0.208912,49.710155],[0.209448,49.71039],[0.210113,49.710529],[0.211251,49.710446],[0.213375,49.711154],[0.215649,49.711778],[0.220477,49.713429],[0.222087,49.713873],[0.223632,49.714345],[0.224833,49.714636],[0.225842,49.715039],[0.225863,49.715635],[0.225434,49.717356],[0.226228,49.717245],[0.227365,49.717272],[0.228267,49.717397],[0.228588,49.717369],[0.231035,49.717994],[0.231614,49.717952],[0.23479,49.718327],[0.235283,49.718493],[0.238373,49.718895],[0.238652,49.719215],[0.239103,49.719381],[0.239489,49.719339],[0.24009,49.719659],[0.240626,49.719867],[0.241184,49.720227],[0.242858,49.720685],[0.243201,49.72099],[0.243587,49.721032],[0.244124,49.721365],[0.244746,49.721559],[0.24524,49.721642],[0.245797,49.721809],[0.246076,49.721934],[0.24745,49.7221],[0.248008,49.722475],[0.248694,49.722683],[0.249231,49.723002],[0.249853,49.722877],[0.250969,49.722919],[0.251505,49.723127],[0.251999,49.723154],[0.252127,49.722405],[0.252406,49.721961],[0.253544,49.721018],[0.253243,49.720463],[0.252256,49.718091],[0.252707,49.718132],[0.254681,49.718035],[0.255089,49.718202],[0.255582,49.718271],[0.260088,49.718382],[0.260281,49.719769],[0.260625,49.72013],[0.261462,49.720657],[0.26335,49.721712],[0.264187,49.722378],[0.265281,49.723501],[0.266461,49.724916],[0.267083,49.726067],[0.267641,49.726622],[0.268371,49.727233],[0.268736,49.727774],[0.267727,49.729299],[0.268242,49.729535],[0.269637,49.730437],[0.270345,49.730756],[0.271203,49.72984],[0.272319,49.729202],[0.274207,49.730215],[0.280494,49.730936],[0.282619,49.731574],[0.28455,49.731962],[0.28588,49.732281],[0.286996,49.732656],[0.288305,49.732919],[0.288627,49.733113],[0.290944,49.733113],[0.291567,49.733321],[0.291846,49.733086],[0.292296,49.732337],[0.292489,49.732406],[0.292833,49.733571],[0.293348,49.734681],[0.293906,49.735208],[0.294635,49.735221],[0.294528,49.73554],[0.294013,49.736414],[0.294227,49.736913],[0.294142,49.737219],[0.29927,49.738175],[0.300021,49.737787],[0.300579,49.737385],[0.305106,49.73837],[0.305879,49.738494],[0.308239,49.739118],[0.308733,49.739174],[0.308904,49.739368],[0.309398,49.739285],[0.310514,49.739576],[0.31105,49.739562],[0.312488,49.73873],[0.313282,49.738397],[0.313282,49.738647],[0.313947,49.738605],[0.313496,49.739215],[0.314805,49.738841],[0.315707,49.738855],[0.316608,49.739007],[0.318303,49.739063],[0.319741,49.739229],[0.321114,49.73959],[0.321522,49.739548],[0.322702,49.739451],[0.324354,49.73891],[0.325877,49.739756],[0.327101,49.740228],[0.327787,49.740408],[0.328796,49.740796],[0.331564,49.741476],[0.33268,49.741698],[0.33313,49.741531],[0.333388,49.741892],[0.333752,49.742072],[0.33504,49.742349],[0.336284,49.742544],[0.33725,49.742765],[0.341005,49.744471],[0.344353,49.745663],[0.345661,49.746163],[0.345919,49.746509],[0.347163,49.746773],[0.348151,49.747535],[0.348687,49.74827],[0.349116,49.7487],[0.349095,49.749421],[0.349352,49.749532],[0.35006,49.749754],[0.350961,49.750447],[0.353944,49.751972],[0.35742,49.753552],[0.359373,49.754703],[0.35903,49.754897],[0.358901,49.75516],[0.359072,49.755604],[0.358772,49.755729],[0.358407,49.755604],[0.357528,49.755063],[0.357356,49.755146],[0.357377,49.755313],[0.357635,49.755382],[0.357839,49.75541],[0.358032,49.755597],[0.357935,49.755722],[0.357635,49.75559],[0.35756,49.755632],[0.35756,49.755722],[0.357817,49.755819],[0.357946,49.756165],[0.358193,49.756359],[0.358997,49.756734],[0.359341,49.756803],[0.359362,49.757094],[0.35977,49.757524],[0.359405,49.757704],[0.359877,49.758078],[0.360285,49.758342],[0.363933,49.76196],[0.363933,49.76196],[0.366207,49.760962],[0.366765,49.760795],[0.367838,49.761599],[0.368417,49.761447],[0.369683,49.761391],[0.370112,49.761461],[0.371164,49.761211],[0.371164,49.761211],[0.371228,49.760865],[0.373503,49.760282],[0.374404,49.761932],[0.373717,49.762265],[0.371979,49.762736],[0.372129,49.763207],[0.372902,49.763651],[0.37331,49.764496],[0.373031,49.764607],[0.372709,49.764662],[0.372087,49.765231],[0.3717,49.766021],[0.372022,49.766561],[0.371765,49.766852],[0.371142,49.766838],[0.370327,49.767019],[0.370134,49.767379],[0.369619,49.767684],[0.369297,49.767698],[0.368632,49.767365],[0.368138,49.767531],[0.368632,49.767822],[0.369319,49.768113],[0.37022,49.76828],[0.372666,49.767975],[0.373009,49.767809],[0.373202,49.767822],[0.373503,49.768016],[0.37449,49.767933],[0.375455,49.768127],[0.376357,49.768238],[0.376915,49.768432],[0.377558,49.768238],[0.37906,49.768529],[0.379382,49.768709],[0.379811,49.768682],[0.381013,49.76889],[0.381721,49.769056],[0.382064,49.767989],[0.381764,49.767864],[0.381678,49.76767],[0.382279,49.766755],[0.386313,49.76724],[0.391699,49.768779],[0.394918,49.770026],[0.397299,49.76749],[0.397149,49.767032],[0.398501,49.766977],[0.400518,49.766797],[0.401419,49.766922],[0.403222,49.76749],[0.403608,49.767725],[0.40408,49.768307],[0.404981,49.768585],[0.405861,49.768987],[0.406462,49.769472],[0.407642,49.770262],[0.408929,49.770705],[0.412363,49.770844],[0.412534,49.769084],[0.415174,49.770095],[0.417427,49.77083],[0.420238,49.771606],[0.421332,49.77198],[0.421847,49.772243],[0.422169,49.772257],[0.422898,49.772811],[0.424315,49.773726],[0.426761,49.774599],[0.429293,49.775694],[0.43234,49.776872],[0.435709,49.777426],[0.437189,49.777578],[0.438283,49.77798],[0.439035,49.778271],[0.437575,49.778812],[0.436224,49.77913],[0.434421,49.779906],[0.433348,49.780266],[0.433005,49.780488],[0.432147,49.781264],[0.431782,49.781707],[0.430773,49.782068],[0.430451,49.782345],[0.430258,49.782802],[0.43028,49.783065],[0.430645,49.783633],[0.431245,49.785836],[0.431267,49.786612],[0.431632,49.786875],[0.432533,49.786709],[0.433906,49.786792],[0.434593,49.787083],[0.435301,49.787748],[0.438112,49.787679],[0.439185,49.787886],[0.440451,49.787526],[0.448412,49.789563],[0.448347,49.789812],[0.451051,49.790297],[0.452789,49.790588],[0.454269,49.790865],[0.455943,49.791364],[0.457209,49.791848],[0.45796,49.791003],[0.458969,49.791336],[0.460535,49.791987],[0.463711,49.793538],[0.468281,49.795658],[0.469354,49.796281],[0.475234,49.800436],[0.479525,49.803095],[0.482336,49.803995],[0.483237,49.804342],[0.483752,49.804286],[0.483945,49.804466],[0.483624,49.80484],[0.484525,49.805436],[0.484932,49.80556],[0.485512,49.806183],[0.487143,49.80599],[0.487314,49.806086],[0.487915,49.806031],[0.48828,49.806197],[0.488838,49.806834],[0.489524,49.807084],[0.489954,49.807097],[0.490404,49.807208],[0.490147,49.80779],[0.49019,49.808081],[0.490447,49.808261],[0.491348,49.808247],[0.492357,49.807914],[0.491391,49.808884],[0.491155,49.809258],[0.490941,49.810088],[0.49122,49.810573],[0.49255,49.810684],[0.493344,49.810324],[0.493408,49.810919],[0.493215,49.811667],[0.498322,49.813606],[0.503665,49.813495],[0.503965,49.81373],[0.507656,49.813675],[0.508021,49.81661],[0.508965,49.817385],[0.511755,49.818022],[0.512205,49.81805],[0.512141,49.818188],[0.512677,49.818285],[0.513621,49.818687],[0.5139,49.818493],[0.514008,49.818798],[0.513943,49.819379],[0.514201,49.819739],[0.514544,49.819864],[0.514909,49.820237],[0.515531,49.820556],[0.516132,49.821193],[0.517741,49.82194],[0.521411,49.823366],[0.521968,49.823767],[0.522591,49.824031],[0.523578,49.823657],[0.524715,49.822798],[0.524865,49.821885],[0.524694,49.820971],[0.524479,49.820265],[0.524221,49.819753],[0.523835,49.819351],[0.524136,49.818161],[0.524393,49.817496],[0.524543,49.816928],[0.525659,49.815669],[0.526303,49.81517],[0.52656,49.814672],[0.527333,49.813938],[0.528084,49.813564],[0.52935,49.813162],[0.5295,49.812761],[0.528985,49.811861],[0.527998,49.810836],[0.527547,49.810005],[0.527419,49.809382],[0.527333,49.808718],[0.528298,49.808219],[0.529371,49.807499],[0.53083,49.806294],[0.531581,49.80556],[0.531474,49.805339],[0.530659,49.805034],[0.529307,49.804854],[0.529028,49.804674],[0.529543,49.804009],[0.529758,49.804051],[0.530466,49.803552],[0.530981,49.804162],[0.53171,49.803372],[0.533362,49.8034],[0.534757,49.803081],[0.536152,49.803428],[0.537032,49.803483],[0.538298,49.803871],[0.540443,49.80592],[0.541001,49.806973],[0.540873,49.807942],[0.541495,49.809244],[0.541388,49.809895],[0.541581,49.810462],[0.544091,49.810116],[0.546044,49.809438],[0.54731,49.808718],[0.547846,49.808648],[0.551129,49.809382],[0.552352,49.809839],[0.552546,49.809175],[0.552674,49.808579],[0.553125,49.808662],[0.555228,49.808607],[0.555678,49.808178],[0.559798,49.808261],[0.559927,49.807097],[0.566278,49.808039],[0.567115,49.807527],[0.568059,49.807333],[0.568768,49.807374],[0.569905,49.807817],[0.57072,49.808094],[0.572716,49.808358],[0.57336,49.808399],[0.573123,49.809922],[0.573274,49.810199],[0.574175,49.810892],[0.57469,49.811016],[0.576964,49.811985],[0.578145,49.812276],[0.579711,49.812927],[0.580741,49.813329],[0.581878,49.81391],[0.582629,49.813426],[0.583187,49.812872],[0.585226,49.814021],[0.586599,49.814575],[0.586921,49.814339],[0.588251,49.814644],[0.589088,49.814672],[0.589324,49.81517],[0.589303,49.815752],[0.589088,49.816181],[0.58765,49.818285],[0.589582,49.818451],[0.591878,49.819351],[0.59235,49.818548],[0.592629,49.817745],[0.592865,49.817898],[0.594023,49.818853],[0.594624,49.819601],[0.594431,49.820251],[0.59441,49.820639],[0.594989,49.823186],[0.596062,49.825304],[0.597178,49.825775],[0.5981,49.825858],[0.598722,49.826204],[0.599216,49.826951],[0.599001,49.827837],[0.599216,49.8281],[0.598959,49.828225],[0.599345,49.828917],[0.600482,49.830038],[0.600654,49.830467],[0.600461,49.831228],[0.600031,49.831782],[0.599838,49.832931],[0.599946,49.833567],[0.599688,49.834467],[0.599237,49.834965],[0.598615,49.835173],[0.596942,49.834882],[0.595633,49.835201],[0.594796,49.835644],[0.594388,49.836211],[0.594152,49.837456],[0.594152,49.838481],[0.59456,49.839006],[0.595182,49.839435],[0.595611,49.839851],[0.596255,49.840335],[0.596834,49.840805],[0.597285,49.840958],[0.597671,49.841359],[0.597392,49.841913],[0.597092,49.842286],[0.595869,49.843393],[0.596083,49.843532],[0.59604,49.843836],[0.595826,49.844057],[0.596126,49.84421],[0.595847,49.84486],[0.596405,49.845192],[0.596684,49.845289],[0.597671,49.84623],[0.598186,49.84652],[0.598765,49.846935],[0.599667,49.847959],[0.600246,49.848471],[0.600418,49.849246],[0.600654,49.849993],[0.60016,49.850768],[0.600053,49.851266],[0.60001,49.851792],[0.60031,49.852069],[0.600246,49.852387],[0.599838,49.852428],[0.598336,49.852138],[0.59795,49.851875],[0.5978,49.852069],[0.597843,49.852331],[0.598229,49.852525],[0.598197,49.852759],[0.598197,49.852759],[0.599613,49.852897],[0.601298,49.85316],[0.602961,49.853596],[0.608207,49.855404],[0.609049,49.855479],[0.609559,49.855236],[0.610557,49.854298],[0.612381,49.854754],[0.614322,49.855195],[0.61517,49.855208],[0.615557,49.85467],[0.616361,49.854034],[0.61759,49.853357],[0.618389,49.852776],[0.619376,49.851839],[0.620663,49.85099],[0.621548,49.849952],[0.622216,49.848955],[0.622862,49.848263],[0.623608,49.847564],[0.624228,49.846696],[0.624965,49.845807],[0.6257,49.845985],[0.628377,49.84693],[0.627814,49.847576],[0.62724,49.848429],[0.629246,49.848678],[0.630759,49.848791],[0.631913,49.848791],[0.634761,49.848472],[0.636177,49.848498],[0.640126,49.848002],[0.64403,49.848001],[0.646691,49.848389],[0.645576,49.8507],[0.646563,49.851391],[0.648569,49.853944],[0.649583,49.85457],[0.652989,49.855769],[0.650859,49.857966],[0.648816,49.860203],[0.65167,49.861046],[0.652518,49.861241],[0.653843,49.861621],[0.655704,49.86203],[0.655897,49.862225],[0.657517,49.862527],[0.658129,49.862556],[0.659866,49.862846],[0.663407,49.862915],[0.666647,49.863037],[0.667913,49.863176],[0.672923,49.864022],[0.677349,49.865052],[0.679758,49.865543],[0.681141,49.865798],[0.682198,49.865891],[0.685262,49.866274],[0.688067,49.866481],[0.689553,49.866792],[0.690915,49.867083],[0.693297,49.868176],[0.695164,49.868961],[0.695808,49.86911],[0.698426,49.869593],[0.701988,49.869801],[0.70438,49.870087],[0.704348,49.870716],[0.704477,49.871315],[0.704745,49.871456],[0.706322,49.871681],[0.707545,49.871662],[0.70791,49.871796],[0.708683,49.871716],[0.709144,49.87151],[0.709487,49.871567],[0.710056,49.871143],[0.711021,49.87064],[0.711354,49.870564],[0.711654,49.870319],[0.711687,49.869911],[0.711526,49.869678],[0.71085,49.869354],[0.710721,49.868622],[0.711515,49.868496],[0.711783,49.868881],[0.712395,49.8694],[0.712599,49.870369],[0.712792,49.87044],[0.716354,49.869665],[0.716252,49.869366],[0.715389,49.869446],[0.715359,49.869391],[0.715774,49.869268],[0.715951,49.869255],[0.7163,49.869205],[0.716316,49.869125],[0.716472,49.869076],[0.716949,49.869049],[0.716997,49.869087],[0.717244,49.86895],[0.71725,49.868748],[0.715946,49.867306],[0.716053,49.86705],[0.716359,49.866962],[0.717502,49.866554],[0.719186,49.86618],[0.719422,49.866028],[0.720119,49.8661],[0.721761,49.866229],[0.724416,49.866749],[0.725811,49.86652],[0.727136,49.866688],[0.72859,49.867115],[0.729024,49.867123],[0.729802,49.867004],[0.730838,49.866791],[0.7311,49.867031],[0.731744,49.86734],[0.732592,49.867584],[0.733885,49.867817],[0.735778,49.868191],[0.736889,49.868481],[0.738868,49.868786],[0.740837,49.868992],[0.741781,49.869041],[0.744887,49.869007],[0.745842,49.868973],[0.746357,49.868912],[0.746909,49.868908],[0.749506,49.869049],[0.752875,49.868951],[0.753486,49.868973],[0.753529,49.868813],[0.753626,49.867561],[0.754087,49.865714],[0.75442,49.865361],[0.754817,49.863758],[0.754945,49.862713],[0.754741,49.861717],[0.754216,49.860002],[0.755085,49.857677],[0.757864,49.857269],[0.757188,49.85585],[0.757005,49.855141],[0.755364,49.854518],[0.755632,49.854212],[0.756394,49.853745],[0.75737,49.854053],[0.758271,49.854248],[0.75855,49.854256],[0.758604,49.854595],[0.758507,49.85482],[0.75973,49.855251],[0.761071,49.856262],[0.762885,49.858265],[0.763453,49.85907],[0.765867,49.861345],[0.766919,49.862195],[0.768389,49.863029],[0.770996,49.864056],[0.777154,49.866138],[0.773495,49.870853],[0.77798,49.871767],[0.77989,49.872002],[0.784214,49.873081],[0.786885,49.873936],[0.788777,49.874128],[0.790518,49.873838],[0.791047,49.874673],[0.791522,49.874792],[0.794363,49.874906],[0.79442,49.874993],[0.794154,49.875771],[0.79425,49.875881],[0.794266,49.876003],[0.794454,49.876127],[0.794754,49.876189],[0.795044,49.876237],[0.795366,49.876347],[0.795565,49.876478],[0.795779,49.876506],[0.796009,49.876523],[0.796214,49.876549],[0.79653,49.87653],[0.796975,49.876583],[0.797099,49.876785],[0.79718,49.876847],[0.797271,49.876945],[0.797367,49.876905],[0.797485,49.876792],[0.797711,49.876718],[0.797818,49.876804],[0.799212,49.876653],[0.799567,49.876637],[0.799668,49.876511],[0.799572,49.876369],[0.799073,49.876034],[0.798885,49.875381],[0.79888,49.874981],[0.798993,49.874718],[0.79895,49.874576],[0.799175,49.874322],[0.799593,49.874084],[0.799824,49.873913],[0.800006,49.873715],[0.800704,49.873191],[0.800988,49.872948],[0.801128,49.872688],[0.801235,49.872074],[0.801192,49.871618],[0.800918,49.871101],[0.800669,49.870823],[0.800779,49.870687],[0.80129,49.87042],[0.801919,49.870022],[0.802222,49.870285],[0.802423,49.870373],[0.80245,49.87048],[0.802675,49.870836],[0.802409,49.870991],[0.802319,49.871164],[0.802984,49.871334],[0.803713,49.871503],[0.804078,49.871655],[0.804931,49.872044],[0.805709,49.872314],[0.807136,49.872822],[0.808182,49.872189],[0.809534,49.87125],[0.810521,49.87043],[0.811159,49.869781],[0.811406,49.869297],[0.813133,49.869999],[0.813975,49.870461],[0.815091,49.871117],[0.815858,49.871647],[0.8167,49.872349],[0.81795,49.873425],[0.820595,49.875366],[0.821496,49.875984],[0.822151,49.876965],[0.823342,49.878281],[0.824801,49.880199],[0.825616,49.880505],[0.827934,49.881706],[0.829403,49.882259],[0.829425,49.882484],[0.830186,49.882683],[0.830584,49.884506],[0.830423,49.885151],[0.829929,49.886162],[0.829768,49.887047],[0.831474,49.887272],[0.83627,49.888138],[0.839939,49.888206],[0.843673,49.888554],[0.844574,49.885899],[0.84392,49.885029],[0.843759,49.884281],[0.843298,49.883665],[0.842643,49.882538],[0.844821,49.882614],[0.846355,49.882732],[0.847272,49.882953],[0.848254,49.883381],[0.848168,49.88403],[0.848243,49.884211],[0.848941,49.88464],[0.849531,49.88499],[0.849907,49.885159],[0.850502,49.88565],[0.851119,49.886307],[0.852363,49.887959],[0.8529,49.888428],[0.854144,49.889202],[0.854144,49.890614],[0.85438,49.890923],[0.855399,49.891357],[0.85703,49.891628],[0.858833,49.892532],[0.859391,49.892623],[0.860173,49.892652],[0.860592,49.892582],[0.863081,49.892021],[0.86542,49.891655],[0.866514,49.891212],[0.868821,49.890709],[0.871015,49.892272],[0.871857,49.892645],[0.873477,49.89035],[0.874475,49.889755],[0.875462,49.889036],[0.878455,49.887918],[0.880097,49.887716],[0.88161,49.887349],[0.883842,49.886768],[0.884421,49.886878],[0.885236,49.887591],[0.887725,49.890245],[0.888219,49.890559],[0.888605,49.89068],[0.889077,49.890557],[0.889399,49.890294],[0.889485,49.889933],[0.890107,49.88905],[0.895021,49.885484],[0.8953,49.884724],[0.896201,49.885108],[0.897156,49.885676],[0.897757,49.886195],[0.898143,49.886676],[0.898272,49.887134],[0.907284,49.894239],[0.910428,49.895756],[0.911028,49.895973],[0.910792,49.896263],[0.911415,49.896778],[0.912788,49.897621],[0.913711,49.898586],[0.91473,49.898773],[0.914998,49.899044],[0.91723,49.900024],[0.918195,49.900883],[0.918667,49.900999],[0.919633,49.901752],[0.920083,49.901793],[0.920856,49.902355],[0.921489,49.902884],[0.921865,49.903385],[0.922111,49.903682],[0.922964,49.904286],[0.923208,49.904547],[0.923828,49.904628],[0.924482,49.904792],[0.930598,49.906715],[0.933301,49.907459],[0.93666,49.908198],[0.938333,49.907702],[0.943601,49.90847],[0.94446,49.908415],[0.94506,49.908629],[0.94623,49.909148],[0.946847,49.909313],[0.94697,49.909099],[0.952861,49.909144],[0.955596,49.909491],[0.956959,49.910575],[0.958579,49.911729],[0.958794,49.912172],[0.958954,49.91229],[0.959008,49.912518],[0.958997,49.912546],[0.9592,49.912789],[0.959039,49.913017],[0.958803,49.913107],[0.958674,49.913349],[0.958363,49.913563],[0.958513,49.913673],[0.958481,49.91377],[0.958985,49.914074],[0.958824,49.914468],[0.959318,49.914862],[0.959307,49.915069],[0.959189,49.915235],[0.958781,49.915428],[0.959115,49.915653],[0.961003,49.914776],[0.960252,49.916244],[0.9639,49.916759],[0.964405,49.917193],[0.96625,49.917734],[0.966577,49.917689],[0.966818,49.917492],[0.967172,49.916658],[0.967913,49.916954],[0.968986,49.91759],[0.969779,49.91774],[0.970638,49.917617],[0.971217,49.91747],[0.971174,49.917239],[0.971368,49.91677],[0.971593,49.916613],[0.97244,49.916573],[0.974457,49.916775],[0.974468,49.916122],[0.974677,49.915543],[0.974961,49.91513],[0.975535,49.914757],[0.976131,49.914522],[0.97817,49.913886],[0.978277,49.913223],[0.979671,49.913156],[0.980261,49.913259],[0.981173,49.913258],[0.981442,49.914099],[0.981399,49.914936],[0.982032,49.915797],[0.983534,49.916034],[0.984703,49.916232],[0.985883,49.91674],[0.986077,49.916919],[0.986505,49.91688],[0.986607,49.916736],[0.986516,49.916386],[0.985529,49.915082],[0.986366,49.915199],[0.986645,49.915115],[0.986554,49.914559],[0.986398,49.914087],[0.98708,49.914188],[0.98848,49.9146],[0.990358,49.914224],[0.991849,49.913534],[0.992718,49.912863],[0.993264,49.912021],[0.993254,49.911648],[0.993898,49.91229],[0.994167,49.912648],[0.994547,49.912901],[0.99585,49.913402],[0.995636,49.913761],[0.995738,49.915888],[0.996298,49.916185],[0.997453,49.916237],[0.997895,49.916112],[0.998293,49.915772],[0.997953,49.914175],[0.999434,49.914356],[1.001043,49.914921],[1.00173,49.914963],[1.00246,49.915184],[1.004992,49.915061],[1.005453,49.915096],[1.005935,49.915055],[1.007084,49.915504],[1.007309,49.91593],[1.007395,49.916199],[1.007685,49.916302],[1.008146,49.915089],[1.008081,49.913485],[1.008961,49.913408],[1.011966,49.911386],[1.012695,49.910667],[1.013575,49.910582],[1.012877,49.909387],[1.012378,49.908762],[1.010957,49.907632],[1.010216,49.906789],[1.010056,49.906342],[1.01027,49.905912],[1.010936,49.905565],[1.014058,49.904774],[1.014632,49.904749],[1.015453,49.905181],[1.016224,49.90527],[1.017093,49.905552],[1.018671,49.905843],[1.01969,49.90601],[1.020881,49.906901],[1.021707,49.907756],[1.022737,49.909416],[1.024046,49.910473],[1.024894,49.91155],[1.026095,49.91247],[1.026878,49.913887],[1.027329,49.914474],[1.028852,49.915827],[1.027854,49.916552],[1.027715,49.916787],[1.031786,49.917776],[1.03215,49.917265],[1.031067,49.916844],[1.031469,49.916433],[1.031893,49.915883],[1.031743,49.915414],[1.031421,49.915047],[1.03273,49.914516],[1.033867,49.914212],[1.033545,49.913797],[1.034275,49.913355],[1.034124,49.913244],[1.03436,49.912885],[1.034232,49.912125],[1.034446,49.911158],[1.034725,49.910854],[1.034264,49.910577],[1.034157,49.910253],[1.034398,49.909835],[1.034444,49.909453],[1.034682,49.908809],[1.034661,49.907537],[1.034897,49.906971],[1.034768,49.906273],[1.034564,49.905817],[1.034468,49.90476],[1.034661,49.903854],[1.034575,49.903574],[1.033813,49.902604],[1.033776,49.902224],[1.033835,49.90183],[1.03406,49.901332],[1.034972,49.90174],[1.036313,49.902237],[1.037547,49.902845],[1.038196,49.90269],[1.038891,49.902681],[1.039714,49.902756],[1.040943,49.90259],[1.042462,49.902572],[1.043402,49.90261],[1.044081,49.902548],[1.045492,49.902651],[1.047299,49.903853],[1.047986,49.904648],[1.048254,49.904814],[1.048941,49.904814],[1.049574,49.904544],[1.050116,49.904133],[1.051183,49.902851],[1.051274,49.902163],[1.05143,49.901891],[1.052031,49.902188],[1.052535,49.902865],[1.053275,49.903445],[1.053823,49.90368],[1.053318,49.904696],[1.052771,49.905536],[1.052417,49.905885],[1.052278,49.90632],[1.052626,49.906493],[1.05379,49.906734],[1.054252,49.907142],[1.054971,49.907944],[1.055292,49.9085],[1.055829,49.90907],[1.056891,49.909712],[1.058854,49.910286],[1.059369,49.91068],[1.059809,49.911212],[1.061,49.911758],[1.061086,49.913063],[1.06276,49.914576],[1.062776,49.914737],[1.060067,49.917233],[1.058838,49.918457],[1.057859,49.919539],[1.055818,49.921326],[1.059215,49.923019],[1.063474,49.92378],[1.066285,49.922791],[1.065631,49.924084],[1.065266,49.925014],[1.067369,49.924979],[1.06798,49.925006],[1.068785,49.925123],[1.069568,49.924427],[1.06982,49.924421],[1.070094,49.924152],[1.070609,49.923517],[1.07166,49.922983],[1.072465,49.923645],[1.074708,49.924737],[1.077669,49.926735],[1.078774,49.927218],[1.079235,49.927327],[1.079846,49.926424],[1.08181,49.926424],[1.083784,49.927335],[1.085941,49.927239],[1.085839,49.92738],[1.085566,49.927633],[1.085704,49.928102],[1.085978,49.92828],[1.086042,49.928404],[1.086386,49.928442],[1.086381,49.928498],[1.086677,49.928555],[1.086842,49.928647],[1.087194,49.928808],[1.087226,49.929112],[1.086909,49.929457],[1.08734,49.929656],[1.08747,49.92985],[1.088451,49.929697],[1.088263,49.930951],[1.088751,49.931176],[1.088371,49.931548],[1.088362,49.931689],[1.091611,49.933051],[1.091828,49.933076],[1.092244,49.933318],[1.093212,49.933425],[1.09447,49.93339],[1.095581,49.933527],[1.096404,49.933793],[1.097282,49.934154],[1.098568,49.934522],[1.099893,49.934711],[1.101409,49.934727],[1.101723,49.934667],[1.102372,49.935133],[1.102991,49.935226],[1.103954,49.935113],[1.104973,49.935225],[1.105982,49.935221],[1.106036,49.9361],[1.106636,49.936215],[1.107323,49.936618],[1.107806,49.936528],[1.108289,49.936321],[1.108858,49.936457],[1.108449,49.936672],[1.109501,49.937066],[1.109592,49.937225],[1.109458,49.937522],[1.10934,49.937659],[1.109576,49.937804],[1.109651,49.937931],[1.109962,49.938114],[1.111229,49.937922],[1.113803,49.938211],[1.11494,49.938398],[1.115821,49.9384],[1.116035,49.938698],[1.1167,49.938649],[1.117011,49.938535],[1.119232,49.93831],[1.120348,49.938364],[1.12215,49.938334],[1.123138,49.938578],[1.123492,49.938614],[1.123722,49.93889],[1.123224,49.93998],[1.125498,49.940395],[1.129038,49.941086],[1.133287,49.941113],[1.135948,49.941347],[1.13804,49.9413],[1.139338,49.941573],[1.142063,49.94203],[1.144767,49.942722],[1.145797,49.942983],[1.147964,49.943693],[1.149305,49.944245],[1.150925,49.944667],[1.153983,49.946455],[1.156118,49.947453],[1.156096,49.947769],[1.156826,49.948321],[1.159272,49.949046],[1.16056,49.949578],[1.161182,49.950121],[1.162544,49.950773],[1.163628,49.950963],[1.162705,49.952171],[1.164218,49.952952],[1.164958,49.953304],[1.165892,49.954574],[1.166536,49.956381],[1.166922,49.956668],[1.167394,49.956854],[1.168123,49.957398],[1.167662,49.957813],[1.167914,49.958047],[1.168102,49.958363],[1.168864,49.958756],[1.169357,49.958371],[1.169819,49.958219],[1.170317,49.95799],[1.170049,49.958291],[1.169696,49.958445],[1.169556,49.95857],[1.169663,49.95872],[1.169599,49.95924],[1.170135,49.959438],[1.170822,49.959496],[1.171133,49.959625],[1.171546,49.959675],[1.172045,49.959641],[1.173273,49.959972],[1.173917,49.960072],[1.174089,49.96014],[1.175467,49.960236],[1.176036,49.960297],[1.177356,49.958199],[1.181288,49.958931],[1.182709,49.959415],[1.182586,49.959743],[1.182741,49.960561],[1.183541,49.961445],[1.184227,49.96188],[1.185107,49.962154],[1.186175,49.962643],[1.187205,49.962952],[1.18934,49.962894],[1.191153,49.963314],[1.191357,49.963463],[1.191534,49.963902],[1.191995,49.964073],[1.192252,49.964334],[1.192344,49.964724],[1.192564,49.965114],[1.192928,49.965045],[1.193079,49.965307],[1.194162,49.965096],[1.19471,49.96619],[1.197188,49.967205],[1.197778,49.968227],[1.19825,49.968346],[1.198797,49.968323],[1.197745,49.96858],[1.197467,49.968784],[1.197971,49.968765],[1.198223,49.968879],[1.198432,49.96911],[1.198325,49.969241],[1.198626,49.969311],[1.198706,49.96947],[1.199108,49.969643],[1.199259,49.969765],[1.200471,49.970013],[1.201099,49.970226],[1.201335,49.970348],[1.201801,49.970463],[1.201801,49.970463],[1.202629,49.970243],[1.202878,49.970271],[1.205625,49.96947],[1.206955,49.970671],[1.209483,49.971149],[1.211023,49.970442],[1.212702,49.970867],[1.213571,49.969662],[1.213742,49.969288],[1.214676,49.968002],[1.215829,49.967346],[1.217374,49.967052],[1.218828,49.96671],[1.220652,49.965881],[1.221891,49.965492],[1.222299,49.966076],[1.222524,49.966476],[1.227475,49.964943],[1.228495,49.965618],[1.229825,49.965695],[1.2302,49.965902],[1.230345,49.966136],[1.230125,49.966854],[1.23313,49.969064],[1.233253,49.969328],[1.233183,49.969621],[1.23255,49.970525],[1.232218,49.971207],[1.231585,49.973649],[1.23137,49.974991],[1.230565,49.976785],[1.230383,49.977639],[1.230496,49.978119],[1.23078,49.978434],[1.230769,49.978859],[1.230973,49.979317],[1.232024,49.979687],[1.23373,49.980076],[1.23343,49.980301],[1.233194,49.980801],[1.233709,49.981297],[1.230994,49.983318],[1.229691,49.984434],[1.230742,49.984844],[1.230608,49.985085],[1.231251,49.985373],[1.231327,49.985588],[1.231616,49.985887],[1.231581,49.986417],[1.231967,49.986535],[1.233104,49.987252],[1.233769,49.987569],[1.235475,49.988825],[1.236273,49.988953],[1.236841,49.989339],[1.237571,49.989724],[1.23859,49.990386],[1.239996,49.990921],[1.240361,49.991207],[1.242682,49.992375],[1.244592,49.990872],[1.244495,49.991741],[1.244292,49.992417],[1.244807,49.992637],[1.245212,49.993336],[1.24536,49.993938],[1.245672,49.994289],[1.246541,49.994663],[1.247013,49.994987],[1.248289,49.995586],[1.249845,49.996471],[1.250736,49.99707],[1.252495,49.997993],[1.252919,49.998408],[1.254566,49.999596],[1.254855,49.999443],[1.254855,49.999443],[1.255096,49.999127],[1.255482,49.99921],[1.256061,49.999693],[1.257273,50.000479],[1.257091,50.000869],[1.256469,50.001231],[1.256571,50.001507],[1.258821,50.002989],[1.259999,50.003893],[1.260449,50.003893],[1.261501,50.004196],[1.261937,50.004434],[1.262135,50.004837],[1.26265,50.005263],[1.263546,50.00593],[1.264651,50.006574],[1.265134,50.006945],[1.266588,50.008062],[1.26891,50.009404],[1.271195,50.010802],[1.271335,50.011058],[1.272665,50.011797],[1.273153,50.012022],[1.274157,50.012848],[1.274967,50.013291],[1.275584,50.013454],[1.275868,50.013481],[1.276082,50.013802],[1.27649,50.014046],[1.27649,50.014046],[1.277154,50.014325],[1.27842,50.013794],[1.278624,50.014097],[1.281113,50.015449],[1.281392,50.015835],[1.283205,50.017165],[1.284289,50.017848],[1.285018,50.017544],[1.285426,50.018372],[1.286241,50.019061],[1.285512,50.019351],[1.285694,50.019619],[1.286859,50.020492],[1.28745,50.020916],[1.28848,50.021773],[1.289402,50.022255],[1.29003,50.022575],[1.290765,50.023033],[1.292331,50.024226],[1.292991,50.0247],[1.29335,50.02494],[1.293747,50.025087],[1.29409,50.025282],[1.294348,50.025326],[1.294595,50.025307],[1.29481,50.025176],[1.295008,50.025361],[1.29497,50.025756],[1.295373,50.025962],[1.295507,50.026147],[1.295845,50.026403],[1.296264,50.026554],[1.29643,50.026709],[1.297309,50.027127],[1.298505,50.027741],[1.299499,50.028141],[1.301529,50.02887],[1.30161,50.029003],[1.302053,50.02913],[1.303705,50.029803],[1.304814,50.03023],[1.305391,50.029621],[1.305298,50.028361],[1.305503,50.027293],[1.305466,50.026789],[1.306138,50.027185],[1.306225,50.027199],[1.30688,50.027229],[1.307352,50.027069],[1.307588,50.026779],[1.308006,50.026913],[1.308317,50.026655],[1.308607,50.026637],[1.308591,50.026746],[1.30899,50.026835],[1.309326,50.026827],[1.309379,50.027417],[1.309325,50.027966],[1.30961,50.028714],[1.309618,50.02935],[1.309359,50.030406],[1.309057,50.031034],[1.309004,50.031963],[1.308886,50.032191],[1.314668,50.034009],[1.314974,50.033972],[1.315387,50.033748],[1.31617,50.034456],[1.316664,50.034708],[1.317351,50.034914],[1.317566,50.035513],[1.321245,50.038296],[1.323284,50.037227],[1.326814,50.039539],[1.325092,50.040474],[1.3244,50.04072],[1.325344,50.041542],[1.326063,50.042412],[1.32706,50.042795],[1.327661,50.043186],[1.329345,50.044569],[1.329603,50.044677],[1.330075,50.044407],[1.330107,50.044098],[1.330456,50.044109],[1.33043,50.044245],[1.330735,50.044376],[1.330655,50.04528],[1.330821,50.04543],[1.332972,50.045781],[1.334775,50.046225],[1.335165,50.04648],[1.336597,50.048178],[1.33734,50.048643],[1.355721,50.056052],[1.358489,50.056878],[1.358146,50.057133],[1.358414,50.057264],[1.359154,50.057292],[1.360592,50.057795],[1.362545,50.058411],[1.363253,50.058683],[1.364272,50.058876],[1.365817,50.059351],[1.366016,50.059334],[1.366751,50.059616],[1.367819,50.059673],[1.368415,50.059828],[1.369801,50.060094],[1.371352,50.0605],[1.371789,50.060759],[1.372731,50.060508]]],"type":"MultiLineString"},"properties":{"geo_point":{"lon":0.6530011616850933,"lat":49.80798697223265},"name":"GR21 Sentier des Falaises (2020)","code_gr":"GR21"}}]}