{"type":"FeatureCollection","features":[{"type":"Feature","geometry":{"coordinates":[[[0.600998,49.853135],[0.604367,49.848638],[0.605182,49.847808],[0.606963,49.845774],[0.608572,49.84464],[0.609238,49.843796],[0.609667,49.842523],[0.610439,49.841332],[0.611147,49.840682],[0.611898,49.840474],[0.612606,49.839935],[0.613744,49.839423],[0.615417,49.837624],[0.615675,49.837098],[0.61707,49.835562],[0.617713,49.83462],[0.619966,49.832614],[0.620996,49.831839],[0.621855,49.831465],[0.622541,49.830745],[0.624408,49.829569],[0.624408,49.828918],[0.624065,49.828364],[0.624387,49.8277],[0.623979,49.827617],[0.622906,49.827008],[0.622177,49.826454],[0.621597,49.82633],[0.620245,49.825264],[0.618679,49.824364],[0.618185,49.823935],[0.617542,49.823076],[0.616726,49.822453],[0.616447,49.821692],[0.61649,49.820972],[0.617112,49.820875],[0.617627,49.820446],[0.617906,49.819505],[0.617992,49.818369],[0.61752,49.816999],[0.616748,49.81632],[0.616555,49.816016],[0.61664,49.815739],[0.616254,49.815337],[0.61619,49.814091],[0.615632,49.81236],[0.614988,49.811128],[0.614387,49.810283],[0.61325,49.80894],[0.613314,49.807929],[0.613658,49.807209],[0.613872,49.807112],[0.614066,49.80642],[0.61398,49.806281],[0.614731,49.805271],[0.615203,49.804273],[0.617177,49.803996],[0.617885,49.803526],[0.617821,49.80239],[0.618722,49.802182],[0.619044,49.80106],[0.61973,49.799648],[0.621726,49.799717],[0.621232,49.796891],[0.621425,49.795922],[0.621275,49.794398],[0.620868,49.793027],[0.622048,49.792584],[0.624172,49.790395],[0.62546,49.789619],[0.626168,49.788954],[0.627047,49.787943],[0.629064,49.787264],[0.63018,49.787112],[0.631489,49.787223],[0.632476,49.7875],[0.632519,49.787015],[0.632777,49.78653],[0.632154,49.78599],[0.632605,49.785311],[0.632004,49.784369],[0.631768,49.78369],[0.630502,49.782567],[0.628163,49.781196],[0.628099,49.780669],[0.62767,49.780351],[0.626382,49.780129],[0.623936,49.777469],[0.62297,49.777094],[0.622498,49.776665],[0.62194,49.774739],[0.623121,49.77503],[0.625073,49.775321],[0.626253,49.775598],[0.626897,49.775917],[0.62782,49.776374],[0.629172,49.776679],[0.629429,49.776526],[0.632197,49.776734],[0.634171,49.777011],[0.634815,49.776928],[0.63518,49.776637],[0.634193,49.77478],[0.634043,49.77399],[0.633613,49.773561],[0.633399,49.773007],[0.638635,49.772134],[0.638999,49.771926],[0.639707,49.77187],[0.640587,49.770969],[0.640716,49.771676],[0.641403,49.772688],[0.64299,49.771427],[0.644256,49.770859],[0.645286,49.770692],[0.647582,49.769986],[0.648505,49.769251],[0.649106,49.768946],[0.649471,49.768932],[0.649878,49.76871],[0.650286,49.768752],[0.6502,49.768489],[0.649664,49.768004],[0.648913,49.766618],[0.648484,49.766188],[0.647218,49.764345],[0.645072,49.762903],[0.644986,49.761018],[0.643849,49.760547],[0.643484,49.760547],[0.643098,49.759965],[0.642797,49.758925],[0.642325,49.756167],[0.641596,49.755709],[0.640802,49.754669],[0.640222,49.753685],[0.637218,49.751744],[0.636896,49.751273],[0.63724,49.750885],[0.63857,49.75051],[0.63975,49.749956],[0.640458,49.750039],[0.641188,49.749803],[0.640458,49.749332],[0.640308,49.749096],[0.640652,49.748722],[0.640566,49.748389],[0.640029,49.747668],[0.639493,49.747294],[0.640244,49.747113],[0.640931,49.7466],[0.641445,49.745768],[0.642604,49.745047],[0.643699,49.744077],[0.644664,49.743605],[0.645844,49.742357],[0.646338,49.740915],[0.64666,49.739778],[0.646767,49.739085],[0.647239,49.738447],[0.648677,49.737546],[0.650071,49.7362],[0.651123,49.734952],[0.655393,49.731832],[0.655994,49.731776],[0.656723,49.73222],[0.657324,49.732373],[0.658547,49.732012],[0.65962,49.731374],[0.661101,49.733121],[0.660543,49.733399],[0.660221,49.733898],[0.660393,49.734384],[0.661165,49.734924],[0.661938,49.735146],[0.662817,49.735174],[0.66301,49.735687],[0.664319,49.736561],[0.665392,49.736367],[0.669512,49.733759],[0.671787,49.732733],[0.676314,49.730569],[0.678675,49.73014],[0.68082,49.72964],[0.683996,49.728614],[0.68376,49.728267],[0.682215,49.726949],[0.681571,49.726644],[0.680734,49.7262],[0.681335,49.724966],[0.679361,49.723357],[0.678202,49.721969],[0.678567,49.720929],[0.678353,49.720652],[0.678524,49.720055],[0.679061,49.719417],[0.676636,49.717946],[0.67773,49.716864],[0.67876,49.714936],[0.678546,49.714034],[0.678567,49.713104],[0.679705,49.711411],[0.680649,49.71069],[0.681743,49.710621],[0.684876,49.709108],[0.685949,49.70847],[0.686786,49.707512],[0.687386,49.706444],[0.688052,49.706055],[0.687386,49.705472],[0.687944,49.704765],[0.687794,49.704043],[0.688094,49.703238],[0.68876,49.7026],[0.68921,49.701809],[0.690133,49.700976],[0.690863,49.699741],[0.69185,49.698866],[0.692043,49.698297],[0.693502,49.696771],[0.693888,49.696979],[0.694274,49.69666],[0.694811,49.696563],[0.695176,49.696327],[0.695648,49.696118],[0.695047,49.695758],[0.695133,49.695369],[0.695733,49.695008],[0.695862,49.694647],[0.695433,49.694425],[0.695862,49.694161],[0.696248,49.693662],[0.697343,49.693079],[0.696656,49.691857],[0.695519,49.69108],[0.69524,49.689858],[0.695412,49.689331],[0.695047,49.68915],[0.694982,49.688303],[0.695326,49.687276],[0.696656,49.686332],[0.697364,49.686374],[0.698244,49.686179],[0.698072,49.685707],[0.697321,49.679724],[0.697407,49.677946],[0.695412,49.678002],[0.697493,49.676461],[0.698351,49.675517],[0.69951,49.674586],[0.697257,49.673017],[0.695304,49.672712],[0.692858,49.673295],[0.692086,49.673753],[0.691828,49.674558],[0.689296,49.67585],[0.686421,49.677072],[0.683181,49.675336],[0.68391,49.674725],[0.684532,49.672864],[0.683138,49.670323],[0.683352,49.669004],[0.68391,49.668365],[0.685434,49.667393],[0.686249,49.666809],[0.686464,49.666448],[0.685777,49.665921],[0.685562,49.665462],[0.686013,49.665185],[0.686442,49.665087],[0.687193,49.66506],[0.688459,49.664476],[0.689597,49.663351],[0.688803,49.662379],[0.688803,49.661684],[0.689167,49.661212],[0.690305,49.660601],[0.689747,49.660518],[0.688888,49.660115],[0.688481,49.659795],[0.687966,49.659351],[0.683953,49.657504],[0.682988,49.658101],[0.680541,49.656531],[0.678095,49.655989],[0.6764,49.655337],[0.674297,49.655184],[0.675263,49.654114],[0.678374,49.651794],[0.677966,49.651127],[0.676314,49.650322],[0.67625,49.649891],[0.674962,49.64871],[0.676121,49.648279],[0.67919,49.645681],[0.679876,49.645098],[0.679962,49.644597],[0.680477,49.644153],[0.680134,49.643903],[0.681164,49.642416],[0.682859,49.640915],[0.683202,49.640679],[0.681464,49.63808],[0.679747,49.637344],[0.679254,49.636885],[0.679297,49.636107],[0.679705,49.635329],[0.682794,49.630201],[0.683095,49.629492],[0.68258,49.628408],[0.682451,49.627713],[0.682709,49.627296],[0.682709,49.625378],[0.684704,49.625266],[0.686142,49.625308],[0.686571,49.624891],[0.689146,49.62453],[0.689854,49.624321],[0.693952,49.622834],[0.694532,49.622097],[0.69509,49.621277],[0.69554,49.619581],[0.695669,49.618455],[0.696442,49.617398],[0.697407,49.615619],[0.69451,49.610822],[0.693781,49.611086],[0.689124,49.61224],[0.687515,49.612366],[0.686828,49.612574],[0.686142,49.612602],[0.68612,49.612366],[0.685841,49.612393],[0.685047,49.611768],[0.681464,49.611962],[0.681099,49.610753],[0.680391,49.607527],[0.681271,49.605969],[0.680327,49.604746],[0.682215,49.6038],[0.682365,49.603397],[0.682301,49.603147],[0.682558,49.602507],[0.681357,49.601839],[0.681164,49.601353],[0.681464,49.600393],[0.681099,49.599656],[0.680155,49.598724],[0.678331,49.597584],[0.67758,49.597194],[0.677301,49.596735],[0.677473,49.596457],[0.676894,49.596207],[0.677001,49.596109],[0.676143,49.595498],[0.676121,49.595331],[0.673246,49.593216],[0.671143,49.591311],[0.669555,49.589572],[0.668139,49.587277],[0.666079,49.584843],[0.664985,49.583117],[0.664212,49.582964],[0.663912,49.582269],[0.663783,49.581587],[0.662302,49.580641],[0.664105,49.580224],[0.664362,49.579806],[0.663783,49.579375],[0.663075,49.578457],[0.662045,49.577803],[0.660564,49.576091],[0.65932,49.57573],[0.658655,49.57527],[0.658504,49.574881],[0.658697,49.574533],[0.659212,49.574408],[0.660736,49.573211],[0.660843,49.57246],[0.661101,49.571834],[0.6608,49.570706],[0.660843,49.569565],[0.66168,49.569064],[0.664706,49.568452],[0.666057,49.567506],[0.666808,49.566713],[0.667044,49.565877],[0.666572,49.565168],[0.666487,49.563985],[0.66698,49.562482],[0.667538,49.562036],[0.668332,49.561577],[0.671229,49.560324],[0.671207,49.560617],[0.672044,49.560937],[0.673203,49.560951],[0.673889,49.561159],[0.674641,49.561521],[0.67552,49.56148],[0.676507,49.560923],[0.677859,49.56077],[0.677709,49.560366],[0.68273,49.559684],[0.683953,49.559406],[0.684447,49.559002],[0.684618,49.558571],[0.687579,49.558334],[0.688288,49.558543],[0.688459,49.559364],[0.688331,49.559726],[0.689082,49.559434],[0.689639,49.559517],[0.69039,49.559573],[0.691077,49.560074],[0.692043,49.56038],[0.693116,49.560811],[0.693459,49.560714],[0.69303,49.560143],[0.692407,49.559628],[0.691957,49.558835],[0.691892,49.558223],[0.691592,49.557568],[0.691828,49.557095],[0.692472,49.55697],[0.693738,49.557026],[0.694725,49.556733],[0.69642,49.555453],[0.696549,49.554826],[0.697429,49.553601],[0.69833,49.55317],[0.699703,49.552836],[0.701548,49.552947],[0.702407,49.552293],[0.703866,49.55136],[0.703565,49.550539],[0.703029,49.549815],[0.702407,49.549676],[0.702965,49.549091],[0.702686,49.548339],[0.702729,49.547629],[0.702128,49.547184],[0.702621,49.547142],[0.703694,49.546836],[0.70378,49.546501],[0.70481,49.546487],[0.704553,49.545931],[0.704746,49.545777],[0.704595,49.545388],[0.703716,49.545026],[0.703308,49.544552],[0.702149,49.544831],[0.699853,49.544831],[0.69921,49.544664],[0.699918,49.54465],[0.701849,49.544135],[0.702257,49.543271],[0.702385,49.542617],[0.703222,49.542394],[0.703201,49.543021],[0.704102,49.5438],[0.708479,49.542171],[0.709423,49.542074],[0.711805,49.541531],[0.713221,49.54096],[0.713779,49.54018],[0.714187,49.538941],[0.713736,49.538454],[0.714466,49.53791],[0.715196,49.537242],[0.716547,49.536407],[0.716998,49.535404],[0.716376,49.534708],[0.715796,49.533496],[0.71511,49.53312],[0.715174,49.532967],[0.715947,49.532661],[0.715882,49.532062],[0.716054,49.531658],[0.715968,49.531379],[0.71659,49.531115],[0.717427,49.530223],[0.717856,49.529416],[0.717813,49.529193],[0.716333,49.529109],[0.714659,49.529318],[0.713844,49.529262],[0.713715,49.529026],[0.71335,49.528719],[0.712749,49.528719],[0.710346,49.528023],[0.709102,49.526797],[0.70981,49.525864],[0.716247,49.526755],[0.717298,49.526435],[0.717084,49.525962],[0.717427,49.52592],[0.718414,49.526268],[0.71953,49.52631],[0.72041,49.526393],[0.721526,49.525335],[0.721504,49.525195],[0.722148,49.525195],[0.722899,49.525432],[0.723907,49.525488],[0.724573,49.526059],[0.72512,49.526099]]],"type":"MultiLineString"},"properties":{"geo_point":{"lon":0.6684544970067869,"lat":49.676702926787975},"name":"GR211 De Veulettes-sur-Mer à Caudebec-en-Caux (Seine-Maritime) (2020)","code_gr":"GR211"}}]}