{"type":"FeatureCollection","features":[{"type":"Feature","geometry":{"coordinates":[[[1.150646,49.306236],[1.149209,49.306335],[1.146913,49.306015],[1.146698,49.305103],[1.14628,49.304516],[1.145196,49.303719],[1.144198,49.303165],[1.1429,49.302727],[1.140293,49.302368],[1.139402,49.302105],[1.138383,49.302063],[1.136806,49.30183],[1.136366,49.299901],[1.137557,49.299306],[1.136881,49.298837],[1.138324,49.298058],[1.13999,49.297514],[1.141119,49.297208],[1.143415,49.296004],[1.138276,49.291595],[1.139553,49.291435],[1.130219,49.283539],[1.128448,49.283661],[1.127579,49.284351],[1.127107,49.284428],[1.124554,49.284],[1.121303,49.284283],[1.118492,49.28196],[1.116582,49.281651],[1.114715,49.28067],[1.113009,49.280209],[1.112387,49.279804],[1.11199,49.27932],[1.111196,49.278782],[1.110467,49.278423],[1.109726,49.278297],[1.108943,49.278061],[1.108257,49.278038],[1.107473,49.278111],[1.106873,49.278004],[1.106261,49.277515],[1.105333,49.276741],[1.104367,49.276379],[1.103938,49.276066],[1.103386,49.275486],[1.102157,49.275112],[1.100787,49.274758],[1.100344,49.274487],[1.099896,49.273844],[1.099428,49.273359],[1.099004,49.273087],[1.098975,49.272948],[1.098855,49.272833],[1.098699,49.272505],[1.099073,49.271816],[1.099271,49.271591],[1.098847,49.271549],[1.098343,49.271664],[1.097496,49.271698],[1.096884,49.271319],[1.095811,49.27113],[1.095124,49.271158],[1.094363,49.271416],[1.093639,49.272068],[1.092641,49.272396],[1.091638,49.272514],[1.090962,49.2724],[1.091949,49.27158],[1.092571,49.27079],[1.092732,49.270317],[1.092818,49.269779],[1.093107,49.269321],[1.093268,49.268902],[1.093676,49.26841],[1.093944,49.267952],[1.09462,49.267326],[1.095082,49.266857],[1.096015,49.266563],[1.096712,49.266308],[1.098965,49.266159],[1.100585,49.265926],[1.102452,49.265907],[1.10301,49.265556],[1.10433,49.265171],[1.108342,49.262337],[1.109061,49.261909],[1.109619,49.261761],[1.110638,49.261299],[1.11213,49.260769],[1.111926,49.260529],[1.111947,49.260185],[1.111239,49.260059],[1.111057,49.25988],[1.111207,49.259418],[1.111003,49.258976],[1.111776,49.25787],[1.113846,49.257198],[1.115938,49.255825],[1.118084,49.255573],[1.118921,49.255299],[1.119415,49.254913],[1.119576,49.25322],[1.119747,49.252876],[1.120863,49.251743],[1.121441,49.250872],[1.121913,49.250352],[1.122628,49.249959],[1.123137,49.249794],[1.123695,49.249836],[1.125069,49.250355],[1.126099,49.250507],[1.129553,49.250454],[1.129982,49.250256],[1.13127,49.249199],[1.132182,49.248894],[1.13289,49.248886],[1.134253,49.249107],[1.135508,49.249577],[1.136602,49.250244],[1.137589,49.250561],[1.138844,49.250362],[1.139295,49.250103],[1.138383,49.248219],[1.138276,49.248821],[1.137578,49.24934],[1.136817,49.249557],[1.135561,49.249157],[1.134628,49.24868],[1.133652,49.248478],[1.132557,49.248386],[1.132134,49.248425],[1.131959,49.248447],[1.131686,49.247634],[1.131088,49.246517],[1.130272,49.244858],[1.126726,49.237113],[1.129442,49.237347],[1.133201,49.236675],[1.132225,49.234604],[1.130723,49.231052],[1.130143,49.230068],[1.129146,49.227795],[1.126431,49.221786],[1.12464,49.217709],[1.123502,49.216881],[1.123449,49.216679],[1.123964,49.216244],[1.12008,49.207664],[1.121399,49.207493],[1.124586,49.207161],[1.126217,49.205849],[1.127182,49.205219],[1.127493,49.204147],[1.127515,49.203678],[1.128287,49.202171],[1.128395,49.201561],[1.128395,49.201393],[1.125787,49.200424],[1.124586,49.199814],[1.123685,49.197487],[1.12432,49.19744],[1.12376,49.195606],[1.12317,49.195168],[1.120155,49.193596],[1.118395,49.193188],[1.117204,49.192776],[1.116271,49.192566],[1.115756,49.192284],[1.114973,49.191444],[1.114018,49.18993],[1.113031,49.187473],[1.111282,49.185696],[1.111035,49.185524],[1.111057,49.185085],[1.111668,49.184697],[1.112042,49.184038],[1.112156,49.183156],[1.112172,49.181955],[1.111668,49.181296],[1.111115,49.180945],[1.111066,49.1807],[1.110359,49.180103],[1.109662,49.179607],[1.10904,49.17923],[1.109619,49.177267],[1.11053,49.17698],[1.111915,49.176933],[1.111679,49.176585],[1.110885,49.17622],[1.112248,49.174397],[1.112849,49.17429],[1.113814,49.174316],[1.114662,49.174107],[1.11478,49.170273],[1.118041,49.170319],[1.118181,49.167355],[1.11876,49.166294],[1.119114,49.165031],[1.119329,49.162991],[1.124028,49.163074],[1.127558,49.163086],[1.129414,49.161831],[1.131184,49.160198],[1.131774,49.160248],[1.132386,49.160645],[1.134049,49.160728],[1.135036,49.160984],[1.135486,49.160458],[1.135604,49.160034],[1.136119,49.159546],[1.136742,49.15937],[1.137396,49.158646],[1.137654,49.157574],[1.138362,49.156963],[1.138844,49.156746],[1.139553,49.156219],[1.140389,49.155876],[1.141602,49.155621],[1.142868,49.155117],[1.143758,49.154884],[1.145142,49.154659],[1.145743,49.15435],[1.146097,49.153988],[1.146655,49.153168],[1.147299,49.153011],[1.148458,49.153053],[1.149552,49.153343],[1.151966,49.153572],[1.152331,49.153477],[1.15261,49.153103],[1.154369,49.153488],[1.155699,49.154106],[1.156236,49.153988],[1.156751,49.153561],[1.157191,49.153385],[1.157631,49.153061],[1.15939,49.153236],[1.16233,49.15321],[1.165184,49.15295],[1.166053,49.152767],[1.167759,49.15266],[1.169465,49.152035],[1.16954,49.151497],[1.168714,49.151379],[1.167834,49.151382],[1.167115,49.151054],[1.16586,49.150711],[1.16527,49.150436],[1.164798,49.150162],[1.162566,49.149349],[1.159551,49.148064],[1.158704,49.147488],[1.156719,49.146539],[1.155378,49.146174],[1.153789,49.145326],[1.152374,49.144683],[1.150893,49.143677],[1.148586,49.142521],[1.146022,49.141361],[1.143833,49.140526],[1.142728,49.140434],[1.140229,49.140385],[1.139102,49.140308],[1.137503,49.14003],[1.135229,49.139671],[1.132611,49.138927],[1.129961,49.13805],[1.129414,49.137917],[1.129146,49.138058],[1.127697,49.137066],[1.127665,49.136757],[1.127397,49.136421],[1.126657,49.135853],[1.125884,49.134937],[1.12553,49.134651],[1.12479,49.132996],[1.12435,49.132027],[1.124436,49.130676],[1.126024,49.129807],[1.12553,49.129402],[1.12554,49.128677],[1.125167,49.127503],[1.125358,49.126888],[1.12583,49.12598],[1.125841,49.125378],[1.12568,49.12429],[1.125723,49.123951],[1.12553,49.123337],[1.12582,49.122765],[1.126485,49.121971],[1.126785,49.121235],[1.12685,49.120499],[1.126667,49.119095],[1.126002,49.115482],[1.125766,49.114738],[1.125509,49.114296],[1.125841,49.113701],[1.12627,49.113152],[1.124715,49.112965],[1.122869,49.11314],[1.122494,49.113041],[1.122,49.112774],[1.120627,49.111137],[1.119887,49.110786],[1.118803,49.110779],[1.118149,49.110703],[1.11611,49.110863],[1.115263,49.110847],[1.115241,49.111397],[1.114533,49.111732],[1.114254,49.111588],[1.113739,49.111656],[1.111829,49.111629],[1.110821,49.111931],[1.109319,49.111866],[1.108825,49.111687],[1.108321,49.111397],[1.108181,49.111691],[1.108192,49.112099],[1.107967,49.112534],[1.10728,49.112724],[1.106443,49.112591],[1.105306,49.112125],[1.104233,49.111874],[1.10212,49.107529],[1.101304,49.105625],[1.100575,49.10537],[1.099867,49.105385],[1.099116,49.105518],[1.099277,49.105301],[1.101111,49.104542],[1.103128,49.104084],[1.104233,49.103981],[1.104802,49.103951],[1.105124,49.103874],[1.105038,49.103672],[1.104437,49.103397],[1.104437,49.103397],[1.103954,49.102745],[1.104126,49.10125],[1.103858,49.100819],[1.103568,49.100536],[1.103611,49.100098],[1.104223,49.09898],[1.104158,49.098591],[1.105317,49.096191],[1.106411,49.0951],[1.107785,49.094265],[1.10889,49.093914],[1.110885,49.093575],[1.111636,49.093388],[1.112612,49.093323],[1.112688,49.093739],[1.112537,49.094391],[1.112988,49.095592],[1.1142,49.095348],[1.114908,49.094856],[1.117451,49.094418],[1.118792,49.093506],[1.120316,49.092762],[1.121839,49.09692],[1.121904,49.097378],[1.122159,49.09817],[1.12229,49.099583],[1.121989,49.100376],[1.121861,49.100559],[1.122011,49.100792],[1.122494,49.100792],[1.12332,49.10096],[1.124125,49.100994],[1.125197,49.101109],[1.12626,49.101051],[1.126732,49.100842],[1.127579,49.100334],[1.132761,49.099731],[1.134317,49.099205],[1.135014,49.099316],[1.136184,49.09903],[1.140239,49.097038],[1.14187,49.093182],[1.142192,49.091877],[1.142052,49.091511],[1.143072,49.091354],[1.143962,49.091518],[1.14467,49.091778],[1.145217,49.091694],[1.145668,49.091736],[1.146151,49.091492],[1.146762,49.091377],[1.146655,49.091896],[1.146977,49.092361],[1.148082,49.093113],[1.148908,49.093513],[1.149584,49.094405],[1.14915,49.094831],[1.149144,49.095566],[1.149348,49.095551],[1.15055,49.094658],[1.150947,49.094681],[1.151386,49.094456],[1.153092,49.094231],[1.154069,49.093121],[1.155465,49.092384],[1.156045,49.090598],[1.155988,49.089999],[1.156697,49.087448],[1.15674,49.087063],[1.15718,49.086319],[1.157212,49.086002],[1.157674,49.086018],[1.161649,49.083662],[1.160367,49.082066],[1.159015,49.081287],[1.159036,49.080994],[1.158403,49.080318],[1.158146,49.07991],[1.155603,49.080534],[1.156322,49.080224],[1.156419,49.079882],[1.154884,49.078987],[1.158832,49.075764],[1.151365,49.071751],[1.150668,49.072094],[1.150067,49.072437],[1.149659,49.072418],[1.149037,49.071884],[1.149176,49.071476],[1.149112,49.071049],[1.148683,49.070866],[1.147631,49.070915],[1.146001,49.070576],[1.144724,49.070225],[1.143426,49.069466],[1.142889,49.069424],[1.141773,49.068203],[1.141248,49.067468],[1.140625,49.067371],[1.139327,49.067261],[1.138458,49.067039],[1.137321,49.066555],[1.135722,49.066181],[1.132879,49.065235],[1.133853,49.063446],[1.131806,49.062744],[1.130701,49.06274],[1.128234,49.06216],[1.12626,49.061565],[1.125712,49.061264],[1.125358,49.060806],[1.125634,49.060166],[1.123223,49.060013],[1.121432,49.059563],[1.120187,49.058899],[1.119168,49.058548],[1.113085,49.057335],[1.113482,49.056496],[1.1136,49.055744],[1.113782,49.054485],[1.114222,49.053478],[1.115187,49.052574],[1.115992,49.051567],[1.114887,49.051075],[1.115423,49.050217],[1.115901,49.049552],[1.116443,49.049136],[1.115584,49.048199],[1.115191,49.047177],[1.114919,49.046707],[1.114801,49.04605],[1.114844,49.045492],[1.113977,49.043981],[1.113889,49.043171],[1.112741,49.043163],[1.111883,49.043331],[1.111025,49.043671],[1.110359,49.043682],[1.10917,49.043154],[1.110021,49.041963],[1.110343,49.041375],[1.110573,49.040628],[1.110573,49.040244],[1.110815,49.039731],[1.11078,49.038767],[1.110939,49.038551],[1.111459,49.038277],[1.113494,49.037794],[1.114011,49.037839],[1.116829,49.038643],[1.117612,49.038821],[1.118295,49.038613],[1.118343,49.037712],[1.117944,49.036505],[1.118149,49.036079],[1.118964,49.035744],[1.119574,49.035687],[1.121614,49.035828],[1.123427,49.035671],[1.124071,49.035286],[1.124039,49.034851],[1.123298,49.034401],[1.122451,49.034119],[1.122256,49.033852],[1.122934,49.033344],[1.123878,49.033226],[1.124672,49.033203],[1.124918,49.032894],[1.12494,49.032101],[1.125315,49.031403],[1.125487,49.030949],[1.125895,49.030361],[1.12568,49.029369],[1.125809,49.028843],[1.125938,49.028427],[1.125734,49.027824],[1.124768,49.027309],[1.124339,49.026859],[1.124146,49.026192],[1.124092,49.025394],[1.123363,49.025776],[1.122268,49.026119],[1.119404,49.027782],[1.118599,49.028061],[1.117666,49.028252],[1.117376,49.029003],[1.116089,49.029955],[1.114297,49.030463],[1.113085,49.030805],[1.111797,49.031868],[1.110016,49.033627],[1.10963,49.033844],[1.107657,49.033046],[1.107037,49.033086],[1.106556,49.033414],[1.104459,49.034004],[1.103911,49.033936],[1.102978,49.033295],[1.102463,49.033161],[1.100918,49.033112],[1.099649,49.032928],[1.098648,49.032928],[1.097367,49.032876],[1.095385,49.033151],[1.093161,49.033592],[1.093161,49.030853],[1.09315,49.028301],[1.093537,49.027725],[1.093515,49.027527],[1.092217,49.027718],[1.091455,49.027653],[1.090297,49.027485],[1.086541,49.027435],[1.085286,49.027508],[1.082228,49.02821],[1.08049,49.028835],[1.079396,49.02887],[1.078001,49.02906],[1.076102,49.029442],[1.074858,49.029507],[1.07386,49.029377],[1.072175,49.029284],[1.070609,49.029236],[1.06944,49.029335],[1.068248,49.029341],[1.066146,49.028667],[1.065009,49.028542],[1.063077,49.027977],[1.06164,49.027725],[1.055235,49.027161],[1.050954,49.026924],[1.049023,49.027119],[1.047757,49.027443],[1.04737,49.027241],[1.047199,49.026733],[1.047467,49.026142],[1.047896,49.025608],[1.048025,49.02515],[1.048272,49.024845],[1.0481,49.023651],[1.04839,49.022991],[1.048325,49.022507],[1.047864,49.021957],[1.047671,49.020786],[1.047285,49.020317],[1.046727,49.019875],[1.046383,49.019352],[1.044677,49.017399],[1.043916,49.016869],[1.043583,49.016354],[1.042907,49.014576],[1.042188,49.01247],[1.042435,49.011505],[1.042564,49.01001],[1.043036,49.009354],[1.043744,49.008503],[1.043959,49.006855],[1.043723,49.006149],[1.043712,49.00523],[1.043637,49.003742],[1.044281,49.001308],[1.044838,48.999851],[1.044023,48.99836],[1.043551,48.997895],[1.041969,48.996779],[1.040955,48.993279],[1.040128,48.992455],[1.038616,48.991398],[1.035697,48.989532],[1.036792,48.988941],[1.037253,48.98859],[1.038133,48.988026],[1.038498,48.987934],[1.037575,48.987358],[1.037307,48.986927],[1.036985,48.985546],[1.03647,48.984539],[1.036148,48.983963],[1.036566,48.982887],[1.036588,48.982049],[1.03765,48.979958],[1.039131,48.978007],[1.038444,48.976851],[1.037521,48.975837],[1.03632,48.974801],[1.0347,48.97327],[1.033166,48.972583],[1.03367,48.972443],[1.034099,48.972133],[1.034442,48.971253],[1.035129,48.970188],[1.035483,48.969603],[1.035741,48.968556],[1.035654,48.968118],[1.034775,48.967794],[1.033326,48.967731],[1.032618,48.967709],[1.032028,48.967525],[1.031717,48.967243],[1.029421,48.967598],[1.027222,48.968063],[1.024786,48.968464],[1.02366,48.968891],[1.022866,48.968899],[1.022995,48.968582],[1.023756,48.967491],[1.023788,48.96711],[1.023209,48.966427],[1.023037,48.966091],[1.022501,48.965908],[1.021085,48.965984],[1.019411,48.96645],[1.018585,48.966591],[1.018049,48.966408],[1.017791,48.966196],[1.017587,48.965179],[1.016879,48.966499],[1.0163,48.96661],[1.015656,48.966892],[1.014991,48.966827],[1.014615,48.96656],[1.014379,48.966209],[1.013972,48.966152],[1.012051,48.966408],[1.011032,48.966259],[1.009208,48.966202],[1.007985,48.966915],[1.007148,48.967572],[1.00732,48.967674],[1.006719,48.968189],[1.006815,48.969569],[1.007041,48.970344],[1.007094,48.971958],[1.006547,48.972885],[1.006279,48.973534],[1.006311,48.974106],[1.00644,48.97464],[1.006397,48.974998],[1.004745,48.974697],[1.001955,48.974949],[1.001569,48.975697],[1.002202,48.976589],[1.002395,48.977047],[1.003307,48.977589],[1.00367,48.978688],[1.002769,48.97878],[0.999686,48.979305],[0.997543,48.979568],[0.996333,48.979195],[0.994735,48.978859],[0.99424,48.978438],[0.992939,48.978241],[0.990937,48.978378],[0.988877,48.978401],[0.987943,48.978485],[0.987257,48.978825],[0.986152,48.978745],[0.985036,48.978928],[0.985014,48.978928],[0.983877,48.979],[0.982933,48.978992],[0.982139,48.979195],[0.979747,48.980419],[0.97936,48.981598],[0.978802,48.982216],[0.978802,48.982758],[0.978523,48.98299],[0.977408,48.983166],[0.976979,48.98283],[0.976743,48.982372],[0.976281,48.982216],[0.977129,48.981514],[0.977204,48.980329],[0.977805,48.979309],[0.977944,48.978352],[0.978245,48.977604],[0.978234,48.977005],[0.978727,48.976074],[0.979371,48.975548],[0.980026,48.975288],[0.979543,48.975197],[0.978996,48.97514],[0.978717,48.974949],[0.978599,48.974514],[0.979629,48.974438],[0.979704,48.973999],[0.979875,48.973648],[0.97876,48.973442],[0.978405,48.973476],[0.977923,48.973839],[0.976506,48.974342],[0.97567,48.974978],[0.974715,48.975372],[0.975069,48.975945],[0.974189,48.977471],[0.973919,48.977466],[0.973384,48.977795],[0.972944,48.977596],[0.972623,48.977543],[0.971657,48.976914],[0.971076,48.976691],[0.969795,48.977348],[0.969294,48.977308],[0.968433,48.976822],[0.967853,48.976809],[0.967473,48.976646],[0.967752,48.976311],[0.96758,48.975929],[0.965713,48.974342],[0.965059,48.973907],[0.963396,48.972054],[0.962602,48.970512],[0.961411,48.969746],[0.958793,48.969307],[0.957667,48.968533],[0.957291,48.968109],[0.956701,48.967622],[0.956068,48.965908],[0.955435,48.964352],[0.95463,48.963745],[0.954201,48.962955],[0.953257,48.962173],[0.951895,48.961548],[0.949824,48.961067],[0.94741,48.960686],[0.945232,48.960983],[0.944663,48.961323],[0.942732,48.962407],[0.941702,48.962788],[0.942142,48.961039],[0.94248,48.960381],[0.94178,48.960446],[0.941209,48.960709],[0.940876,48.960526],[0.939803,48.960545],[0.939073,48.960682],[0.938945,48.960469],[0.936113,48.960335],[0.932336,48.959526],[0.931215,48.959657],[0.929833,48.959986],[0.927911,48.960367],[0.925669,48.962076],[0.923721,48.961784],[0.92136,48.962921],[0.920362,48.963207],[0.919611,48.963238],[0.917423,48.96204],[0.916468,48.960316],[0.91576,48.95982],[0.915213,48.958885],[0.913217,48.953564],[0.913689,48.952763],[0.91459,48.950943],[0.910524,48.947407],[0.91193,48.939613],[0.912917,48.934088],[0.909977,48.932945],[0.909355,48.932861],[0.908303,48.932156],[0.908153,48.931789],[0.907392,48.931168],[0.907531,48.930717],[0.903862,48.929507],[0.904119,48.928295],[0.903583,48.926842],[0.904355,48.925613],[0.904484,48.924969],[0.903776,48.923161],[0.903426,48.921955],[0.904087,48.921521],[0.902665,48.920534],[0.901904,48.919863],[0.901544,48.919384],[0.90075,48.918934],[0.900364,48.919018],[0.899785,48.918861],[0.899635,48.918582],[0.897252,48.917873],[0.897179,48.917337],[0.896748,48.916744],[0.8956,48.915757],[0.897038,48.915209],[0.896029,48.914249],[0.894592,48.912289],[0.894184,48.911545],[0.89427,48.910625],[0.894914,48.908989],[0.894806,48.908466],[0.893841,48.906845],[0.893176,48.906311],[0.893068,48.905437],[0.892639,48.904549],[0.892897,48.903702],[0.893819,48.903179],[0.893736,48.902902],[0.893916,48.902521],[0.894485,48.901939],[0.894978,48.90184],[0.895,48.900936],[0.896502,48.898567],[0.89678,48.897888],[0.896888,48.896408],[0.898261,48.893873],[0.89942,48.891216],[0.9003,48.889694],[0.900064,48.887451],[0.900663,48.88637],[0.899722,48.885225],[0.898841,48.883961],[0.898068,48.8811],[0.888584,48.873989],[0.879056,48.866577],[0.890171,48.857347],[0.892682,48.855793],[0.894957,48.85331],[0.897081,48.850624],[0.898301,48.849706],[0.901845,48.846081],[0.904634,48.844131],[0.905836,48.843098],[0.906994,48.841717],[0.90914,48.839653],[0.910685,48.838876],[0.91296,48.836559],[0.912423,48.836333],[0.912777,48.835797],[0.912423,48.835684],[0.91238,48.834641],[0.912702,48.833694],[0.912702,48.832661],[0.913156,48.831825],[0.913256,48.831404],[0.913582,48.830005],[0.913153,48.829033],[0.913475,48.827084],[0.914397,48.824905],[0.914698,48.823181],[0.914912,48.822182],[0.914741,48.821148],[0.919247,48.821573],[0.919419,48.820548],[0.919741,48.820488],[0.919805,48.819382],[0.920405,48.81889],[0.922186,48.818279],[0.922723,48.818409],[0.924007,48.820068],[0.924568,48.820145],[0.925298,48.819794],[0.926607,48.820061],[0.929739,48.818127],[0.930727,48.817348],[0.935812,48.814693],[0.936434,48.81219],[0.936745,48.81193],[0.937121,48.81109],[0.938301,48.810268],[0.938803,48.80964],[0.939383,48.809416],[0.940424,48.809245],[0.939463,48.80724],[0.937979,48.807384],[0.938623,48.806595],[0.938859,48.806015],[0.939984,48.8043],[0.940425,48.802822],[0.942271,48.802738],[0.943022,48.802441],[0.942636,48.801167],[0.946734,48.795033],[0.948,48.795685],[0.949717,48.792164],[0.953043,48.789223],[0.952437,48.788883],[0.950595,48.788263],[0.949714,48.787867],[0.947807,48.786469],[0.946712,48.785126],[0.944931,48.784262],[0.943923,48.781349],[0.944148,48.780994],[0.944159,48.780628],[0.94476,48.78019],[0.945597,48.779327],[0.946326,48.779213],[0.946991,48.779279],[0.949033,48.777591],[0.949395,48.777531],[0.948451,48.776726],[0.947785,48.775864],[0.946476,48.775425],[0.942721,48.77483],[0.940576,48.774235],[0.939031,48.773247],[0.937982,48.772049],[0.936627,48.767944],[0.936584,48.767094],[0.936134,48.766399],[0.936584,48.763798],[0.935855,48.762032],[0.935683,48.76046],[0.935759,48.758483],[0.935833,48.757603],[0.935662,48.756641],[0.936134,48.755424],[0.936863,48.753983],[0.93667,48.752949],[0.934919,48.750973],[0.934803,48.750359],[0.934218,48.749864],[0.934358,48.749349],[0.934318,48.74894],[0.934518,48.74824],[0.934858,48.747633],[0.935459,48.746933],[0.935276,48.746468],[0.934117,48.745918],[0.933797,48.745455],[0.933297,48.744214],[0.933257,48.743012],[0.933477,48.742708],[0.934031,48.742523],[0.933537,48.740868],[0.931335,48.740279],[0.929373,48.740279]]],"type":"MultiLineString"},"properties":{"geo_point":{"lon":1.0494882170906321,"lat":49.04236476715605},"name":"GR222 De Pont-de-l'Arche à Verneuil-sur-Avre (Eure) (2019)","code_gr":"GR222"}}]}