{"type":"FeatureCollection","features":[{"type":"Feature","geometry":{"coordinates":[[[-0.979028,49.035069],[-0.977011,49.032958],[-0.981581,49.031397],[-0.98362,49.032072],[-0.983598,49.032311],[-0.984328,49.032368],[-0.984178,49.033212],[-0.983984,49.033577],[-0.986195,49.033985],[-0.98613,49.034126],[-0.985615,49.034478],[-0.985465,49.034787],[-0.985701,49.034998],[-0.985465,49.035364],[-0.985787,49.035477],[-0.986774,49.035519],[-0.987418,49.03587],[-0.988212,49.035983],[-0.989928,49.036602],[-0.990829,49.036644],[-0.990872,49.037024],[-0.991216,49.037165],[-0.991688,49.037151],[-0.991988,49.036883],[-0.992439,49.036714],[-0.993233,49.03656],[-0.99364,49.036391],[-0.994928,49.036222],[-0.996838,49.036307],[-0.997074,49.035842],[-0.998002,49.035875],[-0.997881,49.035586],[-0.998342,49.035711],[-0.999803,49.035383],[-1.001445,49.0351],[-1.002086,49.035127],[-1.004004,49.035673],[-1.005421,49.036278],[-1.005828,49.036152],[-1.006472,49.035744],[-1.007051,49.035561],[-1.007931,49.035716],[-1.008768,49.035772],[-1.00894,49.035392],[-1.009412,49.034618],[-1.009305,49.034253],[-1.008897,49.034028],[-1.00806,49.033718],[-1.007845,49.033324],[-1.007824,49.032944],[-1.007695,49.032719],[-1.00791,49.032607],[-1.00806,49.03203],[-1.008554,49.031158],[-1.008832,49.029948],[-1.009004,49.029483],[-1.008511,49.029244],[-1.008039,49.028893],[-1.008017,49.02871],[-1.008511,49.028386],[-1.009626,49.02788],[-1.00997,49.027598],[-1.010227,49.027246],[-1.007288,49.026684],[-1.005614,49.026247],[-1.007953,49.025713],[-1.010313,49.025769],[-1.011837,49.025727],[-1.013789,49.025614],[-1.01512,49.025403],[-1.017265,49.025502],[-1.019626,49.025671],[-1.021943,49.025924],[-1.024196,49.026473],[-1.025999,49.027331],[-1.026342,49.027401],[-1.027071,49.027415],[-1.02778,49.027612],[-1.02838,49.027486],[-1.029046,49.027626],[-1.029196,49.02795],[-1.029539,49.028091],[-1.029797,49.028062],[-1.029882,49.027851],[-1.030226,49.027514],[-1.031063,49.027148],[-1.030934,49.026866],[-1.032007,49.026121],[-1.033165,49.025614],[-1.033401,49.025375],[-1.03411,49.02522],[-1.035054,49.024883],[-1.035612,49.024925],[-1.036878,49.02446],[-1.036234,49.023387],[-1.035429,49.021818],[-1.03559,49.020627],[-1.03467,49.018772],[-1.036832,49.018078],[-1.037567,49.017761],[-1.038487,49.017776],[-1.039913,49.018229],[-1.040465,49.018696],[-1.039957,49.017293],[-1.039941,49.016792],[-1.039762,49.016514],[-1.040071,49.016301],[-1.040087,49.016066],[-1.039941,49.015842],[-1.039534,49.014371],[-1.039323,49.014019],[-1.03916,49.013624],[-1.038656,49.01292],[-1.038575,49.012408],[-1.039095,49.012088],[-1.039713,49.011992],[-1.040217,49.011661],[-1.042185,49.010829],[-1.042917,49.010648],[-1.043144,49.010179],[-1.043209,49.009699],[-1.043226,49.008931],[-1.043356,49.0086],[-1.043892,49.008536],[-1.044754,49.008685],[-1.045941,49.008781],[-1.047128,49.008995],[-1.048852,49.009112],[-1.04973,49.009091],[-1.051324,49.008707],[-1.051454,49.008835],[-1.051503,49.009048],[-1.051779,49.009304],[-1.052186,49.009357],[-1.053048,49.009208],[-1.05321,49.009517],[-1.053731,49.009859],[-1.054332,49.01004],[-1.054804,49.010125],[-1.054934,49.010296],[-1.054723,49.010904],[-1.055454,49.01084],[-1.055991,49.010637],[-1.056365,49.010104],[-1.057113,49.008515],[-1.057601,49.007117],[-1.058609,49.007459],[-1.059,49.006648],[-1.059487,49.006061],[-1.059959,49.004685],[-1.060658,49.004845],[-1.061374,49.004888],[-1.061406,49.00461],[-1.061406,49.004269],[-1.061732,49.003725],[-1.06235,49.003096],[-1.063179,49.00221],[-1.063748,49.001773],[-1.063309,49.001581],[-1.06326,49.001357],[-1.063764,49.000268],[-1.064317,48.999404],[-1.064886,48.998786],[-1.065504,48.998508],[-1.066269,48.997953],[-1.066903,48.997228],[-1.067082,48.996929],[-1.067488,48.996545],[-1.067537,48.99615],[-1.067895,48.995777],[-1.068041,48.995371],[-1.069261,48.99472],[-1.070204,48.994304],[-1.070659,48.994176],[-1.070244,48.992925],[-1.070062,48.992566],[-1.069547,48.991081],[-1.069354,48.99013],[-1.068935,48.989617],[-1.068581,48.989314],[-1.068379,48.988664],[-1.068626,48.988348],[-1.068365,48.988455],[-1.06845,48.988237],[-1.06811,48.988506],[-1.067862,48.988399],[-1.067699,48.988292],[-1.067423,48.988153],[-1.066984,48.987442],[-1.066906,48.987247],[-1.066892,48.987024],[-1.066751,48.986852],[-1.067342,48.985597],[-1.067456,48.984989],[-1.067374,48.984551],[-1.066919,48.983516],[-1.066691,48.982854],[-1.066756,48.982609],[-1.066382,48.982502],[-1.065277,48.980816],[-1.066269,48.980431],[-1.066578,48.980239],[-1.067472,48.979908],[-1.065878,48.978094],[-1.064057,48.978638],[-1.063634,48.977817],[-1.062675,48.976781],[-1.061862,48.975362],[-1.061195,48.97486],[-1.059618,48.973387],[-1.059502,48.973177],[-1.059509,48.972788],[-1.059031,48.972863],[-1.058682,48.972883],[-1.057787,48.973431],[-1.056982,48.974164],[-1.055884,48.974828],[-1.054751,48.975011],[-1.054682,48.97453],[-1.054786,48.97405],[-1.054403,48.973421],[-1.054403,48.972826],[-1.054682,48.972322],[-1.05449,48.971945],[-1.054891,48.971796],[-1.055309,48.970412],[-1.056093,48.968924],[-1.056163,48.968249],[-1.056303,48.967757],[-1.056215,48.967196],[-1.055675,48.966865],[-1.054856,48.96659],[-1.053235,48.96667],[-1.05273,48.966636],[-1.053008,48.966384],[-1.053584,48.966258],[-1.055884,48.966144],[-1.05639,48.965915],[-1.056878,48.964359],[-1.056808,48.963317],[-1.05686,48.96294],[-1.057017,48.962677],[-1.057035,48.962276],[-1.056198,48.961201],[-1.055205,48.960445],[-1.05442,48.960354],[-1.053636,48.960388],[-1.052538,48.960605],[-1.051719,48.960548],[-1.051126,48.960651],[-1.050795,48.960583],[-1.051353,48.960136],[-1.051144,48.959553],[-1.052067,48.959358],[-1.052799,48.958946],[-1.053392,48.958786],[-1.053322,48.958546],[-1.053793,48.958454],[-1.05395,48.958156],[-1.054019,48.957893],[-1.054298,48.95763],[-1.056198,48.958214],[-1.056093,48.95731],[-1.055937,48.957035],[-1.055937,48.956818],[-1.055797,48.956142],[-1.055867,48.955467],[-1.055536,48.955089],[-1.055501,48.954448],[-1.055344,48.953796],[-1.055344,48.953155],[-1.055048,48.952308],[-1.054298,48.951553],[-1.053392,48.950752],[-1.053462,48.949996],[-1.054054,48.948783],[-1.054246,48.947764],[-1.054281,48.947261],[-1.05395,48.94623],[-1.053862,48.945234],[-1.053148,48.943998],[-1.052904,48.942727],[-1.051475,48.941663],[-1.050446,48.941583],[-1.050115,48.941422],[-1.049453,48.940701],[-1.048825,48.940449],[-1.044277,48.93911],[-1.042272,48.938286],[-1.041,48.937839],[-1.039797,48.937564],[-1.038438,48.93737],[-1.037828,48.937152],[-1.036277,48.936053],[-1.035423,48.936133],[-1.034185,48.936248],[-1.033366,48.936557],[-1.031135,48.936179],[-1.030368,48.935721],[-1.029288,48.935435],[-1.028294,48.935481],[-1.026778,48.935858],[-1.025122,48.936019],[-1.024704,48.935813],[-1.023902,48.935091],[-1.022595,48.934015],[-1.019353,48.932206],[-1.016285,48.930614],[-1.016024,48.930282],[-1.016041,48.929527],[-1.015954,48.928759],[-1.015257,48.927923],[-1.014577,48.92758],[-1.01402,48.927122],[-1.01341,48.926149],[-1.012713,48.925381],[-1.012155,48.924385],[-1.01205,48.923858],[-1.012137,48.923045],[-1.011515,48.922364],[-1.01083,48.922175],[-1.010673,48.921969],[-1.010098,48.921728],[-1.009052,48.921946],[-1.007658,48.922415],[-1.004068,48.923217],[-0.999383,48.923903],[-0.998132,48.924186],[-0.996264,48.924677],[-0.993649,48.925352],[-0.992584,48.925573],[-0.991949,48.92583],[-0.991351,48.925867],[-0.990436,48.925843],[-0.989371,48.925965],[-0.987391,48.925818],[-0.985784,48.926076],[-0.984813,48.925916],[-0.983972,48.925916],[-0.982739,48.926407],[-0.981544,48.926591],[-0.979228,48.926653],[-0.977957,48.926628],[-0.976837,48.926984],[-0.974333,48.927598],[-0.956868,48.930654],[-0.954495,48.931513],[-0.95315,48.932163],[-0.952086,48.932323],[-0.949452,48.932985],[-0.948368,48.933022],[-0.948032,48.932666],[-0.947901,48.9322],[-0.947901,48.931672],[-0.94736,48.930911],[-0.946967,48.929512],[-0.94637,48.928003],[-0.944277,48.928027],[-0.944035,48.928506],[-0.944315,48.928727],[-0.944277,48.929058],[-0.94396,48.929181],[-0.942615,48.929291],[-0.938804,48.930838],[-0.937627,48.931463],[-0.937198,48.931856],[-0.936058,48.932077],[-0.935404,48.931918],[-0.93462,48.931832],[-0.933256,48.932372],[-0.932191,48.932642],[-0.93122,48.932764],[-0.92995,48.932801],[-0.928848,48.932507],[-0.926195,48.9322],[-0.92401,48.932102],[-0.923785,48.930727],[-0.923206,48.929402],[-0.922609,48.929279],[-0.92018,48.929561],[-0.919209,48.929451],[-0.917565,48.929758],[-0.917098,48.930077],[-0.918891,48.933807],[-0.912503,48.934679],[-0.911755,48.9349],[-0.910878,48.935427],[-0.911812,48.935943],[-0.912409,48.935722],[-0.913082,48.93582],[-0.913511,48.936495],[-0.914016,48.936765],[-0.914053,48.938078],[-0.914221,48.938176],[-0.915398,48.938041],[-0.915902,48.938397],[-0.916071,48.939022],[-0.916145,48.939427],[-0.916799,48.940102],[-0.917714,48.940802],[-0.918312,48.941415],[-0.918462,48.942188],[-0.918387,48.942568],[-0.917901,48.942937],[-0.916444,48.944347],[-0.916127,48.944924],[-0.915846,48.945611],[-0.915604,48.945857],[-0.913829,48.945734],[-0.911569,48.945869],[-0.909477,48.945648],[-0.907739,48.945464],[-0.906656,48.945587],[-0.905105,48.946041],[-0.904489,48.946225],[-0.90391,48.946507],[-0.903387,48.946593],[-0.902864,48.946875],[-0.90094,48.947378],[-0.899894,48.947942],[-0.898343,48.948911],[-0.897335,48.94923],[-0.896531,48.949279],[-0.896046,48.948703],[-0.895224,48.948887],[-0.893617,48.949831],[-0.893113,48.949427],[-0.891618,48.948948],[-0.889377,48.948568],[-0.889452,48.948776],[-0.887005,48.949046],[-0.884315,48.949046],[-0.882988,48.948224],[-0.881195,48.947451],[-0.879402,48.946838],[-0.878748,48.946985],[-0.877814,48.947783],[-0.876749,48.948641],[-0.875199,48.949328],[-0.873798,48.949439],[-0.873219,48.949598],[-0.871537,48.949377],[-0.870267,48.9495],[-0.869838,48.949635],[-0.869371,48.949672],[-0.868455,48.950126],[-0.866513,48.951095],[-0.86556,48.951365],[-0.864757,48.951684],[-0.86457,48.951414],[-0.863972,48.951291],[-0.863542,48.950604],[-0.863673,48.950482],[-0.862739,48.950531],[-0.862945,48.950212],[-0.862216,48.950371],[-0.862777,48.950015],[-0.862366,48.949083],[-0.862328,48.947034],[-0.862123,48.946335],[-0.861245,48.945022],[-0.860572,48.944556],[-0.859601,48.9442],[-0.858592,48.943808],[-0.858293,48.94382],[-0.858088,48.942912],[-0.858331,48.94236],[-0.858163,48.941489],[-0.85409,48.941526],[-0.845946,48.938863],[-0.843816,48.941967],[-0.843349,48.942164],[-0.842826,48.942164],[-0.843032,48.941734],[-0.842938,48.941305],[-0.842453,48.940851],[-0.841911,48.94063],[-0.840921,48.940544],[-0.840118,48.940691],[-0.838212,48.940814],[-0.838082,48.940507],[-0.837783,48.940249],[-0.837652,48.940065],[-0.837129,48.940029],[-0.833729,48.938667],[-0.826014,48.938384],[-0.825715,48.938274],[-0.824875,48.938434],[-0.820541,48.938753],[-0.819196,48.938765],[-0.816245,48.938568],[-0.813405,48.938421],[-0.810846,48.938016],[-0.809744,48.937771],[-0.807857,48.937759],[-0.806681,48.937967],[-0.805466,48.937967],[-0.804047,48.938151],[-0.802739,48.938409],[-0.801656,48.938458],[-0.800778,48.938679],[-0.800049,48.939084],[-0.799526,48.939746],[-0.79891,48.939796],[-0.798816,48.939955],[-0.798368,48.940446],[-0.798275,48.940802],[-0.797976,48.940838],[-0.797714,48.939881],[-0.797882,48.939317],[-0.798499,48.938728],[-0.798742,48.938127],[-0.798966,48.936556],[-0.79876,48.935464],[-0.798349,48.93539],[-0.797378,48.935329],[-0.796743,48.93555],[-0.795921,48.935624],[-0.795771,48.935992],[-0.796332,48.936875],[-0.796332,48.937194],[-0.795865,48.937562],[-0.795622,48.937489],[-0.795304,48.937084],[-0.795062,48.936961],[-0.791157,48.936863],[-0.788673,48.936127],[-0.78716,48.935746],[-0.785441,48.935538],[-0.783667,48.93555],[-0.783069,48.935378],[-0.781425,48.935415],[-0.778567,48.935292],[-0.777484,48.935108],[-0.776643,48.934801],[-0.775952,48.934801],[-0.774925,48.934409],[-0.773131,48.934421],[-0.77244,48.934311],[-0.770722,48.934482],[-0.768218,48.934519],[-0.766743,48.934507],[-0.765734,48.934347],[-0.76084,48.933893],[-0.76013,48.933771],[-0.759458,48.934102],[-0.75744,48.934458],[-0.754414,48.934679],[-0.753499,48.93485],[-0.752994,48.935084],[-0.752378,48.935145],[-0.750547,48.935096],[-0.74767,48.934715],[-0.745223,48.934409],[-0.742907,48.934249],[-0.740273,48.934249],[-0.738218,48.934126],[-0.73749,48.934114],[-0.736743,48.934028],[-0.73452,48.933587],[-0.732969,48.933501],[-0.731774,48.933464],[-0.730802,48.93355],[-0.728318,48.933623],[-0.726749,48.933537],[-0.720883,48.932961],[-0.716438,48.932666],[-0.712702,48.932372],[-0.708872,48.93193],[-0.708536,48.931635],[-0.70706,48.930862],[-0.705846,48.930261],[-0.702521,48.929966],[-0.700149,48.929598],[-0.698972,48.929782],[-0.697888,48.929254],[-0.695142,48.928334],[-0.694433,48.928174],[-0.694022,48.927941],[-0.690566,48.926419],[-0.690286,48.925855],[-0.689352,48.924713],[-0.688511,48.924235],[-0.686886,48.922615],[-0.685952,48.922283],[-0.685429,48.921657],[-0.684831,48.921252],[-0.684569,48.920896],[-0.682552,48.920872],[-0.68216,48.920626],[-0.681282,48.920712],[-0.680198,48.92124],[-0.68018,48.921461],[-0.680423,48.922124],[-0.680553,48.92286],[-0.680479,48.923609],[-0.680946,48.924357],[-0.681132,48.924983],[-0.680983,48.925352],[-0.679601,48.926419],[-0.679489,48.926849],[-0.677919,48.928039],[-0.677172,48.928444],[-0.675734,48.929095],[-0.674538,48.92961],[-0.673081,48.929929],[-0.672951,48.929709],[-0.671251,48.929672],[-0.670429,48.929169],[-0.669719,48.928972],[-0.669177,48.929046],[-0.667851,48.929439],[-0.666394,48.92977],[-0.665777,48.929794],[-0.665516,48.930015],[-0.665105,48.929991],[-0.664171,48.929623],[-0.663237,48.929365],[-0.662527,48.929426],[-0.661051,48.929353],[-0.660696,48.929954],[-0.659744,48.929819],[-0.658791,48.929561],[-0.657297,48.928997],[-0.655466,48.928494],[-0.655578,48.927806],[-0.655952,48.927303],[-0.655597,48.926591],[-0.656045,48.925376],[-0.656008,48.924615],[-0.656101,48.923744],[-0.655615,48.923069],[-0.655933,48.922295],[-0.656325,48.921841],[-0.656325,48.921228],[-0.655373,48.92124],[-0.654364,48.921498],[-0.653785,48.921547],[-0.652515,48.921485],[-0.650703,48.92108],[-0.64975,48.920994],[-0.647676,48.920491],[-0.645752,48.920295],[-0.643231,48.919779],[-0.641774,48.918539],[-0.641269,48.918257],[-0.640559,48.918122],[-0.640167,48.918159],[-0.639831,48.918269],[-0.638579,48.917656],[-0.638056,48.917975],[-0.637459,48.918024],[-0.636693,48.917877],[-0.636263,48.917987],[-0.634414,48.917754],[-0.633797,48.917741],[-0.633592,48.917913],[-0.633461,48.918306],[-0.633162,48.918613],[-0.633031,48.918944],[-0.632695,48.919215],[-0.632266,48.920319],[-0.631444,48.921166],[-0.631107,48.922001],[-0.630902,48.92329],[-0.629968,48.924333],[-0.628828,48.924198],[-0.627708,48.923916],[-0.627539,48.923486],[-0.626867,48.923253],[-0.626662,48.923007],[-0.626736,48.922615],[-0.626549,48.922271],[-0.626493,48.921915],[-0.625653,48.92216],[-0.625989,48.921203],[-0.626549,48.920614],[-0.625018,48.919841],[-0.624308,48.919546],[-0.622963,48.920614],[-0.621058,48.921399],[-0.618741,48.920467],[-0.617957,48.919988],[-0.617434,48.919767],[-0.617116,48.919472],[-0.616705,48.919276],[-0.616257,48.918834],[-0.616163,48.918564],[-0.616201,48.918196],[-0.61551,48.918318],[-0.613604,48.918245],[-0.611811,48.917803],[-0.610578,48.917324],[-0.610578,48.917017],[-0.609252,48.915716],[-0.608056,48.915397],[-0.607813,48.915029],[-0.607216,48.914464],[-0.606693,48.913113],[-0.606188,48.912807],[-0.604769,48.912426],[-0.603835,48.910658],[-0.603386,48.910363],[-0.602004,48.91002],[-0.601462,48.910007],[-0.600566,48.910634],[-0.600267,48.910695],[-0.59989,48.910653],[-0.599529,48.910482],[-0.598989,48.910416],[-0.598857,48.910625],[-0.598208,48.91039],[-0.598168,48.910522],[-0.597667,48.910732],[-0.597387,48.911048],[-0.596646,48.911258],[-0.595966,48.911206],[-0.596866,48.910706],[-0.597067,48.910232],[-0.597047,48.909679],[-0.596866,48.908943],[-0.595885,48.905811],[-0.595225,48.902836],[-0.595225,48.901639],[-0.596026,48.901481],[-0.596266,48.901205],[-0.594344,48.900823],[-0.593363,48.900454],[-0.592182,48.900362],[-0.592081,48.899836],[-0.591521,48.899323],[-0.59092,48.899059],[-0.589999,48.899283],[-0.589419,48.899546],[-0.588798,48.900033],[-0.587997,48.900336],[-0.587457,48.900428],[-0.587617,48.900112],[-0.587897,48.899849],[-0.588738,48.89873],[-0.589118,48.897835],[-0.589239,48.897427],[-0.589559,48.896914],[-0.587597,48.896098],[-0.587196,48.896967],[-0.587216,48.897954],[-0.587136,48.899125],[-0.586836,48.899494],[-0.586275,48.899678],[-0.585355,48.899704],[-0.584153,48.899981],[-0.582952,48.900204],[-0.582532,48.899994],[-0.582271,48.899731],[-0.581871,48.899533],[-0.58107,48.899415],[-0.580149,48.898796],[-0.579749,48.897704],[-0.579268,48.897322],[-0.577466,48.896861],[-0.576405,48.89648],[-0.575404,48.895914],[-0.574764,48.895242],[-0.574163,48.894887],[-0.573983,48.894874],[-0.573702,48.893873],[-0.573943,48.89336],[-0.573222,48.89261],[-0.572521,48.892083],[-0.572001,48.891899],[-0.57174,48.891043],[-0.5717,48.890082],[-0.571921,48.889345],[-0.572421,48.888569],[-0.572621,48.887766],[-0.572561,48.887028],[-0.572741,48.886462],[-0.572982,48.886225],[-0.573382,48.886041],[-0.573963,48.885909],[-0.574263,48.885672],[-0.573923,48.885225],[-0.573402,48.884961],[-0.572822,48.884488],[-0.572101,48.884053],[-0.57178,48.88375],[-0.571961,48.883434],[-0.572341,48.883158],[-0.572221,48.882618],[-0.572321,48.882012],[-0.5718,48.881104],[-0.57084,48.880433],[-0.569678,48.879287],[-0.567556,48.880209],[-0.566395,48.880985],[-0.564933,48.88092],[-0.56159,48.880946],[-0.560369,48.881249],[-0.558647,48.881209],[-0.557706,48.881157],[-0.556845,48.881249],[-0.555023,48.881578],[-0.553522,48.881736],[-0.552501,48.881986],[-0.551059,48.882486],[-0.550639,48.881078],[-0.549718,48.87984],[-0.549878,48.878971],[-0.549858,48.878142],[-0.550318,48.877523],[-0.550739,48.875469],[-0.550478,48.874613],[-0.550759,48.874204],[-0.551259,48.872558],[-0.55214,48.87057],[-0.552841,48.869754],[-0.550278,48.869214],[-0.546795,48.867936],[-0.545233,48.867739],[-0.544973,48.867264],[-0.543972,48.867185],[-0.543171,48.866869],[-0.542871,48.866474],[-0.54217,48.864683],[-0.541609,48.864104],[-0.541189,48.863985],[-0.541009,48.863814],[-0.541249,48.863682],[-0.54239,48.862721],[-0.542991,48.862273],[-0.543892,48.861048],[-0.544753,48.859388],[-0.545193,48.858835],[-0.545333,48.857953],[-0.545513,48.856095],[-0.545934,48.853856],[-0.545393,48.853474],[-0.544853,48.853816],[-0.544492,48.853434],[-0.544112,48.853579],[-0.543151,48.853724],[-0.541029,48.854356],[-0.539827,48.854936],[-0.538626,48.855213],[-0.537105,48.855726],[-0.536644,48.85595],[-0.536224,48.856306],[-0.535523,48.856596],[-0.534882,48.85707],[-0.534101,48.857268],[-0.533281,48.857307],[-0.530458,48.857413],[-0.528336,48.857808],[-0.527174,48.858137],[-0.523931,48.858242],[-0.52347,48.857426],[-0.52339,48.857004],[-0.52313,48.856596],[-0.522309,48.856754],[-0.521769,48.857136],[-0.521769,48.857716],[-0.522129,48.858216],[-0.522129,48.858466],[-0.521829,48.858624],[-0.521368,48.859046],[-0.520427,48.859441],[-0.519967,48.859863],[-0.519386,48.8606],[-0.518625,48.860995],[-0.517624,48.861272],[-0.516183,48.861944],[-0.515863,48.861509],[-0.514281,48.86085],[-0.513921,48.860587],[-0.51342,48.860508],[-0.511919,48.860547],[-0.511598,48.860376],[-0.510998,48.859731],[-0.509836,48.859336],[-0.509916,48.858782],[-0.509256,48.856886],[-0.508815,48.855858],[-0.508555,48.855121],[-0.508335,48.854883],[-0.506313,48.853421],[-0.505532,48.85325],[-0.504811,48.853263],[-0.50397,48.853434],[-0.499966,48.856214],[-0.499245,48.856859],[-0.498525,48.85765],[-0.497884,48.858242],[-0.498264,48.85902],[-0.499746,48.860179],[-0.500407,48.860442],[-0.500447,48.860771],[-0.500126,48.861351],[-0.499786,48.862181],[-0.500066,48.862984],[-0.499346,48.862958],[-0.498324,48.8633],[-0.497424,48.863774],[-0.496322,48.864854],[-0.495181,48.865618],[-0.492859,48.865763],[-0.491778,48.866079],[-0.490436,48.865961],[-0.488875,48.865934],[-0.487794,48.865776],[-0.487673,48.866422],[-0.488034,48.866869],[-0.489115,48.867199],[-0.489395,48.86762],[-0.489295,48.868963],[-0.489115,48.869411],[-0.481827,48.870096],[-0.480466,48.870465],[-0.479425,48.870715],[-0.478344,48.871018],[-0.476962,48.871163],[-0.475201,48.871255],[-0.4742,48.871202],[-0.473319,48.871084],[-0.472578,48.871176],[-0.472017,48.871294],[-0.471817,48.871189],[-0.472017,48.870873],[-0.471857,48.87053],[-0.471096,48.870425],[-0.470035,48.870689],[-0.469294,48.870636],[-0.468414,48.870715],[-0.468033,48.870926],[-0.466692,48.871057],[-0.465791,48.871518],[-0.46511,48.871768],[-0.464049,48.871926],[-0.460886,48.871966],[-0.458143,48.871084],[-0.455841,48.870886],[-0.453338,48.870451],[-0.451136,48.870544],[-0.450815,48.870649],[-0.450655,48.870847],[-0.450155,48.870794],[-0.446531,48.870952],[-0.44577,48.871202],[-0.442647,48.870899],[-0.441085,48.87053],[-0.440284,48.87007],[-0.439844,48.869622],[-0.439604,48.869108],[-0.439243,48.867686],[-0.438543,48.866869],[-0.437341,48.866277],[-0.43558,48.865855],[-0.433057,48.865631],[-0.433177,48.866132],[-0.432657,48.868094],[-0.432316,48.868884],[-0.432456,48.870346],[-0.432136,48.870557],[-0.431175,48.870899],[-0.430895,48.871334],[-0.430694,48.871953],[-0.430054,48.873006],[-0.429533,48.873151],[-0.429373,48.873375],[-0.42643,48.872545],[-0.425509,48.872361],[-0.423047,48.872098],[-0.422266,48.872084],[-0.420664,48.871887],[-0.419303,48.871861],[-0.417581,48.871979],[-0.41668,48.872005],[-0.416199,48.871966],[-0.413977,48.872229],[-0.412596,48.872532],[-0.411188,48.873543],[-0.409862,48.873862]]],"type":"MultiLineString"},"properties":{"geo_point":{"lon":-0.7877779699895261,"lat":48.93218732039322},"name":"GR221 De Torigni-sur-Vire (Manche) à Pont-d'Ouilly (Calvados) (2019)","code_gr":"GR221"}},{"type":"Feature","geometry":{"coordinates":[[[-1.444031,49.047844],[-1.443001,49.04759],[-1.442679,49.047872],[-1.442571,49.047647],[-1.441627,49.048012],[-1.441348,49.048266],[-1.440984,49.048364],[-1.440812,49.048589],[-1.440426,49.048744],[-1.440318,49.048912],[-1.439954,49.048884],[-1.439653,49.048561],[-1.438988,49.048308],[-1.437937,49.048097],[-1.436992,49.046747],[-1.437808,49.046072],[-1.437164,49.045748],[-1.435705,49.045762],[-1.43328,49.045664],[-1.431828,49.045351],[-1.43069,49.045492],[-1.430926,49.046518],[-1.42966,49.046701],[-1.425819,49.050386],[-1.421206,49.048543],[-1.419961,49.049331],[-1.418968,49.050249],[-1.418067,49.050656],[-1.416801,49.05105],[-1.415777,49.050976],[-1.414876,49.0513],[-1.413754,49.051317],[-1.412144,49.051556],[-1.411994,49.050797],[-1.413074,49.050344],[-1.412934,49.050027],[-1.412408,49.049992],[-1.412301,49.049359],[-1.413009,49.049247],[-1.412858,49.048009],[-1.413199,49.04769],[-1.412825,49.046933],[-1.412338,49.04657],[-1.411085,49.047391],[-1.410402,49.047903],[-1.408988,49.048361],[-1.408126,49.048361],[-1.407378,49.048414],[-1.40676,49.048127],[-1.405995,49.047349],[-1.405069,49.047242],[-1.405101,49.045419],[-1.404093,49.045409],[-1.402853,49.043751],[-1.397409,49.042296],[-1.395837,49.042035],[-1.394807,49.042051],[-1.393767,49.041763],[-1.393132,49.042296],[-1.392726,49.041891],[-1.391197,49.042392],[-1.390482,49.041763],[-1.389782,49.042733],[-1.389002,49.043181],[-1.3884,49.043447],[-1.38814,49.043767],[-1.386579,49.043554],[-1.38705,49.04203],[-1.386725,49.040857],[-1.383879,49.039844],[-1.383473,49.03993],[-1.382904,49.039642],[-1.382952,49.039109],[-1.382302,49.039599],[-1.381374,49.040699],[-1.380676,49.041347],[-1.379733,49.041028],[-1.377114,49.040665],[-1.374496,49.040068],[-1.372675,49.040782],[-1.372089,49.04058],[-1.371868,49.040347],[-1.372805,49.038768],[-1.372317,49.038565],[-1.371276,49.040324],[-1.370577,49.040889],[-1.370984,49.041337],[-1.370723,49.041731],[-1.368918,49.042392],[-1.36791,49.042424],[-1.366788,49.042371],[-1.365699,49.042168],[-1.366075,49.041247],[-1.365877,49.039962],[-1.363536,49.039887],[-1.363698,49.039514],[-1.361389,49.039642],[-1.360755,49.039844],[-1.360137,49.03977],[-1.357844,49.040271],[-1.353887,49.040291],[-1.352857,49.03977],[-1.35129,49.03929],[-1.350884,49.039386],[-1.350721,49.039887],[-1.349859,49.039791],[-1.349469,49.038149],[-1.349681,49.037403],[-1.349973,49.036838],[-1.348705,49.037883],[-1.347843,49.038437],[-1.347713,49.038821],[-1.347241,49.039023],[-1.346282,49.038736],[-1.345306,49.038224],[-1.344672,49.03768],[-1.344233,49.036497],[-1.34466,49.036225],[-1.344233,49.035505],[-1.342922,49.035902],[-1.342021,49.03631],[-1.340283,49.03638],[-1.339296,49.03669],[-1.338416,49.03676],[-1.337614,49.037339],[-1.337175,49.037254],[-1.336899,49.037488],[-1.335468,49.036891],[-1.333073,49.036746],[-1.333073,49.035972],[-1.332215,49.035142],[-1.331743,49.034805],[-1.331807,49.034369],[-1.332022,49.033961],[-1.331871,49.033679],[-1.33097,49.033285],[-1.330112,49.033159],[-1.330198,49.03268],[-1.330589,49.032648],[-1.330931,49.032115],[-1.328654,49.02898],[-1.325694,49.029226],[-1.323975,49.028094],[-1.322645,49.027601],[-1.322151,49.027559],[-1.32007,49.026546],[-1.319336,49.026048],[-1.317344,49.025505],[-1.316593,49.025083],[-1.315953,49.024395],[-1.31571,49.023798],[-1.31488,49.023297],[-1.31436,49.022796],[-1.313124,49.022199],[-1.311335,49.021505],[-1.306245,49.022678],[-1.305904,49.022582],[-1.303773,49.022902],[-1.302586,49.023148],[-1.301101,49.023338],[-1.29947,49.023845],[-1.29799,49.023591],[-1.297088,49.023606],[-1.295919,49.02383],[-1.295057,49.023499],[-1.294065,49.023521],[-1.293431,49.023425],[-1.291821,49.023521],[-1.290308,49.023841],[-1.289463,49.02447],[-1.289544,49.024854],[-1.288487,49.025206],[-1.288959,49.025792],[-1.28857,49.026293],[-1.286471,49.027669],[-1.285088,49.02737],[-1.284064,49.026219],[-1.28356,49.026283],[-1.282291,49.028906],[-1.281023,49.029023],[-1.279218,49.029087],[-1.276892,49.028596],[-1.274322,49.028558],[-1.272388,49.028405],[-1.272133,49.027348],[-1.27267,49.027264],[-1.272729,49.026304],[-1.273006,49.025877],[-1.272876,49.02543],[-1.272372,49.025323],[-1.27297,49.023774],[-1.270843,49.023286],[-1.269087,49.022241],[-1.267509,49.02174],[-1.268046,49.020588],[-1.268192,49.019479],[-1.268271,49.017892],[-1.268078,49.016824],[-1.267526,49.016888],[-1.265769,49.016685],[-1.264273,49.016344],[-1.26094,49.016429],[-1.256984,49.015613],[-1.256028,49.015842],[-1.254646,49.016472],[-1.253594,49.016753],[-1.252757,49.016668],[-1.250954,49.01671],[-1.247929,49.01619],[-1.246971,49.015853],[-1.245832,49.015778],[-1.244482,49.015458],[-1.243916,49.015219],[-1.243809,49.014951],[-1.242436,49.015317],[-1.240482,49.016066],[-1.239327,49.01628],[-1.235355,49.01633],[-1.233574,49.016781],[-1.232904,49.01708],[-1.232372,49.017175],[-1.231327,49.016984],[-1.230827,49.016274],[-1.230655,49.015753],[-1.229847,49.01532],[-1.228578,49.015224],[-1.228145,49.01543],[-1.227668,49.016056],[-1.225928,49.016973],[-1.225248,49.016823],[-1.224325,49.016443],[-1.223295,49.016387],[-1.221748,49.016493],[-1.219926,49.016956],[-1.219055,49.01707],[-1.217591,49.016933],[-1.217051,49.017093],[-1.216824,49.017424],[-1.216493,49.017436],[-1.215796,49.017139],[-1.215081,49.017036],[-1.213948,49.017287],[-1.213147,49.017287],[-1.212432,49.017482],[-1.210654,49.017447],[-1.210236,49.016933],[-1.209661,49.016716],[-1.208632,49.016373],[-1.208075,49.015984],[-1.207883,49.015333],[-1.207552,49.015401],[-1.207186,49.015824],[-1.207186,49.016201],[-1.208022,49.017722],[-1.206419,49.018327],[-1.206105,49.019322],[-1.205879,49.020968],[-1.205164,49.021402],[-1.204415,49.021608],[-1.204066,49.022042],[-1.203212,49.022316],[-1.202027,49.022545],[-1.202341,49.022979],[-1.200232,49.023711],[-1.199308,49.024248],[-1.199412,49.024865],[-1.198506,49.025299],[-1.197652,49.026054],[-1.196972,49.027174],[-1.196781,49.027859],[-1.197042,49.028328],[-1.197495,49.028854],[-1.19767,49.029608],[-1.198105,49.030214],[-1.198105,49.030979],[-1.198104,49.031034],[-1.198426,49.031977],[-1.198405,49.032934],[-1.198211,49.033454],[-1.197654,49.034326],[-1.197739,49.036085],[-1.197739,49.037709],[-1.197861,49.038361],[-1.197739,49.039263],[-1.197286,49.039926],[-1.196223,49.040372],[-1.19407,49.041008],[-1.194288,49.043296],[-1.194097,49.043696],[-1.192807,49.044462],[-1.191901,49.044644],[-1.191569,49.045227],[-1.190245,49.045239],[-1.190337,49.046325],[-1.191023,49.046381],[-1.191045,49.046775],[-1.191883,49.047009],[-1.191413,49.048049],[-1.18899,49.04894],[-1.189092,49.049573],[-1.189896,49.050345],[-1.191308,49.05111],[-1.191688,49.0515],[-1.192954,49.052358],[-1.193062,49.052752],[-1.19362,49.05316],[-1.194049,49.053933],[-1.194263,49.054622],[-1.194607,49.054917],[-1.195299,49.055679],[-1.195386,49.056524],[-1.196624,49.057998],[-1.196667,49.058334],[-1.196259,49.058672],[-1.193574,49.059585],[-1.193713,49.059893],[-1.193243,49.060088],[-1.193113,49.060325],[-1.192703,49.060557],[-1.193001,49.060668],[-1.193412,49.061488],[-1.194253,49.062198],[-1.195038,49.063972],[-1.197559,49.065209],[-1.197167,49.06598],[-1.200044,49.067314],[-1.200081,49.067766],[-1.200492,49.067938],[-1.201239,49.067901],[-1.201295,49.068831],[-1.202248,49.070875],[-1.202491,49.071634],[-1.202229,49.072564],[-1.202267,49.073225],[-1.202566,49.073494],[-1.203593,49.073469],[-1.203612,49.073934],[-1.202155,49.073934],[-1.193095,49.074314],[-1.19317,49.074485],[-1.192142,49.074938],[-1.192139,49.075008],[-1.192611,49.075528],[-1.192632,49.076146],[-1.192911,49.076568],[-1.192396,49.076863],[-1.192311,49.078241],[-1.191989,49.078887],[-1.191474,49.078831],[-1.190723,49.078986],[-1.188899,49.078592],[-1.188277,49.078255],[-1.187584,49.078082],[-1.18693,49.078278],[-1.186351,49.078082],[-1.184932,49.079257],[-1.18332,49.079295],[-1.183213,49.079407],[-1.182186,49.079465],[-1.182183,49.079829],[-1.180187,49.080405],[-1.17703,49.081092],[-1.177123,49.082646],[-1.177526,49.083567],[-1.177805,49.085254],[-1.177762,49.086097],[-1.175218,49.090023],[-1.17477,49.091773],[-1.173406,49.092078],[-1.17292,49.090916],[-1.171221,49.089828],[-1.169502,49.089191],[-1.167989,49.088433],[-1.16698,49.088249],[-1.165336,49.089399],[-1.164608,49.089595],[-1.164402,49.090231],[-1.1633,49.089987],[-1.163193,49.090861],[-1.162399,49.091802],[-1.160939,49.093053],[-1.160188,49.093488],[-1.160162,49.094451],[-1.159738,49.094697],[-1.158279,49.095203],[-1.156326,49.095456],[-1.1551,49.09576],[-1.152399,49.09606],[-1.150691,49.09658],[-1.150635,49.096751],[-1.149159,49.097774],[-1.147679,49.098561],[-1.149253,49.099809],[-1.149503,49.101455],[-1.148113,49.101912],[-1.146937,49.102609],[-1.145909,49.10349],[-1.140286,49.104945],[-1.137914,49.102059],[-1.135486,49.102499],[-1.134795,49.102059],[-1.133898,49.102389],[-1.133109,49.102312],[-1.132508,49.102045],[-1.132336,49.102326],[-1.131824,49.102292],[-1.132315,49.102803],[-1.131245,49.105324],[-1.130648,49.107501],[-1.130592,49.108051],[-1.129527,49.108064],[-1.127883,49.107428],[-1.126436,49.107804],[-1.125654,49.108346],[-1.124853,49.108621],[-1.124232,49.109014],[-1.123431,49.109316],[-1.120648,49.111295],[-1.117185,49.112265],[-1.115383,49.112618],[-1.110238,49.112907],[-1.109651,49.112955],[-1.106102,49.113627],[-1.102777,49.114911],[-1.102628,49.115303],[-1.102105,49.11551],[-1.101638,49.115571],[-1.100778,49.115999],[-1.100535,49.115889],[-1.099882,49.116476],[-1.099303,49.116342],[-1.099583,49.115461],[-1.100143,49.115107],[-1.103337,49.11441],[-1.106027,49.113236],[-1.108176,49.113053],[-1.109595,49.112282],[-1.110361,49.112172],[-1.111463,49.112478],[-1.11307,49.112478],[-1.114116,49.112319],[-1.115255,49.112356],[-1.117422,49.11183],[-1.118207,49.110925],[-1.119795,49.110888],[-1.121065,49.110522],[-1.122017,49.109898],[-1.12254,49.108993],[-1.123082,49.108602],[-1.124147,49.108003],[-1.124689,49.105716],[-1.126071,49.104322],[-1.126389,49.103453],[-1.126164,49.102891],[-1.125193,49.102084],[-1.124857,49.101166],[-1.124969,49.100408],[-1.125417,49.099686],[-1.125156,49.09806],[-1.125137,49.096775],[-1.124558,49.096029],[-1.123792,49.095528],[-1.122727,49.095075],[-1.121663,49.092666],[-1.121158,49.092372],[-1.12023,49.0922],[-1.118074,49.091434],[-1.117987,49.091159],[-1.117445,49.091417],[-1.11477,49.090721],[-1.110791,49.090513],[-1.108288,49.090207],[-1.106999,49.090231],[-1.106494,49.089938],[-1.106027,49.088457],[-1.105467,49.087993],[-1.104141,49.087699],[-1.102254,49.08754],[-1.099676,49.087222],[-1.09424,49.087124],[-1.093232,49.086855],[-1.092559,49.086096],[-1.092298,49.085216],[-1.091233,49.085742],[-1.091401,49.086304],[-1.08929,49.085411],[-1.088263,49.085179],[-1.085704,49.085056],[-1.084919,49.084714],[-1.083723,49.084567],[-1.083425,49.084971],[-1.082808,49.084959],[-1.082192,49.086194],[-1.080903,49.086047],[-1.079446,49.087063],[-1.078549,49.08765],[-1.077522,49.088103],[-1.07726,49.088005],[-1.076943,49.088482],[-1.075448,49.089094],[-1.073692,49.089607],[-1.072908,49.08924],[-1.072459,49.089216],[-1.071974,49.089595],[-1.07018,49.089754],[-1.068518,49.089534],[-1.068088,49.089167],[-1.067117,49.089191],[-1.066799,49.089583],[-1.065903,49.090084],[-1.064483,49.090525],[-1.063194,49.091406],[-1.062671,49.092286],[-1.062111,49.092702],[-1.061476,49.092849],[-1.060486,49.092898],[-1.059776,49.093583],[-1.059066,49.093828],[-1.05787,49.094072],[-1.057198,49.095467],[-1.057926,49.096005],[-1.058842,49.096127],[-1.059533,49.09647],[-1.059496,49.0968],[-1.058767,49.097338],[-1.058337,49.09735],[-1.057926,49.097705],[-1.057385,49.097999],[-1.057403,49.098414],[-1.058095,49.098879],[-1.057254,49.099161],[-1.055909,49.099968],[-1.055293,49.101925],[-1.055834,49.102609],[-1.056264,49.10393],[-1.055666,49.104994],[-1.055816,49.105704],[-1.055386,49.106719],[-1.053873,49.108003],[-1.056283,49.109128],[-1.054153,49.110338],[-1.053144,49.110619],[-1.052434,49.109335],[-1.051202,49.108565],[-1.050623,49.106988],[-1.049819,49.106327],[-1.049296,49.106107],[-1.048437,49.106376],[-1.047036,49.106963],[-1.04642,49.107367],[-1.045971,49.107501],[-1.045149,49.108186],[-1.042702,49.109458],[-1.042011,49.109715],[-1.040909,49.110302],[-1.040405,49.110081],[-1.039284,49.110008],[-1.037136,49.110143],[-1.03749,49.110693],[-1.035716,49.111463],[-1.034875,49.111488],[-1.03396,49.111769],[-1.032036,49.112185],[-1.028879,49.111353],[-1.024583,49.112772],[-1.023481,49.113297],[-1.020062,49.11551],[-1.018549,49.116024],[-1.017615,49.11622],[-1.0167,49.116317],[-1.012515,49.117907],[-1.008947,49.118469],[-1.007416,49.118151],[-1.007248,49.119044],[-1.00566,49.119912],[-1.005155,49.119496],[-1.00381,49.119032],[-1.002708,49.115266],[-1.002447,49.115156],[-1.002279,49.114214],[-1.001475,49.113371],[-1.001233,49.112625],[-1.003624,49.111585],[-1.003437,49.111182],[-1.004408,49.111157],[-1.004987,49.111011],[-1.005697,49.111084],[-1.006855,49.110717],[-1.00919,49.110766],[-1.013636,49.109984],[-1.016102,49.109605],[-1.01967,49.109482],[-1.019707,49.109103],[-1.01754,49.108479],[-1.018456,49.107893],[-1.020249,49.106339],[-1.018923,49.105092],[-1.017484,49.104713],[-1.016121,49.103869],[-1.016419,49.103441],[-1.017017,49.103025],[-1.017522,49.102255],[-1.017466,49.10064],[-1.018381,49.100469],[-1.020679,49.100665],[-1.021781,49.100592],[-1.023126,49.1002],[-1.02391,49.100115],[-1.024882,49.099711],[-1.025106,49.099417],[-1.025517,49.099099],[-1.025573,49.098708],[-1.024825,49.098048],[-1.024863,49.097509],[-1.024228,49.096506],[-1.026581,49.096983],[-1.026787,49.096213],[-1.026376,49.095736],[-1.026469,49.095503],[-1.026226,49.093925],[-1.025965,49.09324],[-1.025741,49.091675],[-1.025311,49.091075],[-1.023387,49.088996],[-1.021855,49.089081],[-1.019221,49.08858],[-1.018754,49.088665],[-1.014664,49.087613],[-1.013449,49.087736],[-1.009938,49.086573],[-1.006687,49.085839],[-1.005137,49.085852],[-1.004427,49.085534],[-0.999981,49.086451],[-0.998599,49.086537],[-0.997777,49.08672],[-0.996805,49.084836],[-0.994844,49.085032],[-0.993835,49.085203],[-0.989688,49.086525],[-0.986102,49.088347],[-0.984421,49.088849],[-0.985971,49.090084],[-0.984215,49.091088],[-0.982777,49.091626],[-0.984196,49.094121],[-0.982982,49.094525],[-0.980573,49.094085],[-0.978107,49.094085],[-0.977733,49.094696],[-0.977191,49.094513],[-0.973194,49.093938],[-0.972708,49.09313],[-0.971812,49.092604],[-0.972223,49.092396],[-0.972167,49.091834],[-0.972111,49.091259],[-0.972596,49.089669],[-0.972615,49.088335],[-0.972335,49.087613],[-0.971457,49.087002],[-0.969906,49.08595],[-0.969252,49.085069],[-0.96914,49.084592],[-0.969047,49.083454],[-0.96815,49.082756],[-0.967814,49.082304],[-0.967291,49.081973],[-0.96787,49.081484],[-0.968393,49.081276],[-0.967814,49.079612],[-0.967216,49.078609],[-0.967198,49.077887],[-0.968898,49.076957],[-0.969533,49.076969],[-0.973941,49.074497],[-0.975585,49.073898],[-0.977565,49.073359],[-0.97693,49.072637],[-0.977845,49.07238],[-0.979732,49.071438],[-0.979358,49.070924],[-0.981376,49.070385],[-0.981936,49.070043],[-0.982908,49.069174],[-0.984514,49.068843],[-0.985392,49.068599],[-0.986868,49.068501],[-0.987447,49.068244],[-0.987671,49.067791],[-0.988381,49.067546],[-0.989277,49.067412],[-0.990118,49.067424],[-0.990828,49.067289],[-0.99165,49.067265],[-0.99165,49.067069],[-0.991108,49.066665],[-0.989763,49.066445],[-0.988941,49.066604],[-0.987783,49.066592],[-0.986774,49.066775],[-0.986046,49.066812],[-0.985093,49.06631],[-0.982609,49.06631],[-0.982179,49.065147],[-0.981002,49.064719],[-0.98018,49.064144],[-0.980087,49.063544],[-0.979414,49.062871],[-0.978555,49.062173],[-0.977883,49.061414],[-0.97749,49.06046],[-0.976855,49.059542],[-0.975548,49.059835],[-0.973754,49.060019],[-0.97381,49.059701],[-0.974651,49.058905],[-0.975809,49.056824],[-0.976519,49.056004],[-0.977472,49.054155],[-0.977266,49.053862],[-0.976407,49.053666],[-0.976538,49.05298],[-0.97736,49.052478],[-0.978013,49.05167],[-0.978238,49.051034],[-0.978966,49.050348],[-0.979321,49.049258],[-0.980274,49.047936],[-0.980535,49.046981],[-0.98033,49.044961],[-0.980517,49.043994],[-0.980442,49.043149],[-0.980759,49.042561],[-0.981282,49.040957],[-0.980255,49.040639],[-0.980423,49.040247],[-0.981805,49.039659],[-0.981955,49.039243],[-0.981357,49.039181],[-0.979284,49.038349],[-0.978387,49.037638],[-0.977771,49.037381],[-0.977752,49.037161],[-0.978443,49.03694],[-0.978929,49.036647],[-0.979881,49.035924]]],"type":"MultiLineString"},"properties":{"geo_point":{"lon":-1.15934494204704,"lat":49.06904351024631},"name":"GR221 De Coutances à Torigni-sur-Vire (Manche) (2019)","code_gr":"GR221"}},{"type":"Feature","geometry":{"coordinates":[[[-1.444031,49.047844],[-1.443001,49.04759],[-1.442679,49.047872],[-1.442571,49.047647],[-1.441627,49.048012],[-1.441348,49.048266],[-1.440984,49.048364],[-1.440812,49.048589],[-1.440426,49.048744],[-1.440318,49.048912],[-1.439954,49.048884],[-1.439653,49.048561],[-1.438988,49.048308],[-1.437937,49.048097],[-1.436992,49.046747],[-1.437808,49.046072],[-1.437164,49.045748],[-1.435705,49.045762],[-1.43328,49.045664],[-1.431828,49.045351],[-1.43069,49.045492],[-1.430926,49.046518],[-1.42966,49.046701],[-1.425819,49.050386],[-1.421206,49.048543],[-1.419961,49.049331],[-1.418968,49.050249],[-1.418067,49.050656],[-1.416801,49.05105],[-1.415777,49.050976],[-1.414876,49.0513],[-1.413754,49.051317],[-1.412144,49.051556],[-1.411994,49.050797],[-1.413074,49.050344],[-1.412934,49.050027],[-1.412408,49.049992],[-1.412301,49.049359],[-1.413009,49.049247],[-1.412858,49.048009],[-1.413199,49.04769],[-1.412825,49.046933],[-1.412338,49.04657],[-1.411085,49.047391],[-1.410402,49.047903],[-1.408988,49.048361],[-1.408126,49.048361],[-1.407378,49.048414],[-1.40676,49.048127],[-1.405995,49.047349],[-1.405069,49.047242],[-1.405101,49.045419],[-1.404093,49.045409],[-1.402853,49.043751],[-1.397409,49.042296],[-1.395837,49.042035],[-1.394807,49.042051],[-1.393767,49.041763],[-1.393132,49.042296],[-1.392726,49.041891],[-1.391197,49.042392],[-1.390482,49.041763],[-1.389782,49.042733],[-1.389002,49.043181],[-1.3884,49.043447],[-1.38814,49.043767],[-1.386579,49.043554],[-1.38705,49.04203],[-1.386725,49.040857],[-1.383879,49.039844],[-1.383473,49.03993],[-1.382904,49.039642],[-1.382952,49.039109],[-1.382302,49.039599],[-1.381374,49.040699],[-1.380676,49.041347],[-1.379733,49.041028],[-1.377114,49.040665],[-1.374496,49.040068],[-1.372675,49.040782],[-1.372089,49.04058],[-1.371868,49.040347],[-1.372805,49.038768],[-1.372317,49.038565],[-1.371276,49.040324],[-1.370577,49.040889],[-1.370984,49.041337],[-1.370723,49.041731],[-1.368918,49.042392],[-1.36791,49.042424],[-1.366788,49.042371],[-1.365699,49.042168],[-1.366075,49.041247],[-1.365877,49.039962],[-1.363536,49.039887],[-1.363698,49.039514],[-1.361389,49.039642],[-1.360755,49.039844],[-1.360137,49.03977],[-1.357844,49.040271],[-1.353887,49.040291],[-1.352857,49.03977],[-1.35129,49.03929],[-1.350884,49.039386],[-1.350721,49.039887],[-1.349859,49.039791],[-1.349469,49.038149],[-1.349681,49.037403],[-1.349973,49.036838],[-1.348705,49.037883],[-1.347843,49.038437],[-1.347713,49.038821],[-1.347241,49.039023],[-1.346282,49.038736],[-1.345306,49.038224],[-1.344672,49.03768],[-1.344233,49.036497],[-1.34466,49.036225],[-1.344233,49.035505],[-1.342922,49.035902],[-1.342021,49.03631],[-1.340283,49.03638],[-1.339296,49.03669],[-1.338416,49.03676],[-1.337614,49.037339],[-1.337175,49.037254],[-1.336899,49.037488],[-1.335468,49.036891],[-1.333073,49.036746],[-1.333073,49.035972],[-1.332215,49.035142],[-1.331743,49.034805],[-1.331807,49.034369],[-1.332022,49.033961],[-1.331871,49.033679],[-1.33097,49.033285],[-1.330112,49.033159],[-1.330198,49.03268],[-1.330589,49.032648],[-1.330931,49.032115],[-1.328654,49.02898],[-1.325694,49.029226],[-1.323975,49.028094],[-1.322645,49.027601],[-1.322151,49.027559],[-1.32007,49.026546],[-1.319336,49.026048],[-1.317344,49.025505],[-1.316593,49.025083],[-1.315953,49.024395],[-1.31571,49.023798],[-1.31488,49.023297],[-1.31436,49.022796],[-1.313124,49.022199],[-1.311335,49.021505],[-1.306245,49.022678],[-1.305904,49.022582],[-1.303773,49.022902],[-1.302586,49.023148],[-1.301101,49.023338],[-1.29947,49.023845],[-1.29799,49.023591],[-1.297088,49.023606],[-1.295919,49.02383],[-1.295057,49.023499],[-1.294065,49.023521],[-1.293431,49.023425],[-1.291821,49.023521],[-1.290308,49.023841],[-1.289463,49.02447],[-1.289544,49.024854],[-1.288487,49.025206],[-1.288959,49.025792],[-1.28857,49.026293],[-1.286471,49.027669],[-1.285088,49.02737],[-1.284064,49.026219],[-1.28356,49.026283],[-1.282291,49.028906],[-1.281023,49.029023],[-1.279218,49.029087],[-1.276892,49.028596],[-1.274322,49.028558],[-1.272388,49.028405],[-1.272133,49.027348],[-1.27267,49.027264],[-1.272729,49.026304],[-1.273006,49.025877],[-1.272876,49.02543],[-1.272372,49.025323],[-1.27297,49.023774],[-1.270843,49.023286],[-1.269087,49.022241],[-1.267509,49.02174],[-1.268046,49.020588],[-1.268192,49.019479],[-1.268271,49.017892],[-1.268078,49.016824],[-1.267526,49.016888],[-1.265769,49.016685],[-1.264273,49.016344],[-1.26094,49.016429],[-1.256984,49.015613],[-1.256028,49.015842],[-1.254646,49.016472],[-1.253594,49.016753],[-1.252757,49.016668],[-1.250954,49.01671],[-1.247929,49.01619],[-1.246971,49.015853],[-1.245832,49.015778],[-1.244482,49.015458],[-1.243916,49.015219],[-1.243809,49.014951],[-1.242436,49.015317],[-1.240482,49.016066],[-1.239327,49.01628],[-1.235355,49.01633],[-1.233574,49.016781],[-1.232904,49.01708],[-1.232372,49.017175],[-1.231327,49.016984],[-1.230827,49.016274],[-1.230655,49.015753],[-1.229847,49.01532],[-1.228578,49.015224],[-1.228145,49.01543],[-1.227668,49.016056],[-1.225928,49.016973],[-1.225248,49.016823],[-1.224325,49.016443],[-1.223295,49.016387],[-1.221748,49.016493],[-1.219926,49.016956],[-1.219055,49.01707],[-1.217591,49.016933],[-1.217051,49.017093],[-1.216824,49.017424],[-1.216493,49.017436],[-1.215796,49.017139],[-1.215081,49.017036],[-1.213948,49.017287],[-1.213147,49.017287],[-1.212432,49.017482],[-1.210654,49.017447],[-1.210236,49.016933],[-1.209661,49.016716],[-1.208632,49.016373],[-1.208075,49.015984],[-1.207883,49.015333],[-1.207552,49.015401],[-1.207186,49.015824],[-1.207186,49.016201],[-1.208022,49.017722],[-1.206419,49.018327],[-1.206105,49.019322],[-1.205879,49.020968],[-1.205164,49.021402],[-1.204415,49.021608],[-1.204066,49.022042],[-1.203212,49.022316],[-1.202027,49.022545],[-1.202341,49.022979],[-1.200232,49.023711],[-1.199308,49.024248],[-1.199412,49.024865],[-1.198506,49.025299],[-1.197652,49.026054],[-1.196972,49.027174],[-1.196781,49.027859],[-1.197042,49.028328],[-1.197495,49.028854],[-1.19767,49.029608],[-1.198105,49.030214],[-1.198105,49.030979],[-1.198104,49.031034],[-1.198426,49.031977],[-1.198405,49.032934],[-1.198211,49.033454],[-1.197654,49.034326],[-1.197739,49.036085],[-1.197739,49.037709],[-1.197861,49.038361],[-1.197739,49.039263],[-1.197286,49.039926],[-1.196223,49.040372],[-1.19407,49.041008],[-1.194288,49.043296],[-1.194097,49.043696],[-1.192807,49.044462],[-1.191901,49.044644],[-1.191569,49.045227],[-1.190245,49.045239],[-1.190337,49.046325],[-1.191023,49.046381],[-1.191045,49.046775],[-1.191883,49.047009],[-1.191413,49.048049],[-1.18899,49.04894],[-1.189092,49.049573],[-1.189896,49.050345],[-1.191308,49.05111],[-1.191688,49.0515],[-1.192954,49.052358],[-1.193062,49.052752],[-1.19362,49.05316],[-1.194049,49.053933],[-1.194263,49.054622],[-1.194607,49.054917],[-1.195299,49.055679],[-1.195386,49.056524],[-1.196624,49.057998],[-1.196667,49.058334],[-1.196259,49.058672],[-1.193574,49.059585],[-1.193713,49.059893],[-1.193243,49.060088],[-1.193113,49.060325],[-1.192703,49.060557],[-1.193001,49.060668],[-1.193412,49.061488],[-1.194253,49.062198],[-1.195038,49.063972],[-1.197559,49.065209],[-1.197167,49.06598],[-1.200044,49.067314],[-1.200081,49.067766],[-1.200492,49.067938],[-1.201239,49.067901],[-1.201295,49.068831],[-1.202248,49.070875],[-1.202491,49.071634],[-1.202229,49.072564],[-1.202267,49.073225],[-1.202566,49.073494],[-1.203593,49.073469],[-1.203612,49.073934],[-1.202155,49.073934],[-1.193095,49.074314],[-1.19317,49.074485],[-1.192142,49.074938],[-1.192139,49.075008],[-1.192611,49.075528],[-1.192632,49.076146],[-1.192911,49.076568],[-1.192396,49.076863],[-1.192311,49.078241],[-1.191989,49.078887],[-1.191474,49.078831],[-1.190723,49.078986],[-1.188899,49.078592],[-1.188277,49.078255],[-1.187584,49.078082],[-1.18693,49.078278],[-1.186351,49.078082],[-1.184932,49.079257],[-1.18332,49.079295],[-1.183213,49.079407],[-1.182186,49.079465],[-1.182183,49.079829],[-1.180187,49.080405],[-1.17703,49.081092],[-1.177123,49.082646],[-1.177526,49.083567],[-1.177805,49.085254],[-1.177762,49.086097],[-1.175218,49.090023],[-1.17477,49.091773],[-1.173406,49.092078],[-1.17292,49.090916],[-1.171221,49.089828],[-1.169502,49.089191],[-1.167989,49.088433],[-1.16698,49.088249],[-1.165336,49.089399],[-1.164608,49.089595],[-1.164402,49.090231],[-1.1633,49.089987],[-1.163193,49.090861],[-1.162399,49.091802],[-1.160939,49.093053],[-1.160188,49.093488],[-1.160162,49.094451],[-1.159738,49.094697],[-1.158279,49.095203],[-1.156326,49.095456],[-1.1551,49.09576],[-1.152399,49.09606],[-1.150691,49.09658],[-1.150635,49.096751],[-1.149159,49.097774],[-1.147679,49.098561],[-1.149253,49.099809],[-1.149503,49.101455],[-1.148113,49.101912],[-1.146937,49.102609],[-1.145909,49.10349],[-1.140286,49.104945],[-1.137914,49.102059],[-1.135486,49.102499],[-1.134795,49.102059],[-1.133898,49.102389],[-1.133109,49.102312],[-1.132508,49.102045],[-1.132336,49.102326],[-1.131824,49.102292],[-1.132315,49.102803],[-1.131245,49.105324],[-1.130648,49.107501],[-1.130592,49.108051],[-1.129527,49.108064],[-1.127883,49.107428],[-1.126436,49.107804],[-1.125654,49.108346],[-1.124853,49.108621],[-1.124232,49.109014],[-1.123431,49.109316],[-1.120648,49.111295],[-1.117185,49.112265],[-1.115383,49.112618],[-1.110238,49.112907],[-1.109651,49.112955],[-1.106102,49.113627],[-1.102777,49.114911],[-1.102628,49.115303],[-1.102105,49.11551],[-1.101638,49.115571],[-1.100778,49.115999],[-1.100535,49.115889],[-1.099882,49.116476],[-1.099303,49.116342],[-1.099583,49.115461],[-1.100143,49.115107],[-1.103337,49.11441],[-1.106027,49.113236],[-1.108176,49.113053],[-1.109595,49.112282],[-1.110361,49.112172],[-1.111463,49.112478],[-1.11307,49.112478],[-1.114116,49.112319],[-1.115255,49.112356],[-1.117422,49.11183],[-1.118207,49.110925],[-1.119795,49.110888],[-1.121065,49.110522],[-1.122017,49.109898],[-1.12254,49.108993],[-1.123082,49.108602],[-1.124147,49.108003],[-1.124689,49.105716],[-1.126071,49.104322],[-1.126389,49.103453],[-1.126164,49.102891],[-1.125193,49.102084],[-1.124857,49.101166],[-1.124969,49.100408],[-1.125417,49.099686],[-1.125156,49.09806],[-1.125137,49.096775],[-1.124558,49.096029],[-1.123792,49.095528],[-1.122727,49.095075],[-1.121663,49.092666],[-1.121158,49.092372],[-1.12023,49.0922],[-1.118074,49.091434],[-1.117987,49.091159],[-1.117445,49.091417],[-1.11477,49.090721],[-1.110791,49.090513],[-1.108288,49.090207],[-1.106999,49.090231],[-1.106494,49.089938],[-1.106027,49.088457],[-1.105467,49.087993],[-1.104141,49.087699],[-1.102254,49.08754],[-1.099676,49.087222],[-1.09424,49.087124],[-1.093232,49.086855],[-1.092559,49.086096],[-1.092298,49.085216],[-1.091233,49.085742],[-1.091401,49.086304],[-1.08929,49.085411],[-1.088263,49.085179],[-1.085704,49.085056],[-1.084919,49.084714],[-1.083723,49.084567],[-1.083425,49.084971],[-1.082808,49.084959],[-1.082192,49.086194],[-1.080903,49.086047],[-1.079446,49.087063],[-1.078549,49.08765],[-1.077522,49.088103],[-1.07726,49.088005],[-1.076943,49.088482],[-1.075448,49.089094],[-1.073692,49.089607],[-1.072908,49.08924],[-1.072459,49.089216],[-1.071974,49.089595],[-1.07018,49.089754],[-1.068518,49.089534],[-1.068088,49.089167],[-1.067117,49.089191],[-1.066799,49.089583],[-1.065903,49.090084],[-1.064483,49.090525],[-1.063194,49.091406],[-1.062671,49.092286],[-1.062111,49.092702],[-1.061476,49.092849],[-1.060486,49.092898],[-1.059776,49.093583],[-1.059066,49.093828],[-1.05787,49.094072],[-1.057198,49.095467],[-1.057926,49.096005],[-1.058842,49.096127],[-1.059533,49.09647],[-1.059496,49.0968],[-1.058767,49.097338],[-1.058337,49.09735],[-1.057926,49.097705],[-1.057385,49.097999],[-1.057403,49.098414],[-1.058095,49.098879],[-1.057254,49.099161],[-1.055909,49.099968],[-1.055293,49.101925],[-1.055834,49.102609],[-1.056264,49.10393],[-1.055666,49.104994],[-1.055816,49.105704],[-1.055386,49.106719],[-1.053873,49.108003],[-1.056283,49.109128],[-1.054153,49.110338],[-1.053144,49.110619],[-1.052434,49.109335],[-1.051202,49.108565],[-1.050623,49.106988],[-1.049819,49.106327],[-1.049296,49.106107],[-1.048437,49.106376],[-1.047036,49.106963],[-1.04642,49.107367],[-1.045971,49.107501],[-1.045149,49.108186],[-1.042702,49.109458],[-1.042011,49.109715],[-1.040909,49.110302],[-1.040405,49.110081],[-1.039284,49.110008],[-1.037136,49.110143],[-1.03749,49.110693],[-1.035716,49.111463],[-1.034875,49.111488],[-1.03396,49.111769],[-1.032036,49.112185],[-1.028879,49.111353],[-1.024583,49.112772],[-1.023481,49.113297],[-1.020062,49.11551],[-1.018549,49.116024],[-1.017615,49.11622],[-1.0167,49.116317],[-1.012515,49.117907],[-1.008947,49.118469],[-1.007416,49.118151],[-1.007248,49.119044],[-1.00566,49.119912],[-1.005155,49.119496],[-1.00381,49.119032],[-1.002708,49.115266],[-1.002447,49.115156],[-1.002279,49.114214],[-1.001475,49.113371],[-1.001233,49.112625],[-1.003624,49.111585],[-1.003437,49.111182],[-1.004408,49.111157],[-1.004987,49.111011],[-1.005697,49.111084],[-1.006855,49.110717],[-1.00919,49.110766],[-1.013636,49.109984],[-1.016102,49.109605],[-1.01967,49.109482],[-1.019707,49.109103],[-1.01754,49.108479],[-1.018456,49.107893],[-1.020249,49.106339],[-1.018923,49.105092],[-1.017484,49.104713],[-1.016121,49.103869],[-1.016419,49.103441],[-1.017017,49.103025],[-1.017522,49.102255],[-1.017466,49.10064],[-1.018381,49.100469],[-1.020679,49.100665],[-1.021781,49.100592],[-1.023126,49.1002],[-1.02391,49.100115],[-1.024882,49.099711],[-1.025106,49.099417],[-1.025517,49.099099],[-1.025573,49.098708],[-1.024825,49.098048],[-1.024863,49.097509],[-1.024228,49.096506],[-1.026581,49.096983],[-1.026787,49.096213],[-1.026376,49.095736],[-1.026469,49.095503],[-1.026226,49.093925],[-1.025965,49.09324],[-1.025741,49.091675],[-1.025311,49.091075],[-1.023387,49.088996],[-1.021855,49.089081],[-1.019221,49.08858],[-1.018754,49.088665],[-1.014664,49.087613],[-1.013449,49.087736],[-1.009938,49.086573],[-1.006687,49.085839],[-1.005137,49.085852],[-1.004427,49.085534],[-0.999981,49.086451],[-0.998599,49.086537],[-0.997777,49.08672],[-0.996805,49.084836],[-0.994844,49.085032],[-0.993835,49.085203],[-0.989688,49.086525],[-0.986102,49.088347],[-0.984421,49.088849],[-0.985971,49.090084],[-0.984215,49.091088],[-0.982777,49.091626],[-0.984196,49.094121],[-0.982982,49.094525],[-0.980573,49.094085],[-0.978107,49.094085],[-0.977733,49.094696],[-0.977191,49.094513],[-0.973194,49.093938],[-0.972708,49.09313],[-0.971812,49.092604],[-0.972223,49.092396],[-0.972167,49.091834],[-0.972111,49.091259],[-0.972596,49.089669],[-0.972615,49.088335],[-0.972335,49.087613],[-0.971457,49.087002],[-0.969906,49.08595],[-0.969252,49.085069],[-0.96914,49.084592],[-0.969047,49.083454],[-0.96815,49.082756],[-0.967814,49.082304],[-0.967291,49.081973],[-0.96787,49.081484],[-0.968393,49.081276],[-0.967814,49.079612],[-0.967216,49.078609],[-0.967198,49.077887],[-0.968898,49.076957],[-0.969533,49.076969],[-0.973941,49.074497],[-0.975585,49.073898],[-0.977565,49.073359],[-0.97693,49.072637],[-0.977845,49.07238],[-0.979732,49.071438],[-0.979358,49.070924],[-0.981376,49.070385],[-0.981936,49.070043],[-0.982908,49.069174],[-0.984514,49.068843],[-0.985392,49.068599],[-0.986868,49.068501],[-0.987447,49.068244],[-0.987671,49.067791],[-0.988381,49.067546],[-0.989277,49.067412],[-0.990118,49.067424],[-0.990828,49.067289],[-0.99165,49.067265],[-0.99165,49.067069],[-0.991108,49.066665],[-0.989763,49.066445],[-0.988941,49.066604],[-0.987783,49.066592],[-0.986774,49.066775],[-0.986046,49.066812],[-0.985093,49.06631],[-0.982609,49.06631],[-0.982179,49.065147],[-0.981002,49.064719],[-0.98018,49.064144],[-0.980087,49.063544],[-0.979414,49.062871],[-0.978555,49.062173],[-0.977883,49.061414],[-0.97749,49.06046],[-0.976855,49.059542],[-0.975548,49.059835],[-0.973754,49.060019],[-0.97381,49.059701],[-0.974651,49.058905],[-0.975809,49.056824],[-0.976519,49.056004],[-0.977472,49.054155],[-0.977266,49.053862],[-0.976407,49.053666],[-0.976538,49.05298],[-0.97736,49.052478],[-0.978013,49.05167],[-0.978238,49.051034],[-0.978966,49.050348],[-0.979321,49.049258],[-0.980274,49.047936],[-0.980535,49.046981],[-0.98033,49.044961],[-0.980517,49.043994],[-0.980442,49.043149],[-0.980759,49.042561],[-0.981282,49.040957],[-0.980255,49.040639],[-0.980423,49.040247],[-0.981805,49.039659],[-0.981955,49.039243],[-0.981357,49.039181],[-0.979284,49.038349],[-0.978387,49.037638],[-0.977771,49.037381],[-0.977752,49.037161],[-0.978443,49.03694],[-0.978929,49.036647],[-0.979881,49.035924],[-0.979028,49.035069],[-0.979028,49.035069],[-0.977011,49.032958],[-0.981581,49.031397],[-0.98362,49.032072],[-0.983598,49.032311],[-0.984328,49.032368],[-0.984178,49.033212],[-0.983984,49.033577],[-0.986195,49.033985],[-0.98613,49.034126],[-0.985615,49.034478],[-0.985465,49.034787],[-0.985701,49.034998],[-0.985465,49.035364],[-0.985787,49.035477],[-0.986774,49.035519],[-0.987418,49.03587],[-0.988212,49.035983],[-0.989928,49.036602],[-0.990829,49.036644],[-0.990872,49.037024],[-0.991216,49.037165],[-0.991688,49.037151],[-0.991988,49.036883],[-0.992439,49.036714],[-0.993233,49.03656],[-0.99364,49.036391],[-0.994928,49.036222],[-0.996838,49.036307],[-0.997074,49.035842],[-0.998002,49.035875],[-0.997881,49.035586],[-0.998342,49.035711],[-0.999803,49.035383],[-1.001445,49.0351],[-1.002086,49.035127],[-1.004004,49.035673],[-1.005421,49.036278],[-1.005828,49.036152],[-1.006472,49.035744],[-1.007051,49.035561],[-1.007931,49.035716],[-1.008768,49.035772],[-1.00894,49.035392],[-1.009412,49.034618],[-1.009305,49.034253],[-1.008897,49.034028],[-1.00806,49.033718],[-1.007845,49.033324],[-1.007824,49.032944],[-1.007695,49.032719],[-1.00791,49.032607],[-1.00806,49.03203],[-1.008554,49.031158],[-1.008832,49.029948],[-1.009004,49.029483],[-1.008511,49.029244],[-1.008039,49.028893],[-1.008017,49.02871],[-1.008511,49.028386],[-1.009626,49.02788],[-1.00997,49.027598],[-1.010227,49.027246],[-1.007288,49.026684],[-1.005614,49.026247],[-1.007953,49.025713],[-1.010313,49.025769],[-1.011837,49.025727],[-1.013789,49.025614],[-1.01512,49.025403],[-1.017265,49.025502],[-1.019626,49.025671],[-1.021943,49.025924],[-1.024196,49.026473],[-1.025999,49.027331],[-1.026342,49.027401],[-1.027071,49.027415],[-1.02778,49.027612],[-1.02838,49.027486],[-1.029046,49.027626],[-1.029196,49.02795],[-1.029539,49.028091],[-1.029797,49.028062],[-1.029882,49.027851],[-1.030226,49.027514],[-1.031063,49.027148],[-1.030934,49.026866],[-1.032007,49.026121],[-1.033165,49.025614],[-1.033401,49.025375],[-1.03411,49.02522],[-1.035054,49.024883],[-1.035612,49.024925],[-1.036878,49.02446],[-1.036234,49.023387],[-1.035429,49.021818],[-1.03559,49.020627],[-1.03467,49.018772],[-1.036832,49.018078],[-1.037567,49.017761],[-1.038487,49.017776],[-1.039913,49.018229],[-1.040465,49.018696],[-1.039957,49.017293],[-1.039941,49.016792],[-1.039762,49.016514],[-1.040071,49.016301],[-1.040087,49.016066],[-1.039941,49.015842],[-1.039534,49.014371],[-1.039323,49.014019],[-1.03916,49.013624],[-1.038656,49.01292],[-1.038575,49.012408],[-1.039095,49.012088],[-1.039713,49.011992],[-1.040217,49.011661],[-1.042185,49.010829],[-1.042917,49.010648],[-1.043144,49.010179],[-1.043209,49.009699],[-1.043226,49.008931],[-1.043356,49.0086],[-1.043892,49.008536],[-1.044754,49.008685],[-1.045941,49.008781],[-1.047128,49.008995],[-1.048852,49.009112],[-1.04973,49.009091],[-1.051324,49.008707],[-1.051454,49.008835],[-1.051503,49.009048],[-1.051779,49.009304],[-1.052186,49.009357],[-1.053048,49.009208],[-1.05321,49.009517],[-1.053731,49.009859],[-1.054332,49.01004],[-1.054804,49.010125],[-1.054934,49.010296],[-1.054723,49.010904],[-1.055454,49.01084],[-1.055991,49.010637],[-1.056365,49.010104],[-1.057113,49.008515],[-1.057601,49.007117],[-1.058609,49.007459],[-1.059,49.006648],[-1.059487,49.006061],[-1.059959,49.004685],[-1.060658,49.004845],[-1.061374,49.004888],[-1.061406,49.00461],[-1.061406,49.004269],[-1.061732,49.003725],[-1.06235,49.003096],[-1.063179,49.00221],[-1.063748,49.001773],[-1.063309,49.001581],[-1.06326,49.001357],[-1.063764,49.000268],[-1.064317,48.999404],[-1.064886,48.998786],[-1.065504,48.998508],[-1.066269,48.997953],[-1.066903,48.997228],[-1.067082,48.996929],[-1.067488,48.996545],[-1.067537,48.99615],[-1.067895,48.995777],[-1.068041,48.995371],[-1.069261,48.99472],[-1.070204,48.994304],[-1.070659,48.994176],[-1.070244,48.992925],[-1.070062,48.992566],[-1.069547,48.991081],[-1.069354,48.99013],[-1.068935,48.989617],[-1.068581,48.989314],[-1.068379,48.988664],[-1.068626,48.988348],[-1.068365,48.988455],[-1.06845,48.988237],[-1.06811,48.988506],[-1.067862,48.988399],[-1.067699,48.988292],[-1.067423,48.988153],[-1.066984,48.987442],[-1.066906,48.987247],[-1.066892,48.987024],[-1.066751,48.986852],[-1.067342,48.985597],[-1.067456,48.984989],[-1.067374,48.984551],[-1.066919,48.983516],[-1.066691,48.982854],[-1.066756,48.982609],[-1.066382,48.982502],[-1.065277,48.980816],[-1.066269,48.980431],[-1.066578,48.980239],[-1.067472,48.979908],[-1.065878,48.978094],[-1.064057,48.978638],[-1.063634,48.977817],[-1.062675,48.976781],[-1.061862,48.975362],[-1.061195,48.97486],[-1.059618,48.973387],[-1.059502,48.973177],[-1.059509,48.972788],[-1.059031,48.972863],[-1.058682,48.972883],[-1.057787,48.973431],[-1.056982,48.974164],[-1.055884,48.974828],[-1.054751,48.975011],[-1.054682,48.97453],[-1.054786,48.97405],[-1.054403,48.973421],[-1.054403,48.972826],[-1.054682,48.972322],[-1.05449,48.971945],[-1.054891,48.971796],[-1.055309,48.970412],[-1.056093,48.968924],[-1.056163,48.968249],[-1.056303,48.967757],[-1.056215,48.967196],[-1.055675,48.966865],[-1.054856,48.96659],[-1.053235,48.96667],[-1.05273,48.966636],[-1.053008,48.966384],[-1.053584,48.966258],[-1.055884,48.966144],[-1.05639,48.965915],[-1.056878,48.964359],[-1.056808,48.963317],[-1.05686,48.96294],[-1.057017,48.962677],[-1.057035,48.962276],[-1.056198,48.961201],[-1.055205,48.960445],[-1.05442,48.960354],[-1.053636,48.960388],[-1.052538,48.960605],[-1.051719,48.960548],[-1.051126,48.960651],[-1.050795,48.960583],[-1.051353,48.960136],[-1.051144,48.959553],[-1.052067,48.959358],[-1.052799,48.958946],[-1.053392,48.958786],[-1.053322,48.958546],[-1.053793,48.958454],[-1.05395,48.958156],[-1.054019,48.957893],[-1.054298,48.95763],[-1.056198,48.958214],[-1.056093,48.95731],[-1.055937,48.957035],[-1.055937,48.956818],[-1.055797,48.956142],[-1.055867,48.955467],[-1.055536,48.955089],[-1.055501,48.954448],[-1.055344,48.953796],[-1.055344,48.953155],[-1.055048,48.952308],[-1.054298,48.951553],[-1.053392,48.950752],[-1.053462,48.949996],[-1.054054,48.948783],[-1.054246,48.947764],[-1.054281,48.947261],[-1.05395,48.94623],[-1.053862,48.945234],[-1.053148,48.943998],[-1.052904,48.942727],[-1.051475,48.941663],[-1.050446,48.941583],[-1.050115,48.941422],[-1.049453,48.940701],[-1.048825,48.940449],[-1.044277,48.93911],[-1.042272,48.938286],[-1.041,48.937839],[-1.039797,48.937564],[-1.038438,48.93737],[-1.037828,48.937152],[-1.036277,48.936053],[-1.035423,48.936133],[-1.034185,48.936248],[-1.033366,48.936557],[-1.031135,48.936179],[-1.030368,48.935721],[-1.029288,48.935435],[-1.028294,48.935481],[-1.026778,48.935858],[-1.025122,48.936019],[-1.024704,48.935813],[-1.023902,48.935091],[-1.022595,48.934015],[-1.019353,48.932206],[-1.016285,48.930614],[-1.016024,48.930282],[-1.016041,48.929527],[-1.015954,48.928759],[-1.015257,48.927923],[-1.014577,48.92758],[-1.01402,48.927122],[-1.01341,48.926149],[-1.012713,48.925381],[-1.012155,48.924385],[-1.01205,48.923858],[-1.012137,48.923045],[-1.011515,48.922364],[-1.01083,48.922175],[-1.010673,48.921969],[-1.010098,48.921728],[-1.009052,48.921946],[-1.007658,48.922415],[-1.004068,48.923217],[-0.999383,48.923903],[-0.998132,48.924186],[-0.996264,48.924677],[-0.993649,48.925352],[-0.992584,48.925573],[-0.991949,48.92583],[-0.991351,48.925867],[-0.990436,48.925843],[-0.989371,48.925965],[-0.987391,48.925818],[-0.985784,48.926076],[-0.984813,48.925916],[-0.983972,48.925916],[-0.982739,48.926407],[-0.981544,48.926591],[-0.979228,48.926653],[-0.977957,48.926628],[-0.976837,48.926984],[-0.974333,48.927598],[-0.956868,48.930654],[-0.954495,48.931513],[-0.95315,48.932163],[-0.952086,48.932323],[-0.949452,48.932985],[-0.948368,48.933022],[-0.948032,48.932666],[-0.947901,48.9322],[-0.947901,48.931672],[-0.94736,48.930911],[-0.946967,48.929512],[-0.94637,48.928003],[-0.944277,48.928027],[-0.944035,48.928506],[-0.944315,48.928727],[-0.944277,48.929058],[-0.94396,48.929181],[-0.942615,48.929291],[-0.938804,48.930838],[-0.937627,48.931463],[-0.937198,48.931856],[-0.936058,48.932077],[-0.935404,48.931918],[-0.93462,48.931832],[-0.933256,48.932372],[-0.932191,48.932642],[-0.93122,48.932764],[-0.92995,48.932801],[-0.928848,48.932507],[-0.926195,48.9322],[-0.92401,48.932102],[-0.923785,48.930727],[-0.923206,48.929402],[-0.922609,48.929279],[-0.92018,48.929561],[-0.919209,48.929451],[-0.917565,48.929758],[-0.917098,48.930077],[-0.918891,48.933807],[-0.912503,48.934679],[-0.911755,48.9349],[-0.910878,48.935427],[-0.911812,48.935943],[-0.912409,48.935722],[-0.913082,48.93582],[-0.913511,48.936495],[-0.914016,48.936765],[-0.914053,48.938078],[-0.914221,48.938176],[-0.915398,48.938041],[-0.915902,48.938397],[-0.916071,48.939022],[-0.916145,48.939427],[-0.916799,48.940102],[-0.917714,48.940802],[-0.918312,48.941415],[-0.918462,48.942188],[-0.918387,48.942568],[-0.917901,48.942937],[-0.916444,48.944347],[-0.916127,48.944924],[-0.915846,48.945611],[-0.915604,48.945857],[-0.913829,48.945734],[-0.911569,48.945869],[-0.909477,48.945648],[-0.907739,48.945464],[-0.906656,48.945587],[-0.905105,48.946041],[-0.904489,48.946225],[-0.90391,48.946507],[-0.903387,48.946593],[-0.902864,48.946875],[-0.90094,48.947378],[-0.899894,48.947942],[-0.898343,48.948911],[-0.897335,48.94923],[-0.896531,48.949279],[-0.896046,48.948703],[-0.895224,48.948887],[-0.893617,48.949831],[-0.893113,48.949427],[-0.891618,48.948948],[-0.889377,48.948568],[-0.889452,48.948776],[-0.887005,48.949046],[-0.884315,48.949046],[-0.882988,48.948224],[-0.881195,48.947451],[-0.879402,48.946838],[-0.878748,48.946985],[-0.877814,48.947783],[-0.876749,48.948641],[-0.875199,48.949328],[-0.873798,48.949439],[-0.873219,48.949598],[-0.871537,48.949377],[-0.870267,48.9495],[-0.869838,48.949635],[-0.869371,48.949672],[-0.868455,48.950126],[-0.866513,48.951095],[-0.86556,48.951365],[-0.864757,48.951684],[-0.86457,48.951414],[-0.863972,48.951291],[-0.863542,48.950604],[-0.863673,48.950482],[-0.862739,48.950531],[-0.862945,48.950212],[-0.862216,48.950371],[-0.862777,48.950015],[-0.862366,48.949083],[-0.862328,48.947034],[-0.862123,48.946335],[-0.861245,48.945022],[-0.860572,48.944556],[-0.859601,48.9442],[-0.858592,48.943808],[-0.858293,48.94382],[-0.858088,48.942912],[-0.858331,48.94236],[-0.858163,48.941489],[-0.85409,48.941526],[-0.845946,48.938863],[-0.843816,48.941967],[-0.843349,48.942164],[-0.842826,48.942164],[-0.843032,48.941734],[-0.842938,48.941305],[-0.842453,48.940851],[-0.841911,48.94063],[-0.840921,48.940544],[-0.840118,48.940691],[-0.838212,48.940814],[-0.838082,48.940507],[-0.837783,48.940249],[-0.837652,48.940065],[-0.837129,48.940029],[-0.833729,48.938667],[-0.826014,48.938384],[-0.825715,48.938274],[-0.824875,48.938434],[-0.820541,48.938753],[-0.819196,48.938765],[-0.816245,48.938568],[-0.813405,48.938421],[-0.810846,48.938016],[-0.809744,48.937771],[-0.807857,48.937759],[-0.806681,48.937967],[-0.805466,48.937967],[-0.804047,48.938151],[-0.802739,48.938409],[-0.801656,48.938458],[-0.800778,48.938679],[-0.800049,48.939084],[-0.799526,48.939746],[-0.79891,48.939796],[-0.798816,48.939955],[-0.798368,48.940446],[-0.798275,48.940802],[-0.797976,48.940838],[-0.797714,48.939881],[-0.797882,48.939317],[-0.798499,48.938728],[-0.798742,48.938127],[-0.798966,48.936556],[-0.79876,48.935464],[-0.798349,48.93539],[-0.797378,48.935329],[-0.796743,48.93555],[-0.795921,48.935624],[-0.795771,48.935992],[-0.796332,48.936875],[-0.796332,48.937194],[-0.795865,48.937562],[-0.795622,48.937489],[-0.795304,48.937084],[-0.795062,48.936961],[-0.791157,48.936863],[-0.788673,48.936127],[-0.78716,48.935746],[-0.785441,48.935538],[-0.783667,48.93555],[-0.783069,48.935378],[-0.781425,48.935415],[-0.778567,48.935292],[-0.777484,48.935108],[-0.776643,48.934801],[-0.775952,48.934801],[-0.774925,48.934409],[-0.773131,48.934421],[-0.77244,48.934311],[-0.770722,48.934482],[-0.768218,48.934519],[-0.766743,48.934507],[-0.765734,48.934347],[-0.76084,48.933893],[-0.76013,48.933771],[-0.759458,48.934102],[-0.75744,48.934458],[-0.754414,48.934679],[-0.753499,48.93485],[-0.752994,48.935084],[-0.752378,48.935145],[-0.750547,48.935096],[-0.74767,48.934715],[-0.745223,48.934409],[-0.742907,48.934249],[-0.740273,48.934249],[-0.738218,48.934126],[-0.73749,48.934114],[-0.736743,48.934028],[-0.73452,48.933587],[-0.732969,48.933501],[-0.731774,48.933464],[-0.730802,48.93355],[-0.728318,48.933623],[-0.726749,48.933537],[-0.720883,48.932961],[-0.716438,48.932666],[-0.712702,48.932372],[-0.708872,48.93193],[-0.708536,48.931635],[-0.70706,48.930862],[-0.705846,48.930261],[-0.702521,48.929966],[-0.700149,48.929598],[-0.698972,48.929782],[-0.697888,48.929254],[-0.695142,48.928334],[-0.694433,48.928174],[-0.694022,48.927941],[-0.690566,48.926419],[-0.690286,48.925855],[-0.689352,48.924713],[-0.688511,48.924235],[-0.686886,48.922615],[-0.685952,48.922283],[-0.685429,48.921657],[-0.684831,48.921252],[-0.684569,48.920896],[-0.682552,48.920872],[-0.68216,48.920626],[-0.681282,48.920712],[-0.680198,48.92124],[-0.68018,48.921461],[-0.680423,48.922124],[-0.680553,48.92286],[-0.680479,48.923609],[-0.680946,48.924357],[-0.681132,48.924983],[-0.680983,48.925352],[-0.679601,48.926419],[-0.679489,48.926849],[-0.677919,48.928039],[-0.677172,48.928444],[-0.675734,48.929095],[-0.674538,48.92961],[-0.673081,48.929929],[-0.672951,48.929709],[-0.671251,48.929672],[-0.670429,48.929169],[-0.669719,48.928972],[-0.669177,48.929046],[-0.667851,48.929439],[-0.666394,48.92977],[-0.665777,48.929794],[-0.665516,48.930015],[-0.665105,48.929991],[-0.664171,48.929623],[-0.663237,48.929365],[-0.662527,48.929426],[-0.661051,48.929353],[-0.660696,48.929954],[-0.659744,48.929819],[-0.658791,48.929561],[-0.657297,48.928997],[-0.655466,48.928494],[-0.655578,48.927806],[-0.655952,48.927303],[-0.655597,48.926591],[-0.656045,48.925376],[-0.656008,48.924615],[-0.656101,48.923744],[-0.655615,48.923069],[-0.655933,48.922295],[-0.656325,48.921841],[-0.656325,48.921228],[-0.655373,48.92124],[-0.654364,48.921498],[-0.653785,48.921547],[-0.652515,48.921485],[-0.650703,48.92108],[-0.64975,48.920994],[-0.647676,48.920491],[-0.645752,48.920295],[-0.643231,48.919779],[-0.641774,48.918539],[-0.641269,48.918257],[-0.640559,48.918122],[-0.640167,48.918159],[-0.639831,48.918269],[-0.638579,48.917656],[-0.638056,48.917975],[-0.637459,48.918024],[-0.636693,48.917877],[-0.636263,48.917987],[-0.634414,48.917754],[-0.633797,48.917741],[-0.633592,48.917913],[-0.633461,48.918306],[-0.633162,48.918613],[-0.633031,48.918944],[-0.632695,48.919215],[-0.632266,48.920319],[-0.631444,48.921166],[-0.631107,48.922001],[-0.630902,48.92329],[-0.629968,48.924333],[-0.628828,48.924198],[-0.627708,48.923916],[-0.627539,48.923486],[-0.626867,48.923253],[-0.626662,48.923007],[-0.626736,48.922615],[-0.626549,48.922271],[-0.626493,48.921915],[-0.625653,48.92216],[-0.625989,48.921203],[-0.626549,48.920614],[-0.625018,48.919841],[-0.624308,48.919546],[-0.622963,48.920614],[-0.621058,48.921399],[-0.618741,48.920467],[-0.617957,48.919988],[-0.617434,48.919767],[-0.617116,48.919472],[-0.616705,48.919276],[-0.616257,48.918834],[-0.616163,48.918564],[-0.616201,48.918196],[-0.61551,48.918318],[-0.613604,48.918245],[-0.611811,48.917803],[-0.610578,48.917324],[-0.610578,48.917017],[-0.609252,48.915716],[-0.608056,48.915397],[-0.607813,48.915029],[-0.607216,48.914464],[-0.606693,48.913113],[-0.606188,48.912807],[-0.604769,48.912426],[-0.603835,48.910658],[-0.603386,48.910363],[-0.602004,48.91002],[-0.601462,48.910007],[-0.600566,48.910634],[-0.600267,48.910695],[-0.59989,48.910653],[-0.599529,48.910482],[-0.598989,48.910416],[-0.598857,48.910625],[-0.598208,48.91039],[-0.598168,48.910522],[-0.597667,48.910732],[-0.597387,48.911048],[-0.596646,48.911258],[-0.595966,48.911206],[-0.596866,48.910706],[-0.597067,48.910232],[-0.597047,48.909679],[-0.596866,48.908943],[-0.595885,48.905811],[-0.595225,48.902836],[-0.595225,48.901639],[-0.596026,48.901481],[-0.596266,48.901205],[-0.594344,48.900823],[-0.593363,48.900454],[-0.592182,48.900362],[-0.592081,48.899836],[-0.591521,48.899323],[-0.59092,48.899059],[-0.589999,48.899283],[-0.589419,48.899546],[-0.588798,48.900033],[-0.587997,48.900336],[-0.587457,48.900428],[-0.587617,48.900112],[-0.587897,48.899849],[-0.588738,48.89873],[-0.589118,48.897835],[-0.589239,48.897427],[-0.589559,48.896914],[-0.587597,48.896098],[-0.587196,48.896967],[-0.587216,48.897954],[-0.587136,48.899125],[-0.586836,48.899494],[-0.586275,48.899678],[-0.585355,48.899704],[-0.584153,48.899981],[-0.582952,48.900204],[-0.582532,48.899994],[-0.582271,48.899731],[-0.581871,48.899533],[-0.58107,48.899415],[-0.580149,48.898796],[-0.579749,48.897704],[-0.579268,48.897322],[-0.577466,48.896861],[-0.576405,48.89648],[-0.575404,48.895914],[-0.574764,48.895242],[-0.574163,48.894887],[-0.573983,48.894874],[-0.573702,48.893873],[-0.573943,48.89336],[-0.573222,48.89261],[-0.572521,48.892083],[-0.572001,48.891899],[-0.57174,48.891043],[-0.5717,48.890082],[-0.571921,48.889345],[-0.572421,48.888569],[-0.572621,48.887766],[-0.572561,48.887028],[-0.572741,48.886462],[-0.572982,48.886225],[-0.573382,48.886041],[-0.573963,48.885909],[-0.574263,48.885672],[-0.573923,48.885225],[-0.573402,48.884961],[-0.572822,48.884488],[-0.572101,48.884053],[-0.57178,48.88375],[-0.571961,48.883434],[-0.572341,48.883158],[-0.572221,48.882618],[-0.572321,48.882012],[-0.5718,48.881104],[-0.57084,48.880433],[-0.569678,48.879287],[-0.567556,48.880209],[-0.566395,48.880985],[-0.564933,48.88092],[-0.56159,48.880946],[-0.560369,48.881249],[-0.558647,48.881209],[-0.557706,48.881157],[-0.556845,48.881249],[-0.555023,48.881578],[-0.553522,48.881736],[-0.552501,48.881986],[-0.551059,48.882486],[-0.550639,48.881078],[-0.549718,48.87984],[-0.549878,48.878971],[-0.549858,48.878142],[-0.550318,48.877523],[-0.550739,48.875469],[-0.550478,48.874613],[-0.550759,48.874204],[-0.551259,48.872558],[-0.55214,48.87057],[-0.552841,48.869754],[-0.550278,48.869214],[-0.546795,48.867936],[-0.545233,48.867739],[-0.544973,48.867264],[-0.543972,48.867185],[-0.543171,48.866869],[-0.542871,48.866474],[-0.54217,48.864683],[-0.541609,48.864104],[-0.541189,48.863985],[-0.541009,48.863814],[-0.541249,48.863682],[-0.54239,48.862721],[-0.542991,48.862273],[-0.543892,48.861048],[-0.544753,48.859388],[-0.545193,48.858835],[-0.545333,48.857953],[-0.545513,48.856095],[-0.545934,48.853856],[-0.545393,48.853474],[-0.544853,48.853816],[-0.544492,48.853434],[-0.544112,48.853579],[-0.543151,48.853724],[-0.541029,48.854356],[-0.539827,48.854936],[-0.538626,48.855213],[-0.537105,48.855726],[-0.536644,48.85595],[-0.536224,48.856306],[-0.535523,48.856596],[-0.534882,48.85707],[-0.534101,48.857268],[-0.533281,48.857307],[-0.530458,48.857413],[-0.528336,48.857808],[-0.527174,48.858137],[-0.523931,48.858242],[-0.52347,48.857426],[-0.52339,48.857004],[-0.52313,48.856596],[-0.522309,48.856754],[-0.521769,48.857136],[-0.521769,48.857716],[-0.522129,48.858216],[-0.522129,48.858466],[-0.521829,48.858624],[-0.521368,48.859046],[-0.520427,48.859441],[-0.519967,48.859863],[-0.519386,48.8606],[-0.518625,48.860995],[-0.517624,48.861272],[-0.516183,48.861944],[-0.515863,48.861509],[-0.514281,48.86085],[-0.513921,48.860587],[-0.51342,48.860508],[-0.511919,48.860547],[-0.511598,48.860376],[-0.510998,48.859731],[-0.509836,48.859336],[-0.509916,48.858782],[-0.509256,48.856886],[-0.508815,48.855858],[-0.508555,48.855121],[-0.508335,48.854883],[-0.506313,48.853421],[-0.505532,48.85325],[-0.504811,48.853263],[-0.50397,48.853434],[-0.499966,48.856214],[-0.499245,48.856859],[-0.498525,48.85765],[-0.497884,48.858242],[-0.498264,48.85902],[-0.499746,48.860179],[-0.500407,48.860442],[-0.500447,48.860771],[-0.500126,48.861351],[-0.499786,48.862181],[-0.500066,48.862984],[-0.499346,48.862958],[-0.498324,48.8633],[-0.497424,48.863774],[-0.496322,48.864854],[-0.495181,48.865618],[-0.492859,48.865763],[-0.491778,48.866079],[-0.490436,48.865961],[-0.488875,48.865934],[-0.487794,48.865776],[-0.487673,48.866422],[-0.488034,48.866869],[-0.489115,48.867199],[-0.489395,48.86762],[-0.489295,48.868963],[-0.489115,48.869411],[-0.481827,48.870096],[-0.480466,48.870465],[-0.479425,48.870715],[-0.478344,48.871018],[-0.476962,48.871163],[-0.475201,48.871255],[-0.4742,48.871202],[-0.473319,48.871084],[-0.472578,48.871176],[-0.472017,48.871294],[-0.471817,48.871189],[-0.472017,48.870873],[-0.471857,48.87053],[-0.471096,48.870425],[-0.470035,48.870689],[-0.469294,48.870636],[-0.468414,48.870715],[-0.468033,48.870926],[-0.466692,48.871057],[-0.465791,48.871518],[-0.46511,48.871768],[-0.464049,48.871926],[-0.460886,48.871966],[-0.458143,48.871084],[-0.455841,48.870886],[-0.453338,48.870451],[-0.451136,48.870544],[-0.450815,48.870649],[-0.450655,48.870847],[-0.450155,48.870794],[-0.446531,48.870952],[-0.44577,48.871202],[-0.442647,48.870899],[-0.441085,48.87053],[-0.440284,48.87007],[-0.439844,48.869622],[-0.439604,48.869108],[-0.439243,48.867686],[-0.438543,48.866869],[-0.437341,48.866277],[-0.43558,48.865855],[-0.433057,48.865631],[-0.433177,48.866132],[-0.432657,48.868094],[-0.432316,48.868884],[-0.432456,48.870346],[-0.432136,48.870557],[-0.431175,48.870899],[-0.430895,48.871334],[-0.430694,48.871953],[-0.430054,48.873006],[-0.429533,48.873151],[-0.429373,48.873375],[-0.42643,48.872545],[-0.425509,48.872361],[-0.423047,48.872098],[-0.422266,48.872084],[-0.420664,48.871887],[-0.419303,48.871861],[-0.417581,48.871979],[-0.41668,48.872005],[-0.416199,48.871966],[-0.413977,48.872229],[-0.412596,48.872532],[-0.411188,48.873543],[-0.409862,48.873862]]],"type":"MultiLineString"},"properties":{"geo_point":{"lon":-0.9610301463212577,"lat":48.9960188347686},"name":"GR221 De Coutances (Manche) à Pont-d'Ouilly (Calvados) (2020)","code_gr":"GR221"}}]}