{"type":"FeatureCollection","features":[{"type":"Feature","geometry":{"coordinates":[[[-0.521851,48.857845],[-0.5214,48.858051],[-0.520917,48.857327],[-0.520971,48.856907],[-0.520982,48.856499],[-0.522462,48.854847],[-0.52273,48.852741],[-0.523074,48.852314],[-0.523342,48.85141],[-0.523621,48.851013],[-0.521668,48.850132],[-0.521003,48.849709],[-0.520552,48.849735],[-0.519651,48.850075],[-0.518214,48.850239],[-0.518203,48.849903],[-0.518525,48.849503],[-0.51934,48.849106],[-0.520155,48.848896],[-0.521775,48.848057],[-0.52316,48.847637],[-0.524029,48.846905],[-0.524565,48.846424],[-0.52523,48.846035],[-0.524737,48.845833],[-0.52552,48.845161],[-0.525552,48.844616],[-0.526539,48.84367],[-0.52685,48.843273],[-0.525842,48.842224],[-0.525756,48.841579],[-0.524994,48.840755],[-0.524865,48.840218],[-0.525123,48.839252],[-0.525713,48.838043],[-0.526872,48.836483],[-0.528063,48.83432],[-0.528492,48.834072],[-0.528749,48.833645],[-0.528417,48.832989],[-0.528492,48.832558],[-0.529329,48.831696],[-0.529436,48.831306],[-0.529532,48.830635],[-0.530047,48.830112],[-0.531324,48.829308],[-0.533663,48.828091],[-0.534596,48.827507],[-0.535508,48.827133],[-0.536131,48.827492],[-0.537354,48.826794],[-0.537686,48.826389],[-0.538716,48.825874],[-0.5395,48.826805],[-0.540036,48.827991],[-0.540884,48.829365],[-0.542396,48.828594],[-0.543147,48.82785],[-0.544478,48.826855],[-0.54657,48.82391],[-0.546066,48.822731],[-0.54628,48.821712],[-0.546377,48.820698],[-0.546967,48.819214],[-0.547332,48.817066],[-0.547664,48.816418],[-0.547793,48.815456],[-0.547525,48.814163],[-0.547031,48.813683],[-0.54686,48.813328],[-0.547085,48.810692],[-0.546817,48.810261],[-0.544789,48.809395],[-0.543555,48.808678],[-0.543286,48.808326],[-0.543093,48.807473],[-0.543094,48.806877],[-0.543652,48.807407],[-0.544285,48.807457],[-0.5448,48.807281],[-0.545164,48.806767],[-0.545787,48.806286],[-0.546795,48.805946],[-0.549499,48.805336],[-0.551795,48.80545],[-0.552911,48.804565],[-0.553533,48.804207],[-0.553769,48.803932],[-0.554005,48.802937],[-0.555131,48.801846],[-0.556011,48.801189],[-0.556998,48.800858],[-0.557578,48.800793],[-0.557449,48.799839],[-0.558511,48.799572],[-0.559402,48.799274],[-0.559466,48.800156],[-0.559777,48.800575],[-0.560936,48.801597],[-0.560968,48.802495],[-0.561515,48.803813],[-0.561751,48.804607],[-0.561773,48.8055],[-0.563993,48.807053],[-0.565646,48.807915],[-0.567083,48.807034],[-0.567534,48.806953],[-0.567985,48.806702],[-0.569218,48.806305],[-0.569669,48.805908],[-0.570356,48.806229],[-0.571042,48.807739],[-0.570731,48.808723],[-0.570838,48.809166],[-0.571718,48.809921],[-0.571643,48.810226],[-0.571203,48.810581],[-0.572222,48.811428],[-0.572759,48.812],[-0.572909,48.811104],[-0.573606,48.810078],[-0.573993,48.80933],[-0.574883,48.808537],[-0.576729,48.805775],[-0.576836,48.805294],[-0.577329,48.805317],[-0.577512,48.804771],[-0.578102,48.804192],[-0.578831,48.8036],[-0.578789,48.802864],[-0.579185,48.802425],[-0.57954,48.800735],[-0.580087,48.800072],[-0.580945,48.799183],[-0.581492,48.79895],[-0.582232,48.798408],[-0.582844,48.79781],[-0.583016,48.797367],[-0.583949,48.797012],[-0.583842,48.796555],[-0.584121,48.796169],[-0.584528,48.795834],[-0.585419,48.795967],[-0.586814,48.795994],[-0.587361,48.795761],[-0.587897,48.795254],[-0.588831,48.794842],[-0.59058,48.794731],[-0.591427,48.796455],[-0.595901,48.795792],[-0.597929,48.795429],[-0.598497,48.795429],[-0.598379,48.794849],[-0.598766,48.79364],[-0.598959,48.793556],[-0.598605,48.793007],[-0.598412,48.792645],[-0.597392,48.791336],[-0.600343,48.791534],[-0.602757,48.791676],[-0.603819,48.791668],[-0.604827,48.791561],[-0.605621,48.791641],[-0.60545,48.792229],[-0.607724,48.791817],[-0.611823,48.790878],[-0.612799,48.790565],[-0.61443,48.790226],[-0.615953,48.793133],[-0.616972,48.794178],[-0.617294,48.794884],[-0.61753,48.795845],[-0.618078,48.796467],[-0.618163,48.79689],[-0.618668,48.79702],[-0.619783,48.797112],[-0.620309,48.798679],[-0.620738,48.79977],[-0.621082,48.800171],[-0.621779,48.801846],[-0.622122,48.801731],[-0.622916,48.801647],[-0.623249,48.802071],[-0.624311,48.802483],[-0.624386,48.80275],[-0.623817,48.802998],[-0.62312,48.803177],[-0.623034,48.803467],[-0.623399,48.804371],[-0.622691,48.8055],[-0.624644,48.805359],[-0.625845,48.805367],[-0.626661,48.805096],[-0.62812,48.804829],[-0.629493,48.804455],[-0.629686,48.804897],[-0.630126,48.804962],[-0.630308,48.805096],[-0.630941,48.805153],[-0.632443,48.804863],[-0.632164,48.804241],[-0.63254,48.804199],[-0.63372,48.803683],[-0.633956,48.803371],[-0.635405,48.802517],[-0.635951,48.802059],[-0.637014,48.80258],[-0.637379,48.803211],[-0.638151,48.8036],[-0.638816,48.804256],[-0.639374,48.806652],[-0.639803,48.80735],[-0.640393,48.807663],[-0.641531,48.807663],[-0.642443,48.807407],[-0.643301,48.807224],[-0.643376,48.806049],[-0.643473,48.805634],[-0.644524,48.804737],[-0.647893,48.80283],[-0.648816,48.802406],[-0.648805,48.801506],[-0.648526,48.800442],[-0.648665,48.799763],[-0.649331,48.799026],[-0.650092,48.798172],[-0.650382,48.796913],[-0.651133,48.796574],[-0.650554,48.796242],[-0.650586,48.795586],[-0.651047,48.795338],[-0.651197,48.795048],[-0.652002,48.794228],[-0.652603,48.79297],[-0.652721,48.792686],[-0.653172,48.792229],[-0.652936,48.791714],[-0.653633,48.790077],[-0.654223,48.789387],[-0.654448,48.788765],[-0.65447,48.788071],[-0.654931,48.787231],[-0.656433,48.786701],[-0.657581,48.786415],[-0.659899,48.786114],[-0.661626,48.786057],[-0.666057,48.785267],[-0.668031,48.784176],[-0.668911,48.78397],[-0.669672,48.784042],[-0.670574,48.784306],[-0.670874,48.784252],[-0.672076,48.784405],[-0.673095,48.784672],[-0.673653,48.78487],[-0.675305,48.784523],[-0.676024,48.784546],[-0.676818,48.78479],[-0.677633,48.78492],[-0.678309,48.785278],[-0.680981,48.786205],[-0.682783,48.786411],[-0.683277,48.786568],[-0.685036,48.784332],[-0.686678,48.781208],[-0.687697,48.779144],[-0.688791,48.777481],[-0.689532,48.776943],[-0.691237,48.7757],[-0.6929,48.773785],[-0.694231,48.774101],[-0.696763,48.773853],[-0.698469,48.774132],[-0.700582,48.774281],[-0.701387,48.774235],[-0.701998,48.774334],[-0.703039,48.774323],[-0.703425,48.774796],[-0.705314,48.773945],[-0.706236,48.773647],[-0.7085,48.772667],[-0.709927,48.772236],[-0.71173,48.771381],[-0.713629,48.770233],[-0.714594,48.769753],[-0.713221,48.768921],[-0.713092,48.768333],[-0.712234,48.767151],[-0.714186,48.767376],[-0.716654,48.766785],[-0.718113,48.766232],[-0.720742,48.765038],[-0.7216,48.764866],[-0.721568,48.765701],[-0.722973,48.765369],[-0.724754,48.764633],[-0.725698,48.764084],[-0.725945,48.763638],[-0.726439,48.763268],[-0.726728,48.763397],[-0.727565,48.763184],[-0.728123,48.763317],[-0.728424,48.76358],[-0.729604,48.763962],[-0.730441,48.762928],[-0.730301,48.762817],[-0.729861,48.762817],[-0.7294,48.762314],[-0.728499,48.762351],[-0.727286,48.762193],[-0.726804,48.762115],[-0.726525,48.761402],[-0.7266,48.761131],[-0.727619,48.761253],[-0.728381,48.761006],[-0.726814,48.758827],[-0.726374,48.758663],[-0.722673,48.756012],[-0.724422,48.754562],[-0.725881,48.752914],[-0.727125,48.750885],[-0.728005,48.750496],[-0.729046,48.749577],[-0.730376,48.748997],[-0.73161,48.748684],[-0.732855,48.748493],[-0.732962,48.74818],[-0.731921,48.746555],[-0.732157,48.746315],[-0.736856,48.745975],[-0.737586,48.746265],[-0.739549,48.745338],[-0.739667,48.745174],[-0.740526,48.744678],[-0.741792,48.743618],[-0.743315,48.743011],[-0.744077,48.742477],[-0.744764,48.741604],[-0.745665,48.740753],[-0.746502,48.740051],[-0.748175,48.738197],[-0.751297,48.735142],[-0.751587,48.73457],[-0.751705,48.733749],[-0.752167,48.733303],[-0.752842,48.733116],[-0.753508,48.733173],[-0.755589,48.733776],[-0.760256,48.732849],[-0.760739,48.732468],[-0.760835,48.731434],[-0.759194,48.72934],[-0.75913,48.729305],[-0.758421,48.728539],[-0.75737,48.727306],[-0.756769,48.726105],[-0.75634,48.725666],[-0.758507,48.724815],[-0.759322,48.724234],[-0.760052,48.724236],[-0.760996,48.724377],[-0.76179,48.724136],[-0.762091,48.723881],[-0.76385,48.723217],[-0.764816,48.722454],[-0.766618,48.720669],[-0.767927,48.719975],[-0.769343,48.719807],[-0.769622,48.719379],[-0.770416,48.719154],[-0.771167,48.718815],[-0.772798,48.718246],[-0.77415,48.717468],[-0.775352,48.716961],[-0.775716,48.716068],[-0.77606,48.715488],[-0.777369,48.716209],[-0.777969,48.717201],[-0.77842,48.716873],[-0.778999,48.716988],[-0.780029,48.716564],[-0.782154,48.716946],[-0.782819,48.71669],[-0.786402,48.71703],[-0.785587,48.718517],[-0.785437,48.719196],[-0.784578,48.720074],[-0.784192,48.720612],[-0.78402,48.721207],[-0.783527,48.721676],[-0.782948,48.721958],[-0.782669,48.722382],[-0.783677,48.722752],[-0.784986,48.723656],[-0.787496,48.725666],[-0.788484,48.727661],[-0.789449,48.728809],[-0.789664,48.729614],[-0.789556,48.730891],[-0.790952,48.732136],[-0.792003,48.733578],[-0.794106,48.735531],[-0.794513,48.736931],[-0.795221,48.737755],[-0.79653,48.738049],[-0.797281,48.739422],[-0.79771,48.739891],[-0.79814,48.74081],[-0.800629,48.740131],[-0.802925,48.739719],[-0.804298,48.739025],[-0.806401,48.737312],[-0.808289,48.73645],[-0.810521,48.735615],[-0.81183,48.734768],[-0.813439,48.732868],[-0.814426,48.732277],[-0.814812,48.73188],[-0.817237,48.733139],[-0.818739,48.732121],[-0.819962,48.730663],[-0.822623,48.730152],[-0.826571,48.729034],[-0.827451,48.728157],[-0.827494,48.727196],[-0.828052,48.726231],[-0.828009,48.725201],[-0.829189,48.72374],[-0.830219,48.722919],[-0.828781,48.722454],[-0.828202,48.721447],[-0.828137,48.720695],[-0.827043,48.720486],[-0.827322,48.719353],[-0.826185,48.716862],[-0.825713,48.716379],[-0.825155,48.716095],[-0.824168,48.715603],[-0.825005,48.714851],[-0.824189,48.712784],[-0.823459,48.711538],[-0.822837,48.711197],[-0.822151,48.710079],[-0.820735,48.709244],[-0.817881,48.708324],[-0.816143,48.708664],[-0.815456,48.708309],[-0.814233,48.708282],[-0.811937,48.707798],[-0.81183,48.707531],[-0.813203,48.706951],[-0.814254,48.705505],[-0.81389,48.704102],[-0.812709,48.704258],[-0.811508,48.704102],[-0.810456,48.703835],[-0.809812,48.703889],[-0.808568,48.703453],[-0.806959,48.703072],[-0.812988,48.698597],[-0.814898,48.699924],[-0.815091,48.699585],[-0.815392,48.698139],[-0.816271,48.697193],[-0.817108,48.695637],[-0.817838,48.695141],[-0.818202,48.694672],[-0.818996,48.695084],[-0.820241,48.697121],[-0.822065,48.697533],[-0.823588,48.697716],[-0.824876,48.697006],[-0.827022,48.693382],[-0.831678,48.69215],[-0.834317,48.692432],[-0.835218,48.69228],[-0.836077,48.691216],[-0.835497,48.689288],[-0.835583,48.688489],[-0.836313,48.686981],[-0.83569,48.686356],[-0.835133,48.685535],[-0.833738,48.684345],[-0.833351,48.683239],[-0.833738,48.682135],[-0.833566,48.681087],[-0.831163,48.680859],[-0.830004,48.680634],[-0.828545,48.680492],[-0.825713,48.68018],[-0.825444,48.680214],[-0.825466,48.67989],[-0.825831,48.679218],[-0.826421,48.678312],[-0.826764,48.678241],[-0.826829,48.677953],[-0.82758,48.67787],[-0.82994,48.676851],[-0.830562,48.676411],[-0.830905,48.676285],[-0.831249,48.676098],[-0.831656,48.675987],[-0.831356,48.674583],[-0.832236,48.672119],[-0.833158,48.670643],[-0.834553,48.669243],[-0.835068,48.668205],[-0.833588,48.667767],[-0.831935,48.666988],[-0.828846,48.666164],[-0.825477,48.664677],[-0.824962,48.663685],[-0.824811,48.661091],[-0.824254,48.659081],[-0.823996,48.65881],[-0.82361,48.658005],[-0.821249,48.655537],[-0.820327,48.655224],[-0.819769,48.654644],[-0.819619,48.653282],[-0.820155,48.650433],[-0.819662,48.649174],[-0.819619,48.64859],[-0.818911,48.647469],[-0.819383,48.646816],[-0.819597,48.645683]]],"type":"MultiLineString"},"properties":{"geo_point":{"lon":-0.698693253255607,"lat":48.75959594295762},"name":"GR226 De Vaux (Calvados) à Gué-Rochoux (Côtes-d'Armor) (2019)","code_gr":"GR226"}}]}