{"type":"FeatureCollection","features":[{"type":"Feature","geometry":{"coordinates":[[[0.36687,49.434559],[0.36821,49.434681],[0.36925,49.43486],[0.36965,49.43486],[0.37104,49.43502],[0.37275,49.43507],[0.37628,49.43494],[0.37714,49.43486],[0.37809,49.43465],[0.3797,49.434219],[0.37977,49.43401],[0.38109,49.433578],[0.38207,49.43338],[0.38273,49.43314],[0.38246,49.432652],[0.38253,49.432301],[0.38354,49.431198],[0.38457,49.429508],[0.38646,49.428349],[0.38621,49.426849],[0.38592,49.42622],[0.38583,49.425709],[0.38589,49.425289],[0.38628,49.42503],[0.38795,49.424412],[0.38795,49.424412],[0.391228,49.422023],[0.39228,49.422526],[0.393181,49.423196],[0.39464,49.42374],[0.395284,49.42388],[0.395777,49.424103],[0.395971,49.423838],[0.395885,49.423531],[0.396507,49.423335],[0.397344,49.422819],[0.398867,49.421284],[0.399747,49.420879],[0.399296,49.419999],[0.398052,49.419232],[0.397816,49.418869],[0.397751,49.41831],[0.397623,49.418045],[0.397451,49.418003],[0.395777,49.416035],[0.396979,49.415491],[0.397108,49.415197],[0.397494,49.414779],[0.39788,49.414164],[0.396035,49.413997],[0.394726,49.413648],[0.393996,49.413327],[0.393696,49.413048],[0.39331,49.412922],[0.393095,49.412573],[0.391829,49.411414],[0.391722,49.411163],[0.391336,49.41066],[0.390649,49.407338],[0.3911,49.406821],[0.39138,49.406391],[0.39153,49.40575],[0.39128,49.405258],[0.3914,49.402939],[0.39422,49.40332],[0.39511,49.403622],[0.39636,49.40377],[0.39806,49.404179],[0.39915,49.404209],[0.4002,49.40453],[0.40246,49.404499],[0.40335,49.40477],[0.40445,49.404789],[0.4055,49.405128],[0.40647,49.405159],[0.40728,49.40509],[0.40976,49.40538],[0.40977,49.40591],[0.41297,49.40527],[0.41578,49.404251],[0.41595,49.403641],[0.41651,49.403511],[0.41784,49.404228],[0.41816,49.403889],[0.42063,49.402519],[0.42136,49.40163],[0.42324,49.40094],[0.42403,49.40057],[0.42542,49.39909],[0.42435,49.398441],[0.42549,49.397629],[0.42654,49.396519],[0.42731,49.396851],[0.42843,49.39576],[0.42908,49.39555],[0.42948,49.394951],[0.42965,49.39378],[0.43039,49.39296],[0.43064,49.39249],[0.43064,49.392208],[0.43116,49.3913],[0.43165,49.390549],[0.43235,49.38987],[0.4331,49.388618],[0.43348,49.388081],[0.43379,49.387241],[0.43447,49.385899],[0.43488,49.385399],[0.43501,49.38377],[0.43486,49.383018],[0.43464,49.382858],[0.43375,49.382889],[0.43281,49.382542],[0.43298,49.38105],[0.43296,49.380409],[0.43324,49.379711],[0.43435,49.378349],[0.435159,49.377344],[0.435991,49.376212],[0.43613,49.37537],[0.43584,49.374359],[0.43889,49.37244],[0.439987,49.371713],[0.44251,49.37291],[0.44231,49.373138],[0.44197,49.373749],[0.44195,49.374432],[0.44232,49.374691],[0.44296,49.374538],[0.444712,49.373275],[0.444468,49.373018],[0.447548,49.371263],[0.449036,49.370182],[0.44958,49.369911],[0.44916,49.369572],[0.44924,49.36927],[0.44952,49.368759],[0.45058,49.36758],[0.45057,49.367409],[0.45036,49.367371],[0.44915,49.367352],[0.44793,49.367142],[0.4484,49.36684],[0.44907,49.366581],[0.45275,49.364769],[0.45358,49.365238],[0.45378,49.365299],[0.45433,49.365292],[0.45534,49.3652],[0.45586,49.365211],[0.45627,49.365299],[0.45663,49.365429],[0.45686,49.365459],[0.45766,49.36541],[0.45839,49.365398],[0.45873,49.365711],[0.46012,49.366619],[0.46024,49.366879],[0.461,49.36771],[0.46085,49.367809],[0.46186,49.367592],[0.4641,49.366711],[0.46496,49.366219],[0.46507,49.365898],[0.46535,49.365501],[0.46645,49.364819],[0.46665,49.36459],[0.46744,49.364239],[0.46743,49.364021],[0.46693,49.363571],[0.46713,49.363319],[0.4678,49.363289],[0.46831,49.363731],[0.46905,49.363289],[0.46902,49.36306],[0.47115,49.362968],[0.47174,49.363319],[0.4726,49.363319],[0.47323,49.363071],[0.47366,49.36237],[0.47365,49.362259],[0.47411,49.362068],[0.47457,49.361599],[0.47544,49.361038],[0.47616,49.3605],[0.4781,49.35973],[0.47821,49.359581],[0.47737,49.358742],[0.47744,49.35833],[0.47871,49.35762],[0.4794,49.35741],[0.48062,49.357128],[0.48136,49.356819],[0.48189,49.356739],[0.48257,49.35651],[0.48396,49.35582],[0.48403,49.355721],[0.48509,49.355339],[0.48629,49.354778],[0.48647,49.35474],[0.48649,49.354599],[0.4864,49.354469],[0.48647,49.354321],[0.48673,49.354111],[0.48667,49.354],[0.4864,49.353951],[0.48522,49.353889],[0.48491,49.353771],[0.48468,49.353569],[0.48414,49.352779],[0.48382,49.352531],[0.48321,49.352188],[0.48273,49.351822],[0.48251,49.351452],[0.48231,49.350819],[0.48214,49.35054],[0.48309,49.350109],[0.48404,49.349831],[0.48518,49.349609],[0.48458,49.34911],[0.4848,49.348831],[0.48488,49.348541],[0.4859,49.347591],[0.48616,49.346889],[0.48658,49.346352],[0.48746,49.34671],[0.48796,49.346272],[0.4898,49.346409],[0.49028,49.346531],[0.49135,49.346642],[0.49226,49.346329],[0.49272,49.346272],[0.4928,49.346218],[0.49382,49.346519],[0.49452,49.346611],[0.49508,49.346588],[0.49802,49.34716],[0.49978,49.347061],[0.50071,49.347221],[0.50021,49.346691],[0.49986,49.345242],[0.49873,49.344158],[0.49612,49.342442],[0.49557,49.34201],[0.49422,49.341621],[0.49325,49.341412],[0.49306,49.34008],[0.49308,49.339409],[0.49246,49.338051],[0.49285,49.338081],[0.4934,49.338482],[0.49369,49.338501],[0.49456,49.338188],[0.49631,49.337719],[0.49686,49.33791],[0.49905,49.339359],[0.49964,49.339069],[0.50012,49.339111],[0.50408,49.33712],[0.50408,49.337372],[0.50516,49.337379],[0.50571,49.337528],[0.50679,49.338791],[0.50763,49.339451],[0.50792,49.339539],[0.50904,49.33931],[0.51069,49.339081],[0.51058,49.33881],[0.51148,49.338631],[0.51205,49.3377],[0.5129,49.3377],[0.5149,49.338749],[0.51599,49.338921],[0.51737,49.34045],[0.51817,49.340939],[0.51882,49.341419],[0.52027,49.341549],[0.523,49.341339],[0.52579,49.340858],[0.52768,49.340858],[0.52861,49.341049],[0.52824,49.34293],[0.52765,49.343479],[0.53171,49.343449],[0.53319,49.343712],[0.53524,49.34388],[0.5361,49.343849],[0.53709,49.344059],[0.53851,49.343731],[0.5391,49.343361],[0.53959,49.343182],[0.54001,49.342209],[0.54068,49.341789],[0.54051,49.341209],[0.54076,49.340832],[0.54342,49.339909],[0.54502,49.3396],[0.54556,49.339279],[0.54683,49.339211],[0.54713,49.33902],[0.5477,49.338928],[0.54757,49.337841],[0.54829,49.337719],[0.54886,49.33794],[0.54948,49.337238],[0.5497,49.336182],[0.55008,49.33559],[0.55047,49.335361],[0.55042,49.334808],[0.55062,49.334541],[0.55092,49.334381],[0.55162,49.334599],[0.5522,49.334911],[0.55264,49.334949],[0.55298,49.334808],[0.55491,49.332729],[0.55633,49.331032],[0.558,49.329552],[0.55869,49.328861],[0.56089,49.328232],[0.56188,49.328239],[0.56179,49.328609],[0.5624,49.32954],[0.56266,49.33041],[0.56395,49.331959],[0.56441,49.332722],[0.56969,49.33173],[0.56968,49.331589],[0.57198,49.330601],[0.57213,49.33017],[0.57355,49.331348],[0.573843,49.331787],[0.57414,49.33242],[0.574098,49.332417],[0.57471,49.333385],[0.574753,49.333626],[0.574856,49.333672],[0.575575,49.333466],[0.579604,49.331898],[0.584625,49.329521],[0.585086,49.329002],[0.587661,49.32782],[0.588552,49.327179],[0.589346,49.3262],[0.590108,49.325687],[0.589807,49.325284],[0.588155,49.324654],[0.588058,49.324409],[0.588788,49.323849],[0.587887,49.323284],[0.588466,49.322582],[0.588595,49.321827],[0.588434,49.321507],[0.588799,49.321018],[0.589131,49.319687],[0.589539,49.318569],[0.58955,49.318157],[0.592092,49.315689],[0.59221,49.315254],[0.592253,49.314659],[0.593809,49.312771],[0.594345,49.312275],[0.594721,49.312126],[0.595096,49.310883],[0.595745,49.309498],[0.602027,49.308338],[0.602403,49.308357],[0.603132,49.308929],[0.603325,49.30928],[0.603873,49.309471],[0.605804,49.30986],[0.609215,49.311497],[0.609806,49.311619],[0.609848,49.311695],[0.610546,49.311779],[0.613679,49.311035],[0.61444,49.310547],[0.614483,49.310463],[0.61752,49.309734],[0.617584,49.309547],[0.618786,49.309196],[0.620492,49.30891],[0.622852,49.308372],[0.622916,49.30817],[0.624247,49.307709],[0.624772,49.306847],[0.625641,49.306763],[0.62577,49.306618],[0.625738,49.306328],[0.625845,49.306217],[0.626822,49.306026],[0.628442,49.305271],[0.628484,49.305042],[0.629225,49.305183],[0.630373,49.305145],[0.631671,49.304924],[0.631778,49.304722],[0.631628,49.304119],[0.632186,49.303455],[0.634396,49.302811],[0.635469,49.302238],[0.63637,49.301636],[0.637507,49.300468],[0.638076,49.300102],[0.639331,49.299816],[0.640694,49.299572],[0.640876,49.299801],[0.642818,49.299389],[0.642947,49.299164],[0.643011,49.298786],[0.644685,49.297585],[0.645511,49.296764],[0.647002,49.2971],[0.647925,49.296913],[0.648451,49.296494],[0.648751,49.295918],[0.648762,49.295303],[0.648869,49.295109],[0.649105,49.295067],[0.64918,49.294708],[0.650253,49.293385],[0.651863,49.292023],[0.652657,49.290421],[0.652496,49.290161],[0.653096,49.288738],[0.654384,49.286381],[0.654716,49.285561],[0.655231,49.284843],[0.65506,49.283791],[0.654684,49.28265],[0.654577,49.281342],[0.654362,49.280563],[0.654502,49.27953],[0.654749,49.27895],[0.654566,49.278599],[0.65432,49.278515],[0.654019,49.278591],[0.653762,49.278423],[0.653633,49.277779],[0.653472,49.277435],[0.653547,49.27692],[0.653719,49.276714],[0.653601,49.27615],[0.653386,49.275524],[0.653515,49.27459],[0.653172,49.273678],[0.653086,49.272873],[0.652635,49.272503],[0.652946,49.271557],[0.652764,49.270935],[0.652184,49.270432],[0.65183,49.269619],[0.651541,49.269043],[0.651632,49.268718],[0.651509,49.268085],[0.6505,49.267567],[0.649309,49.266647],[0.648043,49.265991],[0.64814,49.265579],[0.647582,49.265446],[0.64593,49.26461],[0.645597,49.264347],[0.645704,49.263905],[0.64594,49.263512],[0.645812,49.263206],[0.645243,49.262966],[0.64535,49.261902],[0.645651,49.261658],[0.646917,49.260292],[0.64859,49.259739],[0.649416,49.259033],[0.649492,49.257721],[0.649749,49.257534],[0.649835,49.256729],[0.6505,49.255882],[0.650532,49.25462],[0.65109,49.254478],[0.651643,49.254459],[0.651922,49.25462],[0.652619,49.254745],[0.653579,49.25478],[0.653965,49.254688],[0.655478,49.25481],[0.656208,49.254688],[0.65735,49.254395],[0.657849,49.254372],[0.659721,49.253998],[0.660108,49.253815],[0.660558,49.253754],[0.661508,49.25383],[0.662409,49.253735],[0.662795,49.253777],[0.663128,49.253754],[0.665451,49.253448],[0.665874,49.253464],[0.666427,49.253586],[0.667087,49.253601],[0.668471,49.25383],[0.670638,49.254208],[0.670955,49.254131],[0.67169,49.25423],[0.671459,49.253708],[0.671271,49.252865],[0.671228,49.252415],[0.671346,49.252171],[0.671722,49.252102],[0.672419,49.250992],[0.673175,49.249573],[0.673776,49.248058],[0.673969,49.248024],[0.674291,49.248154],[0.674694,49.248161],[0.674978,49.248055],[0.676587,49.247856],[0.677006,49.247906],[0.677762,49.248222],[0.678009,49.248199],[0.678513,49.247303],[0.67906,49.244625],[0.679296,49.243935],[0.680315,49.24316],[0.682912,49.241882],[0.687032,49.239246],[0.687793,49.238434],[0.688062,49.237854],[0.684961,49.235626],[0.683599,49.235107],[0.682214,49.234905],[0.681131,49.234344],[0.679929,49.233498],[0.678481,49.233292],[0.677569,49.233089],[0.676754,49.232788],[0.675799,49.232746],[0.675123,49.232857],[0.673825,49.233349],[0.671271,49.233929],[0.669941,49.234062],[0.669329,49.233925],[0.669147,49.233593],[0.669104,49.232937],[0.669222,49.232193],[0.669168,49.231575],[0.668943,49.231171],[0.667677,49.230736],[0.667634,49.230301],[0.667312,49.229767],[0.667237,49.229229],[0.667291,49.228954],[0.666797,49.228577],[0.668685,49.228176],[0.669522,49.22794],[0.671175,49.22686],[0.672226,49.226818],[0.67641,49.224642],[0.675702,49.224079],[0.675252,49.223517],[0.676308,49.222221],[0.677236,49.22129],[0.67844,49.221032],[0.679859,49.220186],[0.680637,49.219166],[0.681871,49.219721],[0.683577,49.220697],[0.685229,49.220238],[0.687847,49.219376],[0.688555,49.218895],[0.690411,49.218143],[0.691516,49.217106],[0.69245,49.215523],[0.694177,49.213364],[0.694059,49.213001],[0.694381,49.212753],[0.694746,49.212147],[0.695904,49.211277],[0.696087,49.210434],[0.696141,49.20927],[0.696741,49.207764],[0.696816,49.207104],[0.696929,49.206936],[0.697133,49.206005],[0.697122,49.204723],[0.697407,49.203861],[0.697905,49.202953],[0.698619,49.20203],[0.701505,49.200233],[0.702685,49.199471],[0.703919,49.199024],[0.705603,49.198643],[0.706408,49.198589],[0.7082,49.197086],[0.710185,49.195965],[0.710839,49.195797],[0.710828,49.195244],[0.710399,49.194878],[0.711976,49.19521],[0.711794,49.195084],[0.711805,49.193638],[0.712234,49.193581],[0.712363,49.193485],[0.713843,49.19363],[0.714122,49.193806],[0.714905,49.193001],[0.716107,49.193363],[0.717716,49.19342],[0.71836,49.193569],[0.718424,49.194046],[0.718242,49.19445],[0.718371,49.195076],[0.718853,49.195763],[0.720431,49.195385],[0.72072,49.194584],[0.720463,49.193954],[0.720441,49.192966],[0.720763,49.19305],[0.721117,49.192944],[0.721825,49.193035],[0.722716,49.192802],[0.72381,49.191753],[0.724465,49.191353],[0.725462,49.190498],[0.726621,49.189686],[0.727565,49.188744],[0.728134,49.188419],[0.728155,49.188168],[0.727308,49.187881],[0.726568,49.187397],[0.726557,49.187004],[0.726911,49.186008],[0.727673,49.185322],[0.729185,49.181927],[0.729733,49.18026],[0.730484,49.178673],[0.730333,49.177494],[0.730741,49.176765],[0.730891,49.174438],[0.730247,49.171856],[0.730333,49.170017],[0.729368,49.170887],[0.728402,49.16898],[0.727243,49.167759],[0.727308,49.167156],[0.726514,49.16769],[0.724111,49.167675],[0.723917,49.16811],[0.723102,49.168236],[0.72175,49.168083],[0.721278,49.16811],[0.719841,49.1679],[0.719497,49.167564],[0.718038,49.167423],[0.717587,49.16703],[0.716236,49.166553],[0.715528,49.16647],[0.714691,49.166103],[0.714637,49.1651],[0.714905,49.164377],[0.714841,49.16371],[0.715098,49.161331],[0.715678,49.160801],[0.715742,49.160492],[0.715399,49.159592],[0.714991,49.159573],[0.714819,49.160511],[0.714208,49.160379],[0.714283,49.159985],[0.714277,49.159465],[0.715099,49.157622],[0.715452,49.156219],[0.71558,49.154789],[0.71588,49.154209],[0.715607,49.153849],[0.71322,49.152401],[0.7141,49.151878],[0.71443,49.151249],[0.71573,49.150421],[0.715302,49.149359],[0.7152,49.148529],[0.7145,49.148251],[0.71488,49.147652],[0.7149,49.147251],[0.71453,49.146759],[0.71387,49.146309],[0.71323,49.145691],[0.71309,49.145248],[0.71303,49.144661],[0.71264,49.143688],[0.71267,49.143299],[0.71316,49.142849],[0.71394,49.142502],[0.71427,49.1422],[0.71433,49.14183],[0.714097,49.141158],[0.71471,49.13752],[0.713953,49.135877],[0.71285,49.13501],[0.71275,49.134651],[0.71293,49.134129],[0.71314,49.131618],[0.71257,49.129471],[0.70623,49.124599],[0.7075,49.12323],[0.70752,49.122719],[0.70571,49.12294],[0.70242,49.123081],[0.70146,49.122959],[0.69829,49.12138],[0.69851,49.120399],[0.69689,49.119621],[0.69393,49.11784],[0.69478,49.117229],[0.69473,49.115829],[0.693841,49.114585],[0.693445,49.113804],[0.692845,49.113112],[0.691445,49.111811],[0.69111,49.110901],[0.68953,49.10976],[0.69136,49.108891],[0.69254,49.108028],[0.69066,49.107269],[0.6902,49.107761],[0.68965,49.107769],[0.68925,49.107971],[0.68828,49.107361],[0.68647,49.10714],[0.68575,49.10672],[0.68492,49.10648],[0.68425,49.106159],[0.68328,49.105629],[0.68291,49.105209],[0.68266,49.104778],[0.68384,49.102772],[0.68486,49.100788],[0.68534,49.100658],[0.68542,49.100319],[0.68578,49.099869],[0.68729,49.099072],[0.68858,49.098091],[0.68968,49.09763],[0.68589,49.09441],[0.68734,49.093418],[0.68781,49.093369],[0.68854,49.093479],[0.69098,49.092709],[0.69175,49.092079],[0.6925,49.091751],[0.69392,49.09333],[0.69476,49.09346],[0.6957,49.093369],[0.69775,49.092892],[0.70011,49.091759],[0.70085,49.09132],[0.70144,49.09119],[0.70217,49.09127],[0.70257,49.091412],[0.705204,49.090604],[0.70964,49.090591],[0.71129,49.08849],[0.70977,49.085461],[0.70901,49.084339],[0.71171,49.083099],[0.71306,49.082409],[0.714552,49.080704],[0.739754,49.080105],[0.741531,49.080166],[0.74778,49.080002],[0.75068,49.08168],[0.75109,49.081699],[0.75204,49.081249],[0.75453,49.08033],[0.757,49.079632],[0.75815,49.07946],[0.75907,49.07946],[0.76059,49.079739],[0.76381,49.079762],[0.76661,49.077784],[0.767213,49.07819],[0.766099,49.078857],[0.76683,49.079411],[0.76807,49.079578],[0.77195,49.08054],[0.774914,49.080777],[0.775896,49.080586],[0.776946,49.08017],[0.776946,49.08017],[0.7796,49.079208],[0.78276,49.078121],[0.78339,49.07822],[0.78425,49.077869],[0.78425,49.077869],[0.784799,49.077147],[0.784627,49.07657],[0.784799,49.075474],[0.785378,49.073633],[0.785678,49.073239],[0.786151,49.071946],[0.787009,49.071355],[0.787352,49.070076],[0.787674,49.070343],[0.78997,49.070315],[0.795528,49.071805],[0.79542,49.071491],[0.79558,49.071152],[0.79641,49.070721],[0.79691,49.070621],[0.7982,49.070499],[0.79853,49.070381],[0.79873,49.069832],[0.79892,49.068958],[0.79851,49.068352],[0.79804,49.067459],[0.79854,49.067181],[0.79872,49.06673],[0.79822,49.065781],[0.79811,49.065311],[0.79874,49.064541],[0.79886,49.0639],[0.79954,49.062801],[0.80051,49.06184],[0.80769,49.056061],[0.80841,49.05555],[0.80883,49.05489],[0.80989,49.054192],[0.81083,49.05331],[0.81167,49.050652],[0.81218,49.051929],[0.812493,49.052257],[0.813903,49.051697],[0.81486,49.05069],[0.81481,49.05048],[0.81455,49.050301],[0.81466,49.049919],[0.81542,49.05014],[0.81547,49.049931],[0.81563,49.049961],[0.81638,49.04866],[0.81655,49.04874],[0.81714,49.048012],[0.81693,49.04755],[0.81616,49.047279],[0.81664,49.046921],[0.81559,49.04665],[0.81495,49.046268],[0.81441,49.046188],[0.81469,49.045799],[0.81807,49.042191],[0.81932,49.042339],[0.81942,49.042099],[0.81995,49.039181],[0.82016,49.037498],[0.81871,49.035301],[0.81707,49.034641],[0.81519,49.033421],[0.8149,49.033291],[0.81453,49.032661],[0.81463,49.032501],[0.81416,49.032101],[0.81238,49.031891],[0.81098,49.031651],[0.80915,49.0317],[0.80883,49.030651],[0.80956,49.029572],[0.81107,49.028591],[0.81205,49.028332],[0.81229,49.028042],[0.81185,49.027802],[0.81169,49.027458],[0.81121,49.027199],[0.80963,49.026718],[0.80816,49.026051],[0.8072,49.025391],[0.80617,49.02486],[0.80479,49.02375],[0.80398,49.02219],[0.80406,49.02206],[0.80661,49.021751],[0.80702,49.021568],[0.80717,49.021149],[0.80703,49.02002],[0.80735,49.018318],[0.80727,49.018108],[0.80721,49.016731],[0.80755,49.01556],[0.80748,49.014969],[0.80717,49.014271],[0.80648,49.013321],[0.80649,49.01289],[0.80624,49.01226],[0.80582,49.011761],[0.80295,49.009949],[0.80223,49.009789],[0.80161,49.00943],[0.80056,49.009281],[0.80052,49.009048],[0.79996,49.009281],[0.79957,49.00927],[0.79866,49.009109],[0.79712,49.00906],[0.79483,49.00882],[0.79205,49.008179],[0.79002,49.007568],[0.78913,49.007069],[0.78843,49.006908],[0.78752,49.00692],[0.78718,49.006802],[0.78656,49.006409],[0.784383,49.005608],[0.782945,49.004817],[0.782351,49.00295],[0.78174,49.00095],[0.78399,48.997952],[0.78414,48.997162],[0.78463,48.99649],[0.78464,48.99617],[0.7861,48.99538],[0.78833,48.995411],[0.78888,48.995312],[0.79019,48.99543],[0.78922,48.99453],[0.7889,48.993858],[0.78884,48.992722],[0.78872,48.992371],[0.78837,48.99197],[0.78858,48.991032],[0.78858,48.991032],[0.788532,48.989235],[0.787417,48.988616],[0.78702,48.988258],[0.78609,48.986469],[0.78572,48.986],[0.785,48.985458],[0.78339,48.98513],[0.78334,48.98436],[0.78256,48.9846],[0.78236,48.984169],[0.78247,48.983391],[0.78215,48.9828],[0.78206,48.98238],[0.7818,48.981941],[0.78173,48.981441],[0.78149,48.980942],[0.7817,48.980549],[0.78221,48.979988],[0.78257,48.97937],[0.78287,48.979012],[0.781169,48.978146],[0.779611,48.977472],[0.7783,48.976509],[0.77695,48.975417],[0.776154,48.975074],[0.77433,48.973869],[0.772871,48.972551],[0.76928,48.970699],[0.76897,48.97049],[0.76712,48.969952],[0.76664,48.969879],[0.76645,48.96978],[0.76601,48.969681],[0.766,48.96962],[0.76587,48.969589],[0.76451,48.96954],[0.7645,48.96944],[0.76461,48.969269],[0.76467,48.969051],[0.7647,48.968559],[0.76466,48.968391],[0.76496,48.967041],[0.76469,48.966942],[0.76429,48.96685],[0.75704,48.965439],[0.75614,48.96516],[0.75541,48.964802],[0.75496,48.964489],[0.75462,48.9641],[0.75467,48.964008],[0.75485,48.96397],[0.75534,48.964119],[0.75591,48.964352],[0.75619,48.964321],[0.75718,48.963631],[0.75761,48.963039],[0.75816,48.96241],[0.76063,48.961811],[0.76139,48.96138],[0.76226,48.96072],[0.76259,48.960529],[0.76318,48.9603],[0.76352,48.960239],[0.76363,48.960072],[0.76367,48.959648],[0.76386,48.959511],[0.76473,48.959202],[0.76508,48.958988],[0.76508,48.958988],[0.764865,48.957854],[0.762569,48.956952],[0.761539,48.955698],[0.76063,48.955502],[0.76026,48.95525],[0.76,48.9548],[0.75998,48.954391],[0.75936,48.953758],[0.75861,48.953152],[0.75746,48.952671],[0.75625,48.952332],[0.75343,48.952],[0.75329,48.951729],[0.75268,48.951851],[0.75056,48.951962],[0.74964,48.952091],[0.74906,48.952099],[0.74857,48.952042],[0.74803,48.951839],[0.74759,48.952049],[0.74728,48.952351],[0.7476,48.9529],[0.74739,48.953308],[0.74689,48.953411],[0.74646,48.953259],[0.74603,48.952969],[0.7461,48.951672],[0.74644,48.950249],[0.74659,48.949921],[0.74672,48.949348],[0.74667,48.947762],[0.74679,48.94698],[0.74674,48.946289],[0.74893,48.945961],[0.74944,48.945759],[0.7486,48.945511],[0.74773,48.945129],[0.74501,48.94313],[0.74479,48.943199],[0.74273,48.942928],[0.7415,48.942692],[0.74022,48.942371],[0.73939,48.94191],[0.73861,48.941368],[0.73831,48.94083],[0.73701,48.93895],[0.73686,48.938499],[0.73614,48.937092],[0.7362,48.936588],[0.73655,48.935921],[0.73699,48.935532],[0.73762,48.93523],[0.73821,48.93531],[0.739,48.935249],[0.74074,48.934872],[0.7412,48.934681],[0.74163,48.934422],[0.74222,48.933632],[0.74262,48.93338],[0.74353,48.93187],[0.74376,48.931751],[0.74388,48.931549],[0.74406,48.93148],[0.74424,48.931198],[0.74447,48.93037],[0.74428,48.930149],[0.74416,48.929798],[0.7441,48.929291],[0.74361,48.928619],[0.74366,48.928181],[0.74361,48.927792],[0.74365,48.927559],[0.74289,48.9277],[0.74203,48.927219],[0.74093,48.92683],[0.74017,48.92646],[0.73952,48.926201],[0.73983,48.9258],[0.74034,48.925461],[0.74098,48.92522],[0.741997,48.924235],[0.741494,48.923984],[0.740353,48.923905],[0.740776,48.923311],[0.74079,48.922058],[0.74042,48.921398],[0.73974,48.92083],[0.73966,48.920128],[0.73971,48.917469],[0.73954,48.915989],[0.7393,48.915401],[0.73954,48.914612],[0.73971,48.91378],[0.74003,48.913151],[0.74041,48.912601],[0.7406,48.911591],[0.74039,48.910629],[0.7408,48.90934],[0.74154,48.908451],[0.74203,48.9081],[0.74179,48.907711],[0.7413,48.906269],[0.74053,48.905651],[0.7395,48.90506],[0.73606,48.90353],[0.73497,48.902779],[0.73304,48.901852],[0.73224,48.901619],[0.7298,48.9016],[0.72899,48.901379],[0.7281,48.900871],[0.72747,48.900768],[0.72726,48.900841],[0.72414,48.900799],[0.72099,48.899818],[0.71937,48.899189],[0.71861,48.898991],[0.716686,48.898674],[0.71481,48.898312],[0.713242,48.897854],[0.71056,48.89724],[0.707685,48.893532],[0.707341,48.893101],[0.70718,48.892761],[0.70715,48.892559],[0.706526,48.891712],[0.70582,48.89085],[0.70549,48.890308],[0.70558,48.890072],[0.70471,48.889832],[0.70426,48.889381],[0.703157,48.888721],[0.701076,48.887627],[0.700057,48.887077],[0.69906,48.886501],[0.697857,48.885509],[0.69733,48.885311],[0.69636,48.884499],[0.69567,48.884621],[0.694971,48.883938],[0.694724,48.883209],[0.69443,48.882439],[0.694574,48.881664],[0.694553,48.881283],[0.694402,48.880939],[0.693759,48.880051],[0.693362,48.879555],[0.692707,48.878849],[0.692536,48.878731],[0.693126,48.878284],[0.69375,48.878139],[0.69409,48.877949],[0.6944,48.877258],[0.69477,48.876999],[0.69485,48.876751],[0.69549,48.87598],[0.695711,48.874504],[0.696023,48.873177],[0.69638,48.872471],[0.69709,48.87167],[0.69756,48.87088],[0.69749,48.870399],[0.69693,48.869282],[0.69677,48.86879],[0.69622,48.868179],[0.69586,48.86731],[0.69589,48.866871],[0.69618,48.866268],[0.69621,48.865292],[0.69661,48.8634],[0.697023,48.861972],[0.697217,48.861151],[0.69683,48.86105],[0.69843,48.858582],[0.69884,48.856079],[0.69878,48.855389],[0.69895,48.854641],[0.69916,48.854622],[0.70063,48.853851],[0.700969,48.853195],[0.70124,48.852581],[0.701591,48.852058],[0.70199,48.851559],[0.702,48.851421],[0.70248,48.851109],[0.702749,48.850815],[0.70246,48.850483],[0.70192,48.84996],[0.70188,48.849461],[0.70217,48.849209],[0.70254,48.849239],[0.70279,48.849449],[0.703,48.84951],[0.70273,48.848881],[0.70295,48.848091],[0.70314,48.846439],[0.7029,48.84594],[0.70246,48.84528],[0.7022,48.844372],[0.70221,48.843868],[0.7024,48.843418],[0.704273,48.842464],[0.70528,48.841919],[0.7065,48.841122],[0.70711,48.840919],[0.70771,48.840851],[0.70828,48.840691],[0.71116,48.839439],[0.71258,48.838661],[0.71361,48.838032],[0.714508,48.837555],[0.71542,48.837009],[0.71569,48.836739],[0.71571,48.836529],[0.71609,48.836239],[0.71741,48.836498],[0.71792,48.836449],[0.71827,48.836491],[0.71872,48.836391],[0.71913,48.836479],[0.72104,48.837521],[0.72385,48.83947],[0.72672,48.837719],[0.72856,48.837051],[0.72881,48.83683],[0.72857,48.836449],[0.72901,48.836319],[0.72911,48.835812],[0.72941,48.835678],[0.73221,48.834911],[0.73259,48.83466],[0.73317,48.834579],[0.73324,48.834251],[0.73422,48.833439],[0.73349,48.83247],[0.73287,48.8311],[0.73179,48.829609],[0.73175,48.829391],[0.732018,48.828861],[0.73225,48.82827],[0.73227,48.827641],[0.73304,48.82692],[0.73089,48.820629],[0.73033,48.819538],[0.72893,48.817959],[0.72826,48.81712],[0.72756,48.816002],[0.7291,48.815899],[0.73049,48.815651],[0.73017,48.815392],[0.72913,48.81477],[0.72906,48.81422],[0.72915,48.813721],[0.72925,48.813511],[0.72884,48.813202],[0.72844,48.813099],[0.728,48.813061],[0.72798,48.81282],[0.72757,48.81221],[0.72686,48.81139],[0.7292,48.810822],[0.73,48.810692],[0.73131,48.810139],[0.73373,48.809219],[0.735,48.80859],[0.73583,48.808071],[0.73676,48.807301],[0.73908,48.805229],[0.73953,48.804508],[0.740097,48.80422],[0.740425,48.803914],[0.741198,48.803439],[0.741678,48.802989],[0.74296,48.800911],[0.743895,48.800537],[0.743889,48.800545],[0.744495,48.799892],[0.745048,48.799561],[0.747247,48.798428],[0.750718,48.796459],[0.752547,48.79533],[0.753829,48.794174],[0.754473,48.793541],[0.755578,48.792809],[0.756233,48.792603],[0.757027,48.791824],[0.757649,48.791077],[0.758035,48.790398],[0.758196,48.789886],[0.758218,48.789188],[0.75826,48.788723],[0.759569,48.789669],[0.760975,48.790405],[0.761533,48.79073],[0.76296,48.791901],[0.763786,48.791916],[0.764548,48.792046],[0.767144,48.793007],[0.774815,48.798538],[0.779568,48.799938],[0.789363,48.802872],[0.791048,48.803062],[0.791273,48.803329],[0.792185,48.806843],[0.795983,48.807747],[0.798258,48.807632],[0.800479,48.807776],[0.801068,48.807939],[0.80213,48.807826],[0.803794,48.806615],[0.805586,48.806087],[0.806508,48.806127],[0.807226,48.806042],[0.810564,48.805014],[0.811293,48.804686],[0.812624,48.804335],[0.813481,48.803826],[0.814791,48.802807],[0.814983,48.802526],[0.816379,48.802102],[0.817494,48.801564],[0.817902,48.801154],[0.819018,48.800941],[0.819448,48.800194],[0.819694,48.799874],[0.81985,48.799415],[0.820185,48.798974],[0.82267,48.797212],[0.823011,48.79636],[0.823653,48.796497],[0.8245,48.79538],[0.825638,48.79364],[0.825734,48.79282],[0.827955,48.790413],[0.828685,48.790215],[0.829425,48.79034],[0.830498,48.789455],[0.831388,48.789917],[0.832418,48.790192],[0.833491,48.790363],[0.835154,48.790798],[0.836538,48.78875],[0.837321,48.788292],[0.839564,48.789223],[0.840048,48.789564],[0.840701,48.789768],[0.841645,48.788731],[0.843506,48.789089],[0.845255,48.789292],[0.84564,48.788649],[0.845915,48.788452],[0.848351,48.789066],[0.84878,48.789253],[0.849166,48.788834],[0.850056,48.788342],[0.850292,48.787804],[0.849144,48.787388],[0.850003,48.78561],[0.851001,48.784206],[0.851279,48.783554],[0.851816,48.782673],[0.851773,48.782005],[0.85202,48.781483],[0.852771,48.780769],[0.853618,48.780075],[0.855324,48.778622],[0.855936,48.777771],[0.856558,48.776535],[0.85747,48.775581],[0.858264,48.774689],[0.857728,48.772346],[0.858103,48.771599],[0.858822,48.770748],[0.859369,48.770737],[0.860206,48.770894],[0.860881,48.771166],[0.861343,48.771874],[0.863017,48.76991],[0.861429,48.769363],[0.863264,48.767117],[0.866182,48.765213],[0.867169,48.764519],[0.868049,48.76368],[0.869626,48.762871],[0.869154,48.76218],[0.870205,48.76141],[0.87028,48.761131],[0.870141,48.758652],[0.870463,48.758247],[0.872877,48.757244],[0.873864,48.756672],[0.875012,48.75555],[0.874658,48.755142],[0.875055,48.754837],[0.87926,48.754189],[0.880913,48.7537],[0.884335,48.752419],[0.885644,48.752029],[0.886545,48.751564],[0.890161,48.75235],[0.892886,48.749718],[0.893991,48.74918],[0.895675,48.747585],[0.896126,48.747375],[0.897113,48.746738],[0.898229,48.747002],[0.899194,48.746948],[0.900257,48.746658],[0.901436,48.746164],[0.904709,48.745677],[0.909162,48.744907],[0.912015,48.744617],[0.915395,48.74419],[0.919429,48.7439],[0.923506,48.743401],[0.923667,48.742954],[0.92415,48.742622],[0.925158,48.742245]]],"type":"MultiLineString"},"properties":{"geo_point":{"lon":0.6802099462326306,"lat":49.09832281783935},"name":"GR224 De Berville-sur-Mer à Verneuil-sur-Avre (Eure) (2020)","code_gr":"GR224"}}]}