{"type":"FeatureCollection","features":[{"type":"Feature","geometry":{"coordinates":[[[0.326634,48.404204],[0.330303,48.404318],[0.331376,48.404033],[0.331977,48.403919],[0.333865,48.403278],[0.336569,48.402523],[0.337556,48.402352],[0.338071,48.402423],[0.338822,48.402879],[0.339573,48.403136],[0.340667,48.40429],[0.341418,48.405087],[0.341697,48.405657],[0.34247,48.406184],[0.344739,48.407803],[0.345232,48.407476],[0.345694,48.406479],[0.346327,48.405446],[0.34682,48.404235],[0.346659,48.403736],[0.347185,48.403679],[0.347657,48.403074],[0.347925,48.402326],[0.348312,48.401984],[0.349513,48.401436],[0.349996,48.401065],[0.350221,48.400688],[0.35035,48.400275],[0.350876,48.399356],[0.351337,48.398579],[0.351681,48.39724],[0.352174,48.396143],[0.353075,48.395082],[0.354373,48.393692],[0.355221,48.39261],[0.355929,48.391983],[0.357871,48.390465],[0.35845,48.390045],[0.358847,48.389511],[0.360156,48.387708],[0.360907,48.386661],[0.361991,48.385834],[0.362227,48.385385],[0.362324,48.384929],[0.362313,48.384566],[0.36257,48.384124],[0.362785,48.383675],[0.363139,48.383468],[0.364587,48.383098],[0.365564,48.382621],[0.366594,48.381552],[0.366873,48.380882],[0.366787,48.380055],[0.367044,48.37945],[0.367033,48.37868],[0.366926,48.378039],[0.367109,48.37667],[0.367581,48.375252],[0.368224,48.374654],[0.367441,48.374988],[0.364362,48.375437],[0.364298,48.375167],[0.364673,48.374646],[0.364748,48.374368],[0.364684,48.373385],[0.365027,48.372131],[0.365338,48.371788],[0.366315,48.371425],[0.366594,48.371076],[0.367345,48.369985],[0.367817,48.369494],[0.368557,48.367391],[0.366969,48.367277],[0.366926,48.366507],[0.367248,48.366193],[0.367774,48.366086],[0.367881,48.365751],[0.368418,48.365245],[0.369104,48.363748],[0.370585,48.361902],[0.370786,48.360165],[0.371176,48.360112],[0.371282,48.360027],[0.37155,48.357753],[0.37155,48.357753],[0.372983,48.357943],[0.373219,48.357901],[0.373176,48.356518],[0.373605,48.356503],[0.373455,48.355919],[0.373133,48.355919],[0.372961,48.354849],[0.374292,48.354607],[0.374313,48.353937],[0.374635,48.352668],[0.376073,48.352881],[0.376824,48.352881],[0.376759,48.353152],[0.37766,48.353195],[0.379248,48.353523],[0.379484,48.352824],[0.379377,48.352682],[0.379399,48.352026],[0.379184,48.350529],[0.38369,48.350472],[0.38369,48.349816],[0.38281,48.349259],[0.382703,48.348789],[0.382703,48.34809],[0.382274,48.347848],[0.380879,48.347976],[0.379613,48.347762],[0.379656,48.347448],[0.3806,48.346036],[0.3803,48.345109],[0.380321,48.344282],[0.380171,48.344054],[0.38045,48.34384],[0.380536,48.34317],[0.379291,48.343241],[0.378197,48.343227],[0.377339,48.343127],[0.374399,48.343441],[0.374013,48.343541],[0.373562,48.343541],[0.373176,48.343598],[0.37272,48.343458],[0.37224,48.343343],[0.367709,48.342994],[0.368331,48.341561],[0.37286,48.336284],[0.373267,48.335135],[0.373407,48.334065],[0.372419,48.330948],[0.372516,48.329828],[0.372913,48.328973],[0.373417,48.328302],[0.374715,48.327389],[0.377612,48.326019],[0.379082,48.32532],[0.380294,48.32455],[0.381753,48.323437],[0.382773,48.322367],[0.383717,48.320904],[0.384243,48.319648],[0.384554,48.318371],[0.384586,48.317237],[0.384575,48.316424],[0.385337,48.316202],[0.38583,48.315853],[0.386002,48.315425],[0.386174,48.314526],[0.388287,48.31489],[0.389146,48.314825],[0.390015,48.314997],[0.391839,48.315211],[0.392343,48.315446],[0.39319,48.315667],[0.392869,48.314205],[0.392987,48.313577],[0.39274,48.311265],[0.392665,48.310894],[0.392847,48.310116],[0.392922,48.308946],[0.393652,48.308689],[0.39422,48.308346],[0.394939,48.308146],[0.395873,48.307447],[0.396409,48.307283],[0.397021,48.306912],[0.396119,48.306134],[0.395744,48.305399],[0.394628,48.30435],[0.396613,48.303344],[0.397943,48.302816],[0.398115,48.302102],[0.397739,48.301538],[0.397664,48.301003],[0.397782,48.300246],[0.397621,48.299697],[0.397589,48.298526],[0.397385,48.298419],[0.3973,48.297313],[0.396967,48.2959],[0.396935,48.295086],[0.396538,48.293944],[0.396634,48.293337],[0.396463,48.292688],[0.397643,48.292509],[0.401076,48.292316],[0.401634,48.292059],[0.402224,48.291595],[0.403125,48.291531],[0.406129,48.291074],[0.406355,48.290853],[0.406194,48.290389],[0.40526,48.290018],[0.404563,48.289668],[0.403658,48.289345],[0.402488,48.288707],[0.401528,48.287516],[0.401484,48.287184],[0.402106,48.286691],[0.402943,48.286427],[0.403436,48.28607],[0.404316,48.285813],[0.404585,48.28532],[0.405285,48.28493],[0.40731,48.284535],[0.407771,48.284371],[0.409455,48.28415],[0.410786,48.28385],[0.413178,48.283043],[0.414133,48.282964],[0.415399,48.282672],[0.417008,48.2825],[0.418113,48.282043],[0.419573,48.281765],[0.421633,48.281158],[0.426836,48.282964],[0.443294,48.277167],[0.447403,48.274032],[0.448058,48.274546],[0.449055,48.275125],[0.449678,48.275796],[0.450161,48.276167],[0.450697,48.276731],[0.452392,48.277938],[0.453926,48.278445],[0.455192,48.27948],[0.456201,48.279937],[0.457252,48.28068],[0.458411,48.281636],[0.459301,48.282072],[0.461458,48.282943],[0.462821,48.2837],[0.464419,48.284642],[0.465449,48.285121],[0.466951,48.285813],[0.467541,48.286684],[0.468324,48.287298],[0.46885,48.287269],[0.469451,48.287048],[0.471876,48.28662],[0.469397,48.282515],[0.471919,48.2827],[0.472509,48.282843],[0.474182,48.2831],[0.475448,48.283186],[0.476339,48.283693],[0.476768,48.284278],[0.477583,48.284871],[0.480759,48.284507],[0.482025,48.284214],[0.485222,48.2827],[0.487175,48.281636],[0.488688,48.281065],[0.49093,48.282122],[0.492014,48.280787],[0.493387,48.281358],[0.494449,48.28063],[0.496101,48.279187],[0.496552,48.278966],[0.497206,48.27878],[0.499824,48.277274],[0.500726,48.275546],[0.50065,48.275417],[0.501541,48.274846],[0.502678,48.273846],[0.505875,48.272475],[0.506283,48.271976],[0.506626,48.271104],[0.507313,48.271111],[0.508375,48.270554],[0.508418,48.269526],[0.509566,48.268605],[0.508236,48.266862],[0.5086,48.266541],[0.508997,48.265598],[0.510918,48.265241],[0.513514,48.265155],[0.51272,48.265984],[0.512774,48.266334],[0.513461,48.267448],[0.514426,48.268526],[0.515124,48.268591],[0.516315,48.269048],[0.516583,48.269219],[0.516851,48.267641],[0.517216,48.267226],[0.518214,48.266827],[0.520767,48.266212],[0.524458,48.266234],[0.526518,48.265812],[0.527966,48.265884],[0.530241,48.265484],[0.530155,48.265177],[0.527301,48.263577],[0.526732,48.262956],[0.5317,48.261213],[0.535476,48.260177],[0.536313,48.259684],[0.536807,48.258863],[0.536721,48.257356],[0.535648,48.255848],[0.534767,48.252159],[0.534905,48.25098],[0.535641,48.249785],[0.535144,48.249226],[0.533009,48.244325],[0.529854,48.245047],[0.527462,48.24584],[0.525702,48.246254],[0.52316,48.246847],[0.522215,48.247283],[0.521389,48.24739],[0.520155,48.247269],[0.519093,48.246919],[0.517473,48.246447],[0.516304,48.246461],[0.515124,48.246261],[0.513922,48.246397],[0.512892,48.246161],[0.511851,48.245582],[0.511379,48.245668],[0.510607,48.245975],[0.508955,48.246161],[0.508493,48.246018],[0.507753,48.245647],[0.506637,48.245211],[0.50609,48.245075],[0.505661,48.244925],[0.504481,48.245447],[0.503719,48.245668],[0.503376,48.245104],[0.502592,48.244425],[0.502614,48.244053],[0.502689,48.243646],[0.502421,48.24331],[0.500704,48.242653],[0.500371,48.242403],[0.501916,48.241731],[0.501927,48.241703],[0.502152,48.241453],[0.502388,48.240795],[0.502689,48.240488],[0.50418,48.239652],[0.504652,48.239538],[0.505242,48.239445],[0.507227,48.238466],[0.50697,48.237908],[0.506927,48.237594],[0.506079,48.236579],[0.505725,48.236351],[0.503976,48.23565],[0.505553,48.234921],[0.50653,48.234157],[0.507431,48.233442],[0.508708,48.233228],[0.509126,48.233049],[0.509491,48.232835],[0.510435,48.232656],[0.510886,48.232427],[0.512699,48.232606],[0.51493,48.232249],[0.515703,48.232234],[0.516433,48.232263],[0.519072,48.23292],[0.51978,48.233242],[0.52037,48.233592],[0.520885,48.233606],[0.521379,48.233749],[0.521572,48.2341],[0.522366,48.234192],[0.52376,48.234242],[0.524597,48.2344],[0.524822,48.234643],[0.525166,48.234764],[0.525767,48.235114],[0.526872,48.23555],[0.527365,48.235615],[0.527816,48.234042],[0.527226,48.233714],[0.527977,48.233035],[0.528889,48.232685],[0.529404,48.232585],[0.530584,48.232027],[0.530959,48.231648],[0.531635,48.231005],[0.532032,48.230826],[0.531646,48.230055],[0.531721,48.229197],[0.531635,48.228289],[0.531871,48.227796],[0.532172,48.227417],[0.531571,48.226845],[0.530981,48.226024],[0.530487,48.224987],[0.530198,48.223979],[0.52979,48.223393],[0.53053,48.223236],[0.531464,48.223336],[0.531195,48.222006],[0.531217,48.220813],[0.531163,48.220184],[0.531421,48.21924],[0.531818,48.218575],[0.532097,48.21776],[0.531528,48.217253],[0.531303,48.216788],[0.531056,48.21676],[0.530477,48.216388],[0.530477,48.216238],[0.52949,48.215537],[0.528792,48.214915],[0.528277,48.213986],[0.527526,48.212234],[0.526979,48.211534],[0.526475,48.210976],[0.52493,48.210769],[0.524393,48.210418],[0.524018,48.210261],[0.524297,48.210104],[0.524372,48.209775],[0.524586,48.20946],[0.524544,48.209117],[0.524007,48.208445],[0.521507,48.207844],[0.520273,48.207322],[0.518889,48.206479],[0.517752,48.205663],[0.517162,48.205349],[0.519351,48.202732],[0.517409,48.202117],[0.517902,48.201373],[0.51802,48.200901],[0.517763,48.200679],[0.517377,48.200522],[0.517495,48.19975],[0.517902,48.199049],[0.517892,48.198141],[0.519394,48.197955],[0.521218,48.196954],[0.522376,48.196539],[0.523245,48.196482],[0.52375,48.196203],[0.524533,48.195244],[0.523084,48.194465],[0.52126,48.1938],[0.519522,48.193378],[0.517527,48.19262],[0.516175,48.191676],[0.516411,48.191046],[0.51639,48.190331],[0.516239,48.18933],[0.516422,48.188822],[0.516089,48.187849],[0.515993,48.187305],[0.515585,48.186797],[0.518621,48.184623],[0.521529,48.18262],[0.522076,48.182026],[0.523868,48.179694],[0.524222,48.18096],[0.524951,48.182277],[0.526131,48.183693],[0.527204,48.184537],[0.528427,48.185159],[0.531206,48.186332],[0.532633,48.187212],[0.533395,48.187577],[0.533942,48.18792],[0.534436,48.187506],[0.534843,48.186869],[0.536259,48.186247],[0.536796,48.186218],[0.539178,48.186847],[0.540401,48.187391],[0.541635,48.187606],[0.542482,48.187413],[0.543244,48.186619],[0.545207,48.186411],[0.545669,48.186168],[0.546677,48.185052],[0.54775,48.185002],[0.549992,48.184451],[0.551763,48.183843],[0.552825,48.183285],[0.553511,48.183235],[0.5557,48.18335],[0.55629,48.183185],[0.557921,48.18194],[0.558779,48.180767],[0.559444,48.18051],[0.561376,48.180159],[0.562277,48.17983],[0.5632,48.179301],[0.564047,48.178371],[0.565045,48.177562],[0.566783,48.175838],[0.567652,48.175459],[0.570549,48.174507],[0.572051,48.174107],[0.573767,48.173012],[0.573939,48.173141],[0.574325,48.173176],[0.574958,48.173527],[0.576171,48.173377],[0.577898,48.172947],[0.578907,48.172382],[0.579947,48.172311],[0.581363,48.172575],[0.582941,48.172532],[0.583928,48.172769],[0.585408,48.172697],[0.588069,48.172318],[0.589314,48.171302],[0.590097,48.171123],[0.590751,48.170672],[0.591137,48.170615],[0.591545,48.170665],[0.59236,48.170529],[0.594742,48.17103],[0.59559,48.171087],[0.597349,48.17098],[0.599077,48.1704],[0.600461,48.170364],[0.600579,48.173341],[0.600353,48.174278],[0.600493,48.175194],[0.599742,48.177784],[0.600504,48.178063],[0.60148,48.178213],[0.601716,48.178399],[0.602295,48.17865],[0.603079,48.1791],[0.603851,48.179236],[0.604398,48.179508],[0.604924,48.179587],[0.605514,48.179873],[0.607681,48.180045],[0.608078,48.180195],[0.608411,48.180209],[0.608733,48.180331],[0.609097,48.180367],[0.609452,48.180581],[0.609409,48.180953],[0.609913,48.181218],[0.610857,48.181475],[0.611812,48.181654],[0.612799,48.181654],[0.613035,48.181261],[0.614033,48.181225],[0.615234,48.181225],[0.616318,48.181039],[0.616189,48.180309],[0.616339,48.18003],[0.616736,48.179887],[0.618131,48.179665],[0.619011,48.179615],[0.620899,48.179301],[0.622412,48.17925],[0.623045,48.179615],[0.624933,48.179351],[0.626274,48.178943],[0.628152,48.178921],[0.629922,48.17865],[0.631038,48.178278],[0.631467,48.178292],[0.632282,48.178371],[0.633398,48.178113],[0.634257,48.179293],[0.634761,48.179637],[0.635748,48.17958],[0.634106,48.177877],[0.635254,48.177627],[0.636306,48.177612],[0.637325,48.177433],[0.638162,48.176217],[0.63961,48.176611],[0.64005,48.176339],[0.643193,48.175816],[0.643655,48.17606],[0.644256,48.176067],[0.64476,48.176031],[0.645511,48.17621],[0.646799,48.176954],[0.647056,48.177061],[0.647743,48.177734],[0.648011,48.177934],[0.648386,48.178084],[0.648547,48.178235],[0.64888,48.178421],[0.649137,48.178478],[0.649341,48.178678],[0.650629,48.179458],[0.650983,48.179909],[0.651219,48.180302],[0.651745,48.180467],[0.651798,48.180653],[0.651637,48.180917],[0.651981,48.181246],[0.651723,48.181554],[0.65124,48.181404],[0.650833,48.181883],[0.650522,48.182026],[0.651273,48.183278],[0.650758,48.183786],[0.652292,48.18458],[0.651541,48.185381],[0.650833,48.185925],[0.650597,48.186347],[0.650822,48.186719],[0.651734,48.186518],[0.652796,48.186075],[0.653912,48.185023],[0.655274,48.18531],[0.656583,48.185496],[0.65713,48.185703],[0.657463,48.185403],[0.657914,48.185338],[0.660392,48.185345],[0.663536,48.184215],[0.664512,48.184165],[0.665885,48.184315],[0.668664,48.184387],[0.669994,48.184237],[0.671464,48.183679],[0.672505,48.183471],[0.673149,48.183378],[0.67449,48.182885],[0.674962,48.182885],[0.676754,48.182634],[0.682966,48.182756],[0.684103,48.182885],[0.68495,48.183435],[0.686731,48.18428],[0.687203,48.18443],[0.688598,48.182827],[0.690969,48.181776],[0.692064,48.180524],[0.693115,48.178836],[0.694274,48.177562],[0.696044,48.175344],[0.696645,48.174207],[0.696194,48.173484],[0.701945,48.171846],[0.702578,48.171574],[0.705099,48.171881],[0.705764,48.169899],[0.703983,48.169484],[0.706269,48.168125],[0.707653,48.166171],[0.708768,48.165076],[0.709541,48.163838],[0.709648,48.163316],[0.70908,48.161763],[0.709144,48.161384],[0.709434,48.160911],[0.708822,48.159244],[0.709037,48.158936],[0.71041,48.158034],[0.710227,48.157032],[0.71056,48.156782],[0.711987,48.15636],[0.712556,48.155902],[0.713854,48.154442],[0.714047,48.153511],[0.714455,48.152488],[0.715259,48.152688],[0.716997,48.153268],[0.718403,48.153125],[0.720259,48.153167],[0.721353,48.153418],[0.721825,48.153282],[0.722437,48.152895],[0.723671,48.152903],[0.724722,48.152631],[0.725344,48.15185],[0.726546,48.151199],[0.727319,48.151371],[0.729861,48.151858],[0.731202,48.151843],[0.731889,48.152051],[0.733455,48.152738],[0.734046,48.15311],[0.734861,48.153146],[0.735483,48.153354],[0.736535,48.152108],[0.73632,48.151435],[0.738755,48.148772],[0.739431,48.14835],[0.741009,48.149116],[0.741416,48.149195],[0.742543,48.149753],[0.743133,48.149453],[0.744324,48.15014],[0.745504,48.149825],[0.746019,48.150054],[0.746684,48.149982],[0.747296,48.149775],[0.750782,48.149531],[0.751491,48.149338],[0.752156,48.149016],[0.754645,48.148322],[0.756555,48.147706],[0.757606,48.146904],[0.757906,48.146367],[0.757788,48.145759],[0.757906,48.145107],[0.757735,48.144807],[0.757434,48.144613],[0.757746,48.144255],[0.758625,48.144084],[0.758904,48.143826],[0.759591,48.142416],[0.760342,48.141628],[0.761801,48.140805],[0.763679,48.139201],[0.764591,48.139981],[0.766554,48.139237],[0.767326,48.139222],[0.768249,48.139072],[0.768635,48.138857],[0.768903,48.138514],[0.769418,48.138163],[0.769751,48.137533],[0.770266,48.136896],[0.770566,48.136359],[0.773635,48.137046],[0.774461,48.13686],[0.778688,48.135614],[0.785834,48.133459],[0.785501,48.131933],[0.786585,48.132349],[0.787368,48.132879],[0.787507,48.132778],[0.788012,48.131318],[0.788162,48.130544],[0.788194,48.130501],[0.788462,48.129857],[0.788956,48.129628],[0.790136,48.128482],[0.790726,48.128188],[0.791177,48.128024],[0.791252,48.127816],[0.79167,48.127709],[0.792217,48.127666],[0.793236,48.127214],[0.794857,48.126198],[0.79535,48.125696],[0.79535,48.124916],[0.795135,48.124285],[0.79476,48.12387],[0.794406,48.122925],[0.794567,48.122738],[0.795243,48.12238],[0.795811,48.121908],[0.796884,48.120303],[0.796798,48.119401],[0.796959,48.118584],[0.797303,48.11804],[0.797549,48.117847],[0.797904,48.117675],[0.798301,48.117102],[0.798987,48.115676],[0.797904,48.115096],[0.797249,48.114631],[0.796959,48.114294],[0.79638,48.113843],[0.795608,48.11332],[0.795318,48.112116],[0.795597,48.111214],[0.795286,48.110254],[0.793483,48.107388],[0.793033,48.106464],[0.792303,48.105569],[0.791563,48.10496],[0.791541,48.104508],[0.79152,48.103777],[0.792872,48.103219],[0.791123,48.10213],[0.79137,48.101929],[0.791552,48.101212],[0.791777,48.100668],[0.791584,48.10041],[0.792228,48.099328],[0.791584,48.099077],[0.79123,48.099077],[0.790565,48.098963],[0.789975,48.099464],[0.789481,48.099457],[0.788376,48.099228],[0.787303,48.098719],[0.786166,48.099113],[0.786166,48.099471],[0.785512,48.099092],[0.783505,48.097551],[0.781617,48.097959],[0.779375,48.097866],[0.777744,48.097221],[0.7768,48.096684],[0.776457,48.095344],[0.77636,48.094713],[0.775867,48.093854],[0.776714,48.092112],[0.77754,48.091525],[0.77886,48.09131],[0.778849,48.090915],[0.77915,48.090141],[0.778742,48.088608],[0.778913,48.087791],[0.779976,48.086458],[0.780265,48.085748],[0.780555,48.084659],[0.780319,48.083763],[0.780019,48.081727],[0.779665,48.081111],[0.77931,48.080781],[0.779257,48.080581],[0.7796,48.080638],[0.78018,48.081383],[0.78034,48.081921],[0.780405,48.082308],[0.781349,48.082372],[0.78342,48.082186],[0.783613,48.0821],[0.789396,48.082043],[0.794266,48.082014],[0.794073,48.081391],[0.794159,48.080301],[0.794266,48.0799],[0.793569,48.075964],[0.793387,48.075341],[0.793322,48.074488],[0.792099,48.072652],[0.792013,48.07152],[0.791756,48.070953],[0.791724,48.070487],[0.79137,48.070179],[0.790662,48.06995],[0.788108,48.069326],[0.785673,48.069039],[0.77945,48.068473],[0.778731,48.068358],[0.778538,48.06744],[0.778162,48.06668],[0.777884,48.065404],[0.777465,48.0644],[0.776714,48.064071],[0.776618,48.063002],[0.777047,48.062178],[0.777411,48.061661],[0.77754,48.060442],[0.776478,48.059274],[0.774708,48.057696],[0.772691,48.057466],[0.771629,48.057531],[0.770309,48.057789],[0.768303,48.05875],[0.766608,48.059252],[0.765309,48.059453],[0.763056,48.059324],[0.76179,48.058965],[0.756233,48.05723],[0.754398,48.056685],[0.753229,48.056513],[0.750901,48.056749],[0.749463,48.057259],[0.747918,48.05771],[0.746641,48.058406],[0.74589,48.058521],[0.743841,48.058571],[0.74176,48.058535],[0.740064,48.05865],[0.737822,48.059231],[0.736256,48.059496],[0.73603,48.05776],[0.73602,48.055753],[0.733745,48.055265],[0.731471,48.054419],[0.730977,48.053694],[0.730344,48.053243],[0.72926,48.052819],[0.728724,48.05221],[0.727887,48.05107],[0.727855,48.050919],[0.726653,48.05018],[0.725087,48.048201],[0.723327,48.046752],[0.724207,48.046279],[0.723907,48.045941],[0.723574,48.045877],[0.723563,48.045124],[0.722984,48.044012],[0.722512,48.04219],[0.722018,48.041021],[0.722362,48.040289],[0.722276,48.040009],[0.722244,48.039235],[0.721782,48.038388],[0.719883,48.036889],[0.719379,48.035834],[0.717502,48.034356],[0.716869,48.032168],[0.716944,48.031013],[0.738991,48.021821],[0.741566,48.021097],[0.743304,48.021082],[0.742457,48.019037],[0.74147,48.017753],[0.742339,48.017315],[0.742704,48.017286],[0.742725,48.01692],[0.743648,48.015944],[0.743036,48.013812],[0.742983,48.013145],[0.741974,48.01153],[0.741105,48.010619],[0.740622,48.01003],[0.740032,48.009449],[0.739828,48.008975],[0.73838,48.00731],[0.737908,48.006951],[0.736481,48.006326],[0.735236,48.005659],[0.73485,48.005716],[0.73382,48.005443],[0.733402,48.005242],[0.732393,48.004977],[0.730848,48.002981],[0.730097,48.002586],[0.729207,48.001646],[0.729786,48.001309],[0.728837,48.000332],[0.728211,48.000504],[0.726771,48.000131],[0.72558,47.999822],[0.724937,47.999227],[0.72366,47.997403],[0.722437,47.996269],[0.721343,47.995637],[0.719368,47.995012],[0.717705,47.994258],[0.717899,47.994093],[0.719798,47.993505],[0.720592,47.99316],[0.721579,47.992988],[0.722147,47.992191],[0.722566,47.991458],[0.723306,47.99069],[0.723746,47.989993],[0.723982,47.989484],[0.725291,47.987416],[0.725816,47.985699],[0.72705,47.984816],[0.727876,47.984062],[0.727179,47.983409],[0.72704,47.982504],[0.726503,47.980651],[0.726825,47.979796],[0.726728,47.979236],[0.725956,47.978762],[0.720474,47.978798],[0.718199,47.976751],[0.714701,47.9753],[0.709895,47.974948],[0.706172,47.969956],[0.707492,47.969726],[0.706719,47.969238],[0.706505,47.968785],[0.706623,47.968376],[0.706151,47.967816],[0.705668,47.967593],[0.705614,47.966954],[0.705142,47.966422],[0.704262,47.965869],[0.700636,47.964885],[0.699692,47.96449],[0.699606,47.963556],[0.699724,47.9626],[0.700572,47.961594],[0.701151,47.961127],[0.700529,47.960445],[0.7004,47.960064],[0.699681,47.959403],[0.700754,47.958706],[0.70128,47.958218],[0.702567,47.957765],[0.702428,47.957241],[0.70261,47.956802],[0.703211,47.956615],[0.70408,47.956429],[0.704563,47.956199],[0.704402,47.955638],[0.70453,47.955272],[0.704498,47.954798],[0.704788,47.953361],[0.705367,47.952527],[0.706462,47.951744],[0.706751,47.950781],[0.70688,47.94961],[0.706784,47.949063],[0.706869,47.948453],[0.706537,47.947482],[0.706612,47.947267],[0.706472,47.946987],[0.706333,47.946397],[0.706451,47.946139],[0.707631,47.945492],[0.708811,47.945485],[0.710056,47.945118],[0.712835,47.944601],[0.71365,47.944284],[0.71454,47.943537],[0.71541,47.943278],[0.716257,47.942797],[0.716944,47.942552],[0.717437,47.942653],[0.719004,47.942682],[0.721182,47.942387],[0.7244,47.942682],[0.723971,47.941252],[0.722866,47.940238],[0.723166,47.939699],[0.724003,47.93957],[0.724915,47.93962],[0.725387,47.939153],[0.725924,47.938254],[0.726911,47.938262],[0.727308,47.93773],[0.727651,47.937471],[0.727737,47.937248],[0.731395,47.937665],[0.733134,47.93755],[0.734807,47.937126],[0.737146,47.936012],[0.738927,47.935552],[0.740933,47.935444],[0.74221,47.935228],[0.743583,47.934754],[0.744785,47.933963],[0.745139,47.933589],[0.745504,47.933755],[0.747371,47.933755],[0.747392,47.93341],[0.747596,47.932957],[0.747607,47.932597],[0.748465,47.930908],[0.747532,47.928838],[0.746437,47.927493],[0.746115,47.92602],[0.745912,47.926013],[0.745493,47.925747],[0.745214,47.925215],[0.744882,47.925258],[0.744753,47.924963],[0.744517,47.924963],[0.744399,47.924675],[0.744892,47.92456],[0.744399,47.923482],[0.744452,47.922547],[0.743691,47.922605],[0.743487,47.921972],[0.744281,47.921843],[0.744367,47.919491],[0.744034,47.919441],[0.744066,47.919175],[0.742049,47.919384],[0.742071,47.919513],[0.74,47.919671],[0.740182,47.92039],[0.739281,47.920095],[0.738605,47.920024],[0.738444,47.919621],[0.73765,47.919189],[0.736814,47.918931],[0.736052,47.918974],[0.735955,47.918104],[0.736567,47.918003],[0.736159,47.917579],[0.735826,47.916867],[0.73514,47.916414],[0.734528,47.915853],[0.730999,47.915486],[0.730923,47.915472],[0.730247,47.915357],[0.729196,47.915285],[0.728188,47.91517],[0.726246,47.915364],[0.723563,47.915961],[0.722029,47.916098],[0.718714,47.916047],[0.71777,47.916141],[0.718735,47.915587],[0.719594,47.914731],[0.720205,47.913516],[0.721085,47.91307],[0.722308,47.912833],[0.722963,47.912588],[0.723274,47.912358],[0.720098,47.911682],[0.71792,47.911531],[0.716654,47.911035],[0.716418,47.910107],[0.7138,47.906857],[0.713564,47.906461],[0.71262,47.905821],[0.712395,47.905346],[0.711182,47.903678],[0.711107,47.903088],[0.710903,47.902649],[0.710099,47.902218],[0.710045,47.9017],[0.710163,47.901103],[0.710045,47.900549],[0.709198,47.899305],[0.711408,47.898542],[0.712695,47.897816],[0.713918,47.896866],[0.717523,47.894888],[0.718499,47.894118],[0.719701,47.893406],[0.71939,47.893018],[0.71954,47.892687],[0.720752,47.892154],[0.720237,47.891557],[0.718414,47.890687],[0.7188,47.890277],[0.719765,47.888967],[0.719486,47.888111],[0.718489,47.887313],[0.718274,47.887039],[0.717877,47.886953],[0.717577,47.8865],[0.717266,47.886212],[0.717609,47.884312],[0.717545,47.883658],[0.717191,47.883068],[0.717169,47.882722],[0.718564,47.882737],[0.71954,47.882816],[0.72057,47.882729],[0.722126,47.882823],[0.724615,47.883197],[0.724508,47.882391],[0.724958,47.882355],[0.725194,47.882139],[0.726417,47.881751],[0.726986,47.881024],[0.727233,47.87988],[0.727887,47.879434],[0.728649,47.878398],[0.729046,47.878095],[0.72925,47.877757],[0.729711,47.877441],[0.729872,47.877074],[0.729529,47.876512],[0.729024,47.876181],[0.728649,47.875483],[0.728552,47.875059],[0.727952,47.874576],[0.727801,47.874015],[0.729067,47.873159],[0.729475,47.872497],[0.729904,47.872094],[0.730344,47.871352],[0.730848,47.871079],[0.729818,47.870107],[0.72866,47.867926],[0.728563,47.867185],[0.728295,47.867149],[0.727254,47.866422],[0.726653,47.866249],[0.726289,47.866408],[0.725806,47.866775],[0.72439,47.867286],[0.724647,47.866811],[0.723853,47.866494],[0.722083,47.865271],[0.72131,47.864623],[0.720592,47.863961],[0.719862,47.863594],[0.719186,47.863716],[0.718499,47.864054],[0.717577,47.864076],[0.717212,47.863291],[0.716472,47.862478],[0.715957,47.862139],[0.715088,47.860952],[0.714626,47.860225],[0.713768,47.859195],[0.71306,47.858555],[0.712599,47.858425],[0.711858,47.85844],[0.711418,47.85741],[0.713671,47.855812],[0.714068,47.855164],[0.714283,47.854667],[0.714283,47.854329],[0.714787,47.853962],[0.715592,47.853825],[0.717148,47.853897],[0.719744,47.854703],[0.720452,47.854149],[0.71968,47.853163],[0.719637,47.852882],[0.718253,47.851075],[0.718199,47.850794],[0.717781,47.850247],[0.717738,47.84993],[0.717341,47.849649],[0.717137,47.849275],[0.718682,47.849311],[0.720119,47.849361],[0.721654,47.849368],[0.723799,47.849512],[0.726589,47.84944],[0.727791,47.849311],[0.729572,47.847813],[0.730376,47.847633],[0.731181,47.846964],[0.73176,47.846784],[0.732543,47.846949],[0.733005,47.846899],[0.73529,47.847194],[0.735837,47.846791],[0.737125,47.846632],[0.736599,47.845912],[0.736556,47.845099],[0.736213,47.844206],[0.735912,47.843853],[0.735633,47.843306],[0.737801,47.842485],[0.737876,47.841952],[0.738273,47.84121],[0.738627,47.840677],[0.738884,47.839928],[0.739324,47.839568],[0.739678,47.839388],[0.740021,47.838949],[0.741073,47.838121],[0.741802,47.837898],[0.744216,47.837682],[0.74383,47.837206],[0.743852,47.837062],[0.743219,47.83645],[0.741845,47.834686],[0.742017,47.833965],[0.740687,47.833296],[0.738165,47.832979],[0.736856,47.832727],[0.73543,47.832727],[0.734078,47.832604],[0.733294,47.832035],[0.734528,47.831445],[0.735655,47.830119],[0.735987,47.828542],[0.736545,47.827137],[0.737189,47.826568],[0.737908,47.826489],[0.738101,47.826374],[0.737586,47.825956],[0.736974,47.82605],[0.736363,47.826079],[0.735751,47.826381],[0.73499,47.82708],[0.734636,47.827101],[0.733992,47.826756],[0.733498,47.826705],[0.731074,47.827116],[0.730247,47.827087],[0.727233,47.827541],[0.725441,47.827318],[0.724958,47.827109],[0.724132,47.826547],[0.724744,47.825877],[0.724658,47.825675],[0.723349,47.825092],[0.723392,47.824883],[0.72381,47.824451],[0.7213,47.823428],[0.72027,47.823925],[0.719486,47.824069],[0.718145,47.824083],[0.716053,47.824494],[0.715495,47.824256],[0.715098,47.824314],[0.71438,47.82404],[0.713736,47.82355],[0.71233,47.82355],[0.711247,47.823276],[0.710367,47.823154],[0.710195,47.822873],[0.709326,47.822671],[0.709165,47.822441],[0.709122,47.822066],[0.708897,47.821764],[0.706902,47.821202],[0.706172,47.821072],[0.705303,47.820719],[0.704938,47.820337],[0.704541,47.819819],[0.703876,47.819322],[0.702631,47.818969],[0.70187,47.818817],[0.700893,47.818342],[0.700196,47.817528],[0.699563,47.817175],[0.69908,47.816987],[0.701838,47.816656],[0.705239,47.817225],[0.705636,47.81716],[0.70806,47.813947],[0.706987,47.813767],[0.706301,47.813479],[0.704069,47.812931],[0.702685,47.812319],[0.700829,47.811144],[0.700722,47.81087],[0.699724,47.810409],[0.698361,47.809934],[0.69658,47.807945],[0.697106,47.806684],[0.69716,47.806014],[0.696709,47.804508],[0.69584,47.803521],[0.695668,47.802404],[0.698286,47.79862],[0.697685,47.7972],[0.696623,47.795737],[0.697407,47.794123],[0.697074,47.793604],[0.696934,47.792869],[0.696098,47.792033],[0.695486,47.791139],[0.695111,47.790959],[0.694081,47.790822],[0.693126,47.790814],[0.692697,47.790418],[0.692214,47.789416],[0.690379,47.787996],[0.6901,47.787383],[0.689725,47.786987],[0.689285,47.786475],[0.689521,47.784557],[0.689757,47.783772],[0.690218,47.783195],[0.691195,47.783332],[0.690647,47.782431],[0.690519,47.781897],[0.68936,47.780153],[0.689092,47.779287],[0.688319,47.778379],[0.689381,47.778011],[0.690497,47.777305],[0.691248,47.776685],[0.691592,47.77592],[0.691559,47.775582],[0.691946,47.774933],[0.689102,47.774543],[0.687407,47.774435],[0.686774,47.774262],[0.685819,47.774262]]],"type":"MultiLineString"},"properties":{"geo_point":{"lon":0.6209897059355681,"lat":48.11105433735541},"name":"GR235 De Aillières-Beauvoir à La Vallée de la Flotte (Sarthe) (2020)","code_gr":"GR235"}}]}