{"type":"FeatureCollection","features":[{"type":"Feature","geometry":{"coordinates":[[[1.125412,49.322758],[1.126378,49.323079],[1.126748,49.323234],[1.127011,49.323231],[1.132032,49.324383],[1.135283,49.325008],[1.136895,49.325583],[1.136858,49.325672],[1.137015,49.325844],[1.137044,49.32698],[1.137343,49.329681],[1.13731,49.330168],[1.136023,49.333408],[1.136173,49.333953],[1.134901,49.337217],[1.13451,49.339077],[1.134451,49.340259],[1.134373,49.340542],[1.13392,49.34086],[1.133931,49.341115],[1.133609,49.342125],[1.133609,49.342125],[1.136959,49.343274],[1.139062,49.344127],[1.140392,49.344994],[1.142559,49.34614],[1.140971,49.348041],[1.139662,49.349369],[1.139147,49.349705],[1.136379,49.350935],[1.13595,49.351368],[1.135264,49.351103],[1.134963,49.351117],[1.13447,49.351452],[1.133118,49.351815],[1.13226,49.351829],[1.131079,49.351704],[1.130758,49.351759],[1.131208,49.351955],[1.131187,49.352221],[1.131852,49.352165],[1.132066,49.352333],[1.133161,49.352794],[1.134298,49.352962],[1.135242,49.353549],[1.135435,49.354499],[1.13565,49.354625],[1.13683,49.354485],[1.138203,49.354443],[1.13889,49.354289],[1.139255,49.35401],[1.141014,49.353297],[1.140349,49.353954],[1.14007,49.35422],[1.140907,49.353968],[1.141165,49.354094],[1.141165,49.354848],[1.14286,49.354751],[1.142924,49.355757],[1.142602,49.356302],[1.142087,49.356638],[1.14198,49.356903],[1.140757,49.357183],[1.140049,49.358482],[1.140285,49.35879],[1.140671,49.359181],[1.140499,49.359768],[1.140714,49.360271],[1.140521,49.360663],[1.140564,49.360942],[1.141014,49.36125],[1.141301,49.361984],[1.141301,49.361984],[1.141301,49.361984],[1.141548,49.362736],[1.141865,49.363327],[1.141902,49.363773],[1.141752,49.364138],[1.144065,49.365488],[1.144131,49.36564],[1.143587,49.367192],[1.14349,49.367706],[1.14356,49.369019],[1.143506,49.369806],[1.143155,49.369625],[1.138619,49.368313],[1.137632,49.368439],[1.132708,49.366953],[1.132043,49.366849],[1.131302,49.36698],[1.130358,49.367273],[1.129849,49.367492],[1.129572,49.367716],[1.129409,49.368053],[1.129569,49.368432],[1.129773,49.368716],[1.129564,49.368732],[1.129258,49.368707],[1.129044,49.368649],[1.128663,49.369031],[1.129296,49.369568],[1.129521,49.370045],[1.129553,49.370541],[1.12951,49.371065],[1.128947,49.37056],[1.128508,49.370276],[1.128375,49.370539],[1.128566,49.370978],[1.128327,49.371305],[1.12851,49.371579],[1.128436,49.371938],[1.12917,49.372562],[1.129478,49.37325],[1.129779,49.373462],[1.129876,49.373359],[1.130181,49.373362],[1.130508,49.373493],[1.130811,49.373528],[1.131415,49.373469],[1.133684,49.373875],[1.134467,49.374199],[1.135046,49.37416],[1.136457,49.374481],[1.136795,49.374676],[1.137117,49.374771],[1.137246,49.374722],[1.137251,49.374568],[1.137428,49.37451],[1.137541,49.374416],[1.137214,49.374181],[1.137412,49.37421],[1.137906,49.374454],[1.138335,49.374825],[1.138785,49.375523],[1.139182,49.3759],[1.139832,49.376946],[1.140212,49.377229],[1.140379,49.377583],[1.140449,49.378261],[1.140636,49.378497],[1.142632,49.380125],[1.143383,49.380684],[1.143801,49.381152],[1.144287,49.381515],[1.148946,49.383715],[1.148906,49.383873],[1.148828,49.384076],[1.14893,49.38472],[1.148865,49.385012],[1.148908,49.385781],[1.14931,49.386738],[1.14974,49.387123],[1.150946,49.387629],[1.151242,49.387886],[1.151451,49.388008],[1.152159,49.388171],[1.153269,49.388111],[1.153522,49.388004],[1.154455,49.388027],[1.155077,49.388111],[1.155893,49.38813],[1.156842,49.388302],[1.157582,49.388397],[1.15792,49.388535],[1.158709,49.388535],[1.159202,49.388332],[1.159578,49.388397],[1.160463,49.388455],[1.159578,49.38747],[1.158575,49.386513],[1.157995,49.384907],[1.157545,49.383303],[1.157593,49.383214],[1.159143,49.383775],[1.160388,49.384461],[1.161332,49.385081],[1.162303,49.386021],[1.16267,49.386289],[1.164422,49.387207],[1.165516,49.387646],[1.166782,49.387939],[1.16808,49.388051],[1.168381,49.388162],[1.168558,49.388524],[1.169797,49.389659],[1.170656,49.391822],[1.171117,49.392629],[1.171364,49.393016],[1.171615,49.393711],[1.174116,49.392669],[1.174491,49.393398],[1.17638,49.394137],[1.176599,49.394763],[1.17705,49.394926],[1.176969,49.395094],[1.17647,49.395497],[1.176218,49.39576],[1.176068,49.396048],[1.176098,49.3962],[1.177699,49.398038],[1.17956,49.399796],[1.179871,49.399693],[1.180156,49.400094],[1.181953,49.400129],[1.182087,49.400552],[1.182328,49.401639],[1.182065,49.401669],[1.182843,49.402748],[1.182157,49.402953],[1.182495,49.403441],[1.183331,49.404975],[1.184206,49.40485],[1.186738,49.405947],[1.188744,49.406926],[1.190096,49.407505],[1.191459,49.407936],[1.194109,49.409054],[1.195106,49.40954],[1.196303,49.409862],[1.197478,49.410107],[1.198422,49.410139],[1.199355,49.410095],[1.201426,49.409424],[1.203496,49.410458],[1.203614,49.410587],[1.203711,49.411148],[1.203963,49.411326],[1.204566,49.411461],[1.204945,49.411498],[1.205315,49.411763],[1.206307,49.412064],[1.206522,49.412064],[1.206865,49.411991],[1.20738,49.412113],[1.207509,49.41233],[1.208233,49.413151],[1.2087,49.414239],[1.209945,49.414065],[1.210728,49.414109],[1.211596,49.41407],[1.211714,49.4148],[1.214102,49.414306],[1.215379,49.414345],[1.216527,49.41452],[1.217814,49.414951],[1.218624,49.415015],[1.218672,49.41513],[1.21912,49.415215],[1.219783,49.415245],[1.221038,49.415197],[1.223479,49.414887],[1.225005,49.414751],[1.225625,49.414807],[1.226306,49.414673],[1.227143,49.414658],[1.228505,49.414791],[1.228857,49.415031],[1.229025,49.415321],[1.22952,49.415606],[1.229951,49.415788],[1.23116,49.416978],[1.231686,49.417472],[1.232041,49.417943],[1.232341,49.418176],[1.233881,49.420362],[1.234154,49.42064],[1.234535,49.420673],[1.234771,49.42189],[1.234717,49.422356],[1.23535,49.422386],[1.23534,49.422558],[1.235951,49.422783],[1.236359,49.422768],[1.236724,49.422665],[1.237367,49.422699],[1.238827,49.422832],[1.240425,49.423138],[1.240768,49.423111],[1.241273,49.42297],[1.242131,49.422951],[1.243558,49.422108],[1.243933,49.422119],[1.247077,49.423216],[1.250682,49.425121],[1.250547,49.425681],[1.250542,49.426342],[1.250671,49.427036],[1.251026,49.428075],[1.251203,49.428227],[1.254394,49.42893],[1.255387,49.429384],[1.255604,49.429022],[1.256474,49.428238],[1.257087,49.42761],[1.257956,49.427025],[1.261443,49.426125],[1.262076,49.425831],[1.262816,49.42551],[1.263996,49.425233],[1.265278,49.425207],[1.266491,49.425117],[1.266561,49.424953],[1.26862,49.422935],[1.273111,49.424819],[1.274025,49.425266],[1.274811,49.425587],[1.273776,49.426938],[1.273626,49.426987],[1.273562,49.427115],[1.273073,49.427589],[1.272676,49.428371],[1.271893,49.429297],[1.271228,49.429993],[1.270294,49.431266],[1.269951,49.432614],[1.269667,49.433145],[1.269511,49.433739],[1.269388,49.434616],[1.268846,49.436199],[1.268175,49.438679],[1.268119,49.438748],[1.267957,49.439742],[1.267789,49.440292],[1.266657,49.440657],[1.265949,49.442579],[1.265708,49.443102],[1.265541,49.444386],[1.265601,49.444841],[1.268899,49.445641],[1.271271,49.445988],[1.272258,49.44622],[1.276195,49.447031],[1.282075,49.448069],[1.28304,49.4458],[1.278523,49.444987],[1.274983,49.443052],[1.274489,49.442336],[1.274467,49.442102],[1.274639,49.441845],[1.274902,49.441693],[1.275975,49.441738],[1.276635,49.441111],[1.277761,49.440769],[1.27877,49.440624],[1.279558,49.440237],[1.280026,49.439901],[1.280605,49.440052],[1.28171,49.440094],[1.282804,49.440201],[1.286001,49.440323],[1.285572,49.439613],[1.285669,49.438572],[1.28577,49.438187],[1.285776,49.437622],[1.286495,49.435231],[1.28635,49.434912],[1.288153,49.434455],[1.28952,49.434158],[1.291999,49.433891],[1.292583,49.433905],[1.293855,49.434037],[1.293978,49.434359],[1.295136,49.434523],[1.29659,49.434633],[1.299246,49.435097],[1.301612,49.435541],[1.302862,49.43585],[1.303658,49.43597],[1.304508,49.43602],[1.305892,49.435894],[1.309889,49.435692],[1.31049,49.435776],[1.311981,49.435786],[1.312405,49.438957],[1.312737,49.439445],[1.31322,49.439865],[1.313746,49.440201],[1.314261,49.440353],[1.315071,49.440652],[1.315377,49.441406],[1.315495,49.44231],[1.315157,49.442373],[1.315194,49.44294],[1.313832,49.443044],[1.311997,49.443039],[1.311445,49.442915],[1.310865,49.443003],[1.310961,49.443258],[1.311246,49.443609],[1.311219,49.443971],[1.311326,49.444366],[1.311951,49.445132],[1.312587,49.445995],[1.312571,49.44647],[1.312684,49.44705],[1.313574,49.44912],[1.312576,49.450192],[1.312083,49.450514],[1.308886,49.451298],[1.308167,49.451419],[1.3074,49.451504],[1.306477,49.451603],[1.305769,49.451797],[1.304551,49.452469],[1.303725,49.452953],[1.303087,49.453632],[1.302116,49.45434],[1.30136,49.454758],[1.300523,49.455381],[1.300314,49.455665],[1.300053,49.456166],[1.299638,49.456764],[1.299123,49.458721],[1.299005,49.459885],[1.298564,49.460047],[1.297427,49.460193],[1.29739,49.462631],[1.297556,49.463322],[1.297583,49.464027],[1.297492,49.464268],[1.29806,49.464375],[1.301923,49.464249],[1.304568,49.465698],[1.306922,49.466118],[1.30851,49.46648],[1.309733,49.4669],[1.310243,49.467177],[1.311466,49.468197],[1.312308,49.469042],[1.313033,49.469396],[1.313435,49.46969],[1.313966,49.46987],[1.314293,49.469936],[1.314905,49.470192],[1.315318,49.470507],[1.317061,49.471081],[1.317485,49.471333],[1.318292,49.47152],[1.323445,49.471974],[1.32375,49.472055],[1.324078,49.4722],[1.32454,49.472277],[1.325553,49.472299],[1.326212,49.472401],[1.328461,49.472329],[1.329222,49.472311],[1.32978,49.47241],[1.330215,49.472318],[1.330638,49.472326],[1.332114,49.471838],[1.333713,49.471462],[1.336888,49.470887],[1.337842,49.47047],[1.338653,49.470283],[1.338776,49.470334],[1.339039,49.470331],[1.339768,49.470467],[1.340713,49.470928],[1.340552,49.471245],[1.340369,49.471324],[1.340005,49.471382],[1.339302,49.471907],[1.338899,49.471982],[1.33861,49.472172],[1.337011,49.473845],[1.336185,49.474679],[1.334994,49.475674],[1.334152,49.476421],[1.333466,49.476852],[1.331813,49.477753],[1.331148,49.478078],[1.330633,49.478411],[1.329356,49.479008],[1.328187,49.479439],[1.328005,49.479412],[1.324866,49.480199],[1.323573,49.480429],[1.321492,49.481375],[1.320988,49.48177],[1.320542,49.482436],[1.320108,49.483778],[1.319529,49.484367],[1.318591,49.485718],[1.318156,49.486133],[1.317442,49.486901],[1.316863,49.487432],[1.319604,49.488075],[1.319963,49.487825],[1.320159,49.487867],[1.32029,49.488184],[1.32072,49.488382],[1.321723,49.488555],[1.321522,49.48926],[1.321411,49.48933],[1.320913,49.490878],[1.321395,49.490941],[1.32176,49.490733],[1.321922,49.490732],[1.322098,49.489802],[1.323901,49.489626],[1.324182,49.489683],[1.32537,49.490108],[1.328095,49.488701],[1.328252,49.488739],[1.328519,49.489923],[1.330021,49.490054],[1.329732,49.490928],[1.330445,49.491161],[1.331454,49.491411],[1.332173,49.491716],[1.332049,49.493002],[1.331695,49.493862],[1.330966,49.495045],[1.330129,49.496716],[1.329281,49.497547],[1.328434,49.498165],[1.327661,49.498945],[1.327098,49.499809],[1.326722,49.500519],[1.325827,49.501832],[1.325655,49.502374],[1.325312,49.503356],[1.325494,49.504515],[1.325655,49.505819],[1.325677,49.50617],[1.325569,49.506357],[1.324823,49.506053],[1.324931,49.505799],[1.323917,49.504897],[1.322984,49.504993],[1.322614,49.504927],[1.321149,49.50432],[1.320763,49.504236],[1.319239,49.504202],[1.318783,49.504117],[1.318448,49.503988],[1.318075,49.503642],[1.317965,49.503264],[1.317941,49.50281],[1.317785,49.502464],[1.317439,49.502139],[1.316719,49.50182],[1.315344,49.501385],[1.314513,49.501244],[1.312437,49.501135],[1.311702,49.501244],[1.311847,49.501614],[1.311871,49.502076],[1.311654,49.502509],[1.311075,49.503148],[1.310371,49.503623],[1.310243,49.503873],[1.310415,49.504396],[1.309503,49.504593],[1.30843,49.504674],[1.30814,49.504901],[1.3052,49.504426],[1.304997,49.504187],[1.304798,49.503671],[1.304481,49.503421],[1.304053,49.503217],[1.30369,49.503235],[1.302164,49.503671],[1.301494,49.503702],[1.30041,49.503651],[1.299991,49.503569],[1.299546,49.503397],[1.29886,49.503909],[1.298516,49.503989],[1.298189,49.504454],[1.29738,49.504291],[1.296706,49.504857],[1.295684,49.505521],[1.294437,49.505858],[1.292846,49.506222],[1.291752,49.50634],[1.291178,49.506315],[1.290336,49.506378],[1.289671,49.506372],[1.288952,49.506493],[1.288361,49.506473],[1.286608,49.506293],[1.283153,49.506224],[1.282632,49.505642],[1.281618,49.505387],[1.280669,49.505084],[1.280492,49.50563],[1.280465,49.506138],[1.280266,49.506372],[1.279709,49.506536],[1.279204,49.50772],[1.279009,49.507809],[1.277923,49.507964],[1.277826,49.508081],[1.277896,49.50855],[1.278035,49.508732],[1.278816,49.50914],[1.280031,49.509493],[1.280631,49.509859],[1.281321,49.510053],[1.282449,49.510135],[1.283443,49.51056],[1.285025,49.511077],[1.285312,49.511214],[1.285711,49.511288],[1.2862,49.511323],[1.286586,49.511426],[1.287342,49.511935],[1.287831,49.512192],[1.289383,49.512876],[1.290898,49.513688],[1.291521,49.514125],[1.292084,49.514355],[1.293417,49.514658],[1.29445,49.514856],[1.294681,49.515035],[1.294364,49.515099],[1.294147,49.515034],[1.293683,49.515003],[1.2918,49.515205],[1.290915,49.51565],[1.289928,49.516303],[1.288796,49.516931],[1.288163,49.517167],[1.286157,49.518398],[1.282611,49.520161],[1.281828,49.520331],[1.281142,49.520376],[1.278459,49.520855],[1.276468,49.52114],[1.269131,49.521987],[1.268615,49.522235],[1.268334,49.522267],[1.259694,49.520962],[1.259432,49.521111],[1.259302,49.521532],[1.25934,49.522666],[1.25941,49.523182],[1.259587,49.523991],[1.259469,49.524327],[1.258557,49.525021],[1.258492,49.525242],[1.258906,49.52621],[1.258734,49.52626],[1.258653,49.52707],[1.258825,49.528075],[1.258836,49.528426],[1.25861,49.529154],[1.258256,49.530061],[1.258251,49.530347],[1.258589,49.5308],[1.258809,49.531237],[1.25875,49.531895],[1.2572,49.532721],[1.255869,49.533253],[1.255566,49.533468],[1.255499,49.533705],[1.254899,49.534056],[1.254223,49.534618],[1.253852,49.535083],[1.253409,49.535407],[1.252999,49.535787],[1.252425,49.536023],[1.251685,49.536477],[1.250653,49.537702],[1.249309,49.539059],[1.249523,49.539867],[1.248847,49.539698],[1.248359,49.539687],[1.246841,49.539906],[1.238564,49.537598],[1.237421,49.539055],[1.232872,49.537994],[1.232164,49.537472],[1.231365,49.537133],[1.23005,49.536884],[1.22703,49.535446],[1.223077,49.540443],[1.220142,49.544761],[1.219955,49.545275],[1.21997,49.546259],[1.219439,49.547505],[1.219316,49.548196],[1.218378,49.550229],[1.218174,49.550327],[1.217884,49.550697],[1.216467,49.551869],[1.215523,49.552481],[1.214236,49.553162],[1.213668,49.553554],[1.212772,49.554612],[1.212407,49.555414],[1.212104,49.555718],[1.211543,49.556089],[1.210969,49.556265],[1.210116,49.556469],[1.209033,49.556606],[1.208378,49.556511],[1.208067,49.556351],[1.206887,49.555424],[1.206141,49.554383],[1.205116,49.552994],[1.204827,49.552829],[1.202408,49.551846],[1.202246,49.551491],[1.202354,49.550124],[1.201506,49.548905],[1.201195,49.548197],[1.200643,49.547752],[1.197853,49.544383],[1.196587,49.542604],[1.196351,49.542009],[1.195729,49.542294],[1.193926,49.542568],[1.191485,49.54312],[1.190408,49.543701],[1.189372,49.544053],[1.189399,49.544681],[1.189286,49.54476],[1.187907,49.544926],[1.186915,49.545113],[1.186204,49.545357],[1.184957,49.545999],[1.184008,49.546373],[1.183911,49.546345],[1.179132,49.548371],[1.177726,49.548672],[1.175456,49.549747],[1.17467,49.55032],[1.174045,49.550955],[1.173493,49.551324],[1.171996,49.551992],[1.170827,49.552647],[1.170098,49.552917],[1.168939,49.553179],[1.16843,49.553526],[1.167984,49.55397],[1.167705,49.55479],[1.167464,49.55517],[1.167005,49.555578],[1.166573,49.555777],[1.165986,49.556523],[1.165463,49.557087],[1.165012,49.557704],[1.164927,49.557914],[1.164744,49.558117],[1.164636,49.558445],[1.164412,49.558375],[1.163853,49.558758],[1.163634,49.559036],[1.163411,49.559703],[1.162888,49.560482],[1.162126,49.561629],[1.161123,49.561388],[1.158886,49.561298],[1.158285,49.56118],[1.157175,49.56068],[1.156177,49.561644],[1.15578,49.561803],[1.155327,49.561788],[1.153704,49.561547],[1.151183,49.560771],[1.149616,49.559947],[1.145802,49.558828],[1.144585,49.558739],[1.143689,49.558828],[1.142696,49.55906],[1.141215,49.559549],[1.140636,49.55964],[1.139269,49.559644],[1.139472,49.561154],[1.138491,49.561199],[1.138399,49.56148],[1.137638,49.561443],[1.137578,49.561638],[1.137445,49.561706],[1.135717,49.561911],[1.134159,49.561803],[1.132772,49.561844],[1.131072,49.562196],[1.129199,49.562988],[1.12804,49.563222],[1.12697,49.56315],[1.125943,49.563176],[1.125788,49.56313],[1.12634,49.56234],[1.126345,49.561954],[1.126533,49.561497],[1.126675,49.561311],[1.126742,49.561152],[1.127337,49.560768],[1.12796,49.560325],[1.127888,49.560237],[1.127676,49.55968],[1.127257,49.558902],[1.126968,49.558827],[1.125283,49.557966],[1.12509,49.557826],[1.124999,49.557544],[1.124886,49.557092],[1.123808,49.557103],[1.123467,49.556726],[1.122612,49.556557],[1.121872,49.556272],[1.12141,49.556005],[1.120938,49.555862],[1.119688,49.555246],[1.118379,49.554734],[1.11821,49.554366],[1.117874,49.554008],[1.117526,49.553792],[1.116958,49.553199],[1.116158,49.552498],[1.115512,49.552141],[1.113617,49.550807],[1.113047,49.550451],[1.112795,49.550182],[1.112468,49.549525],[1.112352,49.549411],[1.111518,49.549054],[1.111051,49.548791],[1.110495,49.548337],[1.109853,49.547974],[1.10895,49.547314],[1.108262,49.54669],[1.108053,49.545952],[1.108069,49.545607],[1.108173,49.545382],[1.108836,49.54453],[1.106991,49.544459],[1.105177,49.544647],[1.103987,49.544621],[1.101583,49.54494],[1.101471,49.545017],[1.100065,49.54486],[1.099266,49.544922],[1.098547,49.545196],[1.098086,49.545271],[1.09381,49.5455],[1.092673,49.545634],[1.090865,49.545313],[1.083715,49.54566],[1.083183,49.545811],[1.082738,49.545697],[1.081987,49.545638],[1.081821,49.545698],[1.081709,49.545857],[1.081426,49.545908],[1.080624,49.545809],[1.080383,49.545888],[1.080217,49.546284],[1.079522,49.546632],[1.07857,49.547033],[1.077272,49.547901],[1.076306,49.548267],[1.075727,49.548595],[1.075427,49.548683],[1.075244,49.548814],[1.074831,49.548764],[1.07445,49.548798],[1.074514,49.549445],[1.07482,49.54988],[1.074807,49.550091],[1.074246,49.550828],[1.073903,49.551201],[1.073984,49.552811],[1.074085,49.553049],[1.075759,49.555137],[1.075802,49.555398],[1.075603,49.555936],[1.073406,49.55614],[1.0723,49.556226],[1.071462,49.556228],[1.07155,49.556317],[1.072004,49.556461],[1.072181,49.556613],[1.072197,49.556989],[1.072031,49.557197],[1.070459,49.558422],[1.069901,49.559093],[1.069525,49.55999],[1.069128,49.560565],[1.068908,49.560702],[1.068399,49.560791],[1.067943,49.560979],[1.067482,49.561272],[1.065915,49.561849],[1.062606,49.563384],[1.062332,49.563467],[1.061618,49.564129],[1.060765,49.56472],[1.060441,49.5648],[1.057364,49.564533],[1.057043,49.564555],[1.056842,49.564552],[1.056526,49.565114],[1.05605,49.565703],[1.055497,49.566198],[1.054977,49.566532],[1.054252,49.566987],[1.053696,49.567227],[1.053124,49.567594],[1.052487,49.568147],[1.051968,49.568637],[1.051447,49.568568],[1.050932,49.568423],[1.049623,49.568668],[1.048669,49.568707],[1.045874,49.568421],[1.044066,49.568142],[1.04368,49.567061],[1.043454,49.56554],[1.043465,49.564213],[1.043519,49.564045],[1.043879,49.563986],[1.045374,49.564269],[1.044989,49.564018],[1.04464,49.56365],[1.044206,49.563379],[1.043589,49.563242],[1.040236,49.563029],[1.038133,49.562412],[1.03746,49.562368],[1.036164,49.562178],[1.034464,49.561533],[1.033394,49.561228],[1.032088,49.56093],[1.031245,49.561005],[1.030392,49.55963],[1.030199,49.558971],[1.029904,49.558422],[1.029834,49.558147],[1.02984,49.557857],[1.029394,49.557876],[1.028662,49.558161],[1.028058,49.558498],[1.027238,49.559058],[1.02565,49.559799],[1.02514,49.559761],[1.0247,49.559452],[1.024486,49.55901],[1.024513,49.558605],[1.024636,49.558207],[1.025344,49.557553],[1.025478,49.557362],[1.027415,49.555918],[1.027581,49.555677],[1.027734,49.555258],[1.027849,49.555047],[1.027927,49.553642],[1.028048,49.552299],[1.027978,49.552121],[1.027541,49.551887],[1.026953,49.551674],[1.025881,49.552231],[1.024239,49.553434],[1.022758,49.554596],[1.02102,49.55613],[1.020747,49.556462],[1.020447,49.556617],[1.020473,49.556732],[1.019213,49.557595],[1.018376,49.558119],[1.017466,49.55731],[1.01684,49.55662],[1.015838,49.555679],[1.015977,49.555453],[1.016122,49.554873],[1.016407,49.554394],[1.01483,49.553456],[1.012647,49.552888],[1.01229,49.552611],[1.011262,49.551975],[1.009927,49.551567],[1.009482,49.551079],[1.008677,49.550466],[1.008581,49.550327],[1.00784,49.54977],[1.007523,49.549648],[1.007186,49.549632],[1.005833,49.549989],[1.00493,49.550178],[1.004575,49.550347],[1.003715,49.550607],[1.0032,49.550986],[1.002792,49.551299],[1.002261,49.551348],[1.001655,49.551227],[1.001397,49.55173],[1.000797,49.551697],[1.000142,49.551514],[0.99893,49.551358],[0.998538,49.551056],[0.998318,49.550753],[0.997685,49.550732],[0.997181,49.550798],[0.996741,49.551044],[0.996103,49.551253],[0.995786,49.551414],[0.995669,49.551671],[0.995819,49.552311],[0.995867,49.553004],[0.996248,49.554527],[0.996666,49.555218],[0.996644,49.555419],[0.996371,49.555755],[0.994868,49.556664],[0.994187,49.55611],[0.992976,49.554887],[0.991028,49.553428],[0.990725,49.553118],[0.990116,49.551437],[0.989963,49.551437],[0.989252,49.551172],[0.988442,49.550996],[0.988039,49.55069],[0.987476,49.550471],[0.987061,49.550456],[0.987061,49.550456],[0.986734,49.550617],[0.986304,49.551522],[0.984073,49.556129],[0.983536,49.556923],[0.983279,49.557619],[0.982485,49.558649],[0.981949,49.558802],[0.981305,49.559066],[0.979524,49.558732],[0.978708,49.559442],[0.977528,49.560235],[0.976756,49.560569],[0.975704,49.560667],[0.975189,49.560611],[0.97328,49.561015],[0.971413,49.561808],[0.96916,49.562588],[0.968001,49.562699],[0.962894,49.562768]]],"type":"MultiLineString"},"properties":{"geo_point":{"lon":1.1931822622139252,"lat":49.47930709703231},"name":"GR25 De Sotteville à Pavilly (Seine-Maritime) (2020)","code_gr":"GR25"}}]}