{"type":"FeatureCollection","features":[{"type":"Feature","geometry":{"coordinates":[[[2.765471,45.590485],[2.765574,45.590887],[2.765649,45.590973],[2.765598,45.59133],[2.765348,45.591402],[2.765402,45.59166],[2.766035,45.59154],[2.766646,45.592373],[2.766678,45.59294],[2.766174,45.593387],[2.765866,45.593825],[2.765556,45.594099],[2.765616,45.594158],[2.765753,45.59409],[2.765784,45.594221],[2.765659,45.594603],[2.765981,45.594644],[2.766351,45.594862],[2.766791,45.594926],[2.768041,45.594934],[2.770292,45.594917],[2.770536,45.594828],[2.770847,45.595395],[2.770959,45.595391],[2.771193,45.595175],[2.771996,45.595123],[2.772703,45.595312],[2.773435,45.595123],[2.773748,45.595178],[2.773899,45.595106],[2.774559,45.59502],[2.775637,45.595156],[2.776705,45.595391],[2.777235,45.595331],[2.777858,45.59541],[2.777829,45.596044],[2.777901,45.596288],[2.778362,45.597418],[2.778523,45.597587],[2.778506,45.598358],[2.778585,45.599039],[2.778523,45.59955],[2.778569,45.599905],[2.778775,45.600233],[2.778792,45.600708],[2.778668,45.60116],[2.778743,45.601663],[2.778848,45.601939],[2.778706,45.602139],[2.777568,45.602478],[2.777448,45.602648],[2.777795,45.603271],[2.778298,45.603698],[2.778413,45.603937],[2.779059,45.604417],[2.779939,45.604707],[2.780943,45.604861],[2.78157,45.604827],[2.781752,45.604602],[2.78231,45.604297],[2.782916,45.603386],[2.783753,45.602834],[2.784037,45.6025],[2.784076,45.602275],[2.783909,45.601867],[2.783488,45.601215],[2.783464,45.600952],[2.783812,45.600503],[2.784311,45.600102],[2.784595,45.600027],[2.785373,45.600128],[2.785638,45.600066],[2.786053,45.600095],[2.787596,45.599209],[2.788126,45.599121],[2.788594,45.598906],[2.788847,45.598627],[2.788843,45.598498],[2.789144,45.598416],[2.789381,45.598266],[2.789901,45.598327],[2.79071,45.59864],[2.791202,45.598759],[2.792052,45.59947],[2.792273,45.599601],[2.792292,45.5997],[2.792634,45.600107],[2.792659,45.600377],[2.792844,45.600602],[2.792851,45.600966],[2.79304,45.601042],[2.793438,45.601338],[2.793643,45.601387],[2.794695,45.601536],[2.795535,45.601243],[2.795688,45.601237],[2.79596,45.601089],[2.79596,45.601089],[2.796155,45.600727],[2.796365,45.600665],[2.796752,45.601033],[2.796977,45.601401],[2.797293,45.601836],[2.797524,45.602009],[2.797706,45.602283],[2.798138,45.602393],[2.798864,45.602636],[2.799407,45.602774],[2.799573,45.602962],[2.799944,45.603224],[2.800464,45.602939],[2.80045,45.604069],[2.80045,45.604069],[2.80069,45.60461],[2.801052,45.605005],[2.801886,45.605542],[2.802908,45.606071],[2.80379,45.606369],[2.80483,45.606319],[2.80554,45.606022],[2.8069,45.60598],[2.807543,45.605835],[2.808252,45.606114],[2.810068,45.6064],[2.81079,45.606319],[2.81249,45.60569],[2.814056,45.605728],[2.819034,45.60571],[2.821365,45.605779],[2.821893,45.606562],[2.82199,45.606869],[2.822,45.607319],[2.8221,45.607841],[2.822241,45.608156],[2.82235,45.608669],[2.82229,45.608959],[2.82212,45.609249],[2.82209,45.609531],[2.82192,45.609852],[2.821949,45.610284],[2.822057,45.610474],[2.8224,45.610882],[2.822265,45.611416],[2.82205,45.611679],[2.821985,45.612002],[2.821985,45.612002],[2.822132,45.612441],[2.821166,45.612816],[2.820694,45.613176],[2.820136,45.613357],[2.819836,45.613612],[2.819836,45.613116],[2.819621,45.613191],[2.819579,45.612981],[2.819021,45.614122],[2.818785,45.614347],[2.818785,45.614767],[2.818441,45.615608],[2.818205,45.615893],[2.818119,45.616238],[2.817733,45.616614],[2.818141,45.617124],[2.818055,45.617514],[2.818055,45.617994],[2.818355,45.618279],[2.818527,45.61867],[2.819729,45.61861],[2.82048,45.61864],[2.821038,45.61837],[2.821402,45.618354],[2.82151,45.61861],[2.821982,45.618835],[2.822239,45.618805],[2.822218,45.619405],[2.821832,45.61957],[2.82136,45.61966],[2.820716,45.620666],[2.82063,45.621056],[2.821145,45.621146],[2.822129,45.621685],[2.822383,45.62172],[2.8232,45.621617],[2.82366,45.621449],[2.82418,45.621208],[2.82506,45.621028],[2.825919,45.620807],[2.82641,45.620765],[2.826741,45.620621],[2.827425,45.620143],[2.827837,45.620018],[2.828239,45.619995],[2.828662,45.620051],[2.828745,45.620009],[2.829164,45.620196],[2.82908,45.620428],[2.831507,45.621451],[2.830869,45.622328],[2.830662,45.622949],[2.830809,45.623313],[2.831326,45.623671],[2.831512,45.624029],[2.832089,45.624365],[2.832363,45.624669],[2.832457,45.625377],[2.83262,45.625742],[2.83341,45.626431],[2.83351,45.62664],[2.83371,45.626541],[2.833748,45.626197],[2.83438,45.625707],[2.83505,45.62532],[2.83588,45.624619],[2.836412,45.624084],[2.8366,45.62373],[2.83689,45.62355],[2.837315,45.623155],[2.83798,45.62273],[2.83937,45.622398],[2.8403,45.622669],[2.84108,45.622971],[2.84185,45.623421],[2.84289,45.62384],[2.84405,45.624168],[2.84472,45.624222],[2.84647,45.62532],[2.847188,45.625622],[2.84781,45.625969],[2.84833,45.626091],[2.84933,45.626179],[2.849512,45.626253],[2.849833,45.626253],[2.85009,45.62635],[2.85079,45.62672],[2.85178,45.626881],[2.85219,45.62709],[2.85238,45.62746],[2.85218,45.627811],[2.85218,45.627811],[2.853024,45.629317],[2.853459,45.629838],[2.854134,45.63278],[2.854279,45.633923],[2.85465,45.637058],[2.85496,45.63765],[2.85584,45.637871],[2.85867,45.637779],[2.85919,45.637845],[2.85969,45.639729],[2.86035,45.641769],[2.86115,45.644531],[2.86202,45.64505],[2.86235,45.64539],[2.862558,45.64571],[2.862443,45.645895],[2.861463,45.647006],[2.860982,45.647305],[2.860339,45.647605],[2.860244,45.647713],[2.85855,45.647942],[2.857241,45.647792],[2.857339,45.647979],[2.8585,45.64917],[2.856439,45.650228],[2.85442,45.65136],[2.854599,45.652181],[2.854316,45.653222],[2.853841,45.653101],[2.85403,45.654599],[2.85397,45.65493],[2.85346,45.65551],[2.85191,45.65667],[2.85147,45.656921],[2.85094,45.65749],[2.85073,45.657909],[2.8506,45.658871],[2.850237,45.659632],[2.849927,45.659854],[2.84909,45.661411],[2.84883,45.661968],[2.84784,45.66201],[2.8477,45.662189],[2.84759,45.662621],[2.847168,45.663136],[2.847448,45.663413],[2.84791,45.664169],[2.84843,45.664848],[2.84902,45.666031],[2.849317,45.666919],[2.849995,45.668664],[2.850447,45.669577],[2.851172,45.671724],[2.851197,45.671974],[2.850676,45.671722],[2.850271,45.671457],[2.849919,45.671155],[2.84991,45.671964],[2.849716,45.672213],[2.84938,45.672399],[2.847768,45.672912],[2.84671,45.673148],[2.846152,45.673054],[2.846016,45.673108],[2.846015,45.673311],[2.84646,45.673679],[2.84661,45.673988],[2.8466,45.674309],[2.84604,45.67477],[2.845314,45.67513],[2.844721,45.675389],[2.84435,45.675503],[2.84315,45.676182],[2.84261,45.67659],[2.842151,45.677053],[2.842029,45.678014],[2.842,45.678509],[2.841929,45.678536],[2.842009,45.679397],[2.842095,45.679588],[2.842638,45.680436],[2.842638,45.680436],[2.843954,45.684277],[2.843912,45.684787],[2.844298,45.684966],[2.844776,45.68471],[2.845037,45.684754],[2.845228,45.684693],[2.845244,45.685581],[2.844932,45.686995],[2.844766,45.688166],[2.844857,45.688775],[2.845662,45.689606],[2.846842,45.690693],[2.847121,45.69131],[2.847384,45.691599],[2.847969,45.692],[2.848231,45.692356],[2.84873,45.69305],[2.849852,45.693413],[2.849852,45.693413],[2.850993,45.69384],[2.852387,45.693555],[2.853589,45.69345],[2.853889,45.69333],[2.854726,45.692446],[2.85625,45.691157],[2.856507,45.690707],[2.856679,45.690213],[2.857151,45.689718],[2.857172,45.690318],[2.857335,45.690902],[2.857346,45.691199],[2.857555,45.691445],[2.857729,45.69145],[2.858316,45.691153],[2.858794,45.690643],[2.860146,45.689922],[2.86101,45.689728],[2.861208,45.689826],[2.861503,45.690232],[2.862024,45.69038],[2.862211,45.690838],[2.86249,45.691277],[2.863204,45.691517],[2.863788,45.691628],[2.864673,45.691998],[2.865403,45.692074],[2.866422,45.692398],[2.866693,45.692277],[2.86705,45.692279],[2.867366,45.692047],[2.867871,45.692188],[2.868005,45.692137],[2.868278,45.691756],[2.868456,45.691395],[2.868654,45.690161],[2.868595,45.689865],[2.868705,45.689712],[2.869051,45.689499],[2.870033,45.689308],[2.870446,45.6894],[2.870907,45.689346],[2.871433,45.689625],[2.872565,45.689731],[2.875225,45.689045],[2.876011,45.689096],[2.876963,45.689087],[2.877752,45.689204],[2.878567,45.68921],[2.879721,45.689144],[2.880313,45.689231],[2.881035,45.689456],[2.881206,45.689368],[2.883679,45.689178],[2.884784,45.688983],[2.884951,45.688881],[2.885444,45.688981],[2.885997,45.688973],[2.886453,45.688789],[2.887032,45.689491],[2.887569,45.69024],[2.887671,45.690564],[2.88762,45.691046],[2.887735,45.691396],[2.888038,45.691728],[2.888443,45.692037],[2.888491,45.692278],[2.888491,45.693396],[2.88832,45.693937],[2.888398,45.694227],[2.888669,45.694832],[2.889098,45.695714],[2.889181,45.696111],[2.889221,45.696965],[2.889683,45.697068],[2.890074,45.697228],[2.890347,45.697255],[2.890667,45.697544],[2.8911,45.698112],[2.891431,45.698448],[2.891742,45.698608],[2.892713,45.698574],[2.893005,45.698757],[2.893141,45.698759],[2.893587,45.699136],[2.893842,45.699224],[2.894553,45.699335],[2.894905,45.699453],[2.895256,45.699654],[2.895664,45.700241],[2.896109,45.700551],[2.896463,45.701022],[2.896608,45.701626],[2.897,45.701851],[2.897359,45.701962],[2.898121,45.702568],[2.898706,45.703303],[2.898926,45.70374],[2.899051,45.703842],[2.89959,45.704046],[2.899867,45.704275],[2.900433,45.704826],[2.900652,45.704865],[2.900894,45.705212],[2.902734,45.705062],[2.903587,45.704357],[2.90392,45.70433],[2.904241,45.704395],[2.906167,45.705216],[2.907267,45.70557],[2.907761,45.705841],[2.907873,45.706051],[2.907868,45.7064],[2.907996,45.706595],[2.908233,45.706654],[2.908887,45.706551],[2.909402,45.706361],[2.909676,45.706282],[2.909941,45.706067],[2.91055,45.70541],[2.910958,45.705215],[2.911639,45.704937],[2.911956,45.704765],[2.911956,45.704765],[2.912403,45.704833],[2.913358,45.703225],[2.913851,45.703357],[2.914017,45.703233],[2.914289,45.70334],[2.91442,45.703439],[2.915069,45.703319],[2.915938,45.703525],[2.91626,45.703705],[2.91685,45.703574],[2.917593,45.703582],[2.917956,45.703671],[2.917936,45.703765],[2.917392,45.704017],[2.92034,45.70493],[2.921206,45.704967],[2.922046,45.704918],[2.922754,45.704961],[2.923393,45.704938],[2.924551,45.705068],[2.925327,45.704889],[2.925893,45.704913],[2.926257,45.704879],[2.92755,45.70499],[2.929003,45.705252],[2.929266,45.705339],[2.929934,45.705345],[2.930254,45.705295],[2.932319,45.705433],[2.933006,45.705565],[2.934754,45.706125],[2.936466,45.706554],[2.938579,45.707104],[2.940387,45.708385],[2.941063,45.709106],[2.941937,45.709618],[2.942592,45.710243],[2.943021,45.710464],[2.943402,45.710335],[2.943648,45.710079],[2.944464,45.7099],[2.945033,45.709641],[2.945991,45.70903],[2.946889,45.708527],[2.948568,45.7073],[2.949963,45.706776],[2.950515,45.706728],[2.951244,45.70673],[2.952065,45.706523],[2.953025,45.705973],[2.953739,45.705238],[2.954351,45.704819],[2.954764,45.704712],[2.955445,45.704601],[2.956067,45.704353],[2.956395,45.704008],[2.956861,45.703742],[2.957478,45.703602],[2.958213,45.70327],[2.958827,45.702864],[2.95957,45.702541],[2.959597,45.702354],[2.960525,45.701889],[2.961442,45.701298],[2.962397,45.700863],[2.963234,45.700664],[2.964055,45.700684],[2.964849,45.700615],[2.965404,45.700813],[2.965943,45.701138],[2.966444,45.70127],[2.966761,45.701283],[2.966913,45.701355],[2.967214,45.701354],[2.967376,45.701427],[2.968078,45.70124],[2.968926,45.700874],[2.969307,45.700793],[2.969436,45.700712],[2.970326,45.700428],[2.970954,45.700093],[2.971313,45.69999],[2.97202,45.699654],[2.973019,45.699516],[2.973319,45.699383],[2.973909,45.699261],[2.976318,45.698394],[2.977487,45.698169],[2.978077,45.697969],[2.979327,45.697342],[2.980915,45.697041],[2.981306,45.697078],[2.982511,45.696923],[2.984182,45.696578],[2.985008,45.696393],[2.985206,45.6964],[2.986666,45.696064],[2.987476,45.695805],[2.988672,45.695572],[2.98945,45.695199],[2.989681,45.695194],[2.990399,45.695469],[2.991183,45.69566],[2.991537,45.695583],[2.992202,45.695312],[2.993012,45.695141],[2.994037,45.694563],[2.99453,45.694232],[2.995619,45.694086],[2.995498,45.693901],[2.995219,45.693747],[2.995095,45.693529],[2.994918,45.693383],[2.994945,45.693299],[2.995219,45.693118],[2.994978,45.692853],[2.994914,45.692593],[2.994959,45.692445],[2.995101,45.692375],[2.995589,45.692807],[2.998121,45.692027],[2.997544,45.69251],[2.99723,45.69296],[2.99708,45.693499],[2.99726,45.693569],[2.997425,45.693926],[2.997572,45.694097],[2.997848,45.694215],[2.999422,45.694504],[2.999733,45.694446],[3.000425,45.694031],[3.001219,45.693661],[3.001874,45.693497],[3.003279,45.693218],[3.003805,45.692939],[3.004663,45.692249],[3.005259,45.691441],[3.005602,45.690826],[3.005549,45.690284],[3.005371,45.689953],[3.005318,45.689457],[3.006868,45.686592],[3.007013,45.686129],[3.006922,45.685799],[3.006171,45.685047],[3.006117,45.684872],[3.006198,45.684429],[3.005559,45.683849],[3.005033,45.682407],[3.004958,45.681973],[3.004615,45.681619],[3.004159,45.680771],[3.003789,45.680302],[3.003623,45.680012],[3.003773,45.679592],[3.003628,45.679119],[3.003322,45.678699],[3.00307,45.67852],[3.002534,45.677353],[3.001063,45.677368],[3.000533,45.677295],[2.99997,45.677316],[2.999235,45.677456],[2.998076,45.677868],[2.998022,45.677589],[2.998022,45.677589],[2.998094,45.677119],[2.998287,45.676759],[2.998084,45.67662],[2.998137,45.676384],[2.997686,45.675919],[2.997651,45.675764],[2.997756,45.675466],[2.997676,45.674945],[2.99789,45.674465],[2.997842,45.674255],[2.997528,45.674169],[2.997429,45.673899],[2.998582,45.672913],[2.998751,45.672643],[2.998802,45.67207],[2.999502,45.670941],[3.00035,45.670093],[3.000377,45.669845],[3.000125,45.669623],[2.999433,45.669338],[2.999149,45.66914],[2.999165,45.668985],[2.999285,45.66875],[2.999406,45.66832],[2.999465,45.66797],[2.999567,45.667813],[2.999299,45.667609],[2.999106,45.66739],[2.998961,45.667062],[2.997754,45.666908],[2.99747,45.666787],[2.997282,45.666584],[2.996065,45.666126],[2.995394,45.666149],[2.995034,45.666084],[2.994804,45.665936],[2.994423,45.665397],[2.993993,45.665038],[2.993333,45.664665],[2.992846,45.664483],[2.992266,45.663998],[2.991901,45.663609],[2.991461,45.662737],[2.991469,45.662551],[2.991606,45.662342],[2.991923,45.662045],[2.992588,45.661629],[2.992508,45.661507],[2.992588,45.660816],[2.992416,45.660478],[2.992089,45.660264],[2.991821,45.660309],[2.991644,45.660389],[2.991381,45.660407],[2.990533,45.660248],[2.989943,45.660265],[2.98901,45.660244],[2.988398,45.66013],[2.98812,45.660011],[2.987819,45.659729],[2.987674,45.659496],[2.987583,45.659036],[2.98725,45.65894],[2.986918,45.658885],[2.986484,45.658715],[2.98628,45.658714],[2.98585,45.658852],[2.985073,45.658894],[2.984477,45.65913],[2.984332,45.659302],[2.983517,45.659592],[2.983023,45.659821],[2.982766,45.659864],[2.98267,45.659733],[2.982916,45.659084],[2.98319,45.658588],[2.983125,45.65846],[2.982884,45.658304],[2.982449,45.658134],[2.981022,45.657078],[2.980905,45.656857],[2.981253,45.65665],[2.981371,45.656337],[2.982208,45.655009],[2.982605,45.654564],[2.982643,45.654415],[2.982836,45.654329],[2.983292,45.654067],[2.984129,45.653865],[2.984783,45.65359],[2.985231,45.65354],[2.985797,45.653564],[2.986355,45.65345],[2.986806,45.653487],[2.987127,45.653419],[2.987318,45.653166],[2.987493,45.65302],[2.987685,45.65277],[2.987927,45.652661],[2.988769,45.652782],[2.989998,45.652489],[2.990544,45.652218],[2.991655,45.652012],[2.99254,45.6521],[2.993382,45.651932],[2.995067,45.651395],[2.996295,45.650768],[2.996381,45.650528],[2.996826,45.649899],[2.99747,45.649578],[2.998999,45.649204],[2.999213,45.6492],[3.000522,45.648911],[3.001193,45.648643],[3.001423,45.6483],[3.00211,45.64785],[3.002807,45.6474],[3.003269,45.647896],[3.003392,45.648434],[3.003499,45.648556],[3.00402,45.648765],[3.004519,45.648762],[3.004975,45.64864],[3.005119,45.648689],[3.005382,45.648549],[3.005715,45.64851],[3.006589,45.648857],[3.007091,45.648844],[3.007678,45.648918],[3.009738,45.648628],[3.010258,45.648684],[3.010403,45.648754],[3.010843,45.648754],[3.011342,45.64856],[3.01161,45.64851],[3.012227,45.648293],[3.013284,45.648048],[3.013912,45.647987],[3.014314,45.647873],[3.014513,45.647923],[3.015199,45.647812],[3.015333,45.647675],[3.015784,45.647568],[3.01631,45.647529],[3.016561,45.647777],[3.016921,45.647235],[3.017286,45.64698],[3.017458,45.646706],[3.01771,45.646694],[3.017961,45.646473],[3.018402,45.646477],[3.018938,45.64661],[3.019029,45.646564],[3.019399,45.646995],[3.019546,45.647074],[3.020142,45.647137],[3.020604,45.647276],[3.02103,45.646954],[3.021057,45.646774],[3.021143,45.646576],[3.020993,45.646443],[3.021143,45.645721],[3.021422,45.645136],[3.021567,45.644974],[3.021915,45.64476],[3.022344,45.644161],[3.022736,45.643746],[3.022591,45.642742],[3.022398,45.642094],[3.022516,45.641544],[3.022779,45.640976],[3.023294,45.640141],[3.023407,45.639881],[3.023402,45.6399],[3.024304,45.639936],[3.025786,45.641031],[3.026199,45.641243],[3.026883,45.641282],[3.027562,45.641248],[3.028187,45.641284],[3.028559,45.641181],[3.029326,45.640772],[3.030484,45.640997],[3.030769,45.641658],[3.030796,45.64204],[3.032164,45.64138],[3.0327,45.641279],[3.033515,45.640743],[3.03362,45.640518],[3.03366,45.639824],[3.033837,45.639676],[3.036125,45.639767],[3.036911,45.639707],[3.037657,45.639966],[3.037464,45.640697],[3.037381,45.641245],[3.03742,45.64156],[3.037402,45.641834],[3.03806,45.642809],[3.038134,45.64315],[3.037994,45.643593],[3.038059,45.643765],[3.038585,45.643907],[3.038773,45.644493],[3.038722,45.644667],[3.038757,45.644782],[3.041772,45.643608],[3.041836,45.64336],[3.041852,45.643026],[3.041648,45.642456],[3.041656,45.642222],[3.041991,45.641883],[3.042345,45.641076],[3.042547,45.640864],[3.042828,45.640761],[3.043166,45.640761],[3.043257,45.640011],[3.043368,45.639619],[3.043728,45.639111],[3.043841,45.638474],[3.043636,45.638241],[3.043668,45.638062],[3.043974,45.637699],[3.043974,45.637585],[3.04406,45.637527],[3.044054,45.637089],[3.044457,45.63657],[3.044424,45.63625],[3.045031,45.635567],[3.044939,45.635399],[3.044666,45.635311],[3.044778,45.635029],[3.04546,45.634556],[3.045444,45.634304],[3.045234,45.634193],[3.044827,45.634274],[3.04458,45.634277],[3.044365,45.634129],[3.044301,45.633926],[3.044838,45.633381],[3.044725,45.632481],[3.044913,45.632099],[3.045127,45.631797],[3.045299,45.63163],[3.045546,45.631622],[3.045567,45.631855],[3.046055,45.632549],[3.046608,45.632736],[3.047235,45.633038],[3.047895,45.633171],[3.048534,45.633083],[3.04885,45.633171],[3.049269,45.63319],[3.049548,45.63306],[3.049719,45.632923],[3.049687,45.6325],[3.049478,45.631931],[3.049188,45.631367],[3.049274,45.631184],[3.049472,45.631001],[3.049617,45.630692],[3.049617,45.630283],[3.050079,45.629345],[3.050127,45.629112],[3.050379,45.628757],[3.050411,45.628525],[3.050787,45.628082],[3.051414,45.627213],[3.051527,45.626888],[3.051876,45.626479],[3.051833,45.626089],[3.051704,45.62604],[3.051543,45.62574],[3.051023,45.625371],[3.050497,45.625148],[3.049623,45.624615],[3.048198,45.623919],[3.047165,45.623493],[3.047018,45.623349],[3.046876,45.622958],[3.046938,45.622467],[3.04693,45.621984],[3.04676,45.622013],[3.046703,45.621813],[3.046543,45.62167],[3.046238,45.621582],[3.04532,45.620599],[3.045712,45.620167],[3.046088,45.619854],[3.04613,45.619579],[3.046238,45.619278],[3.046157,45.618988],[3.046361,45.618462],[3.046356,45.617924],[3.046243,45.617363],[3.046264,45.616985],[3.04605,45.616688],[3.045926,45.615982],[3.046211,45.615516],[3.046206,45.615384],[3.045905,45.61502],[3.045841,45.614662],[3.045299,45.614151],[3.043925,45.612999],[3.043373,45.612915],[3.042767,45.612904],[3.041195,45.613104],[3.039173,45.61325],[3.038337,45.613363],[3.03763,45.613563],[3.03631,45.614242],[3.034819,45.615113],[3.033703,45.615942],[3.032362,45.617162],[3.03174,45.618216],[3.03153,45.618845],[3.031251,45.619653],[3.030871,45.619529],[3.030281,45.618471],[3.029728,45.618186],[3.029581,45.617929],[3.029539,45.617523],[3.02955,45.616585],[3.029637,45.616142],[3.029578,45.615642],[3.029867,45.614918],[3.030096,45.614659],[3.031193,45.61434],[3.032088,45.613755],[3.030549,45.613619],[3.029562,45.613924],[3.028909,45.614012],[3.027881,45.61425],[3.02728,45.614288],[3.026507,45.614555],[3.026078,45.61491],[3.025938,45.615158],[3.025033,45.615353],[3.024255,45.615392],[3.023342,45.615574],[3.022505,45.61585],[3.021545,45.616093],[3.02073,45.616184],[3.020553,45.616131],[3.020349,45.615604],[3.020456,45.615269],[3.020993,45.614628],[3.020805,45.613823],[3.020327,45.613773],[3.019796,45.613807],[3.019799,45.613723],[3.020563,45.613342],[3.020547,45.613221],[3.020005,45.61298],[3.019597,45.612904],[3.019039,45.612911],[3.018605,45.613007],[3.01857,45.612933],[3.018857,45.612656],[3.019297,45.612362],[3.019512,45.612075],[3.02008,45.611685],[3.020263,45.61147],[3.020488,45.610985],[3.020719,45.610798],[3.020601,45.610691],[3.020392,45.610721],[3.02025,45.610822],[3.020167,45.610806],[3.020875,45.610354],[3.021492,45.610035],[3.02184,45.609585],[3.021991,45.609253],[3.02169,45.609157],[3.021395,45.608803],[3.02125,45.60831],[3.020998,45.608103],[3.020356,45.607765],[3.020271,45.6076],[3.020367,45.607424],[3.020083,45.607131],[3.019689,45.606964],[3.018801,45.606474],[3.018136,45.606174],[3.017384,45.605762],[3.016354,45.605367],[3.016011,45.605003],[3.015888,45.604579],[3.016151,45.603671],[3.015921,45.603184],[3.015692,45.602926],[3.015766,45.602921],[3.015744,45.602825],[3.014858,45.602192],[3.014048,45.601708],[3.013603,45.601186],[3.012514,45.600496],[3.011467,45.6003],[3.011597,45.600068],[3.011548,45.599967],[3.009671,45.598495],[3.009579,45.598345],[3.009381,45.5977],[3.008555,45.596517],[3.008109,45.595977],[3.007694,45.595352],[3.007235,45.594877],[3.007031,45.593965],[3.006055,45.593188],[3.005294,45.592246],[3.00512,45.592176],[3.004648,45.59219],[3.003966,45.592137],[3.003445,45.592046],[3.003392,45.59195],[3.00352,45.59155],[3.004846,45.590328],[3.004972,45.590053],[3.005207,45.589795],[3.005077,45.589782],[3.004197,45.590003],[3.003622,45.590184],[3.003051,45.590241],[3.00256,45.590389],[3.002443,45.590517],[3.002177,45.590603],[3.001718,45.590614],[3.001476,45.590706],[3.00122,45.590915],[3.000924,45.591003],[3.000254,45.590882],[2.999583,45.590928],[2.999294,45.591045],[2.998398,45.590971],[2.998132,45.590905],[2.996728,45.590842],[2.996488,45.59079],[2.995844,45.590824],[2.995844,45.590824],[2.995256,45.59068],[2.99472,45.59026],[2.994406,45.59007],[2.994103,45.590031],[2.994022,45.589794],[2.993703,45.589899],[2.993389,45.589599],[2.993443,45.589467],[2.993357,45.58922],[2.993052,45.589081],[2.992885,45.588927],[2.992604,45.588906],[2.99242,45.588562],[2.992773,45.588389],[2.992896,45.588224],[2.992783,45.588056],[2.992521,45.587947],[2.992215,45.587977],[2.991989,45.588097],[2.991952,45.588285],[2.992126,45.588728],[2.991999,45.588999],[2.991684,45.589247],[2.991407,45.589348],[2.991587,45.589123],[2.991667,45.588754],[2.991448,45.588437],[2.991305,45.588282],[2.99119,45.588],[2.990898,45.587786],[2.990724,45.587523],[2.990391,45.58748],[2.99001,45.587531],[2.989938,45.587412],[2.990107,45.587005],[2.990136,45.586774],[2.98977,45.586441],[2.989457,45.586059],[2.989167,45.585973],[2.989162,45.586112],[2.989291,45.586255],[2.989294,45.586365],[2.989145,45.586574],[2.989141,45.586813],[2.989074,45.586993],[2.988851,45.58696],[2.988867,45.58666],[2.988567,45.586427],[2.988508,45.586144],[2.988288,45.585965],[2.987977,45.585931],[2.98765,45.586143],[2.98692,45.586299],[2.986089,45.58619],[2.985182,45.586089],[2.984677,45.586002],[2.98383,45.585868],[2.983133,45.58589],[2.982339,45.586213],[2.982312,45.586502],[2.981998,45.586607],[2.981598,45.5866],[2.981081,45.586763],[2.97993,45.587005],[2.979405,45.587014],[2.979161,45.586965],[2.978906,45.587088],[2.977902,45.586971],[2.975954,45.586829],[2.975275,45.586926],[2.974467,45.586975],[2.973437,45.587098],[2.972702,45.587101],[2.972171,45.587026],[2.971388,45.587082],[2.970568,45.587288],[2.97032,45.587287],[2.969476,45.587149],[2.96862,45.586917],[2.968046,45.58694],[2.966892,45.586929],[2.966598,45.586883],[2.965728,45.586858],[2.965444,45.586867],[2.96512,45.586818],[2.964731,45.58689],[2.964494,45.587014],[2.964167,45.587437],[2.964076,45.587766],[2.963639,45.58808],[2.963063,45.588425],[2.96251,45.5886],[2.962075,45.587658],[2.961732,45.587746],[2.961137,45.588044],[2.960418,45.588192],[2.959468,45.588322],[2.959168,45.588459],[2.958825,45.588424],[2.958036,45.588573],[2.956415,45.588353],[2.95508,45.588539],[2.954329,45.588094],[2.953927,45.587978],[2.953439,45.587693],[2.952119,45.587094],[2.951558,45.587135],[2.950284,45.58691],[2.949566,45.586993],[2.949308,45.586957],[2.948761,45.586731],[2.947741,45.586724],[2.947173,45.586621],[2.946733,45.586415],[2.94639,45.586102],[2.945897,45.585901],[2.945403,45.585824],[2.944802,45.585891],[2.944572,45.585662],[2.944437,45.585592],[2.944163,45.585308],[2.944164,45.585196],[2.944255,45.585099],[2.944014,45.584912],[2.943981,45.584497],[2.943852,45.584088],[2.94367,45.583755],[2.943107,45.583294],[2.942643,45.583051],[2.942243,45.582941],[2.941894,45.582832],[2.941777,45.582658],[2.941642,45.582238],[2.941691,45.582047],[2.941144,45.580812],[2.941058,45.579725],[2.941471,45.579155],[2.941658,45.57878],[2.942211,45.578014],[2.942276,45.577392],[2.941658,45.577668],[2.941256,45.578057],[2.941041,45.578182],[2.940773,45.578473],[2.940145,45.578812],[2.939673,45.578955],[2.939126,45.579215],[2.938724,45.579343],[2.937844,45.580376],[2.937573,45.580832],[2.936704,45.581568],[2.936441,45.581694],[2.93605,45.582053],[2.93524,45.582316],[2.934888,45.582346],[2.933999,45.582023],[2.933828,45.581828],[2.933448,45.581857],[2.932621,45.581527],[2.93216,45.581524],[2.931422,45.581285],[2.931221,45.581073],[2.930754,45.580921],[2.930245,45.580919],[2.92914,45.581903],[2.927493,45.582508],[2.926581,45.582646],[2.925899,45.582661],[2.925433,45.582638],[2.924982,45.582534],[2.924615,45.582282],[2.924285,45.581993],[2.924218,45.581712],[2.924276,45.581368],[2.924422,45.581258],[2.924482,45.581042],[2.924652,45.580945],[2.924839,45.580705],[2.924994,45.580585],[2.924782,45.580112],[2.924838,45.579909],[2.924724,45.579626],[2.924577,45.579621],[2.924188,45.579874],[2.923861,45.579852],[2.923566,45.579455],[2.923255,45.579346],[2.923019,45.578946],[2.922686,45.578855],[2.921462,45.579105],[2.920933,45.579191],[2.920565,45.579194],[2.919562,45.579346],[2.91843,45.57935],[2.917846,45.579247],[2.917406,45.579358],[2.917148,45.579163],[2.916741,45.579163],[2.916418,45.578995],[2.916456,45.578907],[2.916456,45.578907],[2.916396,45.578704],[2.916052,45.578734],[2.915301,45.578614],[2.915022,45.578418],[2.91455,45.578223],[2.9144,45.577893],[2.914507,45.577547],[2.915623,45.577052],[2.915838,45.576826],[2.916481,45.576451],[2.916932,45.57606],[2.916996,45.575234],[2.917361,45.574964],[2.916932,45.575069],[2.916503,45.574934],[2.916374,45.574694],[2.915945,45.574093],[2.915752,45.573627],[2.915194,45.573222],[2.914615,45.572696],[2.914443,45.572305],[2.915301,45.572035],[2.915408,45.571494],[2.915752,45.571344],[2.916438,45.571209],[2.916267,45.570743],[2.916503,45.570383],[2.916524,45.570112],[2.916739,45.569812],[2.916717,45.569196],[2.917018,45.568881],[2.917383,45.568715],[2.918155,45.568926],[2.919056,45.568595],[2.919249,45.568265],[2.919056,45.567634],[2.919614,45.567574],[2.920022,45.567408],[2.921288,45.567273],[2.921889,45.567048],[2.922339,45.567003],[2.922811,45.567123],[2.923713,45.567469],[2.924507,45.567634],[2.928069,45.567619],[2.928755,45.567844],[2.929206,45.567859],[2.929613,45.567799],[2.930193,45.567874],[2.930772,45.567709],[2.931695,45.567934],[2.933433,45.56816],[2.934098,45.568024],[2.934465,45.568124],[2.935333,45.56824],[2.935844,45.568234],[2.93712,45.568363],[2.938595,45.568718],[2.937817,45.568088],[2.936675,45.567582],[2.935897,45.567371],[2.934814,45.567124],[2.935884,45.566055],[2.936428,45.565594],[2.936986,45.565225],[2.93727,45.564794],[2.937372,45.564403],[2.937458,45.563484],[2.937235,45.562685],[2.937146,45.562567],[2.937369,45.562456],[2.937062,45.562145],[2.936959,45.561845],[2.936626,45.561794],[2.936289,45.561638],[2.935393,45.560994],[2.93455,45.560687],[2.933622,45.560264],[2.932657,45.560086],[2.932062,45.559887],[2.931458,45.559803],[2.930913,45.559655],[2.930626,45.55971],[2.93049,45.559803],[2.929634,45.559624],[2.929061,45.559448],[2.928829,45.559457],[2.928569,45.559418],[2.928049,45.559563],[2.927743,45.559513],[2.925372,45.55867],[2.924996,45.558435],[2.924444,45.558237],[2.92388,45.558136],[2.923623,45.55801],[2.923435,45.557792],[2.92262,45.55745],[2.922094,45.55741],[2.921123,45.557148],[2.920195,45.557003],[2.9199,45.556805],[2.919621,45.556717],[2.919208,45.556835],[2.918602,45.556862],[2.918189,45.556765],[2.917733,45.556578],[2.917561,45.556363],[2.917416,45.5561],[2.917159,45.556076],[2.916692,45.556039],[2.916574,45.555912],[2.916751,45.555778],[2.917337,45.555545],[2.91805,45.555427],[2.918919,45.555477],[2.919334,45.5554],[2.919868,45.555593],[2.920887,45.555772],[2.921311,45.555806],[2.921926,45.555906],[2.922262,45.556002],[2.923072,45.556019],[2.923513,45.555915],[2.923572,45.555818],[2.923148,45.555822],[2.922392,45.555548],[2.922333,45.555255],[2.921659,45.554902],[2.920155,45.554372],[2.919916,45.554073],[2.919877,45.553683],[2.919707,45.553346],[2.919505,45.553102],[2.919157,45.553034],[2.919331,45.553254],[2.918985,45.553136],[2.917309,45.552919],[2.917229,45.55296],[2.916424,45.552826],[2.916086,45.552895],[2.915314,45.55289],[2.914944,45.553036],[2.913678,45.552844],[2.912057,45.552399],[2.911682,45.551974],[2.911102,45.551804],[2.910014,45.551307],[2.907568,45.550446],[2.905261,45.549154],[2.90275,45.547108],[2.901833,45.546738],[2.901216,45.546327],[2.900486,45.545934],[2.900293,45.545695],[2.900191,45.545448],[2.89981,45.544942],[2.899542,45.544416],[2.899092,45.543963],[2.89833,45.542761],[2.897884,45.541366],[2.89797,45.539789],[2.898142,45.539287],[2.89811,45.538841],[2.89796,45.538522],[2.897874,45.538126],[2.8976,45.537715],[2.897249,45.537379],[2.897016,45.537219],[2.896989,45.537058],[2.897273,45.536919],[2.898021,45.536864],[2.898359,45.536531],[2.89926,45.536016],[2.899507,45.536051],[2.90014,45.536493],[2.900617,45.53656],[2.901038,45.536515],[2.90134,45.536388],[2.901453,45.536277],[2.901845,45.536188],[2.902886,45.535563],[2.903605,45.534979],[2.903879,45.53405],[2.904225,45.533374],[2.904409,45.532896],[2.904844,45.532336],[2.905381,45.531796],[2.905786,45.530819],[2.905837,45.530251],[2.905574,45.529963],[2.905022,45.52957],[2.904662,45.529417],[2.904395,45.529185],[2.904321,45.529036],[2.903616,45.528601],[2.903198,45.528474],[2.90316,45.528383],[2.903278,45.528214],[2.905509,45.526921],[2.908057,45.525534],[2.910295,45.524644],[2.912178,45.523832],[2.912999,45.522896],[2.91342,45.522532],[2.913347,45.522242],[2.913795,45.521974],[2.913868,45.521795],[2.912199,45.520457],[2.91104,45.519743],[2.910756,45.519381],[2.910472,45.519033],[2.91045,45.518758],[2.910606,45.518175],[2.91044,45.517616],[2.910735,45.517096],[2.910713,45.51666],[2.911175,45.516646],[2.911515,45.516806],[2.912236,45.516983],[2.913009,45.517304],[2.914162,45.517503],[2.915037,45.517794],[2.915614,45.518071],[2.916019,45.518251],[2.916448,45.518672],[2.91693,45.518916],[2.917585,45.519078],[2.918256,45.519514],[2.918577,45.519645],[2.918924,45.519665],[2.920221,45.519328],[2.92183,45.518977],[2.922716,45.518579],[2.923891,45.518192],[2.924872,45.517948],[2.92646,45.517612],[2.926777,45.517463],[2.926911,45.517304],[2.926364,45.517059],[2.925564,45.51684],[2.925079,45.516882],[2.925028,45.516823],[2.926074,45.516499],[2.927814,45.516174],[2.92829,45.516197],[2.92833,45.516109],[2.927571,45.515991],[2.926751,45.515945],[2.926235,45.515759],[2.926209,45.515637],[2.926413,45.515529],[2.926338,45.515308],[2.926509,45.515275],[2.927153,45.51537],[2.927348,45.515348],[2.927367,45.51519],[2.927606,45.515167],[2.92807,45.515235],[2.928588,45.515088],[2.928928,45.514926],[2.928952,45.514829],[2.929899,45.514759],[2.930329,45.514916],[2.930699,45.514946],[2.930951,45.51488],[2.931031,45.51479],[2.931385,45.514633],[2.931863,45.514539],[2.931498,45.514168],[2.930806,45.514325],[2.930656,45.514033],[2.93057,45.513675],[2.930929,45.513571],[2.931281,45.513413],[2.93153,45.513157],[2.932289,45.512951],[2.932544,45.512924],[2.932383,45.512739],[2.932211,45.512299],[2.932211,45.512299],[2.931926,45.511621],[2.931979,45.511441],[2.932414,45.511138],[2.9325,45.510984],[2.932022,45.5106],[2.931729,45.510133],[2.930969,45.509418],[2.930702,45.508595],[2.930079,45.507865],[2.929918,45.506995],[2.929425,45.505955],[2.92865,45.505168],[2.928493,45.504707],[2.928533,45.504533],[2.928467,45.504292],[2.928363,45.503573],[2.928077,45.502831],[2.927915,45.502759],[2.927626,45.502529],[2.927422,45.502253],[2.926897,45.502176],[2.926284,45.501859],[2.925372,45.501437],[2.92354,45.500394],[2.922951,45.500016],[2.921992,45.499722],[2.921551,45.499484],[2.92105,45.499033],[2.92071,45.498873],[2.920276,45.498889],[2.919307,45.499065],[2.916897,45.499842],[2.916459,45.500026],[2.915797,45.500168],[2.912651,45.499729],[2.909762,45.499241],[2.910135,45.498664],[2.91003,45.498482],[2.909797,45.498351],[2.908698,45.498027],[2.908347,45.497869],[2.907985,45.497415],[2.907771,45.496994],[2.907818,45.496683],[2.908654,45.496517],[2.90926,45.496623],[2.909821,45.496342],[2.91057,45.496316],[2.911708,45.496005],[2.91199,45.495774],[2.912121,45.495302],[2.912062,45.495079],[2.911587,45.494937],[2.911034,45.494862],[2.910877,45.494754],[2.907554,45.49392],[2.907239,45.493895],[2.905916,45.49355],[2.905503,45.493722],[2.904969,45.493629],[2.903735,45.493253],[2.903429,45.493263],[2.903017,45.493758],[2.90276,45.493756],[2.902804,45.494216],[2.902941,45.494507],[2.902701,45.494421],[2.902445,45.494228],[2.902028,45.493825],[2.901285,45.493688],[2.900909,45.493659],[2.900616,45.493536],[2.900336,45.493329],[2.899996,45.493256],[2.898732,45.493351],[2.897983,45.493462],[2.897178,45.493666],[2.896107,45.493793],[2.894056,45.493659],[2.894172,45.494482],[2.894084,45.494591],[2.893195,45.493433],[2.893078,45.493159],[2.892891,45.492875],[2.892956,45.492753],[2.892721,45.492411],[2.892877,45.491663],[2.893097,45.490765],[2.893246,45.490552],[2.89322,45.490335],[2.893374,45.489967],[2.893377,45.489712],[2.89353,45.489222],[2.893496,45.488898],[2.893798,45.488049],[2.893805,45.48778],[2.893922,45.487332],[2.89413,45.487127],[2.894315,45.486516],[2.894399,45.486026],[2.894332,45.485586],[2.894598,45.484102],[2.894844,45.483134],[2.895042,45.482994],[2.895068,45.482909],[2.895259,45.482718],[2.895374,45.482504],[2.895583,45.482308],[2.895972,45.482102],[2.896088,45.481828],[2.89653,45.481602],[2.897198,45.481129],[2.897638,45.480995],[2.897941,45.480964],[2.898024,45.480846],[2.898287,45.480814],[2.898485,45.480842],[2.898974,45.480692],[2.899397,45.480241],[2.899513,45.479741],[2.899413,45.479129],[2.899011,45.478535],[2.898341,45.478019],[2.898249,45.477661],[2.897911,45.477089],[2.897498,45.476649],[2.897402,45.476409],[2.896254,45.475575],[2.896255,45.475254],[2.8961,45.475036],[2.896222,45.474647],[2.895996,45.473435],[2.896037,45.473186],[2.895842,45.472595],[2.895905,45.472342],[2.895894,45.472128],[2.895953,45.471904],[2.896042,45.471811],[2.896354,45.471298],[2.89687,45.470921],[2.89687,45.470921],[2.897062,45.470675],[2.896998,45.470524],[2.897491,45.46926],[2.897599,45.468387],[2.897942,45.467439],[2.8988,45.466581],[2.898693,45.465814],[2.898929,45.465092],[2.899423,45.464309],[2.900003,45.463901],[2.900632,45.463564],[2.901747,45.463217],[2.902377,45.462994],[2.902916,45.462665],[2.903042,45.462469],[2.903099,45.461953],[2.902836,45.461516],[2.902898,45.461394],[2.90311,45.461395],[2.903298,45.46146],[2.904156,45.461571],[2.905143,45.461578],[2.906194,45.461651],[2.906591,45.461555],[2.90716,45.461514],[2.907449,45.461597],[2.908096,45.461206],[2.908703,45.46092],[2.909209,45.460586],[2.909933,45.459701],[2.910115,45.459245],[2.910121,45.458632],[2.910027,45.458451],[2.910169,45.457702],[2.9104,45.457629],[2.912489,45.456362],[2.91356,45.455847],[2.913914,45.455612],[2.914364,45.455505],[2.914647,45.455357],[2.914995,45.455374],[2.915196,45.455288],[2.915343,45.454505],[2.915296,45.454089],[2.915077,45.453766],[2.914482,45.453172],[2.914509,45.452587],[2.914313,45.452185],[2.91391,45.451845],[2.913683,45.451795],[2.913544,45.451529],[2.913614,45.451192],[2.913869,45.450941],[2.914434,45.450548],[2.914574,45.450182],[2.915013,45.449757],[2.915146,45.44945],[2.915472,45.449226],[2.915569,45.449092],[2.916225,45.448574],[2.916296,45.44834],[2.915694,45.447646],[2.915555,45.44717],[2.914353,45.446215],[2.914268,45.445997],[2.914455,45.445786],[2.914485,45.445677],[2.914664,45.445635],[2.91475,45.445512],[2.914664,45.445292],[2.914632,45.445133],[2.914847,45.445184],[2.915416,45.445431],[2.915716,45.445633],[2.916381,45.445623],[2.91681,45.445764],[2.917143,45.445942],[2.917899,45.446997],[2.918216,45.447178],[2.918506,45.447227],[2.918816,45.447254],[2.919567,45.44759],[2.919843,45.447414],[2.920597,45.446139],[2.921166,45.44545],[2.921595,45.445419],[2.922239,45.445439],[2.922915,45.445557],[2.923087,45.445527],[2.923341,45.445321],[2.923821,45.445149],[2.923983,45.445143],[2.924224,45.444983],[2.924659,45.444873],[2.925142,45.444672],[2.925205,45.444444],[2.925157,45.444257],[2.924674,45.443739],[2.924661,45.443573],[2.924884,45.443406],[2.924828,45.443172],[2.925009,45.442803],[2.924959,45.442659],[2.925254,45.442481],[2.926053,45.44176],[2.926359,45.441623],[2.926667,45.441641],[2.927051,45.441735],[2.927306,45.441696],[2.927321,45.441612],[2.927577,45.441461],[2.927872,45.441155],[2.928118,45.440727],[2.92836,45.440429],[2.92832,45.440287],[2.928328,45.440021],[2.928258,45.439598],[2.92836,45.439572],[2.928609,45.439713],[2.928794,45.439865],[2.929026,45.439781],[2.929352,45.439812],[2.929379,45.439674],[2.929025,45.439289],[2.929052,45.438994],[2.929192,45.438623],[2.92917,45.438233],[2.929299,45.438197],[2.929503,45.437686],[2.929621,45.43763],[2.929669,45.438101],[2.92991,45.438361],[2.93006,45.438336],[2.93006,45.438135],[2.930232,45.437818],[2.9302,45.43756],[2.929985,45.436987],[2.930071,45.436703],[2.930522,45.436192],[2.931681,45.435339],[2.931981,45.43491],[2.932019,45.434623],[2.931952,45.434489],[2.931884,45.43425],[2.932211,45.434009],[2.93227,45.433741],[2.932088,45.43313],[2.931514,45.429686],[2.931584,45.429347],[2.932319,45.428779],[2.933137,45.428017],[2.933966,45.427165],[2.934317,45.427006],[2.936183,45.426509],[2.937688,45.42606],[2.938477,45.425647],[2.938671,45.425446],[2.939057,45.42481],[2.940049,45.423984],[2.941444,45.422676],[2.943429,45.421361],[2.944496,45.42089],[2.944802,45.420835],[2.945494,45.420882],[2.946028,45.42086],[2.946621,45.420902],[2.948933,45.420441],[2.949619,45.420212],[2.949989,45.419709],[2.950563,45.419433],[2.950751,45.419456],[2.951759,45.418979],[2.95287,45.418789],[2.953332,45.418578],[2.954346,45.418291],[2.954544,45.418086],[2.95467,45.417497],[2.955096,45.416826],[2.955386,45.416597],[2.955568,45.415887],[2.955735,45.415686],[2.955979,45.415552],[2.956491,45.415373],[2.956427,45.415128],[2.956051,45.414863],[2.955236,45.414116],[2.954316,45.413704],[2.952945,45.41296],[2.952237,45.412389],[2.951609,45.411705],[2.949598,45.411384],[2.949163,45.411423],[2.948297,45.411691],[2.946911,45.412072],[2.946493,45.411596],[2.94621,45.411444],[2.943797,45.408095],[2.94266,45.406533],[2.941551,45.404934],[2.943225,45.403664],[2.94305,45.403457],[2.94162,45.402847],[2.939236,45.401948],[2.938682,45.401679],[2.938009,45.401507],[2.93771,45.401501],[2.937104,45.401376],[2.936192,45.401094],[2.936023,45.400911],[2.935923,45.400554],[2.935548,45.400277],[2.935473,45.400024],[2.935291,45.39996],[2.934433,45.400154],[2.934266,45.400094],[2.934108,45.399872],[2.93388,45.399432],[2.933794,45.398937],[2.932019,45.397557],[2.931603,45.39717],[2.931053,45.396621],[2.930715,45.395726],[2.930457,45.39533],[2.929845,45.395108],[2.929803,45.394642],[2.929441,45.393885],[2.929497,45.393791],[2.927486,45.392266],[2.926834,45.391858],[2.926417,45.391397],[2.924691,45.390037],[2.92417,45.389364],[2.924116,45.389112],[2.924309,45.388747],[2.924175,45.388588],[2.923733,45.388422],[2.923387,45.388659],[2.923191,45.38866],[2.922899,45.388734],[2.922636,45.388694],[2.92247,45.388531],[2.92236,45.38805],[2.921939,45.38813],[2.921601,45.388019],[2.921423,45.388014],[2.921276,45.388127],[2.921172,45.388454],[2.920779,45.38868],[2.920018,45.388906],[2.91931,45.389046],[2.918516,45.38908],[2.918078,45.389535],[2.917668,45.390284],[2.917129,45.390672],[2.916353,45.391423],[2.916179,45.391666],[2.915647,45.392089],[2.915426,45.39217],[2.914665,45.39222],[2.913774,45.392494],[2.911999,45.392933],[2.911076,45.392877],[2.910732,45.392804],[2.909209,45.39267],[2.908726,45.392665],[2.907455,45.392494],[2.905679,45.392689],[2.90444,45.393013],[2.903592,45.393404],[2.903357,45.393595],[2.902756,45.394386],[2.90237,45.394749],[2.901801,45.395104],[2.901586,45.395142],[2.901098,45.395081],[2.900881,45.395158],[2.900165,45.395767],[2.899853,45.395882],[2.898072,45.395938],[2.89759,45.39584],[2.896415,45.395184],[2.895339,45.394847],[2.893298,45.394171],[2.892247,45.393874],[2.891287,45.393508],[2.890817,45.393248],[2.890299,45.392863],[2.890047,45.392478],[2.889693,45.392442],[2.88884,45.392723],[2.888502,45.392703],[2.88803,45.392608],[2.887429,45.392617],[2.886976,45.392536],[2.886534,45.392304],[2.886231,45.391983],[2.886035,45.391647],[2.885638,45.391464],[2.885091,45.391495],[2.883792,45.39177],[2.882993,45.392308],[2.882086,45.392529],[2.881051,45.392391],[2.880128,45.392567],[2.879638,45.392502],[2.87955,45.392532],[2.879989,45.392888],[2.880976,45.393059],[2.88082,45.393226],[2.880699,45.393494],[2.880791,45.39383],[2.880196,45.39375],[2.879613,45.393906],[2.879085,45.393903],[2.879018,45.393956],[2.878332,45.394059],[2.877157,45.394162],[2.876271,45.394321],[2.875327,45.394646],[2.874415,45.395077],[2.874072,45.395181],[2.873187,45.395738],[2.872924,45.396007],[2.872441,45.396193],[2.872286,45.396202],[2.871578,45.396244],[2.871089,45.396355],[2.870344,45.396732],[2.869754,45.396858],[2.869163,45.397252],[2.8686,45.397381],[2.868064,45.397644],[2.867232,45.397964],[2.866355,45.3986],[2.866186,45.398769],[2.866144,45.39906],[2.864824,45.399109],[2.863788,45.399521],[2.861867,45.399253],[2.860795,45.398983],[2.859245,45.39922],[2.857775,45.399586],[2.857732,45.399792],[2.859325,45.401299],[2.85936,45.401851],[2.859229,45.402425],[2.859722,45.402506],[2.859809,45.402762],[2.859977,45.402968],[2.860211,45.403073],[2.860232,45.403203],[2.860071,45.403408],[2.860079,45.403613],[2.85984,45.404096],[2.859835,45.40454],[2.859915,45.404996],[2.859835,45.405137],[2.859454,45.405346],[2.859269,45.405488],[2.859223,45.405682],[2.859196,45.406099],[2.859234,45.406479],[2.858749,45.40703],[2.858239,45.407149],[2.857078,45.408064],[2.856866,45.408382],[2.856112,45.408887],[2.855821,45.409178],[2.855605,45.409522],[2.854846,45.4105],[2.854626,45.410693],[2.854433,45.411343],[2.853939,45.411867],[2.853848,45.412275],[2.853709,45.412693],[2.853151,45.412865],[2.852571,45.412949],[2.851019,45.412994],[2.849911,45.412971],[2.849476,45.412878],[2.84901,45.412679],[2.848682,45.412831],[2.848318,45.413068],[2.848044,45.413106],[2.847652,45.413125],[2.847105,45.413228],[2.845587,45.413292],[2.844729,45.413414],[2.844278,45.41341],[2.843607,45.413525],[2.842384,45.413486],[2.841633,45.413353],[2.840839,45.413082],[2.839804,45.412499],[2.839549,45.412326],[2.839325,45.412443],[2.838731,45.412458],[2.838651,45.412863],[2.838721,45.413223],[2.83911,45.41341],[2.839154,45.413767],[2.839252,45.414241],[2.838994,45.414724],[2.839091,45.415056],[2.839316,45.415448],[2.839343,45.416276],[2.83944,45.416404],[2.839418,45.416581],[2.838967,45.417039],[2.838868,45.417404],[2.838887,45.417641],[2.838573,45.417453],[2.838302,45.417461],[2.838318,45.417761],[2.837997,45.417621],[2.837492,45.417297],[2.837272,45.417309],[2.837038,45.417482],[2.837201,45.41782],[2.836912,45.417782],[2.836413,45.417839],[2.835923,45.417719],[2.835529,45.417694],[2.835242,45.417506],[2.834878,45.417035],[2.834702,45.416666],[2.834418,45.416509],[2.83394,45.416458],[2.833727,45.416274],[2.833673,45.415884],[2.833743,45.415561],[2.833611,45.41535],[2.833614,45.414921],[2.833437,45.414535],[2.830535,45.410386],[2.829606,45.409083],[2.829338,45.40885],[2.827707,45.408032],[2.827418,45.407635],[2.826908,45.407498],[2.82687,45.407605],[2.826516,45.407806],[2.826315,45.407777],[2.825689,45.407936],[2.825433,45.407943],[2.824913,45.407885],[2.824159,45.407675],[2.823619,45.407626],[2.822831,45.407672],[2.822225,45.407379],[2.821452,45.407278],[2.820476,45.406943],[2.819371,45.406753],[2.818625,45.406361],[2.81803,45.406032],[2.817236,45.405848],[2.816721,45.405871],[2.816501,45.405772],[2.816445,45.40565],[2.816603,45.405294],[2.81656,45.404583],[2.816673,45.404156],[2.817322,45.403367],[2.815584,45.402586],[2.814803,45.402102],[2.814259,45.401672],[2.812328,45.400955],[2.811518,45.400463],[2.809496,45.399524],[2.80905,45.399174],[2.807601,45.398678],[2.806223,45.398312],[2.805386,45.397999],[2.803299,45.3978],[2.801759,45.397723],[2.801078,45.397736],[2.800743,45.397675],[2.800386,45.397667],[2.799673,45.397713],[2.798058,45.397538],[2.797731,45.397603],[2.796932,45.398083],[2.796175,45.39838],[2.795596,45.398392],[2.795049,45.398294],[2.794657,45.398162],[2.794223,45.398135],[2.793622,45.398014],[2.793112,45.39806],[2.792533,45.398224],[2.791948,45.398232],[2.791948,45.398232],[2.790246,45.398196],[2.789817,45.39806],[2.789409,45.398],[2.78898,45.397714],[2.788615,45.397714],[2.7878,45.39791],[2.786834,45.39806],[2.786512,45.397985],[2.786212,45.398136],[2.786212,45.398482],[2.784345,45.398558],[2.783401,45.398542],[2.782156,45.398151],[2.779496,45.39809],[2.778401,45.398015],[2.776813,45.398075],[2.776364,45.397939],[2.775974,45.398242],[2.774932,45.398741],[2.774262,45.39924],[2.773861,45.399422],[2.773631,45.399633],[2.7729,45.399964],[2.77275,45.400196],[2.77226,45.400547],[2.771869,45.40099],[2.771048,45.401391],[2.770458,45.402016],[2.770067,45.402206],[2.769337,45.402283],[2.768536,45.402473],[2.767855,45.402522],[2.767144,45.402705],[2.766994,45.402628],[2.766854,45.40215],[2.766584,45.4021],[2.765783,45.401686],[2.764952,45.401552],[2.764502,45.401384],[2.764141,45.401278],[2.764001,45.400941],[2.76309,45.401011],[2.76276,45.401123],[2.762159,45.400962],[2.761489,45.401004],[2.760868,45.400941],[2.760528,45.400934],[2.760067,45.400772],[2.759627,45.400484],[2.758696,45.400554],[2.758095,45.400512],[2.757454,45.400315],[2.757194,45.400175],[2.756774,45.400118],[2.756343,45.400161],[2.755663,45.400125],[2.75557,45.40014],[2.754884,45.400064],[2.752566,45.399431],[2.750807,45.399462],[2.749629,45.399384],[2.749608,45.399595],[2.748985,45.399625],[2.748146,45.400215],[2.747919,45.400272],[2.747289,45.400249],[2.74584,45.39994],[2.745352,45.399868],[2.744584,45.399545],[2.743782,45.399299],[2.742953,45.399124],[2.741926,45.398889],[2.741352,45.3985],[2.74051,45.397961],[2.739973,45.397808],[2.739,45.397362],[2.738414,45.396949],[2.737898,45.396704],[2.737152,45.396399],[2.736913,45.39623],[2.736621,45.395773],[2.73559,45.39558],[2.73433,45.39539],[2.7335,45.395142],[2.733052,45.39509],[2.73271,45.394962],[2.732512,45.394951],[2.732079,45.394665],[2.731613,45.394326],[2.730891,45.394016],[2.73009,45.394058],[2.72958,45.394032],[2.72873,45.39431],[2.728179,45.394338],[2.727714,45.394268],[2.72756,45.394539],[2.72717,45.39465],[2.725957,45.395332],[2.72514,45.395622],[2.724505,45.39589],[2.72377,45.396042],[2.72324,45.396278],[2.722489,45.396522],[2.72195,45.396488],[2.721262,45.396405],[2.720715,45.396251],[2.720094,45.396264],[2.719453,45.396075],[2.718977,45.395828],[2.718367,45.395869],[2.717264,45.395548],[2.71689,45.395348],[2.716475,45.395482],[2.715736,45.395529],[2.715093,45.395649],[2.714654,45.395773],[2.714427,45.395922],[2.714059,45.396449],[2.713726,45.396598],[2.713528,45.396603],[2.713288,45.396553],[2.712997,45.396628],[2.71292,45.396702],[2.712665,45.396653],[2.712537,45.396374],[2.711992,45.396086],[2.711398,45.396111],[2.711129,45.396225],[2.710902,45.396136],[2.710867,45.395877],[2.710301,45.39552],[2.710166,45.39552],[2.70989,45.395838],[2.70955,45.395957],[2.709288,45.395778],[2.709189,45.395902],[2.708828,45.396146],[2.708531,45.396156],[2.707908,45.396568],[2.707554,45.396538],[2.707136,45.39629],[2.706931,45.396265],[2.706542,45.396369],[2.706011,45.396722],[2.705799,45.397031],[2.705584,45.397025],[2.705342,45.397184],[2.70544,45.397882],[2.705068,45.39842],[2.704105,45.398511],[2.704029,45.39882],[2.704082,45.39907],[2.70355,45.399502],[2.702945,45.40014],[2.70192,45.40044],[2.70113,45.400509],[2.69973,45.400169],[2.69926,45.39991],[2.6987,45.399422],[2.69766,45.39896],[2.69714,45.39883],[2.69606,45.398392],[2.695527,45.398338],[2.69409,45.398869],[2.69304,45.399429],[2.69276,45.399761],[2.69276,45.399761],[2.692356,45.400893],[2.691724,45.401643],[2.692346,45.40224],[2.692649,45.402229],[2.69268,45.402602],[2.693332,45.403188],[2.693742,45.403369],[2.693848,45.403593],[2.694152,45.403752],[2.695305,45.403752],[2.695896,45.404114],[2.695927,45.404317],[2.695411,45.40437],[2.695259,45.404519],[2.695593,45.404828],[2.695593,45.405009],[2.695092,45.405542],[2.693797,45.405708],[2.693153,45.405966],[2.691704,45.405514],[2.690715,45.405369],[2.690301,45.403803],[2.689841,45.403448],[2.688507,45.402947],[2.687426,45.402753],[2.686851,45.40243],[2.684828,45.40369],[2.685011,45.404029],[2.684851,45.404174],[2.682873,45.403577],[2.682597,45.40369],[2.682666,45.404174],[2.683379,45.404529],[2.683471,45.405224],[2.683264,45.405498],[2.682436,45.40545],[2.682022,45.40595],[2.681838,45.406725],[2.680803,45.407113],[2.680366,45.407662],[2.680504,45.408889],[2.680159,45.409357],[2.68009,45.409825],[2.680343,45.410552],[2.679607,45.410923],[2.679745,45.41123],[2.680343,45.411763],[2.67986,45.412715],[2.679883,45.413458],[2.679692,45.413957],[2.680329,45.415448],[2.679828,45.41581],[2.679055,45.415917],[2.678387,45.415736],[2.67822,45.415533],[2.677901,45.415384],[2.677962,45.416034],[2.678341,45.416715],[2.678311,45.417738],[2.677856,45.418356],[2.677795,45.41875],[2.677401,45.418888],[2.676035,45.418995],[2.674366,45.41941],[2.67461,45.419476],[2.676538,45.419631],[2.67683,45.419531],[2.677079,45.419544],[2.67731,45.419811],[2.67748,45.420269],[2.67752,45.420601],[2.67783,45.42094],[2.67791,45.421341],[2.67811,45.42168],[2.67813,45.422112],[2.67774,45.42244],[2.67764,45.422699],[2.67769,45.423091],[2.677308,45.423704],[2.677237,45.424001],[2.677209,45.424811],[2.67738,45.425467],[2.67764,45.425838],[2.677568,45.426385],[2.677718,45.426562],[2.678276,45.426772],[2.67866,45.426849],[2.67988,45.426701],[2.68033,45.42659],[2.68084,45.426682],[2.681123,45.42683],[2.681297,45.427047],[2.681293,45.427325],[2.681804,45.427343],[2.682265,45.427272],[2.682561,45.427063],[2.682784,45.426811],[2.68326,45.426565],[2.683469,45.426413],[2.683546,45.426143],[2.68387,45.425911],[2.684159,45.425787],[2.684567,45.425765],[2.685097,45.425831],[2.685649,45.42604],[2.686265,45.426132],[2.686875,45.426129],[2.68917,45.42556],[2.68953,45.425659],[2.689954,45.425999],[2.69096,45.426079],[2.691876,45.426281],[2.692411,45.426574],[2.692873,45.426291],[2.693163,45.426214],[2.693426,45.426217],[2.693561,45.426114],[2.693423,45.425747],[2.693751,45.425381],[2.694185,45.425091],[2.695441,45.425198],[2.6958,45.425194],[2.696507,45.42546],[2.69688,45.425629],[2.697163,45.425702],[2.69735,45.425678],[2.697598,45.425866],[2.697739,45.426155],[2.69828,45.4268],[2.698128,45.427281],[2.698582,45.427845],[2.69959,45.428028],[2.70039,45.428059],[2.70088,45.428009],[2.70129,45.428059],[2.70187,45.428379],[2.70248,45.428589],[2.702782,45.42865],[2.703223,45.428837],[2.70384,45.428551],[2.70377,45.427872],[2.704016,45.427727],[2.704881,45.427696],[2.705988,45.427971],[2.7067,45.427929],[2.707415,45.42791],[2.707809,45.427744],[2.708261,45.427383],[2.708863,45.427331],[2.70895,45.427219],[2.70907,45.426971],[2.7094,45.426819],[2.709855,45.426811],[2.710292,45.426653],[2.710643,45.426371],[2.711114,45.426212],[2.711757,45.426067],[2.71229,45.425678],[2.71282,45.424931],[2.713007,45.424733],[2.71327,45.42458],[2.713843,45.424524],[2.71463,45.424332],[2.7149,45.424004],[2.715218,45.423791],[2.71561,45.423389],[2.71583,45.42345],[2.71693,45.423409],[2.7179,45.423592],[2.7186,45.423599],[2.71945,45.423409],[2.720264,45.423622],[2.721444,45.423477],[2.721756,45.423313],[2.722625,45.422501],[2.72285,45.422455],[2.72353,45.422149],[2.723999,45.42136],[2.724382,45.420586],[2.724415,45.420269],[2.724264,45.419727],[2.72405,45.419464],[2.724742,45.419419],[2.725356,45.418963],[2.725665,45.418866],[2.726188,45.418936],[2.727301,45.418893],[2.728878,45.418793],[2.730498,45.419224],[2.73178,45.419831],[2.732223,45.419874],[2.733985,45.419773],[2.735401,45.41993],[2.741774,45.422493],[2.742144,45.422817],[2.742887,45.422847],[2.74436,45.42305],[2.745701,45.422924],[2.747128,45.423039],[2.748287,45.423085],[2.749327,45.42329],[2.751025,45.423395],[2.751939,45.4235],[2.752414,45.423477],[2.753549,45.423167],[2.754375,45.423065],[2.754914,45.423159],[2.755217,45.423358],[2.755271,45.423584],[2.755244,45.423753],[2.755456,45.423959],[2.755893,45.424126],[2.756558,45.423989],[2.756848,45.423702],[2.757352,45.423531],[2.758082,45.423451],[2.758371,45.423363],[2.759021,45.422933],[2.76027,45.421543],[2.760292,45.421334],[2.760678,45.421501],[2.761027,45.421601],[2.761303,45.421839],[2.761494,45.422161],[2.761257,45.422779],[2.761446,45.423268],[2.762183,45.423625],[2.763328,45.424034],[2.763832,45.424335],[2.764777,45.424798],[2.765506,45.424946],[2.766064,45.42514],[2.766418,45.42548],[2.766418,45.425893],[2.766215,45.426545],[2.766283,45.426862],[2.766613,45.427147],[2.767061,45.427379],[2.769336,45.428726],[2.771476,45.430291],[2.771696,45.430516],[2.772346,45.430729],[2.772762,45.430756],[2.773199,45.430858],[2.773521,45.43103],[2.774851,45.43131],[2.775602,45.431374],[2.776342,45.431232],[2.78293,45.431648],[2.784528,45.432568],[2.785339,45.432896],[2.785454,45.433134],[2.787066,45.434206],[2.787229,45.434599],[2.787831,45.434919],[2.789362,45.435157],[2.790065,45.435341],[2.790327,45.435719],[2.790585,45.435928],[2.790939,45.435397],[2.791875,45.435702],[2.793058,45.436007],[2.794141,45.435897],[2.794501,45.436008],[2.794656,45.436142],[2.794938,45.436189],[2.795541,45.436485],[2.796255,45.436654],[2.796437,45.436794],[2.79663,45.43713],[2.797628,45.437324],[2.797698,45.438191],[2.797672,45.438485],[2.798052,45.438855],[2.798052,45.43901],[2.797515,45.438961],[2.796657,45.439498],[2.795882,45.440069],[2.795053,45.440432],[2.794098,45.440678],[2.792119,45.44103],[2.791682,45.441235],[2.791567,45.441542],[2.791781,45.44201],[2.791754,45.442781],[2.792113,45.443952],[2.792382,45.444316],[2.792774,45.444704],[2.792669,45.444955],[2.793187,45.444939],[2.793358,45.445042],[2.793449,45.445477],[2.79376,45.445946],[2.794544,45.446074],[2.795107,45.446613],[2.795583,45.446754],[2.795952,45.446992],[2.7967,45.447228],[2.797075,45.447321],[2.797454,45.447508],[2.798223,45.447622],[2.79839,45.447857],[2.798514,45.448459],[2.798492,45.448756],[2.798557,45.449409],[2.798516,45.449634],[2.798385,45.44987],[2.798406,45.450617],[2.798511,45.450775],[2.799881,45.451565],[2.800761,45.451687],[2.801265,45.451664],[2.802885,45.451946],[2.804103,45.452184],[2.804927,45.452465],[2.805535,45.452646],[2.806361,45.453125],[2.806565,45.453373],[2.807166,45.453809],[2.807557,45.454553],[2.808797,45.455376],[2.809601,45.456669],[2.810117,45.456631],[2.811093,45.457441],[2.811469,45.457648],[2.812139,45.458007],[2.812745,45.45845],[2.813367,45.458719],[2.814371,45.459271],[2.814701,45.459411],[2.815814,45.46003],[2.818104,45.460152],[2.818649,45.460326],[2.8192,45.460421],[2.820275,45.460671],[2.820728,45.460816],[2.821554,45.460922],[2.822943,45.46138],[2.82357,45.461377],[2.824375,45.461581],[2.824804,45.461755],[2.825448,45.461906],[2.825716,45.461915],[2.825899,45.46229],[2.825598,45.46254],[2.825588,45.46312],[2.825293,45.463713],[2.825033,45.463983],[2.824687,45.464238],[2.824724,45.464545],[2.825033,45.464742],[2.825348,45.464792],[2.827592,45.465618],[2.827663,45.465771],[2.82812,45.465917],[2.828728,45.466242],[2.82983,45.466942],[2.830598,45.467179],[2.837748,45.468381],[2.838867,45.468713],[2.839922,45.469201],[2.841241,45.470069],[2.841761,45.47053],[2.842373,45.471158],[2.841952,45.471332],[2.841638,45.471702],[2.841467,45.471756],[2.84072,45.471589],[2.839562,45.471779],[2.838987,45.471982],[2.838365,45.472482],[2.837845,45.472579],[2.837094,45.472478],[2.836617,45.472325],[2.835844,45.472543],[2.83534,45.472519],[2.834986,45.472654],[2.834685,45.472931],[2.834323,45.472937],[2.833704,45.473026],[2.832022,45.474437],[2.831423,45.475164],[2.830883,45.475625],[2.829702,45.475606],[2.829149,45.475679],[2.828522,45.4755],[2.827272,45.475758],[2.826805,45.476017],[2.826478,45.476299],[2.825572,45.476563],[2.825389,45.476688],[2.824984,45.477205],[2.824798,45.477599],[2.824595,45.477744],[2.824109,45.477635],[2.824087,45.477455],[2.823719,45.477224],[2.823019,45.477101],[2.822894,45.476685],[2.822758,45.476532],[2.822289,45.476304],[2.822167,45.475968],[2.821938,45.47584],[2.821622,45.475494],[2.821571,45.475171],[2.821407,45.475107],[2.821411,45.474804],[2.821173,45.47458],[2.820582,45.474428],[2.82006,45.474423],[2.819654,45.474329],[2.819537,45.473799],[2.819346,45.4735],[2.818864,45.473321],[2.818221,45.47282],[2.817826,45.472701],[2.817906,45.472533],[2.818083,45.472425],[2.817623,45.471908],[2.816729,45.471668],[2.816442,45.471642],[2.815788,45.471375],[2.815015,45.470802],[2.814677,45.47072],[2.813502,45.470632],[2.812913,45.470491],[2.812408,45.470237],[2.811636,45.469719],[2.81082,45.469578],[2.810278,45.469273],[2.809565,45.469292],[2.809248,45.469212],[2.808937,45.468935],[2.808423,45.468687],[2.807746,45.468587],[2.807339,45.46848],[2.805944,45.467747],[2.805241,45.467525],[2.803428,45.466877],[2.802921,45.466814],[2.80176,45.466736],[2.801089,45.46679],[2.800595,45.46664],[2.799576,45.466108],[2.798729,45.465576],[2.798031,45.465407],[2.796658,45.464846],[2.79594,45.464519],[2.795505,45.464421],[2.794823,45.464364],[2.794153,45.464233],[2.793273,45.464142],[2.792694,45.464249],[2.791428,45.464294],[2.791205,45.464255],[2.790938,45.464082],[2.790322,45.463848],[2.789856,45.463615],[2.789218,45.463459],[2.788826,45.463253],[2.788794,45.463039],[2.788547,45.462822],[2.788287,45.462764],[2.787978,45.46286],[2.786557,45.462724],[2.785953,45.463436],[2.785147,45.464437],[2.784808,45.464288],[2.784626,45.464461],[2.784594,45.464646],[2.784664,45.464791],[2.784565,45.464939],[2.784616,45.465211],[2.784278,45.46529],[2.784141,45.465128],[2.783816,45.465062],[2.783683,45.465098],[2.7829,45.464972],[2.782841,45.465203],[2.782559,45.465457],[2.782542,45.465686],[2.78246,45.465884],[2.781504,45.465667],[2.781128,45.465469],[2.780484,45.465324],[2.780018,45.465092],[2.778972,45.465026],[2.778376,45.464847],[2.778028,45.464698],[2.777577,45.464638],[2.776922,45.464683],[2.776263,45.464622],[2.775811,45.464641],[2.775231,45.464734],[2.773751,45.465207],[2.773185,45.46548],[2.773015,45.46562],[2.772587,45.465625],[2.772018,45.465503],[2.771133,45.465245],[2.770597,45.465269],[2.770446,45.46474],[2.770294,45.464652],[2.770072,45.464698],[2.770016,45.464814],[2.769515,45.46475],[2.768984,45.464495],[2.768741,45.464473],[2.768499,45.464265],[2.768173,45.464314],[2.767713,45.464255],[2.767202,45.464283],[2.765904,45.464096],[2.765411,45.46413],[2.764112,45.464583],[2.763938,45.464504],[2.763318,45.464459],[2.762572,45.46457],[2.762331,45.464536],[2.761376,45.464118],[2.760925,45.464012],[2.760142,45.463684],[2.759702,45.463581],[2.758962,45.463264],[2.758643,45.463222],[2.758169,45.463319],[2.757898,45.463294],[2.756511,45.46286],[2.755255,45.462693],[2.754279,45.462276],[2.753981,45.462214],[2.752686,45.462219],[2.750803,45.462517],[2.750543,45.462639],[2.75032,45.46286],[2.750047,45.463432],[2.750197,45.463711],[2.750218,45.464016],[2.750411,45.464505],[2.750636,45.464561],[2.752074,45.464577],[2.753114,45.464788],[2.753222,45.464958],[2.753211,45.465594],[2.753683,45.466337],[2.753608,45.46653],[2.753211,45.466995],[2.7532,45.467201],[2.752795,45.467368],[2.752368,45.467445],[2.752513,45.467858],[2.752084,45.468107],[2.751907,45.468359],[2.751971,45.468708],[2.751749,45.469105],[2.751757,45.469543],[2.751918,45.469738],[2.752361,45.47023],[2.752605,45.470623],[2.752841,45.470714],[2.754311,45.470917],[2.754859,45.471107],[2.755528,45.471615],[2.756086,45.472305],[2.756708,45.472862],[2.757867,45.473598],[2.758972,45.473713],[2.760018,45.473973],[2.760327,45.474031],[2.761386,45.474857],[2.761579,45.47495],[2.761327,45.47511],[2.761448,45.47523],[2.761708,45.475396],[2.762047,45.475858],[2.762508,45.476173],[2.76283,45.47645],[2.76323,45.47665],[2.76371,45.476791],[2.764327,45.476917],[2.764847,45.477169],[2.765099,45.477497],[2.76556,45.477749],[2.766464,45.47792],[2.76754,45.478062],[2.767655,45.478325],[2.767841,45.478475],[2.767925,45.478828],[2.76859,45.478947],[2.768628,45.479504],[2.768429,45.479806],[2.768502,45.480032],[2.769299,45.481033],[2.769776,45.481281],[2.771445,45.481503],[2.771908,45.48164],[2.773493,45.482404],[2.773925,45.482524],[2.774411,45.482605],[2.774685,45.482804],[2.775141,45.483288],[2.775752,45.483192],[2.775677,45.483682],[2.775065,45.484535],[2.77513,45.484749],[2.776546,45.485138],[2.777115,45.485447],[2.777602,45.485871],[2.777589,45.486032],[2.77719,45.486245],[2.777109,45.486455],[2.777238,45.486695],[2.777128,45.486845],[2.777179,45.487029],[2.777994,45.487984],[2.778499,45.488667],[2.778568,45.488907],[2.778509,45.489155],[2.77881,45.48933],[2.778998,45.489877],[2.778939,45.490468],[2.779127,45.4909],[2.779787,45.49128],[2.779851,45.491432],[2.781524,45.491863],[2.78161,45.492036],[2.781535,45.492216],[2.780999,45.492622],[2.780735,45.493032],[2.780379,45.49321],[2.779883,45.493336],[2.779346,45.493317],[2.778584,45.493179],[2.778434,45.493251],[2.778477,45.493496],[2.778692,45.493687],[2.77889,45.493798],[2.779105,45.494108],[2.7791,45.49437],[2.77895,45.494766],[2.778466,45.495421],[2.778268,45.495771],[2.777763,45.496437],[2.778599,45.496734],[2.779333,45.497105],[2.779898,45.497275],[2.780147,45.497396],[2.780499,45.49762],[2.780986,45.497712],[2.781315,45.497702],[2.781746,45.497561],[2.781923,45.497544],[2.781885,45.497762],[2.781936,45.497898],[2.781902,45.498031],[2.781939,45.49815],[2.782382,45.498525],[2.782673,45.498675],[2.783022,45.499009],[2.78309,45.49915],[2.783339,45.499407],[2.783667,45.499533],[2.784037,45.499577],[2.784487,45.499904],[2.784568,45.500029],[2.784906,45.500297],[2.785641,45.500659],[2.786426,45.500782],[2.786798,45.500905],[2.786979,45.501128],[2.787182,45.501147],[2.787589,45.501294],[2.787846,45.501505],[2.788331,45.50178],[2.78881,45.501819],[2.789128,45.501934],[2.789742,45.501923],[2.789887,45.502069],[2.789963,45.50246],[2.790177,45.502722],[2.790525,45.503046],[2.790805,45.503687],[2.790576,45.503872],[2.790563,45.504015],[2.790402,45.504281],[2.790147,45.50436],[2.790354,45.504799],[2.790746,45.505154],[2.791416,45.505459],[2.791856,45.505566],[2.792103,45.505768],[2.793049,45.506107],[2.793222,45.50614],[2.793374,45.506272],[2.793671,45.506336],[2.793795,45.50646],[2.794705,45.506839],[2.794806,45.507049],[2.795251,45.507278],[2.795301,45.507641],[2.79549,45.507816],[2.795536,45.508124],[2.796694,45.509268],[2.79714,45.509584],[2.797435,45.509998],[2.798047,45.510374],[2.798589,45.510823],[2.798852,45.511257],[2.799892,45.511528],[2.800139,45.511456],[2.800729,45.511163],[2.800965,45.511242],[2.801523,45.511059],[2.801775,45.510636],[2.801405,45.510159],[2.801448,45.509964],[2.801255,45.509749],[2.801083,45.509392],[2.801211,45.509192],[2.801544,45.509018],[2.80193,45.508911],[2.802746,45.508896],[2.803164,45.508778],[2.803776,45.508809],[2.804194,45.508924],[2.804639,45.509182],[2.805334,45.509471],[2.806512,45.509842],[2.806807,45.510091],[2.806984,45.51049],[2.807467,45.510949],[2.807858,45.511532],[2.808196,45.512676],[2.808191,45.513809],[2.810567,45.514736],[2.811029,45.515018],[2.811496,45.51554],[2.812385,45.516105],[2.813373,45.516628],[2.814033,45.516541],[2.814515,45.516827],[2.815996,45.517415],[2.816457,45.517467],[2.817852,45.517434],[2.81878,45.517475],[2.819174,45.51734],[2.8193,45.517212],[2.819375,45.516876],[2.819714,45.516524],[2.819963,45.516116],[2.820454,45.515726],[2.820717,45.515656],[2.821403,45.515541],[2.82298,45.514419],[2.823753,45.514066],[2.824767,45.51492],[2.825083,45.515438],[2.82563,45.515865],[2.82651,45.516125],[2.828812,45.516667],[2.829992,45.516762],[2.829753,45.516889],[2.829069,45.51747],[2.828696,45.517998],[2.828045,45.518579],[2.827583,45.519233],[2.827524,45.519413],[2.827516,45.51959],[2.827379,45.519646],[2.826988,45.519692],[2.826628,45.519974],[2.826317,45.519991],[2.826113,45.520091],[2.825813,45.520065],[2.825083,45.520317],[2.823758,45.520439],[2.82327,45.520649],[2.822766,45.521073],[2.822755,45.521401],[2.822831,45.522038],[2.822728,45.522438],[2.822487,45.52261],[2.822401,45.522804],[2.821999,45.522894],[2.821232,45.522991],[2.820411,45.522992],[2.819187,45.523102],[2.818657,45.523819],[2.818576,45.524133],[2.818485,45.524906],[2.818667,45.525452],[2.818694,45.525935],[2.818579,45.526463],[2.818238,45.526878],[2.817638,45.527321],[2.81727,45.527303],[2.816753,45.527532],[2.816232,45.527503],[2.816098,45.527584],[2.815942,45.527822],[2.815754,45.527722],[2.814869,45.527577],[2.815052,45.527817],[2.814569,45.527725],[2.814601,45.527988],[2.814091,45.528014],[2.813904,45.528144],[2.813673,45.52849],[2.813212,45.528837],[2.812895,45.529266],[2.812461,45.52948],[2.811651,45.529987],[2.81149,45.530334],[2.811216,45.530422],[2.810669,45.530464],[2.809827,45.530254],[2.809516,45.530479],[2.809172,45.530607],[2.808716,45.530877],[2.808136,45.530914],[2.807952,45.530981],[2.807525,45.531055],[2.807434,45.531441],[2.805256,45.531567],[2.804854,45.531736],[2.804106,45.531828],[2.803818,45.531987],[2.803272,45.532093],[2.802891,45.532284],[2.802024,45.532613],[2.801705,45.532799],[2.800444,45.532981],[2.799908,45.533174],[2.799744,45.533401],[2.799775,45.533852],[2.799527,45.53409],[2.799538,45.534363],[2.799753,45.534725],[2.799656,45.535116],[2.800879,45.537624],[2.801088,45.538906],[2.801268,45.539449],[2.801345,45.539838],[2.801225,45.540569],[2.800988,45.540905],[2.800997,45.541271],[2.801855,45.542892],[2.80156,45.544163],[2.80137,45.544219],[2.80135,45.544436],[2.801507,45.544565],[2.801603,45.544948],[2.800981,45.545601],[2.800471,45.545906],[2.800418,45.546215],[2.80016,45.546214],[2.799339,45.546529],[2.79981,45.546765],[2.800254,45.546899],[2.799898,45.547114],[2.79905,45.547367],[2.799373,45.547561],[2.799754,45.547876],[2.800109,45.547973],[2.799604,45.548464],[2.799339,45.548561],[2.799133,45.548831],[2.799302,45.549187],[2.80016,45.549718],[2.800445,45.550062],[2.800418,45.550253],[2.799913,45.550478],[2.799877,45.550716],[2.800147,45.551144],[2.800074,45.551437],[2.800216,45.551751],[2.800049,45.55208],[2.800029,45.552217],[2.79986,45.552408],[2.79953,45.552484],[2.799597,45.552666],[2.799487,45.552746],[2.799516,45.552856],[2.799961,45.55322],[2.800799,45.553567],[2.801195,45.553914],[2.801576,45.554718],[2.802005,45.555274],[2.802295,45.555698],[2.802381,45.556103],[2.802338,45.556373],[2.802424,45.556591],[2.802113,45.557226],[2.801984,45.557635],[2.801673,45.558048],[2.801067,45.559261],[2.800952,45.559179],[2.80074,45.558699],[2.80063,45.558629],[2.80052,45.558628],[2.800527,45.558848],[2.800428,45.559327],[2.80079,45.560129],[2.801008,45.560837],[2.801158,45.561677],[2.801249,45.561965],[2.801211,45.56234],[2.801164,45.562672],[2.801311,45.563098],[2.80148,45.563374],[2.802011,45.563603],[2.802185,45.56375],[2.802295,45.564025],[2.802413,45.564926],[2.802713,45.565109],[2.802762,45.56532],[2.802561,45.565628],[2.802424,45.566008],[2.802341,45.566349],[2.802194,45.566623],[2.802006,45.567314],[2.80206,45.567571],[2.80251,45.567828],[2.802547,45.568062],[2.80226,45.567807],[2.801802,45.56756],[2.801442,45.567285],[2.801002,45.56705],[2.800884,45.566375],[2.799828,45.566022],[2.799136,45.56622],[2.798684,45.566267],[2.797845,45.566216],[2.797118,45.566292],[2.796912,45.566188],[2.796636,45.565284],[2.796682,45.564858],[2.796876,45.564086],[2.797033,45.563801],[2.796912,45.563789],[2.796432,45.564633],[2.796161,45.565359],[2.79603,45.566104],[2.796062,45.566817],[2.796244,45.567232],[2.796443,45.567572],[2.796386,45.567828],[2.796212,45.568001],[2.796191,45.567623],[2.795922,45.567163],[2.795708,45.566235],[2.795622,45.565243],[2.795622,45.565243],[2.796039,45.56321],[2.795417,45.562744],[2.795224,45.56342],[2.794902,45.563931],[2.794387,45.564276],[2.793615,45.564577],[2.793701,45.564952],[2.793937,45.565328],[2.793679,45.565703],[2.793937,45.566124],[2.793937,45.566124],[2.793937,45.566124],[2.793916,45.566338],[2.793766,45.566547],[2.793444,45.56671],[2.793171,45.566685],[2.79235,45.566961],[2.791977,45.567446],[2.792098,45.567863],[2.792253,45.568149],[2.791915,45.568484],[2.791695,45.568808],[2.791288,45.569369],[2.791052,45.569528],[2.791025,45.569696],[2.791081,45.569866],[2.790955,45.569916],[2.790934,45.569711],[2.790794,45.569577],[2.790788,45.569013],[2.790912,45.568348],[2.790757,45.568208],[2.790518,45.568509],[2.789615,45.569437],[2.788782,45.570583],[2.78874,45.571197],[2.788463,45.571601],[2.788068,45.572021],[2.787942,45.572334],[2.787998,45.572637],[2.787784,45.573134],[2.787516,45.573488],[2.787439,45.573948],[2.787243,45.574445],[2.786851,45.574652],[2.786063,45.574761],[2.785242,45.575024],[2.785022,45.575396],[2.784957,45.575764],[2.783359,45.576427],[2.783134,45.576608],[2.782436,45.576954],[2.782061,45.577126],[2.781433,45.577732],[2.781994,45.577491],[2.78236,45.57724],[2.78285,45.577011],[2.783362,45.576936],[2.784057,45.577018],[2.784651,45.577007],[2.784874,45.57713],[2.784979,45.577323],[2.784952,45.57762],[2.784799,45.577981],[2.784389,45.57835],[2.784185,45.578695],[2.783499,45.579132],[2.782618,45.580291],[2.782034,45.58054],[2.781597,45.580796],[2.781492,45.580939],[2.781272,45.580986],[2.780486,45.581305],[2.779786,45.5817],[2.779089,45.581964],[2.778751,45.582247],[2.778764,45.582527],[2.778906,45.582718],[2.779647,45.582939],[2.779781,45.583103],[2.780266,45.583237],[2.780391,45.583326],[2.780559,45.583371],[2.780607,45.584253],[2.780897,45.584527],[2.781696,45.584843],[2.782538,45.584945],[2.784319,45.584571],[2.784695,45.584565],[2.784611,45.584766],[2.784978,45.584778],[2.785305,45.584706],[2.785784,45.584872],[2.786049,45.585113],[2.785981,45.585363],[2.785549,45.585486],[2.78535,45.585688],[2.785389,45.586011],[2.785224,45.586221],[2.784851,45.586319],[2.783788,45.586249],[2.783793,45.586479],[2.7844,45.586621],[2.783536,45.586619],[2.782892,45.586666],[2.782058,45.586866],[2.781052,45.587299],[2.779995,45.587575],[2.779454,45.587521],[2.779158,45.587391],[2.778585,45.587353],[2.778574,45.587518],[2.778198,45.587799],[2.777458,45.588184],[2.777002,45.588921],[2.775976,45.589037],[2.775863,45.589175],[2.775846,45.589373],[2.775508,45.589393],[2.775469,45.589648],[2.775669,45.589795],[2.774872,45.589847],[2.774518,45.589756],[2.774309,45.589574],[2.774304,45.589196],[2.77416,45.58908],[2.773947,45.589082],[2.773349,45.58931],[2.773091,45.589127],[2.772378,45.589047],[2.771624,45.589154],[2.770688,45.58946],[2.770178,45.589428],[2.769747,45.589277],[2.769492,45.58925],[2.769189,45.589435],[2.768918,45.589831],[2.768574,45.589967],[2.767684,45.590087],[2.766783,45.590079],[2.766783,45.590079],[2.766715,45.590262],[2.766543,45.590401],[2.766324,45.590472]]],"type":"MultiLineString"},"properties":{"geo_point":{"lon":2.865130405711272,"lat":45.53238203906796},"name":"GR30 Tour des volcans et lacs d'Auvergne (Puy-de-Dôme) (2019)","code_gr":"GR30"}}]}