{"type":"FeatureCollection","features":[{"type":"Feature","geometry":{"coordinates":[[[2.659972,46.28606],[2.659415,46.286994],[2.658191,46.288492],[2.657848,46.289233],[2.656861,46.289604],[2.656861,46.289604],[2.654436,46.289767],[2.653428,46.290241],[2.65284,46.290442],[2.65284,46.290442],[2.653333,46.291643],[2.653269,46.292429],[2.65166,46.296595],[2.651831,46.298626],[2.651509,46.29956],[2.650587,46.300271],[2.649128,46.300939],[2.648119,46.301413],[2.647368,46.302065],[2.645544,46.304719],[2.644664,46.305578],[2.638721,46.308899],[2.637583,46.309892],[2.634794,46.313968],[2.633142,46.315598],[2.631704,46.316487],[2.632176,46.316606],[2.632906,46.316354],[2.633077,46.316428],[2.633335,46.316354],[2.634429,46.317021],[2.639472,46.318903],[2.638549,46.319599],[2.638077,46.320177],[2.637583,46.320444],[2.637347,46.32077],[2.636274,46.321215],[2.635759,46.322741],[2.635202,46.323289],[2.635373,46.323512],[2.635781,46.323704],[2.635802,46.324075],[2.635223,46.324623],[2.634858,46.324727],[2.634451,46.32523],[2.634043,46.325156],[2.633678,46.325008],[2.632283,46.324742],[2.631618,46.324905],[2.631318,46.325319],[2.630695,46.325971],[2.629708,46.326831],[2.62958,46.327527],[2.629708,46.328194],[2.63018,46.329409],[2.630073,46.330165],[2.62576,46.339469],[2.625417,46.339824],[2.624623,46.340254],[2.623099,46.340565],[2.623357,46.340861],[2.623872,46.341128],[2.624709,46.342002],[2.627048,46.341483],[2.627777,46.341276],[2.628099,46.341276],[2.628614,46.341676],[2.629387,46.34172],[2.630695,46.341202],[2.631103,46.341143],[2.631361,46.341009],[2.631983,46.341024],[2.632047,46.341187],[2.632519,46.341039],[2.632519,46.340713],[2.632798,46.340313],[2.633485,46.339809],[2.633721,46.339321],[2.63488,46.339321],[2.635287,46.339483],[2.635523,46.339528],[2.635717,46.340476],[2.636274,46.341217],[2.636575,46.341306],[2.636983,46.341128],[2.638227,46.340343],[2.640695,46.339913],[2.645158,46.339869],[2.64548,46.341039],[2.645887,46.341276],[2.645952,46.34172],[2.646209,46.341765],[2.646703,46.341587],[2.646596,46.342683],[2.646059,46.342979],[2.645845,46.342965],[2.645351,46.342713],[2.645072,46.342668],[2.644042,46.342594],[2.643098,46.342802],[2.641961,46.342654],[2.640137,46.34295],[2.638892,46.343379],[2.638356,46.343868],[2.63827,46.344638],[2.637433,46.345661],[2.636317,46.34652],[2.636124,46.34686],[2.636317,46.347201],[2.636167,46.347779],[2.635566,46.347942],[2.634729,46.347956],[2.634343,46.348149],[2.633764,46.348045],[2.633249,46.347897],[2.633013,46.347868],[2.632562,46.348045],[2.632176,46.347986],[2.631425,46.348105],[2.630781,46.347882],[2.629215,46.349837],[2.628614,46.350356],[2.627563,46.350993],[2.627563,46.352222],[2.627885,46.352533],[2.628013,46.353807],[2.627305,46.354029],[2.62752,46.354325],[2.628657,46.354814],[2.629365,46.354932],[2.629966,46.355391],[2.630567,46.35628],[2.63106,46.356798],[2.631747,46.35708],[2.632627,46.356961],[2.634923,46.357154],[2.636017,46.35708],[2.637519,46.356369],[2.638291,46.356236],[2.639279,46.356384],[2.639987,46.356739],[2.640523,46.35668],[2.641553,46.356946],[2.642111,46.357465],[2.644536,46.35748],[2.644922,46.357628],[2.645887,46.357554],[2.646982,46.358176],[2.648012,46.358309],[2.649578,46.359049],[2.649643,46.35976],[2.649771,46.360441],[2.650308,46.361152],[2.651188,46.361641],[2.65314,46.360886],[2.65402,46.361019],[2.656466,46.364395],[2.658912,46.365506],[2.665049,46.366379],[2.664835,46.367223],[2.666251,46.368941],[2.667195,46.370688],[2.667839,46.372287],[2.667581,46.373782],[2.668354,46.373841],[2.671079,46.37393],[2.67228,46.374581],[2.673482,46.375085],[2.676164,46.375899],[2.679383,46.376935],[2.679984,46.377291],[2.680241,46.377779],[2.681529,46.378682],[2.682687,46.379274],[2.683868,46.379526],[2.684662,46.379792],[2.685176,46.380296],[2.685455,46.380399],[2.685069,46.380873],[2.687687,46.382161],[2.685413,46.385758],[2.683674,46.387637],[2.683438,46.387697],[2.682258,46.387637],[2.681486,46.387726],[2.679941,46.388392],[2.679297,46.389118],[2.678675,46.389769],[2.67801,46.390213],[2.676529,46.390716],[2.675521,46.390731],[2.674984,46.391175],[2.673825,46.39187],[2.671894,46.393676],[2.670671,46.396473],[2.670027,46.397154],[2.669706,46.397139],[2.669598,46.397272],[2.670435,46.398056],[2.670564,46.398456],[2.670371,46.398619],[2.667431,46.403043],[2.665629,46.405055],[2.664985,46.406565],[2.664298,46.407423],[2.663955,46.408118],[2.65814,46.407941],[2.6549,46.408651],[2.652089,46.409139],[2.65181,46.409465],[2.650951,46.410175],[2.650372,46.410456],[2.649879,46.410855],[2.648849,46.411343],[2.648055,46.412246],[2.647561,46.413237],[2.64666,46.413888],[2.645845,46.414214],[2.645094,46.414539],[2.644621,46.414539],[2.643828,46.414938],[2.642283,46.415959],[2.64136,46.416329],[2.639858,46.416906],[2.637025,46.417631],[2.633571,46.419258],[2.632841,46.41948],[2.63209,46.419539],[2.629837,46.419391],[2.630052,46.420663],[2.629923,46.421462],[2.630073,46.422542],[2.630567,46.423696],[2.630974,46.423917],[2.630588,46.424494],[2.63121,46.4255],[2.62988,46.428606],[2.628485,46.428266],[2.626211,46.427881],[2.624537,46.427985],[2.624172,46.42794],[2.623335,46.428088],[2.622091,46.427748],[2.620567,46.427201],[2.619988,46.427245],[2.619387,46.427334],[2.62031,46.428355],[2.621383,46.430425],[2.621147,46.432614],[2.620803,46.433205],[2.620653,46.433605],[2.620482,46.434448],[2.619838,46.435601],[2.619087,46.437257],[2.618958,46.439076],[2.616769,46.442019],[2.616448,46.443971],[2.616297,46.445286],[2.616727,46.446514],[2.617392,46.447534],[2.617413,46.448081],[2.617778,46.448953],[2.618357,46.449559],[2.619301,46.449737],[2.62061,46.449707],[2.620954,46.45018],[2.622778,46.449929],[2.624601,46.449234],[2.625202,46.449796],[2.625825,46.449426],[2.62797,46.449559],[2.629451,46.450106],[2.627477,46.451126],[2.625524,46.451969],[2.624773,46.452457],[2.623614,46.453477],[2.620482,46.455133],[2.619366,46.456049],[2.618507,46.457291],[2.618507,46.457557],[2.619452,46.458503],[2.619473,46.458784],[2.617263,46.460676],[2.61619,46.461297],[2.615418,46.461563],[2.614752,46.461504],[2.613615,46.461577],[2.612757,46.461518],[2.612199,46.461592],[2.612414,46.461962],[2.611663,46.462124],[2.610933,46.462583],[2.61059,46.464282],[2.611019,46.464726],[2.608444,46.465938],[2.606277,46.466056],[2.605955,46.465819],[2.605096,46.462671],[2.604796,46.462538],[2.603122,46.462878],[2.60338,46.463602],[2.604818,46.466972],[2.605075,46.467785],[2.604839,46.468834],[2.604303,46.46981],[2.602543,46.471509],[2.601213,46.472869],[2.599775,46.47544],[2.599024,46.477908],[2.598852,46.479607],[2.599067,46.481883],[2.599818,46.483892],[2.601084,46.485783],[2.601427,46.485695],[2.60235,46.487009],[2.603079,46.487837],[2.606556,46.490466],[2.607414,46.491441],[2.60883,46.494913],[2.608959,46.495755],[2.608551,46.497424],[2.608165,46.497409],[2.6078,46.499034],[2.607972,46.499935],[2.61074,46.508191],[2.611019,46.508487],[2.611019,46.508826],[2.613401,46.515723],[2.61383,46.515634],[2.616276,46.522515],[2.616297,46.523563],[2.615782,46.524847],[2.613336,46.527652],[2.612843,46.528774],[2.612843,46.529852],[2.613229,46.531284],[2.61368,46.531771],[2.614044,46.532007],[2.614066,46.532362],[2.613744,46.534384],[2.613358,46.535299],[2.612971,46.535639],[2.61295,46.535786],[2.615654,46.534797],[2.615997,46.535181],[2.61634,46.53527],[2.620052,46.534679],[2.622584,46.534428],[2.622906,46.535388],[2.622499,46.536199],[2.622048,46.536775],[2.621748,46.537764],[2.624108,46.53986],[2.62591,46.542384],[2.627176,46.542605],[2.631876,46.543933],[2.631189,46.545586],[2.631382,46.548612],[2.631661,46.549453],[2.632434,46.550722],[2.63312,46.551519],[2.634386,46.55267],[2.633463,46.555857],[2.632863,46.556669],[2.631919,46.557613],[2.631382,46.558454],[2.630781,46.560741],[2.630996,46.561154],[2.630996,46.561847],[2.632584,46.564237],[2.632348,46.565418],[2.632584,46.565772],[2.633399,46.566259],[2.633571,46.566509],[2.633936,46.566686],[2.634365,46.566922],[2.633549,46.567085],[2.631575,46.567276],[2.630695,46.567985],[2.629751,46.568722],[2.628764,46.569209],[2.626769,46.569342],[2.626275,46.569976],[2.626297,46.570345],[2.627176,46.570964],[2.62797,46.570935],[2.628636,46.57154],[2.62973,46.571849],[2.630245,46.571879],[2.631125,46.572513],[2.63179,46.572749],[2.632283,46.572631],[2.633635,46.571997],[2.633828,46.571687],[2.634515,46.571702],[2.634837,46.572144],[2.635223,46.57241],[2.636296,46.572794],[2.636875,46.573118],[2.637583,46.573944],[2.638957,46.574652],[2.641317,46.576702],[2.641896,46.577941],[2.63945,46.579018],[2.638184,46.579401],[2.636725,46.580449],[2.636317,46.581422],[2.635352,46.582587],[2.63297,46.584077],[2.632026,46.58561],[2.631446,46.586761],[2.631146,46.58682],[2.630653,46.587159],[2.63091,46.587424],[2.630931,46.588073],[2.631382,46.58825],[2.632326,46.588339],[2.632627,46.588648],[2.634,46.589592],[2.634772,46.590285],[2.635588,46.591509],[2.636897,46.592394],[2.637819,46.593706],[2.637841,46.593986],[2.638506,46.595136],[2.638957,46.59636],[2.638828,46.596832],[2.639708,46.598115],[2.640201,46.598203],[2.641038,46.59807],[2.642004,46.598203],[2.643355,46.597746],[2.643549,46.598645],[2.642326,46.598808],[2.640802,46.599279],[2.639257,46.599191],[2.639472,46.599766],[2.637433,46.602125],[2.635888,46.601859],[2.635159,46.601771],[2.633871,46.601432],[2.632476,46.60124],[2.631404,46.60127],[2.630223,46.600931],[2.629902,46.600695],[2.62885,46.600267],[2.628314,46.600297],[2.625739,46.599618],[2.622499,46.599559],[2.62134,46.599383],[2.619559,46.598704],[2.617456,46.597702],[2.617199,46.59838],[2.617456,46.599073],[2.618014,46.599692],[2.618121,46.600016],[2.618465,46.600459],[2.619344,46.601225],[2.620203,46.60295],[2.619409,46.603171],[2.618915,46.60323],[2.619173,46.603761],[2.619344,46.604498],[2.619323,46.605073],[2.620439,46.605825],[2.620889,46.606208],[2.621125,46.606326],[2.621791,46.6064],[2.62222,46.606577],[2.622584,46.606857],[2.625202,46.608287],[2.625932,46.609201],[2.626876,46.609451],[2.627584,46.610188],[2.627885,46.610144],[2.628893,46.610115],[2.629665,46.610262],[2.630009,46.610129],[2.630438,46.610115],[2.631125,46.610292],[2.632047,46.61066],[2.632627,46.610704],[2.633463,46.610631],[2.634215,46.610336],[2.635802,46.61122],[2.637433,46.612901],[2.63754,46.613593],[2.637304,46.613903],[2.637283,46.614198],[2.637605,46.614758],[2.637734,46.615156],[2.637176,46.615583],[2.63709,46.615804],[2.636897,46.615981],[2.637068,46.616276],[2.63739,46.616379],[2.63724,46.617632],[2.637025,46.618118],[2.636403,46.618457],[2.636189,46.619003],[2.636317,46.619798],[2.6343,46.619975],[2.638249,46.622348],[2.647626,46.625723],[2.637776,46.631691],[2.638377,46.633621],[2.639836,46.635168],[2.640866,46.636111],[2.641446,46.637393],[2.641424,46.638615],[2.646102,46.637967],[2.655973,46.638719],[2.655436,46.640737],[2.680155,46.647292],[2.68125,46.647528],[2.683353,46.651431],[2.68258,46.651873],[2.681378,46.652227],[2.680928,46.652993],[2.680391,46.653376],[2.680048,46.653847],[2.68022,46.654274],[2.681164,46.654466],[2.681743,46.654819],[2.682752,46.655217],[2.683503,46.655246],[2.684275,46.655114],[2.685563,46.655084],[2.686507,46.655217],[2.687773,46.655305],[2.688781,46.655511],[2.689339,46.655555],[2.689919,46.65532],[2.690176,46.655276],[2.690605,46.655408],[2.691571,46.656969],[2.692107,46.657617],[2.692472,46.658884],[2.692429,46.659458],[2.693888,46.659694],[2.694339,46.659841],[2.693459,46.660843],[2.69539,46.660931],[2.696098,46.661167],[2.696592,46.661343],[2.6976,46.660857],[2.698523,46.660651],[2.700175,46.660548],[2.700819,46.660636],[2.701785,46.660047],[2.702278,46.659296],[2.702707,46.658943],[2.703201,46.657927],[2.704059,46.656498],[2.704445,46.656203],[2.705111,46.656056],[2.706462,46.656115],[2.707471,46.655983],[2.707814,46.655821],[2.708222,46.654863],[2.708286,46.654304],[2.708029,46.65339],[2.708115,46.652934],[2.708394,46.652389],[2.718093,46.651741],[2.721376,46.645201],[2.720839,46.644243],[2.720946,46.643934],[2.720582,46.643492],[2.72041,46.642947],[2.721333,46.641341],[2.721676,46.641105],[2.722127,46.640501],[2.722367,46.640272],[2.722367,46.640272],[2.722324,46.639933],[2.722796,46.63983],[2.723568,46.639668],[2.724319,46.639712],[2.724577,46.639623],[2.724598,46.639432],[2.723482,46.639063],[2.723118,46.639049],[2.722452,46.638901],[2.722388,46.638563],[2.722045,46.638297],[2.721444,46.638297],[2.720886,46.638165],[2.720285,46.63762],[2.720049,46.63703],[2.720071,46.636765],[2.719663,46.635793],[2.719878,46.635439],[2.720586,46.635041],[2.72183,46.634644],[2.722581,46.63429],[2.723182,46.633642],[2.72389,46.633347],[2.725049,46.633362],[2.726122,46.633759],[2.726637,46.633922],[2.727516,46.634437],[2.727946,46.634629],[2.72874,46.634658],[2.729812,46.634776],[2.730091,46.634511],[2.730585,46.634305],[2.731422,46.634054],[2.731486,46.633818],[2.735048,46.637089],[2.739747,46.643144],[2.744983,46.641774],[2.755926,46.64148],[2.765647,46.64366],[2.768522,46.637959],[2.780002,46.639992],[2.781182,46.634201],[2.781204,46.633656],[2.780839,46.631726],[2.780882,46.629737],[2.781225,46.627807],[2.780109,46.626613],[2.77983,46.626215],[2.779272,46.625861],[2.778929,46.625773],[2.777856,46.624771],[2.777384,46.624093],[2.776419,46.62368],[2.776869,46.623563],[2.778457,46.623459],[2.779551,46.623415],[2.780345,46.623238],[2.781182,46.623003],[2.783585,46.622457],[2.785195,46.622722],[2.787641,46.62259],[2.789186,46.622384],[2.790409,46.62172],[2.791289,46.62091],[2.793499,46.619849],[2.79558,46.618419],[2.795924,46.618095],[2.796632,46.617653],[2.79837,46.617328],[2.800601,46.616385],[2.802339,46.616474],[2.804378,46.616444],[2.805901,46.616194],[2.80706,46.616238],[2.809914,46.617004],[2.810708,46.616931],[2.81206,46.617152],[2.814034,46.617446],[2.815729,46.61755],[2.816587,46.6178],[2.818368,46.617962],[2.819591,46.617889],[2.820257,46.617859],[2.820729,46.618198],[2.82105,46.618729],[2.820514,46.619775],[2.81987,46.620482],[2.820536,46.622177],[2.820257,46.623459],[2.820407,46.624078],[2.819634,46.624874],[2.818905,46.626701],[2.81884,46.627423],[2.818626,46.628145],[2.818669,46.628676],[2.818454,46.629147],[2.817961,46.629737],[2.817875,46.630429],[2.818154,46.631019],[2.818411,46.632021],[2.81854,46.633126],[2.818755,46.633671],[2.818518,46.634658],[2.818626,46.635395],[2.819742,46.635896],[2.819892,46.636191],[2.820471,46.636205],[2.821458,46.636353],[2.822917,46.636603],[2.824763,46.637178],[2.825063,46.637163],[2.825492,46.637605],[2.825621,46.638017],[2.826522,46.638238],[2.826801,46.63843],[2.827037,46.638474],[2.827037,46.638828],[2.828089,46.639447],[2.82826,46.639726],[2.828582,46.639933],[2.829011,46.640316],[2.829161,46.640787],[2.829505,46.641259],[2.830427,46.641656],[2.830857,46.642157],[2.830771,46.642584],[2.8309,46.642982],[2.830792,46.643395],[2.830942,46.643837],[2.8309,46.644205],[2.831071,46.645045],[2.830191,46.645575],[2.832144,46.648742],[2.835449,46.648727],[2.836843,46.649361],[2.837272,46.649714],[2.837637,46.649699],[2.837809,46.649552],[2.837358,46.649022],[2.83738,46.648698],[2.837852,46.648477],[2.83856,46.648683],[2.850169,46.648595],[2.85107,46.648875],[2.851435,46.648875],[2.851992,46.648462],[2.862614,46.645266],[2.868944,46.648123],[2.870596,46.646886],[2.87094,46.646429],[2.870982,46.645958],[2.871433,46.645663],[2.873729,46.645487],[2.87536,46.64503],[2.875081,46.64447],[2.875124,46.644117],[2.874974,46.643822],[2.875424,46.643748],[2.8786,46.642805],[2.878621,46.643233],[2.878772,46.643807],[2.879351,46.643571],[2.879823,46.643409],[2.880531,46.643365],[2.882398,46.642923],[2.88375,46.642791],[2.883943,46.643203],[2.882934,46.644308],[2.88302,46.64475],[2.883385,46.644986],[2.884394,46.645162],[2.88463,46.645369],[2.885896,46.649847],[2.886475,46.651069],[2.889071,46.651305],[2.889543,46.651644],[2.891711,46.652012],[2.89199,46.650524],[2.892118,46.648285],[2.893878,46.647019],[2.895037,46.648035],[2.895938,46.648388],[2.89729,46.648816],[2.89774,46.649081],[2.897333,46.649331],[2.897139,46.649758],[2.897011,46.650465],[2.896753,46.650686],[2.89671,46.650878],[2.897697,46.651364],[2.899392,46.651644],[2.900337,46.651879],[2.900401,46.652056],[2.899929,46.653308],[2.899907,46.653558],[2.900229,46.653647],[2.900058,46.654663],[2.89965,46.656092],[2.901967,46.656622],[2.903963,46.656622],[2.904392,46.655989],[2.90495,46.656828],[2.905143,46.658124],[2.905186,46.659081],[2.905057,46.659921],[2.905293,46.661202],[2.905379,46.661629],[2.905207,46.662351],[2.905122,46.662763],[2.905422,46.663043],[2.905637,46.663514],[2.90495,46.66484],[2.904843,46.66537],[2.905165,46.667063],[2.904886,46.668138],[2.905465,46.668506],[2.905851,46.66908],[2.905787,46.669817],[2.90598,46.669905],[2.906023,46.670641],[2.906495,46.671525],[2.906495,46.671525],[2.910143,46.673556],[2.910679,46.673748],[2.911473,46.673998],[2.912567,46.674322],[2.91492,46.675986],[2.91492,46.675986],[2.916492,46.676704],[2.91757,46.676995],[2.918106,46.677334],[2.917956,46.67751],[2.917516,46.678239],[2.917505,46.678629],[2.917688,46.679352],[2.920703,46.681327],[2.922741,46.682832],[2.925348,46.683767],[2.926882,46.683104],[2.927623,46.681205],[2.928293,46.681205],[2.929833,46.680778],[2.930817,46.680727],[2.933251,46.68023],[2.933969,46.680042],[2.937579,46.679741],[2.938046,46.679604],[2.940122,46.678445],[2.942804,46.679984],[2.944649,46.680882],[2.948126,46.682354],[2.94731,46.683038],[2.946784,46.683347],[2.947181,46.683539],[2.949048,46.683673],[2.949928,46.683807],[2.956558,46.683568],[2.964272,46.685393],[2.966724,46.685309],[2.967209,46.685001],[2.967824,46.684753],[2.971858,46.685666],[2.972094,46.685191],[2.972823,46.68398],[2.974148,46.682597],[2.974658,46.682405],[2.975766,46.683327],[2.976706,46.683972],[2.977101,46.68442],[2.977539,46.685132],[2.97789,46.685355],[2.978456,46.686063],[2.978762,46.686851],[2.979282,46.687248],[2.979658,46.687907],[2.979631,46.688214],[2.979615,46.688786],[2.979781,46.689036],[2.980755,46.690126],[2.981355,46.690451],[2.981697,46.690762],[2.981675,46.691178],[2.981567,46.691351],[2.979979,46.692113],[2.979234,46.692643],[2.978209,46.692827],[2.978789,46.694681],[2.978177,46.696189],[2.978284,46.697279],[2.978746,46.698201],[2.978569,46.698507],[2.978469,46.698948],[2.978295,46.699616],[2.978263,46.699918],[2.978434,46.701213],[2.976396,46.702287],[2.976739,46.702567],[2.977523,46.702854],[2.977936,46.703107],[2.978284,46.703244],[2.978992,46.703906],[2.980516,46.705157],[2.98219,46.705775],[2.982211,46.706334],[2.982576,46.70679],[2.983498,46.707275],[2.986331,46.708526],[2.988241,46.709041],[2.989399,46.709541],[2.989936,46.710115],[2.990665,46.710439],[2.990429,46.710763],[2.990955,46.711817],[2.99117,46.713082],[2.992661,46.713707],[2.993487,46.713744],[2.993905,46.713457],[2.994002,46.713126],[2.994882,46.712258],[2.996344,46.712188],[2.997934,46.711795],[2.999785,46.711567],[3.001898,46.711817],[3.003111,46.711309],[3.004688,46.711008],[3.005954,46.710772],[3.010181,46.711478],[3.010819,46.71113],[3.011093,46.710178],[3.011254,46.710011],[3.01119,46.709499],[3.011404,46.709301],[3.012563,46.709404],[3.01252,46.708308],[3.012606,46.707598],[3.012477,46.706799],[3.012874,46.706796],[3.013394,46.706205],[3.013958,46.70535],[3.015267,46.704651],[3.016664,46.702558],[3.018061,46.701274],[3.01841,46.70109],[3.018078,46.700546],[3.021425,46.699103],[3.019751,46.698176],[3.02102,46.696366],[3.021666,46.694365],[3.021733,46.692804],[3.022101,46.690832],[3.023029,46.69017],[3.023227,46.689331],[3.023855,46.689555],[3.025083,46.690339],[3.025373,46.690965],[3.028066,46.691123],[3.028978,46.691266],[3.030373,46.691259],[3.029847,46.688492],[3.030692,46.687222],[3.029992,46.686659],[3.030094,46.684532],[3.030646,46.683207],[3.030705,46.682324],[3.031124,46.680999],[3.031033,46.680797],[3.031899,46.678517],[3.031989,46.678378],[3.032679,46.676708],[3.033398,46.67539],[3.033817,46.67436],[3.033999,46.672284],[3.040544,46.669228],[3.041531,46.668853],[3.041745,46.670428],[3.043172,46.671097],[3.043998,46.671617],[3.044792,46.672659],[3.048869,46.674801],[3.049009,46.675118],[3.049019,46.675626],[3.049298,46.676259],[3.04999,46.676299],[3.051755,46.676929],[3.051755,46.676929],[3.052347,46.676903]]],"type":"MultiLineString"},"properties":{"geo_point":{"lon":2.7408118801720334,"lat":46.555917660801114},"name":"GR303 De Néris-les-Bains à Limoise (Allier) (2020)","code_gr":"GR303"}},{"type":"Feature","geometry":{"coordinates":[[[2.659972,46.28606],[2.659415,46.286994],[2.658191,46.288492],[2.657848,46.289233],[2.656861,46.289604],[2.656861,46.289604],[2.654436,46.289767],[2.653428,46.290241],[2.65284,46.290442],[2.65284,46.290442],[2.653333,46.291643],[2.653269,46.292429],[2.65166,46.296595],[2.651831,46.298626],[2.651509,46.29956],[2.650587,46.300271],[2.649128,46.300939],[2.648119,46.301413],[2.647368,46.302065],[2.645544,46.304719],[2.644664,46.305578],[2.638721,46.308899],[2.637583,46.309892],[2.634794,46.313968],[2.633142,46.315598],[2.631704,46.316487],[2.632176,46.316606],[2.632906,46.316354],[2.633077,46.316428],[2.633335,46.316354],[2.634429,46.317021],[2.639472,46.318903],[2.638549,46.319599],[2.638077,46.320177],[2.637583,46.320444],[2.637347,46.32077],[2.636274,46.321215],[2.635759,46.322741],[2.635202,46.323289],[2.635373,46.323512],[2.635781,46.323704],[2.635802,46.324075],[2.635223,46.324623],[2.634858,46.324727],[2.634451,46.32523],[2.634043,46.325156],[2.633678,46.325008],[2.632283,46.324742],[2.631618,46.324905],[2.631318,46.325319],[2.630695,46.325971],[2.629708,46.326831],[2.62958,46.327527],[2.629708,46.328194],[2.63018,46.329409],[2.630073,46.330165],[2.62576,46.339469],[2.625417,46.339824],[2.624623,46.340254],[2.623099,46.340565],[2.623357,46.340861],[2.623872,46.341128],[2.624709,46.342002],[2.627048,46.341483],[2.627777,46.341276],[2.628099,46.341276],[2.628614,46.341676],[2.629387,46.34172],[2.630695,46.341202],[2.631103,46.341143],[2.631361,46.341009],[2.631983,46.341024],[2.632047,46.341187],[2.632519,46.341039],[2.632519,46.340713],[2.632798,46.340313],[2.633485,46.339809],[2.633721,46.339321],[2.63488,46.339321],[2.635287,46.339483],[2.635523,46.339528],[2.635717,46.340476],[2.636274,46.341217],[2.636575,46.341306],[2.636983,46.341128],[2.638227,46.340343],[2.640695,46.339913],[2.645158,46.339869],[2.64548,46.341039],[2.645887,46.341276],[2.645952,46.34172],[2.646209,46.341765],[2.646703,46.341587],[2.646596,46.342683],[2.646059,46.342979],[2.645845,46.342965],[2.645351,46.342713],[2.645072,46.342668],[2.644042,46.342594],[2.643098,46.342802],[2.641961,46.342654],[2.640137,46.34295],[2.638892,46.343379],[2.638356,46.343868],[2.63827,46.344638],[2.637433,46.345661],[2.636317,46.34652],[2.636124,46.34686],[2.636317,46.347201],[2.636167,46.347779],[2.635566,46.347942],[2.634729,46.347956],[2.634343,46.348149],[2.633764,46.348045],[2.633249,46.347897],[2.633013,46.347868],[2.632562,46.348045],[2.632176,46.347986],[2.631425,46.348105],[2.630781,46.347882],[2.629215,46.349837],[2.628614,46.350356],[2.627563,46.350993],[2.627563,46.352222],[2.627885,46.352533],[2.628013,46.353807],[2.627305,46.354029],[2.62752,46.354325],[2.628657,46.354814],[2.629365,46.354932],[2.629966,46.355391],[2.630567,46.35628],[2.63106,46.356798],[2.631747,46.35708],[2.632627,46.356961],[2.634923,46.357154],[2.636017,46.35708],[2.637519,46.356369],[2.638291,46.356236],[2.639279,46.356384],[2.639987,46.356739],[2.640523,46.35668],[2.641553,46.356946],[2.642111,46.357465],[2.644536,46.35748],[2.644922,46.357628],[2.645887,46.357554],[2.646982,46.358176],[2.648012,46.358309],[2.649578,46.359049],[2.649643,46.35976],[2.649771,46.360441],[2.650308,46.361152],[2.651188,46.361641],[2.65314,46.360886],[2.65402,46.361019],[2.656466,46.364395],[2.658912,46.365506],[2.665049,46.366379],[2.664835,46.367223],[2.666251,46.368941],[2.667195,46.370688],[2.667839,46.372287],[2.667581,46.373782],[2.668354,46.373841],[2.671079,46.37393],[2.67228,46.374581],[2.673482,46.375085],[2.676164,46.375899],[2.679383,46.376935],[2.679984,46.377291],[2.680241,46.377779],[2.681529,46.378682],[2.682687,46.379274],[2.683868,46.379526],[2.684662,46.379792],[2.685176,46.380296],[2.685455,46.380399],[2.685069,46.380873],[2.687687,46.382161],[2.685413,46.385758],[2.683674,46.387637],[2.683438,46.387697],[2.682258,46.387637],[2.681486,46.387726],[2.679941,46.388392],[2.679297,46.389118],[2.678675,46.389769],[2.67801,46.390213],[2.676529,46.390716],[2.675521,46.390731],[2.674984,46.391175],[2.673825,46.39187],[2.671894,46.393676],[2.670671,46.396473],[2.670027,46.397154],[2.669706,46.397139],[2.669598,46.397272],[2.670435,46.398056],[2.670564,46.398456],[2.670371,46.398619],[2.667431,46.403043],[2.665629,46.405055],[2.664985,46.406565],[2.664298,46.407423],[2.663955,46.408118],[2.65814,46.407941],[2.6549,46.408651],[2.652089,46.409139],[2.65181,46.409465],[2.650951,46.410175],[2.650372,46.410456],[2.649879,46.410855],[2.648849,46.411343],[2.648055,46.412246],[2.647561,46.413237],[2.64666,46.413888],[2.645845,46.414214],[2.645094,46.414539],[2.644621,46.414539],[2.643828,46.414938],[2.642283,46.415959],[2.64136,46.416329],[2.639858,46.416906],[2.637025,46.417631],[2.633571,46.419258],[2.632841,46.41948],[2.63209,46.419539],[2.629837,46.419391],[2.630052,46.420663],[2.629923,46.421462],[2.630073,46.422542],[2.630567,46.423696],[2.630974,46.423917],[2.630588,46.424494],[2.63121,46.4255],[2.62988,46.428606],[2.628485,46.428266],[2.626211,46.427881],[2.624537,46.427985],[2.624172,46.42794],[2.623335,46.428088],[2.622091,46.427748],[2.620567,46.427201],[2.619988,46.427245],[2.619387,46.427334],[2.62031,46.428355],[2.621383,46.430425],[2.621147,46.432614],[2.620803,46.433205],[2.620653,46.433605],[2.620482,46.434448],[2.619838,46.435601],[2.619087,46.437257],[2.618958,46.439076],[2.616769,46.442019],[2.616448,46.443971],[2.616297,46.445286],[2.616727,46.446514],[2.617392,46.447534],[2.617413,46.448081],[2.617778,46.448953],[2.618357,46.449559],[2.619301,46.449737],[2.62061,46.449707],[2.620954,46.45018],[2.622778,46.449929],[2.624601,46.449234],[2.625202,46.449796],[2.625825,46.449426],[2.62797,46.449559],[2.629451,46.450106],[2.627477,46.451126],[2.625524,46.451969],[2.624773,46.452457],[2.623614,46.453477],[2.620482,46.455133],[2.619366,46.456049],[2.618507,46.457291],[2.618507,46.457557],[2.619452,46.458503],[2.619473,46.458784],[2.617263,46.460676],[2.61619,46.461297],[2.615418,46.461563],[2.614752,46.461504],[2.613615,46.461577],[2.612757,46.461518],[2.612199,46.461592],[2.612414,46.461962],[2.611663,46.462124],[2.610933,46.462583],[2.61059,46.464282],[2.611019,46.464726],[2.608444,46.465938],[2.606277,46.466056],[2.605955,46.465819],[2.605096,46.462671],[2.604796,46.462538],[2.603122,46.462878],[2.60338,46.463602],[2.604818,46.466972],[2.605075,46.467785],[2.604839,46.468834],[2.604303,46.46981],[2.602543,46.471509],[2.601213,46.472869],[2.599775,46.47544],[2.599024,46.477908],[2.598852,46.479607],[2.599067,46.481883],[2.599818,46.483892],[2.601084,46.485783],[2.601427,46.485695],[2.60235,46.487009],[2.603079,46.487837],[2.606556,46.490466],[2.607414,46.491441],[2.60883,46.494913],[2.608959,46.495755],[2.608551,46.497424],[2.608165,46.497409],[2.6078,46.499034],[2.607972,46.499935],[2.61074,46.508191],[2.611019,46.508487],[2.611019,46.508826],[2.613401,46.515723],[2.61383,46.515634],[2.616276,46.522515],[2.616297,46.523563],[2.615782,46.524847],[2.613336,46.527652],[2.612843,46.528774],[2.612843,46.529852],[2.613229,46.531284],[2.61368,46.531771],[2.614044,46.532007],[2.614066,46.532362],[2.613744,46.534384],[2.613358,46.535299],[2.612971,46.535639],[2.61295,46.535786],[2.615654,46.534797],[2.615997,46.535181],[2.61634,46.53527],[2.620052,46.534679],[2.622584,46.534428],[2.622906,46.535388],[2.622499,46.536199],[2.622048,46.536775],[2.621748,46.537764],[2.624108,46.53986],[2.62591,46.542384],[2.627176,46.542605],[2.631876,46.543933],[2.631189,46.545586],[2.631382,46.548612],[2.631661,46.549453],[2.632434,46.550722],[2.63312,46.551519],[2.634386,46.55267],[2.633463,46.555857],[2.632863,46.556669],[2.631919,46.557613],[2.631382,46.558454],[2.630781,46.560741],[2.630996,46.561154],[2.630996,46.561847],[2.632584,46.564237],[2.632348,46.565418],[2.632584,46.565772],[2.633399,46.566259],[2.633571,46.566509],[2.633936,46.566686],[2.634365,46.566922],[2.633549,46.567085],[2.631575,46.567276],[2.630695,46.567985],[2.629751,46.568722],[2.628764,46.569209],[2.626769,46.569342],[2.626275,46.569976],[2.626297,46.570345],[2.627176,46.570964],[2.62797,46.570935],[2.628636,46.57154],[2.62973,46.571849],[2.630245,46.571879],[2.631125,46.572513],[2.63179,46.572749],[2.632283,46.572631],[2.633635,46.571997],[2.633828,46.571687],[2.634515,46.571702],[2.634837,46.572144],[2.635223,46.57241],[2.636296,46.572794],[2.636875,46.573118],[2.637583,46.573944],[2.638957,46.574652],[2.641317,46.576702],[2.641896,46.577941],[2.63945,46.579018],[2.638184,46.579401],[2.636725,46.580449],[2.636317,46.581422],[2.635352,46.582587],[2.63297,46.584077],[2.632026,46.58561],[2.631446,46.586761],[2.631146,46.58682],[2.630653,46.587159],[2.63091,46.587424],[2.630931,46.588073],[2.631382,46.58825],[2.632326,46.588339],[2.632627,46.588648],[2.634,46.589592],[2.634772,46.590285],[2.635588,46.591509],[2.636897,46.592394],[2.637819,46.593706],[2.637841,46.593986],[2.638506,46.595136],[2.638957,46.59636],[2.638828,46.596832],[2.639708,46.598115],[2.640201,46.598203],[2.641038,46.59807],[2.642004,46.598203],[2.643355,46.597746],[2.643549,46.598645],[2.642326,46.598808],[2.640802,46.599279],[2.639257,46.599191],[2.639472,46.599766],[2.637433,46.602125],[2.635888,46.601859],[2.635159,46.601771],[2.633871,46.601432],[2.632476,46.60124],[2.631404,46.60127],[2.630223,46.600931],[2.629902,46.600695],[2.62885,46.600267],[2.628314,46.600297],[2.625739,46.599618],[2.622499,46.599559],[2.62134,46.599383],[2.619559,46.598704],[2.617456,46.597702],[2.617199,46.59838],[2.617456,46.599073],[2.618014,46.599692],[2.618121,46.600016],[2.618465,46.600459],[2.619344,46.601225],[2.620203,46.60295],[2.619409,46.603171],[2.618915,46.60323],[2.619173,46.603761],[2.619344,46.604498],[2.619323,46.605073],[2.620439,46.605825],[2.620889,46.606208],[2.621125,46.606326],[2.621791,46.6064],[2.62222,46.606577],[2.622584,46.606857],[2.625202,46.608287],[2.625932,46.609201],[2.626876,46.609451],[2.627584,46.610188],[2.627885,46.610144],[2.628893,46.610115],[2.629665,46.610262],[2.630009,46.610129],[2.630438,46.610115],[2.631125,46.610292],[2.632047,46.61066],[2.632627,46.610704],[2.633463,46.610631],[2.634215,46.610336],[2.635802,46.61122],[2.637433,46.612901],[2.63754,46.613593],[2.637304,46.613903],[2.637283,46.614198],[2.637605,46.614758],[2.637734,46.615156],[2.637176,46.615583],[2.63709,46.615804],[2.636897,46.615981],[2.637068,46.616276],[2.63739,46.616379],[2.63724,46.617632],[2.637025,46.618118],[2.636403,46.618457],[2.636189,46.619003],[2.636317,46.619798],[2.6343,46.619975],[2.638249,46.622348],[2.647626,46.625723],[2.637776,46.631691],[2.638377,46.633621],[2.639836,46.635168],[2.640866,46.636111],[2.641446,46.637393],[2.641424,46.638615],[2.646102,46.637967],[2.655973,46.638719],[2.655436,46.640737],[2.680155,46.647292],[2.68125,46.647528],[2.683353,46.651431],[2.68258,46.651873],[2.681378,46.652227],[2.680928,46.652993],[2.680391,46.653376],[2.680048,46.653847],[2.68022,46.654274],[2.681164,46.654466],[2.681743,46.654819],[2.682752,46.655217],[2.683503,46.655246],[2.684275,46.655114],[2.685563,46.655084],[2.686507,46.655217],[2.687773,46.655305],[2.688781,46.655511],[2.689339,46.655555],[2.689919,46.65532],[2.690176,46.655276],[2.690605,46.655408],[2.691571,46.656969],[2.692107,46.657617],[2.692472,46.658884],[2.692429,46.659458],[2.693888,46.659694],[2.694339,46.659841],[2.693459,46.660843],[2.69539,46.660931],[2.696098,46.661167],[2.696592,46.661343],[2.6976,46.660857],[2.698523,46.660651],[2.700175,46.660548],[2.700819,46.660636],[2.701785,46.660047],[2.702278,46.659296],[2.702707,46.658943],[2.703201,46.657927],[2.704059,46.656498],[2.704445,46.656203],[2.705111,46.656056],[2.706462,46.656115],[2.707471,46.655983],[2.707814,46.655821],[2.708222,46.654863],[2.708286,46.654304],[2.708029,46.65339],[2.708115,46.652934],[2.708394,46.652389],[2.718093,46.651741],[2.721376,46.645201],[2.720839,46.644243],[2.720946,46.643934],[2.720582,46.643492],[2.72041,46.642947],[2.721333,46.641341],[2.721676,46.641105],[2.722127,46.640501],[2.722367,46.640272],[2.722367,46.640272],[2.722324,46.639933],[2.722796,46.63983],[2.723568,46.639668],[2.724319,46.639712],[2.724577,46.639623],[2.724598,46.639432],[2.723482,46.639063],[2.723118,46.639049],[2.722452,46.638901],[2.722388,46.638563],[2.722045,46.638297],[2.721444,46.638297],[2.720886,46.638165],[2.720285,46.63762],[2.720049,46.63703],[2.720071,46.636765],[2.719663,46.635793],[2.719878,46.635439],[2.720586,46.635041],[2.72183,46.634644],[2.722581,46.63429],[2.723182,46.633642],[2.72389,46.633347],[2.725049,46.633362],[2.726122,46.633759],[2.726637,46.633922],[2.727516,46.634437],[2.727946,46.634629],[2.72874,46.634658],[2.729812,46.634776],[2.730091,46.634511],[2.730585,46.634305],[2.731422,46.634054],[2.731486,46.633818],[2.735048,46.637089],[2.739747,46.643144],[2.744983,46.641774],[2.755926,46.64148],[2.765647,46.64366],[2.768522,46.637959],[2.780002,46.639992],[2.781182,46.634201],[2.781204,46.633656],[2.780839,46.631726],[2.780882,46.629737],[2.781225,46.627807],[2.780109,46.626613],[2.77983,46.626215],[2.779272,46.625861],[2.778929,46.625773],[2.777856,46.624771],[2.777384,46.624093],[2.776419,46.62368],[2.776869,46.623563],[2.778457,46.623459],[2.779551,46.623415],[2.780345,46.623238],[2.781182,46.623003],[2.783585,46.622457],[2.785195,46.622722],[2.787641,46.62259],[2.789186,46.622384],[2.790409,46.62172],[2.791289,46.62091],[2.793499,46.619849],[2.79558,46.618419],[2.795924,46.618095],[2.796632,46.617653],[2.79837,46.617328],[2.800601,46.616385],[2.802339,46.616474],[2.804378,46.616444],[2.805901,46.616194],[2.80706,46.616238],[2.809914,46.617004],[2.810708,46.616931],[2.81206,46.617152],[2.814034,46.617446],[2.815729,46.61755],[2.816587,46.6178],[2.818368,46.617962],[2.819591,46.617889],[2.820257,46.617859],[2.820729,46.618198],[2.82105,46.618729],[2.820514,46.619775],[2.81987,46.620482],[2.820536,46.622177],[2.820257,46.623459],[2.820407,46.624078],[2.819634,46.624874],[2.818905,46.626701],[2.81884,46.627423],[2.818626,46.628145],[2.818669,46.628676],[2.818454,46.629147],[2.817961,46.629737],[2.817875,46.630429],[2.818154,46.631019],[2.818411,46.632021],[2.81854,46.633126],[2.818755,46.633671],[2.818518,46.634658],[2.818626,46.635395],[2.819742,46.635896],[2.819892,46.636191],[2.820471,46.636205],[2.821458,46.636353],[2.822917,46.636603],[2.824763,46.637178],[2.825063,46.637163],[2.825492,46.637605],[2.825621,46.638017],[2.826522,46.638238],[2.826801,46.63843],[2.827037,46.638474],[2.827037,46.638828],[2.828089,46.639447],[2.82826,46.639726],[2.828582,46.639933],[2.829011,46.640316],[2.829161,46.640787],[2.829505,46.641259],[2.830427,46.641656],[2.830857,46.642157],[2.830771,46.642584],[2.8309,46.642982],[2.830792,46.643395],[2.830942,46.643837],[2.8309,46.644205],[2.831071,46.645045],[2.830191,46.645575],[2.832144,46.648742],[2.835449,46.648727],[2.836843,46.649361],[2.837272,46.649714],[2.837637,46.649699],[2.837809,46.649552],[2.837358,46.649022],[2.83738,46.648698],[2.837852,46.648477],[2.83856,46.648683],[2.850169,46.648595],[2.85107,46.648875],[2.851435,46.648875],[2.851992,46.648462],[2.862614,46.645266],[2.868944,46.648123],[2.870596,46.646886],[2.87094,46.646429],[2.870982,46.645958],[2.871433,46.645663],[2.873729,46.645487],[2.87536,46.64503],[2.875081,46.64447],[2.875124,46.644117],[2.874974,46.643822],[2.875424,46.643748],[2.8786,46.642805],[2.878621,46.643233],[2.878772,46.643807],[2.879351,46.643571],[2.879823,46.643409],[2.880531,46.643365],[2.882398,46.642923],[2.88375,46.642791],[2.883943,46.643203],[2.882934,46.644308],[2.88302,46.64475],[2.883385,46.644986],[2.884394,46.645162],[2.88463,46.645369],[2.885896,46.649847],[2.886475,46.651069],[2.889071,46.651305],[2.889543,46.651644],[2.891711,46.652012],[2.89199,46.650524],[2.892118,46.648285],[2.893878,46.647019],[2.895037,46.648035],[2.895938,46.648388],[2.89729,46.648816],[2.89774,46.649081],[2.897333,46.649331],[2.897139,46.649758],[2.897011,46.650465],[2.896753,46.650686],[2.89671,46.650878],[2.897697,46.651364],[2.899392,46.651644],[2.900337,46.651879],[2.900401,46.652056],[2.899929,46.653308],[2.899907,46.653558],[2.900229,46.653647],[2.900058,46.654663],[2.89965,46.656092],[2.901967,46.656622],[2.903963,46.656622],[2.904392,46.655989],[2.90495,46.656828],[2.905143,46.658124],[2.905186,46.659081],[2.905057,46.659921],[2.905293,46.661202],[2.905379,46.661629],[2.905207,46.662351],[2.905122,46.662763],[2.905422,46.663043],[2.905637,46.663514],[2.90495,46.66484],[2.904843,46.66537],[2.905165,46.667063],[2.904886,46.668138],[2.905465,46.668506],[2.905851,46.66908],[2.905787,46.669817],[2.90598,46.669905],[2.906023,46.670641],[2.906495,46.671525],[2.906495,46.671525],[2.910143,46.673556],[2.910679,46.673748],[2.911473,46.673998],[2.912567,46.674322],[2.91492,46.675986],[2.91492,46.675986],[2.916492,46.676704],[2.91757,46.676995],[2.918106,46.677334],[2.917956,46.67751],[2.917516,46.678239],[2.917505,46.678629],[2.917688,46.679352],[2.920703,46.681327],[2.922741,46.682832],[2.925348,46.683767],[2.926882,46.683104],[2.927623,46.681205],[2.928293,46.681205],[2.929833,46.680778],[2.930817,46.680727],[2.933251,46.68023],[2.933969,46.680042],[2.937579,46.679741],[2.938046,46.679604],[2.940122,46.678445],[2.942804,46.679984],[2.944649,46.680882],[2.948126,46.682354],[2.94731,46.683038],[2.946784,46.683347],[2.947181,46.683539],[2.949048,46.683673],[2.949928,46.683807],[2.956558,46.683568],[2.964272,46.685393],[2.966724,46.685309],[2.967209,46.685001],[2.967824,46.684753],[2.971858,46.685666],[2.972094,46.685191],[2.972823,46.68398],[2.974148,46.682597],[2.974658,46.682405],[2.975766,46.683327],[2.976706,46.683972],[2.977101,46.68442],[2.977539,46.685132],[2.97789,46.685355],[2.978456,46.686063],[2.978762,46.686851],[2.979282,46.687248],[2.979658,46.687907],[2.979631,46.688214],[2.979615,46.688786],[2.979781,46.689036],[2.980755,46.690126],[2.981355,46.690451],[2.981697,46.690762],[2.981675,46.691178],[2.981567,46.691351],[2.979979,46.692113],[2.979234,46.692643],[2.978209,46.692827],[2.978789,46.694681],[2.978177,46.696189],[2.978284,46.697279],[2.978746,46.698201],[2.978569,46.698507],[2.978469,46.698948],[2.978295,46.699616],[2.978263,46.699918],[2.978434,46.701213],[2.976396,46.702287],[2.976739,46.702567],[2.977523,46.702854],[2.977936,46.703107],[2.978284,46.703244],[2.978992,46.703906],[2.980516,46.705157],[2.98219,46.705775],[2.982211,46.706334],[2.982576,46.70679],[2.983498,46.707275],[2.986331,46.708526],[2.988241,46.709041],[2.989399,46.709541],[2.989936,46.710115],[2.990665,46.710439],[2.990429,46.710763],[2.990955,46.711817],[2.99117,46.713082],[2.992661,46.713707],[2.993487,46.713744],[2.993905,46.713457],[2.994002,46.713126],[2.994882,46.712258],[2.996344,46.712188],[2.997934,46.711795],[2.999785,46.711567],[3.001898,46.711817],[3.003111,46.711309],[3.004688,46.711008],[3.005954,46.710772],[3.010181,46.711478],[3.010819,46.71113],[3.011093,46.710178],[3.011254,46.710011],[3.01119,46.709499],[3.011404,46.709301],[3.012563,46.709404],[3.01252,46.708308],[3.012606,46.707598],[3.012477,46.706799],[3.012874,46.706796],[3.013394,46.706205],[3.013958,46.70535],[3.015267,46.704651],[3.016664,46.702558],[3.018061,46.701274],[3.01841,46.70109],[3.018078,46.700546],[3.021425,46.699103],[3.019751,46.698176],[3.02102,46.696366],[3.021666,46.694365],[3.021733,46.692804],[3.022101,46.690832],[3.023029,46.69017],[3.023227,46.689331],[3.023855,46.689555],[3.025083,46.690339],[3.025373,46.690965],[3.028066,46.691123],[3.028978,46.691266],[3.030373,46.691259],[3.029847,46.688492],[3.030692,46.687222],[3.029992,46.686659],[3.030094,46.684532],[3.030646,46.683207],[3.030705,46.682324],[3.031124,46.680999],[3.031033,46.680797],[3.031899,46.678517],[3.031989,46.678378],[3.032679,46.676708],[3.033398,46.67539],[3.033817,46.67436],[3.033999,46.672284],[3.040544,46.669228],[3.041531,46.668853],[3.041745,46.670428],[3.043172,46.671097],[3.043998,46.671617],[3.044792,46.672659],[3.048869,46.674801],[3.049009,46.675118],[3.049019,46.675626],[3.049298,46.676259],[3.04999,46.676299],[3.051755,46.676929],[3.051755,46.676929],[3.052347,46.676903],[3.052422,46.677264],[3.052422,46.677264],[3.055285,46.676774],[3.055285,46.676774],[3.061443,46.683134],[3.06272,46.684172],[3.064169,46.68493],[3.064769,46.684547],[3.06595,46.685165],[3.069554,46.686093],[3.070885,46.686056],[3.073245,46.68649],[3.076678,46.686475],[3.076464,46.6878],[3.079221,46.688735],[3.081077,46.689022],[3.082086,46.688742],[3.084425,46.689596],[3.086764,46.690067],[3.087885,46.690851],[3.089006,46.691369],[3.090519,46.691936],[3.091559,46.692147],[3.091817,46.692147],[3.093362,46.691765],[3.093748,46.691397],[3.094284,46.691102],[3.094585,46.690852],[3.095443,46.68991],[3.095851,46.688997],[3.098318,46.687938],[3.099005,46.687408],[3.099327,46.686554],[3.099906,46.685494],[3.10128,46.68386],[3.103812,46.683684],[3.104176,46.683536],[3.104176,46.682418],[3.104584,46.682064],[3.107953,46.681284],[3.109541,46.681107],[3.111021,46.680371],[3.112502,46.679871],[3.11306,46.679635],[3.114111,46.679414],[3.115549,46.679738],[3.116643,46.679782],[3.117716,46.680062],[3.118982,46.680283],[3.119411,46.680857],[3.120398,46.681578],[3.121557,46.682182],[3.12366,46.682388],[3.126385,46.683845],[3.129303,46.685082],[3.132994,46.685877],[3.140612,46.686966],[3.148186,46.684685],[3.148465,46.684317],[3.148529,46.683154],[3.149195,46.682565],[3.150461,46.682094],[3.155954,46.681284],[3.15501,46.678693],[3.154881,46.677913],[3.155267,46.675616],[3.155568,46.674571],[3.158207,46.669903],[3.158851,46.669211],[3.16061,46.667989],[3.161275,46.66743],[3.16252,46.660862],[3.162563,46.659846],[3.163164,46.659271],[3.163958,46.659198],[3.164966,46.658844],[3.165288,46.658594],[3.165738,46.658491],[3.165932,46.658285],[3.166661,46.658034],[3.167412,46.657651],[3.16827,46.657887],[3.1687,46.657475],[3.169901,46.656827],[3.171468,46.655442],[3.172133,46.652644],[3.172626,46.651465],[3.172927,46.650375],[3.172541,46.648976],[3.172455,46.648299],[3.172626,46.64684],[3.172455,46.646163],[3.172433,46.645397],[3.172262,46.644837],[3.172004,46.644704],[3.172047,46.643909],[3.171832,46.642686],[3.171296,46.641758],[3.171167,46.640668],[3.170953,46.639872],[3.169,46.638414],[3.169107,46.63722],[3.169365,46.636764],[3.169451,46.635953],[3.169193,46.634775],[3.169343,46.633979],[3.169193,46.63308],[3.169515,46.632167],[3.169172,46.6314],[3.170588,46.631489],[3.173571,46.629839],[3.175394,46.629102],[3.176746,46.628336],[3.177819,46.627422],[3.178999,46.625934],[3.179643,46.62527],[3.180458,46.623767],[3.180652,46.621704],[3.180973,46.621513],[3.181467,46.621409],[3.181252,46.620245],[3.181231,46.619552],[3.181424,46.617916],[3.178935,46.617622],[3.172519,46.616133],[3.171918,46.61572],[3.171253,46.614983],[3.170781,46.614718],[3.171017,46.614335],[3.17106,46.613952],[3.170888,46.6132],[3.170652,46.612183],[3.16988,46.61177],[3.169343,46.611107],[3.169107,46.61037],[3.16915,46.609898],[3.169086,46.60981],[3.169322,46.608483],[3.168893,46.607982],[3.168228,46.606832],[3.167455,46.606906],[3.165352,46.606596],[3.162563,46.606449],[3.16252,46.605741],[3.163099,46.605432],[3.16355,46.604282],[3.163593,46.60381],[3.163915,46.603412],[3.163764,46.601702],[3.163485,46.600965],[3.16355,46.600596],[3.164065,46.600729],[3.164494,46.60064],[3.16503,46.600655],[3.165781,46.600463],[3.166103,46.599844],[3.166382,46.599638],[3.167949,46.599888],[3.167691,46.598842],[3.167605,46.598104],[3.168206,46.59666],[3.169279,46.595863],[3.16827,46.595377],[3.16694,46.594433],[3.165567,46.593106],[3.16546,46.592413],[3.164494,46.59228],[3.163679,46.59228],[3.163099,46.592354],[3.161898,46.592266],[3.161168,46.592354],[3.160546,46.592354],[3.157692,46.592737],[3.156855,46.592811],[3.155332,46.593386],[3.154774,46.593298],[3.153915,46.592988],[3.153486,46.592369],[3.153529,46.591543],[3.154023,46.589862],[3.154023,46.588255],[3.155396,46.588048],[3.156211,46.587739],[3.156726,46.587694],[3.157434,46.587517],[3.157949,46.587591],[3.158035,46.587414],[3.157499,46.587163],[3.157177,46.586824],[3.156898,46.585836],[3.156748,46.585866],[3.156276,46.585394],[3.156233,46.584553],[3.156297,46.583904],[3.156598,46.583506],[3.156383,46.583167],[3.156447,46.581928],[3.156812,46.580881],[3.156769,46.580424],[3.156469,46.579657],[3.156426,46.578536],[3.155632,46.577149],[3.155568,46.576191],[3.155761,46.574819],[3.156018,46.574524],[3.156447,46.574362],[3.15634,46.573949],[3.156018,46.573757],[3.155889,46.573432],[3.15604,46.573123],[3.156555,46.57268],[3.156834,46.57209],[3.156598,46.571235],[3.156791,46.570394],[3.156855,46.569081],[3.157349,46.567871],[3.157113,46.567458],[3.156598,46.567266],[3.156233,46.566765],[3.156233,46.565983],[3.156083,46.565363],[3.156254,46.565127],[3.157971,46.564183],[3.158593,46.563578],[3.158679,46.563224],[3.159795,46.562619],[3.160481,46.562604],[3.161125,46.562826],[3.162327,46.562914],[3.1637,46.562959],[3.164408,46.56259],[3.164945,46.562604],[3.16561,46.562811],[3.166339,46.562501],[3.167326,46.561586],[3.165846,46.560377],[3.16473,46.55927],[3.164644,46.558916],[3.164065,46.5584],[3.164043,46.558086],[3.164043,46.558086],[3.162928,46.55751],[3.161147,46.555858],[3.160224,46.555194],[3.159366,46.554766],[3.160138,46.553777],[3.162498,46.552597],[3.163657,46.551416],[3.164043,46.550383],[3.164172,46.54963],[3.165309,46.547801],[3.166897,46.545026],[3.166125,46.543978],[3.165631,46.54327],[3.165224,46.541986],[3.165266,46.541351],[3.16473,46.540038],[3.164472,46.540111],[3.1637,46.539373],[3.16355,46.538606],[3.163936,46.537499],[3.16488,46.537189],[3.165889,46.537366],[3.167047,46.536997],[3.167477,46.536908],[3.16885,46.53741],[3.169429,46.537824],[3.169901,46.538001],[3.170245,46.538311],[3.171532,46.538355],[3.17297,46.538606],[3.1743,46.538325],[3.176424,46.538473],[3.177905,46.53868],[3.178098,46.538429],[3.17827,46.53772],[3.178613,46.536584],[3.179493,46.535359],[3.180737,46.535122],[3.182497,46.534975],[3.183312,46.534473],[3.185522,46.534222],[3.186252,46.534325],[3.187003,46.534458],[3.18917,46.535137],[3.190071,46.535595],[3.190265,46.535004],[3.19093,46.535063],[3.192325,46.535063],[3.192496,46.534724],[3.192582,46.535049],[3.19314,46.535344],[3.192346,46.53679],[3.192582,46.536967],[3.193762,46.537307],[3.19417,46.537307],[3.194106,46.537779],[3.193934,46.538193],[3.194814,46.538252],[3.196959,46.539049],[3.19844,46.539624],[3.199298,46.540126],[3.200714,46.540879],[3.203204,46.541705],[3.204663,46.54203],[3.206079,46.542635],[3.206851,46.542488],[3.20786,46.542355],[3.209019,46.542001],[3.210113,46.541469],[3.210242,46.541189],[3.213224,46.541986],[3.215327,46.542148],[3.217688,46.541853],[3.218202,46.541986],[3.220198,46.543137],[3.221636,46.544554],[3.222194,46.544775],[3.224554,46.54476],[3.225412,46.545056],[3.226421,46.543373],[3.226442,46.542502],[3.226571,46.542074],[3.226442,46.541676],[3.226528,46.541454],[3.228073,46.540569],[3.229511,46.539108],[3.229961,46.53896],[3.23039,46.53896],[3.231056,46.538857],[3.232322,46.538532],[3.233094,46.538547],[3.233609,46.538798],[3.234296,46.538901],[3.235047,46.539122],[3.237042,46.539255],[3.237815,46.539521],[3.241634,46.53986],[3.242965,46.540244],[3.243523,46.539654],[3.246591,46.539093],[3.246484,46.539477],[3.246956,46.539595],[3.2482,46.541012],[3.248308,46.541322],[3.251698,46.539801],[3.252363,46.539211],[3.253393,46.539181],[3.255196,46.539462],[3.25762,46.540525],[3.259122,46.540938],[3.260839,46.5411],[3.260238,46.543329],[3.258178,46.546487],[3.255517,46.550486],[3.255646,46.55087],[3.256311,46.550914],[3.256698,46.550634],[3.257813,46.550545],[3.259787,46.550191],[3.261332,46.55025],[3.264294,46.550752],[3.264615,46.550265],[3.264787,46.549365],[3.264744,46.548834],[3.264809,46.548332],[3.265259,46.547623],[3.265989,46.546959],[3.266654,46.546664],[3.267169,46.546413],[3.268757,46.545661],[3.270688,46.545085],[3.272984,46.545321],[3.275065,46.547801],[3.276589,46.547314],[3.277383,46.547623],[3.278971,46.547564],[3.278284,46.546546],[3.276868,46.54507],[3.27631,46.544628],[3.276503,46.544229],[3.276653,46.543521],[3.276975,46.543107],[3.277125,46.542473],[3.277361,46.541927],[3.27734,46.541691],[3.27749,46.541351],[3.277962,46.540879],[3.278391,46.539979],[3.278284,46.539359],[3.278949,46.538517],[3.278992,46.538148],[3.281267,46.535477],[3.28294,46.535004],[3.28558,46.533631],[3.288755,46.535122],[3.290129,46.535491],[3.29133,46.535122],[3.292446,46.535093],[3.293068,46.535344],[3.293347,46.536038],[3.294892,46.536097],[3.297682,46.535447],[3.298454,46.535137],[3.300085,46.536702],[3.300729,46.537056],[3.30163,46.537322],[3.302274,46.537632],[3.304269,46.53896],[3.304999,46.53927],[3.307788,46.542178],[3.309505,46.54417],[3.309891,46.543904],[3.311393,46.54479],[3.312595,46.545336],[3.312852,46.545808],[3.313153,46.546059],[3.313818,46.546133],[3.313711,46.546915],[3.313303,46.547786],[3.313689,46.548155],[3.31311,46.548715],[3.312874,46.54904],[3.311887,46.550959],[3.31341,46.551018],[3.314247,46.551224],[3.314547,46.551475],[3.315298,46.552508],[3.315277,46.552951],[3.314676,46.553733],[3.314655,46.554146],[3.316049,46.556359],[3.316157,46.557613],[3.316307,46.557968],[3.316994,46.558558],[3.317873,46.559709],[3.317959,46.559974],[3.325083,46.562423],[3.326907,46.561154],[3.333537,46.561228],[3.334761,46.56139],[3.33519,46.561641],[3.337893,46.559856],[3.33828,46.560948],[3.33888,46.5608],[3.339739,46.560727],[3.339867,46.560889],[3.343172,46.560815],[3.34476,46.559236],[3.34491,46.558941],[3.346541,46.559192],[3.347292,46.559177],[3.347871,46.55931],[3.348558,46.559118],[3.350167,46.559413],[3.350232,46.558986],[3.350747,46.55779],[3.351433,46.556359],[3.352291,46.555016],[3.352635,46.554603],[3.354287,46.554102],[3.354309,46.553497],[3.353987,46.553452],[3.353751,46.553246],[3.353493,46.552965],[3.353922,46.552257],[3.35448,46.551755],[3.354566,46.551431],[3.354974,46.551018],[3.355038,46.550442],[3.354673,46.550117],[3.354545,46.549763],[3.356025,46.549468],[3.357398,46.54994],[3.357892,46.550088],[3.358214,46.549867],[3.360939,46.550044],[3.361304,46.549911],[3.361797,46.549896],[3.364479,46.549232],[3.364587,46.548922],[3.366282,46.548479],[3.367591,46.548243],[3.368299,46.547594],[3.369822,46.54659],[3.370101,46.546295],[3.370402,46.54634],[3.370488,46.546192],[3.370187,46.546015],[3.369694,46.54569],[3.369415,46.545602],[3.369415,46.545528],[3.369071,46.545395],[3.368642,46.545188],[3.369093,46.545085],[3.369393,46.544908],[3.370037,46.543978],[3.371754,46.542812],[3.372869,46.542458],[3.372848,46.542148],[3.379285,46.537765],[3.380036,46.537277],[3.380058,46.537026],[3.381452,46.536141],[3.382568,46.535078],[3.383405,46.534665],[3.38392,46.534517],[3.384049,46.534178],[3.385057,46.532982],[3.385229,46.531063],[3.385422,46.530162],[3.385744,46.529587],[3.386345,46.529321],[3.386474,46.52907],[3.38583,46.528539],[3.384328,46.528332],[3.38201,46.5269],[3.382633,46.526354],[3.384349,46.525483],[3.391087,46.523755],[3.393083,46.521201],[3.398318,46.518381],[3.401279,46.51813],[3.401837,46.517982],[3.405356,46.515546],[3.405507,46.515251],[3.405549,46.514542],[3.409133,46.51367],[3.410871,46.513257],[3.412287,46.513242],[3.412995,46.513508],[3.415806,46.51339],[3.417437,46.513198],[3.41881,46.512844],[3.41969,46.512401],[3.420656,46.512135],[3.421214,46.512105],[3.421664,46.512386],[3.421879,46.51243],[3.422394,46.511662],[3.422737,46.511544],[3.423166,46.510643],[3.423853,46.509993],[3.424046,46.509329],[3.424368,46.508989],[3.424582,46.508266],[3.425376,46.507675],[3.425848,46.507616],[3.42675,46.507173],[3.428402,46.506744],[3.429475,46.506552],[3.431621,46.506626],[3.433595,46.506346],[3.434067,46.506065],[3.434474,46.506109],[3.436298,46.504972],[3.436577,46.504898],[3.437092,46.505016],[3.437779,46.504957],[3.440525,46.505637],[3.441791,46.505194],[3.442521,46.504765],[3.442993,46.504175],[3.443229,46.503333],[3.442929,46.502018],[3.442542,46.501073],[3.441276,46.5006],[3.440268,46.49967],[3.440246,46.499138],[3.439989,46.498769],[3.440032,46.497779],[3.439453,46.496863],[3.439324,46.496317],[3.439817,46.495563],[3.439839,46.495298],[3.439367,46.494943],[3.438165,46.493732],[3.436899,46.49221],[3.436556,46.491604],[3.436148,46.490231],[3.434946,46.489344],[3.433938,46.48899],[3.433552,46.488532],[3.433123,46.487527],[3.432865,46.487335],[3.431771,46.487069],[3.430183,46.486847],[3.428101,46.486064],[3.428445,46.484882],[3.428681,46.483228],[3.428874,46.479741],[3.428574,46.47779],[3.428059,46.477613],[3.426514,46.476253],[3.426235,46.475795],[3.426771,46.475175],[3.427093,46.474776],[3.426471,46.469544],[3.42675,46.469027],[3.429861,46.46715],[3.430526,46.466692],[3.431942,46.46511],[3.432157,46.464578],[3.433294,46.463972],[3.434796,46.463529],[3.435161,46.463115],[3.435333,46.46276],[3.437714,46.462583],[3.439817,46.461947],[3.441341,46.461607],[3.441963,46.461371],[3.443186,46.459449],[3.443401,46.458356],[3.444302,46.45837],[3.446405,46.458089],[3.448808,46.45769],[3.453936,46.45701],[3.454924,46.45636],[3.455996,46.455488],[3.457756,46.455015],[3.459,46.454926],[3.460739,46.454217],[3.461575,46.453965],[3.462863,46.453315],[3.466232,46.451866],[3.46797,46.452029],[3.468635,46.452191],[3.468957,46.45259],[3.469579,46.452738],[3.473163,46.453063],[3.473248,46.452812],[3.473227,46.452398],[3.474171,46.450668],[3.4743,46.450388],[3.474107,46.44987],[3.473999,46.448835],[3.473377,46.4482],[3.472068,46.447741],[3.471725,46.447357],[3.471961,46.446972],[3.472562,46.446662],[3.47357,46.446839],[3.475501,46.446455],[3.476446,46.446662],[3.479535,46.446573],[3.492517,46.445716],[3.492367,46.443261],[3.492045,46.441783],[3.491874,46.440733],[3.491831,46.439624],[3.491573,46.438189],[3.491917,46.437554],[3.492796,46.436711],[3.493354,46.436075],[3.493719,46.43504],[3.493976,46.433857],[3.49726,46.433516],[3.500328,46.432304],[3.509276,46.431683],[3.509405,46.432807],[3.513203,46.432023],[3.517451,46.431387],[3.519189,46.431283],[3.524318,46.430988],[3.529189,46.427985],[3.529575,46.427852],[3.530133,46.427438],[3.531248,46.427201],[3.532772,46.426935],[3.535948,46.426551],[3.542642,46.426329],[3.543737,46.426491],[3.545153,46.426965],[3.548264,46.428207],[3.550045,46.428606],[3.553328,46.429021],[3.55556,46.429139],[3.557942,46.4301],[3.560238,46.430899],[3.562899,46.431091],[3.563778,46.430973],[3.564486,46.431002],[3.565516,46.430721],[3.566997,46.430692],[3.568799,46.430544],[3.570452,46.431047],[3.57161,46.431209],[3.574614,46.431964],[3.576546,46.4326],[3.576825,46.433324],[3.577168,46.43362],[3.57764,46.433797],[3.57867,46.434005],[3.580022,46.432245],[3.580665,46.431017],[3.581438,46.429878],[3.588304,46.425796],[3.589163,46.424628],[3.589635,46.424228],[3.5906,46.423933],[3.591266,46.424036],[3.590236,46.421803],[3.587382,46.417232],[3.586738,46.416122],[3.582404,46.411388],[3.581803,46.410989],[3.581588,46.409953],[3.582253,46.40945],[3.582146,46.407261],[3.582404,46.406077],[3.586438,46.405574],[3.586545,46.405086],[3.587317,46.404597],[3.588412,46.404124],[3.58927,46.403591],[3.592145,46.402688],[3.592875,46.401697],[3.593798,46.40109],[3.59633,46.399803],[3.595364,46.398782],[3.592446,46.3989],[3.591094,46.398708],[3.588605,46.398456],[3.587468,46.398146],[3.586008,46.397583],[3.584785,46.396977],[3.583412,46.395955],[3.582253,46.395245],[3.580193,46.394461],[3.580258,46.388644],[3.580472,46.38826],[3.581459,46.387801],[3.585966,46.386898],[3.586588,46.386469],[3.587232,46.386247],[3.588047,46.386276],[3.589721,46.385951],[3.591695,46.385447],[3.593089,46.384544],[3.593261,46.384278],[3.593218,46.383449],[3.592811,46.382709],[3.59236,46.382295],[3.592875,46.381836],[3.592789,46.381643],[3.592188,46.381614],[3.591781,46.381421],[3.59148,46.38003],[3.591351,46.379852],[3.591201,46.379082],[3.59148,46.378313],[3.591523,46.377868],[3.5903,46.374138],[3.593154,46.373116],[3.593883,46.372776],[3.595514,46.372228],[3.598325,46.372346],[3.602381,46.372524],[3.60399,46.372494],[3.613174,46.36977],[3.617744,46.36829],[3.618431,46.368527],[3.621907,46.36752],[3.621628,46.367194],[3.623023,46.366779],[3.624439,46.366069],[3.629331,46.362441],[3.63034,46.361908],[3.631885,46.361789],[3.633687,46.362145],[3.634975,46.362841],[3.635404,46.363463],[3.635898,46.363759],[3.636219,46.363996],[3.636455,46.364618],[3.636713,46.364351],[3.637314,46.362337],[3.637099,46.361671],[3.637078,46.361271],[3.637271,46.360664],[3.640425,46.35631],[3.641004,46.355762],[3.643451,46.354266],[3.645232,46.353126],[3.646412,46.352904],[3.648171,46.352667],[3.649716,46.352089],[3.65109,46.351245],[3.654222,46.349764],[3.65463,46.349764],[3.656196,46.350208],[3.657205,46.350179],[3.658857,46.349942],[3.662248,46.350549],[3.664093,46.350786],[3.666475,46.350164],[3.667548,46.349764],[3.668148,46.349645],[3.668985,46.34969],[3.670165,46.349631],[3.673577,46.34926],[3.676045,46.349157],[3.67804,46.348786],[3.678555,46.349009],[3.679006,46.349334],[3.679263,46.349971],[3.680251,46.350904],[3.680465,46.351763],[3.681173,46.352741],[3.68186,46.353185],[3.682718,46.352859],[3.683169,46.352978],[3.684027,46.353156],[3.68495,46.352845],[3.686967,46.352889],[3.687203,46.353007],[3.686967,46.353511],[3.68716,46.353792],[3.687546,46.353852],[3.687825,46.353481]]],"type":"MultiLineString"},"properties":{"geo_point":{"lon":3.0255141466901763,"lat":46.53914832583158},"name":"GR303 De Néris-les-Bains à Montcombroux-les-Mines (Allier) (2020)","code_gr":"GR303"}},{"type":"Feature","geometry":{"coordinates":[[[3.052422,46.677264],[3.055285,46.676774],[3.055285,46.676774],[3.061443,46.683134],[3.06272,46.684172],[3.064169,46.68493],[3.064769,46.684547],[3.06595,46.685165],[3.069554,46.686093],[3.070885,46.686056],[3.073245,46.68649],[3.076678,46.686475],[3.076464,46.6878],[3.079221,46.688735],[3.081077,46.689022],[3.082086,46.688742],[3.084425,46.689596],[3.086764,46.690067],[3.087885,46.690851],[3.089006,46.691369],[3.090519,46.691936],[3.091559,46.692147],[3.091817,46.692147],[3.093362,46.691765],[3.093748,46.691397],[3.094284,46.691102],[3.094585,46.690852],[3.095443,46.68991],[3.095851,46.688997],[3.098318,46.687938],[3.099005,46.687408],[3.099327,46.686554],[3.099906,46.685494],[3.10128,46.68386],[3.103812,46.683684],[3.104176,46.683536],[3.104176,46.682418],[3.104584,46.682064],[3.107953,46.681284],[3.109541,46.681107],[3.111021,46.680371],[3.112502,46.679871],[3.11306,46.679635],[3.114111,46.679414],[3.115549,46.679738],[3.116643,46.679782],[3.117716,46.680062],[3.118982,46.680283],[3.119411,46.680857],[3.120398,46.681578],[3.121557,46.682182],[3.12366,46.682388],[3.126385,46.683845],[3.129303,46.685082],[3.132994,46.685877],[3.140612,46.686966],[3.148186,46.684685],[3.148465,46.684317],[3.148529,46.683154],[3.149195,46.682565],[3.150461,46.682094],[3.155954,46.681284],[3.15501,46.678693],[3.154881,46.677913],[3.155267,46.675616],[3.155568,46.674571],[3.158207,46.669903],[3.158851,46.669211],[3.16061,46.667989],[3.161275,46.66743],[3.16252,46.660862],[3.162563,46.659846],[3.163164,46.659271],[3.163958,46.659198],[3.164966,46.658844],[3.165288,46.658594],[3.165738,46.658491],[3.165932,46.658285],[3.166661,46.658034],[3.167412,46.657651],[3.16827,46.657887],[3.1687,46.657475],[3.169901,46.656827],[3.171468,46.655442],[3.172133,46.652644],[3.172626,46.651465],[3.172927,46.650375],[3.172541,46.648976],[3.172455,46.648299],[3.172626,46.64684],[3.172455,46.646163],[3.172433,46.645397],[3.172262,46.644837],[3.172004,46.644704],[3.172047,46.643909],[3.171832,46.642686],[3.171296,46.641758],[3.171167,46.640668],[3.170953,46.639872],[3.169,46.638414],[3.169107,46.63722],[3.169365,46.636764],[3.169451,46.635953],[3.169193,46.634775],[3.169343,46.633979],[3.169193,46.63308],[3.169515,46.632167],[3.169172,46.6314],[3.170588,46.631489],[3.173571,46.629839],[3.175394,46.629102],[3.176746,46.628336],[3.177819,46.627422],[3.178999,46.625934],[3.179643,46.62527],[3.180458,46.623767],[3.180652,46.621704],[3.180973,46.621513],[3.181467,46.621409],[3.181252,46.620245],[3.181231,46.619552],[3.181424,46.617916],[3.178935,46.617622],[3.172519,46.616133],[3.171918,46.61572],[3.171253,46.614983],[3.170781,46.614718],[3.171017,46.614335],[3.17106,46.613952],[3.170888,46.6132],[3.170652,46.612183],[3.16988,46.61177],[3.169343,46.611107],[3.169107,46.61037],[3.16915,46.609898],[3.169086,46.60981],[3.169322,46.608483],[3.168893,46.607982],[3.168228,46.606832],[3.167455,46.606906],[3.165352,46.606596],[3.162563,46.606449],[3.16252,46.605741],[3.163099,46.605432],[3.16355,46.604282],[3.163593,46.60381],[3.163915,46.603412],[3.163764,46.601702],[3.163485,46.600965],[3.16355,46.600596],[3.164065,46.600729],[3.164494,46.60064],[3.16503,46.600655],[3.165781,46.600463],[3.166103,46.599844],[3.166382,46.599638],[3.167949,46.599888],[3.167691,46.598842],[3.167605,46.598104],[3.168206,46.59666],[3.169279,46.595863],[3.16827,46.595377],[3.16694,46.594433],[3.165567,46.593106],[3.16546,46.592413],[3.164494,46.59228],[3.163679,46.59228],[3.163099,46.592354],[3.161898,46.592266],[3.161168,46.592354],[3.160546,46.592354],[3.157692,46.592737],[3.156855,46.592811],[3.155332,46.593386],[3.154774,46.593298],[3.153915,46.592988],[3.153486,46.592369],[3.153529,46.591543],[3.154023,46.589862],[3.154023,46.588255],[3.155396,46.588048],[3.156211,46.587739],[3.156726,46.587694],[3.157434,46.587517],[3.157949,46.587591],[3.158035,46.587414],[3.157499,46.587163],[3.157177,46.586824],[3.156898,46.585836],[3.156748,46.585866],[3.156276,46.585394],[3.156233,46.584553],[3.156297,46.583904],[3.156598,46.583506],[3.156383,46.583167],[3.156447,46.581928],[3.156812,46.580881],[3.156769,46.580424],[3.156469,46.579657],[3.156426,46.578536],[3.155632,46.577149],[3.155568,46.576191],[3.155761,46.574819],[3.156018,46.574524],[3.156447,46.574362],[3.15634,46.573949],[3.156018,46.573757],[3.155889,46.573432],[3.15604,46.573123],[3.156555,46.57268],[3.156834,46.57209],[3.156598,46.571235],[3.156791,46.570394],[3.156855,46.569081],[3.157349,46.567871],[3.157113,46.567458],[3.156598,46.567266],[3.156233,46.566765],[3.156233,46.565983],[3.156083,46.565363],[3.156254,46.565127],[3.157971,46.564183],[3.158593,46.563578],[3.158679,46.563224],[3.159795,46.562619],[3.160481,46.562604],[3.161125,46.562826],[3.162327,46.562914],[3.1637,46.562959],[3.164408,46.56259],[3.164945,46.562604],[3.16561,46.562811],[3.166339,46.562501],[3.167326,46.561586],[3.165846,46.560377],[3.16473,46.55927],[3.164644,46.558916],[3.164065,46.5584],[3.164043,46.558086],[3.164043,46.558086],[3.162928,46.55751],[3.161147,46.555858],[3.160224,46.555194],[3.159366,46.554766],[3.160138,46.553777],[3.162498,46.552597],[3.163657,46.551416],[3.164043,46.550383],[3.164172,46.54963],[3.165309,46.547801],[3.166897,46.545026],[3.166125,46.543978],[3.165631,46.54327],[3.165224,46.541986],[3.165266,46.541351],[3.16473,46.540038],[3.164472,46.540111],[3.1637,46.539373],[3.16355,46.538606],[3.163936,46.537499],[3.16488,46.537189],[3.165889,46.537366],[3.167047,46.536997],[3.167477,46.536908],[3.16885,46.53741],[3.169429,46.537824],[3.169901,46.538001],[3.170245,46.538311],[3.171532,46.538355],[3.17297,46.538606],[3.1743,46.538325],[3.176424,46.538473],[3.177905,46.53868],[3.178098,46.538429],[3.17827,46.53772],[3.178613,46.536584],[3.179493,46.535359],[3.180737,46.535122],[3.182497,46.534975],[3.183312,46.534473],[3.185522,46.534222],[3.186252,46.534325],[3.187003,46.534458],[3.18917,46.535137],[3.190071,46.535595],[3.190265,46.535004],[3.19093,46.535063],[3.192325,46.535063],[3.192496,46.534724],[3.192582,46.535049],[3.19314,46.535344],[3.192346,46.53679],[3.192582,46.536967],[3.193762,46.537307],[3.19417,46.537307],[3.194106,46.537779],[3.193934,46.538193],[3.194814,46.538252],[3.196959,46.539049],[3.19844,46.539624],[3.199298,46.540126],[3.200714,46.540879],[3.203204,46.541705],[3.204663,46.54203],[3.206079,46.542635],[3.206851,46.542488],[3.20786,46.542355],[3.209019,46.542001],[3.210113,46.541469],[3.210242,46.541189],[3.213224,46.541986],[3.215327,46.542148],[3.217688,46.541853],[3.218202,46.541986],[3.220198,46.543137],[3.221636,46.544554],[3.222194,46.544775],[3.224554,46.54476],[3.225412,46.545056],[3.226421,46.543373],[3.226442,46.542502],[3.226571,46.542074],[3.226442,46.541676],[3.226528,46.541454],[3.228073,46.540569],[3.229511,46.539108],[3.229961,46.53896],[3.23039,46.53896],[3.231056,46.538857],[3.232322,46.538532],[3.233094,46.538547],[3.233609,46.538798],[3.234296,46.538901],[3.235047,46.539122],[3.237042,46.539255],[3.237815,46.539521],[3.241634,46.53986],[3.242965,46.540244],[3.243523,46.539654],[3.246591,46.539093],[3.246484,46.539477],[3.246956,46.539595],[3.2482,46.541012],[3.248308,46.541322],[3.251698,46.539801],[3.252363,46.539211],[3.253393,46.539181],[3.255196,46.539462],[3.25762,46.540525],[3.259122,46.540938],[3.260839,46.5411],[3.260238,46.543329],[3.258178,46.546487],[3.255517,46.550486],[3.255646,46.55087],[3.256311,46.550914],[3.256698,46.550634],[3.257813,46.550545],[3.259787,46.550191],[3.261332,46.55025],[3.264294,46.550752],[3.264615,46.550265],[3.264787,46.549365],[3.264744,46.548834],[3.264809,46.548332],[3.265259,46.547623],[3.265989,46.546959],[3.266654,46.546664],[3.267169,46.546413],[3.268757,46.545661],[3.270688,46.545085],[3.272984,46.545321],[3.275065,46.547801],[3.276589,46.547314],[3.277383,46.547623],[3.278971,46.547564],[3.278284,46.546546],[3.276868,46.54507],[3.27631,46.544628],[3.276503,46.544229],[3.276653,46.543521],[3.276975,46.543107],[3.277125,46.542473],[3.277361,46.541927],[3.27734,46.541691],[3.27749,46.541351],[3.277962,46.540879],[3.278391,46.539979],[3.278284,46.539359],[3.278949,46.538517],[3.278992,46.538148],[3.281267,46.535477],[3.28294,46.535004],[3.28558,46.533631],[3.288755,46.535122],[3.290129,46.535491],[3.29133,46.535122],[3.292446,46.535093],[3.293068,46.535344],[3.293347,46.536038],[3.294892,46.536097],[3.297682,46.535447],[3.298454,46.535137],[3.300085,46.536702],[3.300729,46.537056],[3.30163,46.537322],[3.302274,46.537632],[3.304269,46.53896],[3.304999,46.53927],[3.307788,46.542178],[3.309505,46.54417],[3.309891,46.543904],[3.311393,46.54479],[3.312595,46.545336],[3.312852,46.545808],[3.313153,46.546059],[3.313818,46.546133],[3.313711,46.546915],[3.313303,46.547786],[3.313689,46.548155],[3.31311,46.548715],[3.312874,46.54904],[3.311887,46.550959],[3.31341,46.551018],[3.314247,46.551224],[3.314547,46.551475],[3.315298,46.552508],[3.315277,46.552951],[3.314676,46.553733],[3.314655,46.554146],[3.316049,46.556359],[3.316157,46.557613],[3.316307,46.557968],[3.316994,46.558558],[3.317873,46.559709],[3.317959,46.559974],[3.325083,46.562423],[3.326907,46.561154],[3.333537,46.561228],[3.334761,46.56139],[3.33519,46.561641],[3.337893,46.559856],[3.33828,46.560948],[3.33888,46.5608],[3.339739,46.560727],[3.339867,46.560889],[3.343172,46.560815],[3.34476,46.559236],[3.34491,46.558941],[3.346541,46.559192],[3.347292,46.559177],[3.347871,46.55931],[3.348558,46.559118],[3.350167,46.559413],[3.350232,46.558986],[3.350747,46.55779],[3.351433,46.556359],[3.352291,46.555016],[3.352635,46.554603],[3.354287,46.554102],[3.354309,46.553497],[3.353987,46.553452],[3.353751,46.553246],[3.353493,46.552965],[3.353922,46.552257],[3.35448,46.551755],[3.354566,46.551431],[3.354974,46.551018],[3.355038,46.550442],[3.354673,46.550117],[3.354545,46.549763],[3.356025,46.549468],[3.357398,46.54994],[3.357892,46.550088],[3.358214,46.549867],[3.360939,46.550044],[3.361304,46.549911],[3.361797,46.549896],[3.364479,46.549232],[3.364587,46.548922],[3.366282,46.548479],[3.367591,46.548243],[3.368299,46.547594],[3.369822,46.54659],[3.370101,46.546295],[3.370402,46.54634],[3.370488,46.546192],[3.370187,46.546015],[3.369694,46.54569],[3.369415,46.545602],[3.369415,46.545528],[3.369071,46.545395],[3.368642,46.545188],[3.369093,46.545085],[3.369393,46.544908],[3.370037,46.543978],[3.371754,46.542812],[3.372869,46.542458],[3.372848,46.542148],[3.379285,46.537765],[3.380036,46.537277],[3.380058,46.537026],[3.381452,46.536141],[3.382568,46.535078],[3.383405,46.534665],[3.38392,46.534517],[3.384049,46.534178],[3.385057,46.532982],[3.385229,46.531063],[3.385422,46.530162],[3.385744,46.529587],[3.386345,46.529321],[3.386474,46.52907],[3.38583,46.528539],[3.384328,46.528332],[3.38201,46.5269],[3.382633,46.526354],[3.384349,46.525483],[3.391087,46.523755],[3.393083,46.521201],[3.398318,46.518381],[3.401279,46.51813],[3.401837,46.517982],[3.405356,46.515546],[3.405507,46.515251],[3.405549,46.514542],[3.409133,46.51367],[3.410871,46.513257],[3.412287,46.513242],[3.412995,46.513508],[3.415806,46.51339],[3.417437,46.513198],[3.41881,46.512844],[3.41969,46.512401],[3.420656,46.512135],[3.421214,46.512105],[3.421664,46.512386],[3.421879,46.51243],[3.422394,46.511662],[3.422737,46.511544],[3.423166,46.510643],[3.423853,46.509993],[3.424046,46.509329],[3.424368,46.508989],[3.424582,46.508266],[3.425376,46.507675],[3.425848,46.507616],[3.42675,46.507173],[3.428402,46.506744],[3.429475,46.506552],[3.431621,46.506626],[3.433595,46.506346],[3.434067,46.506065],[3.434474,46.506109],[3.436298,46.504972],[3.436577,46.504898],[3.437092,46.505016],[3.437779,46.504957],[3.440525,46.505637],[3.441791,46.505194],[3.442521,46.504765],[3.442993,46.504175],[3.443229,46.503333],[3.442929,46.502018],[3.442542,46.501073],[3.441276,46.5006],[3.440268,46.49967],[3.440246,46.499138],[3.439989,46.498769],[3.440032,46.497779],[3.439453,46.496863],[3.439324,46.496317],[3.439817,46.495563],[3.439839,46.495298],[3.439367,46.494943],[3.438165,46.493732],[3.436899,46.49221],[3.436556,46.491604],[3.436148,46.490231],[3.434946,46.489344],[3.433938,46.48899],[3.433552,46.488532],[3.433123,46.487527],[3.432865,46.487335],[3.431771,46.487069],[3.430183,46.486847],[3.428101,46.486064],[3.428445,46.484882],[3.428681,46.483228],[3.428874,46.479741],[3.428574,46.47779],[3.428059,46.477613],[3.426514,46.476253],[3.426235,46.475795],[3.426771,46.475175],[3.427093,46.474776],[3.426471,46.469544],[3.42675,46.469027],[3.429861,46.46715],[3.430526,46.466692],[3.431942,46.46511],[3.432157,46.464578],[3.433294,46.463972],[3.434796,46.463529],[3.435161,46.463115],[3.435333,46.46276],[3.437714,46.462583],[3.439817,46.461947],[3.441341,46.461607],[3.441963,46.461371],[3.443186,46.459449],[3.443401,46.458356],[3.444302,46.45837],[3.446405,46.458089],[3.448808,46.45769],[3.453936,46.45701],[3.454924,46.45636],[3.455996,46.455488],[3.457756,46.455015],[3.459,46.454926],[3.460739,46.454217],[3.461575,46.453965],[3.462863,46.453315],[3.466232,46.451866],[3.46797,46.452029],[3.468635,46.452191],[3.468957,46.45259],[3.469579,46.452738],[3.473163,46.453063],[3.473248,46.452812],[3.473227,46.452398],[3.474171,46.450668],[3.4743,46.450388],[3.474107,46.44987],[3.473999,46.448835],[3.473377,46.4482],[3.472068,46.447741],[3.471725,46.447357],[3.471961,46.446972],[3.472562,46.446662],[3.47357,46.446839],[3.475501,46.446455],[3.476446,46.446662],[3.479535,46.446573],[3.492517,46.445716],[3.492367,46.443261],[3.492045,46.441783],[3.491874,46.440733],[3.491831,46.439624],[3.491573,46.438189],[3.491917,46.437554],[3.492796,46.436711],[3.493354,46.436075],[3.493719,46.43504],[3.493976,46.433857],[3.49726,46.433516],[3.500328,46.432304],[3.509276,46.431683],[3.509405,46.432807],[3.513203,46.432023],[3.517451,46.431387],[3.519189,46.431283],[3.524318,46.430988],[3.529189,46.427985],[3.529575,46.427852],[3.530133,46.427438],[3.531248,46.427201],[3.532772,46.426935],[3.535948,46.426551],[3.542642,46.426329],[3.543737,46.426491],[3.545153,46.426965],[3.548264,46.428207],[3.550045,46.428606],[3.553328,46.429021],[3.55556,46.429139],[3.557942,46.4301],[3.560238,46.430899],[3.562899,46.431091],[3.563778,46.430973],[3.564486,46.431002],[3.565516,46.430721],[3.566997,46.430692],[3.568799,46.430544],[3.570452,46.431047],[3.57161,46.431209],[3.574614,46.431964],[3.576546,46.4326],[3.576825,46.433324],[3.577168,46.43362],[3.57764,46.433797],[3.57867,46.434005],[3.580022,46.432245],[3.580665,46.431017],[3.581438,46.429878],[3.588304,46.425796],[3.589163,46.424628],[3.589635,46.424228],[3.5906,46.423933],[3.591266,46.424036],[3.590236,46.421803],[3.587382,46.417232],[3.586738,46.416122],[3.582404,46.411388],[3.581803,46.410989],[3.581588,46.409953],[3.582253,46.40945],[3.582146,46.407261],[3.582404,46.406077],[3.586438,46.405574],[3.586545,46.405086],[3.587317,46.404597],[3.588412,46.404124],[3.58927,46.403591],[3.592145,46.402688],[3.592875,46.401697],[3.593798,46.40109],[3.59633,46.399803],[3.595364,46.398782],[3.592446,46.3989],[3.591094,46.398708],[3.588605,46.398456],[3.587468,46.398146],[3.586008,46.397583],[3.584785,46.396977],[3.583412,46.395955],[3.582253,46.395245],[3.580193,46.394461],[3.580258,46.388644],[3.580472,46.38826],[3.581459,46.387801],[3.585966,46.386898],[3.586588,46.386469],[3.587232,46.386247],[3.588047,46.386276],[3.589721,46.385951],[3.591695,46.385447],[3.593089,46.384544],[3.593261,46.384278],[3.593218,46.383449],[3.592811,46.382709],[3.59236,46.382295],[3.592875,46.381836],[3.592789,46.381643],[3.592188,46.381614],[3.591781,46.381421],[3.59148,46.38003],[3.591351,46.379852],[3.591201,46.379082],[3.59148,46.378313],[3.591523,46.377868],[3.5903,46.374138],[3.593154,46.373116],[3.593883,46.372776],[3.595514,46.372228],[3.598325,46.372346],[3.602381,46.372524],[3.60399,46.372494],[3.613174,46.36977],[3.617744,46.36829],[3.618431,46.368527],[3.621907,46.36752],[3.621628,46.367194],[3.623023,46.366779],[3.624439,46.366069],[3.629331,46.362441],[3.63034,46.361908],[3.631885,46.361789],[3.633687,46.362145],[3.634975,46.362841],[3.635404,46.363463],[3.635898,46.363759],[3.636219,46.363996],[3.636455,46.364618],[3.636713,46.364351],[3.637314,46.362337],[3.637099,46.361671],[3.637078,46.361271],[3.637271,46.360664],[3.640425,46.35631],[3.641004,46.355762],[3.643451,46.354266],[3.645232,46.353126],[3.646412,46.352904],[3.648171,46.352667],[3.649716,46.352089],[3.65109,46.351245],[3.654222,46.349764],[3.65463,46.349764],[3.656196,46.350208],[3.657205,46.350179],[3.658857,46.349942],[3.662248,46.350549],[3.664093,46.350786],[3.666475,46.350164],[3.667548,46.349764],[3.668148,46.349645],[3.668985,46.34969],[3.670165,46.349631],[3.673577,46.34926],[3.676045,46.349157],[3.67804,46.348786],[3.678555,46.349009],[3.679006,46.349334],[3.679263,46.349971],[3.680251,46.350904],[3.680465,46.351763],[3.681173,46.352741],[3.68186,46.353185],[3.682718,46.352859],[3.683169,46.352978],[3.684027,46.353156],[3.68495,46.352845],[3.686967,46.352889],[3.687203,46.353007],[3.686967,46.353511],[3.68716,46.353792],[3.687546,46.353852],[3.687825,46.353481]]],"type":"MultiLineString"},"properties":{"geo_point":{"lon":3.350617520652495,"lat":46.5199555481179},"name":"GR303 De Limoise à Montcombroux-les-Mines (Allier) (2020)","code_gr":"GR303"}}]}