{"type":"FeatureCollection","features":[{"type":"Feature","geometry":{"coordinates":[[[2.2543,47.31636],[2.254952,47.316426],[2.256333,47.316958],[2.257004,47.318862],[2.256956,47.320899],[2.25748,47.323774],[2.258605,47.326911],[2.260471,47.332484],[2.2609,47.33368],[2.260842,47.334547],[2.261085,47.336942],[2.260964,47.338492],[2.261196,47.343497],[2.261513,47.348443],[2.261786,47.351674],[2.263223,47.354516],[2.264125,47.356878],[2.265628,47.362527],[2.266526,47.364928],[2.27162,47.372629],[2.274501,47.377082],[2.27633,47.380286],[2.276632,47.381621],[2.276656,47.382536],[2.276931,47.383004],[2.277549,47.383472],[2.27767,47.383972],[2.276991,47.386054],[2.276933,47.389639],[2.278362,47.399381],[2.278723,47.403664],[2.279384,47.408935],[2.279436,47.412977],[2.279004,47.416991],[2.278423,47.417586],[2.277993,47.418371],[2.277477,47.418778],[2.276529,47.420086],[2.276955,47.421351],[2.276263,47.421938],[2.2763,47.422293],[2.276105,47.422781],[2.273571,47.426885],[2.273022,47.427447],[2.276134,47.431321],[2.277765,47.433069],[2.279418,47.435137],[2.281382,47.436228],[2.283046,47.437377],[2.284093,47.438295],[2.285032,47.438893],[2.285456,47.438969],[2.286095,47.439306],[2.29556,47.44284],[2.297988,47.443588],[2.29961,47.44358],[2.3021,47.44437],[2.30215,47.44501],[2.30322,47.44512],[2.305623,47.447519],[2.305397,47.448284],[2.303431,47.449179],[2.299554,47.450401],[2.29783,47.451859],[2.29365,47.4531],[2.292325,47.453192],[2.290356,47.453575],[2.28953,47.45389],[2.286807,47.454852],[2.28655,47.455146],[2.285477,47.455325],[2.28168,47.45664],[2.276419,47.457529],[2.273316,47.457596],[2.26996,47.45754],[2.26657,47.45801],[2.265882,47.458314],[2.264487,47.458531],[2.263102,47.458528],[2.259964,47.459041],[2.257587,47.458829],[2.254374,47.45815],[2.250733,47.457209],[2.249114,47.457011],[2.247485,47.457398],[2.247189,47.458004],[2.245766,47.457495],[2.24387,47.456681],[2.242266,47.455872],[2.24098,47.454962],[2.240326,47.454721],[2.239543,47.454624],[2.238286,47.453561],[2.237034,47.453121],[2.235824,47.452586],[2.235127,47.45244],[2.233941,47.45257],[2.23208,47.452997],[2.22833,47.45287],[2.227322,47.45304],[2.226841,47.453541],[2.220052,47.458554],[2.219567,47.459208],[2.21876,47.45992],[2.217594,47.460714],[2.216084,47.461566],[2.21267,47.46239],[2.211805,47.46288],[2.210472,47.463255],[2.208666,47.463863],[2.207323,47.464553],[2.204963,47.465147],[2.20271,47.46596],[2.200892,47.466102],[2.198808,47.465536],[2.19542,47.46558],[2.194428,47.466178],[2.194168,47.466958],[2.186863,47.468365],[2.18422,47.468648],[2.182381,47.469032],[2.181759,47.468354],[2.181046,47.467944],[2.180335,47.467747],[2.17971,47.46781],[2.176918,47.468317],[2.17155,47.46851],[2.170606,47.463006],[2.170757,47.462742],[2.17065,47.46213],[2.171545,47.461398],[2.171796,47.461101],[2.17331,47.46001],[2.173249,47.459018],[2.173913,47.458859],[2.174513,47.458293],[2.173261,47.45802],[2.172995,47.457776],[2.171685,47.45806],[2.169817,47.458345],[2.169678,47.457446],[2.167388,47.45733],[2.164411,47.45746],[2.163929,47.457733],[2.162729,47.457569],[2.154342,47.457974],[2.149186,47.457347],[2.144826,47.458635],[2.14083,47.46001],[2.139514,47.459723],[2.137554,47.459625],[2.13606,47.459037],[2.132629,47.459888],[2.131234,47.459622],[2.128941,47.460463],[2.128562,47.460282],[2.127669,47.460188],[2.127562,47.461028],[2.126054,47.460854],[2.124482,47.460904],[2.122937,47.461021],[2.119664,47.461892],[2.118331,47.462232],[2.116198,47.462403],[2.114033,47.462261],[2.110661,47.460694],[2.108931,47.460258],[2.106222,47.459367],[2.105106,47.459154],[2.103828,47.458568],[2.100749,47.456764],[2.096265,47.454225],[2.09399,47.453391],[2.093743,47.452723],[2.092831,47.452186],[2.092171,47.452868],[2.091232,47.453608],[2.090991,47.454555],[2.090449,47.455139],[2.08898,47.455959],[2.08773,47.456173],[2.087392,47.456489],[2.087852,47.457656],[2.087926,47.461914],[2.088009,47.463901],[2.088089,47.471132],[2.090342,47.473312],[2.091769,47.474858],[2.093088,47.476064],[2.093367,47.476713],[2.094333,47.478587],[2.096237,47.480248],[2.09724,47.481155],[2.098533,47.481485],[2.103828,47.481394],[2.114695,47.486082],[2.122173,47.489372],[2.12322,47.489697],[2.125532,47.490645],[2.127088,47.490899],[2.128172,47.490906],[2.129803,47.49029],[2.134169,47.489869],[2.136068,47.489891],[2.144266,47.490783],[2.146937,47.4954],[2.151641,47.498086],[2.156775,47.501206],[2.157955,47.501522],[2.159146,47.501542],[2.163792,47.500829],[2.164801,47.500877],[2.16729,47.501467],[2.167156,47.502015],[2.162473,47.508217],[2.16229,47.50824],[2.160541,47.510447],[2.155638,47.510157],[2.154972,47.510621],[2.153505,47.510746],[2.148997,47.510288],[2.147774,47.508034],[2.146363,47.506064],[2.145682,47.505399],[2.142602,47.501721],[2.141433,47.501576],[2.140618,47.501953],[2.140081,47.50233],[2.139845,47.503359],[2.140081,47.504251],[2.139974,47.505403],[2.134886,47.502471],[2.132131,47.50454],[2.127656,47.505925],[2.125929,47.507012],[2.12549,47.507121],[2.123634,47.509834],[2.122545,47.511481],[2.122754,47.511824],[2.121601,47.51344],[2.119718,47.515498],[2.118645,47.515317],[2.116692,47.517353],[2.116016,47.517494],[2.113366,47.518302],[2.114418,47.519722],[2.119663,47.522461],[2.120492,47.52312],[2.123853,47.525286],[2.124875,47.526221],[2.126134,47.52714],[2.125511,47.530184],[2.126595,47.533835],[2.121606,47.537645],[2.120854,47.538717],[2.121616,47.539304],[2.122716,47.5398],[2.123257,47.540238],[2.124545,47.541817],[2.127271,47.543555],[2.12431,47.546118],[2.122958,47.546864],[2.121949,47.547828],[2.121541,47.551216],[2.119921,47.555003],[2.119069,47.557345],[2.118258,47.559087],[2.117798,47.560933],[2.117985,47.563214],[2.118516,47.564437],[2.118162,47.565697],[2.111269,47.566276],[2.110783,47.566193],[2.109395,47.566342],[2.108852,47.566552],[2.107837,47.56666],[2.106908,47.566914],[2.094097,47.572161],[2.093239,47.572794],[2.090847,47.575048],[2.088626,47.57707],[2.087038,47.578673],[2.086158,47.579291],[2.083337,47.580319],[2.074874,47.583325],[2.073064,47.58406],[2.071942,47.584942],[2.071336,47.585908],[2.071022,47.587571],[2.070479,47.588562],[2.069936,47.589205],[2.068697,47.589994],[2.065985,47.590931],[2.064175,47.591593],[2.061694,47.592902],[2.060093,47.593502],[2.055667,47.594515],[2.050302,47.595604],[2.049535,47.595576],[2.048596,47.595751],[2.048435,47.595955],[2.042803,47.597146],[2.041054,47.597207],[2.03261,47.596324],[2.031183,47.596281],[2.022965,47.597699],[2.022353,47.59725],[2.023083,47.594277],[2.019993,47.594082],[2.01855,47.592758],[2.016852,47.589852],[2.015583,47.58859],[2.01479,47.586165],[2.013459,47.583937],[2.011442,47.576041],[2.004908,47.56962],[2.006351,47.566797],[2.00744,47.564322],[2.00854,47.561223],[2.009611,47.562175],[2.010005,47.563084],[2.013416,47.563206],[2.012118,47.55992],[2.013207,47.559681],[2.013425,47.559456],[2.013535,47.559014],[2.021077,47.558008],[2.019864,47.552918],[2.019253,47.551934],[2.018523,47.552313],[2.016142,47.549739],[2.016978,47.548175],[2.012531,47.550174],[2.01156,47.550521],[2.00612,47.551564],[2.002473,47.551854],[1.998804,47.552665],[1.99698,47.553331],[1.988676,47.553201],[1.982914,47.552498],[1.981702,47.552259],[1.97932,47.552129],[1.977411,47.552506],[1.970533,47.551709],[1.963163,47.551123],[1.963034,47.550416],[1.963924,47.546249],[1.962806,47.546249],[1.957289,47.547437],[1.951493,47.548805],[1.946211,47.549855],[1.944658,47.549207],[1.942719,47.548892],[1.940772,47.548306],[1.936239,47.5474],[1.933337,47.547552],[1.929217,47.547755],[1.923176,47.546719],[1.922736,47.546495],[1.922758,47.546133],[1.923461,47.545467],[1.923306,47.545206],[1.921148,47.544453],[1.918874,47.547857],[1.918364,47.547609],[1.915666,47.547564],[1.907244,47.548429],[1.901171,47.549001],[1.89542,47.548132],[1.890582,47.548095],[1.888597,47.547929],[1.886886,47.547603],[1.884767,47.547292],[1.879842,47.546756],[1.874086,47.546499],[1.8727,47.546327],[1.869753,47.546154],[1.867014,47.545908],[1.864318,47.545778],[1.860337,47.545742],[1.858851,47.545239],[1.853867,47.543678],[1.852049,47.543355],[1.849308,47.542613],[1.848471,47.54354],[1.848932,47.545843],[1.84934,47.546502],[1.847506,47.547103],[1.847517,47.54984],[1.847248,47.551332],[1.844587,47.553331],[1.840682,47.560383],[1.838955,47.561968],[1.836954,47.561704],[1.834191,47.562099],[1.832104,47.562732],[1.831044,47.563259],[1.829556,47.564249],[1.828875,47.565045],[1.828323,47.565596],[1.826842,47.566291],[1.822358,47.566378],[1.818752,47.567145],[1.8196,47.567576],[1.823795,47.569049],[1.824417,47.569447],[1.823237,47.570273],[1.822916,47.57068],[1.82122,47.572364],[1.820834,47.572309],[1.817508,47.574933],[1.811479,47.581888],[1.809145,47.58477],[1.809041,47.585227],[1.808164,47.585887],[1.806611,47.587588],[1.805036,47.589622],[1.804162,47.590594],[1.803839,47.592779],[1.804204,47.593228],[1.803217,47.593662],[1.802144,47.594183],[1.797992,47.593532],[1.79605,47.593633],[1.793486,47.592671],[1.792169,47.591916],[1.79068,47.591364],[1.790385,47.591476],[1.788776,47.59029],[1.787371,47.591755],[1.786995,47.592453],[1.785085,47.593926],[1.78398,47.594662],[1.782977,47.595573],[1.782274,47.596469],[1.782035,47.596116],[1.780745,47.595865],[1.78001,47.596057],[1.778551,47.595868],[1.778465,47.596781],[1.778195,47.597336],[1.777002,47.598268],[1.77586,47.600117],[1.774606,47.600964],[1.773429,47.602832],[1.770749,47.606147],[1.768198,47.609086],[1.766922,47.609607],[1.765645,47.60991],[1.763606,47.610496],[1.762469,47.611227],[1.762222,47.612073],[1.761525,47.61289],[1.760581,47.615696],[1.759991,47.617338],[1.758864,47.619479],[1.757373,47.621919],[1.756493,47.622892],[1.755876,47.623119],[1.752767,47.622684],[1.752126,47.623166],[1.751107,47.622963],[1.750667,47.623439],[1.750345,47.624001],[1.750163,47.625641],[1.74983,47.626095],[1.737407,47.631258],[1.735443,47.632487],[1.733468,47.633536],[1.732265,47.633832],[1.73091,47.634512],[1.728426,47.635965],[1.724044,47.637768],[1.719661,47.639846],[1.715981,47.640967],[1.712923,47.6419],[1.701444,47.643952],[1.698354,47.645441],[1.697485,47.646135],[1.696444,47.646627],[1.692281,47.648058],[1.690746,47.64817],[1.689985,47.648282],[1.688976,47.64839],[1.688258,47.648954],[1.687727,47.649648],[1.686187,47.650674],[1.684695,47.6498],[1.682101,47.649516],[1.680666,47.649464],[1.678556,47.649072],[1.676852,47.648955],[1.676123,47.648499],[1.675008,47.648073],[1.673001,47.647581],[1.672143,47.647118],[1.67144,47.646381],[1.670745,47.645283],[1.670501,47.644133],[1.667969,47.642],[1.668045,47.641112],[1.662718,47.640139],[1.66224,47.639745],[1.662219,47.639695],[1.666553,47.638155],[1.667626,47.637114],[1.668323,47.635646],[1.669149,47.634713],[1.670351,47.634294],[1.670608,47.63399],[1.670769,47.633332],[1.671327,47.632588],[1.672341,47.632863],[1.67343,47.632921],[1.673977,47.63172],[1.67564,47.63146],[1.677545,47.630455],[1.679234,47.630007],[1.682475,47.630029],[1.683848,47.630303],[1.684932,47.629523],[1.682196,47.627491],[1.681949,47.627075],[1.681901,47.625667],[1.682121,47.62449],[1.680077,47.623094],[1.677982,47.621406],[1.677873,47.621101],[1.676649,47.620245],[1.675919,47.618675],[1.674481,47.617996],[1.671568,47.617338],[1.669299,47.61702],[1.662336,47.615136],[1.661038,47.614496],[1.658303,47.613078],[1.65679,47.614279],[1.655524,47.613758],[1.654182,47.613491],[1.653571,47.61302],[1.652852,47.611479],[1.651855,47.610467],[1.651887,47.608611],[1.651297,47.607812],[1.64957,47.607212],[1.64803,47.605378],[1.647177,47.603581],[1.645632,47.602257],[1.644838,47.60039],[1.643658,47.599157],[1.6431,47.598323],[1.642241,47.597519],[1.639828,47.596244],[1.637993,47.595142],[1.63618,47.594458],[1.635042,47.59351],[1.632833,47.593141],[1.632317,47.59287],[1.631738,47.592323],[1.631636,47.591979],[1.632041,47.591406],[1.632661,47.590992],[1.6315,47.589901],[1.631432,47.58923],[1.630976,47.588641],[1.627811,47.589726],[1.625371,47.590153],[1.624472,47.590634],[1.622072,47.59126],[1.614765,47.59092],[1.611777,47.590757],[1.60836,47.590363],[1.60085,47.589363],[1.600893,47.588525],[1.600581,47.587729],[1.600849,47.586557],[1.601472,47.5855],[1.602448,47.584703],[1.598607,47.580817],[1.586323,47.57929],[1.5854,47.577337],[1.583265,47.576164],[1.58098,47.575208],[1.57937,47.574991],[1.576109,47.574991],[1.573598,47.574398],[1.572557,47.573667],[1.571903,47.573428],[1.569103,47.573023],[1.568132,47.572487],[1.565745,47.571401],[1.562655,47.568911],[1.561024,47.567738],[1.556936,47.566515],[1.553814,47.565262],[1.553235,47.564926],[1.552848,47.564431],[1.550188,47.563626],[1.547806,47.563083],[1.546583,47.562986],[1.545832,47.562584],[1.543289,47.55609],[1.539384,47.553911],[1.535383,47.553498],[1.533033,47.552813],[1.532357,47.552693],[1.530576,47.555156],[1.529717,47.555481],[1.529095,47.556669],[1.528526,47.556683],[1.528129,47.557219],[1.511338,47.561409],[1.511754,47.558989],[1.509784,47.554455],[1.509208,47.552513],[1.508701,47.552624],[1.508172,47.552967],[1.507289,47.552919],[1.506363,47.552698],[1.485822,47.555383],[1.485604,47.554835],[1.484428,47.555183],[1.484428,47.555183],[1.481785,47.553316],[1.481141,47.553982],[1.479382,47.55514]]],"type":"MultiLineString"},"properties":{"geo_point":{"lon":1.9637526791597697,"lat":47.53105794996695},"name":"GR31 De Neuvy-sur-Barangeon (Cher) à Mont-près-Chambord (Loir-et-Cher) (2020)","code_gr":"GR31"}},{"type":"Feature","geometry":{"coordinates":[[[2.922286,47.41139],[2.907115,47.411143],[2.896837,47.41078],[2.895206,47.410911],[2.895142,47.411375],[2.894391,47.411317],[2.89394,47.411448],[2.893898,47.411767],[2.894005,47.412058],[2.89394,47.412755],[2.893597,47.413292],[2.892996,47.413655],[2.892117,47.413902],[2.890936,47.413945],[2.890722,47.414366],[2.888319,47.414686],[2.884842,47.414831],[2.884263,47.414991],[2.886023,47.412508],[2.887074,47.412101],[2.888125,47.412101],[2.888469,47.412],[2.887997,47.411854],[2.887246,47.411143],[2.886666,47.410954],[2.886516,47.410678],[2.88658,47.410373],[2.886151,47.409516],[2.885722,47.409313],[2.887353,47.40911],[2.887374,47.408326],[2.888469,47.407253],[2.888469,47.407253],[2.888104,47.405772],[2.888319,47.40522],[2.887546,47.404842],[2.888576,47.404334],[2.889177,47.403767],[2.890121,47.403709],[2.889949,47.402562],[2.88952,47.401589],[2.889348,47.40018],[2.889155,47.399643],[2.888125,47.398423],[2.88731,47.397784],[2.887675,47.397508],[2.887653,47.396447],[2.887804,47.394719],[2.887117,47.393455],[2.887417,47.391421],[2.886795,47.390564],[2.883727,47.391567],[2.883448,47.391349],[2.88304,47.390114],[2.881087,47.388283],[2.880057,47.387223],[2.87965,47.386221],[2.880594,47.385988],[2.880572,47.385552],[2.881216,47.385233],[2.882439,47.384041],[2.881645,47.382661],[2.881431,47.381688],[2.88201,47.381586],[2.881173,47.380191],[2.881495,47.379813],[2.881345,47.379552],[2.881688,47.379436],[2.883769,47.377648],[2.882332,47.37496],[2.881774,47.373333],[2.880744,47.373507],[2.879542,47.371066],[2.879113,47.368857],[2.879607,47.3672],[2.879178,47.36579],[2.877568,47.364584],[2.877375,47.36425],[2.876538,47.363479],[2.875401,47.362084],[2.873899,47.36082],[2.873105,47.360267],[2.872483,47.359395],[2.871539,47.358479],[2.870122,47.35675],[2.869436,47.355194],[2.869479,47.353711],[2.869178,47.353261],[2.868084,47.352185],[2.867569,47.351487],[2.86744,47.350877],[2.867762,47.350324],[2.867784,47.34999],[2.867011,47.347082],[2.866582,47.345381],[2.865874,47.343811],[2.865595,47.342677],[2.865767,47.341586],[2.866732,47.340641],[2.866582,47.339972],[2.866646,47.339594],[2.866646,47.338344],[2.86656,47.337268],[2.866174,47.336788],[2.865573,47.33625],[2.864179,47.335523],[2.863235,47.335144],[2.862784,47.334636],[2.862548,47.333879],[2.862741,47.332803],[2.863149,47.331727],[2.863127,47.329982],[2.863385,47.328964],[2.863235,47.328164],[2.862505,47.327669],[2.863406,47.326884],[2.865466,47.32572],[2.86656,47.324237],[2.866925,47.323611],[2.867655,47.32207],[2.866775,47.321488],[2.865724,47.320513],[2.864801,47.32028],[2.863406,47.319771],[2.861389,47.318855],[2.86111,47.318535],[2.86111,47.318069],[2.857763,47.317662],[2.85669,47.317677],[2.855102,47.317502],[2.854437,47.317007],[2.854737,47.315698],[2.855038,47.315247],[2.855081,47.315014],[2.855445,47.31452],[2.855317,47.314331],[2.85463,47.315014],[2.853815,47.316353],[2.853278,47.317487],[2.853192,47.318389],[2.853021,47.318375],[2.852913,47.317778],[2.853257,47.317633],[2.85139,47.316716],[2.850102,47.318244],[2.846905,47.318244],[2.846326,47.318477],[2.845961,47.319349],[2.845232,47.320542],[2.844652,47.321051],[2.843043,47.321691],[2.842034,47.322593],[2.840747,47.323655],[2.839631,47.324208],[2.837743,47.324688],[2.837721,47.3254],[2.837485,47.326026],[2.837442,47.32684],[2.837099,47.327815],[2.837335,47.328018],[2.836241,47.328876],[2.835833,47.328542],[2.835597,47.328658],[2.833365,47.329153],[2.833365,47.329502],[2.832421,47.32972],[2.831155,47.330258],[2.830361,47.330796],[2.830104,47.330753],[2.829675,47.331],[2.828795,47.331262],[2.828173,47.331276],[2.826456,47.332192],[2.823817,47.33401],[2.822315,47.334854],[2.821714,47.334985],[2.821456,47.335144],[2.82004,47.335493],[2.820233,47.335872],[2.817594,47.33625],[2.817358,47.336977],[2.817272,47.337602],[2.816478,47.337762],[2.815556,47.337878],[2.81429,47.338126],[2.813646,47.338387],[2.813431,47.33894],[2.813539,47.339507],[2.813989,47.340685],[2.813946,47.341063],[2.813238,47.341092],[2.811779,47.341019],[2.809762,47.34147],[2.808947,47.341819],[2.807895,47.342095],[2.8065,47.342982],[2.805835,47.343273],[2.80414,47.343564],[2.804634,47.343142],[2.803925,47.342619],[2.802381,47.341732],[2.8006,47.341194],[2.798604,47.340859],[2.797274,47.340932],[2.795085,47.341208],[2.790536,47.341005],[2.789141,47.340539],[2.788261,47.339972],[2.78824,47.339594],[2.789334,47.33942],[2.789978,47.339027],[2.790643,47.33846],[2.792016,47.337704],[2.791931,47.337398],[2.788755,47.335435],[2.787618,47.334854],[2.786416,47.334112],[2.785236,47.333763],[2.784699,47.332905],[2.78412,47.332847],[2.783262,47.332396],[2.783004,47.331582],[2.782618,47.331422],[2.782275,47.33164],[2.782189,47.331116],[2.781223,47.329531],[2.780601,47.329066],[2.779163,47.327553],[2.778369,47.327073],[2.779442,47.326011],[2.77955,47.325706],[2.780472,47.325139],[2.783669,47.323524],[2.784785,47.321066],[2.784871,47.32044],[2.785965,47.319248],[2.787832,47.3174],[2.78824,47.316775],[2.788884,47.31612],[2.786974,47.315785],[2.786995,47.315553],[2.787553,47.31516],[2.787596,47.314884],[2.786652,47.31324],[2.785944,47.312687],[2.786094,47.312076],[2.786459,47.311785],[2.786631,47.311494],[2.786373,47.311174],[2.78412,47.310184],[2.783562,47.309981],[2.783133,47.30969],[2.782618,47.309733],[2.782017,47.309122],[2.780858,47.308366],[2.779378,47.307609],[2.773584,47.306882],[2.772511,47.307013],[2.771632,47.306707],[2.767169,47.307085],[2.766847,47.307245],[2.76631,47.307173],[2.765838,47.306853],[2.765237,47.306911],[2.765216,47.307158],[2.764894,47.307362],[2.764915,47.307784],[2.76528,47.30822],[2.765173,47.308424],[2.76528,47.308977],[2.765688,47.309559],[2.766139,47.312018],[2.767083,47.313211],[2.766932,47.313574],[2.766997,47.314331],[2.766589,47.315436],[2.766074,47.315553],[2.763971,47.316542],[2.763499,47.316935],[2.762813,47.317182],[2.762448,47.317546],[2.76189,47.317968],[2.760624,47.318506],[2.759251,47.318637],[2.75571,47.318302],[2.753908,47.318346],[2.752663,47.318404],[2.751869,47.318782],[2.751397,47.319233],[2.750603,47.320193],[2.749573,47.32111],[2.748801,47.322564],[2.745518,47.32383],[2.74393,47.324237],[2.741591,47.324164],[2.740046,47.324077],[2.737922,47.323684],[2.735411,47.32332],[2.733931,47.32332],[2.731956,47.323451],[2.731613,47.322244],[2.731549,47.32143],[2.731227,47.32063],[2.731227,47.319888],[2.730991,47.319379],[2.731441,47.319117],[2.732665,47.318942],[2.732986,47.318448],[2.731055,47.318171],[2.729596,47.318229],[2.72951,47.317851],[2.731356,47.31756],[2.732536,47.317037],[2.732579,47.316804],[2.733201,47.316411],[2.734682,47.315844],[2.733845,47.315509],[2.733609,47.314985],[2.732107,47.315174],[2.73142,47.315],[2.730776,47.314345],[2.730025,47.313123],[2.730347,47.311916],[2.730175,47.311625],[2.728695,47.311625],[2.726528,47.311843],[2.725197,47.311799],[2.722966,47.311174],[2.721614,47.31049],[2.720562,47.310214],[2.719318,47.310228],[2.717151,47.30985],[2.711679,47.308395],[2.71067,47.308366],[2.709769,47.307958],[2.709168,47.3079],[2.710349,47.306809],[2.711379,47.306445],[2.711615,47.30598],[2.712022,47.305718],[2.712087,47.305529],[2.712773,47.304757],[2.713288,47.304816],[2.71434,47.302793],[2.714876,47.302124],[2.715284,47.301382],[2.715842,47.301105],[2.71743,47.300989],[2.720348,47.300581],[2.722064,47.300479],[2.721335,47.299781],[2.720348,47.299344],[2.719811,47.298951],[2.719404,47.298195],[2.719017,47.297656],[2.718846,47.295459],[2.719189,47.294717],[2.719425,47.293858],[2.721399,47.291748],[2.721743,47.291559],[2.722537,47.291573],[2.723631,47.291966],[2.723674,47.289375],[2.723567,47.288997],[2.724189,47.288211],[2.724339,47.287745],[2.724124,47.287279],[2.72273,47.286493],[2.721335,47.28562],[2.722279,47.283029],[2.719983,47.283015],[2.717,47.28252],[2.715734,47.28121],[2.713846,47.278531],[2.71213,47.277497],[2.711228,47.277963],[2.709705,47.277701],[2.709769,47.278094],[2.709533,47.278473],[2.709104,47.278677],[2.708546,47.279186],[2.707645,47.279623],[2.706937,47.280205],[2.7058,47.279579],[2.705349,47.278837],[2.705177,47.277992],[2.704448,47.277381],[2.701937,47.277716],[2.701165,47.278138],[2.699748,47.278444],[2.699105,47.278662],[2.69844,47.279157],[2.698246,47.279841],[2.697689,47.280161],[2.696766,47.280525],[2.695843,47.280802],[2.693955,47.281268],[2.693247,47.281675],[2.692818,47.282185],[2.692324,47.28236],[2.691273,47.282214],[2.690586,47.282214],[2.689835,47.28233],[2.689191,47.282709],[2.688548,47.282738],[2.687003,47.28236],[2.684063,47.281268],[2.68372,47.280977],[2.68269,47.281967],[2.681831,47.282461],[2.681059,47.283073],[2.678162,47.284601],[2.675394,47.285664],[2.674986,47.28562],[2.674171,47.285766],[2.672798,47.285664],[2.671961,47.285722],[2.671124,47.286726],[2.670287,47.286712],[2.668334,47.286828],[2.667862,47.287178],[2.667498,47.287309],[2.667026,47.287643],[2.666468,47.2884],[2.665802,47.289375],[2.664837,47.289914],[2.663957,47.29019],[2.663506,47.290889],[2.663013,47.291311],[2.662026,47.291806],[2.660717,47.292228],[2.659537,47.29233],[2.658464,47.29201],[2.656704,47.293159],[2.65634,47.293538],[2.656576,47.293916],[2.656039,47.293902],[2.655395,47.294033],[2.655331,47.294644],[2.655052,47.295415],[2.654666,47.29591],[2.654816,47.296478],[2.654644,47.296943],[2.654065,47.297511],[2.6534,47.298937],[2.653464,47.299635],[2.653808,47.300407],[2.653636,47.300741],[2.653142,47.301018],[2.652284,47.301192],[2.65222,47.301352],[2.652627,47.301469],[2.653378,47.301846],[2.653378,47.301846],[2.652456,47.302778],[2.654301,47.306139],[2.655245,47.307274],[2.65561,47.309485],[2.65458,47.309994],[2.655031,47.311013],[2.654966,47.311449],[2.655438,47.311595],[2.655374,47.311988],[2.653808,47.312424],[2.650868,47.312715],[2.649366,47.311784],[2.647799,47.311377],[2.645632,47.30966],[2.64516,47.309107],[2.64531,47.307914],[2.644774,47.307987],[2.643272,47.309849],[2.642371,47.311042],[2.642049,47.312031],[2.640783,47.313355],[2.640246,47.314563],[2.640697,47.315537],[2.640718,47.315945],[2.641748,47.317123],[2.642929,47.318301],[2.64265,47.319072],[2.642735,47.320396],[2.641942,47.321414],[2.642392,47.322374],[2.642435,47.324003],[2.641791,47.32492],[2.642135,47.32601],[2.642006,47.326912],[2.640332,47.327392],[2.63971,47.327348],[2.639088,47.326912],[2.63853,47.326709],[2.63692,47.325676],[2.636298,47.325472],[2.63559,47.32489],[2.63559,47.324701],[2.635247,47.324483],[2.634152,47.322854],[2.632865,47.321603],[2.631771,47.321603],[2.628423,47.321327],[2.62705,47.321021],[2.625205,47.320469],[2.624604,47.320556],[2.624024,47.320978],[2.622973,47.320585],[2.621707,47.319843],[2.620248,47.31865],[2.619325,47.318461],[2.618467,47.318083],[2.617308,47.317356],[2.616106,47.316105],[2.616106,47.315275],[2.613124,47.312235],[2.613639,47.312002],[2.614347,47.31142],[2.612823,47.310649],[2.610742,47.309965],[2.610613,47.309776],[2.611171,47.309209],[2.612072,47.306794],[2.612995,47.305644],[2.611407,47.305091],[2.610485,47.305004],[2.609755,47.3048],[2.60894,47.304233],[2.607545,47.303578],[2.60527,47.301817],[2.604949,47.301439],[2.603103,47.299955],[2.602889,47.299489],[2.601537,47.299533],[2.600464,47.299867],[2.59937,47.300435],[2.598747,47.301133],[2.59776,47.301075],[2.595378,47.301381],[2.594799,47.301308],[2.590443,47.302923],[2.591151,47.301293],[2.591945,47.300275],[2.592546,47.299183],[2.592632,47.298077],[2.593855,47.297466],[2.594155,47.29652],[2.594112,47.295269],[2.593404,47.294599],[2.593254,47.293857],[2.593426,47.293231],[2.593898,47.292707],[2.592782,47.291383],[2.593082,47.291005],[2.593018,47.288414],[2.592074,47.28805],[2.588383,47.287046],[2.58804,47.287861],[2.586345,47.287672],[2.58465,47.28757],[2.581345,47.287075],[2.579779,47.286929],[2.578405,47.286085],[2.577676,47.285357],[2.578277,47.284746],[2.578448,47.284338],[2.578341,47.283785],[2.57877,47.282475],[2.578405,47.281136],[2.578062,47.281005],[2.57789,47.280801],[2.578062,47.280481],[2.57862,47.280408],[2.579779,47.279986],[2.580852,47.279462],[2.582096,47.279098],[2.582268,47.278909],[2.58319,47.278647],[2.584542,47.27869],[2.585229,47.278516],[2.585722,47.277904],[2.586688,47.277366],[2.587418,47.276769],[2.588383,47.276215],[2.590336,47.275662],[2.589928,47.276812],[2.589842,47.277671],[2.590679,47.278108],[2.590894,47.27837],[2.591902,47.278778],[2.592138,47.279258],[2.593769,47.279273],[2.594863,47.279578],[2.595378,47.279505],[2.596001,47.27888],[2.59746,47.279418],[2.598211,47.278836],[2.600163,47.279302],[2.60203,47.278574],[2.603682,47.278108],[2.604991,47.278195],[2.604605,47.277962],[2.603919,47.277569],[2.60291,47.277628],[2.601859,47.277249],[2.601558,47.276798],[2.60055,47.276361],[2.60115,47.275735],[2.602803,47.274629],[2.602631,47.273784],[2.602202,47.273464],[2.601258,47.271586],[2.599241,47.270858],[2.598533,47.26962],[2.599091,47.268805],[2.599541,47.268484],[2.599756,47.268179],[2.599691,47.267349],[2.600035,47.266402],[2.600571,47.265368],[2.601301,47.264771],[2.602095,47.264335],[2.602738,47.263534],[2.603404,47.263053],[2.604262,47.26282],[2.604841,47.262587],[2.605528,47.262194],[2.605893,47.262092],[2.606729,47.261655],[2.606923,47.261349],[2.607931,47.261757],[2.608983,47.261903],[2.609734,47.262602],[2.610313,47.262762],[2.611364,47.262442],[2.612072,47.261874],[2.612652,47.261233],[2.612845,47.260417],[2.612394,47.26001],[2.611321,47.259631],[2.6113,47.259165],[2.611064,47.258859],[2.610227,47.258451],[2.610013,47.258233],[2.612673,47.259019],[2.613725,47.259019],[2.616858,47.258087],[2.618059,47.258058],[2.618638,47.258],[2.619132,47.25765],[2.619668,47.25701],[2.620269,47.25666],[2.620484,47.256456],[2.620398,47.256034],[2.620763,47.255451],[2.621299,47.254883],[2.620934,47.254432],[2.621085,47.254257],[2.620763,47.253878],[2.621149,47.253339],[2.621385,47.251985],[2.6219,47.251446],[2.621943,47.250849],[2.622093,47.250383],[2.621879,47.249582],[2.622029,47.248941],[2.621814,47.248285],[2.621964,47.247979],[2.622179,47.247164],[2.621986,47.24677],[2.621793,47.2461],[2.620956,47.244964],[2.62087,47.2446],[2.619583,47.245066],[2.619025,47.245459],[2.618338,47.24511],[2.615806,47.244644],[2.614926,47.244411],[2.612866,47.244046],[2.61012,47.243231],[2.607609,47.24208],[2.606729,47.241497],[2.605678,47.24122],[2.604133,47.241046],[2.603532,47.240929],[2.602674,47.240463],[2.600571,47.240696],[2.599477,47.241249],[2.59879,47.241235],[2.598597,47.240405],[2.597739,47.241031],[2.596752,47.241424],[2.595765,47.241963],[2.593662,47.242998],[2.592825,47.243143],[2.591344,47.242808],[2.590314,47.242677],[2.585851,47.243027],[2.585229,47.24342],[2.585229,47.241468],[2.584542,47.240987],[2.583233,47.239793],[2.582761,47.238831],[2.582439,47.238729],[2.58186,47.237462],[2.581109,47.236617],[2.580766,47.236471],[2.580701,47.236063],[2.580701,47.234723],[2.579929,47.234038],[2.579242,47.233295],[2.579307,47.232799],[2.578727,47.231619],[2.578234,47.232377],[2.57832,47.233091],[2.577483,47.234635],[2.577182,47.235597],[2.577118,47.236121],[2.578019,47.23838],[2.578062,47.238948],[2.576775,47.238627],[2.574929,47.237957],[2.573835,47.237753],[2.573191,47.237782],[2.572097,47.237607],[2.571281,47.237695],[2.571196,47.238044],[2.57141,47.238613],[2.57214,47.239632],[2.571646,47.240026],[2.570273,47.240681],[2.569951,47.241104],[2.568792,47.24074],[2.566582,47.242837],[2.565917,47.244746],[2.567398,47.244833],[2.567698,47.245052],[2.566797,47.245984],[2.566647,47.246872],[2.566282,47.24728],[2.566067,47.24795],[2.565552,47.248271],[2.565059,47.248766],[2.564608,47.25015],[2.564608,47.250936],[2.562784,47.250558],[2.560145,47.249858],[2.56096,47.248271],[2.559952,47.247834],[2.5589,47.247703],[2.558621,47.24747],[2.55993,47.247076],[2.560445,47.247076],[2.560789,47.246654],[2.56051,47.246304],[2.560016,47.246217],[2.561904,47.24476],[2.561497,47.244105],[2.560488,47.243202],[2.559802,47.242925],[2.559008,47.242182],[2.559008,47.241803],[2.558707,47.241483],[2.556797,47.240929],[2.556561,47.240623],[2.556025,47.240477],[2.555768,47.240317],[2.555338,47.241585],[2.554845,47.242109],[2.554609,47.242823],[2.55315,47.242561],[2.553021,47.241497],[2.553278,47.240652],[2.553493,47.238904],[2.553429,47.238511],[2.552549,47.237884],[2.554201,47.235786],[2.547807,47.233018],[2.547356,47.232741],[2.546412,47.232566],[2.542635,47.23261],[2.541627,47.232829],[2.540704,47.232901],[2.539481,47.232814],[2.537185,47.232377],[2.534567,47.232187],[2.530576,47.231809],[2.530726,47.229958],[2.531306,47.228851],[2.531928,47.228428],[2.53225,47.227991],[2.533022,47.227787],[2.533666,47.226927],[2.534696,47.225893],[2.535597,47.224581],[2.534975,47.222162],[2.534954,47.221535],[2.533967,47.221506],[2.533065,47.221346],[2.530984,47.22241],[2.530469,47.221681],[2.529353,47.221084],[2.528817,47.220603],[2.529718,47.219612],[2.527315,47.218271],[2.526735,47.218577],[2.525448,47.219102],[2.521864,47.220005],[2.516757,47.220603],[2.515577,47.221361],[2.515234,47.221871],[2.513947,47.222643],[2.512058,47.224188],[2.511758,47.224625],[2.511136,47.225266],[2.509977,47.225936],[2.50841,47.226374],[2.507617,47.226738],[2.506415,47.227219],[2.505235,47.227991],[2.504591,47.228239],[2.503475,47.228414],[2.502724,47.228632],[2.501759,47.229288],[2.501308,47.229055],[2.499355,47.230002],[2.497488,47.230133],[2.494914,47.229681],[2.492832,47.229754],[2.491373,47.230148],[2.49103,47.23041],[2.490708,47.23124],[2.490365,47.231561],[2.486781,47.231532],[2.486695,47.230832],[2.487082,47.229579],[2.48706,47.228982],[2.487124,47.228559],[2.486652,47.228224],[2.48603,47.228006],[2.485858,47.227554],[2.485944,47.227029],[2.48676,47.226242],[2.481073,47.225368],[2.479443,47.22496],[2.477297,47.22359],[2.477597,47.224989],[2.478177,47.225718],[2.478198,47.22598],[2.476181,47.225907],[2.475065,47.225324],[2.472383,47.224581],[2.471889,47.22429],[2.469486,47.223678],[2.46792,47.223649],[2.467662,47.222468],[2.467062,47.221943],[2.466225,47.220938],[2.46631,47.219787],[2.46571,47.21846],[2.465645,47.216843],[2.46468,47.215677],[2.463521,47.215647],[2.462555,47.215808],[2.461869,47.217178],[2.461761,47.218329],[2.462083,47.219116],[2.461547,47.219204],[2.461053,47.219102],[2.460238,47.218213],[2.45968,47.218256],[2.458951,47.218694],[2.458157,47.218388],[2.457749,47.218402],[2.45659,47.219889],[2.455839,47.220501],[2.45423,47.220617],[2.45438,47.221317],[2.453865,47.222614],[2.452857,47.223459],[2.452063,47.223765],[2.451312,47.224275],[2.451097,47.224625],[2.449359,47.225062],[2.449874,47.22563],[2.450217,47.226446],[2.450067,47.226825],[2.449638,47.22716],[2.448608,47.227889],[2.448071,47.229638],[2.447621,47.229302],[2.447084,47.22869],[2.446827,47.228574],[2.446076,47.228851],[2.445647,47.22923],[2.443844,47.22974],[2.442621,47.230235],[2.441699,47.231022],[2.441355,47.231459],[2.440497,47.232217],[2.439231,47.232843],[2.43878,47.232537],[2.436205,47.23344],[2.434639,47.233776],[2.432708,47.233615],[2.43142,47.23379],[2.430262,47.234242],[2.429317,47.234227],[2.426957,47.233688],[2.426635,47.233193],[2.424489,47.233805],[2.423867,47.234096],[2.423266,47.23398],[2.422236,47.234125],[2.421679,47.234402],[2.421185,47.234125],[2.420928,47.233863],[2.420262,47.23398],[2.419275,47.2343],[2.418782,47.234562],[2.417709,47.234766],[2.416958,47.235174],[2.415863,47.235495],[2.414555,47.235276],[2.413031,47.235291],[2.412495,47.235218],[2.410864,47.23567],[2.408246,47.235728],[2.407924,47.236048],[2.40713,47.236471],[2.405263,47.237418],[2.404083,47.237549],[2.40344,47.237476],[2.402066,47.237462],[2.401251,47.23768],[2.400543,47.238088],[2.399448,47.238394],[2.397989,47.238991],[2.396358,47.239414],[2.395221,47.239822],[2.387604,47.240827],[2.392153,47.234854],[2.38887,47.234388],[2.388097,47.234548],[2.387003,47.235407],[2.385029,47.235087],[2.385715,47.234388],[2.379815,47.23532],[2.374386,47.236821],[2.371854,47.232668],[2.360181,47.235961],[2.355761,47.22904],[2.346577,47.244527],[2.341062,47.243012],[2.338466,47.247324],[2.33308,47.245882],[2.331771,47.248169],[2.330741,47.249523],[2.328638,47.250354],[2.327372,47.250558],[2.328531,47.252334],[2.329968,47.253471],[2.331535,47.254272],[2.332672,47.254446],[2.333831,47.254417],[2.333938,47.254607],[2.332758,47.255131],[2.331556,47.256558],[2.331621,47.257126],[2.334646,47.261772],[2.335075,47.265354],[2.332887,47.266402],[2.331535,47.266781],[2.330526,47.273245],[2.329518,47.273129],[2.328381,47.273508],[2.32602,47.273493],[2.322222,47.273231],[2.32027,47.275007],[2.317695,47.276579],[2.318167,47.276958],[2.318017,47.277307],[2.318553,47.278021],[2.318961,47.280117],[2.319561,47.281573],[2.321214,47.285284],[2.325505,47.290539],[2.326213,47.291776],[2.326921,47.292547],[2.326042,47.293057],[2.322909,47.293028],[2.31954,47.294032],[2.317437,47.294468],[2.315957,47.294323],[2.314819,47.294337],[2.314197,47.294294],[2.31351,47.294468],[2.310463,47.296011],[2.306258,47.299082],[2.305614,47.298849],[2.305142,47.298994],[2.303275,47.302254],[2.301709,47.303927],[2.301387,47.304087],[2.299627,47.306022],[2.296967,47.308787],[2.296387,47.309747],[2.295851,47.310198],[2.295186,47.310314],[2.294156,47.311464],[2.293855,47.312162],[2.289778,47.312308],[2.281066,47.31465],[2.279285,47.316192],[2.277054,47.315275],[2.276217,47.314606],[2.272655,47.313893],[2.271561,47.313806],[2.271174,47.313704],[2.269951,47.313442],[2.268728,47.312948],[2.267848,47.312744],[2.266003,47.312671],[2.26493,47.312409],[2.264694,47.312264],[2.264136,47.312162],[2.263192,47.311828],[2.262368,47.311592],[2.262368,47.311592],[2.26052,47.31264],[2.25842,47.31299],[2.25842,47.31299],[2.257678,47.313186],[2.255264,47.314175],[2.254546,47.314379]]],"type":"MultiLineString"},"properties":{"geo_point":{"lon":2.611502260081227,"lat":47.28976453620638},"name":"GR31 De Cosne-Cours-sur-Loire (Nièvre) à Neuvy-sur-Barangeon (Cher) (2020)","code_gr":"GR31"}},{"type":"Feature","geometry":{"coordinates":[[[2.922286,47.41139],[2.907115,47.411143],[2.896837,47.41078],[2.895206,47.410911],[2.895142,47.411375],[2.894391,47.411317],[2.89394,47.411448],[2.893898,47.411767],[2.894005,47.412058],[2.89394,47.412755],[2.893597,47.413292],[2.892996,47.413655],[2.892117,47.413902],[2.890936,47.413945],[2.890722,47.414366],[2.888319,47.414686],[2.884842,47.414831],[2.884263,47.414991],[2.886023,47.412508],[2.887074,47.412101],[2.888125,47.412101],[2.888469,47.412],[2.887997,47.411854],[2.887246,47.411143],[2.886666,47.410954],[2.886516,47.410678],[2.88658,47.410373],[2.886151,47.409516],[2.885722,47.409313],[2.887353,47.40911],[2.887374,47.408326],[2.888469,47.407253],[2.888469,47.407253],[2.888104,47.405772],[2.888319,47.40522],[2.887546,47.404842],[2.888576,47.404334],[2.889177,47.403767],[2.890121,47.403709],[2.889949,47.402562],[2.88952,47.401589],[2.889348,47.40018],[2.889155,47.399643],[2.888125,47.398423],[2.88731,47.397784],[2.887675,47.397508],[2.887653,47.396447],[2.887804,47.394719],[2.887117,47.393455],[2.887417,47.391421],[2.886795,47.390564],[2.883727,47.391567],[2.883448,47.391349],[2.88304,47.390114],[2.881087,47.388283],[2.880057,47.387223],[2.87965,47.386221],[2.880594,47.385988],[2.880572,47.385552],[2.881216,47.385233],[2.882439,47.384041],[2.881645,47.382661],[2.881431,47.381688],[2.88201,47.381586],[2.881173,47.380191],[2.881495,47.379813],[2.881345,47.379552],[2.881688,47.379436],[2.883769,47.377648],[2.882332,47.37496],[2.881774,47.373333],[2.880744,47.373507],[2.879542,47.371066],[2.879113,47.368857],[2.879607,47.3672],[2.879178,47.36579],[2.877568,47.364584],[2.877375,47.36425],[2.876538,47.363479],[2.875401,47.362084],[2.873899,47.36082],[2.873105,47.360267],[2.872483,47.359395],[2.871539,47.358479],[2.870122,47.35675],[2.869436,47.355194],[2.869479,47.353711],[2.869178,47.353261],[2.868084,47.352185],[2.867569,47.351487],[2.86744,47.350877],[2.867762,47.350324],[2.867784,47.34999],[2.867011,47.347082],[2.866582,47.345381],[2.865874,47.343811],[2.865595,47.342677],[2.865767,47.341586],[2.866732,47.340641],[2.866582,47.339972],[2.866646,47.339594],[2.866646,47.338344],[2.86656,47.337268],[2.866174,47.336788],[2.865573,47.33625],[2.864179,47.335523],[2.863235,47.335144],[2.862784,47.334636],[2.862548,47.333879],[2.862741,47.332803],[2.863149,47.331727],[2.863127,47.329982],[2.863385,47.328964],[2.863235,47.328164],[2.862505,47.327669],[2.863406,47.326884],[2.865466,47.32572],[2.86656,47.324237],[2.866925,47.323611],[2.867655,47.32207],[2.866775,47.321488],[2.865724,47.320513],[2.864801,47.32028],[2.863406,47.319771],[2.861389,47.318855],[2.86111,47.318535],[2.86111,47.318069],[2.857763,47.317662],[2.85669,47.317677],[2.855102,47.317502],[2.854437,47.317007],[2.854737,47.315698],[2.855038,47.315247],[2.855081,47.315014],[2.855445,47.31452],[2.855317,47.314331],[2.85463,47.315014],[2.853815,47.316353],[2.853278,47.317487],[2.853192,47.318389],[2.853021,47.318375],[2.852913,47.317778],[2.853257,47.317633],[2.85139,47.316716],[2.850102,47.318244],[2.846905,47.318244],[2.846326,47.318477],[2.845961,47.319349],[2.845232,47.320542],[2.844652,47.321051],[2.843043,47.321691],[2.842034,47.322593],[2.840747,47.323655],[2.839631,47.324208],[2.837743,47.324688],[2.837721,47.3254],[2.837485,47.326026],[2.837442,47.32684],[2.837099,47.327815],[2.837335,47.328018],[2.836241,47.328876],[2.835833,47.328542],[2.835597,47.328658],[2.833365,47.329153],[2.833365,47.329502],[2.832421,47.32972],[2.831155,47.330258],[2.830361,47.330796],[2.830104,47.330753],[2.829675,47.331],[2.828795,47.331262],[2.828173,47.331276],[2.826456,47.332192],[2.823817,47.33401],[2.822315,47.334854],[2.821714,47.334985],[2.821456,47.335144],[2.82004,47.335493],[2.820233,47.335872],[2.817594,47.33625],[2.817358,47.336977],[2.817272,47.337602],[2.816478,47.337762],[2.815556,47.337878],[2.81429,47.338126],[2.813646,47.338387],[2.813431,47.33894],[2.813539,47.339507],[2.813989,47.340685],[2.813946,47.341063],[2.813238,47.341092],[2.811779,47.341019],[2.809762,47.34147],[2.808947,47.341819],[2.807895,47.342095],[2.8065,47.342982],[2.805835,47.343273],[2.80414,47.343564],[2.804634,47.343142],[2.803925,47.342619],[2.802381,47.341732],[2.8006,47.341194],[2.798604,47.340859],[2.797274,47.340932],[2.795085,47.341208],[2.790536,47.341005],[2.789141,47.340539],[2.788261,47.339972],[2.78824,47.339594],[2.789334,47.33942],[2.789978,47.339027],[2.790643,47.33846],[2.792016,47.337704],[2.791931,47.337398],[2.788755,47.335435],[2.787618,47.334854],[2.786416,47.334112],[2.785236,47.333763],[2.784699,47.332905],[2.78412,47.332847],[2.783262,47.332396],[2.783004,47.331582],[2.782618,47.331422],[2.782275,47.33164],[2.782189,47.331116],[2.781223,47.329531],[2.780601,47.329066],[2.779163,47.327553],[2.778369,47.327073],[2.779442,47.326011],[2.77955,47.325706],[2.780472,47.325139],[2.783669,47.323524],[2.784785,47.321066],[2.784871,47.32044],[2.785965,47.319248],[2.787832,47.3174],[2.78824,47.316775],[2.788884,47.31612],[2.786974,47.315785],[2.786995,47.315553],[2.787553,47.31516],[2.787596,47.314884],[2.786652,47.31324],[2.785944,47.312687],[2.786094,47.312076],[2.786459,47.311785],[2.786631,47.311494],[2.786373,47.311174],[2.78412,47.310184],[2.783562,47.309981],[2.783133,47.30969],[2.782618,47.309733],[2.782017,47.309122],[2.780858,47.308366],[2.779378,47.307609],[2.773584,47.306882],[2.772511,47.307013],[2.771632,47.306707],[2.767169,47.307085],[2.766847,47.307245],[2.76631,47.307173],[2.765838,47.306853],[2.765237,47.306911],[2.765216,47.307158],[2.764894,47.307362],[2.764915,47.307784],[2.76528,47.30822],[2.765173,47.308424],[2.76528,47.308977],[2.765688,47.309559],[2.766139,47.312018],[2.767083,47.313211],[2.766932,47.313574],[2.766997,47.314331],[2.766589,47.315436],[2.766074,47.315553],[2.763971,47.316542],[2.763499,47.316935],[2.762813,47.317182],[2.762448,47.317546],[2.76189,47.317968],[2.760624,47.318506],[2.759251,47.318637],[2.75571,47.318302],[2.753908,47.318346],[2.752663,47.318404],[2.751869,47.318782],[2.751397,47.319233],[2.750603,47.320193],[2.749573,47.32111],[2.748801,47.322564],[2.745518,47.32383],[2.74393,47.324237],[2.741591,47.324164],[2.740046,47.324077],[2.737922,47.323684],[2.735411,47.32332],[2.733931,47.32332],[2.731956,47.323451],[2.731613,47.322244],[2.731549,47.32143],[2.731227,47.32063],[2.731227,47.319888],[2.730991,47.319379],[2.731441,47.319117],[2.732665,47.318942],[2.732986,47.318448],[2.731055,47.318171],[2.729596,47.318229],[2.72951,47.317851],[2.731356,47.31756],[2.732536,47.317037],[2.732579,47.316804],[2.733201,47.316411],[2.734682,47.315844],[2.733845,47.315509],[2.733609,47.314985],[2.732107,47.315174],[2.73142,47.315],[2.730776,47.314345],[2.730025,47.313123],[2.730347,47.311916],[2.730175,47.311625],[2.728695,47.311625],[2.726528,47.311843],[2.725197,47.311799],[2.722966,47.311174],[2.721614,47.31049],[2.720562,47.310214],[2.719318,47.310228],[2.717151,47.30985],[2.711679,47.308395],[2.71067,47.308366],[2.709769,47.307958],[2.709168,47.3079],[2.710349,47.306809],[2.711379,47.306445],[2.711615,47.30598],[2.712022,47.305718],[2.712087,47.305529],[2.712773,47.304757],[2.713288,47.304816],[2.71434,47.302793],[2.714876,47.302124],[2.715284,47.301382],[2.715842,47.301105],[2.71743,47.300989],[2.720348,47.300581],[2.722064,47.300479],[2.721335,47.299781],[2.720348,47.299344],[2.719811,47.298951],[2.719404,47.298195],[2.719017,47.297656],[2.718846,47.295459],[2.719189,47.294717],[2.719425,47.293858],[2.721399,47.291748],[2.721743,47.291559],[2.722537,47.291573],[2.723631,47.291966],[2.723674,47.289375],[2.723567,47.288997],[2.724189,47.288211],[2.724339,47.287745],[2.724124,47.287279],[2.72273,47.286493],[2.721335,47.28562],[2.722279,47.283029],[2.719983,47.283015],[2.717,47.28252],[2.715734,47.28121],[2.713846,47.278531],[2.71213,47.277497],[2.711228,47.277963],[2.709705,47.277701],[2.709769,47.278094],[2.709533,47.278473],[2.709104,47.278677],[2.708546,47.279186],[2.707645,47.279623],[2.706937,47.280205],[2.7058,47.279579],[2.705349,47.278837],[2.705177,47.277992],[2.704448,47.277381],[2.701937,47.277716],[2.701165,47.278138],[2.699748,47.278444],[2.699105,47.278662],[2.69844,47.279157],[2.698246,47.279841],[2.697689,47.280161],[2.696766,47.280525],[2.695843,47.280802],[2.693955,47.281268],[2.693247,47.281675],[2.692818,47.282185],[2.692324,47.28236],[2.691273,47.282214],[2.690586,47.282214],[2.689835,47.28233],[2.689191,47.282709],[2.688548,47.282738],[2.687003,47.28236],[2.684063,47.281268],[2.68372,47.280977],[2.68269,47.281967],[2.681831,47.282461],[2.681059,47.283073],[2.678162,47.284601],[2.675394,47.285664],[2.674986,47.28562],[2.674171,47.285766],[2.672798,47.285664],[2.671961,47.285722],[2.671124,47.286726],[2.670287,47.286712],[2.668334,47.286828],[2.667862,47.287178],[2.667498,47.287309],[2.667026,47.287643],[2.666468,47.2884],[2.665802,47.289375],[2.664837,47.289914],[2.663957,47.29019],[2.663506,47.290889],[2.663013,47.291311],[2.662026,47.291806],[2.660717,47.292228],[2.659537,47.29233],[2.658464,47.29201],[2.656704,47.293159],[2.65634,47.293538],[2.656576,47.293916],[2.656039,47.293902],[2.655395,47.294033],[2.655331,47.294644],[2.655052,47.295415],[2.654666,47.29591],[2.654816,47.296478],[2.654644,47.296943],[2.654065,47.297511],[2.6534,47.298937],[2.653464,47.299635],[2.653808,47.300407],[2.653636,47.300741],[2.653142,47.301018],[2.652284,47.301192],[2.65222,47.301352],[2.652627,47.301469],[2.653378,47.301846],[2.653378,47.301846],[2.652456,47.302778],[2.654301,47.306139],[2.655245,47.307274],[2.65561,47.309485],[2.65458,47.309994],[2.655031,47.311013],[2.654966,47.311449],[2.655438,47.311595],[2.655374,47.311988],[2.653808,47.312424],[2.650868,47.312715],[2.649366,47.311784],[2.647799,47.311377],[2.645632,47.30966],[2.64516,47.309107],[2.64531,47.307914],[2.644774,47.307987],[2.643272,47.309849],[2.642371,47.311042],[2.642049,47.312031],[2.640783,47.313355],[2.640246,47.314563],[2.640697,47.315537],[2.640718,47.315945],[2.641748,47.317123],[2.642929,47.318301],[2.64265,47.319072],[2.642735,47.320396],[2.641942,47.321414],[2.642392,47.322374],[2.642435,47.324003],[2.641791,47.32492],[2.642135,47.32601],[2.642006,47.326912],[2.640332,47.327392],[2.63971,47.327348],[2.639088,47.326912],[2.63853,47.326709],[2.63692,47.325676],[2.636298,47.325472],[2.63559,47.32489],[2.63559,47.324701],[2.635247,47.324483],[2.634152,47.322854],[2.632865,47.321603],[2.631771,47.321603],[2.628423,47.321327],[2.62705,47.321021],[2.625205,47.320469],[2.624604,47.320556],[2.624024,47.320978],[2.622973,47.320585],[2.621707,47.319843],[2.620248,47.31865],[2.619325,47.318461],[2.618467,47.318083],[2.617308,47.317356],[2.616106,47.316105],[2.616106,47.315275],[2.613124,47.312235],[2.613639,47.312002],[2.614347,47.31142],[2.612823,47.310649],[2.610742,47.309965],[2.610613,47.309776],[2.611171,47.309209],[2.612072,47.306794],[2.612995,47.305644],[2.611407,47.305091],[2.610485,47.305004],[2.609755,47.3048],[2.60894,47.304233],[2.607545,47.303578],[2.60527,47.301817],[2.604949,47.301439],[2.603103,47.299955],[2.602889,47.299489],[2.601537,47.299533],[2.600464,47.299867],[2.59937,47.300435],[2.598747,47.301133],[2.59776,47.301075],[2.595378,47.301381],[2.594799,47.301308],[2.590443,47.302923],[2.591151,47.301293],[2.591945,47.300275],[2.592546,47.299183],[2.592632,47.298077],[2.593855,47.297466],[2.594155,47.29652],[2.594112,47.295269],[2.593404,47.294599],[2.593254,47.293857],[2.593426,47.293231],[2.593898,47.292707],[2.592782,47.291383],[2.593082,47.291005],[2.593018,47.288414],[2.592074,47.28805],[2.588383,47.287046],[2.58804,47.287861],[2.586345,47.287672],[2.58465,47.28757],[2.581345,47.287075],[2.579779,47.286929],[2.578405,47.286085],[2.577676,47.285357],[2.578277,47.284746],[2.578448,47.284338],[2.578341,47.283785],[2.57877,47.282475],[2.578405,47.281136],[2.578062,47.281005],[2.57789,47.280801],[2.578062,47.280481],[2.57862,47.280408],[2.579779,47.279986],[2.580852,47.279462],[2.582096,47.279098],[2.582268,47.278909],[2.58319,47.278647],[2.584542,47.27869],[2.585229,47.278516],[2.585722,47.277904],[2.586688,47.277366],[2.587418,47.276769],[2.588383,47.276215],[2.590336,47.275662],[2.589928,47.276812],[2.589842,47.277671],[2.590679,47.278108],[2.590894,47.27837],[2.591902,47.278778],[2.592138,47.279258],[2.593769,47.279273],[2.594863,47.279578],[2.595378,47.279505],[2.596001,47.27888],[2.59746,47.279418],[2.598211,47.278836],[2.600163,47.279302],[2.60203,47.278574],[2.603682,47.278108],[2.604991,47.278195],[2.604605,47.277962],[2.603919,47.277569],[2.60291,47.277628],[2.601859,47.277249],[2.601558,47.276798],[2.60055,47.276361],[2.60115,47.275735],[2.602803,47.274629],[2.602631,47.273784],[2.602202,47.273464],[2.601258,47.271586],[2.599241,47.270858],[2.598533,47.26962],[2.599091,47.268805],[2.599541,47.268484],[2.599756,47.268179],[2.599691,47.267349],[2.600035,47.266402],[2.600571,47.265368],[2.601301,47.264771],[2.602095,47.264335],[2.602738,47.263534],[2.603404,47.263053],[2.604262,47.26282],[2.604841,47.262587],[2.605528,47.262194],[2.605893,47.262092],[2.606729,47.261655],[2.606923,47.261349],[2.607931,47.261757],[2.608983,47.261903],[2.609734,47.262602],[2.610313,47.262762],[2.611364,47.262442],[2.612072,47.261874],[2.612652,47.261233],[2.612845,47.260417],[2.612394,47.26001],[2.611321,47.259631],[2.6113,47.259165],[2.611064,47.258859],[2.610227,47.258451],[2.610013,47.258233],[2.612673,47.259019],[2.613725,47.259019],[2.616858,47.258087],[2.618059,47.258058],[2.618638,47.258],[2.619132,47.25765],[2.619668,47.25701],[2.620269,47.25666],[2.620484,47.256456],[2.620398,47.256034],[2.620763,47.255451],[2.621299,47.254883],[2.620934,47.254432],[2.621085,47.254257],[2.620763,47.253878],[2.621149,47.253339],[2.621385,47.251985],[2.6219,47.251446],[2.621943,47.250849],[2.622093,47.250383],[2.621879,47.249582],[2.622029,47.248941],[2.621814,47.248285],[2.621964,47.247979],[2.622179,47.247164],[2.621986,47.24677],[2.621793,47.2461],[2.620956,47.244964],[2.62087,47.2446],[2.619583,47.245066],[2.619025,47.245459],[2.618338,47.24511],[2.615806,47.244644],[2.614926,47.244411],[2.612866,47.244046],[2.61012,47.243231],[2.607609,47.24208],[2.606729,47.241497],[2.605678,47.24122],[2.604133,47.241046],[2.603532,47.240929],[2.602674,47.240463],[2.600571,47.240696],[2.599477,47.241249],[2.59879,47.241235],[2.598597,47.240405],[2.597739,47.241031],[2.596752,47.241424],[2.595765,47.241963],[2.593662,47.242998],[2.592825,47.243143],[2.591344,47.242808],[2.590314,47.242677],[2.585851,47.243027],[2.585229,47.24342],[2.585229,47.241468],[2.584542,47.240987],[2.583233,47.239793],[2.582761,47.238831],[2.582439,47.238729],[2.58186,47.237462],[2.581109,47.236617],[2.580766,47.236471],[2.580701,47.236063],[2.580701,47.234723],[2.579929,47.234038],[2.579242,47.233295],[2.579307,47.232799],[2.578727,47.231619],[2.578234,47.232377],[2.57832,47.233091],[2.577483,47.234635],[2.577182,47.235597],[2.577118,47.236121],[2.578019,47.23838],[2.578062,47.238948],[2.576775,47.238627],[2.574929,47.237957],[2.573835,47.237753],[2.573191,47.237782],[2.572097,47.237607],[2.571281,47.237695],[2.571196,47.238044],[2.57141,47.238613],[2.57214,47.239632],[2.571646,47.240026],[2.570273,47.240681],[2.569951,47.241104],[2.568792,47.24074],[2.566582,47.242837],[2.565917,47.244746],[2.567398,47.244833],[2.567698,47.245052],[2.566797,47.245984],[2.566647,47.246872],[2.566282,47.24728],[2.566067,47.24795],[2.565552,47.248271],[2.565059,47.248766],[2.564608,47.25015],[2.564608,47.250936],[2.562784,47.250558],[2.560145,47.249858],[2.56096,47.248271],[2.559952,47.247834],[2.5589,47.247703],[2.558621,47.24747],[2.55993,47.247076],[2.560445,47.247076],[2.560789,47.246654],[2.56051,47.246304],[2.560016,47.246217],[2.561904,47.24476],[2.561497,47.244105],[2.560488,47.243202],[2.559802,47.242925],[2.559008,47.242182],[2.559008,47.241803],[2.558707,47.241483],[2.556797,47.240929],[2.556561,47.240623],[2.556025,47.240477],[2.555768,47.240317],[2.555338,47.241585],[2.554845,47.242109],[2.554609,47.242823],[2.55315,47.242561],[2.553021,47.241497],[2.553278,47.240652],[2.553493,47.238904],[2.553429,47.238511],[2.552549,47.237884],[2.554201,47.235786],[2.547807,47.233018],[2.547356,47.232741],[2.546412,47.232566],[2.542635,47.23261],[2.541627,47.232829],[2.540704,47.232901],[2.539481,47.232814],[2.537185,47.232377],[2.534567,47.232187],[2.530576,47.231809],[2.530726,47.229958],[2.531306,47.228851],[2.531928,47.228428],[2.53225,47.227991],[2.533022,47.227787],[2.533666,47.226927],[2.534696,47.225893],[2.535597,47.224581],[2.534975,47.222162],[2.534954,47.221535],[2.533967,47.221506],[2.533065,47.221346],[2.530984,47.22241],[2.530469,47.221681],[2.529353,47.221084],[2.528817,47.220603],[2.529718,47.219612],[2.527315,47.218271],[2.526735,47.218577],[2.525448,47.219102],[2.521864,47.220005],[2.516757,47.220603],[2.515577,47.221361],[2.515234,47.221871],[2.513947,47.222643],[2.512058,47.224188],[2.511758,47.224625],[2.511136,47.225266],[2.509977,47.225936],[2.50841,47.226374],[2.507617,47.226738],[2.506415,47.227219],[2.505235,47.227991],[2.504591,47.228239],[2.503475,47.228414],[2.502724,47.228632],[2.501759,47.229288],[2.501308,47.229055],[2.499355,47.230002],[2.497488,47.230133],[2.494914,47.229681],[2.492832,47.229754],[2.491373,47.230148],[2.49103,47.23041],[2.490708,47.23124],[2.490365,47.231561],[2.486781,47.231532],[2.486695,47.230832],[2.487082,47.229579],[2.48706,47.228982],[2.487124,47.228559],[2.486652,47.228224],[2.48603,47.228006],[2.485858,47.227554],[2.485944,47.227029],[2.48676,47.226242],[2.481073,47.225368],[2.479443,47.22496],[2.477297,47.22359],[2.477597,47.224989],[2.478177,47.225718],[2.478198,47.22598],[2.476181,47.225907],[2.475065,47.225324],[2.472383,47.224581],[2.471889,47.22429],[2.469486,47.223678],[2.46792,47.223649],[2.467662,47.222468],[2.467062,47.221943],[2.466225,47.220938],[2.46631,47.219787],[2.46571,47.21846],[2.465645,47.216843],[2.46468,47.215677],[2.463521,47.215647],[2.462555,47.215808],[2.461869,47.217178],[2.461761,47.218329],[2.462083,47.219116],[2.461547,47.219204],[2.461053,47.219102],[2.460238,47.218213],[2.45968,47.218256],[2.458951,47.218694],[2.458157,47.218388],[2.457749,47.218402],[2.45659,47.219889],[2.455839,47.220501],[2.45423,47.220617],[2.45438,47.221317],[2.453865,47.222614],[2.452857,47.223459],[2.452063,47.223765],[2.451312,47.224275],[2.451097,47.224625],[2.449359,47.225062],[2.449874,47.22563],[2.450217,47.226446],[2.450067,47.226825],[2.449638,47.22716],[2.448608,47.227889],[2.448071,47.229638],[2.447621,47.229302],[2.447084,47.22869],[2.446827,47.228574],[2.446076,47.228851],[2.445647,47.22923],[2.443844,47.22974],[2.442621,47.230235],[2.441699,47.231022],[2.441355,47.231459],[2.440497,47.232217],[2.439231,47.232843],[2.43878,47.232537],[2.436205,47.23344],[2.434639,47.233776],[2.432708,47.233615],[2.43142,47.23379],[2.430262,47.234242],[2.429317,47.234227],[2.426957,47.233688],[2.426635,47.233193],[2.424489,47.233805],[2.423867,47.234096],[2.423266,47.23398],[2.422236,47.234125],[2.421679,47.234402],[2.421185,47.234125],[2.420928,47.233863],[2.420262,47.23398],[2.419275,47.2343],[2.418782,47.234562],[2.417709,47.234766],[2.416958,47.235174],[2.415863,47.235495],[2.414555,47.235276],[2.413031,47.235291],[2.412495,47.235218],[2.410864,47.23567],[2.408246,47.235728],[2.407924,47.236048],[2.40713,47.236471],[2.405263,47.237418],[2.404083,47.237549],[2.40344,47.237476],[2.402066,47.237462],[2.401251,47.23768],[2.400543,47.238088],[2.399448,47.238394],[2.397989,47.238991],[2.396358,47.239414],[2.395221,47.239822],[2.387604,47.240827],[2.392153,47.234854],[2.38887,47.234388],[2.388097,47.234548],[2.387003,47.235407],[2.385029,47.235087],[2.385715,47.234388],[2.379815,47.23532],[2.374386,47.236821],[2.371854,47.232668],[2.360181,47.235961],[2.355761,47.22904],[2.346577,47.244527],[2.341062,47.243012],[2.338466,47.247324],[2.33308,47.245882],[2.331771,47.248169],[2.330741,47.249523],[2.328638,47.250354],[2.327372,47.250558],[2.328531,47.252334],[2.329968,47.253471],[2.331535,47.254272],[2.332672,47.254446],[2.333831,47.254417],[2.333938,47.254607],[2.332758,47.255131],[2.331556,47.256558],[2.331621,47.257126],[2.334646,47.261772],[2.335075,47.265354],[2.332887,47.266402],[2.331535,47.266781],[2.330526,47.273245],[2.329518,47.273129],[2.328381,47.273508],[2.32602,47.273493],[2.322222,47.273231],[2.32027,47.275007],[2.317695,47.276579],[2.318167,47.276958],[2.318017,47.277307],[2.318553,47.278021],[2.318961,47.280117],[2.319561,47.281573],[2.321214,47.285284],[2.325505,47.290539],[2.326213,47.291776],[2.326921,47.292547],[2.326042,47.293057],[2.322909,47.293028],[2.31954,47.294032],[2.317437,47.294468],[2.315957,47.294323],[2.314819,47.294337],[2.314197,47.294294],[2.31351,47.294468],[2.310463,47.296011],[2.306258,47.299082],[2.305614,47.298849],[2.305142,47.298994],[2.303275,47.302254],[2.301709,47.303927],[2.301387,47.304087],[2.299627,47.306022],[2.296967,47.308787],[2.296387,47.309747],[2.295851,47.310198],[2.295186,47.310314],[2.294156,47.311464],[2.293855,47.312162],[2.289778,47.312308],[2.281066,47.31465],[2.279285,47.316192],[2.277054,47.315275],[2.276217,47.314606],[2.272655,47.313893],[2.271561,47.313806],[2.271174,47.313704],[2.269951,47.313442],[2.268728,47.312948],[2.267848,47.312744],[2.266003,47.312671],[2.26493,47.312409],[2.264694,47.312264],[2.264136,47.312162],[2.263192,47.311828],[2.262368,47.311592],[2.262368,47.311592],[2.26052,47.31264],[2.25842,47.31299],[2.25842,47.31299],[2.257678,47.313186],[2.255264,47.314175],[2.254546,47.314379],[2.2543,47.31636],[2.2543,47.31636],[2.254952,47.316426],[2.256333,47.316958],[2.257004,47.318862],[2.256956,47.320899],[2.25748,47.323774],[2.258605,47.326911],[2.260471,47.332484],[2.2609,47.33368],[2.260842,47.334547],[2.261085,47.336942],[2.260964,47.338492],[2.261196,47.343497],[2.261513,47.348443],[2.261786,47.351674],[2.263223,47.354516],[2.264125,47.356878],[2.265628,47.362527],[2.266526,47.364928],[2.27162,47.372629],[2.274501,47.377082],[2.27633,47.380286],[2.276632,47.381621],[2.276656,47.382536],[2.276931,47.383004],[2.277549,47.383472],[2.27767,47.383972],[2.276991,47.386054],[2.276933,47.389639],[2.278362,47.399381],[2.278723,47.403664],[2.279384,47.408935],[2.279436,47.412977],[2.279004,47.416991],[2.278423,47.417586],[2.277993,47.418371],[2.277477,47.418778],[2.276529,47.420086],[2.276955,47.421351],[2.276263,47.421938],[2.2763,47.422293],[2.276105,47.422781],[2.273571,47.426885],[2.273022,47.427447],[2.276134,47.431321],[2.277765,47.433069],[2.279418,47.435137],[2.281382,47.436228],[2.283046,47.437377],[2.284093,47.438295],[2.285032,47.438893],[2.285456,47.438969],[2.286095,47.439306],[2.29556,47.44284],[2.297988,47.443588],[2.29961,47.44358],[2.3021,47.44437],[2.30215,47.44501],[2.30322,47.44512],[2.305623,47.447519],[2.305397,47.448284],[2.303431,47.449179],[2.299554,47.450401],[2.29783,47.451859],[2.29365,47.4531],[2.292325,47.453192],[2.290356,47.453575],[2.28953,47.45389],[2.286807,47.454852],[2.28655,47.455146],[2.285477,47.455325],[2.28168,47.45664],[2.276419,47.457529],[2.273316,47.457596],[2.26996,47.45754],[2.26657,47.45801],[2.265882,47.458314],[2.264487,47.458531],[2.263102,47.458528],[2.259964,47.459041],[2.257587,47.458829],[2.254374,47.45815],[2.250733,47.457209],[2.249114,47.457011],[2.247485,47.457398],[2.247189,47.458004],[2.245766,47.457495],[2.24387,47.456681],[2.242266,47.455872],[2.24098,47.454962],[2.240326,47.454721],[2.239543,47.454624],[2.238286,47.453561],[2.237034,47.453121],[2.235824,47.452586],[2.235127,47.45244],[2.233941,47.45257],[2.23208,47.452997],[2.22833,47.45287],[2.227322,47.45304],[2.226841,47.453541],[2.220052,47.458554],[2.219567,47.459208],[2.21876,47.45992],[2.217594,47.460714],[2.216084,47.461566],[2.21267,47.46239],[2.211805,47.46288],[2.210472,47.463255],[2.208666,47.463863],[2.207323,47.464553],[2.204963,47.465147],[2.20271,47.46596],[2.200892,47.466102],[2.198808,47.465536],[2.19542,47.46558],[2.194428,47.466178],[2.194168,47.466958],[2.186863,47.468365],[2.18422,47.468648],[2.182381,47.469032],[2.181759,47.468354],[2.181046,47.467944],[2.180335,47.467747],[2.17971,47.46781],[2.176918,47.468317],[2.17155,47.46851],[2.170606,47.463006],[2.170757,47.462742],[2.17065,47.46213],[2.171545,47.461398],[2.171796,47.461101],[2.17331,47.46001],[2.173249,47.459018],[2.173913,47.458859],[2.174513,47.458293],[2.173261,47.45802],[2.172995,47.457776],[2.171685,47.45806],[2.169817,47.458345],[2.169678,47.457446],[2.167388,47.45733],[2.164411,47.45746],[2.163929,47.457733],[2.162729,47.457569],[2.154342,47.457974],[2.149186,47.457347],[2.144826,47.458635],[2.14083,47.46001],[2.139514,47.459723],[2.137554,47.459625],[2.13606,47.459037],[2.132629,47.459888],[2.131234,47.459622],[2.128941,47.460463],[2.128562,47.460282],[2.127669,47.460188],[2.127562,47.461028],[2.126054,47.460854],[2.124482,47.460904],[2.122937,47.461021],[2.119664,47.461892],[2.118331,47.462232],[2.116198,47.462403],[2.114033,47.462261],[2.110661,47.460694],[2.108931,47.460258],[2.106222,47.459367],[2.105106,47.459154],[2.103828,47.458568],[2.100749,47.456764],[2.096265,47.454225],[2.09399,47.453391],[2.093743,47.452723],[2.092831,47.452186],[2.092171,47.452868],[2.091232,47.453608],[2.090991,47.454555],[2.090449,47.455139],[2.08898,47.455959],[2.08773,47.456173],[2.087392,47.456489],[2.087852,47.457656],[2.087926,47.461914],[2.088009,47.463901],[2.088089,47.471132],[2.090342,47.473312],[2.091769,47.474858],[2.093088,47.476064],[2.093367,47.476713],[2.094333,47.478587],[2.096237,47.480248],[2.09724,47.481155],[2.098533,47.481485],[2.103828,47.481394],[2.114695,47.486082],[2.122173,47.489372],[2.12322,47.489697],[2.125532,47.490645],[2.127088,47.490899],[2.128172,47.490906],[2.129803,47.49029],[2.134169,47.489869],[2.136068,47.489891],[2.144266,47.490783],[2.146937,47.4954],[2.151641,47.498086],[2.156775,47.501206],[2.157955,47.501522],[2.159146,47.501542],[2.163792,47.500829],[2.164801,47.500877],[2.16729,47.501467],[2.167156,47.502015],[2.162473,47.508217],[2.16229,47.50824],[2.160541,47.510447],[2.155638,47.510157],[2.154972,47.510621],[2.153505,47.510746],[2.148997,47.510288],[2.147774,47.508034],[2.146363,47.506064],[2.145682,47.505399],[2.142602,47.501721],[2.141433,47.501576],[2.140618,47.501953],[2.140081,47.50233],[2.139845,47.503359],[2.140081,47.504251],[2.139974,47.505403],[2.134886,47.502471],[2.132131,47.50454],[2.127656,47.505925],[2.125929,47.507012],[2.12549,47.507121],[2.123634,47.509834],[2.122545,47.511481],[2.122754,47.511824],[2.121601,47.51344],[2.119718,47.515498],[2.118645,47.515317],[2.116692,47.517353],[2.116016,47.517494],[2.113366,47.518302],[2.114418,47.519722],[2.119663,47.522461],[2.120492,47.52312],[2.123853,47.525286],[2.124875,47.526221],[2.126134,47.52714],[2.125511,47.530184],[2.126595,47.533835],[2.121606,47.537645],[2.120854,47.538717],[2.121616,47.539304],[2.122716,47.5398],[2.123257,47.540238],[2.124545,47.541817],[2.127271,47.543555],[2.12431,47.546118],[2.122958,47.546864],[2.121949,47.547828],[2.121541,47.551216],[2.119921,47.555003],[2.119069,47.557345],[2.118258,47.559087],[2.117798,47.560933],[2.117985,47.563214],[2.118516,47.564437],[2.118162,47.565697],[2.111269,47.566276],[2.110783,47.566193],[2.109395,47.566342],[2.108852,47.566552],[2.107837,47.56666],[2.106908,47.566914],[2.094097,47.572161],[2.093239,47.572794],[2.090847,47.575048],[2.088626,47.57707],[2.087038,47.578673],[2.086158,47.579291],[2.083337,47.580319],[2.074874,47.583325],[2.073064,47.58406],[2.071942,47.584942],[2.071336,47.585908],[2.071022,47.587571],[2.070479,47.588562],[2.069936,47.589205],[2.068697,47.589994],[2.065985,47.590931],[2.064175,47.591593],[2.061694,47.592902],[2.060093,47.593502],[2.055667,47.594515],[2.050302,47.595604],[2.049535,47.595576],[2.048596,47.595751],[2.048435,47.595955],[2.042803,47.597146],[2.041054,47.597207],[2.03261,47.596324],[2.031183,47.596281],[2.022965,47.597699],[2.022353,47.59725],[2.023083,47.594277],[2.019993,47.594082],[2.01855,47.592758],[2.016852,47.589852],[2.015583,47.58859],[2.01479,47.586165],[2.013459,47.583937],[2.011442,47.576041],[2.004908,47.56962],[2.006351,47.566797],[2.00744,47.564322],[2.00854,47.561223],[2.009611,47.562175],[2.010005,47.563084],[2.013416,47.563206],[2.012118,47.55992],[2.013207,47.559681],[2.013425,47.559456],[2.013535,47.559014],[2.021077,47.558008],[2.019864,47.552918],[2.019253,47.551934],[2.018523,47.552313],[2.016142,47.549739],[2.016978,47.548175],[2.012531,47.550174],[2.01156,47.550521],[2.00612,47.551564],[2.002473,47.551854],[1.998804,47.552665],[1.99698,47.553331],[1.988676,47.553201],[1.982914,47.552498],[1.981702,47.552259],[1.97932,47.552129],[1.977411,47.552506],[1.970533,47.551709],[1.963163,47.551123],[1.963034,47.550416],[1.963924,47.546249],[1.962806,47.546249],[1.957289,47.547437],[1.951493,47.548805],[1.946211,47.549855],[1.944658,47.549207],[1.942719,47.548892],[1.940772,47.548306],[1.936239,47.5474],[1.933337,47.547552],[1.929217,47.547755],[1.923176,47.546719],[1.922736,47.546495],[1.922758,47.546133],[1.923461,47.545467],[1.923306,47.545206],[1.921148,47.544453],[1.918874,47.547857],[1.918364,47.547609],[1.915666,47.547564],[1.907244,47.548429],[1.901171,47.549001],[1.89542,47.548132],[1.890582,47.548095],[1.888597,47.547929],[1.886886,47.547603],[1.884767,47.547292],[1.879842,47.546756],[1.874086,47.546499],[1.8727,47.546327],[1.869753,47.546154],[1.867014,47.545908],[1.864318,47.545778],[1.860337,47.545742],[1.858851,47.545239],[1.853867,47.543678],[1.852049,47.543355],[1.849308,47.542613],[1.848471,47.54354],[1.848932,47.545843],[1.84934,47.546502],[1.847506,47.547103],[1.847517,47.54984],[1.847248,47.551332],[1.844587,47.553331],[1.840682,47.560383],[1.838955,47.561968],[1.836954,47.561704],[1.834191,47.562099],[1.832104,47.562732],[1.831044,47.563259],[1.829556,47.564249],[1.828875,47.565045],[1.828323,47.565596],[1.826842,47.566291],[1.822358,47.566378],[1.818752,47.567145],[1.8196,47.567576],[1.823795,47.569049],[1.824417,47.569447],[1.823237,47.570273],[1.822916,47.57068],[1.82122,47.572364],[1.820834,47.572309],[1.817508,47.574933],[1.811479,47.581888],[1.809145,47.58477],[1.809041,47.585227],[1.808164,47.585887],[1.806611,47.587588],[1.805036,47.589622],[1.804162,47.590594],[1.803839,47.592779],[1.804204,47.593228],[1.803217,47.593662],[1.802144,47.594183],[1.797992,47.593532],[1.79605,47.593633],[1.793486,47.592671],[1.792169,47.591916],[1.79068,47.591364],[1.790385,47.591476],[1.788776,47.59029],[1.787371,47.591755],[1.786995,47.592453],[1.785085,47.593926],[1.78398,47.594662],[1.782977,47.595573],[1.782274,47.596469],[1.782035,47.596116],[1.780745,47.595865],[1.78001,47.596057],[1.778551,47.595868],[1.778465,47.596781],[1.778195,47.597336],[1.777002,47.598268],[1.77586,47.600117],[1.774606,47.600964],[1.773429,47.602832],[1.770749,47.606147],[1.768198,47.609086],[1.766922,47.609607],[1.765645,47.60991],[1.763606,47.610496],[1.762469,47.611227],[1.762222,47.612073],[1.761525,47.61289],[1.760581,47.615696],[1.759991,47.617338],[1.758864,47.619479],[1.757373,47.621919],[1.756493,47.622892],[1.755876,47.623119],[1.752767,47.622684],[1.752126,47.623166],[1.751107,47.622963],[1.750667,47.623439],[1.750345,47.624001],[1.750163,47.625641],[1.74983,47.626095],[1.737407,47.631258],[1.735443,47.632487],[1.733468,47.633536],[1.732265,47.633832],[1.73091,47.634512],[1.728426,47.635965],[1.724044,47.637768],[1.719661,47.639846],[1.715981,47.640967],[1.712923,47.6419],[1.701444,47.643952],[1.698354,47.645441],[1.697485,47.646135],[1.696444,47.646627],[1.692281,47.648058],[1.690746,47.64817],[1.689985,47.648282],[1.688976,47.64839],[1.688258,47.648954],[1.687727,47.649648],[1.686187,47.650674],[1.684695,47.6498],[1.682101,47.649516],[1.680666,47.649464],[1.678556,47.649072],[1.676852,47.648955],[1.676123,47.648499],[1.675008,47.648073],[1.673001,47.647581],[1.672143,47.647118],[1.67144,47.646381],[1.670745,47.645283],[1.670501,47.644133],[1.667969,47.642],[1.668045,47.641112],[1.662718,47.640139],[1.66224,47.639745],[1.662219,47.639695],[1.666553,47.638155],[1.667626,47.637114],[1.668323,47.635646],[1.669149,47.634713],[1.670351,47.634294],[1.670608,47.63399],[1.670769,47.633332],[1.671327,47.632588],[1.672341,47.632863],[1.67343,47.632921],[1.673977,47.63172],[1.67564,47.63146],[1.677545,47.630455],[1.679234,47.630007],[1.682475,47.630029],[1.683848,47.630303],[1.684932,47.629523],[1.682196,47.627491],[1.681949,47.627075],[1.681901,47.625667],[1.682121,47.62449],[1.680077,47.623094],[1.677982,47.621406],[1.677873,47.621101],[1.676649,47.620245],[1.675919,47.618675],[1.674481,47.617996],[1.671568,47.617338],[1.669299,47.61702],[1.662336,47.615136],[1.661038,47.614496],[1.658303,47.613078],[1.65679,47.614279],[1.655524,47.613758],[1.654182,47.613491],[1.653571,47.61302],[1.652852,47.611479],[1.651855,47.610467],[1.651887,47.608611],[1.651297,47.607812],[1.64957,47.607212],[1.64803,47.605378],[1.647177,47.603581],[1.645632,47.602257],[1.644838,47.60039],[1.643658,47.599157],[1.6431,47.598323],[1.642241,47.597519],[1.639828,47.596244],[1.637993,47.595142],[1.63618,47.594458],[1.635042,47.59351],[1.632833,47.593141],[1.632317,47.59287],[1.631738,47.592323],[1.631636,47.591979],[1.632041,47.591406],[1.632661,47.590992],[1.6315,47.589901],[1.631432,47.58923],[1.630976,47.588641],[1.627811,47.589726],[1.625371,47.590153],[1.624472,47.590634],[1.622072,47.59126],[1.614765,47.59092],[1.611777,47.590757],[1.60836,47.590363],[1.60085,47.589363],[1.600893,47.588525],[1.600581,47.587729],[1.600849,47.586557],[1.601472,47.5855],[1.602448,47.584703],[1.598607,47.580817],[1.586323,47.57929],[1.5854,47.577337],[1.583265,47.576164],[1.58098,47.575208],[1.57937,47.574991],[1.576109,47.574991],[1.573598,47.574398],[1.572557,47.573667],[1.571903,47.573428],[1.569103,47.573023],[1.568132,47.572487],[1.565745,47.571401],[1.562655,47.568911],[1.561024,47.567738],[1.556936,47.566515],[1.553814,47.565262],[1.553235,47.564926],[1.552848,47.564431],[1.550188,47.563626],[1.547806,47.563083],[1.546583,47.562986],[1.545832,47.562584],[1.543289,47.55609],[1.539384,47.553911],[1.535383,47.553498],[1.533033,47.552813],[1.532357,47.552693],[1.530576,47.555156],[1.529717,47.555481],[1.529095,47.556669],[1.528526,47.556683],[1.528129,47.557219],[1.511338,47.561409],[1.511754,47.558989],[1.509784,47.554455],[1.509208,47.552513],[1.508701,47.552624],[1.508172,47.552967],[1.507289,47.552919],[1.506363,47.552698],[1.485822,47.555383],[1.485604,47.554835],[1.484428,47.555183],[1.484428,47.555183],[1.481785,47.553316],[1.481141,47.553982],[1.479382,47.55514]]],"type":"MultiLineString"},"properties":{"geo_point":{"lon":2.2708397655754897,"lat":47.416592558976426},"name":"GR31 De Cosne-Cours-sur-Loire (Nièvre) à Mont-près-Chambord (Loir-et-Cher) (2020)","code_gr":"GR31"}}]}