{"type":"FeatureCollection","features":[{"type":"Feature","geometry":{"coordinates":[[[-3.154944,47.347008],[-3.154147,47.346997],[-3.153724,47.346677],[-3.153594,47.346446],[-3.152374,47.345763],[-3.152879,47.345069],[-3.153773,47.344683],[-3.153301,47.344297],[-3.152797,47.344496],[-3.150764,47.344606],[-3.150439,47.344485],[-3.149789,47.343757],[-3.149805,47.343206],[-3.149285,47.342986],[-3.148602,47.343184],[-3.148032,47.343085],[-3.147821,47.342964],[-3.147919,47.342645],[-3.147447,47.342435],[-3.147024,47.342369],[-3.146504,47.342038],[-3.146341,47.341256],[-3.146374,47.340716],[-3.146666,47.340011],[-3.146504,47.339504],[-3.146455,47.339206],[-3.146374,47.33903],[-3.146439,47.338722],[-3.14626,47.338677],[-3.146455,47.338126],[-3.14691,47.337917],[-3.147106,47.336969],[-3.146797,47.336528],[-3.146862,47.336264],[-3.14678,47.336077],[-3.146975,47.335702],[-3.146878,47.335537],[-3.146699,47.335393],[-3.14691,47.335272],[-3.146975,47.33503],[-3.146894,47.334908],[-3.147171,47.334545],[-3.147138,47.334269],[-3.147219,47.33406],[-3.147642,47.333839],[-3.14787,47.333872],[-3.148293,47.333189],[-3.147724,47.332825],[-3.147805,47.33266],[-3.147512,47.332627],[-3.146992,47.332914],[-3.146455,47.332792],[-3.146146,47.333057],[-3.145691,47.333145],[-3.143203,47.331756],[-3.143367,47.33121],[-3.14297,47.330795],[-3.142487,47.330512],[-3.142058,47.330875],[-3.141618,47.330883],[-3.14092,47.330548],[-3.140727,47.330265],[-3.140942,47.329908],[-3.140105,47.329436],[-3.139515,47.329174],[-3.139086,47.329057],[-3.138785,47.328665],[-3.138303,47.328345],[-3.138185,47.328054],[-3.137809,47.32809],[-3.137444,47.328054],[-3.137434,47.32817],[-3.137187,47.328236],[-3.13679,47.328272],[-3.136404,47.328388],[-3.135695,47.328294],[-3.135266,47.328388],[-3.134923,47.328396],[-3.134215,47.328279],[-3.133996,47.328153],[-3.133685,47.328179],[-3.133298,47.328066],[-3.133003,47.32804],[-3.132805,47.327932],[-3.13235,47.327788],[-3.132236,47.327572],[-3.131766,47.327582],[-3.131493,47.327618],[-3.130719,47.327526],[-3.130408,47.327783],[-3.129771,47.327819],[-3.129505,47.327927],[-3.129346,47.328163],[-3.128686,47.32842],[-3.128276,47.328616],[-3.127867,47.328621],[-3.127624,47.328549],[-3.127525,47.328405],[-3.126418,47.328148],[-3.126251,47.327896],[-3.126539,47.327634],[-3.127806,47.32677],[-3.128033,47.326564],[-3.126776,47.326883],[-3.125994,47.327],[-3.12592,47.326981],[-3.125954,47.326677],[-3.126265,47.326661],[-3.126288,47.326264],[-3.125845,47.326046],[-3.125557,47.325761],[-3.125149,47.325691],[-3.124804,47.325289],[-3.124281,47.324865],[-3.12347,47.324518],[-3.123327,47.324541],[-3.122637,47.324276],[-3.122802,47.323975],[-3.122997,47.32382],[-3.122875,47.323534],[-3.122892,47.323434],[-3.122656,47.323275],[-3.122729,47.323109],[-3.122371,47.323049],[-3.121932,47.322861],[-3.121522,47.322963],[-3.121104,47.322821],[-3.120642,47.32304],[-3.120442,47.323063],[-3.12005,47.323217],[-3.119884,47.323075],[-3.119605,47.323164],[-3.117993,47.323353],[-3.117871,47.323329],[-3.116878,47.323524],[-3.116538,47.323453],[-3.11614,47.323282],[-3.115818,47.322986],[-3.115588,47.322635],[-3.115921,47.322004],[-3.115369,47.321957],[-3.114725,47.322277],[-3.113806,47.322628],[-3.113599,47.321918],[-3.113242,47.321614],[-3.113254,47.321388],[-3.113185,47.321225],[-3.11292,47.321061],[-3.112805,47.320858],[-3.112472,47.320617],[-3.111598,47.319447],[-3.111253,47.319034],[-3.111161,47.31887],[-3.110988,47.318761],[-3.110965,47.318574],[-3.110666,47.318426],[-3.110586,47.318294],[-3.109793,47.318022],[-3.107898,47.317537],[-3.106795,47.317209],[-3.105557,47.316535],[-3.1031,47.316039],[-3.09991,47.315176],[-3.099422,47.315295],[-3.097791,47.315029],[-3.097474,47.315078],[-3.097157,47.31504],[-3.096694,47.31504],[-3.09549,47.314902],[-3.094767,47.314918],[-3.09475,47.314681],[-3.094425,47.314687],[-3.094344,47.314913],[-3.094198,47.314896],[-3.093929,47.315106],[-3.093588,47.315067],[-3.092913,47.31526],[-3.092238,47.315255],[-3.092181,47.315403],[-3.091864,47.315508],[-3.09149,47.315459],[-3.091181,47.315481],[-3.091083,47.315431],[-3.090913,47.315481],[-3.09049,47.315481],[-3.090222,47.315431],[-3.08936,47.314852],[-3.088896,47.315018],[-3.088929,47.315376],[-3.088847,47.315811],[-3.088506,47.315828],[-3.087929,47.315988],[-3.086733,47.315734],[-3.086099,47.315762],[-3.085701,47.315844],[-3.085579,47.316021],[-3.085351,47.315971],[-3.085123,47.316076],[-3.085075,47.316219],[-3.084855,47.316203],[-3.084514,47.316037],[-3.084286,47.316164],[-3.084001,47.316164],[-3.083822,47.316126],[-3.083448,47.316192],[-3.08344,47.316363],[-3.083359,47.316423],[-3.083392,47.316517],[-3.083286,47.316555],[-3.082635,47.316296],[-3.081391,47.316153],[-3.080399,47.316186],[-3.079302,47.316313],[-3.079294,47.316451],[-3.079521,47.316594],[-3.07957,47.316715],[-3.079497,47.316842],[-3.079497,47.317041],[-3.079196,47.316996],[-3.079074,47.317145],[-3.078733,47.317234],[-3.078171,47.31703],[-3.078114,47.316876],[-3.07798,47.31677],[-3.077808,47.316803],[-3.077663,47.316719],[-3.077288,47.316617],[-3.076901,47.316658],[-3.076494,47.31661],[-3.076247,47.316617],[-3.07578,47.316559],[-3.075324,47.316668],[-3.074922,47.316868],[-3.074831,47.31709],[-3.074439,47.317105],[-3.074413,47.317251],[-3.074132,47.317374],[-3.073965,47.317343],[-3.073806,47.317266],[-3.073639,47.317246],[-3.073472,47.317138],[-3.073024,47.317004],[-3.072706,47.316814],[-3.072053,47.316721],[-3.071515,47.316778],[-3.07068,47.316654],[-3.070179,47.316808],[-3.069557,47.316685],[-3.068753,47.316459],[-3.068169,47.316402],[-3.067441,47.316412],[-3.067023,47.316469],[-3.066841,47.316299],[-3.06653,47.316207],[-3.066401,47.316114],[-3.066371,47.315955],[-3.066189,47.315847],[-3.065688,47.315708],[-3.06562,47.315589],[-3.06537,47.315492],[-3.065357,47.315377],[-3.06488,47.315232],[-3.064724,47.315097],[-3.06327,47.314737],[-3.063406,47.314505],[-3.062544,47.314154],[-3.06198,47.313756],[-3.061635,47.313382],[-3.061451,47.313133],[-3.061187,47.313008],[-3.060738,47.312868],[-3.060646,47.312665],[-3.060198,47.312501],[-3.059795,47.3124],[-3.059749,47.312299],[-3.059968,47.312213],[-3.05983,47.311784],[-3.059025,47.311706],[-3.058588,47.311535],[-3.057738,47.310376],[-3.057625,47.310017],[-3.057503,47.309841],[-3.057226,47.30967],[-3.05708,47.30951],[-3.05699,47.309251],[-3.057714,47.309334],[-3.058031,47.309428],[-3.058584,47.309417],[-3.058499,47.308701],[-3.058708,47.308346],[-3.059824,47.308145],[-3.058795,47.307708],[-3.05895,47.307652],[-3.059243,47.307685],[-3.059503,47.307608],[-3.059739,47.30779],[-3.059966,47.307862],[-3.060283,47.307774],[-3.060796,47.30795],[-3.061048,47.308099],[-3.061357,47.308137],[-3.061723,47.307818],[-3.061885,47.307807],[-3.062056,47.307834],[-3.062194,47.307647],[-3.062503,47.307707],[-3.062771,47.307685],[-3.062942,47.307834],[-3.063235,47.307878],[-3.063446,47.307818],[-3.063568,47.307911],[-3.064146,47.307968],[-3.064495,47.307838],[-3.065,47.307212],[-3.06507,47.306881],[-3.065715,47.306101],[-3.066219,47.305822],[-3.066235,47.305524],[-3.065959,47.305386],[-3.065951,47.305127],[-3.066048,47.304978],[-3.066341,47.304901],[-3.066406,47.304747],[-3.066341,47.304559],[-3.066585,47.304201],[-3.066634,47.303964],[-3.066764,47.30387],[-3.066975,47.303887],[-3.067113,47.303721],[-3.067268,47.303633],[-3.067235,47.303501],[-3.067252,47.303104],[-3.067054,47.302951],[-3.06716,47.302683],[-3.067418,47.302539],[-3.067448,47.30238],[-3.06735,47.301917],[-3.067008,47.301737],[-3.066917,47.301552],[-3.066659,47.301418],[-3.066485,47.301155],[-3.066234,47.300965],[-3.06576,47.300209],[-3.06591,47.300188],[-3.066328,47.300326],[-3.066918,47.300369],[-3.067015,47.300264],[-3.066865,47.300148],[-3.066924,47.300013],[-3.067283,47.30002],[-3.067541,47.299682],[-3.067676,47.299314],[-3.067661,47.299041],[-3.067956,47.298434],[-3.068184,47.298223],[-3.068321,47.298151],[-3.068404,47.298007],[-3.068609,47.298038],[-3.068677,47.297806],[-3.068662,47.297641],[-3.068799,47.297446],[-3.068806,47.297081],[-3.06834,47.296633],[-3.068377,47.296535],[-3.068667,47.296477],[-3.068957,47.296506],[-3.069161,47.296455],[-3.069381,47.296459],[-3.069686,47.296386],[-3.069992,47.296382],[-3.070244,47.296448],[-3.07062,47.296258],[-3.07084,47.296251],[-3.070899,47.296204],[-3.070866,47.29608],[-3.070942,47.296051],[-3.071086,47.296109],[-3.072116,47.295695],[-3.072481,47.295662],[-3.072701,47.295527],[-3.073002,47.2954],[-3.072969,47.294789],[-3.073087,47.294665],[-3.073302,47.294632],[-3.07372,47.294501],[-3.073919,47.294519],[-3.074166,47.294436],[-3.074284,47.294257],[-3.074359,47.294065],[-3.07452,47.294014],[-3.074938,47.294145],[-3.075078,47.294257],[-3.075179,47.29445],[-3.075367,47.294523],[-3.075609,47.294625],[-3.075759,47.294629],[-3.075914,47.294672],[-3.076108,47.294669],[-3.076676,47.294479],[-3.076864,47.294527],[-3.076944,47.294589],[-3.077073,47.294727],[-3.077175,47.294727],[-3.077288,47.294578],[-3.077213,47.294352],[-3.077105,47.294236],[-3.07718,47.293905],[-3.077068,47.293843],[-3.076816,47.29385],[-3.076741,47.293934],[-3.076413,47.293948],[-3.076365,47.293894],[-3.076521,47.29385],[-3.07658,47.293704],[-3.076081,47.293377],[-3.075995,47.293239],[-3.075995,47.29314],[-3.076204,47.29314],[-3.076301,47.293046],[-3.07648,47.292383],[-3.076394,47.292083],[-3.076532,47.29195],[-3.076365,47.291611],[-3.076641,47.291373],[-3.076865,47.290624],[-3.076848,47.290231],[-3.076532,47.289856],[-3.076658,47.289782],[-3.076572,47.289681],[-3.076739,47.289661],[-3.076943,47.28948],[-3.076838,47.289185],[-3.077407,47.288578],[-3.077602,47.28827],[-3.077659,47.28801],[-3.078529,47.287872],[-3.07835,47.287497],[-3.077716,47.287508],[-3.077163,47.28763],[-3.076514,47.287494],[-3.076218,47.287376],[-3.075755,47.287283],[-3.075679,47.287206],[-3.075725,47.287036],[-3.076165,47.286671],[-3.076552,47.28662],[-3.07703,47.286614],[-3.077303,47.286506],[-3.077538,47.286486],[-3.078155,47.286218],[-3.078253,47.285953],[-3.078432,47.285815],[-3.078643,47.285562],[-3.078993,47.285512],[-3.079838,47.285539],[-3.081082,47.285209],[-3.081343,47.2848],[-3.081578,47.284707],[-3.081765,47.28469],[-3.082058,47.28448],[-3.082562,47.284541],[-3.082944,47.284514],[-3.08318,47.284574],[-3.083993,47.284348],[-3.08427,47.284387],[-3.084497,47.284491],[-3.084709,47.284486],[-3.085457,47.284249],[-3.085636,47.284012],[-3.085928,47.283934],[-3.086058,47.283852],[-3.086522,47.283896],[-3.086798,47.28373],[-3.087368,47.283598],[-3.087628,47.283399],[-3.087831,47.282908],[-3.088294,47.282418],[-3.088441,47.282092],[-3.088449,47.281767],[-3.088652,47.281529],[-3.089417,47.280939],[-3.089847,47.280674],[-3.090165,47.280366],[-3.090498,47.28004],[-3.090693,47.279974],[-3.090945,47.279957],[-3.091213,47.279853],[-3.092767,47.279527],[-3.09336,47.279544],[-3.093994,47.279643],[-3.094141,47.279544],[-3.095092,47.279803],[-3.095263,47.28009],[-3.095246,47.280332],[-3.095027,47.280686],[-3.094482,47.281005],[-3.094181,47.28132],[-3.0941,47.281529],[-3.093783,47.281739],[-3.093791,47.282357],[-3.093856,47.282544],[-3.09384,47.282776],[-3.093864,47.282936],[-3.09388,47.283068],[-3.094043,47.283256],[-3.094401,47.283361],[-3.094507,47.283526],[-3.094498,47.283719],[-3.094767,47.283791],[-3.094947,47.283608],[-3.095103,47.283296],[-3.095252,47.283273],[-3.095758,47.283468],[-3.095735,47.283542],[-3.095517,47.283604],[-3.095591,47.283749],[-3.095856,47.283928],[-3.096293,47.284115],[-3.096914,47.284166],[-3.097218,47.284268],[-3.097362,47.284513],[-3.097477,47.284794],[-3.098011,47.284906],[-3.098412,47.284841],[-3.098917,47.284888],[-3.099361,47.284847],[-3.09964,47.284687],[-3.100442,47.284327],[-3.101096,47.284563],[-3.101157,47.284865],[-3.101287,47.285048],[-3.101261,47.285149],[-3.101749,47.285367],[-3.102359,47.285415],[-3.102812,47.285515],[-3.103117,47.285716],[-3.103431,47.285787],[-3.103945,47.285988],[-3.104529,47.286154],[-3.104817,47.286171],[-3.105601,47.286154],[-3.105792,47.286212],[-3.105803,47.286484],[-3.105983,47.28681],[-3.105983,47.287156],[-3.106383,47.287584],[-3.107194,47.288086],[-3.108455,47.288446],[-3.110007,47.288664],[-3.111258,47.288378],[-3.111008,47.288725],[-3.110998,47.288983],[-3.110778,47.28918],[-3.110978,47.28922],[-3.111191,47.289149],[-3.11147,47.289156],[-3.111867,47.289127],[-3.112146,47.289222],[-3.113111,47.28896],[-3.113562,47.289091],[-3.114023,47.289018],[-3.114442,47.289113],[-3.11456,47.289047],[-3.114742,47.289164],[-3.114785,47.289105],[-3.114978,47.289316],[-3.115075,47.289287],[-3.115128,47.289149],[-3.11515,47.288982],[-3.115396,47.289062],[-3.116673,47.288727],[-3.117059,47.289098],[-3.117703,47.28936],[-3.117853,47.289615],[-3.118497,47.290146],[-3.118626,47.290422],[-3.118594,47.290888],[-3.118701,47.291187],[-3.119495,47.29139],[-3.119806,47.291136],[-3.12031,47.290946],[-3.120857,47.290961],[-3.121651,47.291114],[-3.122156,47.29107],[-3.122596,47.291136],[-3.122982,47.291048],[-3.123207,47.290903],[-3.123507,47.290888],[-3.123658,47.290932],[-3.124141,47.290896],[-3.124559,47.290539],[-3.124827,47.290619],[-3.125246,47.290583],[-3.125889,47.290248],[-3.126415,47.290182],[-3.12708,47.289811],[-3.127542,47.289687],[-3.127595,47.289295],[-3.12811,47.288974],[-3.128357,47.28869],[-3.128647,47.288698],[-3.128947,47.288807],[-3.129065,47.288792],[-3.129355,47.288661],[-3.13002,47.2888],[-3.130299,47.289033],[-3.130395,47.289273],[-3.130299,47.289673],[-3.13031,47.289775],[-3.130867,47.289738],[-3.131801,47.289105],[-3.132477,47.288778],[-3.133378,47.288727],[-3.134086,47.288589],[-3.134794,47.288669],[-3.135835,47.288676],[-3.136296,47.288603],[-3.136504,47.288639],[-3.136562,47.289014],[-3.136786,47.289357],[-3.137039,47.289587],[-3.137401,47.289587],[-3.13797,47.289696],[-3.138344,47.28986],[-3.138177,47.29002],[-3.137993,47.290203],[-3.137976,47.290359],[-3.137873,47.290734],[-3.138557,47.291053],[-3.138579,47.291441],[-3.138859,47.291673],[-3.138829,47.291776],[-3.138715,47.291894],[-3.138692,47.292105],[-3.138571,47.292187],[-3.138541,47.292352],[-3.138184,47.292964],[-3.138343,47.293078],[-3.138503,47.293088],[-3.138579,47.293062],[-3.138692,47.293083],[-3.13895,47.292861],[-3.139216,47.292707],[-3.139368,47.292465],[-3.139534,47.292357],[-3.139542,47.292172],[-3.139732,47.291863],[-3.140043,47.291647],[-3.140096,47.291446],[-3.139853,47.291127],[-3.139937,47.290808],[-3.140248,47.290551],[-3.140938,47.290361],[-3.141196,47.290407],[-3.141568,47.290778],[-3.141886,47.290994],[-3.143957,47.291976],[-3.144276,47.291982],[-3.144648,47.291894],[-3.145073,47.292028],[-3.145406,47.292162],[-3.145839,47.292244],[-3.146431,47.292717],[-3.147015,47.292882],[-3.147341,47.293057],[-3.147379,47.293191],[-3.147022,47.293999],[-3.147095,47.294161],[-3.147428,47.294161],[-3.147934,47.293709],[-3.148302,47.293608],[-3.148705,47.29367],[-3.149452,47.294247],[-3.150683,47.294535],[-3.152098,47.294248],[-3.153057,47.294022],[-3.153326,47.294656],[-3.153456,47.294683],[-3.153838,47.294595],[-3.154293,47.29454],[-3.155033,47.294171],[-3.155115,47.29379],[-3.155342,47.293696],[-3.155846,47.293641],[-3.156302,47.293713],[-3.156659,47.293845],[-3.156944,47.29379],[-3.157294,47.293807],[-3.157684,47.293625],[-3.157838,47.293481],[-3.15792,47.29325],[-3.158107,47.293487],[-3.158603,47.293707],[-3.15892,47.294016],[-3.159058,47.294331],[-3.159026,47.294711],[-3.15917,47.295013],[-3.159454,47.295297],[-3.159454,47.295515],[-3.159565,47.295749],[-3.159565,47.2961],[-3.159823,47.296593],[-3.159848,47.296827],[-3.160144,47.296969],[-3.160982,47.297019],[-3.161389,47.297262],[-3.161549,47.29727],[-3.161709,47.297437],[-3.162029,47.297504],[-3.162066,47.297596],[-3.161746,47.297813],[-3.162158,47.297685],[-3.162201,47.297797],[-3.162357,47.297816],[-3.162668,47.297736],[-3.163195,47.29775],[-3.163596,47.297963],[-3.164084,47.298146],[-3.164302,47.298365],[-3.16472,47.298554],[-3.165226,47.298903],[-3.165653,47.299163],[-3.165801,47.299328],[-3.166141,47.299393],[-3.166516,47.299506],[-3.166812,47.299819],[-3.166681,47.300079],[-3.166882,47.300404],[-3.166838,47.300646],[-3.166899,47.300871],[-3.167195,47.301107],[-3.167335,47.301338],[-3.167099,47.301545],[-3.166716,47.301763],[-3.166455,47.301994],[-3.166394,47.302141],[-3.166603,47.30226],[-3.166707,47.302443],[-3.16696,47.302265],[-3.167736,47.302271],[-3.168328,47.301976],[-3.168746,47.302242],[-3.169191,47.302384],[-3.169339,47.302336],[-3.169444,47.30207],[-3.169783,47.301935],[-3.16974,47.301663],[-3.169644,47.301545],[-3.16947,47.300717],[-3.169513,47.300664],[-3.170298,47.300942],[-3.170812,47.301066],[-3.171204,47.301255],[-3.171431,47.301468],[-3.171483,47.301864],[-3.171858,47.302165],[-3.172197,47.302224],[-3.172468,47.302165],[-3.17272,47.301887],[-3.172929,47.301911],[-3.17313,47.301887],[-3.173452,47.302331],[-3.173661,47.30239],[-3.173836,47.302313],[-3.173923,47.302236],[-3.174359,47.302212],[-3.174576,47.302236],[-3.17489,47.302159],[-3.175448,47.302348],[-3.176215,47.302135],[-3.176389,47.302],[-3.176511,47.301757],[-3.176502,47.301604],[-3.176799,47.30119],[-3.176964,47.301125],[-3.177086,47.300959],[-3.177269,47.300936],[-3.177426,47.300658],[-3.177374,47.300404],[-3.1774,47.300262],[-3.177295,47.300043],[-3.178411,47.299701],[-3.178585,47.299695],[-3.17882,47.299594],[-3.179064,47.299547],[-3.179352,47.299317],[-3.179701,47.299506],[-3.17977,47.299659],[-3.180084,47.299754],[-3.180467,47.300002],[-3.18086,47.29999],[-3.181086,47.300091],[-3.181417,47.300144],[-3.181688,47.300298],[-3.182019,47.300699],[-3.182664,47.300315],[-3.183003,47.299984],[-3.183282,47.299919],[-3.183587,47.299582],[-3.183387,47.299399],[-3.183169,47.298531],[-3.182934,47.298377],[-3.182707,47.298324],[-3.182594,47.297999],[-3.182916,47.297514],[-3.183361,47.297402],[-3.183561,47.297165],[-3.183448,47.296935],[-3.182794,47.296787],[-3.182881,47.296592],[-3.182664,47.296409],[-3.182768,47.296208],[-3.18296,47.296042],[-3.183178,47.295788],[-3.183596,47.295575],[-3.184194,47.296384],[-3.184342,47.296484],[-3.184564,47.296547],[-3.184737,47.296735],[-3.185051,47.296886],[-3.18563,47.296902],[-3.185747,47.296948],[-3.186031,47.296739],[-3.186413,47.296363],[-3.186678,47.296326],[-3.187325,47.296409],[-3.187768,47.296572],[-3.188933,47.296601],[-3.189038,47.296877],[-3.189549,47.297019],[-3.18982,47.296944],[-3.190166,47.296936],[-3.1904,47.296773],[-3.190665,47.296413],[-3.191113,47.296058],[-3.191417,47.295637],[-3.192038,47.295547],[-3.1925,47.295386],[-3.192513,47.295251],[-3.192249,47.294974],[-3.192236,47.294848],[-3.192566,47.294687],[-3.193372,47.294472],[-3.193834,47.294239],[-3.194142,47.29416],[-3.194301,47.294179],[-3.1946,47.294489],[-3.194833,47.294584],[-3.195132,47.294616],[-3.195403,47.294774],[-3.19601,47.294863],[-3.196617,47.29497],[-3.197168,47.295199],[-3.197458,47.295414],[-3.198167,47.295338],[-3.199419,47.295522],[-3.199951,47.29575],[-3.200241,47.296079],[-3.199989,47.296706],[-3.200885,47.296757],[-3.201492,47.296997],[-3.201633,47.297251],[-3.201595,47.297517],[-3.201539,47.298036],[-3.201296,47.298486],[-3.200979,47.298771],[-3.200801,47.298809],[-3.200521,47.298986],[-3.200091,47.299113],[-3.19955,47.299208],[-3.199148,47.299335],[-3.198999,47.299474],[-3.198588,47.299538],[-3.198466,47.299658],[-3.198298,47.299709],[-3.198261,47.300152],[-3.197915,47.300431],[-3.197654,47.3005],[-3.197327,47.300747],[-3.197205,47.300937],[-3.197019,47.301051],[-3.196944,47.30126],[-3.197532,47.30126],[-3.197812,47.301381],[-3.19827,47.301273],[-3.198317,47.301121],[-3.199223,47.300912],[-3.199391,47.300963],[-3.199746,47.300855],[-3.199774,47.30045],[-3.200063,47.300285],[-3.200577,47.300165],[-3.20068,47.299905],[-3.200988,47.299759],[-3.201128,47.299867],[-3.201446,47.299892],[-3.201857,47.299804],[-3.202128,47.299804],[-3.202557,47.299759],[-3.202847,47.299595],[-3.203323,47.299601],[-3.203547,47.299398],[-3.203977,47.2995],[-3.204154,47.299233],[-3.204145,47.298923],[-3.204042,47.298771],[-3.204322,47.298746],[-3.2045,47.298651],[-3.204472,47.29853],[-3.204687,47.298454],[-3.204874,47.298518],[-3.205266,47.298416],[-3.205284,47.298125],[-3.205397,47.298068],[-3.205434,47.297777],[-3.205789,47.297504],[-3.205864,47.297257],[-3.206321,47.296972],[-3.206788,47.296883],[-3.207012,47.296858],[-3.207321,47.296776],[-3.2079,47.296826],[-3.207937,47.2967],[-3.208133,47.296776],[-3.208236,47.296738],[-3.208423,47.296947],[-3.208544,47.296953],[-3.208553,47.296763],[-3.208666,47.296668],[-3.208264,47.296199],[-3.208376,47.29594],[-3.208255,47.295712],[-3.208497,47.29561],[-3.208432,47.295427],[-3.208124,47.295287],[-3.207853,47.295249],[-3.207629,47.295122],[-3.207367,47.295141],[-3.207115,47.295072],[-3.20677,47.29492],[-3.20677,47.294818],[-3.206433,47.294679],[-3.206265,47.294394],[-3.20648,47.294489],[-3.206545,47.29435],[-3.206723,47.294432],[-3.206826,47.294559],[-3.207078,47.294521],[-3.2069,47.294305],[-3.207732,47.294229],[-3.207853,47.294134],[-3.208161,47.294261],[-3.208395,47.294476],[-3.209572,47.295154],[-3.209795,47.295207],[-3.210104,47.295235],[-3.211356,47.295445],[-3.211747,47.295671],[-3.212023,47.295643],[-3.212413,47.295737],[-3.212592,47.295615],[-3.212869,47.295505],[-3.213007,47.295318],[-3.213072,47.295081],[-3.213397,47.294838],[-3.213893,47.294706],[-3.214324,47.29411],[-3.214633,47.293884],[-3.214983,47.293851],[-3.215202,47.293889],[-3.215617,47.294082],[-3.216739,47.294292],[-3.217341,47.294198],[-3.217591,47.294074],[-3.217705,47.293808],[-3.217923,47.293767],[-3.21835,47.293932],[-3.218663,47.294145],[-3.218899,47.294251],[-3.219108,47.294411],[-3.2195,47.294541],[-3.219596,47.294636],[-3.22004,47.294598],[-3.219525,47.294848],[-3.22004,47.294983],[-3.220582,47.295422],[-3.221123,47.295601],[-3.221321,47.295834],[-3.221916,47.296067],[-3.222523,47.296004],[-3.222933,47.296111],[-3.22358,47.296461],[-3.224241,47.296604],[-3.224742,47.296936],[-3.224835,47.297151],[-3.224584,47.297285],[-3.224214,47.297303],[-3.223554,47.296963],[-3.223197,47.296989],[-3.222708,47.297276],[-3.222418,47.297303],[-3.222286,47.297357],[-3.221889,47.297419],[-3.221718,47.297491],[-3.221916,47.297715],[-3.221797,47.297948],[-3.221982,47.298333],[-3.221837,47.298485],[-3.221797,47.298673],[-3.221691,47.298736],[-3.222035,47.299059],[-3.222404,47.299059],[-3.222563,47.299175],[-3.222484,47.299372],[-3.222682,47.299775],[-3.22222,47.300143],[-3.222312,47.300187],[-3.222629,47.300125],[-3.223369,47.30034],[-3.223554,47.300134],[-3.223831,47.300062],[-3.224143,47.299828],[-3.224328,47.299807],[-3.224877,47.300116],[-3.225086,47.300291],[-3.225394,47.300354],[-3.225678,47.300379],[-3.226152,47.300759],[-3.226621,47.30091],[-3.226978,47.300734],[-3.227033,47.300626],[-3.226978,47.300421],[-3.227095,47.300358],[-3.227366,47.300417],[-3.227687,47.300642],[-3.22768,47.300881],[-3.227822,47.301131],[-3.227699,47.301294],[-3.227452,47.301315],[-3.227009,47.301591],[-3.226688,47.301917],[-3.226701,47.302067],[-3.226849,47.302272],[-3.226885,47.302573],[-3.226947,47.302807],[-3.226812,47.302991],[-3.226756,47.303091],[-3.226473,47.303171],[-3.226436,47.303384],[-3.226516,47.303517],[-3.226146,47.303814],[-3.225752,47.304015],[-3.225616,47.304153],[-3.225783,47.304174],[-3.225783,47.304281],[-3.226018,47.304369],[-3.226175,47.304352],[-3.226585,47.304222],[-3.227212,47.30408],[-3.22743,47.304103],[-3.227613,47.304198],[-3.22784,47.304109],[-3.227691,47.303861],[-3.227848,47.303743],[-3.227901,47.30353],[-3.228084,47.303341],[-3.228284,47.303229],[-3.228424,47.302981],[-3.228502,47.302762],[-3.228598,47.302951],[-3.228737,47.302998],[-3.22926,47.302821],[-3.229461,47.302549],[-3.229783,47.302401],[-3.230428,47.302431],[-3.231057,47.302244],[-3.231432,47.30231],[-3.231781,47.302376],[-3.232009,47.302624],[-3.232326,47.302685],[-3.232505,47.302773],[-3.232806,47.302789],[-3.233041,47.302872],[-3.233228,47.30285],[-3.233521,47.302668],[-3.233879,47.302591],[-3.234294,47.302359],[-3.234798,47.302249],[-3.23518,47.30226],[-3.235733,47.302519],[-3.235993,47.302696],[-3.236318,47.302723],[-3.236562,47.302889],[-3.236492,47.303237],[-3.236948,47.303705],[-3.236406,47.304056],[-3.236012,47.30429],[-3.237343,47.304824],[-3.237578,47.305094],[-3.237709,47.305667],[-3.237718,47.306607],[-3.237637,47.307246],[-3.237338,47.308003],[-3.23743,47.308322],[-3.23781,47.308416],[-3.237971,47.308977],[-3.237821,47.309188],[-3.238108,47.309406],[-3.238281,47.309632],[-3.238568,47.309796],[-3.23881,47.3101],[-3.238994,47.310256],[-3.239178,47.31035],[-3.239362,47.310505],[-3.239741,47.310716],[-3.239707,47.31095],[-3.239833,47.311168],[-3.240063,47.311192],[-3.240661,47.31088],[-3.242674,47.310045],[-3.243375,47.309866],[-3.24372,47.309905],[-3.244295,47.310131],[-3.244513,47.310373],[-3.244594,47.310778],[-3.244927,47.311051],[-3.245307,47.311979],[-3.245226,47.31215],[-3.244628,47.312306],[-3.244559,47.31247],[-3.244858,47.31272],[-3.245249,47.312883],[-3.24564,47.313],[-3.245905,47.313164],[-3.246491,47.31378],[-3.246767,47.314209],[-3.246721,47.314427],[-3.24633,47.314669],[-3.245433,47.314957],[-3.244939,47.315043],[-3.243225,47.315066],[-3.242708,47.31544],[-3.242286,47.315436],[-3.242067,47.316385],[-3.242376,47.317548],[-3.242351,47.318441],[-3.242489,47.319076],[-3.242698,47.31969],[-3.243012,47.320275],[-3.242977,47.320434],[-3.242707,47.320582],[-3.242506,47.320547],[-3.242219,47.320363],[-3.241161,47.320007],[-3.240448,47.319371],[-3.240382,47.319237],[-3.238532,47.31878],[-3.238229,47.318834],[-3.237964,47.318717],[-3.237779,47.318726],[-3.237661,47.318845],[-3.238114,47.319507],[-3.238332,47.319678],[-3.23848,47.319914],[-3.23848,47.320109],[-3.238558,47.320293],[-3.238587,47.320827],[-3.23905,47.321197],[-3.239262,47.321318],[-3.239287,47.321513],[-3.239178,47.321677],[-3.23889,47.321821],[-3.238557,47.322172],[-3.23839,47.322522],[-3.238338,47.322893],[-3.238074,47.32324],[-3.237672,47.323497],[-3.237453,47.323571],[-3.237183,47.323551],[-3.237016,47.323466],[-3.236907,47.323282],[-3.23648,47.323784],[-3.236085,47.324068],[-3.235716,47.323884],[-3.235648,47.323719],[-3.235238,47.323406],[-3.235064,47.323642],[-3.235143,47.323792],[-3.235124,47.323984],[-3.235291,47.324431],[-3.235432,47.324703],[-3.235414,47.324991],[-3.235284,47.325091],[-3.234448,47.325038],[-3.233546,47.324928],[-3.233147,47.325071],[-3.233098,47.325253],[-3.233041,47.325788],[-3.233757,47.325959],[-3.233928,47.326052],[-3.234456,47.326201],[-3.23465,47.326311],[-3.235085,47.326583],[-3.235349,47.326847],[-3.23556,47.327004],[-3.23562,47.32717],[-3.235481,47.327461],[-3.235488,47.327626],[-3.235329,47.327823],[-3.234504,47.328343],[-3.233977,47.328578],[-3.233837,47.328759],[-3.233923,47.328919],[-3.233913,47.328963],[-3.234004,47.329079],[-3.233972,47.329148],[-3.234197,47.329196],[-3.234342,47.329287],[-3.234653,47.329308],[-3.235624,47.32929],[-3.236069,47.328934],[-3.236529,47.328763],[-3.236837,47.328696],[-3.23701,47.328596],[-3.237158,47.328211],[-3.237848,47.328353],[-3.238279,47.328328],[-3.23839,47.328403],[-3.2386,47.32847],[-3.238969,47.328972],[-3.239475,47.328662],[-3.240251,47.328562],[-3.241249,47.329038],[-3.241681,47.329322],[-3.242297,47.32964],[-3.242679,47.329915],[-3.243234,47.330208],[-3.243221,47.330475],[-3.242728,47.330742],[-3.242426,47.331045],[-3.242191,47.331478],[-3.242231,47.331634],[-3.242179,47.331735],[-3.242524,47.332109],[-3.242806,47.332366],[-3.243205,47.332098],[-3.243725,47.331971],[-3.243945,47.331861],[-3.244262,47.331591],[-3.244742,47.331514],[-3.24497,47.331327],[-3.245742,47.330935],[-3.246327,47.33077],[-3.246791,47.330726],[-3.247132,47.330842],[-3.247327,47.331045],[-3.247344,47.331497],[-3.247466,47.331845],[-3.247775,47.332352],[-3.247693,47.332533],[-3.247206,47.333024],[-3.246905,47.333999],[-3.246701,47.334638],[-3.246319,47.335057],[-3.24584,47.335482],[-3.245961,47.335526],[-3.246612,47.335184],[-3.246856,47.335366],[-3.246742,47.335713],[-3.246872,47.335812],[-3.247319,47.335735],[-3.247604,47.335999],[-3.247669,47.336132],[-3.248722,47.336477],[-3.249159,47.336664],[-3.249964,47.336664],[-3.250435,47.336578],[-3.250757,47.33661],[-3.251344,47.336586],[-3.251758,47.336617],[-3.252126,47.336625],[-3.252689,47.336875],[-3.252971,47.337065],[-3.253074,47.337194],[-3.253138,47.337401],[-3.252982,47.337693],[-3.252913,47.337876],[-3.252735,47.337958],[-3.252183,47.337872],[-3.251936,47.337849],[-3.251654,47.338129],[-3.25158,47.338496],[-3.251678,47.338887],[-3.251564,47.339179],[-3.251043,47.339768],[-3.251108,47.33995],[-3.2511,47.340044],[-3.251417,47.340121],[-3.251604,47.340308],[-3.251848,47.340386],[-3.2521,47.340369],[-3.252247,47.340722],[-3.252597,47.340182],[-3.252781,47.340069],[-3.252971,47.340058],[-3.253327,47.340151],[-3.2535,47.340241],[-3.253597,47.340603],[-3.25362,47.341164],[-3.253833,47.341819],[-3.253988,47.342388],[-3.254299,47.342945],[-3.25469,47.343474],[-3.254776,47.343829],[-3.254868,47.344429],[-3.255368,47.344741],[-3.25565,47.345006],[-3.255644,47.34543],[-3.255506,47.345629],[-3.254592,47.346205],[-3.254161,47.346537],[-3.253839,47.347035],[-3.253894,47.347453],[-3.253868,47.347847],[-3.253617,47.348098],[-3.253128,47.348205],[-3.252745,47.348599],[-3.252613,47.348867],[-3.252705,47.348876],[-3.252745,47.349145],[-3.252705,47.349315],[-3.2533,47.349771],[-3.254687,47.349646],[-3.25499,47.3497],[-3.255387,47.3497],[-3.255836,47.349476],[-3.25606,47.349476],[-3.256351,47.349744],[-3.256589,47.350156],[-3.25647,47.350648],[-3.256496,47.351006],[-3.256681,47.351212],[-3.257626,47.351723],[-3.258149,47.352514],[-3.259158,47.353065],[-3.259793,47.353331],[-3.260062,47.353774],[-3.260012,47.353991],[-3.258891,47.355036],[-3.25838,47.355544],[-3.25837,47.355843],[-3.25845,47.356175],[-3.25838,47.356622],[-3.25818,47.356839],[-3.2579,47.357016],[-3.257259,47.357952],[-3.257145,47.358205],[-3.257202,47.358445],[-3.257704,47.359015],[-3.258412,47.359715],[-3.259211,47.360739],[-3.259421,47.361315],[-3.259522,47.36164],[-3.259482,47.361817],[-3.260686,47.361822],[-3.260751,47.361952],[-3.260601,47.362185],[-3.260729,47.362418],[-3.260365,47.362723],[-3.259313,47.363231],[-3.25912,47.363508],[-3.259292,47.363755],[-3.259356,47.364438],[-3.259206,47.36483],[-3.259411,47.365214],[-3.259552,47.365777],[-3.259672,47.366109],[-3.259652,47.366692],[-3.259492,47.367112],[-3.259431,47.367773],[-3.259281,47.367897],[-3.258998,47.367902],[-3.258543,47.367758],[-3.258255,47.367871],[-3.257708,47.368025],[-3.257147,47.368302],[-3.256358,47.368405],[-3.255872,47.368446],[-3.255751,47.368539],[-3.255448,47.368621],[-3.255417,47.368712],[-3.255618,47.369011],[-3.255768,47.369099],[-3.255628,47.369105],[-3.255217,47.368956],[-3.254807,47.368861],[-3.254626,47.368522],[-3.254376,47.368312],[-3.254216,47.368258],[-3.253966,47.368244],[-3.253706,47.36817],[-3.253435,47.36838],[-3.253445,47.368529],[-3.253545,47.368672],[-3.253485,47.368766],[-3.253525,47.368963],[-3.253495,47.3692],[-3.253515,47.369478],[-3.253355,47.370075],[-3.253375,47.370272],[-3.252835,47.370746],[-3.252374,47.370705],[-3.252084,47.371072],[-3.252094,47.371234],[-3.251944,47.371478],[-3.251994,47.371614],[-3.251794,47.371682],[-3.251463,47.371492],[-3.250783,47.371397],[-3.250312,47.371146],[-3.250152,47.370997],[-3.249761,47.370909],[-3.249491,47.37099],[-3.24842,47.370814],[-3.2483,47.370665],[-3.24787,47.370766],[-3.247519,47.370685],[-3.247319,47.370489],[-3.247101,47.370531],[-3.246478,47.37033],[-3.246308,47.370426],[-3.246223,47.370781],[-3.245756,47.370934],[-3.245869,47.371452],[-3.245784,47.371902],[-3.245968,47.372034],[-3.246088,47.372204],[-3.246078,47.372441],[-3.246188,47.372522],[-3.246548,47.372712],[-3.247169,47.373017],[-3.247289,47.373139],[-3.247859,47.373248],[-3.2485,47.373499],[-3.24868,47.373682],[-3.2487,47.374027],[-3.248841,47.374082],[-3.249101,47.374061],[-3.249341,47.374143],[-3.249021,47.374393],[-3.24879,47.37482],[-3.248991,47.374929],[-3.249381,47.374915],[-3.249611,47.374997],[-3.250152,47.374956],[-3.250442,47.375044],[-3.250773,47.375065],[-3.251143,47.375132],[-3.251343,47.375214],[-3.251563,47.375241],[-3.252094,47.37539],[-3.252464,47.375539],[-3.252745,47.375573],[-3.252815,47.375661],[-3.252735,47.375959],[-3.252224,47.376312],[-3.252094,47.376502],[-3.252154,47.376624],[-3.252394,47.376874],[-3.252114,47.377295],[-3.251533,47.377552],[-3.251143,47.377613],[-3.250803,47.37764],[-3.250342,47.377796],[-3.250052,47.378034],[-3.249691,47.378101],[-3.249211,47.378318],[-3.24863,47.378447],[-3.24841,47.378603],[-3.24865,47.378827],[-3.24873,47.37901],[-3.24871,47.379139],[-3.24833,47.379376],[-3.24815,47.379545],[-3.24789,47.379721],[-3.24792,47.380115],[-3.247729,47.380515],[-3.247769,47.38067],[-3.247669,47.380847],[-3.247759,47.381145],[-3.247619,47.381484],[-3.24791,47.381897],[-3.247859,47.382236],[-3.24804,47.382419],[-3.24839,47.382575],[-3.249051,47.382738],[-3.249341,47.383002],[-3.249041,47.383246],[-3.24876,47.383253],[-3.248615,47.383684],[-3.248809,47.383713],[-3.249033,47.383713],[-3.249182,47.383783],[-3.249444,47.383789],[-3.249472,47.383865],[-3.24936,47.384036],[-3.249435,47.384403],[-3.249341,47.384548],[-3.249117,47.384618],[-3.248986,47.384605],[-3.248743,47.384706],[-3.248622,47.385307],[-3.248482,47.385326],[-3.24837,47.38549],[-3.247763,47.385857],[-3.248162,47.38644],[-3.24831,47.386552],[-3.248205,47.386652],[-3.248728,47.386912],[-3.248955,47.387148],[-3.24885,47.387454],[-3.248937,47.387519],[-3.249234,47.387407],[-3.249356,47.387248],[-3.249975,47.387454],[-3.250219,47.387378],[-3.250306,47.387401],[-3.250184,47.387614],[-3.250123,47.387926],[-3.250201,47.388103],[-3.250402,47.388174],[-3.250768,47.388151],[-3.251317,47.388009],[-3.251751,47.387761],[-3.251947,47.387748],[-3.252199,47.387855],[-3.252274,47.387982],[-3.252479,47.388026],[-3.252694,47.388026],[-3.25276,47.38814],[-3.252526,47.388304],[-3.252199,47.388602],[-3.252069,47.38881],[-3.252209,47.388968],[-3.252115,47.389209],[-3.252377,47.389626],[-3.252311,47.389645],[-3.252143,47.38955],[-3.25205,47.389436],[-3.251826,47.389367],[-3.251359,47.388893],[-3.251377,47.388785],[-3.251275,47.388785],[-3.250901,47.388836],[-3.250611,47.388817],[-3.250378,47.388722],[-3.25007,47.388836],[-3.249407,47.388987],[-3.24922,47.38893],[-3.24921,47.388804],[-3.249705,47.388557],[-3.249939,47.3885],[-3.250004,47.388425],[-3.250257,47.388355],[-3.250154,47.388184],[-3.250226,47.388087],[-3.250156,47.387927],[-3.25014,47.387702],[-3.25022,47.387495],[-3.250306,47.387389],[-3.250178,47.387382],[-3.25,47.387465],[-3.249341,47.387237],[-3.249185,47.387451],[-3.248949,47.387531],[-3.248858,47.387498],[-3.248847,47.3874],[-3.248954,47.387186],[-3.248922,47.387088],[-3.248697,47.386906],[-3.248456,47.386797],[-3.248375,47.38683],[-3.248182,47.386801],[-3.248059,47.386706],[-3.247639,47.386764],[-3.247587,47.386912],[-3.247351,47.387159],[-3.247247,47.387395],[-3.24702,47.387472],[-3.246463,47.387354],[-3.246018,47.387325],[-3.245617,47.38733],[-3.245373,47.387389],[-3.245155,47.387313],[-3.245033,47.387177],[-3.24506,47.387094],[-3.245173,47.387053],[-3.245225,47.386876],[-3.245321,47.386788],[-3.245373,47.386617],[-3.245112,47.386646],[-3.244972,47.386599],[-3.245103,47.386422],[-3.24499,47.386215],[-3.24499,47.386032],[-3.244824,47.385873],[-3.244676,47.386009],[-3.244484,47.386369],[-3.244171,47.386499],[-3.244023,47.386463],[-3.243874,47.386145],[-3.243622,47.386032],[-3.24363,47.385838],[-3.2434,47.385588],[-3.243184,47.385442],[-3.242722,47.385451],[-3.242513,47.385221],[-3.242488,47.385029],[-3.242445,47.384937],[-3.24242,47.384804],[-3.242482,47.384675],[-3.242411,47.384504],[-3.242467,47.384352],[-3.242448,47.384143],[-3.242411,47.384023],[-3.242635,47.383821],[-3.242635,47.383682],[-3.242514,47.383587],[-3.242392,47.383391],[-3.241935,47.383245],[-3.241972,47.383005],[-3.241775,47.382909],[-3.241504,47.382958],[-3.241313,47.382962],[-3.241333,47.3829],[-3.241234,47.382904],[-3.241207,47.382855],[-3.241029,47.382837],[-3.241055,47.38273],[-3.240943,47.382636],[-3.240639,47.38256],[-3.240144,47.382497],[-3.239992,47.382417],[-3.239556,47.382421],[-3.239457,47.382301],[-3.239107,47.382256],[-3.238803,47.382296],[-3.238823,47.382198],[-3.238671,47.382037],[-3.238413,47.381983],[-3.238229,47.382001],[-3.238161,47.382039],[-3.238011,47.38201],[-3.23792,47.381905],[-3.237732,47.381789],[-3.237464,47.381709],[-3.237244,47.381614],[-3.237137,47.381483],[-3.237072,47.381291],[-3.236933,47.381178],[-3.236938,47.381055],[-3.23719,47.380797],[-3.237163,47.380662],[-3.23718,47.380554],[-3.237045,47.380198],[-3.237056,47.38003],[-3.237228,47.379896],[-3.237362,47.379758],[-3.237646,47.379714],[-3.237813,47.37918],[-3.23719,47.378824],[-3.237008,47.378828],[-3.236895,47.378803],[-3.236713,47.378814],[-3.236627,47.378745],[-3.236509,47.378519],[-3.236321,47.378483],[-3.236262,47.37832],[-3.235887,47.378207],[-3.235388,47.378759],[-3.235109,47.37914],[-3.235002,47.379101],[-3.234889,47.379101],[-3.234685,47.379017],[-3.234508,47.379024],[-3.234411,47.379148],[-3.234267,47.379148],[-3.233966,47.378977],[-3.2338,47.378919],[-3.233864,47.378726],[-3.233816,47.378657],[-3.233832,47.378617],[-3.233677,47.378556],[-3.233086,47.378632],[-3.232802,47.378603],[-3.232716,47.378841],[-3.23235,47.379007],[-3.232147,47.378968],[-3.231936,47.378841],[-3.231822,47.378852],[-3.231708,47.378709],[-3.231545,47.378616],[-3.231448,47.378395],[-3.231001,47.378269],[-3.230537,47.378302],[-3.230253,47.3785],[-3.230106,47.378577],[-3.22996,47.378693],[-3.229651,47.378841],[-3.229521,47.378841],[-3.229383,47.378896],[-3.229155,47.378891],[-3.229155,47.378775],[-3.228626,47.378456],[-3.228391,47.378362],[-3.228025,47.378247],[-3.227919,47.377999],[-3.227764,47.378021],[-3.227569,47.378164],[-3.227334,47.378142],[-3.227187,47.378043],[-3.227033,47.378048],[-3.226951,47.377933],[-3.226781,47.377856],[-3.226309,47.377993],[-3.226195,47.378148],[-3.225919,47.377993],[-3.225957,47.37784],[-3.225941,47.377666],[-3.226038,47.377549],[-3.226,47.377437],[-3.226027,47.377328],[-3.225839,47.377095],[-3.225726,47.377063],[-3.225539,47.377055],[-3.225544,47.376943],[-3.225212,47.377284],[-3.225056,47.377637],[-3.225002,47.377691],[-3.224986,47.377771],[-3.224805,47.377872],[-3.224667,47.377839],[-3.224065,47.377922],[-3.223748,47.377916],[-3.22317,47.378065],[-3.222756,47.378467],[-3.22239,47.378324],[-3.222122,47.378599],[-3.221439,47.378797],[-3.220617,47.378918],[-3.220349,47.378984],[-3.220162,47.379067],[-3.220032,47.37904],[-3.219772,47.378825],[-3.219178,47.378528],[-3.219194,47.378043],[-3.219276,47.377977],[-3.2193,47.377817],[-3.219273,47.377518],[-3.218768,47.377152],[-3.21855,47.377057],[-3.218533,47.376827],[-3.218689,47.376621],[-3.219169,47.376414],[-3.22011,47.376166],[-3.220066,47.375895],[-3.219831,47.375818],[-3.21923,47.375736],[-3.218977,47.375021],[-3.218986,47.374868],[-3.218864,47.374797],[-3.218872,47.374597],[-3.21882,47.374543],[-3.218672,47.374585],[-3.218559,47.37449],[-3.218554,47.374327],[-3.218517,47.37411],[-3.218597,47.373805],[-3.218591,47.373509],[-3.218536,47.3734],[-3.218604,47.373208],[-3.218708,47.373066],[-3.218906,47.373],[-3.218992,47.372962],[-3.219251,47.373016],[-3.219331,47.372995],[-3.21983,47.372374],[-3.2202,47.372286],[-3.220797,47.371506],[-3.22121,47.371472],[-3.221321,47.371184],[-3.221179,47.370767],[-3.221358,47.370124],[-3.221235,47.369465],[-3.222386,47.368667],[-3.222461,47.368477],[-3.222274,47.368331],[-3.222003,47.368243],[-3.221377,47.368224],[-3.221219,47.368091],[-3.221078,47.367711],[-3.220714,47.367376],[-3.220126,47.366661],[-3.21978,47.366383],[-3.219631,47.36613],[-3.219733,47.365662],[-3.21978,47.364694],[-3.219612,47.364276],[-3.219117,47.363669],[-3.218529,47.363081],[-3.218267,47.363011],[-3.217996,47.363049],[-3.217865,47.363169],[-3.217884,47.363416],[-3.217837,47.363713],[-3.218108,47.364213],[-3.21808,47.364612],[-3.218024,47.365213],[-3.217697,47.365731],[-3.217473,47.365845],[-3.217511,47.366029],[-3.217445,47.366212],[-3.217253,47.366656],[-3.217306,47.366906],[-3.21757,47.367031],[-3.218085,47.367506],[-3.218151,47.367837],[-3.218217,47.368248],[-3.218693,47.368848],[-3.218785,47.369152],[-3.218548,47.369671],[-3.218719,47.370207],[-3.2186,47.370431],[-3.218297,47.370458],[-3.217847,47.370914],[-3.217332,47.371361],[-3.217293,47.371826],[-3.217081,47.372149],[-3.216941,47.37219],[-3.216829,47.372329],[-3.21667,47.372373],[-3.216539,47.372462],[-3.216483,47.372462],[-3.216287,47.372721],[-3.216128,47.372614],[-3.216007,47.372734],[-3.215904,47.373031],[-3.215783,47.373082],[-3.215633,47.372943],[-3.215465,47.372955],[-3.215204,47.373196],[-3.215091,47.373196],[-3.214877,47.373373],[-3.214615,47.373347],[-3.21455,47.373164],[-3.214242,47.372962],[-3.213943,47.372968],[-3.213382,47.373132],[-3.213083,47.37317],[-3.212738,47.37324],[-3.212588,47.373196],[-3.212542,47.372905],[-3.212233,47.372766],[-3.212196,47.372601],[-3.212019,47.372449],[-3.211533,47.372392],[-3.211309,47.372494],[-3.210636,47.373132],[-3.209786,47.372709],[-3.20902,47.372677],[-3.208395,47.372481],[-3.208199,47.372475],[-3.208189,47.372304],[-3.208264,47.372095],[-3.20832,47.371848],[-3.208441,47.371608],[-3.208264,47.371633],[-3.207918,47.371924],[-3.207704,47.371823],[-3.207834,47.371602],[-3.207825,47.371374],[-3.207946,47.370944],[-3.207722,47.370773],[-3.20747,47.370754],[-3.207199,47.370836],[-3.207059,47.370602],[-3.206517,47.370526],[-3.206256,47.370482],[-3.205808,47.370533],[-3.205555,47.370703],[-3.205228,47.371045],[-3.20492,47.371102],[-3.204799,47.37107],[-3.204668,47.371102],[-3.2045,47.370906],[-3.204397,47.370931],[-3.203968,47.371342],[-3.203874,47.371412],[-3.203781,47.371583],[-3.203445,47.371621],[-3.203342,47.37181],[-3.202464,47.371987],[-3.202305,47.371981],[-3.201819,47.371893],[-3.201502,47.371519],[-3.201446,47.371342],[-3.201212,47.37126],[-3.200876,47.371266],[-3.20068,47.371311],[-3.200465,47.371216],[-3.200428,47.371051],[-3.200278,47.370855],[-3.20025,47.370609],[-3.199923,47.370412],[-3.200185,47.369944],[-3.200157,47.369748],[-3.200194,47.369615],[-3.200119,47.369521],[-3.199933,47.369571],[-3.199849,47.369723],[-3.199662,47.369805],[-3.199475,47.369799],[-3.199494,47.369748],[-3.199662,47.369641],[-3.1994,47.369666],[-3.199129,47.369571],[-3.198728,47.369331],[-3.197906,47.369305],[-3.197756,47.369249],[-3.197579,47.369249],[-3.19757,47.36916],[-3.197467,47.369078],[-3.197467,47.36873],[-3.197588,47.368597],[-3.197616,47.368414],[-3.197486,47.368198],[-3.197663,47.368135],[-3.197943,47.367882],[-3.197934,47.367654],[-3.19799,47.367376],[-3.197579,47.36737],[-3.197448,47.367275],[-3.197056,47.367414],[-3.196617,47.367401],[-3.196346,47.367212],[-3.19615,47.367212],[-3.195991,47.367003],[-3.195702,47.366883],[-3.195244,47.367053],[-3.195197,47.36694],[-3.195253,47.366826],[-3.19516,47.366699],[-3.195235,47.366434],[-3.195207,47.366187],[-3.195253,47.366086],[-3.195188,47.365959],[-3.19501,47.365833],[-3.195141,47.365643],[-3.195048,47.365307],[-3.194945,47.365352],[-3.194889,47.365244],[-3.194506,47.365516],[-3.193852,47.365478],[-3.193628,47.365352],[-3.193264,47.365371],[-3.193114,47.365333],[-3.192918,47.365339],[-3.192806,47.365061],[-3.192825,47.364947],[-3.192685,47.364593],[-3.192769,47.36446],[-3.192657,47.36439],[-3.192395,47.364396],[-3.192143,47.364447],[-3.191854,47.364396],[-3.191732,47.364415],[-3.191629,47.364618],[-3.191433,47.364694],[-3.191209,47.364688],[-3.191134,47.364548],[-3.190966,47.364498],[-3.191125,47.363979],[-3.191415,47.363498],[-3.19162,47.363403],[-3.191704,47.363289],[-3.191461,47.36322],[-3.191293,47.362979],[-3.191125,47.362866],[-3.190836,47.36296],[-3.190481,47.363163],[-3.189948,47.363207],[-3.189761,47.363289],[-3.189733,47.363479],[-3.189481,47.363612],[-3.189201,47.363625],[-3.188799,47.363701],[-3.188529,47.363644],[-3.188248,47.363523],[-3.187921,47.363467],[-3.187688,47.363264],[-3.186987,47.36315],[-3.186558,47.363365],[-3.185941,47.363422],[-3.185409,47.363574],[-3.18526,47.363732],[-3.184867,47.363777],[-3.184391,47.363707],[-3.18355,47.363498],[-3.183307,47.363555],[-3.183205,47.363701],[-3.18285,47.363644],[-3.182514,47.363504],[-3.182364,47.36341],[-3.182047,47.363574],[-3.181888,47.363833],[-3.181626,47.363739],[-3.181439,47.363783],[-3.180907,47.363802],[-3.180235,47.363783],[-3.179908,47.363688],[-3.179646,47.363644],[-3.179478,47.363454],[-3.178852,47.363422],[-3.178255,47.363207],[-3.17789,47.362903],[-3.177937,47.362454],[-3.177816,47.362366],[-3.177414,47.362518],[-3.176611,47.362587],[-3.175901,47.362359],[-3.175778,47.362127],[-3.17551,47.361981],[-3.175231,47.361684],[-3.174287,47.361291],[-3.174384,47.360579],[-3.174555,47.359845],[-3.174491,47.359721],[-3.174351,47.35967],[-3.174158,47.359423],[-3.172699,47.359336],[-3.172442,47.359438],[-3.172345,47.359692],[-3.172152,47.359845],[-3.171862,47.359968],[-3.17153,47.360332],[-3.171337,47.36031],[-3.171047,47.360622],[-3.170532,47.360695],[-3.170478,47.360862],[-3.170371,47.360935],[-3.170457,47.361168],[-3.170006,47.361451],[-3.169652,47.361487],[-3.169105,47.361422],[-3.168225,47.361589],[-3.167839,47.361502],[-3.167689,47.361342],[-3.167464,47.361415],[-3.167388,47.361531],[-3.167109,47.361582],[-3.167013,47.36172],[-3.166541,47.362011],[-3.165683,47.361858],[-3.165447,47.361734],[-3.165178,47.361727],[-3.164577,47.361604],[-3.164288,47.361487],[-3.163934,47.361473],[-3.163751,47.361327],[-3.16358,47.361473],[-3.163097,47.361473],[-3.162915,47.361676],[-3.162689,47.361647],[-3.162475,47.361749],[-3.161724,47.361836],[-3.161359,47.361771],[-3.161144,47.361967],[-3.160565,47.36204],[-3.1602,47.362127],[-3.159653,47.362076],[-3.158698,47.36257],[-3.158827,47.362645],[-3.159639,47.363472],[-3.159639,47.363534],[-3.159206,47.36356],[-3.158948,47.363508],[-3.158781,47.363529],[-3.15866,47.363647],[-3.158607,47.363801],[-3.158432,47.363853],[-3.158387,47.363914],[-3.158288,47.363945],[-3.15825,47.364043],[-3.157901,47.364104],[-3.157696,47.363945],[-3.157545,47.363935],[-3.157378,47.363791],[-3.157256,47.363781],[-3.157203,47.36357],[-3.156976,47.363416],[-3.156869,47.363092],[-3.156627,47.362902],[-3.156369,47.36283],[-3.156316,47.362712],[-3.156346,47.362635],[-3.156452,47.362583],[-3.156429,47.362414],[-3.15652,47.362311],[-3.156528,47.362157],[-3.156263,47.361843],[-3.156058,47.361803],[-3.155806,47.361561],[-3.155985,47.361335],[-3.15605,47.361225],[-3.156204,47.36122],[-3.156765,47.361368],[-3.157212,47.361561],[-3.157513,47.361633],[-3.157237,47.359782],[-3.157302,47.359353],[-3.157505,47.359022],[-3.157741,47.358857],[-3.158586,47.358493],[-3.159147,47.358113],[-3.158725,47.357875],[-3.158289,47.357798],[-3.157836,47.357798],[-3.157078,47.358028],[-3.15693,47.358017],[-3.156781,47.357887],[-3.157008,47.357804],[-3.156947,47.357674],[-3.157104,47.357332],[-3.156781,47.356783],[-3.156598,47.356618],[-3.156285,47.356594],[-3.15618,47.356346],[-3.155884,47.356393],[-3.155771,47.356252],[-3.155561,47.356187],[-3.155596,47.356057],[-3.15584,47.356015],[-3.15591,47.355874],[-3.155649,47.355732],[-3.155666,47.355555],[-3.155152,47.355224],[-3.155117,47.355118],[-3.155012,47.355083],[-3.155012,47.354823],[-3.155091,47.35451],[-3.154917,47.354351],[-3.154734,47.354286],[-3.154681,47.354114],[-3.154411,47.353931],[-3.154219,47.353878],[-3.154167,47.353672],[-3.154211,47.353583],[-3.154455,47.353601],[-3.154603,47.353559],[-3.154742,47.35337],[-3.154838,47.353341],[-3.154821,47.353229],[-3.15489,47.353105],[-3.154768,47.352892],[-3.154585,47.352745],[-3.154646,47.352562],[-3.154594,47.352337],[-3.15462,47.352202],[-3.154455,47.352119],[-3.15428,47.35219],[-3.154193,47.352131],[-3.154237,47.35183],[-3.154097,47.351706],[-3.154289,47.351475],[-3.154481,47.351121],[-3.154751,47.351068],[-3.154673,47.350817],[-3.154813,47.350655],[-3.154873,47.350085],[-3.154813,47.349976],[-3.155914,47.349705],[-3.155654,47.349244],[-3.156135,47.348457],[-3.156895,47.348511],[-3.157216,47.348254],[-3.157176,47.348064],[-3.157236,47.347887],[-3.157056,47.347833],[-3.156915,47.347562],[-3.156195,47.34725]]],"type":"MultiLineString"},"properties":{"geo_point":{"lon":-3.177484491853687,"lat":47.32896680118601},"name":"GR340 Tour de Belle-Ile-en-Mer (Morbihan) (2020)","code_gr":"GR340"}}]}