{"type":"FeatureCollection","features":[{"type":"Feature","geometry":{"coordinates":[[[-3.303296,47.765469],[-3.303264,47.765577],[-3.303162,47.765664],[-3.303184,47.765718],[-3.303071,47.765797],[-3.303017,47.765913],[-3.303028,47.7661],[-3.302974,47.766201],[-3.302749,47.766259],[-3.302658,47.766435],[-3.302304,47.766598],[-3.302127,47.766785],[-3.302202,47.766944],[-3.302325,47.767045],[-3.302282,47.767131],[-3.302073,47.767203],[-3.301725,47.767261],[-3.301467,47.767651],[-3.301188,47.767925],[-3.301172,47.76809],[-3.301081,47.768343],[-3.300853,47.768609],[-3.300767,47.768826],[-3.300788,47.768999],[-3.300649,47.769157],[-3.300542,47.769467],[-3.300477,47.769785],[-3.300177,47.769987],[-3.300333,47.770685],[-3.300268,47.771104],[-3.300504,47.771666],[-3.300869,47.772142],[-3.301062,47.772632],[-3.301019,47.772892],[-3.300633,47.773296],[-3.300354,47.77406],[-3.300547,47.774579],[-3.301062,47.77481],[-3.301641,47.77494],[-3.30147,47.775488],[-3.301684,47.775891],[-3.302865,47.776194],[-3.303787,47.776266],[-3.305568,47.776122],[-3.305525,47.776555],[-3.305139,47.777564],[-3.304774,47.777881],[-3.304431,47.779222],[-3.304646,47.779338],[-3.303358,47.78202],[-3.302907,47.781904],[-3.302671,47.781991],[-3.302199,47.78264],[-3.300826,47.781126],[-3.300139,47.780823],[-3.298594,47.780837],[-3.297028,47.780535],[-3.296492,47.780924],[-3.296256,47.781702],[-3.295783,47.781919],[-3.295719,47.783505],[-3.295998,47.784096],[-3.295955,47.784442],[-3.296277,47.785091],[-3.296577,47.78522],[-3.296835,47.785264],[-3.296878,47.785797],[-3.2972,47.786086],[-3.297522,47.786143],[-3.297071,47.786417],[-3.297071,47.786547],[-3.296556,47.787124],[-3.296856,47.787484],[-3.296728,47.787599],[-3.296384,47.787383],[-3.295526,47.787888],[-3.295204,47.788003],[-3.295161,47.788306],[-3.294754,47.788594],[-3.294732,47.788969],[-3.29426,47.789373],[-3.29411,47.790165],[-3.293852,47.790612],[-3.293037,47.791333],[-3.292844,47.791665],[-3.292608,47.791996],[-3.292243,47.792083],[-3.292028,47.792544],[-3.292264,47.79289],[-3.293101,47.79302],[-3.293638,47.792804],[-3.294646,47.792602],[-3.294775,47.79276],[-3.294582,47.793222],[-3.296449,47.794087],[-3.297221,47.794721],[-3.297779,47.794923],[-3.298766,47.794995],[-3.300032,47.795355],[-3.29941,47.795687],[-3.297135,47.796508],[-3.295655,47.796897],[-3.295462,47.796407],[-3.294024,47.796306],[-3.293552,47.798483],[-3.294174,47.799391],[-3.295741,47.799016],[-3.29647,47.799867],[-3.296213,47.800227],[-3.295826,47.801121],[-3.29544,47.801322],[-3.295161,47.801885],[-3.294861,47.802014],[-3.294904,47.802548],[-3.293938,47.802764],[-3.294045,47.80298],[-3.293509,47.803787],[-3.293509,47.804147],[-3.292908,47.80556],[-3.292007,47.805502],[-3.291192,47.805171],[-3.289947,47.805344],[-3.289775,47.805776],[-3.289389,47.805891],[-3.288981,47.805445],[-3.2872,47.804392],[-3.286449,47.804666],[-3.286235,47.804392],[-3.285741,47.80432],[-3.284819,47.804767],[-3.284003,47.804969],[-3.283102,47.804176],[-3.28248,47.803441],[-3.281214,47.802591],[-3.280763,47.80213],[-3.280205,47.802231],[-3.280785,47.802634],[-3.281021,47.803023],[-3.280935,47.803211],[-3.27954,47.802634],[-3.279261,47.80236],[-3.278853,47.802331],[-3.27866,47.803643],[-3.279089,47.803571],[-3.279969,47.803758],[-3.280699,47.804147],[-3.280699,47.804147],[-3.281021,47.804176],[-3.280527,47.804637],[-3.280205,47.805272],[-3.279519,47.805545],[-3.279261,47.805488],[-3.278574,47.805718],[-3.277845,47.805819],[-3.277223,47.805776],[-3.276901,47.805589],[-3.275012,47.805488],[-3.274605,47.805733],[-3.274669,47.806525],[-3.272523,47.806785],[-3.271172,47.806742],[-3.269197,47.806554],[-3.268275,47.806597],[-3.268189,47.806208],[-3.267974,47.806093],[-3.267481,47.80628],[-3.26673,47.806352],[-3.266,47.806569],[-3.265271,47.806511],[-3.264541,47.806612],[-3.264648,47.807116],[-3.264198,47.807361],[-3.264327,47.807952],[-3.264713,47.808399],[-3.264262,47.809033],[-3.263962,47.809364],[-3.264198,47.809609],[-3.264627,47.80971],[-3.265979,47.809552],[-3.266215,47.810071],[-3.264477,47.810532],[-3.265335,47.811007],[-3.265721,47.811339],[-3.265528,47.811512],[-3.26585,47.811814],[-3.265292,47.812088],[-3.265593,47.812492],[-3.265142,47.812664],[-3.265593,47.813255],[-3.26555,47.813486],[-3.266344,47.814509],[-3.26585,47.814754],[-3.265936,47.815172],[-3.266429,47.815791],[-3.266365,47.816656],[-3.265893,47.81729],[-3.265357,47.818572],[-3.265416,47.818697],[-3.265099,47.819091],[-3.265295,47.819583],[-3.265158,47.819863],[-3.264391,47.820114],[-3.263854,47.820532],[-3.260955,47.82049],[-3.260508,47.820444],[-3.260227,47.820526],[-3.259962,47.820541],[-3.259893,47.820602],[-3.25937,47.820434],[-3.258877,47.820077],[-3.25852,47.819975],[-3.258846,47.8202],[-3.25896,47.820424],[-3.259263,47.820647],[-3.260007,47.820877],[-3.259559,47.821646],[-3.25849,47.821122],[-3.257868,47.821036],[-3.257288,47.821079],[-3.254563,47.822909],[-3.253769,47.823428],[-3.25334,47.823615],[-3.253104,47.824062],[-3.252418,47.824969],[-3.251688,47.825617],[-3.251581,47.825978],[-3.251044,47.82615],[-3.250422,47.826669],[-3.249542,47.826828],[-3.249456,47.826323],[-3.248856,47.826367],[-3.247911,47.826972],[-3.247525,47.826972],[-3.247289,47.826756],[-3.246967,47.826741],[-3.245937,47.827533],[-3.245658,47.827894],[-3.245337,47.828153],[-3.245122,47.829046],[-3.244113,47.829233],[-3.243062,47.830141],[-3.242847,47.830717],[-3.243062,47.831495],[-3.24377,47.831941],[-3.243899,47.832546],[-3.243706,47.833094],[-3.243877,47.833555],[-3.244693,47.833699],[-3.245594,47.833699],[-3.245701,47.834405],[-3.247354,47.834477],[-3.249499,47.834592],[-3.249735,47.834304],[-3.250272,47.834419],[-3.250765,47.834347],[-3.251624,47.834736],[-3.252353,47.834534],[-3.25304,47.83475],[-3.253169,47.834938],[-3.253405,47.835442],[-3.253941,47.836047],[-3.254542,47.836536],[-3.254928,47.836882],[-3.255572,47.837343],[-3.256366,47.83874],[-3.256301,47.840209],[-3.256688,47.841116],[-3.257761,47.842888],[-3.258426,47.842888],[-3.258254,47.843291],[-3.257889,47.843723],[-3.257846,47.844803],[-3.257396,47.845595],[-3.256688,47.8462],[-3.256559,47.846416],[-3.256409,47.846517],[-3.256323,47.846978],[-3.254714,47.848216],[-3.254499,47.848835],[-3.254048,47.849296],[-3.253426,47.850333],[-3.252675,47.850333],[-3.251795,47.85101],[-3.250679,47.850995],[-3.249199,47.851571],[-3.249564,47.851975],[-3.249456,47.852392],[-3.249886,47.852954],[-3.251044,47.853299],[-3.249607,47.853515],[-3.248448,47.853429],[-3.245723,47.853875],[-3.244736,47.853976],[-3.244585,47.854365],[-3.244435,47.854826],[-3.244585,47.855315],[-3.244972,47.855805],[-3.246045,47.856078],[-3.24656,47.856568],[-3.246452,47.857288],[-3.245551,47.858324],[-3.245615,47.858886],[-3.244585,47.859634],[-3.244757,47.860268],[-3.244543,47.860714],[-3.243191,47.860988],[-3.242247,47.861765],[-3.237719,47.862269],[-3.233513,47.861736],[-3.233342,47.862859],[-3.233706,47.864572],[-3.233749,47.866098],[-3.233299,47.866343],[-3.233878,47.866746],[-3.233942,47.868142],[-3.234586,47.869279],[-3.234436,47.869524],[-3.233084,47.870244],[-3.231453,47.873439],[-3.231475,47.877397],[-3.229994,47.878117],[-3.228836,47.878131],[-3.22787,47.877656],[-3.223342,47.880477],[-3.22287,47.880506],[-3.222634,47.880419],[-3.22242,47.880535],[-3.221991,47.880693],[-3.221712,47.880635],[-3.221154,47.881254],[-3.219223,47.882621],[-3.219866,47.883657],[-3.220231,47.884607],[-3.22066,47.885298],[-3.223621,47.887874],[-3.2239,47.887974],[-3.223793,47.888262],[-3.22287,47.888823],[-3.221561,47.889816],[-3.219974,47.890924],[-3.21815,47.890607],[-3.217828,47.891312],[-3.217334,47.891543],[-3.217055,47.892147],[-3.21551,47.891787],[-3.214588,47.891442],[-3.214223,47.891169],[-3.21345,47.889701],[-3.211605,47.889154],[-3.210725,47.890133],[-3.210704,47.890723],[-3.210361,47.890996],[-3.209652,47.892075],[-3.209116,47.892838],[-3.209288,47.893701],[-3.209717,47.893773],[-3.209609,47.894435],[-3.20976,47.894694],[-3.209373,47.895571],[-3.209846,47.896276],[-3.20991,47.896636],[-3.212141,47.896665],[-3.212056,47.897744],[-3.212549,47.899412],[-3.212678,47.900592],[-3.212828,47.901124],[-3.212764,47.901743],[-3.212485,47.902376],[-3.212356,47.903253],[-3.212099,47.904203],[-3.211948,47.90626],[-3.212292,47.906979],[-3.212699,47.907209],[-3.211863,47.907209],[-3.211219,47.907338],[-3.210103,47.907209],[-3.208107,47.907554],[-3.207657,47.90754],[-3.207979,47.908734],[-3.208043,47.909367],[-3.208322,47.909985],[-3.208322,47.910258],[-3.20609,47.910503],[-3.205232,47.911021],[-3.204846,47.911481],[-3.204309,47.911438],[-3.204052,47.910733],[-3.203301,47.910416],[-3.201262,47.910172],[-3.199524,47.910114],[-3.200254,47.911006],[-3.200018,47.911236],[-3.199052,47.911366],[-3.198258,47.911222],[-3.197658,47.910675],[-3.196284,47.909956],[-3.195061,47.909683],[-3.194053,47.909697],[-3.192894,47.909899],[-3.191671,47.91069],[-3.191092,47.910158],[-3.190791,47.909625],[-3.189504,47.909208],[-3.187744,47.909338],[-3.186843,47.909352],[-3.185813,47.909237],[-3.185191,47.909438],[-3.184869,47.909136],[-3.184547,47.909064],[-3.183989,47.910129],[-3.183753,47.911049],[-3.181993,47.910258],[-3.181414,47.91023],[-3.181478,47.909971],[-3.180427,47.909093],[-3.179676,47.908561],[-3.179333,47.908374],[-3.178753,47.907583],[-3.177981,47.906936],[-3.176414,47.906835],[-3.174333,47.906159],[-3.174397,47.905857],[-3.174784,47.905425],[-3.175427,47.905152],[-3.175685,47.904864],[-3.175148,47.903225],[-3.175213,47.901398],[-3.175492,47.901067],[-3.175406,47.900937],[-3.174312,47.900966],[-3.17399,47.900707],[-3.173432,47.90075],[-3.172938,47.900678],[-3.170599,47.901139],[-3.170385,47.901455],[-3.169934,47.901642],[-3.169398,47.901585],[-3.168239,47.901728],[-3.16605,47.901671],[-3.164441,47.90193],[-3.164055,47.902102],[-3.163862,47.901944],[-3.162467,47.902102],[-3.162403,47.901599],[-3.161888,47.901283],[-3.161652,47.900578],[-3.161244,47.900247],[-3.159806,47.90016],[-3.159635,47.899873],[-3.158712,47.899527],[-3.158369,47.899197],[-3.158218,47.898794],[-3.157103,47.899053],[-3.156566,47.89947],[-3.155257,47.899599],[-3.15427,47.899887],[-3.15382,47.900189],[-3.153219,47.900419],[-3.151695,47.900319],[-3.150558,47.899887],[-3.14912,47.898866],[-3.148584,47.898664],[-3.146374,47.898434],[-3.14558,47.898146],[-3.144078,47.897873],[-3.143134,47.897427],[-3.142597,47.897039],[-3.141889,47.896593],[-3.141353,47.895686],[-3.141009,47.895269],[-3.140344,47.895226],[-3.139421,47.894665],[-3.138649,47.893629],[-3.138649,47.894032],[-3.138027,47.893399],[-3.137812,47.892953],[-3.137254,47.892981],[-3.137104,47.892579],[-3.136374,47.892334],[-3.135645,47.892147],[-3.13528,47.892348],[-3.134143,47.892061],[-3.13337,47.892118],[-3.131825,47.891816],[-3.131139,47.891989],[-3.130023,47.892003],[-3.129916,47.892622],[-3.130817,47.895154],[-3.130645,47.895945],[-3.130753,47.896866],[-3.131246,47.897211],[-3.131139,47.898132],[-3.131332,47.89852],[-3.132147,47.898751],[-3.132684,47.899082],[-3.132641,47.899772],[-3.132233,47.900017],[-3.130238,47.899772],[-3.131182,47.900376],[-3.129959,47.900534],[-3.129529,47.900707],[-3.129937,47.901081],[-3.130688,47.901498],[-3.131632,47.902534],[-3.13086,47.903354],[-3.131761,47.9038],[-3.132362,47.90367],[-3.132684,47.904188],[-3.133027,47.904289],[-3.133456,47.903857],[-3.135066,47.903915],[-3.135066,47.903915],[-3.135387,47.904534],[-3.135495,47.90521],[-3.134808,47.906073],[-3.134572,47.906619],[-3.135173,47.906893],[-3.137469,47.908921],[-3.137404,47.909136],[-3.137683,47.909812],[-3.138027,47.911251],[-3.138713,47.912545],[-3.136181,47.912732],[-3.134186,47.912991],[-3.132641,47.91266],[-3.132491,47.912085],[-3.131825,47.911999],[-3.131761,47.912243],[-3.131504,47.912559],[-3.129658,47.912646],[-3.129551,47.913207],[-3.129658,47.913624],[-3.129143,47.91407],[-3.127899,47.914444],[-3.127319,47.914832],[-3.125517,47.915724],[-3.124487,47.916428],[-3.123736,47.916716],[-3.122341,47.916932],[-3.121869,47.917118],[-3.121783,47.91778],[-3.120968,47.91847],[-3.120496,47.919161],[-3.120088,47.919951],[-3.118736,47.920484],[-3.11805,47.920886],[-3.117277,47.921145],[-3.117878,47.921361],[-3.117878,47.921691],[-3.117964,47.921979],[-3.117964,47.921979],[-3.117878,47.92218],[-3.115775,47.921749],[-3.115196,47.922065],[-3.115088,47.922468],[-3.115711,47.923331],[-3.115646,47.924308],[-3.116698,47.924812],[-3.118028,47.925272],[-3.119187,47.925516],[-3.119981,47.925833],[-3.121397,47.925833],[-3.122234,47.925588],[-3.123414,47.925804],[-3.12365,47.925775],[-3.124294,47.925962],[-3.12483,47.926336],[-3.127105,47.926767],[-3.128049,47.926451],[-3.128693,47.927012],[-3.128972,47.927687],[-3.128778,47.929082],[-3.127727,47.929327],[-3.127212,47.929787],[-3.12586,47.930146],[-3.126504,47.930175],[-3.127341,47.930089],[-3.127491,47.930563],[-3.128542,47.930649],[-3.128886,47.932044],[-3.128907,47.932806],[-3.128671,47.932863],[-3.128929,47.933251],[-3.128693,47.93374],[-3.129637,47.933697],[-3.130495,47.933898],[-3.131375,47.934243],[-3.132405,47.933999],[-3.133113,47.934243],[-3.133628,47.934718],[-3.134551,47.93397],[-3.135623,47.93351],[-3.137512,47.934689],[-3.138799,47.93558],[-3.140344,47.936975],[-3.140451,47.937708],[-3.142597,47.938801],[-3.142468,47.940655],[-3.143992,47.941043],[-3.144893,47.941489],[-3.146309,47.941862],[-3.147232,47.941848],[-3.148519,47.942897],[-3.149893,47.9434],[-3.150215,47.943659],[-3.150773,47.94386],[-3.150687,47.944119],[-3.150794,47.944421],[-3.149893,47.944435],[-3.148477,47.945111],[-3.147726,47.945025],[-3.147275,47.945456],[-3.146588,47.945542],[-3.145494,47.945441],[-3.144614,47.945528],[-3.144979,47.947123],[-3.14661,47.947324],[-3.147768,47.947597],[-3.148841,47.9481],[-3.151631,47.949092],[-3.15221,47.949566],[-3.153948,47.951506],[-3.154635,47.951406],[-3.155279,47.951435],[-3.155772,47.951866],[-3.155901,47.952254],[-3.156931,47.953518],[-3.158154,47.954654],[-3.158025,47.955042],[-3.157746,47.95553],[-3.158133,47.955803],[-3.158583,47.956292],[-3.159613,47.956867],[-3.160235,47.957772],[-3.160407,47.958174],[-3.161201,47.959698],[-3.16118,47.960071],[-3.16045,47.961278],[-3.160428,47.962614],[-3.15927,47.962356],[-3.158068,47.962284],[-3.156459,47.961968],[-3.155386,47.961953],[-3.155579,47.963247],[-3.155987,47.963275],[-3.156416,47.963692],[-3.156716,47.964209],[-3.155579,47.965502],[-3.155794,47.966149],[-3.155322,47.966623],[-3.154184,47.966882],[-3.153734,47.96681],[-3.152596,47.967313],[-3.152747,47.967902],[-3.152661,47.968333],[-3.153691,47.968218],[-3.154978,47.968232],[-3.15545,47.968045],[-3.156223,47.968089],[-3.157832,47.968347],[-3.158669,47.968304],[-3.15942,47.967902],[-3.160214,47.967787],[-3.160772,47.967586],[-3.161823,47.967485],[-3.162081,47.96839],[-3.162209,47.969051],[-3.163325,47.970775],[-3.164162,47.970976],[-3.163926,47.971852],[-3.162961,47.972169],[-3.16251,47.972398],[-3.163003,47.97339],[-3.163561,47.973591],[-3.163518,47.97484],[-3.162767,47.976593],[-3.161737,47.977038],[-3.161158,47.977139],[-3.161158,47.977828],[-3.161008,47.97869],[-3.160278,47.979265],[-3.159012,47.98017],[-3.15839,47.981276],[-3.157596,47.981908],[-3.157124,47.982166],[-3.156073,47.983215],[-3.155322,47.983473],[-3.154871,47.983818],[-3.153283,47.98366],[-3.152253,47.983344],[-3.151652,47.983473],[-3.151609,47.983875],[-3.152039,47.984349],[-3.152961,47.985096],[-3.152811,47.985455],[-3.152339,47.985714],[-3.150043,47.986389],[-3.149721,47.98669],[-3.150837,47.987724],[-3.150923,47.98804],[-3.15,47.988457],[-3.150365,47.988974],[-3.150129,47.989405],[-3.149142,47.990151],[-3.147983,47.990467],[-3.147318,47.990568],[-3.146846,47.990855],[-3.147039,47.991358],[-3.147811,47.991745],[-3.147704,47.992004],[-3.146996,47.99219],[-3.14455,47.992621],[-3.144249,47.992808],[-3.144721,47.993253],[-3.144958,47.993641],[-3.144614,47.993899],[-3.143327,47.994359],[-3.143069,47.994589],[-3.142232,47.994675],[-3.140623,47.995048],[-3.140065,47.996412],[-3.140795,47.997015],[-3.141331,47.997834],[-3.140516,47.998509],[-3.140773,48.000418],[-3.140258,48.000461],[-3.141181,48.003232],[-3.140988,48.004481],[-3.140172,48.004438],[-3.139936,48.004697],[-3.139142,48.004567],[-3.138735,48.004309],[-3.138155,48.004252],[-3.137748,48.004611],[-3.137555,48.005472],[-3.137834,48.005989],[-3.13867,48.006549],[-3.139078,48.006965],[-3.138842,48.007094],[-3.138091,48.006893],[-3.13764,48.006836],[-3.137061,48.006577],[-3.136417,48.006534],[-3.135688,48.006821],[-3.134787,48.00751],[-3.1338,48.007855],[-3.132469,48.008228],[-3.131246,48.010008],[-3.13071,48.009922],[-3.129251,48.009463],[-3.128392,48.009865],[-3.127813,48.01041],[-3.126311,48.011516],[-3.124358,48.012463],[-3.123757,48.012879],[-3.123006,48.01331],[-3.122191,48.014128],[-3.121719,48.014415],[-3.12144,48.01486],[-3.121247,48.015635],[-3.120925,48.01641],[-3.121097,48.017745],[-3.121783,48.01819],[-3.121182,48.018707],[-3.121182,48.018836],[-3.121633,48.019152],[-3.121762,48.019468],[-3.12262,48.019984],[-3.123199,48.020171],[-3.123285,48.020515],[-3.122856,48.021075],[-3.123006,48.021477],[-3.122599,48.022137],[-3.122749,48.022769],[-3.123135,48.023572],[-3.123006,48.023859],[-3.12232,48.024275],[-3.121333,48.025266],[-3.120839,48.025395],[-3.120195,48.025639],[-3.119316,48.026701],[-3.117706,48.027131],[-3.115518,48.02914],[-3.115282,48.029643],[-3.115775,48.030604],[-3.115904,48.031149],[-3.116247,48.031881],[-3.115711,48.032613],[-3.111569,48.034349],[-3.111569,48.034349],[-3.110926,48.034607],[-3.110046,48.03521],[-3.109102,48.035282],[-3.107707,48.034923],[-3.107256,48.034937],[-3.106291,48.038438],[-3.106033,48.038094],[-3.105196,48.037549],[-3.104209,48.036128],[-3.101055,48.03465],[-3.098974,48.03333],[-3.097901,48.032972],[-3.097836,48.032699],[-3.096485,48.032297],[-3.09146,48.03022],[-3.09146,48.03022],[-3.09146,48.03022],[-3.087748,48.02877],[-3.087083,48.028225],[-3.086139,48.027837],[-3.085624,48.027364],[-3.085044,48.026632],[-3.0841,48.025828],[-3.083435,48.024867],[-3.082555,48.024293],[-3.08086,48.024307],[-3.07953,48.025785],[-3.079337,48.026489],[-3.077706,48.026632],[-3.074487,48.028254],[-3.074101,48.028655],[-3.072105,48.029316],[-3.071011,48.029344],[-3.069981,48.028813],[-3.068908,48.028842],[-3.068565,48.028526],[-3.068372,48.028526],[-3.067921,48.028871],[-3.067256,48.028842],[-3.066526,48.029014],[-3.065775,48.029689],[-3.065368,48.030248],[-3.064767,48.030234],[-3.063522,48.02976],[-3.063672,48.029201],[-3.063737,48.028713],[-3.063029,48.02877],[-3.062814,48.028871],[-3.062213,48.028828],[-3.059746,48.028928],[-3.059038,48.028756],[-3.058716,48.028756],[-3.058523,48.028311],[-3.058072,48.028211],[-3.056184,48.028555],[-3.053308,48.028655],[-3.051699,48.028842],[-3.052021,48.03009],[-3.051742,48.030765],[-3.052214,48.031798],[-3.05215,48.032458],[-3.050991,48.032157],[-3.049725,48.032243],[-3.048673,48.031597],[-3.047858,48.031353],[-3.045605,48.030148],[-3.044618,48.029172],[-3.044082,48.029043],[-3.042107,48.02933],[-3.040799,48.02976],[-3.039018,48.028182],[-3.036657,48.024652],[-3.035842,48.025111],[-3.035498,48.025685],[-3.034619,48.026245],[-3.034361,48.027106],[-3.032409,48.028325],[-3.030842,48.029818],[-3.030005,48.030463],[-3.029769,48.031425],[-3.030477,48.032028],[-3.027109,48.033362],[-3.025907,48.033592],[-3.024619,48.033491],[-3.023847,48.033247],[-3.023074,48.033305],[-3.021465,48.033879],[-3.021186,48.033879],[-3.021015,48.034151],[-3.021594,48.035356],[-3.021186,48.035299],[-3.020542,48.035385],[-3.01874,48.035156],[-3.018268,48.036892],[-3.016959,48.039546],[-3.01477,48.041669],[-3.012796,48.042057],[-3.011015,48.042042],[-3.010071,48.041239],[-3.009599,48.041425],[-3.008526,48.042573],[-3.007711,48.042171],[-3.004514,48.04418],[-3.00402,48.045155],[-3.002733,48.046848],[-3.000115,48.04725],[-2.998527,48.048641],[-2.996703,48.048598],[-2.996038,48.050018],[-2.995416,48.050147],[-2.994343,48.04986],[-2.993785,48.049487],[-2.993034,48.049559],[-2.992648,48.049889],[-2.992218,48.051022],[-2.991918,48.05141],[-2.991811,48.052084],[-2.991145,48.053245],[-2.990158,48.054407],[-2.99063,48.055354],[-2.991703,48.056917],[-2.992004,48.057089],[-2.992969,48.058237],[-2.991682,48.057978],[-2.990995,48.057993],[-2.990759,48.058151],[-2.990738,48.058495],[-2.988721,48.06099],[-2.98797,48.061549],[-2.987026,48.06251],[-2.986554,48.063385],[-2.986403,48.06393],[-2.986596,48.064332],[-2.987047,48.064432],[-2.988613,48.065235],[-2.990223,48.06555],[-2.99003,48.065866],[-2.989622,48.066913],[-2.991124,48.066669],[-2.992261,48.066784],[-2.99224,48.06697],[-2.991896,48.0673],[-2.991746,48.068132],[-2.992433,48.068906],[-2.992991,48.069336],[-2.993077,48.070641],[-2.993742,48.071831],[-2.995437,48.073279],[-2.995287,48.073809],[-2.996488,48.075286],[-2.99739,48.075774],[-2.997132,48.076089],[-2.99651,48.076146],[-2.995759,48.07606],[-2.995287,48.076591],[-2.994192,48.07629],[-2.990051,48.07444],[-2.986468,48.074584],[-2.985631,48.074311],[-2.98488,48.07424],[-2.983871,48.073881],[-2.983313,48.074025],[-2.982648,48.074584],[-2.983614,48.075229],[-2.982906,48.075028],[-2.98003,48.073766],[-2.979322,48.074039],[-2.978528,48.074082],[-2.978013,48.074483],[-2.977606,48.074555],[-2.977649,48.074756],[-2.975932,48.074899],[-2.974816,48.07487],[-2.974087,48.074641],[-2.9731,48.074096],[-2.971061,48.073207],[-2.969666,48.072103],[-2.968658,48.07239],[-2.967735,48.072533],[-2.966898,48.072232],[-2.96677,48.072404],[-2.965976,48.072247],[-2.96516,48.072318],[-2.96383,48.074025],[-2.963208,48.074412],[-2.962499,48.074598],[-2.962306,48.074311],[-2.958787,48.075315],[-2.951599,48.082784],[-2.9472,48.085421],[-2.946149,48.085608],[-2.942973,48.085866],[-2.942329,48.086181],[-2.937501,48.089105],[-2.937029,48.089765],[-2.936192,48.094165],[-2.936514,48.094681],[-2.936579,48.096701],[-2.93939,48.101416],[-2.941042,48.10603],[-2.940613,48.106603],[-2.939862,48.106832],[-2.939239,48.106732],[-2.936192,48.106589],[-2.933424,48.106789],[-2.929369,48.106388],[-2.92776,48.105944],[-2.926129,48.105715],[-2.921172,48.106331],[-2.91894,48.106231],[-2.916795,48.106273],[-2.915829,48.106216],[-2.913941,48.105786],[-2.912868,48.105887],[-2.911924,48.106431],[-2.911559,48.107033],[-2.911301,48.109641],[-2.911688,48.110758],[-2.912417,48.110686],[-2.912331,48.111847],[-2.911945,48.112277],[-2.911559,48.112535],[-2.910529,48.11275],[-2.909349,48.113437],[-2.90598,48.114526],[-2.905293,48.114454],[-2.904757,48.114569],[-2.904156,48.115056],[-2.903212,48.115228],[-2.895079,48.113953],[-2.893449,48.113924],[-2.892612,48.114068],[-2.891732,48.114325],[-2.889865,48.114583],[-2.889565,48.114383],[-2.887827,48.114225],[-2.884479,48.11454],[-2.881153,48.115629],[-2.880188,48.116661],[-2.879351,48.11699],[-2.873922,48.11805],[-2.871583,48.117606],[-2.868622,48.117921],[-2.867056,48.118322],[-2.865017,48.119597],[-2.864009,48.119783],[-2.863022,48.119712],[-2.861777,48.119225],[-2.860962,48.119182],[-2.860125,48.119368],[-2.860146,48.119783],[-2.860576,48.119998],[-2.860704,48.121187],[-2.862099,48.121073],[-2.862442,48.123608],[-2.861691,48.124338],[-2.859073,48.125241],[-2.856649,48.125971],[-2.854417,48.125183],[-2.852314,48.128678],[-2.855662,48.129838],[-2.855383,48.130254],[-2.853816,48.13034],[-2.851349,48.130254],[-2.850641,48.130297],[-2.849696,48.130153],[-2.848988,48.130468],[-2.848538,48.131084],[-2.848044,48.132359],[-2.847508,48.133003],[-2.847508,48.133404],[-2.84783,48.133705],[-2.848752,48.134192],[-2.849353,48.134836],[-2.851284,48.136154],[-2.853001,48.136583],[-2.854031,48.136526],[-2.855576,48.136268],[-2.856949,48.136369],[-2.858623,48.136283],[-2.860854,48.135939],[-2.861348,48.136139],[-2.861434,48.136598],[-2.860962,48.137113],[-2.860704,48.137586],[-2.859524,48.138287],[-2.859932,48.139204],[-2.859631,48.140077],[-2.860168,48.140851],[-2.861155,48.141566],[-2.857958,48.142526],[-2.856863,48.143342],[-2.856112,48.143399],[-2.856005,48.143729],[-2.856434,48.144444],[-2.856391,48.145805],[-2.855018,48.145661],[-2.853945,48.145819],[-2.851799,48.145747],[-2.851499,48.145919],[-2.850169,48.146392],[-2.849696,48.146936],[-2.849911,48.147451],[-2.849868,48.148553],[-2.849203,48.149871],[-2.849675,48.150887],[-2.849804,48.152204],[-2.850018,48.152576],[-2.849804,48.153135],[-2.849997,48.153507],[-2.850662,48.153707],[-2.852164,48.153779],[-2.853216,48.153707],[-2.853838,48.15375],[-2.854975,48.154108],[-2.855705,48.154523],[-2.855426,48.154838],[-2.85343,48.155081],[-2.851928,48.155425],[-2.850233,48.155253],[-2.846521,48.154265],[-2.843903,48.154409],[-2.843109,48.154867],[-2.843023,48.155568],[-2.843238,48.156227],[-2.842851,48.157544],[-2.841779,48.158774],[-2.841092,48.159118],[-2.841092,48.159118],[-2.840319,48.159354],[-2.839998,48.159641],[-2.841006,48.159641],[-2.841714,48.160614],[-2.842165,48.160499],[-2.844117,48.160277],[-2.845298,48.160735],[-2.846413,48.161451],[-2.847551,48.162081],[-2.847744,48.162496],[-2.847561,48.162739],[-2.847572,48.163255],[-2.846907,48.164328],[-2.847165,48.164872],[-2.848087,48.165201],[-2.851306,48.165616],[-2.852336,48.165215],[-2.852743,48.164671],[-2.852336,48.163655],[-2.852443,48.162711],[-2.853087,48.163026],[-2.853838,48.163097],[-2.855297,48.163026],[-2.857078,48.163369],[-2.855361,48.16387],[-2.853709,48.165001],[-2.852851,48.165974],[-2.853344,48.16636],[-2.853967,48.166632],[-2.853988,48.167119],[-2.853372,48.167615],[-2.852693,48.167813],[-2.851241,48.167691],[-2.850619,48.169022],[-2.851433,48.171778],[-2.851277,48.172486],[-2.851778,48.173229],[-2.852579,48.173629],[-2.85316,48.174195],[-2.853316,48.176357],[-2.855496,48.177329],[-2.855779,48.177613],[-2.857308,48.177858],[-2.859658,48.179255],[-2.86072,48.179623],[-2.86049,48.181285],[-2.860451,48.183616],[-2.859996,48.184518],[-2.860103,48.185177],[-2.860618,48.185577],[-2.861992,48.185663],[-2.862357,48.185992],[-2.862519,48.186685],[-2.862228,48.186791],[-2.86174,48.186808],[-2.860987,48.18724],[-2.861,48.187724],[-2.861502,48.188244],[-2.861621,48.189071],[-2.862502,48.189842],[-2.863439,48.1905],[-2.863685,48.190549],[-2.864819,48.190401],[-2.866655,48.189736],[-2.867826,48.189703],[-2.869034,48.1899],[-2.869219,48.190056],[-2.868677,48.190607],[-2.868578,48.191001],[-2.868578,48.191436],[-2.868365,48.191929],[-2.86562,48.192209],[-2.865805,48.192776],[-2.866002,48.193868],[-2.864474,48.193646],[-2.864374,48.193985],[-2.861972,48.194238],[-2.862244,48.194687],[-2.860635,48.194976],[-2.860147,48.194987],[-2.858768,48.194973],[-2.857888,48.195166],[-2.857363,48.195416],[-2.856891,48.195924],[-2.856998,48.195967],[-2.856832,48.196285],[-2.857035,48.196557],[-2.857465,48.196818],[-2.85814,48.197079],[-2.859111,48.197247],[-2.859571,48.197269],[-2.860132,48.197524],[-2.860392,48.197741],[-2.860449,48.19818],[-2.860392,48.19921],[-2.860457,48.199676],[-2.860726,48.200142],[-2.861084,48.200808],[-2.860945,48.201052],[-2.860449,48.201258],[-2.859783,48.201432],[-2.859043,48.201876],[-2.858612,48.20251],[-2.858392,48.203464],[-2.858368,48.204184],[-2.858628,48.204488],[-2.858752,48.20483],[-2.858522,48.205171],[-2.858473,48.205545],[-2.858799,48.205902],[-2.859245,48.206145],[-2.860103,48.206288],[-2.861048,48.206045],[-2.861799,48.205688],[-2.862635,48.205445],[-2.863271,48.205111],[-2.864052,48.204815],[-2.866458,48.204222],[-2.867068,48.203914],[-2.867263,48.203691],[-2.867418,48.203339],[-2.867662,48.203095],[-2.870459,48.202239],[-2.87257,48.202027],[-2.873686,48.201697],[-2.874443,48.201746],[-2.874638,48.201963],[-2.874443,48.202163],[-2.873817,48.202331],[-2.873475,48.20258],[-2.872841,48.202813],[-2.872012,48.202913],[-2.870995,48.203599],[-2.870489,48.204115],[-2.869824,48.204873],[-2.869674,48.205445],[-2.870532,48.205302],[-2.871648,48.20503],[-2.872935,48.204944],[-2.874051,48.204558],[-2.875145,48.203443],[-2.87609,48.203014],[-2.877441,48.202856],[-2.877849,48.202428],[-2.878106,48.201498],[-2.877591,48.200325],[-2.876819,48.199481],[-2.87684,48.199109],[-2.87742,48.198451],[-2.878492,48.198551],[-2.879823,48.198251],[-2.881347,48.19785],[-2.882591,48.197779],[-2.883814,48.198008],[-2.88699,48.199223],[-2.894221,48.203271],[-2.895321,48.2038],[-2.896775,48.204229],[-2.897933,48.20453],[-2.898438,48.204801],[-2.899157,48.20493],[-2.900208,48.205702],[-2.901471,48.206798],[-2.903834,48.20779],[-2.90539,48.208605],[-2.906105,48.209327],[-2.906413,48.210132],[-2.906077,48.211115],[-2.905551,48.212029],[-2.90544,48.212826],[-2.905698,48.213434],[-2.906278,48.21405],[-2.90682,48.214345],[-2.907632,48.214654],[-2.9082,48.214764],[-2.914521,48.215325],[-2.915545,48.21552],[-2.918553,48.216825],[-2.91952,48.217013],[-2.92029,48.216957],[-2.921202,48.216677],[-2.922336,48.215988],[-2.923833,48.214925],[-2.925335,48.214325],[-2.926218,48.214181],[-2.927717,48.214124],[-2.928523,48.214082],[-2.929412,48.213896],[-2.932501,48.213067],[-2.934068,48.213109],[-2.936592,48.216013],[-2.93778,48.217728],[-2.938254,48.218316],[-2.939497,48.218814],[-2.940505,48.2191],[-2.942569,48.220083],[-2.944998,48.220606],[-2.945763,48.220929],[-2.948042,48.221477],[-2.948397,48.221713],[-2.949331,48.22195],[-2.950471,48.221776],[-2.951663,48.221702],[-2.952886,48.221345],[-2.954152,48.221273],[-2.955225,48.221001],[-2.957285,48.219901],[-2.958727,48.21966],[-2.960278,48.219311],[-2.9611,48.218926],[-2.96147,48.218971],[-2.96162,48.219843],[-2.960955,48.220658],[-2.960246,48.221001],[-2.960016,48.222099],[-2.961585,48.223319],[-2.96293,48.222709],[-2.964163,48.222585],[-2.964624,48.222774],[-2.96463,48.223145],[-2.963883,48.224339],[-2.963061,48.225273],[-2.964051,48.224974],[-2.96491,48.224327],[-2.966816,48.223568],[-2.968179,48.223132],[-2.968796,48.222759],[-2.96973,48.219809],[-2.968915,48.218042],[-2.96928,48.21727],[-2.970246,48.216055],[-2.971766,48.215304],[-2.972663,48.213947],[-2.972775,48.213051],[-2.973223,48.213026],[-2.973671,48.213822],[-2.974157,48.214295],[-2.974867,48.215764],[-2.975539,48.216312],[-2.975953,48.21707],[-2.975782,48.218057],[-2.975913,48.219423],[-2.977026,48.220766],[-2.977069,48.221338],[-2.976554,48.22261],[-2.975846,48.223711],[-2.975052,48.225998],[-2.974408,48.226856],[-2.97325,48.227856],[-2.973228,48.228228],[-2.97355,48.228485],[-2.975438,48.2288],[-2.976254,48.2291],[-2.97649,48.229371],[-2.976919,48.230644],[-2.977498,48.231272],[-2.978098,48.231457],[-2.97978,48.231258],[-2.980588,48.229979],[-2.980653,48.229236],[-2.981722,48.227712],[-2.982918,48.226741],[-2.983077,48.225776],[-2.984408,48.224718],[-2.984225,48.224277],[-2.984279,48.223875],[-2.983665,48.223244],[-2.984086,48.221788],[-2.984858,48.22053],[-2.985272,48.219013],[-2.985477,48.218502],[-2.985514,48.217469],[-2.98458,48.216785],[-2.983871,48.215998],[-2.982264,48.215254],[-2.9809,48.214221],[-2.980807,48.2133],[-2.981965,48.213113],[-2.983206,48.213023],[-2.983807,48.212895],[-2.984537,48.212008],[-2.98415,48.210221],[-2.983785,48.209392],[-2.983722,48.208434],[-2.984494,48.20799],[-2.985803,48.207161],[-2.986296,48.206732],[-2.986489,48.20636],[-2.9862,48.205931],[-2.98561,48.205245],[-2.985116,48.204901],[-2.983829,48.204544],[-2.983743,48.204215],[-2.985216,48.202979],[-2.987047,48.202856],[-2.987047,48.202856],[-2.987766,48.202692],[-2.988581,48.202678],[-2.989526,48.202792],[-2.990513,48.202892],[-2.99195,48.203164],[-2.992615,48.20335],[-2.992658,48.203164],[-2.994439,48.203307],[-2.997572,48.203793],[-3.000877,48.204065],[-3.000362,48.205195],[-3.000362,48.206196],[-3.000791,48.207397],[-3.001563,48.208183],[-3.008408,48.214046],[-3.009803,48.215061],[-3.011005,48.215633],[-3.011884,48.215833],[-3.012957,48.215733],[-3.015446,48.21489],[-3.015446,48.214332],[-3.01506,48.21356],[-3.015811,48.213646],[-3.01667,48.213589],[-3.017206,48.213345],[-3.019545,48.212673],[-3.020746,48.213131],[-3.021841,48.213074],[-3.022742,48.212402],[-3.024051,48.212059],[-3.024652,48.211715],[-3.024823,48.211458],[-3.024716,48.211115],[-3.025102,48.2101],[-3.026004,48.210243],[-3.025725,48.209313],[-3.02345,48.208555],[-3.021798,48.20764],[-3.021219,48.207483],[-3.02021,48.206997],[-3.018451,48.206539],[-3.017249,48.206496],[-3.016219,48.206282],[-3.015532,48.206267],[-3.01521,48.206096],[-3.01521,48.205538],[-3.015082,48.205252],[-3.015661,48.204666],[-3.01594,48.203679],[-3.01667,48.203336],[-3.017678,48.20315],[-3.019759,48.203364],[-3.020017,48.203121],[-3.019695,48.202778],[-3.019137,48.202406],[-3.019309,48.201891],[-3.018923,48.201691],[-3.018236,48.201862],[-3.017678,48.201705],[-3.017871,48.200976],[-3.017678,48.200232],[-3.016927,48.199088],[-3.017764,48.198959],[-3.018987,48.198788],[-3.020038,48.198973],[-3.021347,48.198973],[-3.022742,48.198759],[-3.023493,48.199331],[-3.026111,48.19966],[-3.0289,48.199789],[-3.031003,48.201362],[-3.032226,48.202735],[-3.032527,48.203436],[-3.032334,48.203664],[-3.033578,48.204165],[-3.033943,48.204079],[-3.034436,48.204194],[-3.035059,48.204608],[-3.035702,48.20478],[-3.035896,48.204952],[-3.036346,48.205109],[-3.036904,48.205052],[-3.037655,48.205395],[-3.03787,48.205566],[-3.038256,48.205681],[-3.038792,48.205538],[-3.038857,48.205166],[-3.039307,48.205095],[-3.041582,48.205524],[-3.042161,48.205466],[-3.042655,48.205895],[-3.042826,48.206253],[-3.042655,48.206696],[-3.042955,48.206939],[-3.043427,48.206811],[-3.044607,48.207754],[-3.044457,48.208298],[-3.04362,48.208956],[-3.040852,48.210271],[-3.041367,48.210529],[-3.043899,48.210014],[-3.045015,48.209528],[-3.045959,48.208727],[-3.046667,48.208813],[-3.047118,48.209099],[-3.047933,48.209456],[-3.048877,48.210428],[-3.048856,48.210772],[-3.049478,48.2107],[-3.049521,48.210185],[-3.049714,48.209814],[-3.048706,48.208512],[-3.048062,48.208326],[-3.045809,48.206539],[-3.045959,48.206353],[-3.046174,48.20631],[-3.04641,48.205867],[-3.046796,48.205581],[-3.047311,48.205481],[-3.048427,48.206053],[-3.049156,48.206196],[-3.04935,48.206382],[-3.049865,48.206296],[-3.052482,48.207526],[-3.053856,48.208698],[-3.053856,48.209714],[-3.055787,48.209814],[-3.056817,48.210028],[-3.056774,48.209385],[-3.056109,48.208827],[-3.057568,48.207955],[-3.058855,48.20764],[-3.059134,48.20774],[-3.059348,48.207647],[-3.059692,48.20764],[-3.059757,48.207468],[-3.059966,48.207577],[-3.06047,48.207604],[-3.060894,48.207855],[-3.061731,48.207969],[-3.062653,48.207926],[-3.062825,48.207812],[-3.063147,48.207855],[-3.063625,48.207831],[-3.064097,48.207707],[-3.064333,48.207523],[-3.066494,48.207311],[-3.067073,48.206824],[-3.068471,48.206531],[-3.069715,48.206553],[-3.070309,48.206612],[-3.071423,48.207029],[-3.072932,48.207769],[-3.074434,48.208727],[-3.074456,48.208953],[-3.073821,48.208747],[-3.072717,48.209499],[-3.073039,48.209728],[-3.072992,48.210156],[-3.072756,48.210259],[-3.07309,48.210546],[-3.073512,48.210546],[-3.074219,48.210386],[-3.07448,48.210492],[-3.074399,48.210698],[-3.074627,48.210772],[-3.074504,48.21098],[-3.074627,48.211186],[-3.074047,48.211458],[-3.073854,48.211787],[-3.073512,48.212014],[-3.073187,48.212058],[-3.072911,48.212399],[-3.073366,48.212307],[-3.074069,48.212588],[-3.075442,48.212488],[-3.075721,48.21203],[-3.076188,48.21196],[-3.077114,48.212063],[-3.077309,48.212159],[-3.07733,48.212416],[-3.077223,48.212702],[-3.077695,48.213117],[-3.077871,48.214008],[-3.078415,48.214068],[-3.078537,48.214203],[-3.07924,48.214218],[-3.080033,48.2141],[-3.08203,48.214418],[-3.082416,48.214404],[-3.08203,48.213932],[-3.082502,48.213774],[-3.081472,48.213474],[-3.08145,48.213288],[-3.08042,48.213174],[-3.07997,48.213074],[-3.079905,48.212902],[-3.080292,48.212631],[-3.081408,48.212383],[-3.082335,48.212134],[-3.082814,48.211803],[-3.082952,48.211372],[-3.083703,48.211258],[-3.084433,48.211215],[-3.084862,48.211358],[-3.08527,48.211286],[-3.088156,48.211651],[-3.08836,48.211344],[-3.08793,48.210915],[-3.087823,48.210514],[-3.087287,48.210114],[-3.087437,48.209857],[-3.087737,48.209799],[-3.087845,48.209571],[-3.088188,48.209385],[-3.08714,48.208119],[-3.08793,48.207998],[-3.087866,48.207812],[-3.087265,48.207955],[-3.086922,48.207769],[-3.087008,48.206968],[-3.086879,48.206553],[-3.086969,48.205908],[-3.086807,48.205322],[-3.086922,48.204666],[-3.087278,48.204623],[-3.087904,48.204233],[-3.088252,48.204251],[-3.088384,48.204114],[-3.089046,48.20395],[-3.090377,48.203307],[-3.091428,48.202949],[-3.091857,48.202907],[-3.092694,48.202692],[-3.093273,48.202892],[-3.093831,48.203336],[-3.093724,48.203593],[-3.09366,48.204222],[-3.094254,48.205192],[-3.095698,48.206339],[-3.096669,48.20678],[-3.09723,48.20684],[-3.098187,48.206839],[-3.099052,48.20678],[-3.099775,48.206834],[-3.101234,48.206711],[-3.104012,48.206016],[-3.104695,48.205978],[-3.104955,48.205843],[-3.105695,48.206054],[-3.106127,48.206425],[-3.105772,48.206889],[-3.105966,48.207576],[-3.106245,48.208091],[-3.10706,48.208763],[-3.107661,48.208934],[-3.108068,48.208963],[-3.108562,48.209206],[-3.109206,48.208934],[-3.110175,48.207642],[-3.109764,48.207465],[-3.110011,48.207029]]],"type":"MultiLineString"},"properties":{"geo_point":{"lon":-3.058271616725613,"lat":48.04613164459899},"name":"GR341 De Lanester (Morbihan) à l'Ecluse de Bellevue (Côtes-d'Armor) (2020)","code_gr":"GR341"}}]}