{"type":"FeatureCollection","features":[{"type":"Feature","geometry":{"coordinates":[[[-0.133917,48.208916],[-0.136578,48.208088],[-0.134969,48.205528],[-0.136943,48.204605],[-0.141224,48.202896],[-0.141986,48.202888],[-0.143155,48.202748],[-0.14426,48.202381],[-0.145258,48.201923],[-0.145698,48.201809],[-0.149431,48.199272],[-0.15044,48.1987],[-0.15132,48.198357],[-0.152339,48.198318],[-0.15398,48.197998],[-0.152339,48.195457],[-0.154281,48.195065],[-0.155107,48.19458],[-0.155514,48.19405],[-0.155729,48.19342],[-0.156308,48.192749],[-0.157671,48.1931],[-0.15869,48.193569],[-0.159763,48.194256],[-0.160353,48.194359],[-0.161684,48.194187],[-0.162488,48.194164],[-0.163014,48.194031],[-0.163776,48.193642],[-0.164688,48.193584],[-0.16546,48.1936],[-0.16634,48.193298],[-0.166876,48.19297],[-0.167187,48.192822],[-0.167606,48.192699],[-0.16885,48.192024],[-0.169612,48.19202],[-0.170685,48.191898],[-0.171962,48.191418],[-0.173088,48.191116],[-0.174226,48.190666],[-0.176425,48.190559],[-0.177122,48.190502],[-0.178034,48.190159],[-0.178195,48.189953],[-0.17812,48.188931],[-0.177562,48.188751],[-0.177208,48.188457],[-0.177691,48.18832],[-0.178785,48.187786],[-0.179188,48.187523],[-0.179472,48.187325],[-0.180856,48.187163],[-0.18173,48.186908],[-0.181768,48.186438],[-0.181527,48.185868],[-0.182572,48.184783],[-0.184922,48.183366],[-0.185536,48.183602],[-0.185764,48.183495],[-0.187465,48.184643],[-0.187631,48.184555],[-0.189439,48.185753],[-0.194052,48.182739],[-0.194771,48.182285],[-0.194905,48.182079],[-0.1952,48.181517],[-0.19409,48.180351],[-0.194036,48.180237],[-0.194964,48.179943],[-0.19644,48.179577],[-0.199041,48.178749],[-0.199803,48.17844],[-0.200506,48.177982],[-0.201235,48.177414],[-0.202094,48.176891],[-0.203403,48.176125],[-0.203912,48.176029],[-0.204336,48.175987],[-0.204749,48.176041],[-0.205039,48.176018],[-0.205345,48.175953],[-0.206348,48.175869],[-0.207061,48.175713],[-0.207667,48.175652],[-0.207909,48.175764],[-0.208885,48.17571],[-0.209689,48.17557],[-0.210618,48.175433],[-0.211267,48.17514],[-0.211653,48.175179],[-0.212554,48.174946],[-0.212876,48.174816],[-0.212989,48.174728],[-0.213187,48.174717],[-0.213493,48.174656],[-0.213767,48.174671],[-0.213987,48.174606],[-0.214223,48.174221],[-0.214212,48.17384],[-0.216073,48.17292],[-0.217055,48.172764],[-0.217742,48.17255],[-0.218477,48.172421],[-0.219319,48.17263],[-0.220622,48.172321],[-0.222135,48.172188],[-0.223015,48.172119],[-0.223187,48.172012],[-0.223213,48.171562],[-0.22339,48.171162],[-0.223702,48.170944],[-0.22449,48.170555],[-0.224887,48.170479],[-0.225745,48.170193],[-0.226293,48.170155],[-0.226845,48.170254],[-0.22743,48.170036],[-0.228106,48.169838],[-0.228626,48.169724],[-0.228894,48.169579],[-0.229109,48.169388],[-0.231228,48.168888],[-0.232027,48.16861],[-0.232161,48.164898],[-0.231636,48.164734],[-0.23111,48.16441],[-0.232462,48.162155],[-0.233663,48.160706],[-0.234393,48.160118],[-0.234629,48.159603],[-0.234597,48.159088],[-0.234704,48.158642],[-0.23405,48.15834],[-0.233266,48.157555],[-0.232633,48.157074],[-0.231957,48.156731],[-0.231056,48.156502],[-0.230488,48.156132],[-0.229511,48.156712],[-0.22935,48.157139],[-0.229007,48.157612],[-0.228792,48.157593],[-0.228642,48.157303],[-0.228149,48.157261],[-0.227602,48.157364],[-0.225552,48.157188],[-0.2236,48.157406],[-0.221958,48.157661],[-0.220499,48.1577],[-0.219791,48.157505],[-0.219448,48.157185],[-0.219083,48.156658],[-0.218664,48.156017],[-0.218235,48.15583],[-0.218074,48.155987],[-0.21727,48.155994],[-0.212914,48.156754],[-0.21271,48.15696],[-0.212678,48.157269],[-0.209631,48.158157],[-0.208762,48.158585],[-0.208097,48.158806],[-0.207185,48.159065],[-0.206412,48.159409],[-0.206026,48.159382],[-0.205618,48.159286],[-0.20462,48.159687],[-0.203794,48.15984],[-0.202764,48.16013],[-0.201284,48.160095],[-0.200661,48.160152],[-0.200232,48.16013],[-0.199889,48.160309],[-0.198795,48.160709],[-0.198741,48.160912],[-0.198838,48.161156],[-0.197293,48.161926],[-0.196102,48.162373],[-0.196145,48.162823],[-0.195297,48.162888],[-0.194653,48.162716],[-0.194063,48.162907],[-0.193366,48.162422],[-0.192915,48.162479],[-0.192561,48.162907],[-0.191789,48.162609],[-0.190963,48.162743],[-0.188688,48.162609],[-0.186703,48.162659],[-0.18548,48.162773],[-0.184643,48.158794],[-0.184246,48.158714],[-0.182508,48.158794],[-0.181897,48.15868],[-0.180008,48.15789],[-0.178678,48.157505],[-0.176822,48.157291],[-0.175492,48.157234],[-0.173357,48.157356],[-0.171168,48.158142],[-0.169773,48.158478],[-0.168593,48.158577],[-0.166276,48.158459],[-0.164387,48.158363],[-0.162091,48.158485],[-0.161544,48.158371],[-0.160342,48.157776],[-0.159602,48.157776],[-0.159184,48.157547],[-0.158851,48.157532],[-0.158154,48.157047],[-0.154946,48.155636],[-0.154645,48.155228],[-0.152478,48.154442],[-0.151684,48.153488],[-0.15147,48.152809],[-0.151062,48.152206],[-0.150633,48.151917],[-0.14986,48.151974],[-0.148584,48.152344],[-0.146996,48.152966],[-0.145826,48.153313],[-0.144464,48.153934],[-0.144035,48.153877],[-0.14352,48.153709],[-0.143069,48.153812],[-0.141352,48.154678],[-0.140172,48.15498],[-0.139582,48.155201],[-0.138756,48.155373],[-0.138037,48.155766],[-0.137211,48.15601],[-0.136675,48.155552],[-0.13602,48.15556],[-0.13484,48.155094],[-0.134186,48.155563],[-0.133821,48.155407],[-0.132394,48.154499],[-0.131214,48.15406],[-0.129476,48.153667],[-0.129197,48.153404],[-0.12925,48.152733],[-0.128918,48.151821],[-0.128574,48.151348],[-0.127888,48.150768],[-0.126987,48.149338],[-0.126386,48.148651],[-0.124937,48.147575],[-0.123897,48.146782],[-0.123993,48.145615],[-0.12394,48.14502],[-0.12365,48.144798],[-0.122845,48.1446],[-0.122384,48.144226],[-0.122277,48.143654],[-0.121397,48.143768],[-0.120592,48.143047],[-0.120077,48.142902],[-0.119444,48.142544],[-0.119337,48.142223],[-0.119573,48.142117],[-0.120764,48.14193],[-0.120764,48.141472],[-0.122062,48.141293],[-0.122212,48.140388],[-0.12145,48.140274],[-0.120732,48.139896],[-0.12027,48.139423],[-0.119637,48.139164],[-0.118285,48.138901],[-0.117105,48.13847],[-0.116419,48.138443],[-0.115957,48.138599],[-0.115603,48.138943],[-0.115035,48.138226],[-0.113436,48.137604],[-0.113018,48.137238],[-0.111998,48.134125],[-0.112352,48.132729],[-0.112138,48.132034],[-0.110657,48.129391],[-0.110282,48.128963],[-0.108662,48.127571],[-0.106784,48.126736],[-0.104027,48.125618],[-0.100368,48.124771],[-0.098265,48.123985],[-0.096356,48.123463],[-0.095959,48.123474],[-0.094403,48.122868],[-0.09304,48.122753],[-0.092515,48.122543],[-0.092,48.121731],[-0.091313,48.121178],[-0.090283,48.120861],[-0.088781,48.12027],[-0.088395,48.119987],[-0.0895,48.119164],[-0.089189,48.118755],[-0.08965,48.118492],[-0.090111,48.118156],[-0.090165,48.117905],[-0.091646,48.116844],[-0.092053,48.116814],[-0.093427,48.115997],[-0.093319,48.114854],[-0.094982,48.114185],[-0.096216,48.113606],[-0.096957,48.113114],[-0.09657,48.112991],[-0.095927,48.1119],[-0.095465,48.111702],[-0.093781,48.111279],[-0.092869,48.11079],[-0.092407,48.110291],[-0.092043,48.109615],[-0.09141,48.109222],[-0.090787,48.108196],[-0.092247,48.107891],[-0.093019,48.107624],[-0.09347,48.107574],[-0.096452,48.106213],[-0.097718,48.105835],[-0.098276,48.105724],[-0.098373,48.105583],[-0.098019,48.105438],[-0.096914,48.105232],[-0.096195,48.104801],[-0.094897,48.104492],[-0.09598,48.104263],[-0.096817,48.103699],[-0.097632,48.102077],[-0.097021,48.101814],[-0.096517,48.101357],[-0.096034,48.100834],[-0.092493,48.098789],[-0.092987,48.098316],[-0.093073,48.097881],[-0.092558,48.097221],[-0.092493,48.096706],[-0.092021,48.095974],[-0.09245,48.094822],[-0.091871,48.094822],[-0.090809,48.094425],[-0.089779,48.094341],[-0.088556,48.093983],[-0.087966,48.093903],[-0.086281,48.093094],[-0.085584,48.092644],[-0.083556,48.092033],[-0.082644,48.091656],[-0.082226,48.091324],[-0.081958,48.091053],[-0.081593,48.090893],[-0.080734,48.090893],[-0.079308,48.091244],[-0.078793,48.091244],[-0.07817,48.08992],[-0.077677,48.089401],[-0.076743,48.089016],[-0.072967,48.088314],[-0.071443,48.087799],[-0.07021,48.087276],[-0.069855,48.086987],[-0.069072,48.087017],[-0.067946,48.087147],[-0.067538,48.086903],[-0.067184,48.086212],[-0.065929,48.085518],[-0.065317,48.08559],[-0.064899,48.084915],[-0.064877,48.084309],[-0.065156,48.084084],[-0.065564,48.083927],[-0.065596,48.083496],[-0.065478,48.083096],[-0.065671,48.082729],[-0.065585,48.081993],[-0.064899,48.08033],[-0.064394,48.078014],[-0.064008,48.07671],[-0.063922,48.074909],[-0.065875,48.073441],[-0.067281,48.073063],[-0.068321,48.072536],[-0.070113,48.072102],[-0.071572,48.071899],[-0.072398,48.071541],[-0.074565,48.070389],[-0.075703,48.069893],[-0.076572,48.068752],[-0.077398,48.067413],[-0.07802,48.066055],[-0.07949,48.063835],[-0.08111,48.062191],[-0.08273,48.060928],[-0.083245,48.059662],[-0.083556,48.059402],[-0.084758,48.059208],[-0.084779,48.058781],[-0.085305,48.057747],[-0.085573,48.057682],[-0.085874,48.057144],[-0.085638,48.056721],[-0.085627,48.055557],[-0.085155,48.054928],[-0.085219,48.054195],[-0.084683,48.053459],[-0.08405,48.052826],[-0.08361,48.052094],[-0.08244,48.051235],[-0.081625,48.050461],[-0.08081,48.049793],[-0.080402,48.049149],[-0.079769,48.048695],[-0.078192,48.047894],[-0.07772,48.047432],[-0.077065,48.047081],[-0.075821,48.046745],[-0.076733,48.04562],[-0.077999,48.042484],[-0.078235,48.040009],[-0.079157,48.040001],[-0.081142,48.040131],[-0.083213,48.040604],[-0.083224,48.040611],[-0.083674,48.040413],[-0.083803,48.040649],[-0.083932,48.041138],[-0.084532,48.041367],[-0.085423,48.041481],[-0.086399,48.041954],[-0.087129,48.041988],[-0.088384,48.041775],[-0.089092,48.041801],[-0.090358,48.041302],[-0.090873,48.04097],[-0.091259,48.040871],[-0.092247,48.040466],[-0.094553,48.040031],[-0.094993,48.039795],[-0.095133,48.039391],[-0.096109,48.039551],[-0.097128,48.040173],[-0.098727,48.040447],[-0.099864,48.040375],[-0.101023,48.040367],[-0.101742,48.039818],[-0.10187,48.039185],[-0.10392,48.036861],[-0.104842,48.035934],[-0.10525,48.035625],[-0.105733,48.035152],[-0.107256,48.03577],[-0.107439,48.036041],[-0.107331,48.037041],[-0.107803,48.037334],[-0.107986,48.03772],[-0.107986,48.037987],[-0.108104,48.038425],[-0.109273,48.038303],[-0.109906,48.038387],[-0.111762,48.038467],[-0.112224,48.038116],[-0.113629,48.03772],[-0.114616,48.037556],[-0.115678,48.037491],[-0.116547,48.038185],[-0.117009,48.038769],[-0.117577,48.03933],[-0.118639,48.039169],[-0.119423,48.039127],[-0.119841,48.039322],[-0.120356,48.039925],[-0.121032,48.040302],[-0.121429,48.040718],[-0.121858,48.040936],[-0.123253,48.04084],[-0.124712,48.040691],[-0.124841,48.03986],[-0.126643,48.039894],[-0.127469,48.039673],[-0.129755,48.039577],[-0.129937,48.039909],[-0.131181,48.039951],[-0.131621,48.040195],[-0.13204,48.040962],[-0.133477,48.041931],[-0.13454,48.042427],[-0.135258,48.042786],[-0.136063,48.043285],[-0.137029,48.043701],[-0.137308,48.042656],[-0.139164,48.039715],[-0.139003,48.039486],[-0.139024,48.039207],[-0.138552,48.038918],[-0.136911,48.038689],[-0.13557,48.038368],[-0.134486,48.038361],[-0.132844,48.038029],[-0.133445,48.036091],[-0.134583,48.03503],[-0.135494,48.034397],[-0.134776,48.034248],[-0.134003,48.033989],[-0.133005,48.034222],[-0.132104,48.034271],[-0.131203,48.034046],[-0.130023,48.033443],[-0.132147,48.03194],[-0.132598,48.031406],[-0.132973,48.030727],[-0.132319,48.030655],[-0.131096,48.030369],[-0.13028,48.030045],[-0.12719,48.029362],[-0.126439,48.029026],[-0.12571,48.028919],[-0.125248,48.02874],[-0.124894,48.028423],[-0.125409,48.027145],[-0.125731,48.026535],[-0.125924,48.025372],[-0.125785,48.024914],[-0.125012,48.023766],[-0.123854,48.023197],[-0.122008,48.022503],[-0.120989,48.022224],[-0.120506,48.021729],[-0.120474,48.021507],[-0.118264,48.021168],[-0.119702,48.021103],[-0.121547,48.02084],[-0.128338,48.019402],[-0.128263,48.019108],[-0.130473,48.018269],[-0.131654,48.018017],[-0.132018,48.017883],[-0.132222,48.017673],[-0.13263,48.017952],[-0.133113,48.017925],[-0.133821,48.017567],[-0.134336,48.016998],[-0.134304,48.015556],[-0.134475,48.014687],[-0.134829,48.014351],[-0.13469,48.013889],[-0.134958,48.013748],[-0.138853,48.013229],[-0.138166,48.01255],[-0.141395,48.011932],[-0.142576,48.011589],[-0.142908,48.011402],[-0.143487,48.011288],[-0.143906,48.011372],[-0.145022,48.011108],[-0.145397,48.010841],[-0.145419,48.010231],[-0.14603,48.009914],[-0.145783,48.009354],[-0.145118,48.008392],[-0.145022,48.007977],[-0.145751,48.006386],[-0.144689,48.006023],[-0.145215,48.005371],[-0.145612,48.004368],[-0.14588,48.003044],[-0.146449,48.002377],[-0.147082,48.001095],[-0.147167,48.000202],[-0.147865,47.999508],[-0.148144,47.998989],[-0.148906,47.998363],[-0.149882,47.997711],[-0.149506,47.997326],[-0.149678,47.997002],[-0.150515,47.996841],[-0.150708,47.995651],[-0.150998,47.995464],[-0.151309,47.995457],[-0.152156,47.995594],[-0.152982,47.995129],[-0.153186,47.994495],[-0.153401,47.994236],[-0.153991,47.994114],[-0.155203,47.994301],[-0.156019,47.994171],[-0.155976,47.993282],[-0.157177,47.993347],[-0.157875,47.993095],[-0.159613,47.992371],[-0.160804,47.991467],[-0.161694,47.990482],[-0.161383,47.990238],[-0.162445,47.989174],[-0.165857,47.990501],[-0.166394,47.990318],[-0.167595,47.988968],[-0.168282,47.987862],[-0.168893,47.986511],[-0.168668,47.986282],[-0.169183,47.985252],[-0.169516,47.984901],[-0.169955,47.985435],[-0.170202,47.985878],[-0.170588,47.985943],[-0.170964,47.98587],[-0.171179,47.985672],[-0.172359,47.985062],[-0.173249,47.984966],[-0.174869,47.985104],[-0.175384,47.985195],[-0.175717,47.985363],[-0.176328,47.985203],[-0.176296,47.984818],[-0.175835,47.984215],[-0.175824,47.983788],[-0.174944,47.983402],[-0.173957,47.983273],[-0.173303,47.982761],[-0.173346,47.982353],[-0.173088,47.982189],[-0.172734,47.982143],[-0.172048,47.981262],[-0.173185,47.980663],[-0.174183,47.980335],[-0.174869,47.980118],[-0.175352,47.978668],[-0.176007,47.977634],[-0.176361,47.977024],[-0.177026,47.976456],[-0.177788,47.976154],[-0.17886,47.976196],[-0.179601,47.976074],[-0.179858,47.975952],[-0.180341,47.976383],[-0.182122,47.976681],[-0.182626,47.977009],[-0.183485,47.976795],[-0.184032,47.97681],[-0.185931,47.97747],[-0.186521,47.97752],[-0.187014,47.977734],[-0.187433,47.977497],[-0.188495,47.977612],[-0.189761,47.977512],[-0.190855,47.977116],[-0.191317,47.977081],[-0.192829,47.976608],[-0.193602,47.976494],[-0.19505,47.976822],[-0.196166,47.976795],[-0.197593,47.977455],[-0.199084,47.978065],[-0.2002,47.979012],[-0.200608,47.979458],[-0.201305,47.97987],[-0.202067,47.979725],[-0.202818,47.979496],[-0.203043,47.979252],[-0.203376,47.979244],[-0.203601,47.979099],[-0.203794,47.978043],[-0.203258,47.977039],[-0.202743,47.976406],[-0.202485,47.97617],[-0.202775,47.97591],[-0.203075,47.973598],[-0.202882,47.973022],[-0.203569,47.973282],[-0.20461,47.973484],[-0.205725,47.973907],[-0.206487,47.973988],[-0.207067,47.975163],[-0.208011,47.97644],[-0.208333,47.976536],[-0.209727,47.975567],[-0.211101,47.974926],[-0.212313,47.974777],[-0.215038,47.974689],[-0.215338,47.974594],[-0.216186,47.974518],[-0.216873,47.974331],[-0.217355,47.974167],[-0.217999,47.973988],[-0.219394,47.973274],[-0.220842,47.972275],[-0.221862,47.97176],[-0.222516,47.971596],[-0.223256,47.971451],[-0.223943,47.971092],[-0.22434,47.970703],[-0.225713,47.968864],[-0.226561,47.968346],[-0.227473,47.96809],[-0.2264,47.966774],[-0.226314,47.965961],[-0.226668,47.965],[-0.227333,47.96513],[-0.22772,47.965294],[-0.22832,47.965401],[-0.228707,47.965179],[-0.229061,47.965214],[-0.229554,47.965553],[-0.230294,47.965767],[-0.231088,47.965927],[-0.231196,47.966106],[-0.232054,47.966064],[-0.232258,47.966938],[-0.235122,47.967327],[-0.235949,47.967239],[-0.238405,47.967197],[-0.238867,47.966881],[-0.240991,47.966522],[-0.242354,47.966629],[-0.243169,47.965969],[-0.244703,47.966026],[-0.245304,47.965961],[-0.246356,47.965717],[-0.247761,47.964722],[-0.248716,47.963943],[-0.24922,47.963398],[-0.250229,47.962803],[-0.250926,47.962601],[-0.251505,47.962627],[-0.254477,47.962219],[-0.254477,47.961494],[-0.254542,47.960732],[-0.254284,47.960266],[-0.251505,47.956722],[-0.251559,47.956314],[-0.251774,47.95586],[-0.251452,47.955185],[-0.251409,47.954891],[-0.251162,47.95454],[-0.250894,47.954426],[-0.251033,47.954006],[-0.250883,47.953648],[-0.250958,47.953323],[-0.251452,47.952454],[-0.251988,47.951096],[-0.25201,47.950054],[-0.25231,47.948921],[-0.252664,47.948647],[-0.253437,47.9482],[-0.253404,47.947872],[-0.253522,47.947548],[-0.253404,47.947437],[-0.253104,47.947437],[-0.25349,47.946873],[-0.254606,47.944305],[-0.25407,47.944046],[-0.253651,47.943165],[-0.252063,47.942734],[-0.25098,47.94146],[-0.250422,47.94112],[-0.249875,47.940632],[-0.249113,47.940475],[-0.247965,47.940369],[-0.246356,47.939693],[-0.245197,47.939434],[-0.243695,47.938644],[-0.242815,47.938484],[-0.241699,47.93819],[-0.240852,47.938126],[-0.240616,47.937851],[-0.240036,47.937653],[-0.240079,47.937405],[-0.241388,47.937305],[-0.242869,47.937233],[-0.243727,47.937256],[-0.243995,47.936947],[-0.244263,47.936047],[-0.245057,47.935192],[-0.246506,47.935532],[-0.247031,47.935478],[-0.24878,47.935631],[-0.250239,47.935467],[-0.251763,47.935909],[-0.25364,47.936192],[-0.256591,47.936363],[-0.2582,47.936352],[-0.260882,47.930374],[-0.260131,47.93],[-0.25923,47.92942],[-0.25878,47.928772],[-0.25849,47.928177],[-0.258254,47.927967],[-0.25687,47.928326],[-0.256398,47.927917],[-0.255486,47.926891],[-0.254188,47.925892],[-0.253834,47.925041],[-0.253876,47.92477],[-0.254692,47.924438],[-0.256537,47.923309],[-0.256999,47.923222],[-0.257964,47.923458],[-0.25805,47.923218],[-0.258307,47.92308],[-0.258436,47.922913],[-0.260324,47.922562],[-0.261161,47.922546],[-0.262363,47.922318],[-0.263371,47.921913],[-0.264133,47.921741],[-0.264509,47.921505],[-0.264144,47.920448],[-0.26408,47.920116],[-0.263554,47.919514],[-0.263318,47.918865],[-0.263275,47.918465],[-0.264069,47.918282],[-0.264326,47.91832],[-0.265453,47.918034],[-0.265421,47.917046],[-0.264895,47.916241],[-0.264766,47.915653],[-0.264895,47.915394],[-0.264273,47.914478],[-0.263747,47.914207],[-0.262449,47.913265],[-0.260679,47.91127],[-0.26011,47.910519],[-0.259252,47.910309],[-0.258447,47.909798],[-0.258061,47.9091],[-0.257331,47.908077],[-0.25614,47.908504],[-0.25569,47.908848],[-0.254563,47.909172],[-0.254273,47.908546],[-0.253426,47.907513],[-0.252825,47.907166],[-0.252353,47.906628],[-0.251591,47.906914],[-0.250272,47.905441],[-0.249842,47.904411],[-0.252278,47.903389],[-0.251677,47.902699],[-0.251216,47.901684],[-0.250572,47.900478],[-0.250218,47.899406],[-0.249778,47.898693],[-0.248909,47.897427],[-0.246441,47.896362],[-0.245379,47.89576],[-0.244499,47.895004],[-0.243995,47.894161],[-0.245336,47.893436],[-0.246377,47.892303],[-0.248008,47.890774],[-0.238405,47.885929],[-0.239779,47.885212],[-0.239789,47.885204],[-0.240777,47.884521],[-0.241807,47.884106],[-0.242976,47.883896],[-0.244113,47.883686],[-0.24495,47.883175],[-0.245347,47.882542],[-0.244499,47.882988],[-0.243309,47.883205],[-0.241292,47.883087],[-0.241045,47.881794],[-0.240616,47.880116],[-0.24038,47.879742],[-0.240412,47.879169],[-0.24053,47.87867],[-0.240369,47.878208],[-0.24097,47.877419],[-0.241495,47.876266],[-0.241635,47.875454],[-0.241903,47.875023],[-0.241538,47.87487],[-0.240551,47.874073],[-0.239575,47.873344],[-0.238159,47.872765],[-0.237708,47.872272],[-0.236882,47.871304],[-0.236721,47.870178],[-0.238116,47.870022],[-0.241184,47.869522],[-0.241785,47.86948],[-0.241238,47.866856],[-0.243802,47.864868],[-0.244306,47.863018],[-0.245272,47.860966],[-0.245594,47.859966],[-0.245583,47.85936],[-0.246034,47.858475],[-0.245765,47.858109],[-0.245132,47.857826],[-0.244263,47.857742],[-0.243995,47.85751],[-0.243534,47.856533],[-0.243341,47.855804],[-0.243448,47.855343],[-0.24333,47.854588],[-0.243416,47.854053],[-0.243695,47.853615],[-0.243233,47.852337],[-0.242944,47.851952],[-0.242965,47.851448],[-0.242879,47.850685],[-0.243319,47.850636],[-0.244027,47.848621],[-0.244424,47.84864],[-0.245036,47.849072],[-0.245787,47.850101],[-0.24789,47.851521],[-0.249628,47.852436],[-0.251226,47.8531],[-0.254681,47.85437],[-0.257589,47.855324],[-0.259423,47.855804],[-0.260228,47.856186],[-0.261065,47.856899],[-0.26232,47.857372],[-0.263447,47.857964],[-0.263736,47.857914],[-0.264434,47.858002],[-0.265067,47.858303],[-0.265957,47.858368],[-0.266279,47.85854],[-0.267502,47.8587],[-0.26777,47.858433],[-0.268929,47.858456],[-0.270689,47.858475],[-0.272856,47.858204],[-0.273542,47.858067],[-0.274765,47.858337],[-0.27586,47.858418],[-0.279046,47.858311],[-0.281417,47.858391],[-0.28308,47.858532],[-0.283896,47.858524],[-0.286417,47.858765],[-0.28778,47.858685],[-0.290998,47.858086],[-0.292715,47.857273],[-0.294485,47.856285],[-0.295773,47.855705],[-0.296663,47.855415],[-0.29779,47.854828],[-0.299635,47.854301],[-0.299871,47.854343],[-0.300525,47.854118],[-0.302006,47.853855],[-0.305654,47.853661],[-0.306555,47.853485],[-0.307724,47.85289],[-0.309988,47.85062],[-0.311737,47.84985],[-0.314645,47.848324],[-0.315782,47.847797],[-0.317402,47.847469],[-0.318357,47.847164],[-0.31929,47.846951],[-0.321522,47.846115],[-0.322745,47.845558],[-0.324054,47.844704],[-0.325534,47.843723],[-0.329686,47.841892],[-0.330137,47.842205],[-0.331296,47.841759],[-0.33195,47.840649],[-0.332744,47.839966],[-0.333077,47.839893],[-0.332959,47.839649],[-0.332487,47.839676],[-0.331285,47.839634],[-0.330663,47.838882],[-0.330223,47.837582],[-0.329665,47.837151],[-0.327326,47.835983],[-0.325459,47.837234],[-0.323936,47.836197],[-0.323399,47.835922],[-0.324011,47.835281],[-0.324901,47.833347],[-0.325513,47.83326],[-0.326028,47.833488],[-0.325791,47.832905],[-0.325524,47.832323],[-0.325781,47.831863],[-0.326854,47.830753],[-0.327755,47.830135],[-0.329386,47.829414],[-0.330673,47.828491],[-0.332347,47.827038],[-0.334418,47.825474],[-0.337508,47.823795],[-0.33784,47.823746],[-0.338066,47.823593],[-0.336456,47.822449],[-0.334536,47.820778],[-0.334654,47.820625],[-0.334332,47.819904],[-0.33371,47.81834],[-0.333399,47.817291],[-0.332648,47.816399],[-0.331993,47.815418],[-0.330105,47.815857],[-0.32827,47.816433],[-0.326886,47.816853],[-0.322756,47.81979],[-0.320363,47.821453],[-0.318389,47.822109],[-0.319204,47.82048],[-0.319816,47.818336],[-0.320996,47.816326],[-0.322477,47.814243],[-0.323324,47.812576],[-0.323721,47.811657],[-0.324247,47.810677],[-0.326178,47.807377],[-0.326607,47.80706],[-0.327358,47.805977],[-0.331564,47.801033],[-0.333302,47.798943],[-0.335748,47.795723],[-0.337454,47.794304],[-0.339385,47.792942],[-0.341864,47.791515],[-0.343044,47.790619],[-0.345147,47.789036],[-0.345629,47.789165],[-0.347089,47.788918],[-0.350887,47.788998],[-0.351691,47.788868],[-0.354953,47.788116],[-0.356187,47.787216],[-0.360253,47.785618],[-0.360993,47.785442],[-0.362903,47.784897],[-0.364555,47.784615],[-0.365456,47.784637],[-0.365049,47.783619],[-0.364394,47.782467],[-0.364351,47.781502],[-0.36448,47.780045],[-0.364716,47.779446],[-0.365682,47.778564],[-0.366068,47.777969],[-0.367506,47.7766],[-0.367978,47.776188],[-0.367237,47.774883],[-0.366315,47.774181],[-0.366154,47.77359],[-0.366111,47.772869],[-0.366433,47.771946],[-0.366787,47.771465],[-0.366905,47.770737],[-0.36683,47.770096],[-0.367033,47.769432],[-0.365993,47.769573],[-0.365789,47.767815],[-0.365853,47.767208],[-0.366068,47.767021],[-0.366293,47.766056],[-0.365767,47.765011],[-0.36522,47.764313],[-0.364341,47.762402],[-0.363847,47.76207],[-0.362946,47.76165],[-0.363353,47.761093],[-0.363783,47.759716],[-0.364341,47.758324],[-0.364974,47.756168],[-0.365092,47.755844],[-0.365059,47.755295],[-0.364673,47.754856],[-0.361648,47.75433],[-0.360897,47.754272],[-0.36095,47.754005],[-0.360467,47.753555],[-0.359491,47.752995],[-0.359223,47.752048],[-0.357592,47.750744],[-0.357163,47.749992],[-0.35668,47.749126],[-0.356562,47.748478],[-0.355157,47.747715],[-0.353987,47.746819],[-0.353097,47.746002],[-0.352056,47.745335],[-0.351831,47.744972],[-0.351294,47.74477],[-0.350575,47.744801],[-0.349063,47.74435],[-0.347689,47.743759],[-0.346456,47.743362],[-0.345629,47.742802],[-0.345179,47.742687],[-0.344085,47.742027],[-0.342647,47.743652],[-0.341295,47.744446],[-0.340791,47.74519],[-0.340104,47.745491],[-0.337518,47.746269],[-0.337036,47.746574],[-0.336113,47.746479],[-0.334085,47.74667],[-0.333259,47.746525],[-0.331725,47.745926],[-0.33268,47.744705],[-0.332862,47.744007],[-0.333688,47.742634],[-0.334171,47.74218],[-0.334332,47.741428],[-0.334182,47.740074],[-0.3343,47.739559],[-0.335298,47.738644],[-0.336864,47.735889],[-0.3371,47.73568],[-0.336692,47.735504],[-0.335898,47.735332],[-0.335255,47.734726],[-0.334536,47.734539],[-0.333806,47.734531],[-0.332497,47.733932],[-0.332079,47.733624],[-0.330706,47.733089],[-0.330083,47.733536],[-0.328023,47.732426],[-0.327884,47.732185],[-0.327283,47.731892],[-0.3265,47.731117],[-0.326157,47.731083],[-0.32532,47.730598],[-0.325395,47.729877],[-0.325931,47.729588],[-0.327015,47.72966],[-0.327476,47.729504],[-0.328056,47.729633],[-0.328431,47.729206],[-0.329129,47.728737],[-0.330942,47.727295],[-0.332208,47.725838],[-0.332379,47.725208],[-0.332905,47.724667],[-0.333592,47.723831],[-0.334353,47.723194],[-0.33489,47.722286],[-0.335298,47.721115],[-0.335405,47.719715],[-0.333989,47.719414],[-0.333366,47.719688],[-0.329225,47.719627],[-0.326124,47.719067],[-0.32577,47.719715],[-0.325352,47.719845],[-0.324419,47.719624],[-0.320599,47.719093],[-0.31899,47.71859],[-0.31782,47.718575],[-0.314087,47.717781],[-0.311694,47.717457],[-0.309945,47.717369],[-0.309012,47.717213],[-0.311898,47.712021],[-0.312649,47.711002],[-0.313894,47.710411],[-0.314419,47.709423],[-0.315288,47.708225],[-0.313454,47.70715],[-0.311458,47.706421],[-0.309827,47.705906],[-0.308207,47.705566],[-0.307757,47.705105],[-0.307349,47.70475],[-0.307961,47.703884],[-0.307842,47.703632],[-0.304431,47.70314],[-0.302811,47.702744],[-0.300611,47.702404],[-0.300439,47.702779],[-0.300097,47.702874],[-0.299742,47.702824],[-0.299227,47.702858],[-0.298498,47.702766],[-0.295998,47.702629],[-0.294979,47.702435],[-0.293852,47.702389],[-0.292994,47.702477],[-0.291996,47.702492],[-0.290998,47.701893],[-0.29043,47.701237],[-0.289088,47.700687],[-0.288123,47.699623],[-0.286621,47.699047],[-0.285162,47.69714],[-0.283402,47.695927],[-0.280623,47.695293],[-0.280591,47.694565],[-0.281771,47.694016],[-0.281675,47.693558],[-0.281943,47.693054],[-0.282136,47.692272],[-0.283005,47.691177],[-0.283359,47.69054],[-0.284024,47.690128],[-0.284443,47.689449],[-0.284529,47.688995],[-0.284904,47.688381],[-0.285237,47.688179],[-0.285805,47.68729],[-0.285709,47.686604],[-0.285805,47.685875],[-0.286127,47.685326],[-0.286213,47.684856],[-0.287179,47.684582],[-0.285612,47.682915],[-0.285097,47.68261],[-0.284089,47.682365],[-0.283145,47.681824],[-0.282683,47.681389],[-0.281374,47.681145],[-0.27837,47.680141],[-0.276546,47.679173],[-0.274025,47.67767],[-0.272598,47.677017],[-0.270764,47.676651],[-0.269583,47.676716],[-0.265785,47.674751],[-0.265163,47.67395],[-0.264637,47.673473],[-0.265528,47.670963],[-0.256366,47.669868],[-0.25334,47.669483],[-0.252492,47.669659],[-0.248802,47.670769],[-0.248179,47.67038],[-0.245438,47.670403]]],"type":"MultiLineString"},"properties":{"geo_point":{"lon":-0.21791821294330913,"lat":47.957174819994776},"name":"GR365 De Sillé-le-Guillaume (Sarthe) à Durtal (Maine-et-Loire) (2019)","code_gr":"GR365"}}]}