{"type":"FeatureCollection","features":[{"type":"Feature","geometry":{"coordinates":[[[3.919362,45.179984],[3.922473,45.179643],[3.922849,45.179734],[3.923058,45.179583],[3.923272,45.179171],[3.923519,45.178895],[3.925566,45.178747],[3.925566,45.178747],[3.928356,45.177158],[3.928334,45.17799],[3.929514,45.177174],[3.929493,45.177658],[3.930115,45.177249],[3.930373,45.176674],[3.930566,45.176689],[3.931381,45.177174],[3.932669,45.177249],[3.934543,45.177957],[3.93548,45.177945],[3.936252,45.17734],[3.93696,45.177083],[3.937476,45.17697],[3.938119,45.176145],[3.939063,45.175827],[3.940243,45.174995],[3.941509,45.174345],[3.942239,45.174179],[3.943076,45.174557],[3.944148,45.17557],[3.944964,45.175858],[3.945865,45.175888],[3.946181,45.175245],[3.946704,45.17585],[3.947433,45.176259],[3.947989,45.176795],[3.948869,45.177128],[3.949406,45.177703],[3.949985,45.177884],[3.951036,45.178701],[3.951444,45.178686],[3.952002,45.178232],[3.952667,45.177884],[3.953397,45.177915],[3.953633,45.178232],[3.953182,45.178535],[3.953139,45.179079],[3.952131,45.180879],[3.952364,45.181828],[3.952644,45.181828],[3.953037,45.181526],[3.953298,45.181565],[3.953709,45.182079],[3.954382,45.182618],[3.954923,45.182842],[3.95582,45.183751],[3.956492,45.184343],[3.95737,45.184014],[3.958024,45.183632],[3.957949,45.183066],[3.958136,45.182921],[3.958267,45.182184],[3.958547,45.182302],[3.960266,45.18246],[3.960938,45.182368],[3.962022,45.181815],[3.962563,45.181697],[3.963217,45.181605],[3.963479,45.181394],[3.964282,45.18092],[3.964487,45.180485],[3.965702,45.179972],[3.965832,45.17963],[3.966206,45.179458],[3.966449,45.17851],[3.966692,45.178181],[3.967476,45.178128],[3.967738,45.178471],[3.96856,45.177641],[3.968933,45.177707],[3.969568,45.177681],[3.97067,45.177273],[3.972109,45.176943],[3.973734,45.175587],[3.975434,45.174573],[3.976387,45.172888],[3.977675,45.171781],[3.98059,45.169569],[3.982271,45.168476],[3.982775,45.167936],[3.983485,45.166961],[3.983915,45.165868],[3.984494,45.165618],[3.985147,45.165078],[3.98681,45.164103],[3.987053,45.163682],[3.987613,45.163919],[3.989145,45.164103],[3.990004,45.164064],[3.991648,45.1638],[3.992825,45.163879],[3.993423,45.163484],[3.993572,45.1633],[3.994077,45.163339],[3.994842,45.163115],[3.995179,45.162918],[3.996281,45.163247],[3.996935,45.163208],[3.997588,45.163669],[3.999624,45.163287],[4.00011,45.163326],[4.000372,45.163234],[4.000708,45.163392],[4.000895,45.16359],[4.001548,45.1638],[4.001623,45.164077],[4.002482,45.164077],[4.00308,45.164274],[4.003473,45.164222],[4.003827,45.164367],[4.0045,45.164353],[4.004855,45.164459],[4.005677,45.164301],[4.006106,45.164327],[4.006125,45.164538],[4.006555,45.164709],[4.007059,45.164696],[4.007283,45.164788],[4.00775,45.164841],[4.008703,45.165104],[4.010011,45.165078],[4.010552,45.165381],[4.011299,45.165657],[4.011879,45.165736],[4.012514,45.165987],[4.013672,45.166039],[4.014232,45.165723],[4.014662,45.165605],[4.015073,45.165262],[4.015334,45.164867],[4.015708,45.164696],[4.015913,45.164433],[4.017128,45.164248],[4.017688,45.163866],[4.018603,45.163603],[4.018622,45.163471],[4.017893,45.162654],[4.017893,45.16218],[4.017987,45.16197],[4.017912,45.161798],[4.018342,45.161535],[4.018435,45.161179],[4.019089,45.161206],[4.018306,45.160973],[4.019009,45.160842],[4.018762,45.160651],[4.018846,45.160376],[4.018603,45.160007],[4.019332,45.159744],[4.019836,45.159836],[4.019986,45.160007],[4.020583,45.160178],[4.021106,45.159836],[4.02318,45.159322],[4.025235,45.159348],[4.026468,45.159809],[4.029456,45.160376],[4.030521,45.160468],[4.031175,45.160587],[4.031885,45.160521],[4.03224,45.16056],[4.032221,45.159678],[4.032912,45.159309],[4.033099,45.158874],[4.032968,45.158545],[4.033062,45.158295],[4.032875,45.157978],[4.032837,45.15761],[4.033006,45.15757],[4.033454,45.157741],[4.034276,45.157794],[4.034295,45.157346],[4.034145,45.156688],[4.0345,45.156424],[4.034537,45.15566],[4.033865,45.155199],[4.034818,45.154527],[4.035023,45.153737],[4.036013,45.153381],[4.036293,45.153355],[4.036891,45.153105],[4.037694,45.152999],[4.038161,45.152617],[4.038516,45.152419],[4.039039,45.151998],[4.039133,45.15155],[4.039861,45.15155],[4.041337,45.151221],[4.042476,45.151076],[4.043971,45.150483],[4.044326,45.15018],[4.045839,45.151168],[4.046605,45.151221],[4.047501,45.151431],[4.048211,45.151392],[4.050042,45.151669],[4.051424,45.151906],[4.053292,45.152103],[4.054114,45.151906],[4.055777,45.151247],[4.056841,45.151049],[4.056337,45.150707],[4.055141,45.150694],[4.054207,45.15101],[4.053871,45.150865],[4.054263,45.149864],[4.054749,45.149455],[4.054861,45.149021],[4.054656,45.14848],[4.054936,45.148415],[4.055739,45.146689],[4.057084,45.145753],[4.058093,45.144897],[4.058896,45.144607],[4.059569,45.14462],[4.060036,45.144344],[4.060166,45.14404],[4.060559,45.143896],[4.060633,45.143408],[4.061175,45.143158],[4.061848,45.141774],[4.061885,45.14126],[4.062072,45.140733],[4.061549,45.139798],[4.061698,45.139429],[4.061549,45.139086],[4.061268,45.13877],[4.060372,45.13765],[4.059643,45.137189],[4.058896,45.135924],[4.058392,45.135502],[4.057887,45.134922],[4.057252,45.134619],[4.056598,45.134422],[4.055814,45.133987],[4.055328,45.133815],[4.054955,45.133301],[4.055328,45.133117],[4.056113,45.133446],[4.057028,45.133512],[4.05785,45.133446],[4.058616,45.132998],[4.058466,45.13255],[4.058336,45.13172],[4.058485,45.13147],[4.058242,45.131206],[4.058018,45.130547],[4.058728,45.129875],[4.059064,45.129519],[4.059326,45.128834],[4.059363,45.128359],[4.059456,45.128017],[4.059344,45.127595],[4.059232,45.12691],[4.058765,45.12658],[4.058728,45.126027],[4.05856,45.125763],[4.059176,45.125565],[4.060017,45.125895],[4.060148,45.126211],[4.060353,45.125987],[4.060559,45.125565],[4.06125,45.125275],[4.061885,45.124669],[4.062016,45.124102],[4.062427,45.123878],[4.061885,45.123628],[4.06181,45.123298],[4.060932,45.123101],[4.060596,45.122771],[4.060895,45.12227],[4.060801,45.121901],[4.060484,45.121638],[4.060633,45.121176],[4.060633,45.120741],[4.061194,45.119977],[4.061362,45.119305],[4.062296,45.118712],[4.062688,45.118356],[4.063043,45.117987],[4.063118,45.116866],[4.063286,45.116682],[4.063361,45.11622],[4.063716,45.115719],[4.063267,45.115218],[4.063473,45.114533],[4.063249,45.114098],[4.063342,45.113531],[4.062184,45.112252],[4.062016,45.111685],[4.061399,45.111211],[4.061175,45.11071],[4.061026,45.10984],[4.060577,45.109326],[4.06026,45.108442],[4.059643,45.108047],[4.059755,45.107691],[4.059531,45.106926],[4.059251,45.10657],[4.059494,45.105542],[4.059942,45.105199],[4.060278,45.104303],[4.060017,45.10396],[4.060204,45.103274],[4.060521,45.102536],[4.060951,45.101692],[4.060988,45.100703],[4.061063,45.100176],[4.060745,45.09945],[4.060503,45.099134],[4.060017,45.099055],[4.059755,45.098633],[4.060278,45.098158],[4.059867,45.097763],[4.060484,45.096457],[4.060857,45.096259],[4.061343,45.095455],[4.063323,45.095138],[4.064575,45.094571],[4.065303,45.094057],[4.066723,45.092857],[4.067956,45.092132],[4.068143,45.092567],[4.068143,45.093582],[4.06874,45.094413],[4.071001,45.094519],[4.071598,45.094624],[4.072196,45.094571],[4.072887,45.094321],[4.073466,45.094308],[4.073747,45.093978],[4.075316,45.093833],[4.076866,45.09345],[4.078024,45.093266],[4.07922,45.092738],[4.080527,45.09233],[4.081181,45.091763],[4.082246,45.091657],[4.082676,45.09142],[4.083946,45.091433],[4.084749,45.091143],[4.085085,45.090905],[4.08587,45.091024],[4.086729,45.090879],[4.088541,45.089877],[4.089027,45.088835],[4.089046,45.087661],[4.089139,45.087015],[4.089008,45.08658],[4.089606,45.085419],[4.091063,45.084707],[4.092277,45.083836],[4.092688,45.083216],[4.093603,45.08253],[4.094164,45.081528],[4.095453,45.080829],[4.096237,45.080051],[4.096518,45.080038],[4.096779,45.07955],[4.097283,45.07947],[4.097769,45.079127],[4.098255,45.078969],[4.100272,45.07794],[4.102028,45.077637],[4.102831,45.077347],[4.103242,45.076872],[4.103373,45.07641],[4.103877,45.075922],[4.105017,45.075368],[4.105335,45.074788],[4.106642,45.073323],[4.107165,45.072888],[4.107539,45.07236],[4.108211,45.071793],[4.108828,45.071094],[4.109855,45.070645],[4.110546,45.070197],[4.114245,45.069471],[4.114917,45.069511],[4.117738,45.069049],[4.118653,45.069445],[4.12026,45.069669],[4.122109,45.07025],[4.123081,45.070724],[4.12394,45.071331],[4.124538,45.071595],[4.126125,45.071872],[4.126592,45.072387],[4.128423,45.073152],[4.12889,45.072426],[4.129021,45.071687],[4.129338,45.070751],[4.129338,45.069827],[4.129506,45.0693],[4.133541,45.060526],[4.133168,45.060473],[4.132196,45.059404],[4.131823,45.058309],[4.130665,45.057359],[4.130123,45.057016],[4.131841,45.05658],[4.13242,45.056686],[4.132925,45.056462],[4.133037,45.056026],[4.133224,45.055894],[4.133093,45.055696],[4.13257,45.055485],[4.132159,45.055538],[4.131206,45.055023],[4.131655,45.05472],[4.13242,45.054865],[4.133074,45.054311],[4.133018,45.053625],[4.132757,45.053136],[4.132813,45.052635],[4.13412,45.051843],[4.134064,45.051421],[4.13455,45.050761],[4.134886,45.050457],[4.134998,45.050207],[4.135391,45.050088],[4.135633,45.050193],[4.136119,45.049903],[4.136623,45.049903],[4.136848,45.049718],[4.136978,45.049375],[4.137464,45.049006],[4.137912,45.048781],[4.138137,45.04861],[4.138977,45.048464],[4.139706,45.047791],[4.140191,45.047593],[4.139706,45.047369],[4.140061,45.046498],[4.140042,45.045389],[4.139874,45.044479],[4.140191,45.043449],[4.139089,45.042354],[4.137968,45.042129],[4.137221,45.042169],[4.136904,45.042103],[4.135727,45.042684],[4.134587,45.042776],[4.133579,45.042433],[4.132981,45.042037],[4.131823,45.041945],[4.131449,45.04176],[4.130926,45.041879],[4.13031,45.041601],[4.129936,45.041007],[4.129843,45.04044],[4.129973,45.039991],[4.129973,45.038803],[4.129861,45.038407],[4.129039,45.037523],[4.12818,45.036876],[4.127321,45.036203],[4.126854,45.035503],[4.126107,45.035147],[4.125752,45.034856],[4.125434,45.034513],[4.124892,45.034223],[4.124949,45.033549],[4.125285,45.033206],[4.125565,45.032572],[4.125939,45.032269],[4.126013,45.031609],[4.126275,45.031358],[4.126368,45.03083],[4.12663,45.030315],[4.12663,45.029523],[4.126555,45.029417],[4.127059,45.029153],[4.1279,45.028995],[4.128311,45.028784],[4.128797,45.02815],[4.129226,45.02778],[4.130048,45.027529],[4.130777,45.027424],[4.131412,45.02708],[4.133467,45.027278],[4.135185,45.026632],[4.135858,45.026262],[4.136904,45.025338],[4.137315,45.025245],[4.138753,45.025417],[4.14021,45.025562],[4.142078,45.025892],[4.143554,45.026381],[4.143685,45.026077],[4.144675,45.025496],[4.145945,45.025192],[4.146001,45.025087],[4.146449,45.025153],[4.146804,45.024889],[4.147215,45.024862],[4.147757,45.024955],[4.148224,45.024968],[4.148597,45.024506],[4.148728,45.024255],[4.149457,45.023714],[4.150148,45.02312],[4.151082,45.022631],[4.151717,45.022459],[4.154276,45.021324],[4.155602,45.02065],[4.156387,45.020043],[4.150633,45.016623],[4.150036,45.016068],[4.150503,45.01455],[4.150746,45.011856],[4.150876,45.011222],[4.150559,45.010258],[4.149774,45.00899],[4.149475,45.007775],[4.149251,45.007511],[4.149064,45.006745],[4.149363,45.006256],[4.15379,45.004949],[4.158012,45.003998],[4.160142,45.003681],[4.160553,45.00339],[4.160889,45.001792],[4.160926,45.000709],[4.160478,45.000854],[4.160142,45.000815],[4.160254,44.999996],[4.160478,44.999296],[4.160553,44.998437],[4.160777,44.998054],[4.161487,44.997618],[4.162122,44.996746],[4.162738,44.996508],[4.162962,44.995584],[4.163448,44.995544],[4.163822,44.995782],[4.164233,44.995438],[4.164363,44.995201],[4.169538,44.995544],[4.171275,44.995095],[4.171985,44.995333],[4.172284,44.995201],[4.173124,44.993827],[4.173983,44.993444],[4.17559,44.99314],[4.178168,44.992955],[4.180167,44.993325],[4.181325,44.993444],[4.183529,44.993034],[4.184033,44.991832],[4.184575,44.991502],[4.185005,44.990696],[4.185042,44.990194],[4.186088,44.98878],[4.186424,44.987895],[4.184893,44.986059],[4.18422,44.985504],[4.183734,44.982214],[4.18312,44.981505],[4.183019,44.981136],[4.182559,44.980924],[4.182419,44.980683],[4.181398,44.979919],[4.179936,44.979678],[4.178955,44.979012],[4.176593,44.979083],[4.175271,44.979451],[4.174551,44.979819],[4.173369,44.979395],[4.172689,44.979012],[4.171888,44.978941],[4.171908,44.978446],[4.171688,44.978049],[4.170567,44.976817],[4.169826,44.976392],[4.168985,44.976208],[4.168665,44.975457],[4.168765,44.974678],[4.166863,44.97431],[4.166362,44.975344],[4.166502,44.975613],[4.165982,44.975953],[4.163479,44.976307],[4.161217,44.976576],[4.162038,44.975358],[4.161017,44.975372],[4.159455,44.975202],[4.158935,44.975358],[4.157593,44.97533],[4.157393,44.975132],[4.155931,44.975075],[4.155431,44.974438],[4.153149,44.974551],[4.151247,44.974778],[4.150846,44.974948],[4.147743,44.975528],[4.146281,44.975457],[4.145441,44.975684],[4.144339,44.975387],[4.143138,44.976251],[4.142558,44.976095],[4.141456,44.975118],[4.141717,44.974678],[4.141797,44.974112],[4.141797,44.972752],[4.142477,44.971336],[4.142377,44.970656],[4.142397,44.96999],[4.143098,44.968999],[4.143679,44.968588],[4.144019,44.968234],[4.145481,44.967455],[4.145921,44.967044],[4.146782,44.964367],[4.147002,44.962299],[4.146822,44.960641],[4.146842,44.959734],[4.146462,44.958318],[4.146442,44.957085],[4.147002,44.956788],[4.147323,44.955796],[4.147903,44.955088],[4.150466,44.953713],[4.152248,44.952962],[4.153109,44.952424],[4.153389,44.952056],[4.15437,44.950015],[4.15479,44.948471],[4.15443,44.948145],[4.153509,44.947904],[4.153088,44.947621],[4.152127,44.946586],[4.153889,44.944021],[4.15417,44.943256],[4.15411,44.940875],[4.153429,44.939869],[4.153369,44.938976],[4.153048,44.938622],[4.152928,44.938211],[4.151727,44.937389],[4.15445,44.933279],[4.155731,44.931848],[4.156392,44.930586],[4.158314,44.926192],[4.158454,44.925738],[4.158854,44.925186],[4.158915,44.924845],[4.159155,44.924519],[4.159095,44.924208],[4.159335,44.924023],[4.159315,44.923782],[4.159535,44.923513],[4.159775,44.923031],[4.159735,44.922776],[4.160036,44.922492],[4.159996,44.922237],[4.160636,44.920961],[4.161257,44.919019],[4.161377,44.918296],[4.162018,44.91797],[4.162738,44.917842],[4.163099,44.917289],[4.164761,44.91651],[4.165982,44.915602],[4.167103,44.914964],[4.167563,44.914482],[4.167944,44.914255],[4.168144,44.913929],[4.168645,44.913164],[4.167463,44.912597],[4.167423,44.912256],[4.166663,44.911604],[4.165381,44.911406],[4.16422,44.911576],[4.163679,44.911406],[4.162658,44.910512],[4.162038,44.909676],[4.160596,44.909279],[4.159455,44.909109],[4.158794,44.90891],[4.158074,44.908343],[4.157753,44.907818],[4.157353,44.907506],[4.156892,44.906471],[4.156932,44.906032],[4.157193,44.905833],[4.157073,44.905408],[4.156052,44.904826],[4.155711,44.90477],[4.155411,44.904642],[4.15481,44.904727],[4.15499,44.90416],[4.155491,44.904061],[4.155951,44.903763],[4.155771,44.903621],[4.155751,44.903252],[4.155171,44.902671],[4.155711,44.902288],[4.156072,44.901877],[4.155991,44.901522],[4.153649,44.900118],[4.152588,44.900047],[4.150846,44.89982],[4.150426,44.899537],[4.149665,44.899324],[4.149365,44.898955],[4.148784,44.897977],[4.147883,44.897807],[4.147222,44.896232],[4.146982,44.895892],[4.145701,44.895098],[4.14474,44.894389],[4.140976,44.895169],[4.140375,44.896956],[4.138774,44.896927],[4.138273,44.897183],[4.137192,44.896856],[4.136511,44.896828],[4.133248,44.89585],[4.130725,44.895467],[4.128503,44.896232],[4.127242,44.89663],[4.126401,44.89731],[4.124999,44.898034],[4.123017,44.898459],[4.120355,44.898927],[4.119554,44.899381],[4.118052,44.900118],[4.116931,44.900799],[4.115209,44.90138],[4.114769,44.90199],[4.114589,44.902472],[4.112667,44.902373],[4.110705,44.903394],[4.105619,44.90416],[4.104178,44.90389],[4.102917,44.904117],[4.101996,44.902997],[4.100854,44.901919],[4.099513,44.900941],[4.098452,44.899452],[4.097751,44.89819],[4.09655,44.897395],[4.095929,44.897963],[4.095028,44.897466],[4.093487,44.897069],[4.092766,44.897027],[4.092205,44.897353],[4.091805,44.897239],[4.091505,44.896942],[4.091244,44.895949],[4.090684,44.895282],[4.090063,44.894715],[4.089543,44.894389],[4.089383,44.893836],[4.088922,44.893453],[4.088802,44.893197],[4.091305,44.891807],[4.091885,44.890985],[4.092266,44.890134],[4.093146,44.888573],[4.092826,44.888531],[4.092226,44.88863],[4.091224,44.888233],[4.090564,44.887566],[4.090324,44.887127],[4.089322,44.886346],[4.088321,44.88524],[4.086159,44.884602],[4.084598,44.884729],[4.083697,44.883963],[4.082836,44.883453],[4.082555,44.883453],[4.082355,44.883751],[4.081895,44.883892],[4.080553,44.883765],[4.080153,44.883878],[4.080333,44.884375],[4.080213,44.884871],[4.079232,44.88612],[4.078311,44.886871],[4.078171,44.887127],[4.076669,44.888148],[4.075708,44.888034],[4.075408,44.888134],[4.075428,44.888829],[4.075228,44.889013],[4.075108,44.889481],[4.074707,44.890006],[4.074647,44.890588],[4.074807,44.890885],[4.073887,44.89246],[4.073466,44.893623],[4.074147,44.894885],[4.074087,44.895835],[4.072906,44.895793],[4.071804,44.896091],[4.071384,44.895949],[4.069922,44.896261],[4.069702,44.896814],[4.069001,44.897339],[4.068241,44.898346],[4.066779,44.899579],[4.066759,44.900955],[4.066199,44.901664],[4.065077,44.90121],[4.064637,44.901224],[4.064096,44.902004],[4.063336,44.902146],[4.061314,44.902898],[4.059011,44.903976],[4.058711,44.903167],[4.05757,44.90338],[4.053385,44.902955],[4.052805,44.902784],[4.052364,44.902841],[4.051623,44.903508],[4.051243,44.903649],[4.050923,44.903578],[4.050122,44.902572],[4.049501,44.902146],[4.043855,44.899707],[4.042574,44.899352],[4.043375,44.8987],[4.043835,44.898161],[4.044476,44.897622],[4.044376,44.897154],[4.043255,44.8967],[4.042394,44.896048],[4.041373,44.895679],[4.039951,44.894942],[4.026197,44.903196],[4.025336,44.90294],[4.024656,44.90294],[4.023474,44.902614],[4.022413,44.902586],[4.018029,44.903777],[4.017228,44.903777],[4.016387,44.904046],[4.015346,44.904529],[4.013664,44.905039],[4.013184,44.90572],[4.011562,44.906953],[4.011202,44.907393],[4.010461,44.907875],[4.008739,44.90796],[4.008239,44.908201],[4.007858,44.908655],[4.007738,44.908995],[4.007458,44.909137],[4.006817,44.909988],[4.005456,44.911023],[4.004395,44.911746],[4.002212,44.912185],[4.001852,44.912497],[4.000471,44.912455],[3.99991,44.912639],[3.99945,44.912909],[3.997948,44.912398],[3.996927,44.912228],[3.996506,44.91193],[3.996246,44.911902],[3.995766,44.91159],[3.995025,44.911505],[3.993203,44.910427],[3.992242,44.90969],[3.991181,44.909236],[3.99072,44.909151],[3.989319,44.908017],[3.988879,44.907549],[3.988138,44.907024],[3.987417,44.906726],[3.986536,44.906613],[3.985615,44.906301],[3.985115,44.905989],[3.984534,44.905805],[3.983833,44.905238],[3.982972,44.904883],[3.982572,44.904415],[3.982332,44.903834],[3.981831,44.903408],[3.981831,44.903238],[3.981991,44.903011],[3.981971,44.902657],[3.981591,44.902316],[3.981351,44.902316],[3.98075,44.902515],[3.979849,44.902359],[3.979449,44.902387],[3.977367,44.90216],[3.976766,44.901664],[3.976266,44.901579],[3.974504,44.901933],[3.971441,44.901395],[3.9711,44.901154],[3.968237,44.900189],[3.967056,44.899452],[3.965534,44.898856],[3.964453,44.898643],[3.963893,44.898587],[3.962451,44.898175],[3.959909,44.897963],[3.958127,44.897495],[3.955384,44.896814],[3.95202,44.89619],[3.950319,44.896006],[3.948777,44.895495],[3.947255,44.895353],[3.946114,44.895112],[3.945414,44.895098],[3.944913,44.894318],[3.944573,44.894048],[3.944352,44.893651],[3.944132,44.893609],[3.943652,44.892786],[3.943552,44.892332],[3.943011,44.891495],[3.94187,44.890786],[3.940629,44.890219],[3.940989,44.889396],[3.939407,44.888644],[3.938927,44.888559],[3.938126,44.888659],[3.937125,44.88863],[3.936985,44.888517],[3.936044,44.888673],[3.935764,44.888588],[3.935523,44.8889],[3.935163,44.889013],[3.934703,44.888942],[3.934222,44.889155],[3.933802,44.889084],[3.933541,44.888815],[3.93236,44.888758],[3.93188,44.888503],[3.930839,44.888559],[3.930498,44.888744],[3.929477,44.888446],[3.928796,44.887949],[3.928056,44.88829],[3.927315,44.888134],[3.927215,44.888006],[3.926854,44.887964],[3.926334,44.888318],[3.925773,44.888602],[3.925153,44.888985],[3.924152,44.88924],[3.923551,44.889198],[3.92303,44.889311],[3.92239,44.888843],[3.921749,44.889637],[3.919086,44.890148],[3.916384,44.89046],[3.916303,44.890276],[3.914121,44.890233],[3.914101,44.889751],[3.913801,44.889651],[3.913921,44.889254],[3.913661,44.88924],[3.91328,44.887226],[3.913901,44.886531],[3.913921,44.885807],[3.913521,44.885623],[3.912059,44.885822],[3.911498,44.885481],[3.911438,44.88619],[3.909797,44.886148],[3.908636,44.886205],[3.908115,44.88612],[3.907675,44.886205],[3.906734,44.886162],[3.906013,44.885822],[3.905152,44.885836],[3.904872,44.885737],[3.902489,44.886389],[3.901748,44.88629],[3.901188,44.886403],[3.900747,44.885949],[3.899947,44.885907],[3.896163,44.885183],[3.895222,44.885283],[3.894181,44.8849],[3.89322,44.884588],[3.892459,44.884048],[3.891598,44.883197],[3.891818,44.882105],[3.891938,44.880062],[3.890857,44.879849],[3.889255,44.879069],[3.888675,44.878658],[3.887954,44.877707],[3.887293,44.87704],[3.886513,44.876473],[3.886232,44.875934],[3.885151,44.875565],[3.884831,44.873976],[3.88423,44.872841],[3.88421,44.872415],[3.884631,44.871578],[3.88427,44.871294],[3.88419,44.871011],[3.88389,44.871266],[3.88383,44.870855],[3.883389,44.870812],[3.882769,44.871096],[3.882188,44.87111],[3.882288,44.870698],[3.880426,44.869776],[3.879826,44.86918],[3.878464,44.868343],[3.878084,44.866811],[3.876803,44.866229],[3.87452,44.865108],[3.873159,44.864327],[3.872358,44.863504],[3.871397,44.862866],[3.870236,44.861489],[3.870776,44.86112],[3.870917,44.860822],[3.870056,44.860368],[3.869055,44.860198],[3.867273,44.85946],[3.866031,44.858864],[3.865811,44.859446],[3.865511,44.85963],[3.86467,44.859588],[3.86443,44.859701],[3.86439,44.859985],[3.863329,44.860425],[3.861006,44.861177],[3.859605,44.861546],[3.858243,44.862341],[3.857523,44.863235],[3.857483,44.863873],[3.857923,44.865094],[3.857723,44.865874],[3.857823,44.866314],[3.857242,44.86718],[3.857182,44.867733],[3.858083,44.868187],[3.858504,44.868655],[3.859084,44.869833],[3.859625,44.870117],[3.860686,44.870415],[3.861307,44.870642],[3.861447,44.870798],[3.860666,44.870755],[3.860225,44.870954],[3.859365,44.871082],[3.858944,44.871791],[3.857803,44.872486],[3.857082,44.873579],[3.856602,44.873565],[3.855461,44.874146],[3.85504,44.8746],[3.8546,44.874756],[3.854379,44.87531],[3.853198,44.876317],[3.852377,44.876785],[3.851657,44.877792],[3.850916,44.877863],[3.850355,44.878175],[3.849775,44.878601],[3.849534,44.87897],[3.849514,44.879225],[3.849374,44.879353],[3.849294,44.879693],[3.849094,44.879963],[3.848754,44.880034],[3.848293,44.879892],[3.847612,44.879793],[3.847492,44.880374],[3.846291,44.88036],[3.846111,44.880644],[3.846031,44.881041],[3.84555,44.881552],[3.84505,44.881722],[3.844289,44.882091],[3.843528,44.882616],[3.842707,44.883098],[3.842087,44.88368],[3.840665,44.884559],[3.839784,44.884573],[3.836981,44.885098],[3.83574,44.88524],[3.834058,44.885708],[3.833398,44.885737],[3.831476,44.885921],[3.830735,44.886091],[3.830435,44.886063],[3.829854,44.886134],[3.828252,44.886219],[3.826651,44.885907],[3.82625,44.886105],[3.82559,44.886261],[3.824869,44.886559],[3.824228,44.886559],[3.823187,44.886729],[3.822807,44.886956],[3.822346,44.887169],[3.822186,44.887453],[3.819944,44.888134],[3.818863,44.887949],[3.818122,44.888105],[3.817681,44.888346],[3.815579,44.888417],[3.814078,44.888403],[3.812376,44.889339],[3.810454,44.88951],[3.809073,44.889807],[3.808011,44.889722],[3.807171,44.889779],[3.80625,44.889382],[3.805369,44.889311],[3.804948,44.889311],[3.804528,44.889226],[3.804047,44.889481],[3.802326,44.889963],[3.801625,44.889963],[3.801164,44.889212],[3.798962,44.889581],[3.796139,44.889935],[3.795759,44.890403],[3.794377,44.890517],[3.791014,44.889722],[3.790894,44.89029],[3.790994,44.891112],[3.790774,44.891793],[3.791454,44.893892],[3.792235,44.89497],[3.792976,44.896871],[3.793116,44.898544],[3.793877,44.89965],[3.794397,44.901324],[3.794417,44.902033],[3.794277,44.902955],[3.794157,44.903125],[3.794397,44.903508],[3.794317,44.903664],[3.793256,44.903536],[3.791634,44.903805],[3.792475,44.904089],[3.792656,44.905592],[3.792035,44.905762],[3.792175,44.906046],[3.792856,44.906244],[3.793977,44.906613],[3.794497,44.906968],[3.795158,44.908187],[3.795298,44.909208],[3.795278,44.910059],[3.795018,44.910441],[3.794718,44.911136],[3.794097,44.911661],[3.792856,44.9122],[3.792035,44.912327],[3.790393,44.913008],[3.789512,44.914014],[3.788772,44.914284],[3.784948,44.915546],[3.783906,44.915716],[3.782745,44.916042],[3.782465,44.91607],[3.781104,44.916496],[3.779562,44.916637],[3.77788,44.916609],[3.776739,44.916708],[3.776339,44.916949],[3.775738,44.916978],[3.774757,44.917346],[3.773936,44.917573],[3.773476,44.918027],[3.771574,44.917956],[3.769271,44.918083],[3.76801,44.917616],[3.765608,44.917502],[3.764967,44.91763],[3.764927,44.918253],[3.764166,44.920096],[3.762965,44.924052],[3.761784,44.926334],[3.759321,44.933435],[3.75798,44.937446],[3.757679,44.938055],[3.757399,44.939387],[3.757019,44.940266],[3.752474,44.9536],[3.751233,44.957029],[3.751012,44.958629],[3.749791,44.960443],[3.747889,44.962511],[3.744766,44.965472],[3.744326,44.966222],[3.742584,44.968291],[3.741302,44.970089],[3.740522,44.972285],[3.740682,44.974154],[3.740522,44.976265],[3.740982,44.976973],[3.740682,44.977723],[3.741463,44.978134],[3.741883,44.978786],[3.742404,44.979919],[3.743865,44.981802],[3.743625,44.983204],[3.743324,44.983799],[3.743204,44.984861],[3.743545,44.985512],[3.744446,44.985866],[3.744726,44.98656],[3.745046,44.986008],[3.745156,44.985805],[3.745407,44.985917],[3.745275,44.986375],[3.745355,44.986459],[3.744806,44.987792],[3.744446,44.988033],[3.744686,44.988132],[3.744986,44.988656],[3.746248,44.988783],[3.745206,44.989576],[3.744165,44.989873],[3.743765,44.990312],[3.742704,44.990935],[3.742283,44.990213],[3.741783,44.98976],[3.741362,44.98993],[3.740462,44.990723],[3.739561,44.99102],[3.73894,44.991431],[3.737559,44.991983],[3.737078,44.991983],[3.735617,44.992479],[3.734415,44.993045],[3.733574,44.993625],[3.732874,44.993314],[3.732193,44.993229],[3.731913,44.994036],[3.72925,44.995551],[3.72891,44.996131],[3.728289,44.996514],[3.727348,44.996783],[3.726627,44.996769],[3.725987,44.996556],[3.725086,44.997222],[3.724485,44.997264],[3.723604,44.997108],[3.723043,44.997151],[3.722563,44.997038],[3.722143,44.99742],[3.722243,44.997703],[3.721522,44.997703],[3.720621,44.998043],[3.71974,44.998425],[3.719099,44.997859],[3.717958,44.997491],[3.716817,44.997505],[3.717017,44.998283],[3.716857,44.999798],[3.716997,45.00127],[3.716897,45.00195],[3.716997,45.002545],[3.716897,45.003804],[3.716256,45.005248],[3.715836,45.005857],[3.715596,45.007004],[3.714835,45.008716],[3.714174,45.009636],[3.712973,45.012],[3.712332,45.01258],[3.711672,45.012863],[3.710991,45.0135],[3.70985,45.013571],[3.709029,45.014081],[3.708629,45.01476],[3.707988,45.015496],[3.706526,45.017039],[3.706386,45.01752],[3.705645,45.018369],[3.705105,45.018694],[3.705065,45.019048],[3.703844,45.019798],[3.703503,45.020435],[3.701922,45.021468],[3.701281,45.021978],[3.70052,45.022402],[3.7001,45.022827],[3.699399,45.023209],[3.69996,45.02328],[3.70058,45.023647],[3.701461,45.02386],[3.701701,45.024114],[3.702122,45.024893],[3.703443,45.02536],[3.704124,45.025855],[3.704364,45.026025],[3.703804,45.026421],[3.703063,45.026817],[3.702082,45.02761],[3.701541,45.028105],[3.7001,45.028812],[3.699539,45.029166],[3.698538,45.029463],[3.697697,45.029237],[3.695615,45.029336],[3.695215,45.02952],[3.695195,45.029718],[3.695295,45.03034],[3.695115,45.030539],[3.694874,45.031218],[3.694994,45.032109],[3.694734,45.032817],[3.694094,45.033227],[3.691951,45.033637],[3.688968,45.033114],[3.688247,45.032901],[3.687226,45.032901],[3.685485,45.033566],[3.684484,45.033722],[3.684123,45.034019],[3.683743,45.03392],[3.683122,45.033595],[3.682181,45.033524],[3.679178,45.033566],[3.678117,45.033411],[3.676896,45.033453],[3.675634,45.033425],[3.674734,45.033934],[3.672231,45.035066],[3.672011,45.035575],[3.670429,45.035703],[3.670069,45.036085],[3.668907,45.03757],[3.668587,45.038108],[3.667306,45.038773],[3.666065,45.039112],[3.665384,45.039466],[3.664943,45.039876],[3.664383,45.041574],[3.664183,45.041772],[3.664343,45.04238],[3.664123,45.042621],[3.663162,45.042904],[3.66148,45.043922],[3.660839,45.044559],[3.660299,45.045365],[3.660058,45.04627],[3.658917,45.046285],[3.658337,45.046553],[3.657255,45.046398],[3.656495,45.046044],[3.655654,45.046171],[3.655654,45.045973],[3.654713,45.045393],[3.653291,45.044997],[3.65173,45.044941],[3.651329,45.044941],[3.650228,45.044785],[3.649487,45.044573],[3.648566,45.044559],[3.648246,45.044686],[3.648066,45.044969],[3.648186,45.045874],[3.648166,45.046369],[3.649768,45.046058],[3.648907,45.047402],[3.650208,45.047402],[3.650428,45.047628],[3.650088,45.047968],[3.650488,45.04818],[3.650428,45.048378],[3.649768,45.048491],[3.649407,45.048944],[3.649788,45.048887],[3.650108,45.049693],[3.650028,45.050853],[3.650188,45.051532],[3.650508,45.051914],[3.650809,45.051886],[3.651249,45.052918],[3.65241,45.054616],[3.65219,45.055337],[3.65211,45.056002],[3.651089,45.057798],[3.649648,45.057925],[3.650328,45.059367],[3.650388,45.060711],[3.650088,45.061475],[3.649868,45.062394],[3.649648,45.062818],[3.649387,45.064275],[3.649387,45.064967],[3.649708,45.065703],[3.649507,45.066367],[3.647525,45.065491],[3.646725,45.064685],[3.645543,45.065759],[3.645143,45.066523],[3.644542,45.067131],[3.643381,45.068107],[3.643501,45.068488],[3.64192,45.069308],[3.641059,45.070496],[3.640358,45.070878],[3.639737,45.071599],[3.638676,45.072122],[3.637475,45.072999],[3.636834,45.073239],[3.635913,45.07348],[3.633191,45.074809],[3.63223,45.075006],[3.630988,45.075699],[3.630608,45.076646],[3.630828,45.077523],[3.631309,45.078004],[3.631088,45.079078],[3.631749,45.079743],[3.631969,45.080393],[3.63225,45.080647],[3.63233,45.081241],[3.631609,45.082315],[3.631623,45.083385],[3.631326,45.08416],[3.631396,45.084948],[3.632058,45.085895],[3.632006,45.086843],[3.631745,45.087089],[3.631344,45.08731],[3.630943,45.087987],[3.631292,45.088676],[3.63164,45.08891],[3.631884,45.089341],[3.633261,45.089648],[3.634132,45.089993],[3.635509,45.090965],[3.635335,45.091408],[3.635265,45.091789],[3.634742,45.092257],[3.633923,45.092737],[3.633331,45.092909],[3.632965,45.093216],[3.632878,45.093758],[3.632285,45.093672],[3.631448,45.093475],[3.63171,45.093942],[3.632093,45.09425],[3.632407,45.094853],[3.632878,45.095234],[3.633261,45.097227],[3.633435,45.097695],[3.633941,45.098532],[3.63408,45.099024],[3.635335,45.099479],[3.635684,45.099971],[3.636085,45.100143],[3.636712,45.100648],[3.636834,45.101078],[3.637305,45.101718],[3.637479,45.102198],[3.638124,45.102567],[3.640058,45.102788],[3.64086,45.10312],[3.641453,45.10333],[3.641505,45.103514],[3.641104,45.103662],[3.640424,45.103785],[3.639727,45.104043],[3.639466,45.104769],[3.64025,45.104892],[3.640738,45.105224],[3.641488,45.105113],[3.641888,45.105212],[3.641941,45.105507],[3.641819,45.105765],[3.642376,45.105864],[3.643492,45.105839],[3.64513,45.106196],[3.646681,45.106073],[3.648111,45.106134],[3.649435,45.10595],[3.650429,45.105716],[3.651178,45.10547],[3.652154,45.105593],[3.652381,45.105519],[3.653566,45.105445],[3.655082,45.10483],[3.655849,45.104843],[3.656058,45.104966],[3.656145,45.105433],[3.657052,45.10686],[3.657487,45.107291],[3.657853,45.107389],[3.658097,45.107241],[3.658934,45.107549],[3.660189,45.108336],[3.660572,45.108816],[3.661078,45.109037],[3.661165,45.109247],[3.661688,45.109628],[3.661479,45.110243],[3.661792,45.110489],[3.662106,45.111165],[3.663222,45.111608],[3.664842,45.111891],[3.6654,45.112494],[3.667596,45.113711],[3.668537,45.114117],[3.669723,45.114868],[3.67035,45.115397],[3.670664,45.115827],[3.671012,45.115999],[3.671605,45.116516],[3.671448,45.117524],[3.671605,45.117795],[3.672616,45.118065],[3.672163,45.119861],[3.672407,45.121583],[3.671866,45.123919],[3.672006,45.124079],[3.671744,45.125481],[3.671117,45.127805],[3.67089,45.128408],[3.670681,45.1296],[3.670211,45.131174],[3.670611,45.132601],[3.670646,45.133572],[3.670437,45.134371],[3.670681,45.135244],[3.670524,45.136547],[3.67035,45.137076],[3.669688,45.137679],[3.669426,45.138478],[3.669165,45.139154],[3.669479,45.140076],[3.669513,45.140764],[3.669339,45.141342],[3.669496,45.141367],[3.668607,45.142658],[3.668903,45.142879],[3.668712,45.143862],[3.669025,45.144588],[3.669531,45.145141],[3.67103,45.146419],[3.671622,45.147022],[3.672581,45.148423],[3.674097,45.150205],[3.674934,45.15082],[3.67577,45.151779],[3.676154,45.152811],[3.676555,45.153413],[3.676694,45.154114],[3.676102,45.158575],[3.676258,45.159399],[3.675997,45.160124],[3.67598,45.16037],[3.67577,45.160738],[3.676032,45.16209],[3.676781,45.162275],[3.676921,45.162656],[3.677618,45.16311],[3.678193,45.163442],[3.678333,45.163897],[3.678559,45.163983],[3.678838,45.164474],[3.678768,45.165986],[3.679396,45.166379],[3.679814,45.167043],[3.681226,45.168075],[3.681783,45.168861],[3.682289,45.169992],[3.683248,45.170876],[3.683875,45.171724],[3.685531,45.171565],[3.686629,45.171687],[3.687396,45.171638],[3.687744,45.171909],[3.688476,45.172191],[3.688842,45.172584],[3.689505,45.172597],[3.690829,45.173088],[3.691648,45.173125],[3.692101,45.172892],[3.69245,45.172904],[3.693304,45.173322],[3.694106,45.17401],[3.694977,45.175054],[3.695552,45.175337],[3.696023,45.175681],[3.696215,45.176074],[3.696616,45.176221],[3.697173,45.176086],[3.697592,45.176246],[3.697818,45.176197],[3.698149,45.176602],[3.698707,45.176958],[3.699369,45.177696],[3.69923,45.178556],[3.698864,45.179477],[3.699143,45.180214],[3.699352,45.181394],[3.699857,45.182917],[3.700049,45.183126],[3.700049,45.18347],[3.699823,45.183838],[3.700241,45.184944],[3.701496,45.185497],[3.702716,45.186369],[3.702855,45.186995],[3.703308,45.187818],[3.70296,45.188494],[3.70296,45.188961],[3.702838,45.189268],[3.702507,45.190521],[3.701949,45.19127],[3.702245,45.192117],[3.702733,45.192289],[3.703204,45.192461],[3.703849,45.192326],[3.704441,45.192093],[3.704703,45.192154],[3.70547,45.194009],[3.706097,45.194537],[3.706283,45.195261],[3.706608,45.195708],[3.708088,45.197243],[3.709633,45.198378],[3.710039,45.198481],[3.710202,45.198733],[3.710706,45.199042],[3.711503,45.200326],[3.712576,45.201552],[3.712852,45.202377],[3.714609,45.202022],[3.715536,45.202228],[3.715666,45.202079],[3.715991,45.202079],[3.716528,45.202228],[3.717633,45.202331],[3.718853,45.202354],[3.720186,45.202698],[3.721813,45.202365],[3.723374,45.201517],[3.724772,45.201208],[3.727439,45.199226],[3.72526,45.198114],[3.724659,45.198022],[3.724154,45.197977],[3.723439,45.19761],[3.723179,45.197209],[3.723325,45.196831],[3.723992,45.196051],[3.724935,45.195811],[3.725667,45.195719],[3.727212,45.195123],[3.728496,45.193748],[3.728594,45.193152],[3.728773,45.192247],[3.729033,45.191846],[3.729814,45.191605],[3.732383,45.19117],[3.733294,45.191273],[3.734009,45.191066],[3.734497,45.19078],[3.735993,45.190367],[3.736985,45.190367],[3.739554,45.188992],[3.740563,45.1889],[3.74092,45.188728],[3.741636,45.188121],[3.742059,45.187926],[3.743197,45.187548],[3.745035,45.185003],[3.745815,45.184167],[3.745669,45.183021],[3.746547,45.182894],[3.746842,45.182551],[3.747379,45.182218],[3.746982,45.181492],[3.747279,45.180946],[3.747653,45.180831],[3.748856,45.181324],[3.749393,45.18176],[3.750043,45.181978],[3.751328,45.181702],[3.751832,45.181462],[3.753637,45.180854],[3.753979,45.180682],[3.754353,45.180877],[3.754499,45.181427],[3.75432,45.182253],[3.753735,45.183055],[3.753426,45.184155],[3.75341,45.184522],[3.752401,45.185966],[3.752255,45.187055],[3.752044,45.187261],[3.751897,45.187983],[3.752678,45.189107],[3.754141,45.190482],[3.755133,45.190826],[3.756532,45.191089],[3.758256,45.191112],[3.75915,45.191525],[3.759752,45.191605],[3.760223,45.191307],[3.760451,45.191559],[3.760792,45.192178],[3.761784,45.192763],[3.7625,45.192877],[3.763411,45.192671],[3.764159,45.192167],[3.764468,45.191788],[3.766338,45.191399],[3.767053,45.190642],[3.769525,45.190333],[3.769932,45.190402],[3.770403,45.189542],[3.770826,45.189164],[3.770891,45.188522],[3.77172,45.187926],[3.772907,45.187456],[3.774241,45.186688],[3.775981,45.186241],[3.776729,45.185875],[3.776989,45.185313],[3.777737,45.184832],[3.778794,45.184442],[3.780437,45.184476],[3.78112,45.184178],[3.782047,45.183101],[3.783022,45.182104],[3.783331,45.18153],[3.783689,45.181301],[3.784063,45.180304],[3.784649,45.17941],[3.785185,45.179123],[3.785657,45.179204],[3.786974,45.178034],[3.787446,45.177713],[3.787966,45.176785],[3.788031,45.176051],[3.7886,45.175272],[3.78873,45.174744],[3.789299,45.173942],[3.789641,45.173082],[3.789787,45.171557],[3.789169,45.170434],[3.789072,45.169861],[3.789202,45.168336],[3.790731,45.167797],[3.7913,45.167235],[3.791722,45.166926],[3.792015,45.166524],[3.792649,45.165343],[3.792617,45.164988],[3.792763,45.164999],[3.793088,45.165401],[3.793641,45.165378],[3.794715,45.16516],[3.796016,45.165125],[3.796877,45.165183],[3.798829,45.164392],[3.800618,45.164116],[3.800975,45.163864],[3.801398,45.163922],[3.801821,45.163612],[3.802049,45.163566],[3.802081,45.163199],[3.802211,45.162385],[3.804309,45.162695],[3.803756,45.162993],[3.803675,45.163268],[3.804195,45.163899],[3.80574,45.164931],[3.808261,45.166043],[3.809123,45.166215],[3.809773,45.167166],[3.810765,45.166708],[3.812473,45.164678],[3.813578,45.163853],[3.814701,45.163532],[3.815806,45.163578],[3.816571,45.16391],[3.817579,45.164002],[3.819107,45.163119],[3.819937,45.162167],[3.821075,45.161743],[3.821445,45.161592],[3.821735,45.161328],[3.822351,45.161508],[3.823303,45.16164],[3.823677,45.161571],[3.823986,45.161754],[3.82436,45.161903],[3.824978,45.161766],[3.825141,45.161915],[3.825547,45.161858],[3.825954,45.162202],[3.826425,45.162947],[3.826897,45.164564],[3.828003,45.165618],[3.828946,45.165687],[3.830523,45.16555],[3.831223,45.165366],[3.832979,45.165596],[3.834231,45.166077],[3.835223,45.166238],[3.835256,45.165882],[3.83467,45.165699],[3.834654,45.165435],[3.835825,45.165687],[3.836264,45.165676],[3.836622,45.165825],[3.837142,45.165722],[3.837939,45.165699],[3.838296,45.166089],[3.838638,45.166215],[3.839532,45.165951],[3.840118,45.166249],[3.840557,45.166238],[3.841728,45.165538],[3.843289,45.165286],[3.84672,45.164243],[3.846667,45.164044],[3.846311,45.163937],[3.845969,45.16391],[3.845924,45.163777],[3.846159,45.163696],[3.846614,45.163729],[3.846918,45.163884],[3.847289,45.164322],[3.847394,45.164905],[3.848146,45.165448],[3.848984,45.165674],[3.85066,45.165622],[3.851301,45.165257],[3.852309,45.165335],[3.852797,45.165556],[3.85346,45.165322],[3.854104,45.164818],[3.855115,45.164782],[3.855586,45.16456],[3.856074,45.163934],[3.856597,45.163614],[3.858409,45.163159],[3.859281,45.163393],[3.861285,45.163037],[3.861355,45.162815],[3.863272,45.161808],[3.864353,45.161611],[3.866183,45.161525],[3.867577,45.161144],[3.868292,45.161156],[3.868762,45.160812],[3.868536,45.160185],[3.869093,45.160235],[3.87,45.160136],[3.870679,45.159952],[3.872022,45.160112],[3.872632,45.160431],[3.873433,45.160788],[3.873625,45.161156],[3.873538,45.161869],[3.873695,45.162422],[3.873172,45.163012],[3.873259,45.163159],[3.874653,45.162619],[3.875228,45.16209],[3.877233,45.161033],[3.878958,45.159829],[3.883716,45.159706],[3.88532,45.159952],[3.887359,45.160677],[3.889642,45.161476],[3.891664,45.162348],[3.89332,45.162951],[3.895342,45.164093],[3.895917,45.164315],[3.897224,45.165077],[3.899769,45.165777],[3.900553,45.166109],[3.90315,45.166785],[3.904021,45.167104],[3.904056,45.167977],[3.903899,45.168738],[3.903969,45.169328],[3.905015,45.170115],[3.905729,45.17052],[3.905869,45.170889],[3.907106,45.171884],[3.907995,45.172265],[3.908379,45.172535],[3.910348,45.173039],[3.911167,45.17358],[3.912195,45.173936],[3.913032,45.174452],[3.913904,45.174796],[3.9142,45.175226],[3.915315,45.176148],[3.915681,45.176307],[3.91603,45.17659],[3.917982,45.177806],[3.918348,45.178261],[3.9184,45.178826],[3.918975,45.179072]]],"type":"MultiLineString"},"properties":{"geo_point":{"lon":3.9155816340034924,"lat":45.03317263227083},"name":"GR40 Tour du Velay (Haute-Loire) (2019)","code_gr":"GR40"}}]}