{"type":"FeatureCollection","features":[{"type":"Feature","geometry":{"coordinates":[[[2.86916,45.110807],[2.8691,45.110497],[2.86924,45.109536],[2.86956,45.109578],[2.870702,45.109296],[2.871863,45.109409],[2.873384,45.10777],[2.873585,45.10695],[2.873324,45.106385],[2.872644,45.105791],[2.872644,45.105113],[2.872003,45.104915],[2.871322,45.104223],[2.871062,45.103714],[2.871142,45.103516],[2.871703,45.103629],[2.872573,45.102829],[2.872256,45.10185],[2.871903,45.101665],[2.871602,45.101283],[2.871262,45.1011],[2.870662,45.100958],[2.870241,45.100704],[2.870061,45.10052],[2.869801,45.100464],[2.86924,45.100181],[2.867939,45.09939],[2.867478,45.098966],[2.866798,45.098584],[2.86548,45.098409],[2.864107,45.098139],[2.863301,45.098195],[2.861676,45.097924],[2.861161,45.097934],[2.859285,45.097449],[2.858533,45.097495],[2.857687,45.097486],[2.856547,45.097143],[2.854965,45.096846],[2.854385,45.096563],[2.853344,45.096549],[2.852162,45.096252],[2.851682,45.096224],[2.85008,45.095673],[2.849159,45.094797],[2.847798,45.093397],[2.846729,45.092949],[2.846143,45.092823],[2.845119,45.092455],[2.844859,45.092157],[2.844761,45.092272],[2.845411,45.093052],[2.845981,45.093362],[2.845802,45.093626],[2.845867,45.094143],[2.845688,45.094154],[2.845639,45.09435],[2.845802,45.094958],[2.84572,45.095268],[2.845623,45.095429],[2.845672,45.095842],[2.845314,45.095842],[2.844631,45.09575],[2.843867,45.095337],[2.843102,45.095302],[2.842988,45.095624],[2.843037,45.095934],[2.843379,45.096209],[2.842338,45.095934],[2.841639,45.095658],[2.841362,45.095406],[2.84107,45.095291],[2.840744,45.09505],[2.840029,45.09474],[2.839687,45.09435],[2.839264,45.094189],[2.838679,45.094109],[2.838126,45.093661],[2.837443,45.093443],[2.836988,45.09319],[2.836923,45.093282],[2.837833,45.094327],[2.838321,45.094591],[2.838744,45.094728],[2.838858,45.09482],[2.838647,45.094878],[2.838647,45.095004],[2.839232,45.09536],[2.839639,45.095853],[2.839996,45.096014],[2.840549,45.096427],[2.841086,45.096692],[2.841655,45.096829],[2.84159,45.097461],[2.840582,45.097013],[2.837931,45.096565],[2.837459,45.096519],[2.837004,45.095773],[2.836386,45.095302],[2.835996,45.094924],[2.835459,45.094774],[2.835443,45.094602],[2.835719,45.094269],[2.835687,45.093684],[2.835492,45.093454],[2.83437,45.092788],[2.833768,45.092478],[2.83315,45.092249],[2.832435,45.091778],[2.831231,45.091388],[2.830011,45.090779],[2.829979,45.09055],[2.830499,45.090136],[2.830548,45.089769],[2.830369,45.088782],[2.829784,45.088035],[2.828906,45.087702],[2.828645,45.086956],[2.828369,45.086485],[2.828353,45.086325],[2.82793,45.085773],[2.827052,45.085176],[2.825247,45.084442],[2.824678,45.083982],[2.824043,45.083718],[2.823393,45.083557],[2.822873,45.08319],[2.822368,45.082731],[2.821409,45.082271],[2.820872,45.082168],[2.820742,45.08226],[2.820417,45.082329],[2.819994,45.082329],[2.819913,45.082719],[2.820319,45.083064],[2.820482,45.0835],[2.8191,45.083707],[2.818092,45.083776],[2.81749,45.083936],[2.817457,45.08412],[2.817181,45.084005],[2.816937,45.083833],[2.81653,45.083718],[2.81627,45.083776],[2.816075,45.08412],[2.815782,45.084178],[2.815571,45.084258],[2.814986,45.084327],[2.814221,45.084637],[2.813636,45.084591],[2.81266,45.084269],[2.812075,45.083959],[2.810969,45.083718],[2.810107,45.083236],[2.809587,45.083018],[2.808692,45.082501],[2.807928,45.082214],[2.807131,45.081422],[2.806627,45.081158],[2.805293,45.081008],[2.80461,45.080985],[2.803781,45.080848],[2.803309,45.08071],[2.802984,45.079952],[2.801911,45.079137],[2.801553,45.078758],[2.80022,45.078264],[2.799211,45.077759],[2.798496,45.077586],[2.797911,45.077575],[2.794544,45.078023],[2.793455,45.078321],[2.792024,45.078907],[2.791617,45.07916],[2.791211,45.079263],[2.79043,45.078999],[2.789601,45.078907],[2.786706,45.078804],[2.785177,45.078631],[2.783112,45.077598],[2.782348,45.077024],[2.782234,45.076771],[2.781811,45.076519],[2.78186,45.076289],[2.782348,45.076369],[2.782754,45.076335],[2.783015,45.076048],[2.784169,45.07599],[2.78508,45.07583],[2.788739,45.075474],[2.789357,45.075232],[2.789731,45.074543],[2.79069,45.074314],[2.791357,45.0739],[2.791812,45.073464],[2.792154,45.072832],[2.792382,45.072086],[2.792593,45.071799],[2.793178,45.071557],[2.793894,45.070776],[2.794349,45.070627],[2.795097,45.069812],[2.795065,45.069375],[2.795325,45.068801],[2.795715,45.068284],[2.796561,45.068043],[2.796967,45.067848],[2.797309,45.067905],[2.797569,45.067721],[2.79887,45.067457],[2.799504,45.067492],[2.800008,45.067044],[2.80126,45.066171],[2.802057,45.065666],[2.802139,45.065401],[2.802122,45.06508],[2.801992,45.065034],[2.801911,45.064701],[2.800821,45.064287],[2.800269,45.063828],[2.799894,45.06369],[2.799325,45.063299],[2.798577,45.063024],[2.797927,45.06253],[2.796919,45.062139],[2.795683,45.061312],[2.795276,45.060933],[2.794528,45.060003],[2.794723,45.059371],[2.794544,45.058716],[2.794983,45.057947],[2.795179,45.057499],[2.795748,45.057338],[2.796219,45.056913],[2.796268,45.056718],[2.795796,45.056637],[2.795422,45.056718],[2.794967,45.056166],[2.794983,45.055879],[2.795374,45.055821],[2.796105,45.055833],[2.795048,45.055431],[2.793861,45.054742],[2.793796,45.054466],[2.794024,45.053788],[2.79391,45.053466],[2.793552,45.053122],[2.793146,45.053168],[2.792463,45.052995],[2.790999,45.052869],[2.789048,45.053271],[2.788267,45.053007],[2.78747,45.052915],[2.787292,45.052777],[2.786495,45.052812],[2.784966,45.052559],[2.784218,45.052536],[2.783551,45.052364],[2.782055,45.052364],[2.781128,45.052593],[2.779876,45.052743],[2.778852,45.052249],[2.778331,45.052168],[2.777795,45.052364],[2.777307,45.052387],[2.776022,45.05272],[2.775193,45.053064],[2.774737,45.053122],[2.774266,45.053294],[2.774006,45.053489],[2.773729,45.053501],[2.772932,45.053937],[2.771843,45.054236],[2.770753,45.054684],[2.769469,45.05504],[2.768997,45.05527],[2.768428,45.055465],[2.767875,45.05573],[2.766948,45.055948],[2.766135,45.056051],[2.765387,45.05635],[2.764639,45.056384],[2.763777,45.056614],[2.762541,45.057211],[2.761663,45.057947],[2.761061,45.057453],[2.760768,45.056832],[2.760313,45.056672],[2.759988,45.056396],[2.759337,45.05627],[2.758524,45.055948],[2.75815,45.055695],[2.757581,45.055442],[2.756719,45.054902],[2.755272,45.054604],[2.754508,45.054546],[2.754069,45.054363],[2.754166,45.053375],[2.754101,45.052881],[2.754182,45.052467],[2.753938,45.051904],[2.753451,45.051479],[2.753093,45.050824],[2.753044,45.050342],[2.753077,45.049951],[2.75267,45.049273],[2.751987,45.048446],[2.751629,45.047917],[2.750946,45.047515],[2.750377,45.047286],[2.750149,45.047056],[2.749773,45.046439],[2.74944,45.045773],[2.749463,45.045343],[2.749221,45.04514],[2.749129,45.044839],[2.748968,45.044741],[2.748439,45.04427],[2.748359,45.04401],[2.747588,45.04336],[2.746523,45.042341],[2.745948,45.042292],[2.745547,45.042095],[2.745234,45.041528],[2.743282,45.040358],[2.742393,45.039237],[2.742086,45.038564],[2.741815,45.037981],[2.741211,45.037432],[2.740694,45.036735],[2.740546,45.036474],[2.740521,45.036161],[2.740373,45.035917],[2.740114,45.03576],[2.73988,45.035246],[2.739991,45.035037],[2.739806,45.03468],[2.739523,45.034384],[2.737354,45.031196],[2.736787,45.030578],[2.73606,45.029637],[2.735949,45.029359],[2.735438,45.028665],[2.73469,45.028137],[2.734298,45.027503],[2.733607,45.026869],[2.732748,45.025813],[2.732206,45.024942],[2.732299,45.024387],[2.732075,45.023965],[2.73187,45.023212],[2.731608,45.022988],[2.731291,45.022354],[2.730786,45.021865],[2.730188,45.021443],[2.729497,45.020849],[2.728526,45.019871],[2.727741,45.019211],[2.72606,45.018432],[2.724584,45.01793],[2.724183,45.017752],[2.723744,45.017396],[2.722997,45.016881],[2.722362,45.016174],[2.722109,45.015877],[2.721792,45.015633],[2.721586,45.015369],[2.721091,45.015045],[2.720596,45.014887],[2.718747,45.013632],[2.71828,45.013467],[2.717664,45.013038],[2.717439,45.012952],[2.717206,45.012595],[2.715693,45.011546],[2.715599,45.011394],[2.715263,45.011229],[2.715207,45.011044],[2.71474,45.010753],[2.714656,45.010535],[2.714395,45.010271],[2.714217,45.009868],[2.714124,45.009591],[2.713928,45.009472],[2.713517,45.008951],[2.713096,45.00827],[2.712573,45.007603],[2.71205,45.007135],[2.711714,45.006732],[2.711471,45.006375],[2.710301,45.005859],[2.709451,45.005649],[2.707795,45.005359],[2.707044,45.005159],[2.706506,45.004938],[2.705431,45.004748],[2.70427,45.004158],[2.703859,45.003967],[2.703406,45.003607],[2.702571,45.003127],[2.702057,45.003014],[2.699032,45.001891],[2.696843,45.000814],[2.696371,45.001815],[2.696629,45.001982],[2.696629,45.002195],[2.696371,45.002559],[2.695341,45.002893],[2.69474,45.002938],[2.694182,45.002665],[2.694139,45.003469],[2.693753,45.003333],[2.693582,45.00356],[2.693582,45.004228],[2.692766,45.005032],[2.693946,45.00491],[2.694805,45.004941],[2.696006,45.005229],[2.696865,45.005168],[2.698088,45.005366],[2.698731,45.00573],[2.699525,45.006063],[2.700062,45.006124],[2.700984,45.006139],[2.701564,45.006367],[2.702336,45.007186],[2.703731,45.008415],[2.704117,45.008734],[2.704675,45.009022],[2.704933,45.00934],[2.705083,45.009795],[2.705276,45.010038],[2.705233,45.010645],[2.704225,45.010099],[2.702765,45.010038],[2.702529,45.010144],[2.703409,45.010675],[2.703388,45.010751],[2.702701,45.010706],[2.702315,45.010766],[2.7018,45.01069],[2.701414,45.010721],[2.701006,45.01069],[2.700706,45.010782],[2.700191,45.010782],[2.700534,45.011252],[2.700469,45.011464],[2.699611,45.011631],[2.699182,45.011828],[2.698667,45.01195],[2.698774,45.012663],[2.698066,45.012951],[2.697701,45.014073],[2.697916,45.014468],[2.698195,45.015211],[2.698646,45.015742],[2.697766,45.015317],[2.697208,45.014741],[2.697079,45.014801],[2.697208,45.015226],[2.697142,45.015277],[2.696862,45.015086],[2.696772,45.015142],[2.697092,45.015489],[2.696922,45.01556],[2.696571,45.015432],[2.696381,45.015248],[2.696201,45.015298],[2.696201,45.015404],[2.696381,45.01568],[2.696361,45.015892],[2.696101,45.015708],[2.695911,45.015666],[2.69567,45.015411],[2.69557,45.015369],[2.69545,45.015043],[2.69526,45.015008],[2.694225,45.014862],[2.693667,45.01465],[2.693346,45.014741],[2.692165,45.014756],[2.691286,45.014635],[2.690599,45.014362],[2.690255,45.01399],[2.689473,45.012559],[2.688576,45.011486],[2.687794,45.011258],[2.687173,45.011031],[2.686529,45.010901],[2.685839,45.010722],[2.685402,45.010771],[2.684897,45.011014],[2.684506,45.010933],[2.683977,45.010332],[2.683471,45.010397],[2.683172,45.010315],[2.682919,45.01051],[2.683471,45.010982],[2.683241,45.011291],[2.683517,45.011649],[2.683632,45.012331],[2.683287,45.012673],[2.683517,45.013404],[2.683218,45.013421],[2.682367,45.013274],[2.681884,45.013469],[2.681884,45.014039],[2.681585,45.014965],[2.681171,45.014998],[2.68063,45.014865],[2.679329,45.014692],[2.679215,45.014485],[2.67876,45.014141],[2.678109,45.013853],[2.677426,45.013451],[2.676727,45.013899],[2.675572,45.013819],[2.675182,45.013715],[2.674922,45.013566],[2.674467,45.013508],[2.674174,45.0136],[2.674125,45.014072],[2.673865,45.01429],[2.671751,45.014164],[2.671247,45.014715],[2.670808,45.014715],[2.670401,45.014807],[2.670108,45.014623],[2.669897,45.014589],[2.669474,45.014382],[2.669263,45.01452],[2.668856,45.014244],[2.668564,45.014301],[2.668766,45.014475],[2.668787,45.014619],[2.668927,45.014771],[2.668605,45.014589],[2.668369,45.014665],[2.668186,45.014839],[2.668068,45.014809],[2.66795,45.014619],[2.667618,45.014597],[2.667328,45.014642],[2.667084,45.014554],[2.66562,45.014405],[2.664758,45.0146],[2.664384,45.014761],[2.664189,45.01498],[2.664547,45.015141],[2.665035,45.015106],[2.665702,45.014899],[2.665734,45.015072],[2.665425,45.015267],[2.665408,45.01553],[2.665504,45.015658],[2.665515,45.015901],[2.665783,45.016303],[2.666008,45.016387],[2.666105,45.016584],[2.666116,45.016728],[2.666298,45.016735],[2.667392,45.016629],[2.667596,45.016652],[2.667993,45.016629],[2.668025,45.01669],[2.667725,45.016819],[2.667512,45.016999],[2.667321,45.017204],[2.667115,45.017364],[2.666875,45.017449],[2.666818,45.017544],[2.666868,45.017599],[2.667115,45.017574],[2.667236,45.017529],[2.667342,45.017659],[2.667313,45.017889],[2.667505,45.018169],[2.667618,45.018219],[2.667632,45.01835],[2.667689,45.01846],[2.667703,45.018595],[2.667972,45.01857],[2.668241,45.0185],[2.668614,45.018721],[2.668902,45.018891],[2.669028,45.019062],[2.668442,45.019005],[2.66858,45.019233],[2.66858,45.019379],[2.66835,45.019363],[2.66835,45.019517],[2.668166,45.019631],[2.66812,45.020005],[2.668005,45.020403],[2.668051,45.020688],[2.668189,45.021305],[2.668177,45.021866],[2.668389,45.02198],[2.668772,45.022707],[2.669191,45.022954],[2.671701,45.02389],[2.673199,45.023853],[2.674263,45.02405],[2.675012,45.024346],[2.675274,45.024851],[2.675169,45.02527],[2.674977,45.025442],[2.674576,45.025713],[2.674559,45.025996],[2.674751,45.026538],[2.67496,45.027056],[2.674977,45.027709],[2.675256,45.027918],[2.676476,45.028251],[2.676703,45.02846],[2.676807,45.02894],[2.677051,45.029359],[2.676912,45.03],[2.676894,45.030419],[2.676093,45.029815],[2.675518,45.02963],[2.674873,45.029298],[2.673914,45.029051],[2.673165,45.028608],[2.672781,45.028017],[2.672502,45.027191],[2.67238,45.027179],[2.671805,45.027783],[2.67184,45.028041],[2.671788,45.028349],[2.672711,45.029877],[2.672973,45.030542],[2.672955,45.030813],[2.672067,45.030813],[2.672189,45.031182],[2.672206,45.031527],[2.671753,45.031256],[2.671247,45.031219],[2.670881,45.03255],[2.670672,45.032857],[2.670428,45.033067],[2.670271,45.033461],[2.670324,45.034459],[2.669557,45.033584],[2.668668,45.033535],[2.66811,45.033584],[2.667744,45.03372],[2.667269,45.033797],[2.666878,45.034073],[2.666337,45.0343],[2.66521,45.03443],[2.664831,45.034471],[2.664337,45.034577],[2.664084,45.034731],[2.668494,45.036725],[2.669139,45.037144],[2.669749,45.038215],[2.670289,45.038769],[2.670951,45.0392],[2.670794,45.039668],[2.670237,45.040112],[2.669661,45.040469],[2.669243,45.0409],[2.668807,45.041848],[2.668598,45.042575],[2.668424,45.043437],[2.66818,45.043794],[2.668269,45.044295],[2.66835,45.044433],[2.668384,45.044953],[2.668304,45.045278],[2.668361,45.045595],[2.668668,45.046134],[2.668476,45.046392],[2.66804,45.046528],[2.668093,45.046897],[2.668006,45.047156],[2.667779,45.047328],[2.667709,45.047685],[2.667152,45.048252],[2.666995,45.048781],[2.666524,45.049003],[2.66696,45.049163],[2.667016,45.049494],[2.667154,45.049697],[2.667131,45.050022],[2.66728,45.050489],[2.667554,45.050746],[2.667963,45.05088],[2.668328,45.051175],[2.668442,45.051381],[2.669043,45.051709],[2.669482,45.052071],[2.669993,45.053103],[2.670847,45.054014],[2.671021,45.054642],[2.671352,45.054753],[2.671927,45.055159],[2.672293,45.055627],[2.672363,45.056723],[2.672746,45.057043],[2.672955,45.057425],[2.673287,45.057597],[2.673287,45.057893],[2.674141,45.058434],[2.675589,45.05975],[2.675215,45.060566],[2.675426,45.06091],[2.675475,45.06145],[2.674564,45.062346],[2.674385,45.062633],[2.674141,45.062771],[2.673849,45.06284],[2.67354,45.063403],[2.672727,45.063931],[2.672434,45.064023],[2.672304,45.064184],[2.672206,45.064689],[2.672288,45.065149],[2.672954,45.06678],[2.672141,45.065769],[2.671344,45.065229],[2.671263,45.064747],[2.67097,45.06454],[2.670564,45.063828],[2.670645,45.063621],[2.671491,45.063322],[2.671442,45.063219],[2.670824,45.06338],[2.669653,45.063472],[2.669523,45.063724],[2.66897,45.063483],[2.6691,45.064391],[2.669312,45.064827],[2.668824,45.065539],[2.669344,45.066033],[2.669344,45.066263],[2.669442,45.066435],[2.669474,45.066607],[2.669393,45.066722],[2.669507,45.067124],[2.669263,45.067434],[2.669247,45.068055],[2.669799,45.068032],[2.670043,45.06856],[2.67071,45.069169],[2.671035,45.06972],[2.671621,45.069927],[2.671735,45.070214],[2.671718,45.070363],[2.671556,45.07042],[2.671458,45.070639],[2.671702,45.070995],[2.671832,45.071443],[2.671588,45.071546],[2.671491,45.071741],[2.671588,45.072212],[2.671393,45.072212],[2.671279,45.072005],[2.671117,45.072201],[2.671068,45.072499],[2.671247,45.072752],[2.670174,45.07297],[2.669133,45.07328],[2.668905,45.073211],[2.668612,45.072752],[2.668401,45.072694],[2.667946,45.07266],[2.667442,45.072212],[2.666726,45.072224],[2.666206,45.07189],[2.665653,45.071982],[2.665295,45.071936],[2.664401,45.071408],[2.663669,45.070811],[2.663035,45.070581],[2.662579,45.070283],[2.661685,45.070041],[2.661148,45.070443],[2.660774,45.07011],[2.660319,45.070018],[2.659733,45.069777],[2.658709,45.069502],[2.658058,45.069226],[2.657408,45.069019],[2.657717,45.069444],[2.657668,45.069617],[2.657359,45.070007],[2.657034,45.06995],[2.65653,45.070443],[2.6564,45.070409],[2.656156,45.070145],[2.655408,45.069789],[2.655115,45.069272],[2.653684,45.068617],[2.652562,45.06848],[2.652204,45.068514],[2.651765,45.068388],[2.651082,45.068376],[2.650367,45.067963],[2.649261,45.067607],[2.648919,45.067584],[2.648431,45.06763],[2.647212,45.067434],[2.645943,45.067044],[2.645277,45.06694],[2.645098,45.06686],[2.644789,45.066837],[2.643813,45.066538],[2.643683,45.066263],[2.64326,45.066022],[2.642561,45.065872],[2.64152,45.065872],[2.641325,45.065562],[2.641455,45.065057],[2.641276,45.064862],[2.640691,45.064678],[2.640138,45.064609],[2.640008,45.064471],[2.639032,45.06462],[2.63791,45.064678],[2.637194,45.064115],[2.636674,45.064069],[2.635178,45.064287],[2.634706,45.064241],[2.633649,45.064483],[2.633243,45.064712],[2.632836,45.06454],[2.632348,45.064551],[2.631584,45.064747],[2.630364,45.064919],[2.630137,45.065045],[2.629649,45.065068],[2.629405,45.065574],[2.629145,45.065482],[2.628624,45.065447],[2.628267,45.065252],[2.627698,45.065091],[2.627437,45.064735],[2.626917,45.06462],[2.626397,45.064643],[2.625974,45.064953],[2.6256,45.065562],[2.624966,45.065964],[2.624608,45.066102],[2.624266,45.066079],[2.624169,45.065815],[2.623795,45.065355],[2.623632,45.064873],[2.623242,45.064678],[2.622575,45.06462],[2.622185,45.064391],[2.621876,45.064046],[2.620916,45.063989],[2.620185,45.064218],[2.619859,45.063885],[2.619599,45.063782],[2.61942,45.063816],[2.618884,45.064058],[2.618363,45.063989],[2.617453,45.06369],[2.616737,45.063656],[2.616363,45.063058],[2.61594,45.06276],[2.614639,45.062656],[2.614363,45.062783],[2.61355,45.062714],[2.613517,45.062852],[2.612769,45.06307],[2.612444,45.063989],[2.612428,45.064689],[2.612769,45.065057],[2.612785,45.065172],[2.612298,45.065206],[2.6122,45.065378],[2.611712,45.065631],[2.611566,45.065861],[2.611582,45.066217],[2.611403,45.066573],[2.611419,45.066803],[2.612167,45.067354],[2.613029,45.068192],[2.613013,45.068388],[2.612574,45.068594],[2.612135,45.068629],[2.611338,45.068548],[2.611062,45.068617],[2.610736,45.069215],[2.610785,45.069708],[2.610688,45.069789],[2.610102,45.069628],[2.609744,45.069364],[2.6095,45.069329],[2.609045,45.069536],[2.608639,45.069375],[2.608021,45.06949],[2.607695,45.069398],[2.607891,45.06895],[2.607793,45.068778],[2.607647,45.068698],[2.607029,45.068755],[2.60685,45.068445],[2.60711,45.067928],[2.607338,45.067607],[2.607224,45.067216],[2.607565,45.066883],[2.607549,45.066458],[2.607354,45.066194],[2.607289,45.065953],[2.607142,45.065666],[2.607321,45.065091],[2.607191,45.064264],[2.606915,45.064104],[2.606703,45.063679],[2.606427,45.063644],[2.606264,45.063403],[2.606248,45.063116],[2.606557,45.062645],[2.606703,45.062197],[2.606573,45.061473],[2.605907,45.062162],[2.605321,45.062472],[2.604801,45.062633],[2.604476,45.063104],[2.604036,45.063391],[2.60389,45.063839],[2.603402,45.064035],[2.602654,45.064104],[2.602183,45.064299],[2.601906,45.064632],[2.6015,45.064735],[2.600703,45.065137],[2.600394,45.065413],[2.599467,45.065137],[2.599044,45.065551],[2.598833,45.065114],[2.598215,45.065332],[2.597629,45.065689],[2.597532,45.066125],[2.597028,45.066447],[2.596605,45.066607],[2.596475,45.067848],[2.596881,45.068284],[2.596849,45.068732],[2.596963,45.069054],[2.596686,45.069019],[2.596328,45.068617],[2.595662,45.068434],[2.594816,45.067285],[2.593938,45.067319],[2.593531,45.067228],[2.593092,45.067032],[2.593434,45.067434],[2.59397,45.067894],[2.594003,45.068422],[2.593889,45.06949],[2.593726,45.070225],[2.594312,45.07142],[2.594816,45.071959],[2.59493,45.072338],[2.594881,45.072798],[2.594979,45.073418],[2.595174,45.073774],[2.595434,45.073923],[2.595694,45.07421],[2.596052,45.074371],[2.59654,45.074451],[2.597743,45.074704],[2.598621,45.074876],[2.600231,45.075003],[2.600849,45.07483],[2.601077,45.074911],[2.601597,45.074865],[2.60215,45.074842],[2.602703,45.074693],[2.603126,45.074727],[2.603727,45.074865],[2.604817,45.074876],[2.605516,45.07483],[2.606346,45.074704],[2.606834,45.074796],[2.607874,45.075336],[2.608151,45.075531],[2.610915,45.075818],[2.612151,45.075692],[2.613143,45.076048],[2.614948,45.076346],[2.61555,45.076679],[2.616038,45.076748],[2.616639,45.076714],[2.617225,45.077012],[2.617648,45.077391],[2.618119,45.077322],[2.619079,45.076955],[2.620103,45.076702],[2.621071,45.076606],[2.621405,45.076638],[2.621527,45.076601],[2.621898,45.076627],[2.622058,45.076702],[2.622354,45.076611],[2.622604,45.076643],[2.623089,45.077035],[2.623552,45.077115],[2.624493,45.077549],[2.624933,45.077522],[2.625343,45.077458],[2.625804,45.077572],[2.62639,45.077669],[2.626908,45.077888],[2.628655,45.078351],[2.628943,45.078278],[2.629932,45.078522],[2.630162,45.078708],[2.630771,45.07883],[2.631461,45.079147],[2.631691,45.079334],[2.631944,45.079317],[2.6326,45.079585],[2.633922,45.080803],[2.63483,45.081412],[2.635014,45.081648],[2.634991,45.081769],[2.635313,45.081786],[2.635819,45.08194],[2.636187,45.081826],[2.636992,45.081956],[2.637119,45.082078],[2.637395,45.0822],[2.63759,45.082216],[2.637717,45.082451],[2.638637,45.082866],[2.63897,45.083198],[2.639867,45.083548],[2.641074,45.083986],[2.641822,45.084132],[2.642446,45.084308],[2.64276,45.084252],[2.643204,45.084363],[2.644023,45.084412],[2.643962,45.084535],[2.643971,45.084689],[2.643919,45.084935],[2.644023,45.085532],[2.644171,45.0856],[2.644389,45.085914],[2.644529,45.086295],[2.644511,45.086603],[2.643917,45.087779],[2.643824,45.088208],[2.643956,45.088432],[2.643772,45.08873],[2.643798,45.088795],[2.644009,45.088935],[2.644141,45.089271],[2.644062,45.089756],[2.643824,45.090138],[2.643428,45.090483],[2.643243,45.090782],[2.64286,45.091183],[2.642688,45.091518],[2.64257,45.092041],[2.642622,45.092637],[2.642887,45.093048],[2.643085,45.093477],[2.643349,45.093719],[2.643309,45.093905],[2.643679,45.094577],[2.644141,45.094838],[2.644432,45.095202],[2.644696,45.095789],[2.644723,45.09633],[2.645555,45.097039],[2.645647,45.097206],[2.645806,45.097346],[2.645898,45.097589],[2.646757,45.09798],[2.647338,45.098251],[2.647985,45.098418],[2.648553,45.098857],[2.649306,45.099118],[2.649716,45.099314],[2.65035,45.099416],[2.650772,45.099631],[2.651195,45.09992],[2.652027,45.100218],[2.652635,45.10074],[2.653229,45.101635],[2.653625,45.101933],[2.653916,45.10226],[2.653853,45.10247],[2.653647,45.102734],[2.653591,45.102879],[2.653124,45.103544],[2.652919,45.103663],[2.652676,45.103993],[2.652386,45.104243],[2.651807,45.104527],[2.650799,45.105232],[2.65064,45.105384],[2.650537,45.105608],[2.649883,45.106135],[2.649416,45.106392],[2.648417,45.106808],[2.647819,45.107025],[2.647025,45.107539],[2.64667,45.107724],[2.646353,45.108133],[2.645679,45.108434],[2.645489,45.108321],[2.645188,45.108342],[2.644718,45.108511],[2.644297,45.108624],[2.643146,45.109098],[2.642996,45.109218],[2.642395,45.109119],[2.641404,45.10926],[2.639542,45.109642],[2.639062,45.109811],[2.638121,45.109903],[2.63772,45.110023],[2.63755,45.110249],[2.63762,45.110412],[2.638101,45.110814],[2.638181,45.111139],[2.638351,45.111309],[2.638391,45.111563],[2.638551,45.111761],[2.638571,45.111973],[2.638732,45.112164],[2.638932,45.112574],[2.639392,45.112934],[2.639602,45.113019],[2.639773,45.113209],[2.640093,45.113386],[2.640353,45.114001],[2.640583,45.114417],[2.640744,45.114608],[2.640784,45.114891],[2.640654,45.115279],[2.640413,45.115336],[2.640213,45.115442],[2.640013,45.115435],[2.639402,45.115477],[2.638982,45.115654],[2.638271,45.116113],[2.63772,45.116346],[2.637325,45.116398],[2.637178,45.116685],[2.636885,45.116605],[2.636576,45.116616],[2.636072,45.116536],[2.635585,45.116284],[2.635145,45.116364],[2.634495,45.116364],[2.634235,45.116284],[2.633649,45.116582],[2.632934,45.116708],[2.632511,45.116674],[2.631893,45.116318],[2.630673,45.115893],[2.629877,45.115813],[2.628803,45.115836],[2.628088,45.115836],[2.626868,45.115549],[2.626673,45.115411],[2.626787,45.115262],[2.626706,45.114918],[2.626543,45.114895],[2.626153,45.11439],[2.625405,45.114184],[2.625079,45.113931],[2.624526,45.113702],[2.623453,45.113174],[2.622103,45.11299],[2.621388,45.11299],[2.6209,45.112944],[2.619323,45.113415],[2.618949,45.113392],[2.618217,45.113265],[2.617648,45.113323],[2.616379,45.113403],[2.615534,45.113047],[2.615208,45.113047],[2.614639,45.112887],[2.614086,45.112841],[2.613517,45.11268],[2.612509,45.112026],[2.610753,45.111808],[2.607728,45.111108],[2.605598,45.110649],[2.604053,45.10965],[2.60311,45.108847],[2.602638,45.108204],[2.60176,45.107435],[2.601451,45.106448],[2.600475,45.105978],[2.599467,45.105277],[2.598231,45.104681],[2.596946,45.104394],[2.596393,45.104463],[2.595857,45.104233],[2.595613,45.103866],[2.595564,45.10351],[2.594962,45.103039],[2.594361,45.102833],[2.594003,45.102764],[2.593678,45.102615],[2.593466,45.102305],[2.592637,45.10211],[2.59197,45.102339],[2.591108,45.103361],[2.590734,45.103372],[2.590149,45.1032],[2.588929,45.102557],[2.588181,45.102351],[2.587287,45.10196],[2.586766,45.101903],[2.587189,45.10219],[2.587384,45.102408],[2.587645,45.102603],[2.587791,45.102993],[2.588035,45.103326],[2.589433,45.104336],[2.590246,45.104704],[2.590507,45.104991],[2.590702,45.105358],[2.592881,45.106127],[2.593125,45.106333],[2.594198,45.106597],[2.594832,45.106919],[2.595694,45.107171],[2.596068,45.107366],[2.596816,45.107573],[2.597239,45.108078],[2.597532,45.108698],[2.597613,45.108927],[2.597824,45.109134],[2.597662,45.109811],[2.597353,45.110316],[2.596832,45.110775],[2.596442,45.110603],[2.596084,45.110236],[2.59558,45.110282],[2.595174,45.110132],[2.59506,45.110018],[2.595076,45.109834],[2.594849,45.109685],[2.594344,45.109731],[2.593125,45.109409],[2.592458,45.109099],[2.592003,45.109042],[2.591108,45.109226],[2.589612,45.108675],[2.587953,45.108468],[2.587596,45.108308],[2.587401,45.108055],[2.58727,45.107757],[2.58714,45.10778],[2.587108,45.108376],[2.587254,45.109203],[2.587986,45.109604],[2.588019,45.110041],[2.589287,45.110385],[2.589596,45.110672],[2.59023,45.112175],[2.590539,45.112428],[2.590929,45.112623],[2.591092,45.112944],[2.591303,45.113174],[2.590962,45.113242],[2.591255,45.113575],[2.59171,45.114493],[2.5921,45.114849],[2.592328,45.115274],[2.592133,45.115285],[2.591368,45.114975],[2.591417,45.115377],[2.591661,45.115561],[2.59223,45.115825],[2.592263,45.116031],[2.59197,45.116123],[2.590897,45.116054],[2.590572,45.116157],[2.590474,45.116421],[2.591206,45.117615],[2.590946,45.118074],[2.593222,45.124041],[2.593141,45.124534],[2.593499,45.125073],[2.593857,45.125176],[2.59358,45.125498],[2.593369,45.125578],[2.59293,45.126301],[2.592718,45.126553],[2.592458,45.127219],[2.592458,45.127494],[2.592117,45.128251],[2.591173,45.128779],[2.589027,45.129112],[2.587905,45.129227],[2.587498,45.129456],[2.587043,45.129961],[2.58675,45.130546],[2.586815,45.130844],[2.583628,45.130557],[2.582489,45.130638],[2.580798,45.131108],[2.580099,45.131406],[2.579741,45.131613],[2.579302,45.131739],[2.578505,45.1319],[2.577676,45.132519],[2.577188,45.132737],[2.578359,45.132978],[2.57845,45.133247],[2.578708,45.133436],[2.578729,45.133671],[2.578912,45.133905],[2.57933,45.133988],[2.579384,45.134231],[2.579588,45.13439],[2.579631,45.134617],[2.579759,45.134829],[2.579813,45.135033],[2.580028,45.135321],[2.58031,45.135341],[2.580652,45.135697],[2.580538,45.135995],[2.580375,45.13619],[2.580197,45.136546],[2.58005,45.136638],[2.579888,45.136924],[2.579562,45.137154],[2.579416,45.137509],[2.579237,45.13767],[2.579091,45.138094],[2.57914,45.138312],[2.579367,45.138611],[2.579611,45.139287],[2.579465,45.139758],[2.57927,45.140021],[2.579172,45.140343],[2.579253,45.140928],[2.579871,45.141352],[2.580132,45.141386],[2.580457,45.141341],[2.580359,45.141662],[2.579969,45.14165],[2.579953,45.141949],[2.580115,45.142166],[2.580343,45.142178],[2.581416,45.141169],[2.582571,45.140584],[2.583498,45.140251],[2.583888,45.139976],[2.584766,45.1397],[2.585449,45.139368],[2.586864,45.138909],[2.587531,45.138863],[2.588523,45.138599],[2.588978,45.138266],[2.589238,45.137808],[2.589173,45.137096],[2.589238,45.136316],[2.589515,45.135995],[2.5901,45.135479],[2.591271,45.135192],[2.591889,45.134825],[2.593499,45.134286],[2.59571,45.134079],[2.596572,45.133712],[2.597483,45.132932],[2.598377,45.132313],[2.598947,45.131968],[2.599402,45.131773],[2.600264,45.130959],[2.600784,45.130752],[2.601727,45.130787],[2.60241,45.131372],[2.602508,45.132163],[2.60241,45.133345],[2.602622,45.134481],[2.602947,45.135433],[2.603191,45.13564],[2.603841,45.135731],[2.604378,45.135938],[2.60498,45.13603],[2.605923,45.136397],[2.606459,45.136855],[2.607939,45.13728],[2.60846,45.137498],[2.610639,45.138071],[2.610997,45.138289],[2.611013,45.138553],[2.611289,45.138439],[2.611989,45.138416],[2.612428,45.138588],[2.613013,45.138599],[2.613338,45.138679],[2.613631,45.138611],[2.613972,45.138656],[2.614119,45.138897],[2.614038,45.139104],[2.614347,45.139173],[2.614704,45.139058],[2.615111,45.139001],[2.615843,45.138817],[2.616428,45.138817],[2.616526,45.138691],[2.61755,45.138714],[2.618607,45.138989],[2.619355,45.138874],[2.619941,45.138565],[2.620412,45.138496],[2.62051,45.138588],[2.621323,45.138163],[2.621941,45.137922],[2.622136,45.137727],[2.622445,45.137636],[2.622575,45.137463],[2.6229,45.13736],[2.622998,45.137142],[2.622982,45.136936],[2.623144,45.136878],[2.623426,45.136963],[2.623522,45.137076],[2.623748,45.137122],[2.624059,45.137493],[2.624005,45.137697],[2.62408,45.137992],[2.623683,45.138552],[2.623672,45.138719],[2.623372,45.139037],[2.623093,45.139165],[2.623072,45.139301],[2.622868,45.139528],[2.622954,45.13965],[2.623168,45.139657],[2.623061,45.139839],[2.625378,45.139044],[2.625679,45.138825],[2.625711,45.138575],[2.625604,45.138053],[2.625765,45.138128],[2.625872,45.138393],[2.625947,45.138469],[2.626104,45.138507],[2.62625,45.138714],[2.626478,45.138806],[2.626819,45.13923],[2.627015,45.139001],[2.627421,45.13923],[2.62747,45.139517],[2.627649,45.139689],[2.628088,45.139689],[2.628527,45.139964],[2.628641,45.140538],[2.6296,45.139471],[2.629698,45.138955],[2.629844,45.138656],[2.630104,45.137991],[2.630446,45.137613],[2.630657,45.137613],[2.630478,45.138048],[2.630446,45.138611],[2.630527,45.139138],[2.630738,45.139758],[2.630625,45.140629],[2.630982,45.140962],[2.631682,45.141341],[2.631373,45.141639],[2.631112,45.142006],[2.630153,45.142453],[2.629421,45.14274],[2.628348,45.143371],[2.628137,45.143749],[2.627779,45.14383],[2.627372,45.143876],[2.627031,45.144323],[2.626673,45.144518],[2.626234,45.144598],[2.62573,45.145367],[2.625096,45.145917],[2.624559,45.146124],[2.623892,45.146078],[2.623372,45.146112],[2.623112,45.146582],[2.622591,45.146743],[2.622103,45.147053],[2.621843,45.147431],[2.621843,45.147626],[2.62225,45.147959],[2.622103,45.14828],[2.62225,45.148647],[2.624104,45.148635],[2.624657,45.14875],[2.624234,45.148968],[2.623453,45.148979],[2.622965,45.149094],[2.622266,45.149679],[2.621485,45.149874],[2.620282,45.150493],[2.619453,45.150792],[2.61781,45.151067],[2.617306,45.151021],[2.617111,45.151308],[2.616607,45.151365],[2.616135,45.151067],[2.615843,45.151101],[2.615436,45.151858],[2.61568,45.152053],[2.616119,45.151973],[2.616867,45.152007],[2.617778,45.152294],[2.618444,45.152248],[2.619339,45.152454],[2.619989,45.15242],[2.620754,45.152569],[2.621111,45.152856],[2.621632,45.152821],[2.622038,45.15297],[2.621892,45.153062],[2.62129,45.153051],[2.620998,45.153315],[2.621616,45.153406],[2.622315,45.153911],[2.622835,45.154094],[2.622185,45.15437],[2.622542,45.154507],[2.622917,45.154576],[2.623177,45.154828],[2.623421,45.154886],[2.623892,45.155631],[2.624234,45.155723],[2.624608,45.15562],[2.625974,45.15492],[2.62651,45.154381],[2.628494,45.153762],[2.629503,45.153693],[2.630121,45.153532],[2.630234,45.153613],[2.630608,45.153704],[2.630982,45.153578],[2.631454,45.153922],[2.632966,45.153372],[2.633584,45.154232],[2.633779,45.154759],[2.634105,45.154851],[2.634414,45.154817],[2.634544,45.154851],[2.634593,45.155058],[2.635454,45.155035],[2.635861,45.155138],[2.636349,45.155448],[2.635389,45.155448],[2.635308,45.155539],[2.635633,45.155654],[2.636137,45.155964],[2.635471,45.155975],[2.635487,45.15609],[2.635959,45.156537],[2.636284,45.156984],[2.636284,45.158223],[2.636625,45.158934],[2.636967,45.159312],[2.637731,45.159599],[2.638008,45.159771],[2.638528,45.159977],[2.639536,45.160034],[2.640707,45.160229],[2.64165,45.160413],[2.643065,45.160126],[2.643764,45.159587],[2.644398,45.159473],[2.644594,45.159564],[2.64435,45.159805],[2.644236,45.160057],[2.644789,45.159977],[2.645179,45.160034],[2.644821,45.160321],[2.645504,45.160333],[2.645049,45.160711],[2.645667,45.160677],[2.645992,45.160837],[2.645244,45.161009],[2.64513,45.161147],[2.644691,45.16203],[2.644268,45.162718],[2.644968,45.162454],[2.644821,45.162763],[2.643813,45.163451],[2.64378,45.163658],[2.643894,45.163841],[2.643862,45.164231],[2.643976,45.164506],[2.644171,45.164621],[2.645016,45.164346],[2.645569,45.164552],[2.646122,45.164678],[2.647228,45.164667],[2.647716,45.164942],[2.648269,45.165057],[2.648919,45.164988],[2.649375,45.16508],[2.650367,45.165722],[2.651212,45.165137],[2.65196,45.164885],[2.652773,45.164265],[2.653456,45.163944],[2.655099,45.163646],[2.656074,45.163589],[2.657294,45.163199],[2.65814,45.162695],[2.65889,45.16182],[2.659047,45.161328],[2.659657,45.160566],[2.659971,45.159448],[2.660302,45.158428],[2.660354,45.15785],[2.660197,45.156019],[2.660755,45.15452],[2.661243,45.153782],[2.661522,45.153438],[2.661993,45.152602],[2.662271,45.152406],[2.662376,45.152147],[2.662829,45.152184],[2.663491,45.152049],[2.663962,45.151803],[2.664363,45.151066],[2.664764,45.15055],[2.664886,45.150181],[2.666106,45.148017],[2.666942,45.147194],[2.667622,45.14578],[2.667971,45.146038],[2.668598,45.146764],[2.668999,45.147145],[2.669278,45.147563],[2.669295,45.146874],[2.668842,45.146223],[2.668964,45.145104],[2.669574,45.144157],[2.669783,45.144133],[2.670027,45.144354],[2.671753,45.144735],[2.672241,45.143985],[2.673165,45.143174],[2.673705,45.14283],[2.673931,45.14251],[2.675535,45.142363],[2.676006,45.142264],[2.675727,45.14294],[2.67611,45.143039],[2.676406,45.143358],[2.67679,45.143309],[2.677086,45.142953],[2.677348,45.142781],[2.677539,45.14251],[2.678829,45.141686],[2.679596,45.141404],[2.680171,45.14133],[2.680363,45.141379],[2.681199,45.141367],[2.681844,45.141662],[2.68282,45.141822],[2.683273,45.142166],[2.684476,45.142289],[2.684894,45.142104],[2.685539,45.142645],[2.685836,45.143162],[2.686846,45.143973],[2.687422,45.144243],[2.687596,45.145239],[2.687892,45.145547],[2.688328,45.146469],[2.688886,45.147231],[2.69082,45.148902],[2.691953,45.149824],[2.69279,45.150709],[2.693626,45.151693],[2.694167,45.152615],[2.694533,45.153647],[2.695265,45.154028],[2.695997,45.153831],[2.696328,45.153094],[2.69591,45.15227],[2.693748,45.150562],[2.693626,45.149677],[2.693051,45.149197],[2.692703,45.148337],[2.692737,45.147599],[2.692981,45.146764],[2.693469,45.146505],[2.694114,45.14653],[2.694655,45.146739],[2.694846,45.147059],[2.694968,45.147587],[2.69516,45.147968],[2.695857,45.148251],[2.69713,45.148472],[2.697199,45.14798],[2.696868,45.147685],[2.697095,45.147464],[2.696781,45.147231],[2.696798,45.147108],[2.697496,45.147206],[2.698175,45.147243],[2.698489,45.146653],[2.698506,45.145977],[2.699029,45.146075],[2.701417,45.147157],[2.702167,45.147722],[2.703003,45.148165],[2.703038,45.147808],[2.703317,45.147636],[2.704188,45.147956],[2.705286,45.147907],[2.706437,45.147931],[2.706994,45.148116],[2.70757,45.147993],[2.70804,45.14771],[2.708284,45.147452],[2.708842,45.147157],[2.709068,45.147292],[2.709086,45.147882],[2.709731,45.14905],[2.709888,45.149701],[2.710132,45.150058],[2.710654,45.151336],[2.710881,45.150586],[2.711038,45.150599],[2.71123,45.15098],[2.711805,45.151545],[2.71245,45.151963],[2.712624,45.151963],[2.712293,45.150636],[2.712223,45.149554],[2.712328,45.149025],[2.712223,45.148558],[2.712188,45.147661],[2.712345,45.147354],[2.712955,45.147157],[2.714158,45.146481],[2.71414,45.145989],[2.714332,45.145694],[2.715151,45.145276],[2.715116,45.145141],[2.71414,45.144846],[2.713983,45.144219],[2.713705,45.144182],[2.713042,45.144342],[2.712519,45.144317],[2.711909,45.14369],[2.711665,45.143297],[2.711369,45.143223],[2.710759,45.143395],[2.710567,45.14342],[2.711334,45.142768],[2.711735,45.142633],[2.712781,45.143174],[2.713234,45.143149],[2.714158,45.142707],[2.715099,45.142473],[2.715517,45.142719],[2.716162,45.14294],[2.716755,45.142904],[2.71841,45.142363],[2.717278,45.142399],[2.716772,45.142338],[2.716336,45.142068],[2.716162,45.1416],[2.715953,45.141502],[2.714925,45.141539],[2.714454,45.141699],[2.713792,45.142129],[2.713513,45.142104],[2.713129,45.141883],[2.712502,45.141723],[2.712415,45.1416],[2.712694,45.141219],[2.712676,45.14085],[2.712572,45.140469],[2.713356,45.139695],[2.713164,45.139191],[2.712885,45.13881],[2.71231,45.13881],[2.711578,45.138564],[2.710916,45.13806],[2.710288,45.137974],[2.710062,45.137838],[2.709975,45.137691],[2.709365,45.137543],[2.708999,45.13742],[2.708598,45.13747],[2.708546,45.137224],[2.70879,45.13672],[2.708302,45.136228],[2.70769,45.134986],[2.707625,45.13455],[2.707153,45.134228],[2.707039,45.133643],[2.706275,45.13268],[2.705202,45.132026],[2.703836,45.131337],[2.703218,45.130672],[2.702388,45.130408],[2.702165,45.129939],[2.701296,45.129992],[2.701145,45.12922],[2.700372,45.128002],[2.699203,45.127169],[2.698646,45.126639],[2.69665,45.125079],[2.696264,45.124444],[2.695835,45.124292],[2.694955,45.121991],[2.694676,45.121809],[2.694225,45.121128],[2.694118,45.120734],[2.693732,45.120416],[2.693582,45.119871],[2.693174,45.11978],[2.692916,45.119099],[2.692401,45.118736],[2.69105,45.116782],[2.690964,45.116434],[2.69017,45.115904],[2.689762,45.115026],[2.689419,45.114768],[2.688839,45.114132],[2.688303,45.114148],[2.687702,45.114042],[2.687187,45.114102],[2.686973,45.113951],[2.686608,45.113981],[2.686243,45.11386],[2.685943,45.113254],[2.686415,45.112891],[2.686286,45.112285],[2.685428,45.110907],[2.684698,45.110786],[2.684162,45.110225],[2.683389,45.109998],[2.683148,45.109522],[2.682978,45.109922],[2.683176,45.110231],[2.683544,45.110451],[2.683629,45.110821],[2.68353,45.110961],[2.683134,45.110601],[2.683063,45.110721],[2.682935,45.110771],[2.682935,45.110961],[2.682723,45.111151],[2.682072,45.111191],[2.681831,45.11149],[2.681534,45.11168],[2.681222,45.1117],[2.680854,45.11163],[2.680571,45.11181],[2.680019,45.11195],[2.680244,45.111471],[2.680094,45.11138],[2.680094,45.11126],[2.680004,45.111175],[2.680545,45.110998],[2.681185,45.110701],[2.681486,45.110391],[2.681466,45.110122],[2.681346,45.109818],[2.681165,45.109536],[2.680775,45.109232],[2.680365,45.108554],[2.680395,45.107918],[2.680605,45.107141],[2.680865,45.106738],[2.680865,45.106632],[2.681526,45.106335],[2.682557,45.105396],[2.682947,45.105007],[2.683248,45.104866],[2.684159,45.104258],[2.684689,45.104046],[2.68517,45.103954],[2.6856,45.103714],[2.685788,45.103708],[2.686023,45.103752],[2.686288,45.1037],[2.686466,45.103756],[2.686598,45.103732],[2.686708,45.103752],[2.687242,45.103627],[2.687811,45.103614],[2.688415,45.103708],[2.689025,45.103562],[2.689358,45.103314],[2.689692,45.103192],[2.690404,45.103192],[2.690951,45.102953],[2.692106,45.102632],[2.692474,45.10249],[2.69267,45.102466],[2.692848,45.102413],[2.693164,45.102409],[2.693653,45.10236],[2.693917,45.10247],[2.694314,45.102616],[2.694538,45.10264],[2.694958,45.102998],[2.695349,45.103387],[2.695596,45.103428],[2.696197,45.103485],[2.697017,45.103733],[2.697787,45.103894],[2.698483,45.104125],[2.69905,45.104277],[2.699223,45.104386],[2.699377,45.104616],[2.699716,45.104847],[2.700067,45.105197],[2.700384,45.105336],[2.701269,45.105551],[2.701626,45.105523],[2.701996,45.105551],[2.702339,45.105476],[2.702656,45.105476],[2.703343,45.105383],[2.703871,45.1057],[2.7044,45.105877],[2.705139,45.105905],[2.705747,45.105849],[2.706104,45.106064],[2.706407,45.106166],[2.70654,45.10639],[2.706936,45.106735],[2.707398,45.106884],[2.708032,45.106959],[2.708257,45.106875],[2.70856,45.106987],[2.709353,45.106716],[2.709749,45.106884],[2.710198,45.106903],[2.710634,45.106744],[2.711083,45.106334],[2.711242,45.106045],[2.711466,45.105886],[2.711823,45.105821],[2.712074,45.105616],[2.712127,45.105458],[2.712774,45.105262],[2.713184,45.104898],[2.713316,45.104413],[2.713752,45.104348],[2.71457,45.104423],[2.715389,45.104218],[2.71601,45.10391],[2.716515,45.102997],[2.716272,45.101797],[2.716702,45.100822],[2.716477,45.099793],[2.716552,45.099042],[2.716926,45.098066],[2.717094,45.097393],[2.717523,45.096708],[2.717598,45.096246],[2.717673,45.095534],[2.717934,45.095824],[2.718551,45.096101],[2.718906,45.096787],[2.719578,45.097354],[2.719854,45.097766],[2.719986,45.098046],[2.720171,45.098092],[2.720752,45.098092],[2.721069,45.098213],[2.721162,45.098344],[2.721452,45.098437],[2.722284,45.09854],[2.723024,45.099118],[2.723434,45.099202],[2.723737,45.099351],[2.724345,45.099453],[2.725587,45.099994],[2.726181,45.100041],[2.726881,45.099854],[2.72766,45.0995],[2.727885,45.099304],[2.729074,45.099789],[2.7298,45.100442],[2.730434,45.100852],[2.7319,45.100908],[2.733076,45.100563],[2.73338,45.1006],[2.733868,45.100693],[2.734621,45.100656],[2.735229,45.100199],[2.736021,45.100218],[2.736457,45.100041],[2.736827,45.099976],[2.737607,45.099565],[2.73795,45.099276],[2.738478,45.099379],[2.738954,45.099332],[2.73939,45.099425],[2.739773,45.099332],[2.74005,45.099425],[2.740169,45.100013],[2.740697,45.100358],[2.741133,45.100628],[2.741199,45.100871],[2.741596,45.101178],[2.742533,45.101672],[2.742705,45.101822],[2.743471,45.102213],[2.744647,45.102418],[2.745307,45.102344],[2.746047,45.102446],[2.74639,45.102894],[2.747024,45.103192],[2.747856,45.103201],[2.748415,45.10411],[2.749416,45.105325],[2.750277,45.106074],[2.750998,45.106441],[2.751398,45.106936],[2.751979,45.107049],[2.752299,45.107346],[2.7529,45.107501],[2.75318,45.107798],[2.753921,45.107826],[2.754381,45.108123],[2.754361,45.108448],[2.753921,45.108688],[2.75356,45.109324],[2.75352,45.10955],[2.75322,45.109861],[2.752519,45.10996],[2.752159,45.110143],[2.751338,45.110285],[2.750117,45.110638],[2.750257,45.111147],[2.750657,45.111316],[2.750918,45.111429],[2.751598,45.1115],[2.751939,45.111669],[2.752379,45.112192],[2.752519,45.112503],[2.75292,45.112701],[2.754181,45.114057],[2.754661,45.114213],[2.755402,45.114622],[2.756243,45.114862],[2.757124,45.115413],[2.757845,45.116092],[2.758285,45.116699],[2.758986,45.116741],[2.759527,45.116939],[2.761769,45.117179],[2.761869,45.116883],[2.76247,45.116445],[2.76285,45.116501],[2.76327,45.116445],[2.763791,45.116558],[2.764552,45.116784],[2.765212,45.116586],[2.765733,45.116487],[2.766153,45.116233],[2.767074,45.116247],[2.767375,45.116176],[2.767675,45.116219],[2.768776,45.116092],[2.769957,45.116205],[2.769737,45.116671],[2.769877,45.116741],[2.770958,45.116643],[2.771499,45.116628],[2.772019,45.116501],[2.7726,45.116459],[2.773281,45.116501],[2.773661,45.116628],[2.773761,45.116741],[2.774942,45.116967],[2.775223,45.117292],[2.776444,45.117095],[2.776724,45.117222],[2.776724,45.117702],[2.776844,45.118084],[2.776804,45.118606],[2.777265,45.1192],[2.777725,45.119383],[2.779267,45.118974],[2.779627,45.11879],[2.780408,45.11855],[2.780869,45.118182],[2.781269,45.118069],[2.783311,45.116643],[2.783571,45.116388],[2.784012,45.116402],[2.784713,45.116332],[2.785193,45.116459],[2.787255,45.116883],[2.787375,45.117081],[2.787315,45.117377],[2.787536,45.117646],[2.787976,45.117829],[2.788577,45.118253],[2.789157,45.118437],[2.789758,45.118677],[2.790659,45.118762],[2.79236,45.118733],[2.793542,45.11903],[2.794823,45.119736],[2.795103,45.120118],[2.795844,45.120513],[2.796064,45.120937],[2.796705,45.121248],[2.797165,45.121545],[2.797566,45.121319],[2.798187,45.120754],[2.798887,45.120697],[2.799628,45.12074],[2.800309,45.121022],[2.800929,45.121121],[2.802591,45.121615],[2.805054,45.121856],[2.805674,45.121771],[2.806755,45.121375],[2.807937,45.121502],[2.808657,45.121898],[2.809939,45.122251],[2.81078,45.122279],[2.81164,45.122124],[2.812141,45.12218],[2.812902,45.122322],[2.813542,45.122237],[2.813983,45.122293],[2.814383,45.122463],[2.815244,45.122703],[2.815184,45.122957],[2.818688,45.123395],[2.819088,45.123692],[2.819889,45.123904],[2.820169,45.123847],[2.820349,45.123989],[2.82089,45.123861],[2.82117,45.12365],[2.823713,45.122576],[2.823913,45.122293],[2.824534,45.122138],[2.825154,45.122152],[2.827036,45.121757],[2.828238,45.121375],[2.829899,45.12105],[2.83066,45.120881],[2.831401,45.120386],[2.833323,45.120047],[2.833503,45.119722],[2.834244,45.119327],[2.835445,45.119101],[2.835886,45.118903],[2.837007,45.118705],[2.837928,45.118748],[2.839109,45.119044],[2.840951,45.118861],[2.842172,45.118437],[2.842532,45.118592],[2.843033,45.119383],[2.843333,45.119567],[2.843654,45.119171],[2.845415,45.11903],[2.846456,45.119214],[2.846937,45.119426],[2.847037,45.119609],[2.846837,45.119878],[2.847718,45.119963],[2.847818,45.119765],[2.848078,45.119807],[2.848519,45.119525],[2.848819,45.119115],[2.850781,45.118041],[2.851782,45.117391],[2.852002,45.117095],[2.853644,45.116021],[2.854445,45.115908],[2.854865,45.115738],[2.855546,45.115159],[2.856207,45.114848],[2.856907,45.114721],[2.857508,45.114509],[2.858709,45.114382],[2.861592,45.113407],[2.862313,45.113322],[2.862793,45.11345],[2.863394,45.113831],[2.864075,45.114029],[2.864976,45.114001],[2.866497,45.113633],[2.866998,45.113125],[2.867098,45.112715],[2.867358,45.1128],[2.867698,45.112616],[2.868199,45.112461],[2.868403,45.112227],[2.86852,45.11214]]],"type":"MultiLineString"},"properties":{"geo_point":{"lon":2.6971244018381824,"lat":45.0933570045857},"name":"GR400 Tour des Volcans du Cantal (2020)","code_gr":"GR400"}}]}