{"type":"FeatureCollection","features":[{"type":"Feature","geometry":{"coordinates":[[[1.541388,47.547831],[1.541946,47.546383],[1.542976,47.545803],[1.54407,47.545441],[1.545057,47.544746],[1.546151,47.543877],[1.547482,47.543225],[1.548769,47.542747],[1.549864,47.542081],[1.550786,47.541168],[1.551237,47.540459],[1.552825,47.540097],[1.555872,47.538503],[1.558232,47.536881],[1.560185,47.53323],[1.563189,47.530839],[1.564347,47.529782],[1.571922,47.524001],[1.574132,47.522725],[1.576256,47.520987],[1.577286,47.519668],[1.579282,47.517799],[1.580355,47.51619],[1.581535,47.514465],[1.583123,47.513161],[1.585204,47.511494],[1.587221,47.510306],[1.590183,47.508697],[1.592328,47.507219],[1.594399,47.505124],[1.595301,47.503848],[1.596073,47.503254],[1.598455,47.501021],[1.6,47.499557],[1.602317,47.498499],[1.604163,47.497934],[1.605193,47.497397],[1.606952,47.495976],[1.608926,47.494005],[1.609613,47.492975],[1.609956,47.49141],[1.610879,47.489554],[1.611265,47.487843],[1.611694,47.48677],[1.612295,47.485639],[1.612939,47.484928],[1.6159,47.482985],[1.616909,47.481477],[1.620878,47.482028],[1.622724,47.481564],[1.624397,47.48007],[1.624655,47.475647],[1.623818,47.473718],[1.62532,47.47308],[1.627208,47.471702],[1.626479,47.470469],[1.626457,47.469265],[1.626157,47.468714],[1.623324,47.46751],[1.621028,47.467263],[1.621608,47.466494],[1.621822,47.46516],[1.621715,47.464362],[1.620878,47.463912],[1.620127,47.462969],[1.619784,47.461446],[1.619333,47.460808],[1.618968,47.459908],[1.617617,47.45869],[1.617187,47.457674],[1.616243,47.456325],[1.615085,47.455367],[1.614698,47.455251],[1.614419,47.454917],[1.614055,47.453873],[1.613411,47.452741],[1.615213,47.452436],[1.617874,47.451566],[1.617466,47.450971],[1.618003,47.450086],[1.61826,47.4501],[1.618625,47.449665],[1.619162,47.449607],[1.6209,47.450202],[1.621758,47.45084],[1.622166,47.450724],[1.622616,47.450739],[1.626092,47.449331],[1.627601,47.448388],[1.628567,47.447213],[1.629253,47.447024],[1.628159,47.446255],[1.627945,47.445805],[1.62979,47.444397],[1.632708,47.440493],[1.633674,47.438563],[1.633674,47.43627],[1.633867,47.435486],[1.634403,47.434383],[1.635712,47.432612],[1.63612,47.431799],[1.636742,47.431117],[1.637085,47.429695],[1.638609,47.429753],[1.640068,47.430014],[1.641506,47.430827],[1.643544,47.430914],[1.646226,47.430827],[1.648201,47.430145],[1.651891,47.429477],[1.654144,47.428504],[1.654659,47.42743],[1.655689,47.425906],[1.656161,47.424875],[1.65702,47.423873],[1.657599,47.422959],[1.65614,47.421493],[1.655797,47.421028],[1.654895,47.419983],[1.655024,47.419126],[1.649123,47.418371],[1.650046,47.41599],[1.65069,47.415133],[1.65129,47.41461],[1.652986,47.412708],[1.653822,47.411924],[1.654509,47.410443],[1.653737,47.410254],[1.653479,47.409122],[1.654295,47.407466],[1.65526,47.406638],[1.655839,47.406188],[1.656891,47.405825],[1.657148,47.404765],[1.659895,47.403835],[1.660367,47.403472],[1.660625,47.402862],[1.664594,47.402673],[1.667856,47.401163],[1.674014,47.405201],[1.674958,47.406072],[1.680001,47.411518],[1.680773,47.410269],[1.692596,47.407553],[1.693605,47.407655],[1.696373,47.406537],[1.697961,47.405796],[1.699184,47.405084],[1.699441,47.404329],[1.699184,47.403763],[1.699699,47.402891],[1.700171,47.40263],[1.701888,47.402877],[1.707531,47.405549],[1.710127,47.406217],[1.711265,47.406696],[1.712466,47.40751],[1.715127,47.40825],[1.717251,47.408497],[1.725319,47.411227],[1.727701,47.411532],[1.727594,47.410312],[1.728538,47.408555],[1.730641,47.40568],[1.729783,47.398694],[1.729804,47.397779],[1.730662,47.395135],[1.729547,47.392971],[1.730941,47.384545],[1.731006,47.382932],[1.734546,47.383252],[1.737743,47.382918],[1.738044,47.38302],[1.74064,47.382889],[1.741456,47.382744],[1.741992,47.382715],[1.742164,47.382322],[1.742014,47.380884],[1.742228,47.380462],[1.741971,47.379983],[1.741885,47.379286],[1.742035,47.378704],[1.740919,47.378341],[1.740876,47.375813],[1.740318,47.374607],[1.740254,47.374025],[1.739803,47.373401],[1.740511,47.37279],[1.743365,47.373851],[1.744009,47.373909],[1.744009,47.369913],[1.743644,47.369114],[1.742872,47.365204],[1.742915,47.364448],[1.742357,47.362981],[1.742722,47.36112],[1.745876,47.361149],[1.747142,47.361033],[1.747206,47.3608],[1.746734,47.359158],[1.746927,47.35894],[1.74712,47.358329],[1.746391,47.357675],[1.744556,47.357864],[1.744556,47.357254],[1.744213,47.357079],[1.743505,47.357021],[1.743333,47.356614],[1.743033,47.3566],[1.74196,47.356323],[1.740393,47.356193],[1.740072,47.356788],[1.739106,47.357036],[1.73857,47.357021],[1.737861,47.355669],[1.737325,47.351439],[1.73799,47.350029],[1.738055,47.348488],[1.736338,47.345507],[1.735501,47.343588],[1.735823,47.343486],[1.735437,47.342977],[1.735608,47.342105],[1.7349,47.342468],[1.728409,47.336238],[1.721575,47.330326],[1.721403,47.328479],[1.72209,47.327476],[1.722047,47.326908],[1.721232,47.325716],[1.720974,47.324828],[1.720545,47.321483],[1.717498,47.316275],[1.716318,47.312566],[1.714043,47.308114],[1.713421,47.308216],[1.712498,47.308536],[1.711619,47.308594],[1.707027,47.309132],[1.7084,47.307663],[1.703057,47.306397],[1.700997,47.306266],[1.700182,47.306339],[1.700396,47.304811],[1.700697,47.304025],[1.699366,47.303574],[1.70089,47.301348],[1.700868,47.299965],[1.701255,47.299674],[1.702435,47.29739],[1.702692,47.295542],[1.703079,47.294392],[1.702971,47.293402],[1.704151,47.292092],[1.704237,47.291394],[1.705332,47.289749],[1.705096,47.287813],[1.705117,47.286751],[1.705396,47.283534],[1.705396,47.281904],[1.70619,47.280608],[1.706404,47.279953],[1.708464,47.277784],[1.709108,47.276284],[1.707177,47.275891],[1.705031,47.275222],[1.705353,47.274232],[1.70531,47.273314],[1.705375,47.273067]]],"type":"MultiLineString"},"properties":{"geo_point":{"lon":1.66787469311123,"lat":47.412705756476086},"name":"GR413 De Bracieux au Canal du Berry (Loir-et-Cher) (2020)","code_gr":"GR413"}}]}