{"type":"FeatureCollection","features":[{"type":"Feature","geometry":{"coordinates":[[[4.397557,45.009978],[4.397042,45.010917],[4.39689,45.011574],[4.396351,45.012033],[4.395874,45.012102],[4.394534,45.012969],[4.394429,45.01361],[4.394907,45.013982],[4.396033,45.013846],[4.396763,45.013224],[4.397106,45.014927],[4.397278,45.015144],[4.398361,45.014549],[4.399306,45.015553],[4.39849,45.017593],[4.39849,45.017956],[4.398115,45.018639],[4.397975,45.019215],[4.398254,45.019688],[4.399016,45.019959],[4.40114,45.020687],[4.401521,45.021115],[4.401623,45.021663],[4.402546,45.021976],[4.402728,45.022339],[4.402621,45.022652],[4.401956,45.022705],[4.401602,45.022839],[4.401516,45.023121],[4.406387,45.029778],[4.406666,45.03043],[4.406794,45.031197],[4.406269,45.035511],[4.406805,45.037807],[4.40673,45.0411],[4.405764,45.043411],[4.405968,45.043842],[4.40496,45.043911],[4.403597,45.044464],[4.400926,45.045883],[4.398662,45.047428],[4.397589,45.047951],[4.396752,45.04818],[4.396205,45.04845],[4.395593,45.048618],[4.395325,45.048904],[4.395872,45.04948],[4.396548,45.049515],[4.396902,45.0499],[4.395925,45.051183],[4.395661,45.051602],[4.395199,45.05206],[4.395937,45.052864],[4.396205,45.053356],[4.397418,45.053721],[4.39928,45.054579],[4.400825,45.054719],[4.39965,45.05541],[4.39961,45.05527],[4.397879,45.056553],[4.395443,45.058266],[4.394381,45.058796],[4.393727,45.059357],[4.394156,45.060486],[4.394896,45.061291],[4.395336,45.061996],[4.395282,45.063541],[4.395593,45.064426],[4.395196,45.065315],[4.395282,45.066017],[4.395207,45.066605],[4.394413,45.066631],[4.390765,45.067852],[4.389993,45.067928],[4.390347,45.069565],[4.390368,45.070362],[4.3901,45.071156],[4.387471,45.076923],[4.386857,45.07814],[4.386324,45.078823],[4.385262,45.08012],[4.385058,45.080566],[4.384832,45.080635],[4.384639,45.082481],[4.383566,45.084984],[4.383717,45.08593],[4.384468,45.087826],[4.385304,45.088875],[4.386023,45.089256],[4.387418,45.089649],[4.390229,45.090408],[4.392439,45.091608],[4.396752,45.093899],[4.397299,45.09409],[4.397525,45.094284],[4.401602,45.096535],[4.402159,45.097103],[4.402578,45.097713],[4.404531,45.101608],[4.405217,45.102486],[4.406805,45.105244],[4.407127,45.106796],[4.406247,45.109627],[4.406043,45.109787],[4.405582,45.111156],[4.404627,45.111378],[4.403822,45.111446],[4.402664,45.111732],[4.401398,45.112324],[4.400604,45.112488],[4.400346,45.112587],[4.399821,45.113384],[4.399821,45.113941],[4.400389,45.115162],[4.400346,45.116283],[4.400411,45.117009],[4.400282,45.117282],[4.400904,45.118872],[4.401248,45.119266],[4.401816,45.120335],[4.403307,45.12249],[4.40555,45.125465],[4.406483,45.126306],[4.406794,45.126949],[4.40702,45.128743],[4.407374,45.128765],[4.4082,45.128571],[4.409176,45.128586],[4.411075,45.129009],[4.411869,45.129448],[4.412073,45.129856],[4.412062,45.131513],[4.412298,45.132679],[4.412878,45.133618],[4.413414,45.133784],[4.413983,45.133778],[4.416761,45.133255],[4.419358,45.132824],[4.420602,45.132839],[4.421825,45.132809],[4.422802,45.132931],[4.423596,45.133278],[4.425495,45.134655],[4.427683,45.134232],[4.428241,45.133934],[4.428874,45.133541],[4.429872,45.133678],[4.430977,45.133972],[4.431808,45.135089],[4.432532,45.135797],[4.432618,45.137149],[4.432833,45.138107],[4.433842,45.140202],[4.435065,45.14151],[4.435321,45.141898],[4.43515,45.142025],[4.435831,45.142321],[4.436181,45.142646],[4.43735,45.143085],[4.437844,45.143162],[4.438326,45.143356],[4.439525,45.143832],[4.440486,45.143366],[4.442388,45.143112],[4.443626,45.142647],[4.443476,45.142071],[4.444023,45.141926],[4.445,45.142269],[4.445622,45.142017],[4.446276,45.141148],[4.446115,45.140339],[4.446244,45.139599],[4.446692,45.138833],[4.447493,45.138268],[4.450036,45.139356],[4.451137,45.139779],[4.451397,45.139779],[4.451237,45.139059],[4.450797,45.138297],[4.450616,45.13663],[4.450056,45.136037],[4.449775,45.135514],[4.449795,45.136164],[4.450116,45.136715],[4.449795,45.138085],[4.449836,45.138593],[4.448948,45.138546],[4.449066,45.138454],[4.449484,45.138386],[4.449023,45.136978],[4.4481,45.135834],[4.447092,45.133839],[4.447038,45.133041],[4.447542,45.131935],[4.448326,45.130817],[4.448873,45.130455],[4.449484,45.130264],[4.451008,45.129963],[4.45148,45.130108],[4.452757,45.131119],[4.453422,45.130348],[4.453905,45.130108],[4.454559,45.13044],[4.455739,45.130764],[4.457037,45.130894],[4.458003,45.130962],[4.459194,45.13118],[4.460996,45.131657],[4.461544,45.131886],[4.461726,45.131779],[4.461104,45.130848],[4.460299,45.130203],[4.460342,45.129864],[4.45973,45.12981],[4.458894,45.129402],[4.458121,45.128963],[4.457574,45.128505],[4.457284,45.127956],[4.457231,45.12751],[4.457392,45.127026],[4.457939,45.126587],[4.457681,45.127274],[4.457821,45.127827],[4.458153,45.128166],[4.459012,45.128487],[4.459698,45.128635],[4.460825,45.128674],[4.46149,45.128803],[4.460632,45.128273],[4.460117,45.127728],[4.46002,45.127495],[4.460342,45.127628],[4.461651,45.127705],[4.463142,45.128117],[4.463679,45.127979],[4.464591,45.12738],[4.465309,45.126842],[4.465663,45.12582],[4.465481,45.125435],[4.464988,45.124912],[4.465116,45.124241],[4.465331,45.123756],[4.464955,45.123421],[4.464247,45.122952],[4.463764,45.122513],[4.463818,45.122051],[4.46414,45.121414],[4.464097,45.121204],[4.464387,45.120865],[4.464601,45.120415],[4.464964,45.120472],[4.465354,45.120633],[4.465322,45.120851],[4.465484,45.121092],[4.466648,45.12146],[4.467572,45.121866],[4.467947,45.122204],[4.46826,45.121883],[4.46871,45.121719],[4.468834,45.121855],[4.468716,45.121446],[4.469485,45.121826],[4.469176,45.122778],[4.468769,45.123409],[4.469339,45.124006],[4.469794,45.125165],[4.470249,45.125888],[4.470298,45.126622],[4.470509,45.126863],[4.470948,45.126966],[4.472133,45.126775],[4.472314,45.126679],[4.471631,45.126301],[4.471453,45.125211],[4.471778,45.124339],[4.472691,45.122573],[4.472884,45.122446],[4.473356,45.122559],[4.473517,45.122429],[4.47327,45.121883],[4.473469,45.121654],[4.474103,45.121608],[4.474397,45.121391],[4.474428,45.121723],[4.473908,45.121837],[4.473778,45.121952],[4.473828,45.122334],[4.474429,45.122326],[4.475388,45.122033],[4.475778,45.122182],[4.476494,45.122296],[4.475648,45.122824],[4.475128,45.123329],[4.47438,45.123673],[4.473664,45.123777],[4.473238,45.124767],[4.473388,45.12561],[4.474193,45.125572],[4.474536,45.125618],[4.474204,45.125221],[4.474311,45.124866],[4.474815,45.12468],[4.476081,45.124664],[4.475716,45.124943],[4.476081,45.125057],[4.476585,45.125118],[4.477937,45.125397],[4.478935,45.125458],[4.479386,45.125351],[4.479858,45.125183],[4.480298,45.125149],[4.481714,45.124798],[4.482578,45.12462],[4.483798,45.124202],[4.484478,45.124079],[4.485106,45.124042],[4.485803,45.123698],[4.486517,45.123735],[4.487598,45.124288],[4.489306,45.12462],[4.490456,45.124756],[4.491833,45.125284],[4.49328,45.124965],[4.494047,45.12494],[4.494238,45.124596],[4.494653,45.124203],[4.495071,45.124203],[4.495908,45.124634],[4.49809,45.124362],[4.498934,45.124741],[4.499234,45.123512],[4.499781,45.123268],[4.500597,45.123657],[4.500983,45.123695],[4.500639,45.123344],[4.500425,45.122627],[4.499717,45.122581],[4.499148,45.122398],[4.498376,45.121235],[4.498783,45.120197],[4.498311,45.119751],[4.497689,45.118584],[4.497732,45.11829],[4.49755,45.117538],[4.496841,45.117184],[4.496702,45.116814],[4.497206,45.11639],[4.497807,45.116261],[4.498193,45.116425],[4.498601,45.116886],[4.499373,45.117439],[4.499567,45.117676],[4.500597,45.117161],[4.501262,45.116745],[4.501659,45.116798],[4.502045,45.117508],[4.50285,45.117344],[4.503933,45.11797],[4.505038,45.118408],[4.506401,45.119198],[4.506851,45.119259],[4.507136,45.119369],[4.50792,45.119357],[4.509105,45.119726],[4.509681,45.119972],[4.50989,45.11991],[4.509977,45.120255],[4.509977,45.121091],[4.510273,45.1213],[4.511005,45.121386],[4.511685,45.121767],[4.513027,45.122333],[4.513794,45.12264],[4.514805,45.1228],[4.515711,45.122862],[4.515868,45.123034],[4.516826,45.123391],[4.517297,45.123612],[4.51789,45.123636],[4.520033,45.123514],[4.521236,45.123661],[4.522508,45.123624],[4.522805,45.123489],[4.523362,45.123058],[4.52446,45.12312],[4.52568,45.122813],[4.526081,45.122763],[4.526447,45.122948],[4.527266,45.122714],[4.528678,45.122603],[4.529184,45.122099],[4.530543,45.121165],[4.531293,45.120919],[4.532007,45.120144],[4.532495,45.120144],[4.533123,45.120623],[4.53368,45.120759],[4.53436,45.120501],[4.534691,45.120193],[4.534761,45.120574],[4.534325,45.121472],[4.534343,45.122148],[4.534221,45.122677],[4.53429,45.122923],[4.534656,45.123452],[4.535022,45.123759],[4.535824,45.124091],[4.535911,45.124583],[4.536852,45.125309],[4.538055,45.12601],[4.539188,45.126748],[4.540007,45.127141],[4.540286,45.127375],[4.540913,45.127621],[4.541977,45.127854],[4.542935,45.128518],[4.543946,45.128887],[4.544992,45.129096],[4.546613,45.129244],[4.546822,45.129551],[4.546526,45.130707],[4.54656,45.131322],[4.547048,45.13206],[4.548443,45.133461],[4.5486,45.134101],[4.548983,45.134728],[4.550935,45.136867],[4.552207,45.1379],[4.552451,45.138478],[4.553898,45.138982],[4.552329,45.139928],[4.551197,45.140691],[4.551266,45.1409],[4.551005,45.141109],[4.551615,45.141785],[4.551667,45.141994],[4.552608,45.143162],[4.553497,45.143838],[4.553759,45.144305],[4.553706,45.145559],[4.553393,45.146702],[4.553759,45.147059],[4.554316,45.147243],[4.55416,45.146788],[4.554282,45.146481],[4.554648,45.146247],[4.555449,45.145977],[4.555885,45.145116],[4.555728,45.144563],[4.555414,45.144096],[4.555362,45.143678],[4.556181,45.143948],[4.556966,45.144035],[4.557401,45.144133],[4.557924,45.144096],[4.559266,45.144133],[4.55951,45.144465],[4.560486,45.144698],[4.561131,45.144625],[4.561497,45.144625],[4.561846,45.144698],[4.562229,45.144735],[4.562874,45.145129],[4.56331,45.145854],[4.563589,45.146038],[4.565035,45.146677],[4.565628,45.146677],[4.566029,45.146419],[4.567318,45.146001],[4.56751,45.145866],[4.568556,45.145792],[4.569026,45.145866],[4.569584,45.145842],[4.570613,45.146051],[4.571223,45.146038],[4.57192,45.145915],[4.572687,45.145682],[4.573331,45.145657],[4.576103,45.145633],[4.577166,45.145756],[4.578978,45.145792],[4.579397,45.145731],[4.57992,45.14578],[4.580617,45.145694],[4.58114,45.14487],[4.581506,45.144686],[4.581907,45.144809],[4.582151,45.14503],[4.582151,45.145325],[4.582569,45.145965],[4.583109,45.146333],[4.583789,45.146936],[4.583911,45.14739],[4.584469,45.147624],[4.585497,45.147636],[4.587013,45.147956],[4.58853,45.148226],[4.591057,45.148214],[4.592591,45.148079],[4.594438,45.14798],[4.593828,45.147268],[4.593323,45.147083],[4.593044,45.14669],[4.592713,45.146579],[4.592207,45.146579],[4.592103,45.14621],[4.592643,45.145264],[4.593183,45.145301],[4.59449,45.14444],[4.594543,45.143776],[4.596111,45.143026],[4.597087,45.142756],[4.59775,45.142793],[4.598778,45.143076],[4.599353,45.143494],[4.60012,45.143801],[4.60059,45.144096],[4.60127,45.145079],[4.602194,45.145633],[4.602699,45.146186],[4.603553,45.146481],[4.606098,45.147624],[4.611309,45.149554],[4.613087,45.150218],[4.613854,45.150377],[4.614185,45.15039],[4.614987,45.150697],[4.615475,45.150021],[4.615719,45.149923],[4.615771,45.149603],[4.615423,45.149308],[4.614621,45.148988],[4.614098,45.148644],[4.614551,45.14862],[4.6149,45.148337],[4.614638,45.148054],[4.614813,45.147563],[4.615457,45.146505],[4.615388,45.146087],[4.615388,45.145608],[4.61551,45.145497],[4.616067,45.145756],[4.616416,45.145829],[4.616329,45.145485],[4.616643,45.144797],[4.616643,45.14428],[4.616799,45.143936],[4.616782,45.143653],[4.616486,45.143801],[4.615301,45.143875],[4.615492,45.143739],[4.615109,45.143666],[4.614534,45.143309],[4.614447,45.14208],[4.613889,45.141846],[4.612965,45.141404],[4.612442,45.140973],[4.61246,45.140494],[4.612251,45.140248],[4.611606,45.139842],[4.611972,45.138687],[4.61293,45.137912],[4.613349,45.136879],[4.613645,45.136425],[4.613732,45.136117],[4.613052,45.134949],[4.612442,45.13506],[4.611763,45.134986],[4.611484,45.134777],[4.612146,45.134408],[4.612669,45.134248],[4.613087,45.133855],[4.613314,45.133326],[4.613314,45.132957],[4.613854,45.132625],[4.614481,45.132502],[4.615701,45.131937],[4.616137,45.131949],[4.615527,45.13142],[4.615196,45.130793],[4.613924,45.130215],[4.612895,45.129687],[4.612948,45.129514],[4.613802,45.129453],[4.615945,45.129121],[4.616712,45.12917],[4.617392,45.12933],[4.61849,45.129699],[4.618699,45.129699],[4.618525,45.129305],[4.619728,45.128494],[4.620808,45.128137],[4.621314,45.128039],[4.621453,45.127756],[4.62222,45.127375],[4.622656,45.127067],[4.623841,45.126354],[4.624346,45.126268],[4.625009,45.125862],[4.625828,45.125567],[4.626298,45.125001],[4.62649,45.12446],[4.626542,45.123944],[4.62649,45.123514],[4.626629,45.123354],[4.627239,45.123378],[4.62785,45.123673],[4.628111,45.123624],[4.628111,45.123378],[4.628599,45.123108],[4.628721,45.12264],[4.628564,45.122173],[4.628477,45.121743],[4.628285,45.1213],[4.62839,45.12098],[4.628965,45.121066],[4.630115,45.121115],[4.63083,45.121042],[4.631475,45.120759],[4.632486,45.120414],[4.633845,45.11964],[4.633897,45.119197],[4.634403,45.118766],[4.6351,45.117758],[4.635135,45.117352],[4.634804,45.116959],[4.634072,45.11686],[4.633775,45.1167],[4.63395,45.116147],[4.633985,45.115261],[4.634089,45.114892],[4.633932,45.114302],[4.634159,45.113736],[4.634002,45.113539],[4.63327,45.11301],[4.633148,45.112715],[4.633409,45.112408],[4.634351,45.1129],[4.635571,45.113355],[4.636059,45.113379],[4.636947,45.113318],[4.637767,45.113453],[4.638882,45.113896],[4.639353,45.113945],[4.639736,45.113798],[4.640486,45.113256],[4.641374,45.112875],[4.641671,45.112912],[4.642194,45.112937],[4.642682,45.113281],[4.642978,45.113699],[4.643257,45.113896],[4.644076,45.114056],[4.644285,45.114523],[4.644669,45.114499],[4.645,45.1144],[4.645488,45.114068],[4.645801,45.113699],[4.645627,45.113416],[4.645958,45.112432],[4.646603,45.111473],[4.647318,45.110956],[4.647597,45.1106],[4.648032,45.11055],[4.648503,45.110563],[4.649218,45.110772],[4.649531,45.110747],[4.650385,45.110833],[4.649479,45.110526],[4.648311,45.109837],[4.647631,45.109283],[4.647597,45.10905],[4.647858,45.108865],[4.648538,45.108607],[4.648921,45.107955],[4.649514,45.107586],[4.650228,45.107241],[4.650211,45.107414],[4.649653,45.108398],[4.64974,45.108877],[4.650368,45.109283],[4.650926,45.109394],[4.653331,45.109665],[4.653784,45.109603],[4.654377,45.108631],[4.654167,45.10857],[4.653592,45.10857],[4.653139,45.108373],[4.653209,45.107881],[4.653052,45.107254],[4.653139,45.107094],[4.653801,45.106946],[4.654377,45.107118],[4.654899,45.106762],[4.655631,45.106762],[4.655893,45.106405],[4.65652,45.105876],[4.656956,45.10579],[4.658716,45.105027],[4.659152,45.104597],[4.659326,45.104609],[4.659623,45.104953],[4.659814,45.104867],[4.660163,45.104424],[4.660808,45.104252],[4.661488,45.103846],[4.662115,45.103625],[4.662725,45.103477],[4.663474,45.103465],[4.664346,45.102911],[4.664677,45.102837],[4.665427,45.102641],[4.666664,45.102198],[4.667187,45.102062],[4.667849,45.101878],[4.668755,45.102013],[4.669662,45.102247],[4.670045,45.102419],[4.671492,45.102235],[4.67198,45.101964],[4.672172,45.101423],[4.672921,45.101054],[4.67327,45.101115],[4.67367,45.100869],[4.673984,45.100832],[4.674315,45.100709],[4.67428,45.100611],[4.674908,45.100414],[4.675745,45.100537],[4.677505,45.100389],[4.679666,45.100279],[4.679893,45.100586],[4.680346,45.101017],[4.680764,45.101066],[4.681113,45.1013],[4.681322,45.101263],[4.681514,45.100955],[4.681914,45.100869],[4.682298,45.100857],[4.682768,45.100562],[4.683239,45.100611],[4.684738,45.100968],[4.685365,45.101324],[4.685749,45.101644],[4.686429,45.101853],[4.688485,45.102087],[4.690211,45.102124],[4.690455,45.102087],[4.690071,45.10157],[4.690123,45.101361],[4.690908,45.101041],[4.690908,45.10082],[4.691605,45.100475],[4.693156,45.099762],[4.694219,45.100156],[4.696032,45.09831],[4.696241,45.097916],[4.696869,45.097486],[4.696973,45.097166],[4.697269,45.097252],[4.697496,45.09788],[4.697705,45.097953],[4.699326,45.097867],[4.701139,45.098027],[4.702411,45.098236],[4.703683,45.098384],[4.705409,45.098655],[4.706611,45.099159],[4.708982,45.098851],[4.709783,45.098839],[4.710515,45.099085],[4.710568,45.099294],[4.710306,45.099553],[4.710707,45.100094],[4.711247,45.100377],[4.711805,45.100205],[4.712049,45.099848],[4.712607,45.099504],[4.713147,45.099454],[4.714315,45.099134],[4.715134,45.099368],[4.715971,45.09943],[4.717749,45.099848],[4.719178,45.100082],[4.719945,45.100143],[4.721461,45.100439],[4.722611,45.100549],[4.723186,45.100537],[4.723796,45.100746],[4.725592,45.1013],[4.726045,45.101287],[4.726916,45.101644],[4.729008,45.103133],[4.72967,45.10344],[4.731413,45.104105],[4.731692,45.103797],[4.732302,45.103366],[4.733417,45.102296],[4.734358,45.100537],[4.735143,45.09927],[4.736467,45.098113],[4.736938,45.0974],[4.737286,45.096588],[4.737321,45.095985],[4.738541,45.095087],[4.74011,45.095247],[4.743369,45.095493],[4.744711,45.095222],[4.746472,45.094533],[4.747448,45.094164],[4.750602,45.094164],[4.752066,45.094324],[4.752607,45.094496],[4.752816,45.095001],[4.753042,45.09505],[4.75367,45.094508],[4.753879,45.09409],[4.754402,45.094225],[4.754872,45.094004],[4.755151,45.093696],[4.75496,45.093327],[4.755134,45.093253],[4.755552,45.093487],[4.755622,45.094004],[4.755848,45.094533],[4.756162,45.094102],[4.756546,45.093746],[4.756894,45.093032],[4.757243,45.092823],[4.757609,45.092675],[4.758254,45.091789],[4.758654,45.091359],[4.758759,45.091703],[4.759648,45.092158],[4.763378,45.091199],[4.764197,45.090768],[4.76465,45.090645],[4.765347,45.090719],[4.766672,45.090657],[4.770036,45.090805],[4.771012,45.090411],[4.771848,45.090313],[4.772284,45.089968],[4.772232,45.08955],[4.771221,45.087089],[4.771378,45.086646],[4.772354,45.085354],[4.772528,45.084861],[4.772563,45.084369],[4.772057,45.081994],[4.77204,45.081108],[4.771883,45.080628],[4.771378,45.080136],[4.771029,45.079459],[4.770646,45.079139],[4.770698,45.07696],[4.771116,45.075631],[4.771186,45.074954],[4.771413,45.074511],[4.771918,45.074167],[4.772214,45.073588],[4.772336,45.072862],[4.772633,45.072209],[4.772737,45.071668],[4.772528,45.070523],[4.77258,45.070043],[4.772179,45.069317],[4.771988,45.068664],[4.772267,45.067273],[4.772249,45.06603],[4.772406,45.064418],[4.77272,45.064442],[4.773556,45.064615],[4.774219,45.064676],[4.774428,45.064811],[4.774881,45.064479],[4.775282,45.06443],[4.77577,45.064713],[4.776188,45.064799],[4.77631,45.064935],[4.776554,45.065095],[4.776972,45.064984],[4.777182,45.064762],[4.777164,45.064504],[4.77746,45.064294],[4.777565,45.063925],[4.777565,45.063704],[4.777896,45.063408],[4.778105,45.0631],[4.778628,45.062682],[4.778994,45.062177],[4.778733,45.061746],[4.779186,45.061771],[4.779552,45.062128],[4.779465,45.06278],[4.779029,45.063371],[4.779064,45.063814],[4.778872,45.063999],[4.778785,45.064381],[4.778942,45.065095],[4.779081,45.065538],[4.778994,45.065932],[4.779186,45.066326],[4.778855,45.066756],[4.779709,45.066867],[4.780162,45.067027],[4.78065,45.06747],[4.780999,45.067212],[4.781103,45.066633],[4.781347,45.066252],[4.781609,45.065993],[4.781434,45.065624],[4.781556,45.064775],[4.7818,45.064578],[4.782323,45.064541],[4.782532,45.065095],[4.782846,45.065378],[4.782846,45.06507],[4.783264,45.065119],[4.783317,45.064738],[4.783543,45.06475],[4.783857,45.064885],[4.784188,45.064922],[4.784432,45.064553],[4.785251,45.064479],[4.786262,45.064048],[4.787534,45.063396],[4.788127,45.06283],[4.788545,45.062423],[4.788876,45.062325],[4.788929,45.06214],[4.789103,45.06198],[4.789068,45.061685],[4.789155,45.061463],[4.788946,45.061007],[4.789086,45.0607],[4.788911,45.060084],[4.789033,45.059518],[4.789086,45.05857],[4.788859,45.058127],[4.78912,45.057893],[4.789068,45.057548],[4.788545,45.057166],[4.788632,45.056489],[4.788911,45.056551],[4.788946,45.056292],[4.788824,45.056046],[4.788789,45.055738],[4.788598,45.055553],[4.788667,45.05527],[4.78858,45.055135],[4.788232,45.055049],[4.787691,45.054729],[4.787343,45.054729],[4.787012,45.054335],[4.786646,45.054335],[4.786367,45.053941],[4.785757,45.054162],[4.785251,45.053534],[4.785286,45.053189],[4.784728,45.053042],[4.784519,45.052771],[4.784589,45.052377],[4.784101,45.052044],[4.783648,45.052204],[4.783334,45.052131],[4.782532,45.05149],[4.782219,45.051035],[4.781556,45.050751],[4.781607,45.050502],[4.781729,45.050146],[4.78168,45.049687],[4.781526,45.049681],[4.780168,45.050563],[4.779701,45.050431],[4.778748,45.049969],[4.77815,45.049322],[4.777889,45.048755],[4.777403,45.048201],[4.777366,45.047963],[4.776544,45.047963],[4.776208,45.04824],[4.775927,45.049283],[4.775857,45.049274],[4.775909,45.048129],[4.775665,45.04755],[4.775735,45.047291],[4.775683,45.046947],[4.775404,45.046589],[4.775439,45.046023],[4.774933,45.045949],[4.774602,45.045777],[4.774498,45.045309],[4.774306,45.045062],[4.774062,45.044656],[4.773626,45.044127],[4.773783,45.043769],[4.773487,45.043572],[4.773347,45.043129],[4.772859,45.043129],[4.77272,45.04287],[4.772789,45.042624],[4.773138,45.042723],[4.773975,45.04276],[4.773678,45.042353],[4.773643,45.042095],[4.773887,45.042095],[4.774428,45.042329],[4.774811,45.042292],[4.774468,45.04204],[4.77546,45.042052],[4.775558,45.041989],[4.775086,45.041776],[4.775159,45.041678],[4.775672,45.041632],[4.775761,45.041541],[4.775509,45.041012],[4.77507,45.040955],[4.774818,45.040811],[4.774444,45.04034],[4.774452,45.040081],[4.774127,45.039995],[4.773948,45.0398],[4.774029,45.03965],[4.774444,45.039604],[4.774899,45.039111],[4.774945,45.038729],[4.774887,45.038445],[4.774933,45.038274],[4.77483,45.038063],[4.774657,45.037965],[4.774427,45.037721],[4.773875,45.037591],[4.773611,45.037445],[4.773197,45.036909],[4.773139,45.036576],[4.773323,45.036169],[4.773507,45.035414],[4.773277,45.034788],[4.773415,45.034455],[4.773001,45.034244],[4.77299,45.034065],[4.773565,45.033626],[4.773841,45.033179],[4.773806,45.032951],[4.773588,45.032708],[4.773507,45.032423],[4.773611,45.032139],[4.773691,45.031757],[4.773864,45.031513],[4.77422,45.031424],[4.774623,45.031424],[4.774634,45.031277],[4.774519,45.030514],[4.774542,45.030075],[4.774358,45.02953],[4.774381,45.029124],[4.774554,45.028636],[4.774899,45.028287],[4.77529,45.027978],[4.775615,45.027382],[4.776086,45.027141],[4.77729,45.026693],[4.777712,45.026566],[4.778314,45.026095],[4.779339,45.025957],[4.779343,45.025346],[4.779207,45.024724],[4.778205,45.023223],[4.77728,45.022386],[4.777052,45.022043],[4.777052,45.021668],[4.777538,45.020896],[4.777781,45.020864],[4.778221,45.020842],[4.778706,45.020724],[4.778918,45.020724],[4.77907,45.020595],[4.778812,45.019212],[4.778494,45.018633],[4.778544,45.01729],[4.779487,45.01703],[4.779763,45.016754],[4.780453,45.016672],[4.781672,45.016623],[4.782017,45.016363],[4.783074,45.014705],[4.783419,45.01516],[4.783603,45.015209],[4.783649,45.015599],[4.783879,45.01555],[4.784155,45.015339],[4.784477,45.015242],[4.78542,45.014608],[4.786317,45.014071],[4.786823,45.013404],[4.786409,45.013047],[4.785811,45.012754],[4.785443,45.012136],[4.784822,45.011909],[4.783925,45.011356],[4.783511,45.010966],[4.783258,45.010283],[4.783051,45.00999],[4.782753,45.010039],[4.782477,45.009551],[4.78289,45.008982],[4.783097,45.008462],[4.783097,45.007486],[4.783442,45.006738],[4.783833,45.006413],[4.784431,45.006039],[4.785466,45.005714],[4.786248,45.005665],[4.786938,45.005356],[4.78703,45.004868],[4.787375,45.004543],[4.787904,45.004169],[4.789077,45.002559],[4.78933,45.001762],[4.789744,45.001405],[4.79002,45.000901],[4.790411,45.00051],[4.790549,45.000023],[4.790457,44.997941],[4.790273,44.997355],[4.790411,44.996803],[4.790673,44.996629],[4.791112,44.996491],[4.791356,44.996319],[4.791828,44.996238],[4.792771,44.995571],[4.793486,44.994053],[4.794137,44.993743],[4.794739,44.993168],[4.79495,44.992811],[4.794836,44.992156],[4.794576,44.991719],[4.79456,44.991167],[4.7943,44.990592],[4.794039,44.989384],[4.793747,44.988982],[4.793812,44.988729],[4.793682,44.988487],[4.793926,44.988211],[4.794056,44.987797],[4.794381,44.987521],[4.794999,44.987567],[4.795178,44.987199],[4.795535,44.986865],[4.795698,44.986601],[4.796072,44.986382],[4.796235,44.98606],[4.797145,44.985232],[4.797373,44.984922],[4.797422,44.985278],[4.797715,44.985738],[4.798202,44.985991],[4.798072,44.984945],[4.79817,44.984255],[4.798072,44.983392],[4.797617,44.983162],[4.797438,44.981149],[4.79721,44.980792],[4.796788,44.979354],[4.796397,44.979366],[4.79617,44.979504],[4.796023,44.979987],[4.795861,44.980045],[4.79334,44.979642],[4.792934,44.979723],[4.791551,44.979654],[4.79095,44.979435],[4.788689,44.979285],[4.787551,44.97863],[4.786478,44.978411],[4.786039,44.978779],[4.78529,44.979032],[4.784786,44.979366],[4.784916,44.979665],[4.784673,44.979987],[4.784851,44.98062],[4.785095,44.980988],[4.785193,44.981597],[4.785128,44.981989],[4.782266,44.982253],[4.781697,44.981689],[4.780363,44.978963],[4.779973,44.978331],[4.778574,44.97687],[4.778395,44.976076],[4.777989,44.975535],[4.777387,44.974258],[4.776948,44.973798],[4.776639,44.973591],[4.776119,44.973499],[4.775615,44.973315],[4.775403,44.973142],[4.774915,44.972993],[4.774574,44.972648],[4.773972,44.971888],[4.772037,44.970888],[4.771696,44.97045],[4.771094,44.969806],[4.77085,44.969311],[4.770785,44.968966],[4.770931,44.968529],[4.770378,44.96785],[4.771419,44.967206],[4.771777,44.967056],[4.772005,44.96701],[4.771826,44.966286],[4.7715,44.965722],[4.770996,44.965227],[4.768785,44.962776],[4.767533,44.962373],[4.766947,44.962132],[4.766297,44.96166],[4.766443,44.960774],[4.767077,44.960567],[4.767467,44.960314],[4.768134,44.960371],[4.76872,44.960406],[4.769321,44.960993],[4.770053,44.962189],[4.770834,44.962696],[4.771387,44.962799],[4.772183,44.962327],[4.771582,44.962466],[4.77098,44.962143],[4.770508,44.961533],[4.769565,44.959888],[4.769012,44.959784],[4.768866,44.959635],[4.769077,44.959531],[4.76963,44.959347],[4.769728,44.959129],[4.769305,44.958565],[4.768524,44.958967],[4.768313,44.958956],[4.768264,44.958657],[4.768687,44.958392],[4.769094,44.957932],[4.769256,44.957518],[4.769858,44.956793],[4.770118,44.955964],[4.76963,44.955504],[4.769582,44.955055],[4.769695,44.954744],[4.769972,44.954606],[4.769988,44.954134],[4.770151,44.953501],[4.769988,44.952914],[4.769484,44.952592],[4.768866,44.952397],[4.768492,44.952132],[4.768085,44.951223],[4.767695,44.95143],[4.766882,44.951487],[4.766004,44.951476],[4.76524,44.951729],[4.764313,44.951844],[4.764166,44.951798],[4.763939,44.951188],[4.762817,44.949427],[4.762199,44.948794],[4.76176,44.948691],[4.760637,44.948932],[4.759711,44.949462],[4.75958,44.949036],[4.759093,44.948495],[4.759125,44.948265],[4.759906,44.947114],[4.759613,44.945606],[4.759646,44.944846],[4.759174,44.943972],[4.759093,44.943592],[4.759174,44.94312],[4.759548,44.942786],[4.760263,44.94251],[4.760377,44.942153],[4.76028,44.941911],[4.759499,44.941094],[4.758572,44.939437],[4.758166,44.938504],[4.757922,44.93855],[4.757483,44.938424],[4.756816,44.938424],[4.754962,44.938055],[4.754702,44.938136],[4.754149,44.939252],[4.753791,44.939529],[4.753401,44.939575],[4.7521,44.939022],[4.751124,44.938884],[4.752523,44.937411],[4.751791,44.936455],[4.751206,44.936006],[4.75062,44.935695],[4.747384,44.93246],[4.747124,44.932645],[4.746685,44.93246],[4.745416,44.932196],[4.744929,44.931827],[4.744457,44.931378],[4.743806,44.93048],[4.743611,44.930054],[4.744278,44.92987],[4.744506,44.929686],[4.744668,44.929398],[4.744522,44.92888],[4.743855,44.928178],[4.74314,44.927775],[4.742083,44.927049],[4.740587,44.926347],[4.739611,44.92546],[4.739058,44.925265],[4.738505,44.925345],[4.737708,44.925622],[4.737416,44.925622],[4.734879,44.925034],[4.734375,44.924793],[4.733838,44.924413],[4.732976,44.923676],[4.732635,44.923238],[4.73135,44.922363],[4.730813,44.92181],[4.730634,44.921189],[4.730065,44.920832],[4.728846,44.92105],[4.727756,44.921027],[4.727122,44.92097],[4.726683,44.920636],[4.726081,44.920429],[4.725463,44.920371],[4.723398,44.9196],[4.723008,44.919565],[4.721918,44.919623],[4.721137,44.9193],[4.720959,44.919047],[4.720877,44.918229],[4.721121,44.918011],[4.72156,44.917838],[4.721674,44.917274],[4.721739,44.916525],[4.721511,44.915673],[4.721381,44.914832],[4.721414,44.914613],[4.721186,44.914118],[4.720601,44.913623],[4.720503,44.913358],[4.720812,44.912944],[4.720893,44.912345],[4.72078,44.912126],[4.72078,44.911838],[4.720584,44.911308],[4.720617,44.910894],[4.720324,44.910375],[4.72008,44.90965],[4.719788,44.90935],[4.718682,44.908947],[4.718405,44.908786],[4.717544,44.908786],[4.717218,44.908648],[4.716861,44.907899],[4.715836,44.906955],[4.715592,44.906298],[4.715511,44.90555],[4.715787,44.90464],[4.715852,44.903799],[4.715755,44.903338],[4.715202,44.902866],[4.714454,44.902497],[4.71434,44.902267],[4.714438,44.901967],[4.714275,44.901656],[4.714259,44.901207],[4.714503,44.900297],[4.714486,44.899733],[4.714584,44.899261],[4.714503,44.898765],[4.714389,44.8985],[4.71447,44.898086],[4.71434,44.897809],[4.713446,44.898063],[4.713185,44.89827],[4.712925,44.898604],[4.712681,44.898638],[4.71234,44.898477],[4.712047,44.898558],[4.711592,44.898777],[4.711088,44.898938],[4.710583,44.898823],[4.710242,44.898662],[4.710144,44.898523],[4.709835,44.898638],[4.709705,44.898915],[4.709152,44.899353],[4.70816,44.8988],[4.706843,44.898512],[4.706209,44.897993],[4.705266,44.897394],[4.704209,44.897233],[4.703819,44.897371],[4.703542,44.897383],[4.70268,44.897636],[4.701997,44.897775],[4.701591,44.897728],[4.700599,44.897268],[4.700257,44.897233],[4.699346,44.897106],[4.69842,44.897118],[4.697021,44.897682],[4.696452,44.898212],[4.695931,44.898604],[4.69533,44.898788],[4.69437,44.898696],[4.69494,44.898351],[4.694387,44.898327],[4.693769,44.898097],[4.692972,44.89759],[4.693866,44.897671],[4.693866,44.897348],[4.693151,44.896807],[4.692972,44.896542],[4.692451,44.896093],[4.692061,44.895874],[4.691232,44.895793],[4.690646,44.895597],[4.690242,44.895406],[4.689981,44.895035],[4.688804,44.893911],[4.687889,44.893209],[4.68688,44.892733],[4.686618,44.892759],[4.686263,44.893103],[4.685666,44.893236],[4.685255,44.893408],[4.684321,44.893792],[4.682864,44.894136],[4.68264,44.893606],[4.682602,44.893236],[4.682042,44.893024],[4.681743,44.89227],[4.681164,44.891714],[4.680921,44.890973],[4.680622,44.890814],[4.680529,44.890285],[4.680211,44.889239],[4.680006,44.888988],[4.680136,44.888842],[4.680099,44.888697],[4.678978,44.888617],[4.67853,44.888882],[4.678381,44.889147],[4.678455,44.889649],[4.678007,44.889941],[4.677316,44.890179],[4.677241,44.890748],[4.675803,44.890748],[4.674738,44.891092],[4.67442,44.891568],[4.674234,44.891595],[4.6733,44.891238],[4.673075,44.89133],[4.672833,44.891595],[4.672422,44.891873],[4.672253,44.892243],[4.672216,44.892587],[4.672085,44.892587],[4.671656,44.891926],[4.669825,44.891489],[4.669582,44.891105],[4.668742,44.89092],[4.667808,44.891462],[4.667079,44.89174],[4.666164,44.89182],[4.665715,44.891886],[4.664968,44.891767],[4.663829,44.891436],[4.663343,44.891462],[4.663175,44.891608],[4.663119,44.89182],[4.662092,44.892455],[4.661214,44.892799],[4.660224,44.893117],[4.658841,44.893739],[4.658057,44.894321],[4.657067,44.894347],[4.655236,44.894824],[4.654564,44.895221],[4.653555,44.895419],[4.6532,44.896332],[4.652602,44.896451],[4.648997,44.896822],[4.648306,44.896809],[4.645093,44.894744],[4.644514,44.894744],[4.643879,44.89448],[4.643767,44.894771],[4.642833,44.894824],[4.640498,44.893514],[4.64018,44.893037],[4.639433,44.89268],[4.638742,44.891515],[4.6382,44.891304],[4.637826,44.891238],[4.636892,44.890761],[4.636201,44.890179],[4.635529,44.889133],[4.634968,44.887532],[4.634763,44.886486],[4.634427,44.886473],[4.634128,44.886579],[4.633679,44.88695],[4.631849,44.887744],[4.632185,44.887307],[4.631531,44.88683],[4.630392,44.886778],[4.630074,44.886672],[4.629682,44.886804],[4.629439,44.886486],[4.629047,44.886407],[4.629308,44.886963],[4.62957,44.888419],[4.629532,44.888683],[4.628766,44.889266],[4.628617,44.890192],[4.628356,44.890642],[4.62815,44.890827],[4.627945,44.890814],[4.627702,44.889782],[4.627832,44.888749],[4.627608,44.88867],[4.626245,44.889067],[4.625815,44.889424],[4.625255,44.889094],[4.625087,44.888869],[4.62462,44.889067],[4.624507,44.889319],[4.624638,44.889477],[4.624507,44.889901],[4.624582,44.890483],[4.624806,44.891251],[4.624246,44.891476],[4.62404,44.892164],[4.623872,44.892402],[4.623704,44.892812],[4.623555,44.892362],[4.623387,44.892415],[4.623387,44.892812],[4.623069,44.892892],[4.619856,44.892309],[4.619464,44.892177],[4.615859,44.891582],[4.614402,44.891304],[4.613617,44.891635],[4.612067,44.89141],[4.611656,44.891132],[4.611805,44.890986],[4.61173,44.890602],[4.611413,44.890232],[4.610553,44.889702],[4.61003,44.889173],[4.608237,44.88826],[4.607733,44.888339],[4.607359,44.888498],[4.606425,44.888419],[4.604576,44.888339],[4.603791,44.888273],[4.603791,44.888405],[4.603474,44.888564],[4.602614,44.888167],[4.602054,44.887638],[4.600653,44.887453],[4.600223,44.887545],[4.599812,44.88781],[4.597963,44.888286],[4.597309,44.888326],[4.595666,44.888114],[4.595292,44.887532],[4.594918,44.887347],[4.593536,44.887122],[4.592957,44.886883],[4.592359,44.886367],[4.591986,44.885626],[4.591761,44.885441],[4.591481,44.885335],[4.590921,44.884673],[4.590529,44.8847],[4.589931,44.883932],[4.589707,44.883495],[4.588866,44.882926],[4.588287,44.882648],[4.587745,44.882185],[4.587297,44.88196],[4.586699,44.881841],[4.586195,44.881642],[4.585803,44.881298],[4.583729,44.880663],[4.58287,44.880438],[4.582141,44.880133],[4.581824,44.879657],[4.581375,44.879021],[4.580834,44.878836],[4.580666,44.878651],[4.580441,44.878188],[4.579638,44.877883],[4.57891,44.877711],[4.577584,44.876945],[4.576748,44.876574],[4.576416,44.876735],[4.575562,44.876686],[4.575318,44.87655],[4.575353,44.875994],[4.574307,44.876513],[4.573994,44.876982],[4.574325,44.877575],[4.574185,44.877698],[4.573488,44.877785],[4.573541,44.878069],[4.573053,44.878155],[4.572495,44.878686],[4.57192,44.87876],[4.571223,44.87902],[4.571066,44.879452],[4.57056,44.879699],[4.569863,44.880119],[4.569264,44.880129],[4.568942,44.88021],[4.568689,44.880194],[4.568344,44.880283],[4.567988,44.880292],[4.567631,44.880406],[4.567229,44.880422],[4.566631,44.881041],[4.566935,44.881255],[4.5669,44.881477],[4.566952,44.88191],[4.565889,44.882095],[4.565314,44.882255],[4.565035,44.882478],[4.563955,44.883009],[4.563013,44.883824],[4.561915,44.884713],[4.56073,44.885392],[4.560556,44.886454],[4.560678,44.887059],[4.560469,44.887269],[4.560295,44.887775],[4.560417,44.888294],[4.559929,44.888578],[4.55951,44.88859],[4.55883,44.888529],[4.558029,44.888541],[4.555728,44.888417],[4.554909,44.88859],[4.554456,44.88859],[4.553149,44.888195],[4.552748,44.888171],[4.551998,44.888701],[4.551197,44.889516],[4.551005,44.889813],[4.550674,44.889751],[4.550395,44.889158],[4.550168,44.888911],[4.549175,44.888492],[4.548652,44.888417],[4.547502,44.888455],[4.547536,44.888714],[4.547902,44.888936],[4.548669,44.889171],[4.548913,44.889467],[4.548652,44.890146],[4.548722,44.890838],[4.549123,44.891307],[4.549663,44.891702],[4.54968,44.891937],[4.549558,44.892319],[4.549593,44.892801],[4.547955,44.892789],[4.547083,44.892381],[4.544765,44.891825],[4.546142,44.891788],[4.544155,44.891356],[4.543563,44.891406],[4.543231,44.891714],[4.543144,44.891974],[4.543005,44.892616],[4.542273,44.893912],[4.541576,44.894147],[4.540861,44.893962],[4.540059,44.893492],[4.539293,44.892813],[4.539101,44.892566],[4.53863,44.892406],[4.537654,44.892381],[4.53687,44.892282],[4.535998,44.891653],[4.534883,44.892307],[4.534395,44.892356],[4.533384,44.892628],[4.532983,44.892628],[4.532896,44.892813],[4.533227,44.893097],[4.533628,44.893801],[4.534325,44.894097],[4.534883,44.894579],[4.534343,44.89527],[4.533924,44.895554],[4.532739,44.895937],[4.531415,44.896196],[4.53063,44.896258],[4.529619,44.896135],[4.528783,44.895937],[4.527667,44.896209],[4.526203,44.896579],[4.52589,44.896826],[4.525802,44.89732],[4.525349,44.897493],[4.524879,44.897579],[4.523763,44.897949],[4.52345,44.898196],[4.523345,44.898789],[4.523606,44.899283],[4.523938,44.900147],[4.524112,44.900641],[4.52406,44.900974],[4.524147,44.901122],[4.523694,44.901295],[4.523362,44.90111],[4.522421,44.90074],[4.521846,44.900591],[4.521881,44.90048],[4.522474,44.900394],[4.522142,44.900122],[4.52148,44.899826],[4.520783,44.899764],[4.520696,44.899567],[4.520713,44.899098],[4.52026,44.898332],[4.520068,44.897406],[4.519946,44.897443],[4.519877,44.898258],[4.519946,44.898666],[4.519789,44.899184],[4.519545,44.899233],[4.519423,44.898925],[4.519476,44.898382],[4.519284,44.89811],[4.518988,44.898073],[4.518657,44.89848],[4.518325,44.898764],[4.518378,44.899184],[4.518343,44.899431],[4.518674,44.899838],[4.518535,44.899851],[4.518238,44.899666],[4.517297,44.899641],[4.516914,44.899838],[4.515641,44.900159],[4.513219,44.90053],[4.512766,44.90048],[4.512783,44.90032],[4.513776,44.899172],[4.513829,44.898801],[4.513654,44.898061],[4.513898,44.897456],[4.51423,44.896912],[4.514491,44.896023],[4.514491,44.895764],[4.514317,44.895604],[4.514038,44.895678],[4.51355,44.895715],[4.512626,44.895875],[4.510622,44.895777],[4.509925,44.895702],[4.50853,44.895777],[4.507868,44.895912],[4.507258,44.895715],[4.506805,44.895394],[4.506369,44.895369],[4.506125,44.895443],[4.505933,44.895814],[4.505219,44.896085],[4.504312,44.896307],[4.502692,44.896116],[4.503179,44.896335],[4.502789,44.896283],[4.502277,44.896116],[4.50187,44.89611],[4.502399,44.896363],[4.502537,44.896582],[4.503058,44.896784],[4.503615,44.897122],[4.504016,44.897653],[4.504644,44.898258],[4.505254,44.898653],[4.505288,44.898801],[4.505114,44.899184],[4.505358,44.899678],[4.503981,44.900061],[4.50318,44.90053],[4.502238,44.900591],[4.501105,44.900888],[4.50067,44.900715],[4.500478,44.900727],[4.500199,44.90132],[4.500112,44.901752],[4.49992,44.901912],[4.499485,44.902036],[4.499293,44.902357],[4.499084,44.902863],[4.498718,44.903135],[4.497411,44.903517],[4.497079,44.904048],[4.496591,44.90448],[4.496713,44.904851],[4.497445,44.905357],[4.497916,44.905505],[4.49823,44.906036],[4.498352,44.906566],[4.49823,44.906739],[4.496888,44.9079],[4.496557,44.908282],[4.496522,44.908677],[4.496923,44.908936],[4.497707,44.909344],[4.498805,44.909566],[4.49884,44.909801],[4.498526,44.909961],[4.498073,44.9108],[4.498613,44.911319],[4.49877,44.911677],[4.499397,44.912072],[4.499955,44.91222],[4.500339,44.912269],[4.5006,44.912393],[4.500792,44.91259],[4.502064,44.913281],[4.502622,44.913491],[4.50304,44.913824],[4.503737,44.914145],[4.505236,44.914725],[4.505515,44.91517],[4.506369,44.9157],[4.506648,44.916132],[4.506613,44.916355],[4.50677,44.917046],[4.507206,44.917922],[4.507223,44.918255],[4.50792,44.918551],[4.508042,44.918786],[4.50867,44.918983],[4.509628,44.919181],[4.510465,44.919082],[4.511023,44.919206],[4.511284,44.919452],[4.511389,44.919934],[4.510761,44.92065],[4.510116,44.921316],[4.509541,44.921464],[4.508339,44.92139],[4.508217,44.921464],[4.507432,44.921291],[4.507397,44.921464],[4.506247,44.922155],[4.505672,44.921587],[4.505271,44.921563],[4.504922,44.921748],[4.505166,44.922538],[4.504556,44.922797],[4.503737,44.922994],[4.503354,44.923081],[4.502221,44.923241],[4.501628,44.923167],[4.500182,44.923759],[4.500095,44.924376],[4.499851,44.924376],[4.499676,44.924031],[4.499641,44.923747],[4.499258,44.923007],[4.498822,44.922649],[4.498875,44.921563],[4.498805,44.921081],[4.498613,44.92102],[4.498003,44.921131],[4.496853,44.92155],[4.495859,44.92213],[4.49558,44.921933],[4.495598,44.921748],[4.495075,44.921439],[4.494726,44.921513],[4.494343,44.921822],[4.493419,44.921834],[4.491938,44.921501],[4.491973,44.921205],[4.491607,44.920674],[4.491223,44.920452],[4.490596,44.920292],[4.490038,44.920255],[4.489637,44.920538],[4.489271,44.920761],[4.488853,44.920884],[4.488504,44.921118],[4.48833,44.921143],[4.487964,44.92139],[4.487894,44.921563],[4.487058,44.921859],[4.487929,44.922056],[4.488243,44.922229],[4.488626,44.92234],[4.488382,44.92276],[4.487981,44.923031],[4.48779,44.923328],[4.487877,44.9235],[4.488121,44.92371],[4.488016,44.923809],[4.487563,44.924019],[4.487371,44.924278],[4.487476,44.924525],[4.48779,44.924969],[4.488016,44.925203],[4.487737,44.925314],[4.486657,44.925413],[4.486291,44.925536],[4.486169,44.925783],[4.486099,44.926573],[4.486186,44.926919],[4.487005,44.927375],[4.488156,44.928375],[4.488574,44.92856],[4.48894,44.928918],[4.488522,44.929831],[4.488051,44.930238],[4.48772,44.93046],[4.487772,44.930719],[4.487371,44.9312],[4.486796,44.93162],[4.487058,44.932323],[4.487354,44.932607],[4.487337,44.93278],[4.486727,44.932841],[4.485454,44.932718],[4.484844,44.932397],[4.483973,44.93199],[4.483607,44.932015],[4.483467,44.932348],[4.48331,44.93241],[4.482334,44.931867],[4.481846,44.931867],[4.482352,44.931558],[4.482648,44.931546],[4.482544,44.931089],[4.482944,44.930719],[4.482735,44.930263],[4.482788,44.93004],[4.481289,44.929349],[4.480888,44.929004],[4.480504,44.928473],[4.479981,44.928214],[4.479528,44.928165],[4.478361,44.928276],[4.477733,44.928153],[4.477263,44.927869],[4.477001,44.927449],[4.477071,44.926956],[4.477681,44.926499],[4.478117,44.926005],[4.478134,44.925623],[4.477873,44.925179],[4.477315,44.924882],[4.476269,44.924648],[4.475799,44.924352],[4.47552,44.923821],[4.475415,44.92329],[4.47484,44.922871],[4.474352,44.922686],[4.473759,44.922698],[4.47287,44.923007],[4.472313,44.923081],[4.471703,44.922957],[4.471319,44.922661],[4.471128,44.922217],[4.471232,44.921427],[4.470744,44.920612],[4.470326,44.920205],[4.46982,44.920032],[4.469019,44.919749],[4.468653,44.919477],[4.468287,44.918564],[4.467485,44.91812],[4.466945,44.91812],[4.466317,44.918317],[4.465934,44.918712],[4.465916,44.919144],[4.466108,44.919539],[4.467189,44.920662],[4.467677,44.921304],[4.467642,44.921847],[4.467311,44.922204],[4.466718,44.922402],[4.465533,44.922427],[4.465149,44.922538],[4.464731,44.922859],[4.464313,44.923587],[4.463825,44.92392],[4.462953,44.924401],[4.461977,44.925364],[4.461786,44.925771],[4.461873,44.926635],[4.461611,44.927091],[4.461141,44.927363],[4.460374,44.927412],[4.459834,44.927239],[4.459502,44.926968],[4.458927,44.925981],[4.45884,44.925462],[4.459014,44.925117],[4.459886,44.924142],[4.46006,44.923747],[4.459938,44.92334],[4.459555,44.922994],[4.459154,44.922797],[4.458875,44.922414],[4.45877,44.922056],[4.459067,44.921563],[4.45952,44.920995],[4.45952,44.920575],[4.459293,44.920168],[4.45877,44.919921],[4.457812,44.919563],[4.45755,44.919119],[4.457603,44.918626],[4.458195,44.917885],[4.458213,44.917515],[4.458091,44.916922],[4.458265,44.916182],[4.458613,44.915466],[4.458491,44.914948],[4.458195,44.914614],[4.457637,44.914442],[4.457115,44.914466],[4.455947,44.914762],[4.454866,44.914602],[4.45403,44.914627],[4.453507,44.914874],[4.452932,44.9157],[4.4522,44.916182],[4.451555,44.91649],[4.450892,44.916552],[4.449725,44.916132],[4.449184,44.916095],[4.447912,44.916515],[4.44603,44.916675],[4.445123,44.916959],[4.443851,44.916922],[4.442683,44.916836],[4.441341,44.916984],[4.440766,44.91691],[4.438466,44.916367],[4.436513,44.916034],[4.43423,44.91612],[4.433655,44.916034],[4.431616,44.915281],[4.430326,44.914429],[4.427834,44.912948],[4.427311,44.912491],[4.426701,44.912393],[4.42623,44.912405],[4.425568,44.912664],[4.425167,44.912948],[4.424575,44.914269],[4.424191,44.914713],[4.422867,44.915429],[4.422082,44.915713],[4.421402,44.916355],[4.42088,44.916626],[4.420697,44.916595],[4.420531,44.916466],[4.420243,44.916355],[4.420113,44.915935],[4.42013,44.915812],[4.419843,44.915534],[4.41925,44.915503],[4.418849,44.915596],[4.418457,44.915713],[4.418413,44.915633],[4.418701,44.915491],[4.419154,44.915324],[4.419677,44.915207],[4.419755,44.915127],[4.41959,44.914886],[4.418904,44.913929],[4.418683,44.914114],[4.418423,44.913788],[4.417963,44.913986],[4.417601,44.914423],[4.41731,44.914432],[4.416755,44.914208],[4.416954,44.913426],[4.417141,44.913096],[4.416637,44.912487],[4.416319,44.912117],[4.415759,44.911812],[4.414937,44.911217],[4.414358,44.911098],[4.413947,44.910952],[4.41305,44.910966],[4.413087,44.910754],[4.412863,44.910357],[4.412135,44.909881],[4.411705,44.909325],[4.410752,44.908664],[4.41079,44.908558],[4.411462,44.908359],[4.411574,44.908227],[4.411014,44.908307],[4.41008,44.908161],[4.409407,44.908002],[4.408903,44.908108],[4.408006,44.909325],[4.407595,44.90963],[4.407147,44.909762],[4.406605,44.909762],[4.406269,44.91004],[4.405597,44.910265],[4.404364,44.910265],[4.403897,44.9109],[4.403467,44.91123],[4.402888,44.911455],[4.402683,44.912011],[4.402365,44.91209],[4.400665,44.911535],[4.399918,44.911032],[4.399619,44.910979],[4.399376,44.911191],[4.398947,44.911349],[4.39833,44.911283],[4.396761,44.9109],[4.396369,44.910609],[4.395827,44.9109],[4.395622,44.910728],[4.394557,44.911085],[4.39394,44.911376],[4.393436,44.911376],[4.392988,44.911257],[4.392595,44.911376],[4.392371,44.911707],[4.391998,44.911627],[4.39168,44.912196],[4.391026,44.91217],[4.389719,44.913241],[4.38942,44.913215],[4.388822,44.913532],[4.388691,44.913916],[4.388971,44.914061],[4.388448,44.914458],[4.387851,44.915053],[4.387085,44.914643],[4.386618,44.913916],[4.386095,44.91336],[4.385964,44.912831],[4.386879,44.912064],[4.387085,44.91168],[4.387029,44.911429],[4.386861,44.911402],[4.386039,44.911693],[4.385105,44.911799],[4.383947,44.911812],[4.38333,44.911958],[4.382546,44.912289],[4.381313,44.912606],[4.380827,44.912619],[4.379575,44.912871],[4.379034,44.913162],[4.378006,44.91385],[4.377782,44.914273],[4.377446,44.914485],[4.376792,44.914405],[4.376325,44.914524],[4.376082,44.914127],[4.376269,44.913585],[4.376064,44.913453],[4.375727,44.913612],[4.375503,44.913532],[4.374924,44.913585],[4.374438,44.913492],[4.373766,44.913162],[4.372533,44.91295],[4.372029,44.912408],[4.371244,44.912156],[4.371151,44.911759],[4.37031,44.911072],[4.36861,44.910529],[4.367321,44.91045],[4.365509,44.909735],[4.364912,44.909325],[4.364164,44.909008],[4.363324,44.90832],[4.361736,44.907433],[4.361157,44.907354],[4.360578,44.906812],[4.3597,44.906521],[4.358467,44.906309],[4.357925,44.906296],[4.357346,44.90619],[4.356431,44.905647],[4.356225,44.905661],[4.355758,44.905806],[4.354862,44.905846],[4.354021,44.905674],[4.35333,44.905369],[4.353087,44.904801],[4.352489,44.90406],[4.352265,44.903927],[4.351892,44.903517],[4.351649,44.903292],[4.351518,44.902842],[4.351574,44.902393],[4.35234,44.901387],[4.352116,44.901215],[4.351107,44.900527],[4.350491,44.900315],[4.349856,44.899945],[4.349631,44.899534],[4.349314,44.899323],[4.348828,44.899296],[4.348585,44.89882],[4.349034,44.898304],[4.349164,44.897642],[4.349052,44.897325],[4.347932,44.896743],[4.347633,44.896174],[4.347633,44.89571],[4.34724,44.895022],[4.346811,44.894837],[4.346437,44.894824],[4.345933,44.89493],[4.344083,44.894572],[4.343448,44.894519],[4.342832,44.894586],[4.342346,44.894493],[4.341562,44.894003],[4.340516,44.89309],[4.339413,44.89178],[4.338741,44.89129],[4.337639,44.890907],[4.337377,44.890655],[4.33579,44.89047],[4.334781,44.88998],[4.333716,44.889319],[4.333324,44.888961],[4.331885,44.888538],[4.330877,44.888498],[4.330428,44.8883],[4.328766,44.88822],[4.327384,44.88777],[4.326468,44.887029],[4.325273,44.886354],[4.325254,44.88605],[4.324694,44.885891],[4.324152,44.8856],[4.323479,44.88511],[4.32333,44.885163],[4.322433,44.884607],[4.321948,44.883958],[4.321798,44.884316],[4.321555,44.884408],[4.321088,44.884011],[4.320846,44.884038],[4.32064,44.883972],[4.320472,44.883972],[4.320061,44.88376],[4.319949,44.883535],[4.318585,44.882847],[4.318342,44.882807],[4.318286,44.882608],[4.317969,44.882397],[4.317988,44.881669],[4.317875,44.881166],[4.317969,44.880649],[4.318193,44.880663],[4.318436,44.880292],[4.318249,44.879802],[4.318473,44.879114],[4.320098,44.878161],[4.320659,44.877605],[4.320889,44.87718],[4.321063,44.876599],[4.321116,44.874808],[4.321917,44.873783],[4.322301,44.873178],[4.323887,44.871214],[4.323922,44.87072],[4.323608,44.870349],[4.324323,44.869509],[4.325212,44.867731],[4.325717,44.867002],[4.326397,44.86631],[4.326554,44.866088],[4.327512,44.865569],[4.328192,44.865433],[4.32861,44.865371],[4.328976,44.865174],[4.32936,44.864914],[4.32922,44.864605],[4.329238,44.864309],[4.328628,44.863283],[4.328018,44.862814],[4.327495,44.862542],[4.327286,44.862283],[4.326536,44.862036],[4.32617,44.862036],[4.325944,44.861937],[4.325752,44.861776],[4.32549,44.861727],[4.325299,44.861566],[4.325403,44.86127],[4.325229,44.860998],[4.324584,44.860776],[4.324323,44.860516],[4.323992,44.860368],[4.32366,44.859898],[4.322981,44.859676],[4.322336,44.859614],[4.321098,44.859182],[4.320384,44.858465],[4.320279,44.858008],[4.320628,44.857329],[4.321238,44.856711],[4.321482,44.856254],[4.321795,44.85592],[4.321987,44.855241],[4.321464,44.854858],[4.320157,44.854635],[4.319443,44.854289],[4.318641,44.854092],[4.31763,44.854092],[4.316741,44.853906],[4.316776,44.853758],[4.317002,44.853573],[4.316636,44.853387],[4.316253,44.853387],[4.315713,44.853338],[4.315399,44.853387],[4.315068,44.853091],[4.314597,44.853091],[4.314371,44.853017],[4.313883,44.853066],[4.313464,44.853004],[4.313064,44.853202],[4.312907,44.853387],[4.312035,44.853103],[4.31092,44.852275],[4.310693,44.852201],[4.310658,44.851608],[4.310101,44.851324],[4.308828,44.850879],[4.308567,44.850941],[4.30841,44.85041],[4.307225,44.850162],[4.30665,44.849668],[4.30665,44.848976],[4.306196,44.848692],[4.30597,44.848074],[4.305639,44.847778],[4.304628,44.847357],[4.304157,44.847679],[4.302624,44.848062],[4.301839,44.847802],[4.300375,44.848173],[4.299905,44.848124],[4.298876,44.848593],[4.297499,44.848643],[4.297081,44.848358],[4.296872,44.847889],[4.296767,44.847296],[4.296244,44.84711],[4.295826,44.846764],[4.295547,44.846764],[4.294571,44.847036],[4.293874,44.84711],[4.292375,44.847555],[4.291783,44.84758],[4.289935,44.847889],[4.28929,44.847889],[4.289081,44.847815],[4.288715,44.847839],[4.288297,44.847654],[4.287931,44.847271],[4.287565,44.846616],[4.287199,44.846344],[4.286746,44.846245],[4.285804,44.846851],[4.286275,44.845961],[4.286798,44.84543],[4.28746,44.844416],[4.287844,44.844009],[4.288297,44.843687],[4.288593,44.842971],[4.288802,44.842748],[4.288837,44.842402],[4.28814,44.842229],[4.287617,44.841945],[4.287147,44.841315],[4.286293,44.840499],[4.28638,44.840202],[4.286223,44.839782],[4.286676,44.838831],[4.286397,44.838633],[4.285822,44.838571],[4.285351,44.838423],[4.285247,44.838151],[4.284985,44.837965],[4.283626,44.83867],[4.282876,44.839288],[4.282458,44.838793],[4.281883,44.838497],[4.280471,44.838311],[4.279373,44.83825],[4.278763,44.838138],[4.278136,44.837607],[4.277665,44.836865],[4.276968,44.836396],[4.276323,44.835803],[4.275887,44.835555],[4.275486,44.835135],[4.274441,44.834319],[4.274458,44.833528],[4.273796,44.833158],[4.273186,44.83291],[4.273046,44.832601],[4.272907,44.832132],[4.272872,44.831291],[4.27275,44.831081],[4.272158,44.83092],[4.271617,44.83071],[4.27099,44.830871],[4.270136,44.830636],[4.26916,44.830624],[4.268602,44.830475],[4.267957,44.830154],[4.267051,44.829919],[4.266511,44.829672],[4.266127,44.829351],[4.265813,44.829264],[4.26536,44.828967],[4.265203,44.828621],[4.265308,44.828473],[4.265709,44.828362],[4.26597,44.827904],[4.26611,44.827138],[4.266685,44.826161],[4.267138,44.825902],[4.267243,44.825457],[4.266859,44.825012],[4.266877,44.824641],[4.267399,44.824208],[4.267469,44.823986],[4.267016,44.823726],[4.26719,44.823405],[4.267748,44.823009],[4.268027,44.822836],[4.268219,44.822416],[4.267835,44.821043],[4.2678,44.820314],[4.26794,44.819956],[4.267922,44.819609],[4.267835,44.81914],[4.267887,44.818868],[4.268079,44.818732],[4.268114,44.818484],[4.268009,44.818212],[4.267574,44.818089],[4.267295,44.817743],[4.266667,44.81752],[4.26604,44.817359],[4.265761,44.817124],[4.265552,44.816457],[4.265099,44.815999],[4.264907,44.815567],[4.264667,44.815241],[4.263422,44.81455],[4.262843,44.814568],[4.262485,44.814786],[4.26182,44.815022],[4.261228,44.815451],[4.261241,44.815582],[4.260551,44.816001],[4.259096,44.816421],[4.25763,44.816954],[4.257038,44.817138],[4.256864,44.817304],[4.255792,44.8176],[4.254842,44.817712],[4.252689,44.817705],[4.252062,44.817637],[4.251556,44.81739],[4.251356,44.817143],[4.251121,44.817056],[4.250519,44.817223],[4.250001,44.817199],[4.249582,44.817033],[4.249101,44.816465],[4.248017,44.81629],[4.247561,44.81636],[4.247203,44.8165],[4.24692,44.816369],[4.246661,44.816071],[4.245897,44.815538],[4.24586,44.815241],[4.245515,44.815014],[4.245392,44.814821],[4.245096,44.814594],[4.244899,44.814218],[4.244776,44.813877],[4.244307,44.813335],[4.243791,44.81235],[4.243492,44.811435],[4.242801,44.810309],[4.242296,44.810349],[4.241736,44.810587],[4.2414,44.810839],[4.240503,44.808414],[4.240223,44.807301],[4.239999,44.805472],[4.23983,44.805273],[4.239905,44.804716],[4.24026,44.804133],[4.240167,44.803417],[4.240335,44.802993],[4.240036,44.802264],[4.240129,44.802026],[4.239868,44.801654],[4.239569,44.801469],[4.239363,44.800594],[4.238467,44.800051],[4.237608,44.79964],[4.236319,44.798858],[4.23587,44.798752],[4.234955,44.798314],[4.234096,44.797466],[4.232209,44.79626],[4.230733,44.795385],[4.229687,44.794205],[4.22965,44.793874],[4.229762,44.79337],[4.229108,44.792177],[4.228753,44.791753],[4.228193,44.791461],[4.226923,44.791143],[4.226129,44.790861],[4.225377,44.790433],[4.225328,44.79017],[4.22518,44.790031],[4.225106,44.789873],[4.224773,44.789733],[4.224416,44.789891],[4.224342,44.790144],[4.224022,44.790127],[4.223763,44.790013],[4.223393,44.790013],[4.222715,44.789436],[4.22253,44.788867],[4.221692,44.78808],[4.220953,44.787748],[4.220637,44.787494],[4.220097,44.78737],[4.219435,44.786591],[4.219226,44.786591],[4.219016,44.786195],[4.218877,44.78617],[4.218947,44.786913],[4.21933,44.787605],[4.220132,44.788224],[4.22055,44.788842],[4.220602,44.789782],[4.220428,44.790252],[4.220446,44.790673],[4.220271,44.790759],[4.219504,44.791366],[4.219156,44.791514],[4.219069,44.791761],[4.21947,44.792046],[4.219731,44.792479],[4.220045,44.792788],[4.220045,44.792961],[4.220184,44.793233],[4.220062,44.793691],[4.22062,44.794792],[4.221073,44.795781],[4.221334,44.795967],[4.221474,44.796214],[4.22245,44.796771],[4.222572,44.797018],[4.22252,44.797401],[4.223792,44.798663],[4.224977,44.799318],[4.225674,44.799566],[4.226825,44.800369],[4.226546,44.801062],[4.227034,44.802323],[4.227313,44.803399],[4.227679,44.803795],[4.227818,44.804599],[4.227783,44.805007],[4.227992,44.805638],[4.227923,44.805934],[4.227713,44.806231],[4.227539,44.807233],[4.227138,44.807356],[4.226058,44.808927],[4.226023,44.809088],[4.225744,44.80936],[4.225761,44.809595],[4.225361,44.809755],[4.224977,44.80978],[4.224733,44.810126],[4.223862,44.810411],[4.223844,44.810559],[4.223565,44.810658],[4.223304,44.811016],[4.223095,44.811375],[4.223112,44.811684],[4.222955,44.812228],[4.223025,44.813094],[4.223618,44.814268],[4.223705,44.815159],[4.22435,44.815752],[4.225256,44.81637],[4.225918,44.817199],[4.22618,44.818311],[4.226685,44.819238],[4.227016,44.820413],[4.227243,44.820932],[4.227313,44.821451],[4.227975,44.822997],[4.228759,44.824159],[4.229509,44.824357],[4.228742,44.827126],[4.228358,44.82788],[4.22604,44.830846],[4.225587,44.832305],[4.225378,44.833429],[4.225622,44.833998],[4.226319,44.834777],[4.226807,44.838176],[4.226668,44.839411],[4.226197,44.839795],[4.22428,44.840796],[4.220324,44.841586],[4.218319,44.841846],[4.217082,44.84234],[4.216507,44.842822],[4.216141,44.843255],[4.214624,44.843799],[4.213457,44.844083],[4.213352,44.844305],[4.212568,44.844602],[4.212324,44.844973],[4.21208,44.845529],[4.211278,44.846752],[4.210528,44.847308],[4.209587,44.847568],[4.208838,44.847629],[4.208158,44.847815],[4.207548,44.84826],[4.207182,44.848457],[4.206921,44.848667],[4.20591,44.849026],[4.205091,44.849594],[4.204881,44.850508],[4.204864,44.851324],[4.205439,44.853054],[4.205718,44.853375],[4.20577,44.853869],[4.204916,44.854623],[4.204934,44.854734],[4.204707,44.854784],[4.204411,44.854944],[4.204498,44.855154],[4.203958,44.855611],[4.20225,44.856192],[4.201483,44.856414],[4.200681,44.85697],[4.20042,44.857341],[4.199949,44.857613],[4.199234,44.858601],[4.198834,44.859021],[4.198712,44.859528],[4.198206,44.860047],[4.197736,44.860331],[4.197422,44.860813],[4.197457,44.861875],[4.19655,44.863716],[4.194964,44.865779],[4.194337,44.865927],[4.193901,44.866149],[4.193535,44.866495],[4.192646,44.86694],[4.188794,44.868348],[4.18632,44.869262],[4.186564,44.870003],[4.187104,44.870683],[4.187452,44.871473],[4.187505,44.872671],[4.187348,44.872881],[4.186947,44.87303],[4.186215,44.873981],[4.185953,44.874932],[4.186023,44.875426],[4.185727,44.875821],[4.185099,44.876537],[4.184507,44.877328],[4.183897,44.878143],[4.183426,44.878279],[4.182851,44.878365],[4.182834,44.87855],[4.182921,44.878822],[4.182293,44.878674],[4.182241,44.878797],[4.182694,44.879143],[4.182712,44.879341],[4.182503,44.879291],[4.181962,44.879007],[4.179435,44.878093],[4.179383,44.878205],[4.179766,44.879168],[4.179731,44.880032],[4.18076,44.881453],[4.181631,44.882478],[4.182259,44.883811],[4.182328,44.884417],[4.182259,44.884849],[4.18191,44.88554],[4.181718,44.88554],[4.181387,44.885898],[4.18137,44.886096],[4.181178,44.886232],[4.181143,44.88675],[4.180916,44.8868],[4.180777,44.887158],[4.180951,44.887405],[4.180986,44.887985],[4.181161,44.88838],[4.18137,44.889035],[4.18184,44.889381],[4.182311,44.890171],[4.182938,44.890875],[4.183008,44.89148],[4.183113,44.891961],[4.183078,44.892295],[4.182903,44.892603],[4.182869,44.893282],[4.183235,44.893628],[4.18367,44.893739],[4.183601,44.894134],[4.183862,44.894542],[4.183635,44.895357],[4.183984,44.895702],[4.183879,44.896233],[4.183984,44.896394],[4.184211,44.897073],[4.184176,44.897382],[4.18442,44.897789],[4.18435,44.897949],[4.184594,44.89848],[4.185204,44.899406],[4.182625,44.900296],[4.182575,44.900785],[4.182896,44.902548],[4.182847,44.904538],[4.1826,44.906284],[4.181861,44.908414],[4.181343,44.908868],[4.180111,44.910753],[4.178706,44.9129],[4.178065,44.913563],[4.176044,44.915326],[4.177301,44.915518],[4.178607,44.91585],[4.180505,44.915937],[4.181959,44.916182],[4.184153,44.916897],[4.185459,44.917508],[4.186174,44.9177],[4.187826,44.918747],[4.189576,44.919131],[4.19034,44.919446],[4.192188,44.91983],[4.193766,44.920371],[4.195171,44.920528],[4.196181,44.92051],[4.197414,44.920056],[4.198153,44.920248],[4.198843,44.920301],[4.199164,44.92051],[4.198868,44.921104],[4.1984,44.921592],[4.198498,44.921941],[4.198276,44.922308],[4.198178,44.922727],[4.19766,44.922954],[4.197389,44.923407],[4.1966,44.922936],[4.196255,44.923285],[4.195614,44.923268],[4.195393,44.923425],[4.195171,44.923407],[4.19453,44.924175],[4.194185,44.924769],[4.194111,44.925083],[4.193519,44.925676],[4.193297,44.925379],[4.191597,44.92592],[4.191276,44.926357],[4.191375,44.926863],[4.191252,44.927892],[4.191079,44.929097],[4.190857,44.929515],[4.191276,44.929637],[4.191375,44.929812],[4.189871,44.931383],[4.190315,44.932377],[4.19034,44.933075],[4.190537,44.933599],[4.190931,44.933791],[4.190956,44.934297],[4.191178,44.93475],[4.191227,44.935047],[4.194924,44.935134],[4.196379,44.935448],[4.197808,44.936059],[4.200372,44.936164],[4.20116,44.936321],[4.202442,44.936704],[4.203748,44.936862],[4.204167,44.937158],[4.204167,44.938013],[4.203995,44.938746],[4.204488,44.940072],[4.20577,44.94063],[4.207273,44.941101],[4.208555,44.942183],[4.209787,44.94309],[4.210798,44.944085],[4.210527,44.945044],[4.209565,44.946475],[4.208456,44.947766],[4.205153,44.949248],[4.204439,44.949423],[4.202738,44.950347],[4.202713,44.950522],[4.201998,44.950888],[4.201801,44.951394],[4.202787,44.951394],[4.202738,44.951882],[4.204118,44.954534],[4.20471,44.955476],[4.206238,44.957691],[4.207889,44.959017],[4.209615,44.960133],[4.21208,44.960761],[4.215678,44.961197],[4.215851,44.962173],[4.215727,44.962522],[4.214791,44.963534],[4.214939,44.963865],[4.214544,44.964441],[4.213509,44.965469],[4.212597,44.966586],[4.210749,44.968574],[4.210896,44.969201],[4.211759,44.969533],[4.213016,44.97091],[4.214224,44.971503],[4.214668,44.971922],[4.214939,44.972724],[4.215382,44.973439],[4.215875,44.9737],[4.216368,44.974084],[4.21696,44.974485],[4.217502,44.975078],[4.217551,44.975601],[4.21797,44.975863],[4.21839,44.976316],[4.218833,44.976577],[4.219548,44.977536],[4.219622,44.977868],[4.221076,44.980727],[4.221791,44.981599],[4.222358,44.982192],[4.22433,44.983168],[4.225685,44.984493],[4.226252,44.985016],[4.226104,44.985644],[4.226252,44.986358],[4.226918,44.986376],[4.227682,44.986271],[4.228471,44.986585],[4.229506,44.986829],[4.2299,44.987056],[4.230319,44.986951],[4.232267,44.987056],[4.234214,44.987387],[4.23451,44.987613],[4.23451,44.987875],[4.235865,44.987805],[4.237615,44.987823],[4.240474,44.987491],[4.241288,44.987805],[4.24257,44.987962],[4.242915,44.987823],[4.243851,44.987788],[4.245034,44.987892],[4.246735,44.988328],[4.24851,44.988258],[4.249446,44.98838],[4.25058,44.98845],[4.250802,44.988816],[4.251073,44.988956],[4.251344,44.988834],[4.251813,44.988677],[4.252158,44.988415],[4.253711,44.98791],[4.254647,44.987788],[4.25689,44.987823],[4.258615,44.987315],[4.259382,44.987266],[4.260463,44.988314],[4.261962,44.98914],[4.26224,44.988511],[4.26285,44.988289],[4.264332,44.988006],[4.265761,44.987821],[4.267905,44.987636],[4.268445,44.987439],[4.269473,44.987007],[4.270136,44.986736],[4.270327,44.98644],[4.272262,44.985281],[4.272524,44.984924],[4.273831,44.983901],[4.27472,44.98342],[4.276707,44.983407],[4.278066,44.983099],[4.2796,44.982951],[4.280105,44.983013],[4.281395,44.983518],[4.282476,44.983999],[4.283068,44.984381],[4.284828,44.98522],[4.286345,44.985836],[4.286798,44.986144],[4.287635,44.986588],[4.289918,44.98808],[4.291207,44.989041],[4.29248,44.989756],[4.294327,44.991654],[4.296872,44.993281],[4.297343,44.993503],[4.298005,44.9937],[4.298127,44.993848],[4.297935,44.994206],[4.298005,44.994538],[4.298597,44.994982],[4.299225,44.99513],[4.299905,44.995068],[4.300654,44.995352],[4.301438,44.996239],[4.301595,44.996868],[4.304192,44.99778],[4.304558,44.99847],[4.305203,44.998778],[4.306092,44.998889],[4.308114,45.000158],[4.311164,45.000824],[4.312767,45.00107],[4.314179,45.001428],[4.315521,45.001637],[4.318327,45.002746],[4.32197,45.004595],[4.322562,45.004817],[4.323974,45.005642],[4.326205,45.006702],[4.328175,45.007232],[4.330371,45.008304],[4.331835,45.009327],[4.33227,45.009783],[4.33227,45.0103],[4.332689,45.010929],[4.333421,45.011101],[4.3341,45.011409],[4.334728,45.011422],[4.335826,45.012038],[4.33668,45.012161],[4.338545,45.012678],[4.339416,45.013147],[4.340096,45.0138],[4.340619,45.014083],[4.343634,45.01497],[4.344593,45.015364],[4.345482,45.015463],[4.346353,45.015315],[4.346893,45.015636],[4.347381,45.015746],[4.347712,45.015759],[4.348357,45.016079],[4.35146,45.017323],[4.353464,45.018555],[4.354562,45.018876],[4.355242,45.019295],[4.355486,45.019307],[4.356148,45.01789],[4.356723,45.016868],[4.35688,45.016239],[4.357752,45.016732],[4.36068,45.017668],[4.361673,45.017903],[4.362701,45.017927],[4.362806,45.018198],[4.362858,45.018543],[4.36305,45.018605],[4.364165,45.018284],[4.365525,45.017262],[4.365804,45.01688],[4.366571,45.016621],[4.366989,45.016769],[4.367791,45.016806],[4.368366,45.016707],[4.368871,45.016757],[4.372287,45.01656],[4.37295,45.016486],[4.374013,45.016818],[4.374257,45.017397],[4.374588,45.017668],[4.375425,45.017484],[4.376366,45.017631],[4.376871,45.017952],[4.377028,45.018395],[4.377534,45.018371],[4.378928,45.017287],[4.379015,45.017065],[4.379381,45.017299],[4.37973,45.017262],[4.380218,45.017595],[4.380619,45.017767],[4.381089,45.018284],[4.381595,45.018592],[4.38271,45.018753],[4.383825,45.018864],[4.38393,45.019677],[4.384226,45.020059],[4.384993,45.020132],[4.386422,45.020662],[4.386806,45.020194],[4.386632,45.019935],[4.386196,45.01964],[4.385307,45.018013],[4.385289,45.017841],[4.385708,45.017496],[4.385934,45.01672],[4.386893,45.01566],[4.386544,45.015463],[4.3863,45.015044],[4.387939,45.014687],[4.388758,45.014058],[4.38996,45.013553],[4.39064,45.013159],[4.391303,45.012333],[4.392104,45.01152],[4.393307,45.010916],[4.394893,45.010202],[4.395729,45.009968],[4.396357,45.009635],[4.397669,45.009299],[4.397728,45.009405],[4.397841,45.00945],[4.39782,45.00961],[4.397739,45.009833]]],"type":"MultiLineString"},"properties":{"geo_point":{"lon":4.4830294964406106,"lat":44.98142254866194},"name":"GR420 Tour du Haut-Vivarais (Ardèche) (2020)","code_gr":"GR420"}}]}