{"type":"FeatureCollection","features":[{"type":"Feature","geometry":{"coordinates":[[[5.065102,44.522755],[5.063557,44.521837],[5.063042,44.520262],[5.062462,44.520032],[5.060252,44.519573],[5.059179,44.51893],[5.058214,44.518533],[5.058257,44.518211],[5.058922,44.516834],[5.058428,44.516039],[5.058364,44.515366],[5.058342,44.514677],[5.058171,44.513958],[5.058063,44.513132],[5.057892,44.513055],[5.05742,44.513331],[5.057055,44.513529],[5.05669,44.513943],[5.056411,44.514907],[5.056175,44.514952],[5.055231,44.514952],[5.053686,44.514585],[5.054029,44.514264],[5.054695,44.513912],[5.054974,44.513438],[5.055167,44.513239],[5.055424,44.512657],[5.05551,44.511984],[5.055338,44.511372],[5.054888,44.511081],[5.054523,44.510377],[5.053793,44.510393],[5.053493,44.509979],[5.0533,44.509597],[5.051755,44.510331],[5.050982,44.510209],[5.050296,44.509949],[5.049888,44.508985],[5.049931,44.508633],[5.049437,44.508082],[5.049201,44.507592],[5.048622,44.507393],[5.048171,44.507118],[5.047614,44.507225],[5.046777,44.507256],[5.045639,44.507424],[5.044824,44.507271],[5.044524,44.506873],[5.044073,44.507332],[5.043494,44.507638],[5.042635,44.507715],[5.041713,44.506904],[5.040275,44.50672],[5.03976,44.506842],[5.038408,44.506995],[5.037936,44.506904],[5.036584,44.507011],[5.035683,44.506995],[5.034567,44.507103],[5.033645,44.507057],[5.033451,44.506705],[5.032851,44.506429],[5.031263,44.506399],[5.030254,44.506246],[5.029353,44.506292],[5.027808,44.506628],[5.026843,44.506353],[5.025813,44.506184],[5.025104,44.505588],[5.024868,44.504945],[5.025062,44.504455],[5.024096,44.503858],[5.023345,44.503261],[5.022787,44.503292],[5.021585,44.503797],[5.021135,44.504103],[5.020276,44.50346],[5.019525,44.503323],[5.018345,44.503644],[5.017401,44.503246],[5.016543,44.502756],[5.014826,44.502251],[5.014161,44.502404],[5.013689,44.502619],[5.013045,44.502818],[5.012831,44.502466],[5.012359,44.502435],[5.011565,44.502573],[5.011157,44.502512],[5.010835,44.502588],[5.010642,44.502481],[5.010041,44.502649],[5.009719,44.502282],[5.009397,44.501869],[5.008432,44.501364],[5.007059,44.501195],[5.006458,44.501012],[5.005728,44.501088],[5.005084,44.501303],[5.003153,44.501593],[5.001995,44.501945],[5.000492,44.501731],[4.999591,44.501272],[4.998712,44.500537],[4.998304,44.499864],[4.998325,44.499543],[4.997896,44.498992],[4.998197,44.497293],[4.998132,44.495379],[4.997875,44.494798],[4.997832,44.494476],[4.997574,44.494109],[4.997531,44.493772],[4.997167,44.49342],[4.99678,44.492777],[4.99633,44.492532],[4.996351,44.492395],[4.99575,44.492104],[4.994549,44.491721],[4.992789,44.492211],[4.991974,44.492089],[4.990643,44.492043],[4.989656,44.491844],[4.989141,44.492334],[4.989249,44.492548],[4.989635,44.4929],[4.989785,44.49339],[4.990086,44.49368],[4.990665,44.494033],[4.990128,44.494385],[4.989399,44.494308],[4.988648,44.494522],[4.988369,44.494798],[4.987961,44.495043],[4.987596,44.495334],[4.987167,44.495471],[4.986588,44.495594],[4.986051,44.495731],[4.985386,44.495869],[4.98382,44.49642],[4.983219,44.496987],[4.982554,44.497492],[4.982125,44.497997],[4.981738,44.498823],[4.981352,44.499267],[4.980709,44.499466],[4.979829,44.499833],[4.979099,44.500155],[4.978799,44.500553],[4.978219,44.500843],[4.977447,44.500813],[4.976567,44.500843],[4.976975,44.500415],[4.977082,44.499772],[4.976825,44.499772],[4.975795,44.50017],[4.975709,44.500277],[4.974915,44.500078],[4.974057,44.49994],[4.973134,44.499053],[4.972297,44.497844],[4.97204,44.497798],[4.97101,44.497706],[4.969057,44.497063],[4.968392,44.497186],[4.966289,44.497997],[4.965795,44.498226],[4.965023,44.498333],[4.96395,44.497981],[4.963478,44.497782],[4.962405,44.497538],[4.961547,44.497568],[4.961053,44.497492],[4.960581,44.497262],[4.95938,44.49691],[4.958307,44.496833],[4.957491,44.496665],[4.956805,44.496359],[4.95629,44.495961],[4.954809,44.495272],[4.954466,44.494905],[4.953865,44.49466],[4.953629,44.4944],[4.952985,44.494323],[4.952105,44.494691],[4.951354,44.494783],[4.950346,44.495058],[4.949166,44.495885],[4.948543,44.496022],[4.94805,44.496084],[4.947578,44.496374],[4.946655,44.496543],[4.945303,44.496481],[4.944209,44.496344],[4.944273,44.49593],[4.943994,44.495318],[4.944445,44.494982],[4.944703,44.494415],[4.944724,44.493512],[4.944273,44.493221],[4.944252,44.493068],[4.943994,44.492961],[4.943844,44.492839],[4.943522,44.492823],[4.943286,44.492288],[4.942793,44.492517],[4.93981,44.493252],[4.939767,44.492808],[4.940282,44.492762],[4.940862,44.492318],[4.940797,44.492058],[4.941098,44.491476],[4.941141,44.491017],[4.940733,44.490206],[4.939832,44.490099],[4.938973,44.489808],[4.938544,44.489211],[4.937879,44.489012],[4.937428,44.488568],[4.936806,44.488246],[4.936119,44.487741],[4.93509,44.487251],[4.934338,44.486792],[4.933072,44.486501],[4.931892,44.486088],[4.930712,44.485889],[4.92994,44.485659],[4.929618,44.485491],[4.928631,44.485277],[4.927858,44.484817],[4.926936,44.484695],[4.925219,44.484205],[4.923695,44.484006],[4.923309,44.483853],[4.922301,44.483271],[4.919812,44.482659],[4.919168,44.482429],[4.918589,44.482138],[4.916958,44.482215],[4.916142,44.482092],[4.91522,44.481756],[4.911014,44.479337],[4.910306,44.479015],[4.909254,44.478357],[4.908117,44.478081],[4.907259,44.477959],[4.907001,44.478127],[4.906744,44.480133],[4.906336,44.480424],[4.90374,44.480715],[4.903182,44.480715],[4.901036,44.479918],[4.900543,44.479444],[4.900371,44.478571],[4.899169,44.477775],[4.898719,44.47704],[4.898268,44.476688],[4.898011,44.475861],[4.898118,44.475218],[4.897946,44.474835],[4.897431,44.474759],[4.8952,44.474805],[4.894105,44.475034],[4.89241,44.474927],[4.890651,44.475096],[4.888977,44.475356],[4.887968,44.47508],[4.886896,44.474927],[4.886316,44.474621],[4.885672,44.474054],[4.88505,44.473733],[4.884707,44.47312],[4.882389,44.471329],[4.882068,44.47116],[4.881553,44.470318],[4.88048,44.469935],[4.879943,44.469537],[4.878849,44.469384],[4.878205,44.4692],[4.877733,44.46891],[4.877132,44.468756],[4.876939,44.468588],[4.87666,44.468527],[4.876639,44.468358],[4.876403,44.468282],[4.876038,44.468205],[4.874751,44.467746],[4.874922,44.467439],[4.873957,44.467256],[4.874,44.467118],[4.873442,44.466796],[4.873012,44.466735],[4.872669,44.466505],[4.872648,44.466352],[4.872133,44.465893],[4.872004,44.466153],[4.872133,44.466582],[4.871811,44.467194],[4.871231,44.467439],[4.870588,44.467531],[4.870416,44.467807],[4.869751,44.467945],[4.868699,44.467822],[4.867927,44.46747],[4.867112,44.46698],[4.866532,44.466643],[4.865652,44.466276],[4.864987,44.465893],[4.864386,44.465311],[4.863485,44.465127],[4.862219,44.46479],[4.861919,44.464897],[4.86149,44.464806],[4.861275,44.464974],[4.860567,44.464744],[4.860245,44.464775],[4.859601,44.464698],[4.858979,44.464806],[4.857992,44.464652],[4.857005,44.464683],[4.85649,44.464392],[4.855675,44.464132],[4.854988,44.464101],[4.854645,44.464193],[4.854452,44.464392],[4.853379,44.464316],[4.852971,44.463933],[4.851598,44.463198],[4.85089,44.462417],[4.849988,44.462401],[4.848207,44.4626],[4.8478,44.462738],[4.846405,44.463519],[4.845826,44.463289],[4.84559,44.46332],[4.844817,44.463182],[4.844624,44.462799],[4.845193,44.462325],[4.845064,44.462309],[4.844484,44.462508],[4.844238,44.463098],[4.843894,44.463512],[4.843487,44.463665],[4.842886,44.463695],[4.842907,44.464737],[4.841899,44.464583],[4.841148,44.46417],[4.840847,44.463573],[4.840976,44.463006],[4.841277,44.462363],[4.840826,44.462332],[4.839474,44.461812],[4.839045,44.461796],[4.838444,44.461582],[4.83765,44.461536],[4.836534,44.461199],[4.835097,44.460908],[4.834303,44.460648],[4.833723,44.460571],[4.833101,44.460755],[4.8325,44.460847],[4.831449,44.461567],[4.830977,44.46172],[4.830505,44.462302],[4.830333,44.462807],[4.830033,44.462899],[4.829732,44.462608],[4.829904,44.461383],[4.830333,44.460801],[4.830569,44.460265],[4.830462,44.459576],[4.830591,44.459315],[4.83029,44.459193],[4.829861,44.458733],[4.829496,44.458549],[4.829325,44.458304],[4.828938,44.458427],[4.828938,44.458825],[4.828595,44.459285],[4.828123,44.459407],[4.827114,44.458718],[4.826085,44.458304],[4.82469,44.45809],[4.823982,44.45835],[4.822823,44.458427],[4.822501,44.458611],[4.821557,44.458412],[4.820699,44.457983],[4.820119,44.457631],[4.819411,44.455976],[4.818875,44.455287],[4.818274,44.454123],[4.817523,44.453112],[4.816643,44.452346],[4.81645,44.452254],[4.816085,44.451872],[4.815892,44.452163],[4.815914,44.452622],[4.815656,44.452745],[4.81542,44.452576],[4.814969,44.45204],[4.814605,44.452025],[4.814712,44.452377],[4.814712,44.452683],[4.815012,44.453112],[4.8163,44.453878],[4.816493,44.454154],[4.816514,44.454475],[4.816858,44.455073],[4.816622,44.455379],[4.816171,44.455379],[4.814691,44.454567],[4.814412,44.455073],[4.813789,44.455609],[4.813167,44.455992],[4.812673,44.456589],[4.812395,44.457615],[4.812073,44.457814],[4.811858,44.457983],[4.811386,44.45809],[4.811064,44.457876],[4.810935,44.457508],[4.810077,44.456957],[4.808618,44.45714],[4.808489,44.457064],[4.808704,44.456819],[4.808253,44.456742],[4.806472,44.457079],[4.805914,44.456972],[4.804884,44.457125],[4.803747,44.456834],[4.803618,44.45714],[4.803103,44.457355],[4.802867,44.457676],[4.80203,44.457707],[4.801837,44.457539],[4.801108,44.458013],[4.800915,44.458289],[4.800507,44.458473],[4.79952,44.459208],[4.798683,44.459468],[4.798683,44.45956],[4.799198,44.459606],[4.799949,44.459928],[4.800786,44.460694],[4.800207,44.461245],[4.799906,44.461322],[4.799284,44.461781],[4.798747,44.462118],[4.797481,44.463144],[4.798232,44.46443],[4.798383,44.464997],[4.797717,44.464859],[4.796795,44.464859],[4.796344,44.46492],[4.79555,44.465518],[4.794692,44.465671],[4.794198,44.465655],[4.793469,44.464905],[4.793426,44.464476],[4.791044,44.462577],[4.789692,44.462225],[4.788083,44.462026],[4.787139,44.462302],[4.786967,44.461949],[4.786259,44.462455],[4.785937,44.462547],[4.785379,44.462424],[4.784821,44.461995],[4.784392,44.461919],[4.784049,44.46175],[4.784027,44.461337],[4.783105,44.461184],[4.781345,44.46054],[4.781174,44.460234],[4.781195,44.460004],[4.7798,44.46002],[4.77935,44.459867],[4.779178,44.459254],[4.778706,44.459499],[4.778041,44.459239],[4.777311,44.459055],[4.777097,44.458886],[4.77714,44.458672],[4.776668,44.458565],[4.776989,44.457753],[4.778191,44.457294],[4.778642,44.456895],[4.778448,44.45665],[4.777676,44.456267],[4.777182,44.455839],[4.776324,44.454062],[4.776324,44.453756],[4.776045,44.453281],[4.775015,44.453419],[4.774693,44.45374],[4.7745,44.454154],[4.774114,44.455119],[4.773792,44.455333],[4.773427,44.455961],[4.772827,44.455946],[4.772591,44.456145],[4.772397,44.456512],[4.771625,44.457018],[4.771003,44.457202],[4.770616,44.457631],[4.770123,44.458534],[4.770059,44.458917],[4.770659,44.458458],[4.77081,44.458504],[4.770681,44.45884],[4.770509,44.459468],[4.769994,44.459943],[4.768127,44.460847],[4.767591,44.460831],[4.766582,44.461046],[4.766539,44.461398],[4.766132,44.461704],[4.762956,44.460142],[4.762892,44.46051],[4.762677,44.460724],[4.762538,44.460808],[4.762366,44.460548],[4.761958,44.460449],[4.760928,44.460525],[4.75992,44.461122],[4.758868,44.461995],[4.758804,44.462424],[4.758074,44.462639],[4.756894,44.463312],[4.758761,44.464951],[4.757259,44.465487],[4.755671,44.465518],[4.753997,44.465885],[4.752839,44.466421],[4.752216,44.466513],[4.751616,44.466743],[4.751744,44.466988],[4.750693,44.467508],[4.750521,44.467815],[4.750371,44.468228],[4.749749,44.46855],[4.749212,44.469024],[4.747539,44.46953],[4.74668,44.469392],[4.745886,44.469514],[4.745135,44.469407],[4.743676,44.469423],[4.743483,44.469622],[4.741659,44.470403],[4.742153,44.471796],[4.741745,44.472026],[4.741488,44.472255],[4.741209,44.472347],[4.741016,44.472546],[4.740586,44.472301],[4.740114,44.472286],[4.739535,44.472424],[4.738655,44.472424],[4.73769,44.472592],[4.737411,44.472791],[4.736638,44.473082],[4.736295,44.473373],[4.736102,44.473863],[4.735394,44.474475],[4.734879,44.474935],[4.734728,44.475256],[4.733892,44.47544],[4.732433,44.476481],[4.731274,44.476925],[4.730094,44.476849],[4.730287,44.476098],[4.728935,44.476129],[4.728871,44.476374],[4.72827,44.476833],[4.727647,44.477002],[4.727132,44.476971],[4.726832,44.476619],[4.726725,44.476022],[4.726875,44.475609],[4.725738,44.475394],[4.724193,44.4757],[4.723742,44.475578],[4.723978,44.476267],[4.723635,44.476573],[4.723313,44.476558],[4.722519,44.47714],[4.72224,44.477538],[4.721875,44.477706],[4.721232,44.477492],[4.720459,44.477538],[4.720009,44.477446],[4.719944,44.477109],[4.719472,44.47691],[4.719215,44.476573],[4.718764,44.476389],[4.718313,44.475609],[4.717884,44.47544],[4.717519,44.475501],[4.716897,44.475884],[4.716447,44.475991],[4.716103,44.475961],[4.714215,44.47665],[4.714623,44.477277],[4.71443,44.47766],[4.715309,44.479023],[4.715288,44.47939],[4.715438,44.479727],[4.71503,44.480661],[4.714687,44.481028],[4.714365,44.481181],[4.714129,44.481717],[4.714279,44.482422],[4.714193,44.48282],[4.713979,44.48308],[4.713636,44.483677],[4.713013,44.483998],[4.712541,44.484075],[4.711576,44.483554],[4.710353,44.483753],[4.709881,44.483769],[4.709838,44.484075],[4.708271,44.483355],[4.70649,44.482024],[4.704666,44.480538],[4.704194,44.480829],[4.704173,44.481028],[4.70546,44.482008],[4.705353,44.482146],[4.704044,44.482161],[4.702885,44.481962],[4.696727,44.48135],[4.696684,44.481809],[4.694517,44.484595],[4.693122,44.485866],[4.692736,44.486631],[4.691985,44.487228],[4.690054,44.484672],[4.68868,44.484595],[4.68838,44.485009],[4.686299,44.484886],[4.686127,44.486019],[4.683101,44.486218],[4.682844,44.485943],[4.682887,44.485713],[4.683337,44.485376],[4.680848,44.485468],[4.678617,44.485346],[4.674304,44.487489],[4.672737,44.48804],[4.671493,44.488086],[4.67087,44.487902],[4.670334,44.487611],[4.670119,44.48729],[4.669798,44.487228],[4.667802,44.486218]]],"type":"MultiLineString"},"properties":{"geo_point":{"lon":4.863747540667053,"lat":44.48029157511425},"name":"GR429 De Dieulefit (Drôme) à Viviers (Ardèche) (2019)","code_gr":"GR429"}}]}