{"type":"FeatureCollection","features":[{"type":"Feature","geometry":{"coordinates":[[[3.883914,45.045559],[3.883914,45.046165],[3.883576,45.046261],[3.88328,45.04731],[3.883459,45.047935],[3.883591,45.048103],[3.883498,45.048145],[3.883518,45.048299],[3.883769,45.048668],[3.883881,45.048752],[3.883947,45.048896],[3.883498,45.048864],[3.883333,45.048918],[3.883474,45.049278],[3.883287,45.049744],[3.883477,45.049872],[3.883583,45.050065],[3.883507,45.050333],[3.883833,45.050634],[3.884379,45.050601],[3.88444,45.050703],[3.885727,45.050568],[3.886081,45.050377],[3.887787,45.049915],[3.888795,45.049809],[3.88989,45.049908],[3.891821,45.049801],[3.892186,45.049839],[3.892754,45.050323],[3.893044,45.050468],[3.894034,45.050431],[3.894008,45.050708],[3.895028,45.05077],[3.895876,45.050695],[3.896418,45.050536],[3.897206,45.050567],[3.897564,45.050733],[3.898247,45.050976],[3.898805,45.051247],[3.899699,45.052081],[3.900039,45.052001],[3.900204,45.052094],[3.900307,45.052211],[3.900608,45.053067],[3.900307,45.053376],[3.900383,45.054623],[3.90138,45.055622],[3.90196,45.05569],[3.902088,45.055819],[3.901552,45.056114],[3.901573,45.056402],[3.901842,45.056766],[3.902732,45.057342],[3.903344,45.057524],[3.903644,45.057501],[3.904427,45.056999],[3.905382,45.056554],[3.907056,45.056122],[3.908794,45.055394],[3.909041,45.055356],[3.910575,45.055758],[3.911219,45.056039],[3.912013,45.056213],[3.913075,45.05629],[3.913343,45.05597],[3.913257,45.055836],[3.914866,45.053925],[3.916047,45.052864],[3.918675,45.051136],[3.920126,45.049997],[3.923621,45.048504],[3.926306,45.047274],[3.92655,45.046952],[3.927639,45.047963],[3.929038,45.047826],[3.930225,45.046734],[3.931575,45.046746],[3.932697,45.046665],[3.933363,45.046872],[3.93364,45.046918],[3.933851,45.047194],[3.935315,45.047768],[3.935754,45.048021],[3.936225,45.048124],[3.936811,45.048354],[3.937266,45.048733],[3.937819,45.048986],[3.939771,45.049756],[3.940925,45.0501],[3.941332,45.050077],[3.942194,45.050273],[3.942779,45.051054],[3.94273,45.051318],[3.943169,45.051422],[3.943652,45.051353],[3.946152,45.04977],[3.946302,45.049465],[3.946667,45.049133],[3.94819,45.048527],[3.948973,45.048385],[3.949971,45.048252],[3.950162,45.048044],[3.950471,45.048113],[3.951012,45.04808],[3.952053,45.04739],[3.953512,45.047222],[3.954925,45.046919],[3.955856,45.046846],[3.956923,45.046436],[3.958147,45.046253],[3.961215,45.044693],[3.963361,45.043537],[3.965099,45.042374],[3.965646,45.041279],[3.966397,45.040356],[3.96747,45.039734],[3.968425,45.039051],[3.969691,45.038612],[3.972538,45.038047],[3.972522,45.038495],[3.972701,45.038886],[3.973693,45.038944],[3.974604,45.039173],[3.974473,45.039587],[3.973888,45.039679],[3.973823,45.040185],[3.973595,45.040552],[3.973921,45.041426],[3.974018,45.042529],[3.974847,45.042908],[3.975433,45.042988],[3.976929,45.042885],[3.979401,45.042609],[3.980637,45.042333],[3.982523,45.04169],[3.983661,45.041138],[3.984058,45.040063],[3.984255,45.039849],[3.984892,45.039565],[3.985188,45.039329],[3.985408,45.039034],[3.98565,45.038453],[3.98634,45.037429],[3.987122,45.036844],[3.987306,45.036519],[3.987467,45.036681],[3.987479,45.037163],[3.987758,45.037399],[3.98867,45.037453],[3.989452,45.037764],[3.990355,45.037861],[3.990719,45.038277],[3.991902,45.038766],[3.992365,45.039034],[3.992805,45.03919],[3.992949,45.039291],[3.992881,45.039961],[3.99279,45.040165],[3.992744,45.040867],[3.992888,45.041093],[3.992926,45.041334],[3.993692,45.040674],[3.993905,45.040701],[3.995134,45.040439],[3.995805,45.040249],[3.998487,45.039211],[3.999259,45.039127],[4.001073,45.038696],[4.002028,45.038174],[4.002693,45.038181],[4.003907,45.038495],[4.004774,45.038834],[4.005396,45.038906],[4.007596,45.039604],[4.008883,45.039242],[4.010729,45.039429],[4.011952,45.039642],[4.013743,45.039635],[4.015149,45.039931],[4.016061,45.04031],[4.01649,45.040455],[4.017477,45.040447],[4.018228,45.039894],[4.018936,45.039558],[4.023238,45.038849],[4.02356,45.038853],[4.024129,45.038574],[4.024773,45.038761],[4.024869,45.039288],[4.024665,45.039833],[4.025148,45.040009],[4.025609,45.039986],[4.026135,45.04015],[4.026092,45.039818],[4.026221,45.039295],[4.026489,45.038898],[4.026414,45.038605],[4.0265,45.038467],[4.027112,45.038315],[4.027187,45.038128],[4.02749,45.038026],[4.027854,45.037796],[4.028131,45.037731],[4.028517,45.037991],[4.029408,45.037922],[4.030201,45.037922],[4.031628,45.037861],[4.03254,45.037655],[4.033742,45.037754],[4.03548,45.037663],[4.036396,45.037903],[4.036548,45.037764],[4.037476,45.037968],[4.037722,45.037693],[4.038098,45.037731],[4.038709,45.037621],[4.039729,45.037178],[4.040104,45.037201],[4.040791,45.037148],[4.043044,45.037094],[4.043913,45.037201],[4.045708,45.037047],[4.046037,45.036915],[4.048516,45.03693],[4.051455,45.03664],[4.054062,45.036755],[4.0607,45.036423],[4.060778,45.036084],[4.061013,45.035623],[4.061501,45.035081],[4.061519,45.034981],[4.061941,45.034671],[4.062315,45.034566],[4.06239,45.034671],[4.063006,45.034819],[4.062957,45.035011],[4.063043,45.035142],[4.063043,45.035925],[4.063828,45.036137],[4.065266,45.036374],[4.066219,45.03648],[4.067227,45.036414],[4.068385,45.03644],[4.068423,45.035463],[4.068759,45.035331],[4.069021,45.034962],[4.069506,45.034619],[4.069674,45.034275],[4.070141,45.034011],[4.070739,45.033959],[4.071187,45.033985],[4.071767,45.033919],[4.072551,45.0345],[4.072663,45.033761],[4.073093,45.03314],[4.073522,45.032863],[4.07356,45.032678],[4.073522,45.032493],[4.073896,45.032374],[4.074176,45.032374],[4.074699,45.031965],[4.07473,45.031546],[4.075061,45.031386],[4.075209,45.031386],[4.075131,45.031158],[4.075418,45.031127],[4.075558,45.031047],[4.075802,45.031047],[4.075776,45.03064],[4.075654,45.030369],[4.075793,45.030148],[4.075784,45.029901],[4.075924,45.029753],[4.07595,45.029655],[4.076107,45.029476],[4.076212,45.029076],[4.076917,45.028423],[4.077376,45.028418],[4.07777,45.028505],[4.077992,45.02874],[4.078078,45.028503],[4.0782,45.028629],[4.078354,45.028428],[4.078582,45.028693],[4.078923,45.028589],[4.07933,45.028618],[4.080013,45.028606],[4.08059,45.028509],[4.080848,45.028552],[4.081649,45.028417],[4.081928,45.028448],[4.082258,45.028316],[4.083438,45.029823],[4.084672,45.029816],[4.085584,45.030029],[4.08583,45.030239],[4.086238,45.03022],[4.087236,45.030605],[4.087558,45.030888],[4.087729,45.03175],[4.088674,45.03257],[4.088223,45.034443],[4.088588,45.034927],[4.089017,45.034927],[4.08936,45.035042],[4.090379,45.035156],[4.09083,45.035042],[4.091045,45.035763],[4.09093,45.036392],[4.091442,45.036949],[4.091485,45.037308],[4.09127,45.037338],[4.090798,45.037537],[4.089864,45.037601],[4.089081,45.037716],[4.088073,45.038475],[4.087257,45.038681],[4.087397,45.039036],[4.08774,45.039341],[4.088084,45.039864],[4.087965,45.040241],[4.088073,45.040508],[4.088598,45.040672],[4.088792,45.041279],[4.088727,45.042583],[4.089661,45.043411],[4.090133,45.044266],[4.090605,45.044479],[4.091012,45.044941],[4.091463,45.045193],[4.091613,45.045685],[4.092418,45.047043],[4.092665,45.047829],[4.094135,45.049294],[4.094242,45.05003],[4.094531,45.050603],[4.094918,45.051022],[4.095562,45.051758],[4.096943,45.052771],[4.098104,45.053165],[4.099102,45.05357],[4.100561,45.053787],[4.101237,45.05407],[4.101473,45.054493],[4.102042,45.054901],[4.102353,45.054985],[4.102653,45.05534],[4.103608,45.056068],[4.105464,45.056736],[4.105657,45.057175],[4.105893,45.057449],[4.106323,45.05719],[4.106698,45.057182],[4.106848,45.057495],[4.106365,45.058048],[4.106076,45.058395],[4.10614,45.058617],[4.106634,45.058926],[4.106698,45.059395],[4.107063,45.060299],[4.107449,45.060883],[4.107104,45.061672],[4.107084,45.062519],[4.105968,45.063824],[4.104702,45.064686],[4.103844,45.063927],[4.103072,45.063587],[4.102567,45.063572],[4.102192,45.063686],[4.102181,45.064419],[4.102675,45.064548],[4.103179,45.06477],[4.102814,45.065163],[4.102407,45.066292],[4.101934,45.066738],[4.10201,45.067513],[4.101666,45.068287],[4.101613,45.069035],[4.102213,45.070808],[4.101259,45.071468],[4.101194,45.072098],[4.101033,45.072723],[4.101956,45.071976],[4.103322,45.071483],[4.104005,45.071033],[4.104885,45.070778],[4.105968,45.070126],[4.10628,45.069557],[4.107921,45.06918],[4.108651,45.069141],[4.109058,45.068981],[4.110121,45.069351],[4.110281,45.069588],[4.110754,45.06942],[4.111547,45.069511],[4.112148,45.069534],[4.113017,45.069443],[4.113758,45.069134],[4.114798,45.069111],[4.116064,45.069294],[4.117609,45.069065],[4.118028,45.069157],[4.11851,45.069427],[4.119229,45.069588],[4.120045,45.069626],[4.121182,45.069942],[4.122823,45.070595],[4.124326,45.071522],[4.126182,45.07193],[4.126482,45.072392],[4.128413,45.073128],[4.130565,45.073918],[4.132544,45.074558],[4.13366,45.074673],[4.138337,45.074673],[4.139003,45.074635],[4.139721,45.074696],[4.140869,45.074982],[4.142135,45.075073],[4.142543,45.075264],[4.142951,45.075371],[4.144077,45.075317],[4.145107,45.07502],[4.145601,45.074764],[4.146266,45.074635],[4.147221,45.074741],[4.147832,45.075878],[4.148358,45.076172],[4.149388,45.07637],[4.15104,45.076172],[4.15207,45.076523],[4.153991,45.076977],[4.156533,45.07843],[4.1581,45.079174],[4.159377,45.079491],[4.160954,45.079445],[4.162166,45.079758],[4.163325,45.08049],[4.164011,45.080826],[4.165471,45.081928],[4.166833,45.082218],[4.168442,45.08287],[4.169075,45.083263],[4.170213,45.084415],[4.170696,45.085354],[4.170771,45.085785],[4.17091,45.086136],[4.171264,45.086323],[4.171243,45.08699],[4.171586,45.087688],[4.171586,45.088234],[4.172316,45.088882],[4.172949,45.089134],[4.173034,45.088795],[4.173968,45.08815],[4.174408,45.088089],[4.175169,45.087128],[4.175545,45.086952],[4.175899,45.086521],[4.175845,45.085644],[4.176232,45.085377],[4.178088,45.085262],[4.178528,45.085415],[4.178978,45.08617],[4.180791,45.088028],[4.181274,45.088406],[4.182004,45.088734],[4.182755,45.089172],[4.183291,45.090157],[4.183946,45.090763],[4.185523,45.091625],[4.186971,45.092186],[4.187304,45.092724],[4.187905,45.093262],[4.187873,45.093602],[4.187454,45.093896],[4.1874,45.094769],[4.187261,45.09533],[4.188409,45.094822],[4.189632,45.094723],[4.190823,45.095097],[4.19214,45.095239],[4.194241,45.095593],[4.19576,45.095747],[4.1964,45.09598],[4.196645,45.09599],[4.197282,45.095898],[4.198296,45.09592],[4.198709,45.095852],[4.200318,45.095428],[4.200482,45.09515],[4.201023,45.093649],[4.202516,45.093519],[4.203494,45.094505],[4.204116,45.095383],[4.204266,45.096142],[4.204888,45.096188],[4.204899,45.096359],[4.205639,45.096783],[4.206648,45.096619],[4.207109,45.096443],[4.207217,45.09626],[4.207603,45.096275],[4.209234,45.095837],[4.210221,45.095707],[4.211411,45.096283],[4.212023,45.097088],[4.212527,45.097435],[4.213697,45.097874],[4.214201,45.098351],[4.214383,45.098797],[4.215177,45.099548],[4.21713,45.100555],[4.218718,45.10107],[4.221207,45.101547],[4.222795,45.101654],[4.224436,45.101868],[4.225219,45.102123],[4.226528,45.102875],[4.227183,45.103409],[4.227837,45.103722],[4.230777,45.104424],[4.231646,45.104298],[4.232483,45.104773],[4.233127,45.104851],[4.234028,45.105305],[4.234264,45.105328],[4.234512,45.105575],[4.234993,45.105745],[4.235425,45.1058],[4.236296,45.103977],[4.236685,45.104167],[4.237598,45.104226],[4.238327,45.104491],[4.238727,45.104486],[4.239608,45.104067],[4.23992,45.104057],[4.240245,45.104551],[4.240642,45.104816],[4.241335,45.10553],[4.241549,45.10585],[4.242107,45.106045],[4.242246,45.106052],[4.243051,45.106419],[4.243684,45.106861],[4.243877,45.106827],[4.245433,45.107212],[4.248748,45.107365],[4.248362,45.108605],[4.249713,45.109955],[4.24966,45.110519],[4.250121,45.110687],[4.251409,45.111362],[4.251838,45.1115],[4.253082,45.111542],[4.254788,45.111923],[4.257857,45.113503],[4.259101,45.113686],[4.259595,45.113884],[4.259809,45.114216],[4.259562,45.115414],[4.26026,45.115276],[4.262427,45.115253],[4.2638,45.114346],[4.264144,45.114429],[4.264369,45.115017],[4.265045,45.1152],[4.265732,45.115238],[4.267008,45.11544],[4.267899,45.115425],[4.269111,45.115108],[4.270871,45.115723],[4.272008,45.11623],[4.273242,45.116638],[4.275284,45.116518],[4.275978,45.116371],[4.276214,45.116478],[4.281878,45.116063],[4.28176,45.115578],[4.281911,45.115465],[4.283456,45.115109],[4.284636,45.11489],[4.285623,45.114882],[4.286492,45.115041],[4.286996,45.114708],[4.288734,45.115131],[4.288605,45.115353],[4.289238,45.115616],[4.289378,45.115891],[4.29,45.115597],[4.290124,45.115446],[4.290563,45.115313],[4.290891,45.115261],[4.290826,45.115139],[4.291148,45.114901],[4.291282,45.114954],[4.291459,45.11492],[4.292784,45.115033],[4.292892,45.114901],[4.293074,45.114848],[4.293455,45.114777],[4.294344,45.115721],[4.294784,45.116238],[4.295236,45.116653],[4.295268,45.116962],[4.295504,45.117336],[4.296083,45.117676],[4.298079,45.118206],[4.299184,45.118835],[4.29906,45.119118],[4.299527,45.119621],[4.299699,45.119682],[4.300278,45.120869],[4.300268,45.121635],[4.302134,45.122067],[4.302638,45.122273],[4.302784,45.122492],[4.3035,45.122572],[4.303923,45.122767],[4.304394,45.123203],[4.304881,45.123444],[4.301877,45.125233],[4.301158,45.125222],[4.299825,45.125922],[4.29906,45.12645],[4.298817,45.126748],[4.299463,45.127064],[4.30059,45.127235],[4.300472,45.127563],[4.300954,45.127956],[4.301448,45.128078],[4.301825,45.128182],[4.30215,45.128366],[4.302427,45.128423],[4.303223,45.128263],[4.303663,45.127953],[4.303711,45.128182],[4.303467,45.128538],[4.303765,45.128712],[4.304656,45.129105],[4.30516,45.129578],[4.305804,45.129955],[4.306104,45.130363],[4.30795,45.13158],[4.308561,45.131908],[4.309827,45.132809],[4.311777,45.133357],[4.312233,45.133391],[4.312466,45.133627],[4.313153,45.13401],[4.313089,45.134403],[4.313432,45.134457],[4.314226,45.13485],[4.316018,45.135418],[4.317048,45.136223],[4.316962,45.136494],[4.318024,45.136955],[4.318753,45.136879],[4.319451,45.137146],[4.320073,45.137688],[4.320138,45.138138],[4.321436,45.138908],[4.321629,45.138741],[4.32224,45.138515],[4.322738,45.138003],[4.323388,45.139092],[4.323437,45.13993],[4.323665,45.140457],[4.323974,45.14071],[4.324136,45.140492],[4.324722,45.140171],[4.325486,45.14001],[4.326413,45.140033],[4.326917,45.140285],[4.327421,45.140629],[4.327584,45.141123],[4.328023,45.141455],[4.32908,45.141272],[4.32934,45.141478],[4.329584,45.142247],[4.329649,45.142683],[4.3303,45.143245],[4.330121,45.143635],[4.331422,45.144243],[4.332479,45.144483],[4.333324,45.144564],[4.334576,45.144208],[4.33552,45.143658],[4.33617,45.143119],[4.336203,45.143497],[4.336365,45.143841],[4.33726,45.144483],[4.337357,45.14477],[4.337308,45.145011],[4.337668,45.145333],[4.337862,45.145832],[4.338183,45.14618],[4.338827,45.14671],[4.339063,45.147709],[4.338934,45.148246],[4.339052,45.148723],[4.33872,45.149078],[4.338773,45.150342],[4.338666,45.15066],[4.338795,45.151212],[4.338731,45.151394],[4.338462,45.151507],[4.33887,45.15203],[4.339683,45.152099],[4.340317,45.152007],[4.341,45.152168],[4.341748,45.152466],[4.342789,45.153819],[4.344317,45.156113],[4.344659,45.156858],[4.345098,45.157305],[4.345537,45.157592],[4.345683,45.157902],[4.346187,45.158016],[4.346236,45.158624],[4.346074,45.159094],[4.345521,45.159507],[4.344886,45.160528],[4.344642,45.161273],[4.343878,45.161342],[4.343,45.161605],[4.342236,45.161525],[4.341081,45.161686],[4.340057,45.161892],[4.338365,45.161938],[4.337975,45.162018],[4.336593,45.161846],[4.335942,45.162431],[4.335812,45.162741],[4.334934,45.163383],[4.334967,45.163876],[4.334706,45.164197],[4.334755,45.165091],[4.333991,45.165091],[4.333698,45.164976],[4.332918,45.164231],[4.33217,45.164392],[4.331178,45.16383],[4.330625,45.163899],[4.330397,45.164346],[4.330543,45.165985],[4.330186,45.167212],[4.330234,45.167487],[4.330462,45.167854],[4.330316,45.168336],[4.330039,45.168542],[4.330088,45.168703],[4.330478,45.168989],[4.330592,45.169517],[4.33069,45.17048],[4.330592,45.171328],[4.330852,45.172601],[4.331064,45.173586],[4.326039,45.174813],[4.32373,45.17573],[4.323356,45.176005],[4.322819,45.175925],[4.32277,45.176166],[4.321876,45.176968],[4.321697,45.177518],[4.321079,45.178195],[4.320233,45.179433],[4.320006,45.18004],[4.319518,45.181026],[4.319908,45.181164],[4.320396,45.181611],[4.320461,45.182069],[4.319892,45.182768],[4.318949,45.183536],[4.318266,45.183972],[4.31903,45.184534],[4.317648,45.185978],[4.316404,45.185999],[4.315622,45.185724],[4.313115,45.184832],[4.31162,45.184395],[4.30916,45.184297],[4.306308,45.184686],[4.305802,45.184443],[4.304399,45.184087],[4.303502,45.183827],[4.300995,45.183973],[4.300259,45.183892],[4.299845,45.1836],[4.299516,45.183112],[4.298085,45.182619],[4.298052,45.182894],[4.297434,45.183685],[4.297451,45.184052],[4.297759,45.184591],[4.297646,45.185003],[4.297158,45.185565],[4.2968,45.18623],[4.295727,45.187193],[4.295093,45.18764],[4.294979,45.187972],[4.295125,45.188087],[4.295499,45.188087],[4.295613,45.188866],[4.295418,45.189874],[4.295206,45.190493],[4.294832,45.191181],[4.294719,45.192258],[4.294166,45.194218],[4.294605,45.194986],[4.294637,45.195501],[4.294426,45.195834],[4.294572,45.196178],[4.293938,45.197358],[4.293954,45.197725],[4.29293,45.198859],[4.292539,45.1991],[4.292393,45.199535],[4.292344,45.200028],[4.291873,45.201116],[4.292962,45.201208],[4.294166,45.201197],[4.295353,45.200704],[4.295499,45.200864],[4.295792,45.20091],[4.296296,45.200853],[4.29693,45.200864],[4.298068,45.200624],[4.298768,45.20075],[4.299012,45.200979],[4.30015,45.200635],[4.301077,45.199982],[4.302768,45.19942],[4.303646,45.199203],[4.303988,45.199306],[4.304459,45.199627],[4.30563,45.200165],[4.305874,45.200532],[4.306183,45.200612],[4.306752,45.200555],[4.307403,45.20083],[4.308167,45.200841],[4.308346,45.201346],[4.30911,45.201311],[4.309582,45.201391],[4.310915,45.202262],[4.311306,45.202297],[4.311875,45.202205],[4.312753,45.202652],[4.313159,45.202606],[4.313355,45.202113],[4.313615,45.201964],[4.313891,45.20201],[4.314282,45.202354],[4.31529,45.202526],[4.31542,45.202698],[4.315046,45.203202],[4.315095,45.203511],[4.315517,45.203947],[4.31607,45.20413],[4.316493,45.204817],[4.316509,45.20515],[4.316802,45.20531],[4.316981,45.205551],[4.317453,45.205596],[4.318119,45.205952],[4.318867,45.206582],[4.319502,45.206742],[4.320201,45.206742],[4.320965,45.206364],[4.321437,45.206238],[4.32225,45.20657],[4.322917,45.206467],[4.323518,45.20649],[4.323925,45.206605],[4.324527,45.207052],[4.325909,45.207624],[4.326722,45.20759],[4.327681,45.207407],[4.328608,45.20743],[4.329291,45.207361],[4.32986,45.207384],[4.330446,45.207533],[4.330787,45.208209],[4.331096,45.208254],[4.331828,45.207945],[4.332983,45.207693],[4.33308,45.208037],[4.334202,45.209045],[4.334202,45.209389],[4.333991,45.20995],[4.333324,45.210867],[4.332983,45.211268],[4.332527,45.211428],[4.331942,45.211955],[4.331763,45.212276],[4.331649,45.213536],[4.332023,45.21357],[4.332901,45.213238],[4.333389,45.213112],[4.333763,45.213158],[4.334316,45.213135],[4.334853,45.212516],[4.335601,45.212184],[4.336577,45.211795],[4.337373,45.211439],[4.338691,45.210958],[4.33991,45.210615],[4.340805,45.210225],[4.341309,45.210145],[4.341959,45.210305],[4.342285,45.210523],[4.343049,45.210786],[4.343894,45.211829],[4.344334,45.21207],[4.344708,45.21215],[4.345553,45.212218],[4.345878,45.212367],[4.346691,45.213043],[4.347049,45.212929],[4.347732,45.212493],[4.348415,45.21215],[4.348692,45.211863],[4.348708,45.2116],[4.349261,45.211428],[4.350415,45.210237],[4.350708,45.20979],[4.350968,45.209331],[4.351212,45.209251],[4.351651,45.209343],[4.35209,45.209526],[4.352383,45.209435],[4.353066,45.209137],[4.354204,45.208117],[4.354383,45.207762],[4.354367,45.207338],[4.353733,45.207338],[4.353473,45.207212],[4.353196,45.206719],[4.352416,45.206009],[4.351977,45.205562],[4.35196,45.205276],[4.352513,45.20531],[4.353635,45.205287],[4.354806,45.205046],[4.355148,45.204508],[4.3564,45.203889],[4.356627,45.203568],[4.356823,45.203018],[4.357522,45.202503],[4.358449,45.202022],[4.360189,45.20138],[4.361278,45.201151],[4.361799,45.20083],[4.362628,45.199902],[4.363067,45.199501],[4.36401,45.198905],[4.364401,45.198446],[4.365214,45.197816],[4.365685,45.197163],[4.366043,45.196773],[4.366612,45.195616],[4.367962,45.193863],[4.369084,45.191914],[4.369426,45.191616],[4.370255,45.191307],[4.370076,45.191124],[4.369458,45.19078],[4.369458,45.190608],[4.369783,45.19031],[4.37019,45.190069],[4.370157,45.189519],[4.370401,45.189382],[4.371149,45.18945],[4.371523,45.189324],[4.371865,45.188866],[4.372125,45.188866],[4.372597,45.189267],[4.37328,45.189565],[4.373784,45.189886],[4.374646,45.19039],[4.375312,45.190574],[4.375914,45.190574],[4.377947,45.190092],[4.37837,45.189233],[4.37837,45.188958],[4.378711,45.188637],[4.378467,45.18827],[4.378516,45.188075],[4.379069,45.187834],[4.379459,45.187514],[4.380028,45.187571],[4.380841,45.187227],[4.381427,45.186872],[4.381963,45.186379],[4.382077,45.186092],[4.383102,45.185783],[4.383557,45.185428],[4.383801,45.185038],[4.384565,45.184132],[4.385265,45.183502],[4.386061,45.183147],[4.386566,45.183135],[4.386614,45.183525],[4.386875,45.183353],[4.387005,45.183032],[4.38681,45.182585],[4.386452,45.182356],[4.386029,45.181863],[4.386761,45.182161],[4.387639,45.182241],[4.387948,45.182172],[4.38811,45.181828],[4.388566,45.181851],[4.388598,45.181599],[4.389135,45.181347],[4.390582,45.18035],[4.391314,45.180464],[4.391965,45.180407],[4.393217,45.180155],[4.394014,45.179914],[4.393558,45.180235],[4.392713,45.180659],[4.391932,45.180889],[4.390761,45.181106],[4.391656,45.18129],[4.392891,45.181324],[4.394631,45.181553],[4.395168,45.181232],[4.396989,45.180694],[4.397965,45.180453],[4.399055,45.180327],[4.399786,45.180327],[4.401201,45.180522],[4.402031,45.180843],[4.402681,45.18129],[4.403315,45.181496],[4.403551,45.181725],[4.403738,45.181777],[4.403958,45.181937],[4.404494,45.181995],[4.404862,45.181897],[4.405159,45.181541],[4.405193,45.180951],[4.40542,45.180079],[4.405333,45.179772],[4.405141,45.179588],[4.405037,45.178703],[4.404793,45.178592],[4.40488,45.178298],[4.405263,45.178224],[4.404862,45.177868],[4.404583,45.17788],[4.404653,45.177683],[4.404967,45.177646],[4.405542,45.177904],[4.405298,45.177487],[4.405019,45.17729],[4.4042,45.177192],[4.403799,45.177278],[4.403817,45.177032],[4.404601,45.177032],[4.405106,45.177057],[4.405385,45.176811],[4.405594,45.176541],[4.405925,45.176602],[4.40671,45.176934],[4.407215,45.176934],[4.406936,45.176688],[4.406745,45.176344],[4.406535,45.176086],[4.406553,45.175902],[4.406989,45.175976],[4.407093,45.175632],[4.407355,45.1753],[4.40786,45.175693],[4.408505,45.175496],[4.408976,45.175251],[4.409864,45.175386],[4.410509,45.175324],[4.411294,45.175017],[4.412897,45.174513],[4.413699,45.174034],[4.414814,45.173137],[4.415755,45.172253],[4.417398,45.171018],[4.418569,45.170514],[4.419707,45.170376],[4.41974,45.169872],[4.420049,45.169196],[4.419935,45.168508],[4.419447,45.168106],[4.419333,45.166845],[4.419187,45.166776],[4.417219,45.167866],[4.416195,45.168737],[4.416081,45.168691],[4.416536,45.16735],[4.416699,45.165355],[4.41665,45.164953],[4.416504,45.164781],[4.416634,45.164736],[4.416927,45.164827],[4.417463,45.164724],[4.418471,45.164667],[4.417496,45.1643],[4.417089,45.163922],[4.417057,45.163532],[4.417349,45.162947],[4.417853,45.162374],[4.417935,45.162947],[4.41826,45.163073],[4.418585,45.163016],[4.419463,45.162098],[4.420325,45.161365],[4.421155,45.161066],[4.421821,45.160894],[4.423382,45.160264],[4.424683,45.159713],[4.425025,45.159473],[4.42657,45.159048],[4.427334,45.158934],[4.428668,45.158441],[4.428033,45.157443],[4.427578,45.157087],[4.427285,45.156686],[4.426749,45.156514],[4.426342,45.155918],[4.426928,45.155746],[4.427676,45.155402],[4.428716,45.155126],[4.429513,45.155035],[4.430814,45.154759],[4.431237,45.154381],[4.431237,45.153773],[4.434636,45.152363],[4.435042,45.152363],[4.435563,45.152512],[4.436571,45.152592],[4.436799,45.152684],[4.436896,45.152454],[4.436929,45.152076],[4.437807,45.151629],[4.438018,45.151388],[4.438473,45.150539],[4.438864,45.149931],[4.438815,45.149473],[4.438002,45.148784],[4.437173,45.148532],[4.436636,45.148314],[4.436424,45.147936],[4.436327,45.147305],[4.436392,45.146674],[4.436782,45.14586],[4.436538,45.145252],[4.436799,45.143956],[4.43649,45.142763],[4.437351,45.143061],[4.438051,45.143199],[4.438327,45.143382],[4.439091,45.143623],[4.439531,45.14383],[4.440376,45.143405],[4.441287,45.143314],[4.442734,45.143015],[4.443482,45.142717],[4.443612,45.142579],[4.443482,45.142052],[4.444084,45.141926],[4.445011,45.14227],[4.445661,45.142006],[4.446247,45.141203],[4.446133,45.140423],[4.446165,45.139769],[4.446572,45.138932],[4.44732,45.138358],[4.447694,45.138335],[4.448702,45.138737],[4.450084,45.139368],[4.451076,45.139769],[4.451434,45.139758],[4.451272,45.139115],[4.450881,45.138324],[4.450702,45.137314],[4.450637,45.136752],[4.450019,45.136018],[4.449775,45.135456],[4.449808,45.136087],[4.45015,45.136695],[4.449857,45.13798],[4.449824,45.138588],[4.449613,45.138622],[4.448979,45.13853],[4.449044,45.13845],[4.449515,45.138393],[4.448962,45.136844],[4.448084,45.1358],[4.447418,45.134641],[4.447125,45.133896],[4.447044,45.133276],[4.447109,45.132875],[4.447645,45.131796],[4.448328,45.130856],[4.448962,45.13042],[4.449418,45.130293],[4.450979,45.129972],[4.451418,45.130053],[4.452085,45.130603],[4.452621,45.131051],[4.452816,45.131028],[4.453418,45.130397],[4.453906,45.130098],[4.454524,45.13042],[4.455174,45.130649],[4.456036,45.13081],[4.456801,45.130879],[4.457728,45.13089],[4.458264,45.131062],[4.458768,45.131108],[4.459533,45.131269],[4.460118,45.131498],[4.460638,45.131578],[4.461565,45.1319],[4.461712,45.131773],[4.461224,45.130924],[4.460281,45.130236],[4.460329,45.12988],[4.459712,45.129812],[4.459029,45.129502],[4.45872,45.129272],[4.458118,45.128997],[4.45763,45.12832],[4.45724,45.127976],[4.45724,45.127678],[4.457354,45.127161],[4.457516,45.126932],[4.457971,45.126553],[4.457695,45.12731],[4.457776,45.127815],[4.458069,45.128125],[4.45885,45.128435],[4.459646,45.128618],[4.460801,45.128676],[4.461484,45.128791],[4.460785,45.128377],[4.460264,45.127907],[4.460037,45.12746],[4.460427,45.127632],[4.461256,45.127712],[4.461728,45.127712],[4.463029,45.128091],[4.463501,45.128045],[4.4642,45.127689],[4.464574,45.127356],[4.465241,45.126966],[4.465615,45.125865],[4.465403,45.125383],[4.465013,45.124935],[4.465094,45.124499],[4.465371,45.123777],[4.465159,45.123536],[4.463988,45.122778],[4.463777,45.122457],[4.463809,45.122067],[4.464118,45.12139],[4.464135,45.121206],[4.464574,45.120461],[4.465322,45.120621],[4.465322,45.121057],[4.466672,45.121482],[4.467468,45.121837],[4.467924,45.122193],[4.468168,45.121941],[4.468672,45.121734],[4.468899,45.121769],[4.46874,45.121439],[4.469485,45.121872],[4.469257,45.122239],[4.469176,45.122732],[4.468769,45.123455],[4.46929,45.123983],[4.469534,45.124488],[4.469761,45.125222],[4.4702,45.125727],[4.470363,45.126714],[4.470656,45.126955],[4.471241,45.126943],[4.472331,45.126737],[4.471957,45.126542],[4.471648,45.126278],[4.471469,45.125176],[4.471892,45.124144],[4.47277,45.122457],[4.47329,45.12256],[4.473502,45.122469],[4.47329,45.121975],[4.473371,45.121688],[4.474071,45.121619],[4.474282,45.121505],[4.474494,45.121757],[4.473811,45.121872],[4.473745,45.122033],[4.473892,45.122331],[4.474298,45.122342],[4.474689,45.122285],[4.475128,45.122078],[4.475453,45.122021],[4.475697,45.122159],[4.476412,45.122251],[4.476477,45.122365],[4.475843,45.122652],[4.475632,45.122824],[4.475469,45.123031],[4.474965,45.123409],[4.474347,45.123696],[4.473745,45.123754],[4.473485,45.124075],[4.473209,45.124786],[4.473355,45.125486],[4.473469,45.125635],[4.474087,45.125578],[4.474526,45.125624],[4.474282,45.125337],[4.474201,45.125073],[4.474331,45.12489],[4.474786,45.124695],[4.47612,45.12466],[4.475746,45.124913],[4.475778,45.124981],[4.47664,45.125131],[4.477551,45.125326],[4.478738,45.125486],[4.479209,45.125417],[4.47973,45.125211],[4.480234,45.125153],[4.481828,45.124786],[4.483015,45.124499],[4.483844,45.12419],[4.48456,45.124086],[4.485113,45.124041],[4.485747,45.123719],[4.486218,45.123708],[4.486609,45.123811],[4.487536,45.124281],[4.489341,45.12466],[4.49004,45.124683],[4.490577,45.124809],[4.491194,45.125085],[4.491943,45.125303],[4.49313,45.124981],[4.493666,45.124993],[4.494089,45.124867],[4.494301,45.124522],[4.494609,45.124236],[4.494967,45.124178],[4.495862,45.124626],[4.498041,45.124362],[4.49887,45.124752],[4.499016,45.124706],[4.499277,45.123478],[4.499586,45.123341],[4.499878,45.123295],[4.50061,45.123662],[4.500968,45.123708],[4.500675,45.123318],[4.500415,45.122629],[4.499781,45.122595],[4.499147,45.1224],[4.49848,45.121447],[4.498431,45.121092],[4.498724,45.120461],[4.498724,45.120151],[4.498252,45.119669],[4.497732,45.118613],[4.497716,45.11828],[4.498041,45.118475],[4.498415,45.1189],[4.499065,45.119428],[4.499813,45.11937],[4.500317,45.119244],[4.500805,45.11921],[4.501114,45.119347],[4.502025,45.120162],[4.502415,45.120679],[4.502952,45.121034],[4.503196,45.12131],[4.503716,45.121642],[4.504237,45.12217],[4.505407,45.122698],[4.506903,45.123306],[4.507814,45.12396],[4.5084,45.124717],[4.508481,45.125475],[4.508643,45.125888],[4.509148,45.126461],[4.509261,45.126679],[4.509392,45.127758],[4.50957,45.127953],[4.510562,45.128412],[4.51092,45.128813],[4.511034,45.129158],[4.51079,45.130236],[4.510936,45.130489],[4.512156,45.130821],[4.512579,45.131062],[4.514075,45.132622],[4.514384,45.132749],[4.515051,45.13323],[4.515652,45.133827],[4.516628,45.134068],[4.517457,45.134148],[4.517783,45.134343],[4.517929,45.134779],[4.518254,45.135261],[4.518547,45.135364],[4.519279,45.135444],[4.520092,45.13502],[4.520547,45.134963],[4.521604,45.135284],[4.52258,45.135685],[4.523328,45.136351],[4.523995,45.136385],[4.52419,45.135938],[4.524043,45.135054],[4.523621,45.134033],[4.523182,45.133391],[4.523182,45.133035],[4.523491,45.132118],[4.523783,45.131854],[4.524174,45.132072],[4.525166,45.132439],[4.526174,45.132749],[4.526466,45.132622],[4.526678,45.132072],[4.527149,45.131785],[4.5278,45.131533],[4.528272,45.13151],[4.528597,45.131269],[4.529816,45.130993],[4.530808,45.130844],[4.531752,45.13081],[4.534191,45.130821],[4.535411,45.130466],[4.535313,45.129674],[4.535654,45.128355],[4.536207,45.127333],[4.536159,45.125842],[4.535931,45.124913],[4.535703,45.123432],[4.535524,45.122732],[4.535443,45.121252],[4.535524,45.120438],[4.535785,45.119692],[4.535752,45.119026],[4.536028,45.118292],[4.534321,45.117993],[4.533101,45.117603],[4.530434,45.116123],[4.529117,45.115756],[4.527719,45.115228],[4.526401,45.114356],[4.525718,45.114126],[4.525117,45.113724],[4.524808,45.113185],[4.524255,45.112795],[4.524125,45.1126],[4.522596,45.111555],[4.521214,45.1112],[4.520775,45.110878],[4.520563,45.110431],[4.520645,45.109811],[4.520905,45.109088],[4.521263,45.108594],[4.521653,45.108273],[4.521929,45.108135],[4.521734,45.107906],[4.520905,45.107619],[4.520547,45.107366],[4.520352,45.106953],[4.520417,45.106483],[4.52032,45.106081],[4.520254,45.10522],[4.520385,45.10483],[4.52071,45.104635],[4.521864,45.104623],[4.522157,45.104681],[4.52245,45.104508],[4.522173,45.104451],[4.521133,45.103912],[4.521084,45.103602],[4.521149,45.103177],[4.520791,45.102683],[4.51936,45.101582],[4.518807,45.101524],[4.518433,45.101685],[4.518254,45.102029],[4.518043,45.102477],[4.517636,45.102879],[4.516823,45.103269],[4.515669,45.103739],[4.515929,45.103361],[4.516726,45.102683],[4.517035,45.102362],[4.517083,45.101731],[4.517018,45.101363],[4.516547,45.100835],[4.515799,45.100434],[4.515652,45.100032],[4.515636,45.099561],[4.51601,45.09893],[4.516319,45.098012],[4.516433,45.0973],[4.516563,45.097128],[4.516043,45.09707],[4.515555,45.097185],[4.515392,45.097633],[4.51523,45.098092],[4.515067,45.098402],[4.514677,45.0987],[4.514481,45.099068],[4.51388,45.099194],[4.51362,45.098815],[4.513522,45.098459],[4.513652,45.097862],[4.512741,45.097748],[4.512367,45.097828],[4.512075,45.098012],[4.511197,45.098218],[4.511148,45.098103],[4.511473,45.097713],[4.51131,45.096841],[4.511489,45.096554],[4.511701,45.095429],[4.511815,45.09505],[4.511701,45.094694],[4.510839,45.09435],[4.510026,45.094269],[4.509766,45.093592],[4.508855,45.092742],[4.508009,45.092145],[4.507505,45.092054],[4.506985,45.092088],[4.506334,45.092352],[4.506367,45.092031],[4.506155,45.091675],[4.505944,45.091204],[4.50557,45.090825],[4.504936,45.090492],[4.504415,45.0904],[4.504253,45.090102],[4.503765,45.089838],[4.503147,45.08962],[4.502529,45.089252],[4.501114,45.088816],[4.500724,45.088483],[4.498512,45.087369],[4.498236,45.086508],[4.498415,45.085682],[4.498594,45.085199],[4.498464,45.084924],[4.498024,45.084752],[4.497211,45.084843],[4.496935,45.084958],[4.496707,45.085441],[4.496772,45.085877],[4.496398,45.086049],[4.496236,45.086416],[4.496317,45.086899],[4.496219,45.086979],[4.495569,45.086853],[4.495244,45.085992],[4.494935,45.085636],[4.494268,45.085245],[4.493715,45.085234],[4.493292,45.085062],[4.493,45.085004],[4.492886,45.084763],[4.492642,45.084568],[4.49204,45.084384],[4.491536,45.083925],[4.491129,45.083787],[4.490967,45.083615],[4.490511,45.082937],[4.490333,45.082501],[4.489292,45.08257],[4.488788,45.082524],[4.488414,45.082593],[4.488105,45.082604],[4.487568,45.082995],[4.486836,45.082926],[4.485064,45.083121],[4.48399,45.083672],[4.482836,45.083936],[4.482039,45.084223],[4.481372,45.083845],[4.480771,45.08412],[4.48038,45.084143],[4.480104,45.084051],[4.480153,45.083718],[4.480559,45.083087],[4.479844,45.083489],[4.479226,45.083557],[4.478884,45.083753],[4.478852,45.084051],[4.478982,45.084269],[4.47716,45.084005],[4.476169,45.08358],[4.475518,45.083397],[4.473615,45.083339],[4.47181,45.083087],[4.470737,45.082869],[4.46929,45.082306],[4.468135,45.081766],[4.467387,45.08172],[4.466899,45.081617],[4.46659,45.081399],[4.466119,45.081376],[4.465663,45.081089],[4.465241,45.081054],[4.464362,45.081158],[4.463582,45.081146],[4.463452,45.080779],[4.462525,45.080388],[4.461143,45.080124],[4.460329,45.080136],[4.459972,45.080365],[4.459858,45.080331],[4.459728,45.079814],[4.458866,45.079389],[4.458313,45.079137],[4.457467,45.078953],[4.457142,45.078574],[4.456524,45.078298],[4.456508,45.07808],[4.456638,45.077655],[4.456378,45.077288],[4.455662,45.07715],[4.455093,45.077196],[4.454475,45.077127],[4.451743,45.077253],[4.450036,45.076943],[4.448166,45.077139],[4.446751,45.077391],[4.445027,45.077977],[4.444295,45.07839],[4.444035,45.078379],[4.443905,45.078161],[4.44397,45.07707],[4.443921,45.076829],[4.443498,45.076277],[4.442555,45.075565],[4.441823,45.074417],[4.441205,45.074279],[4.440604,45.074394],[4.439921,45.074693],[4.439287,45.075198],[4.43875,45.074934],[4.438181,45.074899],[4.437709,45.074658],[4.436701,45.074451],[4.436083,45.074474],[4.435221,45.074762],[4.434554,45.075255],[4.433725,45.076128],[4.433725,45.076541],[4.433514,45.076553],[4.4334,45.076151],[4.433107,45.076404],[4.432261,45.076438],[4.431188,45.076656],[4.430684,45.076622],[4.430278,45.076519],[4.429903,45.076668],[4.429855,45.076829],[4.429741,45.076633],[4.430212,45.075979],[4.431172,45.075474],[4.431822,45.07444],[4.432131,45.072821],[4.431751,45.072493],[4.431624,45.072143],[4.431284,45.071843],[4.430676,45.07174],[4.429955,45.071967],[4.429194,45.072631],[4.428694,45.072942],[4.428493,45.073395],[4.427773,45.073932],[4.426952,45.074314],[4.426011,45.074526],[4.425671,45.074695],[4.42495,45.074766],[4.424509,45.074922],[4.423849,45.074639],[4.421927,45.074483],[4.421226,45.074738],[4.420785,45.074455],[4.420105,45.074314],[4.419624,45.074314],[4.419184,45.07454],[4.418663,45.074229],[4.418203,45.074285],[4.416661,45.074059],[4.416141,45.073819],[4.41504,45.073692],[4.414519,45.073522],[4.414499,45.073296],[4.414819,45.07314],[4.417322,45.072561],[4.418223,45.072207],[4.419344,45.071641],[4.419584,45.071132],[4.419965,45.070722],[4.420425,45.070595],[4.421206,45.070553],[4.422267,45.070638],[4.422447,45.07027],[4.422267,45.069945],[4.421606,45.069563],[4.421166,45.069492],[4.420625,45.069549],[4.420205,45.069478],[4.419064,45.069096],[4.418703,45.069125],[4.418423,45.06928],[4.418023,45.069252],[4.417662,45.069153],[4.417202,45.068559],[4.416801,45.068404],[4.416241,45.068418],[4.41588,45.068092],[4.41578,45.067753],[4.41544,45.067527],[4.4152,45.067216],[4.414819,45.06699],[4.414759,45.066523],[4.413518,45.06641],[4.413198,45.065943],[4.412817,45.065745],[4.412837,45.065519],[4.413398,45.065264],[4.41528,45.064699],[4.41538,45.064458],[4.414659,45.063808],[4.413858,45.06286],[4.413418,45.062168],[4.413558,45.061998],[4.414099,45.062069],[4.414559,45.062479],[4.416141,45.062959],[4.417983,45.063751],[4.418763,45.063978],[4.419304,45.064345],[4.419945,45.064458],[4.420926,45.064345],[4.421666,45.064077],[4.421706,45.063879],[4.421546,45.06385],[4.421026,45.063992],[4.420425,45.063935],[4.419784,45.063539],[4.419584,45.063143],[4.417842,45.062309],[4.417202,45.061842],[4.416962,45.061517],[4.416381,45.061163],[4.41518,45.060626],[4.413278,45.060216],[4.412157,45.059834],[4.411596,45.059523],[4.411416,45.059184],[4.411956,45.058505],[4.412817,45.057557],[4.412757,45.057317],[4.412317,45.057204],[4.411536,45.057317],[4.410695,45.057345],[4.409834,45.057274],[4.409314,45.057331],[4.408473,45.057501],[4.407592,45.057543],[4.406511,45.057388],[4.40575,45.05743],[4.405009,45.057444],[4.404168,45.057274],[4.403928,45.057091],[4.403227,45.056779],[4.402547,45.056327],[4.401546,45.055309],[4.401165,45.055266],[4.401125,45.055068],[4.400705,45.054672],[4.399183,45.054559],[4.397702,45.053866],[4.3962,45.053343],[4.396,45.052932],[4.395219,45.052056],[4.39572,45.051575],[4.396,45.051009],[4.396901,45.049962],[4.396801,45.049679],[4.39648,45.049481],[4.39586,45.049467],[4.395279,45.048873],[4.395559,45.048618],[4.39628,45.048435],[4.39658,45.048208],[4.397722,45.047897],[4.398502,45.047501],[4.399784,45.046681],[4.400905,45.045846],[4.403888,45.044347],[4.404929,45.043936],[4.40595,45.043837],[4.40573,45.04347],[4.406731,45.040966],[4.406771,45.037768],[4.40631,45.035519],[4.406771,45.030949],[4.406551,45.030072],[4.404749,45.027539],[4.401566,45.023209],[4.401646,45.022827],[4.402527,45.022657],[4.402747,45.022388],[4.402627,45.022006],[4.401626,45.021709],[4.401445,45.021072],[4.401025,45.020619],[4.399383,45.020067],[4.398082,45.019544],[4.398022,45.019133],[4.398522,45.017973],[4.398482,45.017548],[4.399263,45.015581],[4.399083,45.015369],[4.398422,45.014576],[4.398242,45.014604],[4.397341,45.015071],[4.397081,45.014902],[4.396781,45.013132],[4.39614,45.013783],[4.395419,45.013996],[4.394779,45.013897],[4.394498,45.013628],[4.394438,45.013132],[4.394678,45.012764],[4.39612,45.012028],[4.39634,45.012071],[4.396881,45.011632],[4.39706,45.010839],[4.397564,45.009954],[4.397732,45.009809],[4.397847,45.009438],[4.397718,45.009416],[4.397675,45.009302],[4.396452,45.009583],[4.395573,45.010066],[4.394666,45.010313],[4.392069,45.01152],[4.390501,45.013233],[4.38996,45.013541],[4.389019,45.013923],[4.387764,45.014748],[4.386283,45.015032],[4.386527,45.015488],[4.386876,45.015672],[4.385952,45.01667],[4.385708,45.017545],[4.385255,45.017915],[4.386074,45.019541],[4.386771,45.020071],[4.386771,45.020268],[4.386388,45.020675],[4.384941,45.020108],[4.384279,45.020083],[4.383913,45.019714],[4.383843,45.018888],[4.382117,45.018691],[4.381438,45.018531],[4.381054,45.018223],[4.380584,45.017742],[4.380165,45.017582],[4.379677,45.017262],[4.379398,45.017274],[4.378998,45.017114],[4.378893,45.017323],[4.377499,45.018408],[4.376958,45.018383],[4.376924,45.01805],[4.376418,45.017681],[4.375651,45.017508],[4.375128,45.01757],[4.374605,45.017693],[4.374292,45.017484],[4.374083,45.016905],[4.373385,45.016609],[4.372932,45.016498],[4.372287,45.016584],[4.368714,45.016757],[4.368331,45.01672],[4.367564,45.016831],[4.366989,45.016794],[4.366588,45.016646],[4.366292,45.016757],[4.365752,45.016942],[4.365473,45.017348],[4.364253,45.018223],[4.363067,45.018629],[4.362841,45.018482],[4.362841,45.018198],[4.362649,45.017939],[4.361429,45.017866],[4.360279,45.01757],[4.357786,45.016732],[4.356915,45.016252],[4.356793,45.016523],[4.356723,45.016954],[4.355416,45.019319],[4.355085,45.019196],[4.354545,45.018864],[4.353342,45.018494],[4.351495,45.01736],[4.347608,45.015746],[4.347137,45.015734],[4.346597,45.015549],[4.346301,45.015315],[4.345447,45.015463],[4.344523,45.015377],[4.343529,45.014958],[4.341543,45.01433],[4.340479,45.014071],[4.340026,45.013775],[4.339364,45.013147],[4.338527,45.012678],[4.337342,45.012395],[4.336662,45.012149],[4.335791,45.012038],[4.335181,45.011631],[4.334606,45.011422],[4.3341,45.011422],[4.333386,45.011114],[4.332706,45.010929],[4.332357,45.010596],[4.33227,45.010239],[4.332288,45.009832],[4.3318,45.009352],[4.330336,45.00828],[4.329464,45.007848],[4.329168,45.007639],[4.328436,45.007355],[4.328209,45.007232],[4.326571,45.00685],[4.325856,45.006554],[4.323957,45.005642],[4.322423,45.00478],[4.321691,45.004558],[4.321185,45.004176],[4.318414,45.00282],[4.315626,45.001662],[4.313987,45.001416],[4.31268,45.001083],[4.311077,45.000836],[4.308114,45.000171],[4.306005,44.998889],[4.30522,44.998803],[4.304628,44.998556],[4.304471,44.998285],[4.304175,44.997755],[4.301543,44.99688],[4.301491,44.996387],[4.300863,44.995549],[4.300288,44.995179],[4.29973,44.995081],[4.299138,44.99513],[4.298563,44.99497],[4.298022,44.994551],[4.297918,44.994181],[4.298109,44.99391],[4.29797,44.9937],[4.296855,44.993343],[4.294362,44.991716],[4.294014,44.99142],[4.293351,44.990693],[4.292846,44.9902],[4.292462,44.989719],[4.291068,44.988955],[4.288088,44.986859],[4.286728,44.986144],[4.286293,44.985836],[4.283068,44.984431],[4.282144,44.983839],[4.280035,44.982988],[4.279443,44.982939],[4.278153,44.983099],[4.276602,44.983432],[4.274737,44.983444],[4.273778,44.983913],[4.272436,44.984985],[4.272175,44.985318],[4.271147,44.986033],[4.270275,44.986502],[4.270083,44.986785],[4.26902,44.987192],[4.268306,44.987549],[4.267643,44.987685],[4.265395,44.987845],[4.26292,44.988289],[4.262188,44.988548],[4.261979,44.98914],[4.26048,44.988301],[4.259347,44.987266],[4.258528,44.987352],[4.25682,44.987833],[4.254659,44.987808],[4.2537,44.987932],[4.252027,44.988474],[4.251766,44.988696],[4.251103,44.988881],[4.251051,44.988955],[4.250777,44.988833],[4.250646,44.98845],[4.248199,44.988265],[4.246723,44.988371],[4.245285,44.987948],[4.243884,44.987803],[4.242838,44.987842],[4.242483,44.987948],[4.241474,44.987856],[4.240428,44.987525],[4.238429,44.987697],[4.237365,44.987842],[4.235796,44.987829],[4.234469,44.987922],[4.234488,44.987605],[4.234114,44.987367],[4.231555,44.986997],[4.23021,44.986957],[4.230042,44.987129],[4.229482,44.986851],[4.228268,44.986521],[4.22767,44.986283],[4.226736,44.986415],[4.226231,44.986402],[4.226082,44.986138],[4.226175,44.985438],[4.226418,44.984962],[4.226101,44.984896],[4.224363,44.983165],[4.223,44.982518],[4.222327,44.982121],[4.222178,44.981857],[4.221767,44.981593],[4.22102,44.980708],[4.22031,44.979175],[4.219768,44.977986],[4.219413,44.977827],[4.217396,44.977787],[4.216649,44.977867],[4.215845,44.978263],[4.21422,44.979664],[4.214201,44.979492],[4.214295,44.978686],[4.214463,44.97829],[4.214519,44.977748],[4.214556,44.977325],[4.21394,44.977166],[4.213118,44.976836],[4.212576,44.976347],[4.211381,44.975911],[4.210876,44.975911],[4.210279,44.975766],[4.208541,44.975779],[4.207794,44.97566],[4.206748,44.975369],[4.206524,44.975449],[4.205497,44.975131],[4.204824,44.975079],[4.203348,44.974828],[4.202564,44.97488],[4.20135,44.974616],[4.199538,44.974537],[4.197352,44.974669],[4.196979,44.974537],[4.196119,44.974867],[4.195914,44.975145],[4.19526,44.975039],[4.194588,44.975316],[4.19313,44.975541],[4.19214,44.975462],[4.191337,44.974867],[4.190198,44.97488],[4.186144,44.975977],[4.182688,44.976638],[4.181512,44.976493],[4.179401,44.975977],[4.177439,44.975422],[4.177794,44.976228],[4.177944,44.97681],[4.179382,44.978263],[4.18026,44.979373],[4.181231,44.979902],[4.180129,44.979717],[4.179326,44.979347],[4.178952,44.979043],[4.177458,44.97903],[4.176356,44.979135],[4.175291,44.979466],[4.174525,44.979849],[4.173404,44.979426],[4.17262,44.979016],[4.171891,44.978911],[4.171929,44.978475],[4.171723,44.978078],[4.170546,44.97681],[4.169762,44.976387],[4.169015,44.976255],[4.168772,44.975911],[4.168604,44.97533],[4.168809,44.974695],[4.166885,44.974352],[4.166362,44.975396],[4.166511,44.975594],[4.16597,44.975977],[4.163504,44.976347],[4.162084,44.97644],[4.161225,44.976572],[4.162103,44.975396],[4.161113,44.975383],[4.159506,44.975224],[4.158927,44.975343],[4.157638,44.975303],[4.157377,44.975158],[4.155976,44.975079],[4.155472,44.974484],[4.153081,44.97459],[4.151381,44.974775],[4.150764,44.97496],[4.147831,44.975515],[4.147084,44.975528],[4.146281,44.975462],[4.145534,44.975726],[4.145029,44.975581],[4.144301,44.975449],[4.143105,44.976268],[4.142489,44.976056],[4.141462,44.975158],[4.141704,44.974775],[4.141817,44.974114],[4.141798,44.972898],[4.142041,44.97229],[4.142489,44.971299],[4.142377,44.970559],[4.142321,44.969026],[4.142414,44.966356],[4.142321,44.965365],[4.142302,44.964731],[4.142545,44.964136],[4.142433,44.963409],[4.142676,44.962616],[4.142601,44.962299],[4.140266,44.960858],[4.138361,44.960514],[4.138323,44.95984],[4.137838,44.95869],[4.136623,44.957699],[4.13625,44.957157],[4.136194,44.9568],[4.136269,44.956113],[4.136044,44.955795],[4.13511,44.955042],[4.134027,44.954341],[4.131972,44.953826],[4.130478,44.953323],[4.129021,44.952689],[4.127769,44.952438],[4.127358,44.95253],[4.126237,44.953099],[4.124257,44.953522],[4.12379,44.953508],[4.123734,44.953297],[4.123865,44.952623],[4.123828,44.951446],[4.123529,44.951116],[4.121381,44.950375],[4.119569,44.950085],[4.119008,44.94982],[4.118635,44.949357],[4.118653,44.948961],[4.119699,44.946978],[4.120129,44.94637],[4.120316,44.944492],[4.119755,44.944162],[4.118934,44.944135],[4.116617,44.944532],[4.11559,44.944598],[4.113983,44.9444],[4.113161,44.944214],[4.112788,44.94432],[4.111929,44.945034],[4.110976,44.94551],[4.110229,44.946026],[4.109575,44.946607],[4.108361,44.947229],[4.107875,44.948115],[4.10795,44.948802],[4.108286,44.949476],[4.108211,44.949952],[4.107763,44.950494],[4.107203,44.950865],[4.104587,44.951393],[4.104176,44.951711],[4.103317,44.953046],[4.102047,44.954262],[4.10143,44.954513],[4.101206,44.954725],[4.100571,44.95491],[4.100272,44.95487],[4.100085,44.955002],[4.099506,44.954963],[4.098797,44.95483],[4.097115,44.954011],[4.096723,44.953998],[4.095696,44.954328],[4.094967,44.954725],[4.093062,44.954698],[4.092315,44.954817],[4.091866,44.954487],[4.09224,44.953165],[4.092184,44.952887],[4.089681,44.95487],[4.088523,44.953826],[4.088691,44.95298],[4.089139,44.952319],[4.089774,44.951803],[4.089774,44.951486],[4.08955,44.951261],[4.089587,44.950706],[4.089849,44.950349],[4.090334,44.950124],[4.090241,44.950045],[4.087589,44.950521],[4.088186,44.949913],[4.088709,44.94982],[4.089905,44.949225],[4.090708,44.948736],[4.091399,44.948088],[4.091474,44.947797],[4.091194,44.947586],[4.089924,44.947414],[4.089232,44.947242],[4.088205,44.947374],[4.089046,44.945867],[4.08955,44.945629],[4.090148,44.945034],[4.09011,44.944823],[4.088336,44.944188],[4.08884,44.943699],[4.090895,44.94239],[4.09082,44.941729],[4.090503,44.940882],[4.090633,44.940803],[4.090577,44.940459],[4.090764,44.937564],[4.090708,44.937167],[4.090988,44.936731],[4.090764,44.936691],[4.090615,44.936228],[4.089774,44.936135],[4.089064,44.935964],[4.087495,44.935858],[4.085758,44.936083],[4.085422,44.936426],[4.085141,44.936334],[4.084992,44.936109],[4.084226,44.935858],[4.083846,44.935544],[4.083322,44.935391],[4.083224,44.935614],[4.083027,44.935658],[4.082558,44.93571],[4.082404,44.935893],[4.081899,44.937324],[4.081782,44.937368],[4.080455,44.937388],[4.078846,44.937615],[4.079361,44.938117],[4.079468,44.938603],[4.079297,44.938998],[4.079854,44.939256],[4.079447,44.939681],[4.078867,44.939954],[4.077923,44.940137],[4.075284,44.940015],[4.072559,44.939453],[4.071894,44.939453],[4.07125,44.939362],[4.070263,44.939757],[4.070027,44.939924],[4.068954,44.939362],[4.068589,44.939241],[4.068739,44.938739],[4.068375,44.938587],[4.066594,44.938177],[4.065907,44.937858],[4.065242,44.937707],[4.064577,44.937524],[4.063911,44.937479],[4.062688,44.937631],[4.061615,44.937919],[4.0608,44.938056],[4.060199,44.938284],[4.060156,44.938557],[4.059706,44.938982],[4.059749,44.939393],[4.059491,44.939514],[4.059277,44.939438],[4.058847,44.939468],[4.058053,44.93956],[4.057517,44.939772],[4.0552,44.941094],[4.054597,44.941075],[4.054367,44.941303],[4.053953,44.941873],[4.053197,44.943534],[4.052498,44.943891],[4.051945,44.944432],[4.05092,44.945054],[4.050303,44.945572],[4.047343,44.94617],[4.046839,44.946561],[4.045912,44.945767],[4.043456,44.943281],[4.042643,44.943039],[4.041684,44.942648],[4.040806,44.942418],[4.040562,44.94213],[4.040269,44.941888],[4.039716,44.941842],[4.039196,44.941647],[4.038578,44.941347],[4.035878,44.941347],[4.034903,44.94129],[4.03313,44.941347],[4.032626,44.941428],[4.031211,44.941888],[4.03017,44.942556],[4.029048,44.942901],[4.028365,44.943327],[4.026186,44.943868],[4.024316,44.944547],[4.02321,44.944536],[4.021893,44.944708],[4.02056,44.944766],[4.018267,44.945111],[4.017616,44.94518],[4.014835,44.945986],[4.014136,44.946044],[4.013014,44.945917],[4.012055,44.945641],[4.01103,44.945468],[4.01051,44.945848],[4.009941,44.945905],[4.00716,44.945767],[4.006314,44.945871],[4.00555,44.946067],[4.005273,44.946205],[4.004737,44.946377],[4.004168,44.946389],[4.002102,44.946101],[4.00181,44.945813],[4.001273,44.945733],[4.000167,44.945606],[3.999322,44.945606],[3.998752,44.945514],[3.997142,44.94533],[3.996248,44.945767],[3.995256,44.94663],[3.995012,44.946677],[3.994947,44.946492],[3.995012,44.946147],[3.994866,44.94541],[3.994898,44.945146],[3.994622,44.944985],[3.994866,44.944317],[3.994947,44.94396],[3.995224,44.943672],[3.995549,44.942993],[3.995451,44.942107],[3.995955,44.941589],[3.99576,44.941393],[3.995744,44.941071],[3.99576,44.940933],[3.9955,44.940783],[3.99485,44.941509],[3.994378,44.941647],[3.993353,44.942521],[3.991987,44.943189],[3.991044,44.944041],[3.989613,44.946331],[3.989044,44.946746],[3.988833,44.946607],[3.987955,44.946826],[3.987337,44.946895],[3.985906,44.946654],[3.9848,44.946803],[3.984214,44.946688],[3.982848,44.94663],[3.982393,44.946331],[3.981336,44.946147],[3.979164,44.946178],[3.977974,44.946367],[3.976283,44.946199],[3.97594,44.946012],[3.975393,44.946113],[3.974173,44.945925],[3.973834,44.945943],[3.973298,44.94586],[3.972426,44.946049],[3.971977,44.94633],[3.971789,44.946671],[3.971758,44.946976],[3.971684,44.94709],[3.97169,44.947338],[3.971628,44.947561],[3.971343,44.947863],[3.970762,44.947732],[3.970223,44.948285],[3.970026,44.948773],[3.970339,44.949452],[3.970371,44.950893],[3.970193,44.95125],[3.970458,44.952227],[3.970833,44.952881],[3.970963,44.953396],[3.971237,44.953359],[3.97108,44.953819],[3.970973,44.954444],[3.970577,44.954892],[3.970338,44.955347],[3.970095,44.955428],[3.969485,44.955517],[3.969167,44.955642],[3.967436,44.956723],[3.966898,44.957104],[3.96659,44.957432],[3.965857,44.958267],[3.964688,44.958887],[3.963881,44.959065],[3.963342,44.959304],[3.962853,44.959843],[3.962217,44.960056],[3.961946,44.960215],[3.961817,44.9605],[3.961812,44.960898],[3.961437,44.961187],[3.961458,44.961316],[3.960042,44.961817],[3.959334,44.962272],[3.958658,44.962576],[3.957218,44.962491],[3.955713,44.962337],[3.950622,44.962067],[3.949466,44.961906],[3.948718,44.961889],[3.948272,44.961995],[3.947468,44.962462],[3.946046,44.963574],[3.945451,44.96398],[3.94469,44.964373],[3.943686,44.964932],[3.942662,44.965654],[3.942195,44.966136],[3.941331,44.966834],[3.94102,44.967221],[3.940118,44.968171],[3.939252,44.968848],[3.938644,44.969192],[3.937534,44.969635],[3.935785,44.970588],[3.935467,44.97069],[3.934885,44.971104],[3.934314,44.97145],[3.930035,44.973046],[3.929769,44.973216],[3.92913,44.97348],[3.92913,44.97348],[3.92833,44.97403],[3.92801,44.97451],[3.92789,44.975021],[3.92752,44.975693],[3.927217,44.976049],[3.926351,44.976552],[3.92557,44.97707],[3.92503,44.977638],[3.92291,44.978858],[3.921615,44.979461],[3.92095,44.979927],[3.918633,44.98136],[3.918387,44.981456],[3.917744,44.981411],[3.917142,44.981567],[3.916867,44.981778],[3.916839,44.982121],[3.916985,44.982427],[3.91695,44.982681],[3.915799,44.983625],[3.915292,44.983939],[3.914897,44.98407],[3.914397,44.984032],[3.913801,44.98407],[3.913461,44.984264],[3.914251,44.98498],[3.914463,44.985098],[3.914424,44.985279],[3.913838,44.986068],[3.913782,44.986568],[3.913802,44.987018],[3.913429,44.988026],[3.913439,44.988388],[3.913536,44.988721],[3.913916,44.989075],[3.914293,44.989323],[3.91505,44.989689],[3.91535,44.990002],[3.915612,44.990905],[3.915754,44.990932],[3.916567,44.990288],[3.916708,44.990284],[3.916966,44.990761],[3.91831,44.990582],[3.91871,44.990662],[3.919544,44.991322],[3.92031,44.991596],[3.920534,44.991794],[3.920734,44.99273],[3.919973,44.993196],[3.91895,44.993649],[3.918228,44.994372],[3.917869,44.994617],[3.917767,44.99472],[3.917782,44.994914],[3.918208,44.995712],[3.91842,44.996361],[3.918308,44.996834],[3.918016,44.997158],[3.91736,44.997478],[3.91698,44.998741],[3.917483,44.998859],[3.917132,44.999193],[3.916985,44.999416],[3.917051,44.999686],[3.917009,45.001014],[3.916328,45.001082],[3.91616,45.001],[3.915901,45.000782],[3.91578,45.000748],[3.915399,45.001487],[3.915002,45.002151],[3.914372,45.002999],[3.914171,45.003141],[3.913373,45.003074],[3.913053,45.003071],[3.912959,45.003202],[3.913037,45.003471],[3.913012,45.003646],[3.913098,45.003839],[3.912967,45.004118],[3.91269,45.00437],[3.91302,45.004573],[3.913066,45.004696],[3.912655,45.005064],[3.912357,45.005528],[3.912386,45.005732],[3.91234,45.005991],[3.912213,45.006103],[3.911902,45.006096],[3.91075,45.007259],[3.91062,45.007702],[3.910623,45.008605],[3.910741,45.009055],[3.91095,45.00946],[3.911059,45.009674],[3.911083,45.009857],[3.91091,45.010052],[3.91014,45.010479],[3.90907,45.010867],[3.90785,45.011383],[3.906776,45.012276],[3.9067,45.012421],[3.907052,45.012493],[3.907574,45.012824],[3.908659,45.01336],[3.90881,45.013493],[3.908982,45.0135],[3.90938,45.013409],[3.91008,45.013432],[3.91234,45.013],[3.91283,45.013062],[3.913618,45.013321],[3.914082,45.013431],[3.91387,45.013649],[3.913789,45.013954],[3.913503,45.014086],[3.913432,45.014202],[3.91374,45.014629],[3.913821,45.015052],[3.913614,45.015359],[3.913654,45.015533],[3.913885,45.01565],[3.914577,45.015892],[3.91486,45.015949],[3.914838,45.016239],[3.914623,45.016654],[3.91429,45.016998],[3.91414,45.017281],[3.914099,45.017679],[3.913994,45.018078],[3.91387,45.018829],[3.9135,45.019878],[3.913325,45.020313],[3.91332,45.020939],[3.912041,45.021843],[3.91148,45.022591],[3.9113,45.022999],[3.910979,45.023428],[3.910905,45.023622],[3.91066,45.023911],[3.91051,45.024429],[3.91059,45.02504],[3.910477,45.025156],[3.910258,45.025647],[3.910141,45.026166],[3.910126,45.026707],[3.910161,45.027034],[3.910126,45.027225],[3.909908,45.027424],[3.909672,45.028068],[3.909424,45.028501],[3.909127,45.028835],[3.909028,45.029086],[3.908766,45.029376],[3.90826,45.029646],[3.908016,45.029843],[3.90769,45.030041],[3.907467,45.030322],[3.90737,45.030701],[3.90699,45.031151],[3.905533,45.030883],[3.90542,45.031712],[3.904682,45.031731],[3.903083,45.03152],[3.902817,45.031525],[3.902658,45.031654],[3.90257,45.032088],[3.902417,45.032169],[3.90212,45.032192],[3.901861,45.032333],[3.901778,45.03247],[3.901749,45.032642],[3.901858,45.032767],[3.902052,45.03307],[3.90157,45.033669],[3.901161,45.034829],[3.9007,45.034969],[3.900395,45.03529],[3.900214,45.035303],[3.899974,45.035411],[3.899344,45.035535],[3.89907,45.035671],[3.89862,45.03606],[3.897997,45.036731],[3.897675,45.037175],[3.897352,45.037472],[3.897086,45.037541],[3.89698,45.03764],[3.89703,45.038719],[3.896771,45.038774],[3.896012,45.039385],[3.89564,45.039951],[3.894384,45.040292],[3.893363,45.040444],[3.892576,45.04081],[3.89177,45.041519],[3.890689,45.04126],[3.889479,45.041076],[3.88853,45.041149],[3.88772,45.04134],[3.88698,45.042191],[3.8856,45.04213],[3.88543,45.042969],[3.884566,45.042934],[3.88386,45.04324],[3.88334,45.04332],[3.88261,45.043476],[3.88261,45.043476]]],"type":"MultiLineString"},"properties":{"geo_point":{"lon":4.234784659183128,"lat":45.063387520438525},"name":"GR430 Chemin de Saint Régis (2020)","code_gr":"GR430"}}]}