{"type":"FeatureCollection","features":[{"type":"Feature","geometry":{"coordinates":[[[3.624921,44.24707],[3.625957,44.247688],[3.626137,44.248333],[3.625614,44.249189],[3.625688,44.24951],[3.623989,44.25236],[3.623241,44.254742],[3.623528,44.255204],[3.623747,44.256079],[3.62251,44.258591],[3.622424,44.25936],[3.62311,44.260159],[3.62371,44.260891],[3.62354,44.261551],[3.62379,44.26236],[3.62346,44.26284],[3.62337,44.26363],[3.62293,44.264278],[3.623306,44.26558],[3.624495,44.266938],[3.625261,44.26742],[3.625578,44.267978],[3.625815,44.268631],[3.625591,44.269482],[3.625644,44.270248],[3.62486,44.272591],[3.62592,44.274422],[3.62617,44.27943],[3.626877,44.279996],[3.62777,44.28043],[3.628303,44.280449],[3.628556,44.280599],[3.628154,44.28104],[3.627827,44.281241],[3.627575,44.281555],[3.626931,44.281949],[3.62729,44.282384],[3.62734,44.282909],[3.626959,44.282565],[3.627015,44.283193],[3.62726,44.283687],[3.62757,44.284191],[3.62743,44.284458],[3.62733,44.284309],[3.62708,44.28466],[3.627043,44.284517],[3.62623,44.285072],[3.625464,44.285507],[3.623567,44.286264],[3.62332,44.2873],[3.622532,44.287285],[3.619888,44.287486],[3.61933,44.288818],[3.6182,44.28896],[3.617843,44.289291],[3.617563,44.289826],[3.61732,44.289732],[3.616236,44.289692],[3.615003,44.289371],[3.614873,44.289946],[3.614126,44.290133],[3.613434,44.290468],[3.613005,44.290575],[3.611996,44.290909],[3.61095,44.291029],[3.610558,44.291029],[3.610091,44.291377],[3.609568,44.29238],[3.609792,44.292928],[3.60981,44.293436],[3.610165,44.293931],[3.610184,44.294158],[3.608596,44.294278],[3.608204,44.294519],[3.608353,44.295428],[3.608465,44.296672],[3.60826,44.29738],[3.607905,44.298009],[3.607868,44.29849],[3.608241,44.299252],[3.608932,44.299787],[3.609624,44.300067],[3.61024,44.300201],[3.610165,44.300362],[3.609175,44.30091],[3.607532,44.301578],[3.606803,44.30214],[3.60628,44.303129],[3.606299,44.303517],[3.605832,44.303744],[3.606037,44.304332],[3.606205,44.304546],[3.606056,44.305107],[3.605309,44.305508],[3.604935,44.305843],[3.604094,44.30611],[3.603646,44.306524],[3.603515,44.307099],[3.602899,44.308075],[3.602096,44.308663],[3.601965,44.309051],[3.600452,44.310788],[3.599985,44.310976],[3.599536,44.311457],[3.598677,44.3127],[3.59821,44.312687],[3.597837,44.313622],[3.597687,44.315159],[3.598023,44.315921],[3.598117,44.316923],[3.597818,44.318928],[3.597426,44.319931],[3.596548,44.321267],[3.596155,44.323325],[3.590769,44.330215],[3.590525,44.330801],[3.590647,44.331088],[3.59124,44.331512],[3.590577,44.331973],[3.588242,44.332858],[3.586987,44.333557],[3.586307,44.334392],[3.586098,44.335115],[3.586237,44.335925],[3.586917,44.335963],[3.58744,44.336598],[3.587335,44.337284],[3.587161,44.337795],[3.588312,44.339241],[3.589462,44.340064],[3.589636,44.340363],[3.588712,44.340999],[3.587614,44.342258],[3.585715,44.343641],[3.585871,44.343679],[3.586464,44.343467],[3.586847,44.343529],[3.586917,44.343915],[3.587144,44.344451],[3.587179,44.345062],[3.58737,44.345299],[3.587074,44.346782],[3.587667,44.347331],[3.588416,44.348303],[3.588712,44.348776],[3.588991,44.349836],[3.589497,44.349823],[3.589932,44.350073],[3.590386,44.351144],[3.590821,44.351768],[3.591396,44.351955],[3.590455,44.352067],[3.590386,44.352702],[3.591257,44.353824],[3.591222,44.35421],[3.59042,44.355207],[3.589584,44.355083],[3.589009,44.355506],[3.588451,44.35578],[3.587998,44.356366],[3.587614,44.356466],[3.587144,44.356516],[3.586551,44.356964],[3.585645,44.357388],[3.585122,44.357874],[3.585192,44.358098],[3.586185,44.357936],[3.58615,44.358397],[3.586185,44.359145],[3.585296,44.360279],[3.585192,44.361114],[3.584425,44.362285],[3.584198,44.362921],[3.584216,44.363419],[3.584582,44.36403],[3.58561,44.365201],[3.585924,44.365799],[3.585697,44.367332],[3.585314,44.368515],[3.585471,44.3692],[3.585349,44.370073],[3.584861,44.371269],[3.584895,44.37163],[3.58507,44.372826],[3.584686,44.373549],[3.584634,44.374196],[3.584216,44.374769],[3.584041,44.375579],[3.584878,44.377074],[3.585244,44.377473],[3.585418,44.378195],[3.585732,44.378644],[3.585889,44.379765],[3.586464,44.381297],[3.586237,44.38253],[3.587057,44.384013],[3.587109,44.384785],[3.58615,44.385507],[3.585959,44.385806],[3.584965,44.386441],[3.584163,44.3876],[3.583309,44.387973],[3.582752,44.388422],[3.582089,44.389593],[3.582473,44.390415],[3.583048,44.390664],[3.584041,44.391361],[3.584895,44.391523],[3.585401,44.391735],[3.585471,44.391959],[3.584843,44.393366],[3.584791,44.393541],[3.584582,44.39374],[3.584373,44.394226],[3.583658,44.394898],[3.583466,44.395932],[3.583501,44.396392],[3.582577,44.396779],[3.58073,44.397874],[3.580259,44.398061],[3.580172,44.398871],[3.580625,44.399257],[3.581113,44.399344],[3.581915,44.399369],[3.581619,44.400054],[3.581741,44.400888],[3.582508,44.401436],[3.583118,44.401735],[3.583292,44.401884],[3.583658,44.402058],[3.583571,44.402233],[3.583641,44.402482],[3.583588,44.403005],[3.58181,44.40303],[3.581479,44.402918],[3.581253,44.402943],[3.580991,44.402694],[3.580695,44.402606],[3.580643,44.402818],[3.5812,44.403901],[3.581253,44.404561],[3.583327,44.406915],[3.583379,44.407325],[3.58378,44.407574],[3.584198,44.407674],[3.584826,44.40816],[3.585732,44.408695],[3.586987,44.408932],[3.587789,44.409442],[3.587998,44.409741],[3.588521,44.410002],[3.589148,44.410749],[3.589532,44.411496],[3.590682,44.412953],[3.592634,44.414372],[3.59368,44.414945],[3.594011,44.414982],[3.594394,44.415094],[3.59476,44.415069],[3.595649,44.415742],[3.596137,44.416078],[3.596137,44.416551],[3.596381,44.416887],[3.596399,44.418306],[3.596747,44.418891],[3.597026,44.419688],[3.596869,44.420273],[3.597096,44.420958],[3.598612,44.42214],[3.598908,44.422862],[3.5991,44.423721],[3.599396,44.424232],[3.601157,44.425526],[3.601767,44.42585],[3.602847,44.426211],[3.602987,44.426559],[3.603579,44.426957],[3.604521,44.427829],[3.604538,44.428103],[3.604956,44.428625],[3.605758,44.429297],[3.606176,44.429596],[3.606542,44.430082],[3.607571,44.430841],[3.60764,44.431052],[3.608669,44.43226],[3.608982,44.432757],[3.60907,44.43323],[3.609139,44.43384],[3.60907,44.434176],[3.609139,44.434774],[3.609279,44.43506],[3.610011,44.435906],[3.610481,44.436329],[3.610917,44.436603],[3.611161,44.436914],[3.61166,44.437399],[3.612051,44.437637],[3.612488,44.43813],[3.612741,44.438746],[3.612914,44.43877],[3.613029,44.439074],[3.613397,44.439328],[3.613983,44.439936],[3.615317,44.440593],[3.615627,44.440683],[3.616432,44.441167],[3.617226,44.441447],[3.617467,44.441635],[3.618065,44.441832],[3.618307,44.442071],[3.618732,44.442153],[3.619577,44.442689],[3.620102,44.442681],[3.620499,44.442949],[3.621551,44.444022],[3.62345,44.445186],[3.623997,44.44527],[3.625145,44.445684],[3.626175,44.446335],[3.626969,44.446932],[3.627709,44.44766],[3.627645,44.448571],[3.627173,44.449039],[3.62713,44.449445],[3.626904,44.44959],[3.626733,44.449866],[3.626701,44.450279],[3.626368,44.450961],[3.625982,44.451421],[3.625681,44.451696],[3.625671,44.452026],[3.626057,44.452424],[3.626143,44.452914],[3.626003,44.454231],[3.626261,44.455181],[3.626261,44.456039],[3.626379,44.456345],[3.626711,44.456942],[3.627033,44.457072],[3.627462,44.457294],[3.627806,44.457654],[3.628364,44.457953],[3.628761,44.458091],[3.629436,44.45842],[3.629801,44.459278],[3.629984,44.461675],[3.629898,44.462647],[3.62949,44.463995],[3.629407,44.465593],[3.629667,44.466979],[3.629837,44.467429],[3.630157,44.467986],[3.630558,44.469822],[3.630868,44.470201],[3.631659,44.470601],[3.63303,44.471087],[3.633551,44.471372],[3.633751,44.471722],[3.633721,44.47208],[3.63236,44.473537],[3.631919,44.474244],[3.631779,44.47478],[3.631679,44.475751],[3.631469,44.476065],[3.630998,44.476273],[3.630368,44.476473],[3.629747,44.477001],[3.629357,44.477487],[3.628986,44.47803],[3.628396,44.478444],[3.627935,44.478687],[3.627715,44.478965],[3.627475,44.479622],[3.627415,44.481487],[3.627698,44.482239],[3.629372,44.483969],[3.62993,44.484841],[3.630145,44.485178],[3.630123,44.486326],[3.630209,44.486908],[3.630209,44.487551],[3.630445,44.488347],[3.630252,44.489066],[3.629823,44.489617],[3.629994,44.490031],[3.629694,44.491714],[3.629222,44.493],[3.629286,44.493643],[3.629007,44.49473],[3.629179,44.495618],[3.62993,44.496138],[3.630552,44.496337],[3.631968,44.497087],[3.633342,44.497378],[3.634093,44.497301],[3.635037,44.497118],[3.636003,44.497592],[3.636754,44.497684],[3.63817,44.497163],[3.63935,44.497209],[3.640273,44.497408],[3.641002,44.497806],[3.641582,44.497806],[3.642333,44.497561],[3.644221,44.49776],[3.645508,44.497301],[3.646281,44.497148],[3.646581,44.496811],[3.64686,44.496444],[3.647976,44.495465],[3.649027,44.495755],[3.650765,44.496551],[3.651388,44.496582],[3.653233,44.496429],[3.654671,44.496413],[3.655121,44.496536],[3.655357,44.497194],[3.65628,44.497868],[3.656602,44.498602],[3.657031,44.498969],[3.657525,44.499796],[3.657632,44.500699],[3.658061,44.501082],[3.65967,44.50177],[3.661044,44.502061],[3.661666,44.502046],[3.662331,44.502245],[3.662953,44.50226],[3.663275,44.502949],[3.663769,44.503392],[3.664391,44.503607],[3.664777,44.504051],[3.665013,44.504402],[3.663876,44.504831],[3.664219,44.505321],[3.664005,44.50656],[3.66025,44.507953],[3.660443,44.508504],[3.660486,44.508993],[3.657568,44.509376],[3.656044,44.509697],[3.654714,44.509452],[3.653147,44.5091],[3.651924,44.509315],[3.651366,44.50985],[3.651366,44.510187],[3.650873,44.510921],[3.650873,44.511962],[3.650422,44.512436],[3.650551,44.512987],[3.650422,44.51363],[3.64965,44.513553],[3.649457,44.513324],[3.648705,44.513324],[3.64789,44.513569],[3.647375,44.513859],[3.646538,44.513614],[3.646152,44.514211],[3.644564,44.515236],[3.643148,44.51594],[3.642247,44.516246],[3.640058,44.516721],[3.637033,44.517577],[3.635831,44.517746],[3.634887,44.518036],[3.634372,44.518098],[3.634543,44.51926],[3.634222,44.519505],[3.633363,44.51952],[3.631582,44.519842],[3.629243,44.519995],[3.628664,44.520163],[3.628514,44.520454],[3.629951,44.523758],[3.631668,44.526298],[3.632505,44.527216],[3.63302,44.528088],[3.633986,44.52899],[3.634908,44.529648],[3.635595,44.529816],[3.636453,44.529786],[3.637354,44.530061],[3.63729,44.530596],[3.636389,44.531652],[3.636453,44.53234],[3.636861,44.532906],[3.636861,44.533472],[3.636281,44.533793],[3.635745,44.533977],[3.635981,44.534543],[3.635638,44.534879],[3.634865,44.534864],[3.635445,44.535078],[3.635724,44.535353],[3.635316,44.535338],[3.63493,44.535399],[3.634286,44.535307],[3.634179,44.535476],[3.634908,44.535782],[3.634951,44.536179],[3.633835,44.535613],[3.633471,44.535262],[3.632162,44.534803],[3.631625,44.535185],[3.63096,44.535445],[3.630016,44.536195],[3.629222,44.53647],[3.6286,44.536516],[3.627892,44.53676],[3.627656,44.537021],[3.628256,44.537112],[3.62905,44.537541],[3.629007,44.53777],[3.627827,44.538168],[3.62654,44.538244],[3.625832,44.538183],[3.626261,44.538948],[3.626904,44.539774],[3.627763,44.540278],[3.628063,44.540385],[3.628514,44.540768],[3.629501,44.541181],[3.629694,44.542175],[3.629351,44.54479],[3.629136,44.545157],[3.628986,44.546426],[3.628449,44.547726],[3.628299,44.549026],[3.628857,44.550662],[3.629072,44.550784],[3.629179,44.55132],[3.630617,44.553262],[3.631132,44.553369],[3.631282,44.553583],[3.631132,44.554271],[3.632097,44.555356],[3.632526,44.556549],[3.632226,44.5595],[3.63214,44.561747],[3.632591,44.563154],[3.633299,44.564285],[3.63405,44.565172],[3.634651,44.56537],[3.63596,44.56612],[3.636518,44.566165],[3.637569,44.566899],[3.638642,44.56774],[3.639586,44.568076],[3.639972,44.568397],[3.640895,44.568688],[3.643105,44.569544],[3.643813,44.570385],[3.644049,44.572739],[3.643835,44.573702],[3.643942,44.574114],[3.644586,44.575001],[3.644478,44.57523],[3.644543,44.575903],[3.644629,44.576132],[3.644543,44.576652],[3.644414,44.57685],[3.644629,44.577951],[3.643942,44.577752],[3.643599,44.577813],[3.643019,44.578409],[3.641624,44.57951],[3.641174,44.580304],[3.640895,44.580763],[3.640637,44.581542],[3.640316,44.581863],[3.639843,44.5822],[3.639779,44.582566],[3.64023,44.582918],[3.640852,44.583178],[3.641238,44.583865],[3.640037,44.583927],[3.639994,44.584141],[3.638899,44.583927],[3.638706,44.584018],[3.636518,44.583055],[3.635702,44.583086],[3.63553,44.583269],[3.635659,44.583758],[3.635402,44.584461],[3.635445,44.584859],[3.637183,44.584905],[3.637826,44.58521],[3.636904,44.585791],[3.636346,44.586402],[3.635273,44.586693],[3.634694,44.587029],[3.63435,44.587365],[3.633642,44.587839],[3.632977,44.588618],[3.631668,44.589611],[3.631368,44.590177],[3.631303,44.590651],[3.631454,44.591552],[3.631067,44.592209],[3.630788,44.593264],[3.631303,44.593722],[3.631797,44.594547],[3.631496,44.59528],[3.632505,44.595647],[3.630466,44.597878],[3.629801,44.598856],[3.6286,44.601499],[3.628385,44.602248],[3.62772,44.603149],[3.627119,44.603439],[3.62654,44.603821],[3.625853,44.604096],[3.626153,44.604616],[3.624458,44.605303],[3.6236,44.605364],[3.622828,44.605211],[3.621089,44.604035],[3.620145,44.603714],[3.619008,44.603638],[3.616734,44.603821],[3.616047,44.604035],[3.615167,44.604402],[3.614373,44.604432],[3.612678,44.604249],[3.611841,44.604448],[3.610768,44.605135],[3.60976,44.60567],[3.609309,44.606189],[3.609223,44.606632],[3.609352,44.608022],[3.609138,44.608679],[3.608623,44.609153],[3.607593,44.609474],[3.605468,44.609351],[3.603644,44.609626],[3.602228,44.609458],[3.60064,44.609672],[3.599396,44.609703],[3.597679,44.610023],[3.596907,44.609855],[3.595705,44.609504],[3.594739,44.60955],[3.593216,44.610283],[3.591928,44.611261],[3.590233,44.612895],[3.588645,44.614667],[3.58768,44.615003],[3.58562,44.615095],[3.584719,44.615492],[3.584332,44.615996],[3.583946,44.616775],[3.583045,44.617279],[3.581972,44.617737],[3.581071,44.61789],[3.580341,44.618302],[3.579891,44.618822],[3.579547,44.619616],[3.578947,44.620028],[3.577938,44.620181],[3.576114,44.620089],[3.574741,44.620135],[3.573475,44.62041],[3.57178,44.620975],[3.570042,44.62125],[3.568089,44.621479],[3.566737,44.621479],[3.563583,44.621769],[3.560793,44.622304],[3.560965,44.622533],[3.560987,44.622991],[3.561609,44.623694],[3.560815,44.623709],[3.561158,44.624656],[3.56133,44.62571],[3.561072,44.626137],[3.561094,44.626565],[3.560708,44.627374],[3.560686,44.627725],[3.560064,44.627786],[3.558927,44.629023],[3.554742,44.631116],[3.553069,44.631375],[3.552232,44.63107],[3.551116,44.63139],[3.550022,44.63191],[3.549657,44.631222],[3.549421,44.630627],[3.548992,44.630016],[3.548584,44.629909],[3.547361,44.629863],[3.546202,44.629436],[3.543799,44.628947],[3.543413,44.629023],[3.542876,44.629344],[3.542469,44.629375],[3.541632,44.62994],[3.540773,44.629985],[3.539443,44.629818],[3.53792,44.628917],[3.536546,44.62826],[3.535473,44.62797],[3.533864,44.628],[3.531332,44.628993],[3.530388,44.629069],[3.528714,44.628993],[3.528221,44.629283],[3.527749,44.629314],[3.52571,44.630657],[3.524101,44.630841],[3.523157,44.630642],[3.522727,44.630138],[3.521848,44.630047],[3.521633,44.630856],[3.521848,44.631329],[3.521633,44.631619],[3.520238,44.631574],[3.519294,44.631253],[3.518436,44.63081],[3.517749,44.63078],[3.517063,44.631085],[3.516676,44.631406],[3.51644,44.631085],[3.514037,44.631054],[3.513243,44.631161],[3.512685,44.631024],[3.51217,44.631329],[3.511677,44.631482],[3.511097,44.631864],[3.509982,44.632169],[3.509359,44.632551],[3.507535,44.633238],[3.506656,44.633253],[3.505583,44.633498],[3.504767,44.634047],[3.504746,44.63446],[3.503373,44.634444],[3.502815,44.634078],[3.502879,44.633635],[3.502171,44.633375],[3.502729,44.633314],[3.50275,44.633162],[3.501978,44.63307],[3.501613,44.632856],[3.501399,44.632291],[3.50039,44.63278],[3.499553,44.632505],[3.499103,44.632719],[3.498738,44.632291],[3.498223,44.632215],[3.497472,44.632184],[3.496549,44.631955],[3.495905,44.631207],[3.494618,44.631054],[3.494446,44.631222],[3.493309,44.631665],[3.492622,44.632261],[3.492365,44.63278],[3.491271,44.633543],[3.490305,44.63336],[3.489168,44.633513],[3.48846,44.633513],[3.487408,44.633696],[3.484318,44.633452],[3.483782,44.633162],[3.483245,44.632704],[3.482323,44.632322],[3.480585,44.63278],[3.480349,44.633009],[3.479576,44.633177],[3.47904,44.633818],[3.478611,44.633879],[3.47816,44.634475],[3.478932,44.635452],[3.47934,44.636551],[3.480392,44.637574],[3.481336,44.637941],[3.48228,44.638155],[3.483417,44.638659],[3.483996,44.638811],[3.484297,44.639055],[3.484898,44.639743],[3.48552,44.640109],[3.48597,44.64075],[3.486314,44.640964],[3.48655,44.641346],[3.487086,44.64159],[3.487408,44.641773],[3.488009,44.642017],[3.488052,44.642201],[3.488224,44.642308],[3.488224,44.642552],[3.488739,44.642537],[3.489554,44.642582],[3.490047,44.642231],[3.490348,44.642277],[3.491249,44.642674],[3.493288,44.642506],[3.494146,44.64275],[3.495541,44.642598],[3.496184,44.642643],[3.497171,44.643056],[3.497558,44.643269],[3.498266,44.643315],[3.499725,44.64243],[3.500454,44.642369],[3.501055,44.642185],[3.501463,44.641422],[3.501592,44.640216],[3.501871,44.639895],[3.503008,44.639681],[3.50245,44.640262],[3.502493,44.640491],[3.503051,44.640613],[3.503587,44.640888],[3.503888,44.641651],[3.503523,44.642201],[3.503652,44.642643],[3.504252,44.642353],[3.504961,44.642308],[3.506184,44.642002],[3.505819,44.642414],[3.50657,44.64246],[3.50745,44.642567],[3.508394,44.642369],[3.509274,44.64243],[3.510261,44.642567],[3.510818,44.642827],[3.511784,44.643575],[3.512192,44.64417],[3.512599,44.644323],[3.513501,44.645147],[3.514831,44.645483],[3.515668,44.645972],[3.51747,44.646048],[3.51938,44.646414],[3.520131,44.64675],[3.521247,44.646201],[3.521783,44.645315],[3.521976,44.64533],[3.522084,44.645666],[3.522556,44.646155],[3.52277,44.646552],[3.523028,44.646491],[3.522899,44.645223],[3.522985,44.64446],[3.52335,44.643712],[3.523886,44.643254],[3.524573,44.642918],[3.524616,44.64304],[3.524358,44.64362],[3.524466,44.643682],[3.525453,44.6433],[3.525624,44.643437],[3.525474,44.643987],[3.525195,44.644292],[3.525131,44.644659],[3.525581,44.644949],[3.526247,44.644994],[3.527191,44.644613],[3.527534,44.644659],[3.527899,44.645162],[3.528929,44.645086],[3.529508,44.645376],[3.530002,44.646033],[3.530989,44.646292],[3.531375,44.646231],[3.532362,44.645514],[3.53337,44.645269],[3.534057,44.646033],[3.535345,44.648735],[3.536074,44.649238],[3.537211,44.650887],[3.537533,44.651879],[3.537555,44.653452],[3.538027,44.653955],[3.538649,44.654428],[3.539443,44.655497],[3.539658,44.656108],[3.539679,44.656947],[3.539336,44.658992],[3.539379,44.66029],[3.539979,44.661877],[3.541031,44.663586],[3.542168,44.664792],[3.542705,44.665555],[3.543262,44.666776],[3.542962,44.667936],[3.543863,44.667966],[3.544464,44.667737],[3.544636,44.667447],[3.544743,44.666684],[3.545108,44.666547],[3.546567,44.667173],[3.547039,44.667493],[3.54794,44.667188],[3.548026,44.6667],[3.547769,44.666471],[3.547597,44.665952],[3.548005,44.665769],[3.54912,44.665402],[3.551009,44.664197],[3.551781,44.663724],[3.554828,44.664044],[3.555772,44.66412],[3.557081,44.664548],[3.558047,44.664685],[3.560665,44.664227],[3.561137,44.664334],[3.561223,44.665677],[3.561544,44.665998],[3.563819,44.666211],[3.564527,44.665875],[3.565986,44.663632],[3.566437,44.662609],[3.564999,44.660686],[3.565814,44.661312],[3.566415,44.661404],[3.566608,44.660488],[3.56708,44.66032],[3.568089,44.660167],[3.569505,44.65887],[3.571458,44.658229],[3.572767,44.657619],[3.573711,44.657558],[3.574741,44.657588],[3.576007,44.657451],[3.576543,44.658473],[3.578281,44.659343],[3.579247,44.65971],[3.579998,44.661099],[3.581178,44.662152],[3.581886,44.662518],[3.583517,44.662869],[3.583624,44.663128],[3.583045,44.665097],[3.584805,44.666059],[3.585813,44.66702],[3.589118,44.667096],[3.590169,44.66702],[3.592529,44.666989],[3.592873,44.66763],[3.593194,44.667707],[3.593946,44.667417],[3.594568,44.667432],[3.595319,44.667768],[3.596478,44.667661],[3.596628,44.668042],[3.596971,44.668073],[3.597744,44.66847],[3.59961,44.668744],[3.600168,44.669156],[3.598452,44.669935],[3.596563,44.671018],[3.59504,44.671568],[3.593946,44.671735],[3.593087,44.671735],[3.592572,44.671827],[3.589203,44.67198],[3.582487,44.67468],[3.583002,44.67497],[3.58341,44.675703],[3.583753,44.676893],[3.584225,44.67732],[3.586113,44.678007],[3.586671,44.678114],[3.587165,44.678068],[3.587852,44.6788],[3.587916,44.67909],[3.588581,44.680036],[3.58871,44.680555],[3.589396,44.681501],[3.590362,44.681897],[3.591413,44.682614],[3.593774,44.684018],[3.594246,44.684537],[3.594933,44.685528],[3.594697,44.685666],[3.594203,44.686215],[3.59268,44.686779],[3.590276,44.687329],[3.589611,44.687817],[3.587916,44.688991],[3.584955,44.689815],[3.582401,44.690258],[3.580856,44.690532],[3.580041,44.690913],[3.575041,44.694147],[3.572316,44.695764],[3.571072,44.696329],[3.569527,44.69735],[3.568325,44.698037],[3.567874,44.698784],[3.566029,44.699791],[3.563046,44.701103],[3.561502,44.701392],[3.560643,44.702323],[3.559141,44.704397],[3.558755,44.705388],[3.558218,44.708453],[3.558712,44.709414],[3.558776,44.71193],[3.562746,44.716002],[3.563261,44.716947],[3.564806,44.719127],[3.564785,44.721003],[3.5653,44.723717],[3.56457,44.724616],[3.564162,44.725577],[3.564227,44.726781],[3.564141,44.727696],[3.563433,44.728656],[3.561909,44.730287],[3.561201,44.730714],[3.560343,44.731415],[3.559055,44.732254],[3.55854,44.733046],[3.558004,44.733519],[3.557296,44.733961],[3.555043,44.734571],[3.552403,44.735394],[3.551631,44.735485],[3.551223,44.735653],[3.550386,44.736171],[3.549528,44.736506],[3.54558,44.738457],[3.543048,44.739448],[3.541138,44.742557],[3.540215,44.743624],[3.538477,44.74652],[3.536332,44.748638],[3.535302,44.749339],[3.534164,44.750345],[3.531783,44.751915],[3.531311,44.752753],[3.529358,44.754261],[3.528864,44.755084],[3.526611,44.755892],[3.522663,44.757705],[3.52174,44.758619],[3.521976,44.758741],[3.521848,44.758924],[3.521998,44.759061],[3.521998,44.759427],[3.521547,44.75964],[3.519723,44.759457],[3.517063,44.759503],[3.516634,44.759853],[3.515968,44.760234],[3.514917,44.761087],[3.514531,44.761483],[3.511698,44.762961],[3.511226,44.762977],[3.510733,44.76319],[3.509831,44.763038],[3.506892,44.764713],[3.507922,44.765506],[3.507621,44.765932],[3.507493,44.766252],[3.507149,44.76677],[3.507171,44.767181],[3.506548,44.767456],[3.506184,44.767806],[3.505905,44.768278],[3.505604,44.768552],[3.505154,44.769253],[3.505046,44.769634],[3.504939,44.7707],[3.504381,44.772422],[3.503716,44.773412],[3.503222,44.774235],[3.503201,44.774966],[3.502707,44.775286],[3.5023,44.775499],[3.501806,44.775849],[3.500905,44.776291],[3.500583,44.776854],[3.498952,44.777799],[3.498266,44.77789],[3.497944,44.778956],[3.498073,44.779489],[3.498695,44.780327],[3.49936,44.780556],[3.501914,44.780007],[3.502343,44.780495],[3.503587,44.78048],[3.504381,44.780114],[3.505111,44.780038],[3.505411,44.780464],[3.506527,44.780815],[3.504467,44.781774],[3.502879,44.782094],[3.505154,44.784774],[3.504918,44.784972],[3.504424,44.784988],[3.504081,44.785094],[3.503222,44.785216],[3.502107,44.785551],[3.501527,44.785886],[3.501012,44.785688],[3.499961,44.786221],[3.499017,44.787257],[3.498459,44.787927],[3.498352,44.788902],[3.497751,44.789648],[3.497751,44.791719],[3.49818,44.79283],[3.498781,44.793379],[3.499553,44.794947],[3.499618,44.795739],[3.49948,44.796222]]],"type":"MultiLineString"},"properties":{"geo_point":{"lon":3.582159921181955,"lat":44.5566591275276},"name":"GR43 Du Col des Faïsses à Ste Eulalie (Lozère) (2019)","code_gr":"GR43"}}]}