{"type":"FeatureCollection","features":[{"type":"Feature","geometry":{"coordinates":[[[1.793538,45.537945],[1.793802,45.538211],[1.793561,45.538388],[1.793595,45.538589],[1.793503,45.538968],[1.793883,45.539314],[1.794262,45.539209],[1.794492,45.539266],[1.794699,45.539523],[1.794915,45.53977],[1.79495,45.540136],[1.794566,45.540588],[1.794235,45.540698],[1.793991,45.540954],[1.795281,45.541394],[1.795752,45.541723],[1.796449,45.542956],[1.796501,45.543811],[1.796693,45.544384],[1.796571,45.544897],[1.797163,45.545092],[1.797477,45.545398],[1.797861,45.545459],[1.797965,45.546044],[1.797791,45.546557],[1.797634,45.547582],[1.797617,45.547924],[1.798227,45.548205],[1.79929,45.548351],[1.800126,45.548229],[1.800963,45.548339],[1.801433,45.548303],[1.802043,45.548412],[1.802671,45.548156],[1.802479,45.548705],[1.80281,45.54956],[1.80302,45.549853],[1.803194,45.550866],[1.803961,45.551891],[1.804919,45.552062],[1.805407,45.55244],[1.805268,45.553136],[1.805355,45.553795],[1.805982,45.554198],[1.805982,45.55443],[1.805738,45.555015],[1.805948,45.55543],[1.80593,45.556187],[1.806366,45.556797],[1.806453,45.557322],[1.806976,45.558237],[1.807394,45.558371],[1.808004,45.558432],[1.808353,45.558737],[1.808876,45.559494],[1.809555,45.560165],[1.809817,45.560885],[1.809695,45.56141],[1.809555,45.562008],[1.809869,45.562874],[1.810305,45.563289],[1.811124,45.56368],[1.811176,45.563924],[1.810863,45.564119],[1.810375,45.564473],[1.810183,45.564924],[1.810183,45.565827],[1.810305,45.566328],[1.810584,45.56645],[1.810863,45.567243],[1.810305,45.567889],[1.810322,45.568207],[1.809904,45.568914],[1.809834,45.569366],[1.810218,45.570098],[1.811211,45.570818],[1.811978,45.571196],[1.812344,45.571306],[1.812623,45.571513],[1.812919,45.571269],[1.81346,45.571049],[1.81346,45.571574],[1.813582,45.571818],[1.813669,45.572416],[1.815115,45.573014],[1.81522,45.573294],[1.815098,45.574209],[1.81583,45.574868],[1.815934,45.575368],[1.816353,45.575612],[1.816666,45.575868],[1.817189,45.575905],[1.817834,45.576088],[1.818131,45.576454],[1.818863,45.576759],[1.820187,45.577711],[1.820257,45.578003],[1.820518,45.578125],[1.820971,45.578101],[1.821512,45.578552],[1.82193,45.57915],[1.822784,45.579443],[1.823638,45.57998],[1.824161,45.580468],[1.824266,45.580882],[1.824248,45.581395],[1.825137,45.582749],[1.825172,45.583078],[1.825608,45.583139],[1.825503,45.583334],[1.825381,45.583712],[1.824701,45.584005],[1.824719,45.58453],[1.82444,45.584652],[1.823342,45.584676],[1.821547,45.584603],[1.820501,45.584957],[1.820257,45.585249],[1.819821,45.585408],[1.819333,45.585725],[1.818758,45.585737],[1.818619,45.586286],[1.81827,45.586615],[1.817416,45.586908],[1.816893,45.58775],[1.816666,45.588847],[1.816144,45.589579],[1.815202,45.590555],[1.814401,45.591092],[1.813233,45.591628],[1.811699,45.591677],[1.811263,45.591921],[1.810775,45.592421],[1.809799,45.592726],[1.809311,45.592714],[1.809015,45.59258],[1.809294,45.59308],[1.809433,45.594421],[1.809817,45.594629],[1.811159,45.595104],[1.811298,45.595263],[1.811333,45.595787],[1.811595,45.596092],[1.812361,45.596519],[1.813355,45.597946],[1.813982,45.598568],[1.814697,45.600689],[1.81454,45.601543],[1.81576,45.60247],[1.816666,45.602604],[1.817015,45.602982],[1.816823,45.603177],[1.815987,45.603433],[1.815377,45.603555],[1.815098,45.604177],[1.814296,45.604177],[1.813372,45.604372],[1.812867,45.604567],[1.811978,45.604384],[1.81156,45.604567],[1.810932,45.605262],[1.810427,45.605433],[1.808667,45.604994],[1.808231,45.604701],[1.807516,45.604677],[1.807603,45.604872],[1.807621,45.605286],[1.808091,45.605506],[1.808736,45.60603],[1.809294,45.606786],[1.810322,45.607689],[1.810549,45.608091],[1.811542,45.608944],[1.811629,45.609676],[1.812309,45.610456],[1.812309,45.612127],[1.812849,45.612443],[1.813268,45.613248],[1.813529,45.614236],[1.813216,45.615296],[1.813355,45.61554],[1.813895,45.615942],[1.813407,45.616771],[1.812727,45.617478],[1.811926,45.617893],[1.811891,45.618393],[1.811089,45.619807],[1.810932,45.620538],[1.811629,45.620355],[1.812588,45.620331],[1.813268,45.620368],[1.814296,45.620782],[1.815237,45.620624],[1.816161,45.62088],[1.816422,45.621452],[1.816056,45.622306],[1.816231,45.623732],[1.816248,45.624415],[1.816701,45.625402],[1.816876,45.626243],[1.817276,45.626706],[1.817329,45.627206],[1.817067,45.628266],[1.816928,45.629266],[1.817416,45.631667],[1.817799,45.63291],[1.817834,45.633385],[1.81773,45.633751],[1.817834,45.634068],[1.817608,45.634787],[1.817642,45.635189],[1.819019,45.635859],[1.819995,45.636493],[1.821006,45.636931],[1.821006,45.637614],[1.821268,45.638406],[1.822017,45.638942],[1.822488,45.639539],[1.82261,45.640027],[1.822871,45.640283],[1.823377,45.640441],[1.824126,45.640843],[1.824283,45.641172],[1.824771,45.641465],[1.823812,45.643963],[1.823882,45.64434],[1.825364,45.644925],[1.826026,45.644791],[1.826165,45.644925],[1.825695,45.645985],[1.825712,45.646558],[1.826427,45.64735],[1.82688,45.64752],[1.827176,45.647423],[1.827159,45.646887],[1.828501,45.646582],[1.830209,45.646351],[1.830679,45.64646],[1.830941,45.646814],[1.831603,45.647009],[1.832492,45.647898],[1.833782,45.648117],[1.835037,45.647935],[1.835647,45.647788],[1.836048,45.647557],[1.836431,45.647606],[1.836867,45.648069],[1.837651,45.648544],[1.8384,45.649299],[1.838575,45.649714],[1.838871,45.649969],[1.840231,45.650347],[1.840527,45.650981],[1.840893,45.651553],[1.841381,45.653624],[1.841607,45.653844],[1.842461,45.653929],[1.842705,45.65416],[1.842671,45.65455],[1.843507,45.655013],[1.843071,45.655525],[1.842235,45.65628],[1.841712,45.657255],[1.842026,45.657742],[1.842618,45.659849],[1.843159,45.660154],[1.843228,45.660361],[1.842915,45.660714],[1.843577,45.66097],[1.844414,45.661128],[1.845546,45.661555],[1.845982,45.661908],[1.846139,45.662237],[1.846104,45.662675],[1.846488,45.663394],[1.846819,45.663918],[1.84708,45.664624],[1.847498,45.665233],[1.847777,45.665964],[1.847847,45.667231],[1.847516,45.668997],[1.847533,45.669959],[1.847934,45.670775],[1.84776,45.671189],[1.847028,45.671433],[1.846749,45.672066],[1.846191,45.672736],[1.845912,45.673808],[1.846226,45.676085],[1.845424,45.676487],[1.845146,45.676864],[1.844431,45.677108],[1.843978,45.677863],[1.843071,45.67824],[1.843699,45.679129],[1.843978,45.679933],[1.843873,45.680371],[1.843647,45.680749],[1.843838,45.681224],[1.845337,45.682588],[1.845529,45.683756],[1.846331,45.684329],[1.84654,45.684122],[1.846592,45.683659],[1.846854,45.683525],[1.847464,45.683537],[1.84844,45.683781],[1.848788,45.683744],[1.849869,45.682892],[1.850357,45.682636],[1.851385,45.682393],[1.852082,45.682612],[1.853511,45.682709],[1.854139,45.68333],[1.854993,45.68361],[1.855446,45.683927],[1.856283,45.684244],[1.857816,45.685364],[1.858461,45.685571],[1.858932,45.686009],[1.859124,45.686776],[1.859838,45.686046],[1.860117,45.685632],[1.860396,45.685412],[1.860605,45.685218],[1.860936,45.685193],[1.861198,45.685437],[1.861581,45.685498],[1.862069,45.684877],[1.862418,45.684572],[1.862853,45.684414],[1.863359,45.684548],[1.863446,45.685157],[1.863986,45.685449],[1.864631,45.685388],[1.865084,45.685205],[1.865206,45.684962],[1.865381,45.685278],[1.865468,45.68579],[1.865293,45.686143],[1.866287,45.686484],[1.866409,45.686715],[1.866008,45.687202],[1.865224,45.687251],[1.864927,45.687494],[1.864858,45.687762],[1.86545,45.687762],[1.865973,45.687957],[1.866322,45.688395],[1.867036,45.689406],[1.867368,45.689601],[1.867524,45.689844],[1.868117,45.690124],[1.867873,45.691025],[1.868012,45.69161],[1.868012,45.692182],[1.868814,45.692705],[1.869215,45.693679],[1.869825,45.694568],[1.870731,45.694677],[1.871097,45.694872],[1.871533,45.6957],[1.871272,45.696942],[1.871359,45.697879],[1.871516,45.698232],[1.871568,45.69867],[1.871725,45.699218],[1.87176,45.700326],[1.871429,45.701117],[1.871463,45.701908],[1.87101,45.7027],[1.870888,45.703186],[1.87047,45.703612],[1.870121,45.704282],[1.86972,45.70455],[1.869389,45.705207],[1.869424,45.705463],[1.869755,45.706022],[1.869006,45.706619],[1.866374,45.706947],[1.864091,45.706351],[1.863028,45.706741],[1.862993,45.70696],[1.863307,45.707544],[1.862749,45.708883],[1.861877,45.709491],[1.862296,45.710757],[1.86193,45.711122],[1.859908,45.711207],[1.857834,45.711463],[1.857677,45.711755],[1.85813,45.713568],[1.857973,45.713945],[1.856718,45.714432],[1.857433,45.714736],[1.857851,45.715077],[1.858688,45.71515],[1.860291,45.715734],[1.862365,45.716611],[1.862923,45.716939],[1.863899,45.717803],[1.864283,45.718375],[1.8643,45.718813],[1.864736,45.718971],[1.865171,45.719628],[1.865938,45.719981],[1.869023,45.720943],[1.870243,45.720724],[1.871359,45.720748],[1.871795,45.720249],[1.871725,45.719738],[1.872335,45.718801],[1.872736,45.71874],[1.87359,45.719056],[1.874287,45.719202],[1.874792,45.719458],[1.875123,45.719872],[1.877476,45.720736],[1.878749,45.721551],[1.878958,45.721539],[1.879097,45.721174],[1.879707,45.721064],[1.879725,45.721977],[1.879934,45.722597],[1.880701,45.723327],[1.881834,45.724033],[1.882374,45.724033],[1.883158,45.72379],[1.883646,45.723826],[1.884378,45.724435],[1.884797,45.725031],[1.885058,45.725603],[1.884988,45.726029],[1.88525,45.726941],[1.885581,45.727184],[1.886365,45.727355],[1.887376,45.72845],[1.887167,45.729411],[1.887638,45.730068],[1.88769,45.730372],[1.887446,45.730652],[1.887829,45.731735],[1.888335,45.731941],[1.889032,45.7321],[1.889572,45.732452],[1.889799,45.733377],[1.889311,45.734192],[1.888805,45.734387],[1.887672,45.733937],[1.887062,45.733486],[1.886574,45.733401],[1.886383,45.734326],[1.886749,45.735068],[1.886836,45.735676],[1.887986,45.737075],[1.889136,45.737975],[1.889049,45.738876],[1.889555,45.739253],[1.889973,45.739326],[1.890409,45.739812],[1.890653,45.740639],[1.891507,45.740956],[1.891751,45.741442],[1.893302,45.742415],[1.89386,45.74244],[1.894853,45.742221],[1.895725,45.742354],[1.897311,45.743133],[1.898043,45.742963],[1.8986,45.743096],[1.899001,45.744045],[1.898548,45.74469],[1.898792,45.744787],[1.898879,45.745286],[1.900047,45.746648],[1.900221,45.747293],[1.900552,45.747743],[1.901337,45.747961],[1.90186,45.748655],[1.902295,45.748861],[1.902923,45.749166],[1.903359,45.749628],[1.903306,45.749956],[1.90301,45.750674],[1.903393,45.75189],[1.903603,45.753118],[1.904108,45.753969],[1.904596,45.755125],[1.904718,45.756912],[1.906112,45.75842],[1.906949,45.759016],[1.907507,45.75977],[1.907855,45.759551],[1.908186,45.759563],[1.909075,45.759283],[1.910086,45.759393],[1.910278,45.759028],[1.911341,45.758116],[1.911794,45.758116],[1.912456,45.758688],[1.912997,45.758943],[1.913572,45.759308],[1.914478,45.759247],[1.915594,45.759502],[1.916535,45.759855],[1.91704,45.759843],[1.917302,45.759514],[1.917215,45.758967],[1.916953,45.758627],[1.916988,45.758286],[1.917441,45.758189],[1.918905,45.758286],[1.919812,45.758602],[1.920474,45.758724],[1.920456,45.758846],[1.919916,45.759162],[1.919846,45.759296],[1.919254,45.759466],[1.919027,45.760074],[1.918609,45.760329],[1.918592,45.760487],[1.919289,45.760645],[1.920578,45.761253],[1.921241,45.761727],[1.922339,45.761813],[1.922931,45.761655],[1.923489,45.761667],[1.923942,45.762068],[1.9245,45.763491],[1.924901,45.763904],[1.924936,45.764147],[1.925703,45.764402],[1.925999,45.764731],[1.926679,45.764998],[1.927184,45.76546],[1.927567,45.766141],[1.927846,45.766251],[1.929293,45.765825],[1.929938,45.765375],[1.930339,45.764816],[1.930792,45.764731],[1.93175,45.764828],[1.932116,45.76467],[1.932291,45.764086],[1.933232,45.763673],[1.934417,45.763235],[1.93616,45.762262],[1.936613,45.762165],[1.937293,45.762165],[1.937955,45.762092],[1.939872,45.762007],[1.940326,45.761655],[1.939925,45.759745],[1.940064,45.75932],[1.940953,45.758736],[1.941877,45.75752],[1.9424,45.757082],[1.943166,45.756754],[1.944979,45.756353],[1.946147,45.755964],[1.946478,45.755587],[1.946792,45.754626],[1.947193,45.754371],[1.947454,45.754383],[1.947959,45.754577],[1.948273,45.75459],[1.947837,45.75431],[1.945188,45.753604],[1.944857,45.75386],[1.943254,45.753422],[1.942591,45.753069],[1.941755,45.752887],[1.941162,45.752838],[1.939872,45.751938],[1.93914,45.751257],[1.936875,45.750102],[1.935881,45.750394],[1.935027,45.750382],[1.935289,45.749993],[1.934574,45.748618],[1.934156,45.748168],[1.933894,45.747487],[1.933354,45.747049],[1.933371,45.746745],[1.93379,45.746332],[1.93365,45.746113],[1.933336,45.746052],[1.933145,45.745748],[1.932744,45.745529],[1.932082,45.745432],[1.932082,45.744872],[1.931646,45.744301],[1.931646,45.743923],[1.932866,45.743571],[1.934051,45.742877],[1.934469,45.742513],[1.934382,45.742245],[1.933546,45.741442],[1.932744,45.741175],[1.93196,45.740834],[1.930687,45.741199],[1.929711,45.741223],[1.92687,45.739496],[1.926713,45.739167],[1.925947,45.739082],[1.924796,45.738535],[1.923803,45.737647],[1.924343,45.737647],[1.924814,45.737513],[1.924936,45.737148],[1.924831,45.736747],[1.924936,45.736552],[1.925302,45.73654],[1.926138,45.736795],[1.926539,45.736698],[1.92891,45.735555],[1.929101,45.734934],[1.930391,45.734679],[1.933232,45.733535],[1.933476,45.73289],[1.935045,45.73283],[1.936509,45.733024],[1.939872,45.733097],[1.941005,45.733292],[1.942417,45.733231],[1.943567,45.732854],[1.945363,45.733511],[1.946757,45.733608],[1.947559,45.733608],[1.948221,45.733426],[1.949057,45.733511],[1.950522,45.733231],[1.951044,45.732963],[1.95277,45.732696],[1.953659,45.73289],[1.954722,45.733231],[1.956535,45.73345],[1.958905,45.734143],[1.960421,45.734387],[1.961171,45.734192],[1.96185,45.734289],[1.962077,45.734435],[1.96307,45.7339],[1.965772,45.732087],[1.967044,45.731467],[1.968944,45.730798],[1.970269,45.731297],[1.970983,45.731272],[1.971715,45.731418],[1.972656,45.731297],[1.973998,45.73098],[1.976561,45.730847],[1.977188,45.731248],[1.978216,45.731187],[1.978966,45.730798],[1.980116,45.729739],[1.980447,45.729143],[1.98104,45.728851],[1.98172,45.728778],[1.982556,45.728425],[1.983306,45.72772],[1.983828,45.727549],[1.98409,45.727282],[1.98456,45.727063],[1.985432,45.72727],[1.985571,45.726856],[1.988743,45.723327],[1.988743,45.722853],[1.988151,45.722135],[1.987576,45.721952],[1.987576,45.721587],[1.988011,45.720261],[1.988238,45.720176],[1.989214,45.718533],[1.989946,45.717389],[1.989807,45.716671],[1.988953,45.715661],[1.987663,45.714749],[1.985746,45.713021],[1.985606,45.712704],[1.986547,45.711657],[1.986826,45.711232],[1.987802,45.711037],[1.989894,45.710538],[1.990207,45.710014],[1.991846,45.709795],[1.993136,45.709832],[1.995628,45.709345],[1.996342,45.709041],[1.996987,45.708554],[1.997667,45.70842],[1.998312,45.707982],[2.001763,45.707166],[2.005144,45.707227],[2.006242,45.707106],[2.007044,45.70724],[2.010582,45.70769],[2.01304,45.707812],[2.013946,45.707945],[2.016647,45.708931],[2.017292,45.709394],[2.018617,45.709662],[2.01785,45.710696],[2.01778,45.712035],[2.0171,45.713179],[2.017083,45.714104],[2.018146,45.715929],[2.018599,45.716063],[2.020011,45.716951],[2.021806,45.718545],[2.022347,45.718886],[2.022957,45.719397],[2.024299,45.719202],[2.025205,45.719373],[2.025484,45.719701],[2.025571,45.720273],[2.025954,45.720492],[2.027105,45.720346],[2.028569,45.720407],[2.029249,45.720724],[2.029702,45.721636],[2.030259,45.722038],[2.031793,45.722232],[2.032612,45.722524],[2.033397,45.722719],[2.034512,45.722585],[2.03493,45.722354],[2.034704,45.721636],[2.033048,45.719044],[2.032455,45.717255],[2.033449,45.71627],[2.03683,45.715905],[2.03798,45.715406],[2.039235,45.714663],[2.039009,45.713167],[2.039532,45.712923],[2.042704,45.712716],[2.04598,45.711767],[2.04666,45.711353],[2.047009,45.710416],[2.047985,45.710234],[2.048176,45.709783],[2.049065,45.709102],[2.049693,45.708359],[2.050425,45.707787],[2.051715,45.706801],[2.052098,45.706436],[2.053091,45.706108],[2.053335,45.705694],[2.053945,45.705049],[2.054329,45.704537],[2.054852,45.704708],[2.055218,45.704671],[2.057309,45.703661],[2.058146,45.703454],[2.059767,45.703564],[2.060098,45.703345],[2.060987,45.703454],[2.061754,45.703296],[2.062102,45.702955],[2.06442,45.702322],[2.063566,45.700849],[2.062189,45.699876],[2.062433,45.699267],[2.062033,45.699522],[2.061545,45.69962],[2.061562,45.699291],[2.061196,45.698743],[2.060969,45.698123],[2.061492,45.697112],[2.061928,45.696857],[2.062137,45.696589],[2.061998,45.696418],[2.061527,45.696126],[2.061266,45.695822],[2.061667,45.69514],[2.061091,45.692182],[2.060307,45.691196],[2.06029,45.690587],[2.060551,45.688408],[2.060412,45.686326],[2.060185,45.68579],[2.059959,45.683708],[2.059035,45.682295],[2.058076,45.681772],[2.057693,45.681358],[2.055706,45.681613],[2.055619,45.68042],[2.055741,45.679872],[2.055183,45.679324],[2.053806,45.678545],[2.053806,45.677887],[2.054137,45.677729],[2.053911,45.67684],[2.054625,45.676718],[2.055357,45.676962],[2.056124,45.677108],[2.057815,45.677741],[2.059558,45.678715],[2.061719,45.679129],[2.061614,45.678727],[2.061736,45.677875],[2.062207,45.677498],[2.062189,45.67617],[2.062538,45.675573],[2.063305,45.675707],[2.064229,45.675768],[2.064856,45.676195],[2.066111,45.677705],[2.067697,45.678155],[2.069126,45.678703],[2.07188,45.681102],[2.071375,45.681528],[2.074285,45.682868],[2.074982,45.683586],[2.07547,45.684597],[2.077091,45.685498],[2.07974,45.685619],[2.079531,45.686179],[2.078625,45.687287],[2.078207,45.688639],[2.078294,45.689576],[2.07927,45.690855],[2.079566,45.690684],[2.079967,45.68926],[2.08117,45.687665],[2.081727,45.68663],[2.083139,45.685498],[2.08469,45.683342],[2.085684,45.682283],[2.087165,45.681175],[2.088089,45.679872],[2.089135,45.6793],[2.089989,45.679068],[2.092324,45.678898],[2.09656,45.679312],[2.098128,45.679373],[2.101318,45.680396],[2.101178,45.681151],[2.102276,45.682027],[2.102625,45.682624],[2.106651,45.686545],[2.109091,45.687969],[2.111026,45.689406],[2.115627,45.691524],[2.116986,45.691902],[2.118416,45.692815],[2.119182,45.69346],[2.120315,45.695493],[2.120158,45.698305],[2.121849,45.698305],[2.122476,45.698926],[2.124359,45.699644],[2.125352,45.698816],[2.126659,45.69833],[2.12835,45.697964],[2.128943,45.697623],[2.129361,45.697015],[2.129082,45.695761],[2.128646,45.695651],[2.127827,45.693886],[2.127932,45.693606],[2.128838,45.693229],[2.128978,45.692815],[2.128646,45.692559],[2.128507,45.692084],[2.128995,45.691902],[2.129466,45.691841],[2.12896,45.69066],[2.12971,45.690246],[2.130006,45.68999],[2.130738,45.689674],[2.132446,45.688578],[2.131383,45.688042],[2.131348,45.687458],[2.130877,45.687068],[2.130964,45.686277],[2.130076,45.685218],[2.129448,45.685108],[2.126991,45.685778],[2.126433,45.68551],[2.125631,45.684791],[2.124272,45.684341],[2.12354,45.684244],[2.12225,45.684329],[2.120908,45.684122],[2.120385,45.68411],[2.11967,45.684049],[2.11913,45.683903],[2.118172,45.683696],[2.117474,45.683549],[2.117091,45.683294],[2.117056,45.683075],[2.117945,45.682575],[2.118677,45.681833],[2.118747,45.681431],[2.118642,45.681126],[2.118241,45.680907],[2.118276,45.680457],[2.118677,45.68025],[2.119548,45.680103],[2.119897,45.67986],[2.119984,45.679275],[2.120455,45.678947],[2.12089,45.678801],[2.121657,45.678971],[2.123505,45.67902],[2.125614,45.679202],[2.126084,45.679324],[2.127025,45.679397],[2.128019,45.679336],[2.129256,45.679348],[2.129762,45.679422],[2.133213,45.679239],[2.134485,45.679312],[2.13635,45.679726],[2.137936,45.679836],[2.139208,45.679434],[2.140254,45.679263],[2.141091,45.678947],[2.141265,45.678654],[2.141143,45.678411],[2.140376,45.677778],[2.140272,45.6774],[2.140411,45.676231],[2.140951,45.675768],[2.141038,45.674672],[2.140916,45.6741],[2.140481,45.673771],[2.140986,45.67382],[2.141474,45.67371],[2.141265,45.673406],[2.141805,45.673004],[2.141736,45.672395],[2.141317,45.67181],[2.142171,45.671518],[2.142032,45.67125],[2.142241,45.670946],[2.142677,45.67086],[2.142868,45.670398],[2.14306,45.670044],[2.142956,45.669752],[2.14252,45.669448],[2.142659,45.669009],[2.143025,45.668887],[2.144228,45.669167],[2.144629,45.66918],[2.145657,45.669533],[2.14686,45.669521],[2.147661,45.669228],[2.148428,45.668278],[2.148655,45.667426],[2.148202,45.667158],[2.148202,45.666853],[2.148864,45.66555],[2.14923,45.66499],[2.150363,45.665075],[2.150868,45.665197],[2.151374,45.663967],[2.15181,45.662213],[2.151705,45.661945],[2.151949,45.661603],[2.152977,45.661664],[2.153587,45.661603],[2.154128,45.661323],[2.154563,45.660629],[2.154563,45.660215],[2.154738,45.659715],[2.155069,45.65935],[2.155749,45.65935],[2.15723,45.658802],[2.158886,45.657791],[2.159077,45.657864],[2.160001,45.657096],[2.160385,45.656402],[2.160454,45.655744],[2.159879,45.654648],[2.160036,45.654453],[2.161709,45.654124],[2.162058,45.653929],[2.162284,45.653563],[2.16272,45.653222],[2.162807,45.652772],[2.161866,45.652552],[2.160995,45.652625],[2.16082,45.652528],[2.160629,45.651955],[2.15845,45.648946],[2.157091,45.649287],[2.156498,45.649275],[2.155644,45.649092],[2.15486,45.649251],[2.154197,45.649287],[2.153744,45.649714],[2.153152,45.650384],[2.151252,45.6507],[2.150746,45.650713],[2.14991,45.651029],[2.14937,45.651638],[2.149213,45.652199],[2.149509,45.65282],[2.149387,45.6531],[2.148707,45.652942],[2.148149,45.652235],[2.147435,45.651846],[2.146738,45.651261],[2.145814,45.651078],[2.144873,45.650542],[2.14428,45.649896],[2.142677,45.647496],[2.142224,45.646802],[2.141666,45.64657],[2.141126,45.646485],[2.140324,45.646509],[2.138564,45.646363],[2.136594,45.646363],[2.136001,45.646265],[2.134468,45.646436],[2.134049,45.646351],[2.133875,45.644657],[2.133893,45.643938],[2.133248,45.642732],[2.132742,45.642354],[2.132829,45.641891],[2.132794,45.641404],[2.132916,45.640356],[2.132707,45.640283],[2.132394,45.639954],[2.131644,45.639856],[2.129901,45.640283],[2.12889,45.639612],[2.127269,45.639186],[2.12598,45.639527],[2.125213,45.640453],[2.124132,45.640465],[2.123487,45.640636],[2.123209,45.641002],[2.122982,45.641611],[2.121884,45.642293],[2.120646,45.64261],[2.119548,45.642671],[2.118102,45.642354],[2.117474,45.642354],[2.116341,45.642744],[2.114424,45.642683],[2.113657,45.642732],[2.111949,45.642464],[2.108777,45.642537],[2.10801,45.641757],[2.107522,45.641708],[2.10571,45.641976],[2.103653,45.64211],[2.103113,45.642744],[2.101265,45.642951],[2.100864,45.643158],[2.100934,45.641964],[2.101248,45.641501],[2.100952,45.64088],[2.100673,45.640514],[2.100655,45.638942],[2.100533,45.638199],[2.100551,45.637029],[2.099784,45.637065],[2.099435,45.637358],[2.09825,45.637394],[2.098355,45.637724],[2.096141,45.63737],[2.094747,45.637772],[2.093562,45.637565],[2.092882,45.637602],[2.092394,45.637443],[2.092045,45.636931],[2.091627,45.635652],[2.091819,45.634921],[2.092481,45.633275],[2.092969,45.632483],[2.093126,45.632008],[2.09405,45.630948],[2.09405,45.630521],[2.093823,45.629851],[2.093213,45.629643],[2.093091,45.62918],[2.093318,45.62862],[2.092987,45.628278],[2.091139,45.629778],[2.089902,45.630423],[2.089204,45.630606],[2.088682,45.630631],[2.08781,45.630033],[2.087514,45.629546],[2.086886,45.628815],[2.086782,45.628351],[2.085719,45.628108],[2.0853,45.627815],[2.085021,45.62706],[2.084568,45.626755],[2.083401,45.62673],[2.082947,45.626572],[2.082372,45.62617],[2.081431,45.625865],[2.080647,45.625451],[2.079322,45.624695],[2.077806,45.623452],[2.077283,45.623317],[2.076237,45.623403],[2.075575,45.623269],[2.076255,45.621318],[2.076359,45.62016],[2.077405,45.618868],[2.074599,45.617686],[2.073466,45.617527],[2.071462,45.617332],[2.069405,45.616796],[2.06686,45.615504],[2.066425,45.615979],[2.065327,45.616784],[2.06381,45.617381],[2.063061,45.618295],[2.062381,45.618905],[2.062207,45.619892],[2.062991,45.621867],[2.062782,45.622757],[2.062224,45.623525],[2.061614,45.62411],[2.061475,45.624768],[2.061091,45.625499],[2.059749,45.626901],[2.057728,45.628742],[2.056996,45.628607],[2.056054,45.628693],[2.054834,45.628973],[2.054085,45.629241],[2.053213,45.62918],[2.051924,45.62851],[2.051558,45.628193],[2.049484,45.629046],[2.046486,45.629034],[2.045039,45.629144],[2.044377,45.629522],[2.043994,45.630021],[2.043488,45.630326],[2.042512,45.630631],[2.041797,45.630753],[2.041065,45.630972],[2.040351,45.631057],[2.040246,45.631983],[2.03988,45.632508],[2.039305,45.632422],[2.038521,45.632483],[2.037423,45.632264],[2.036586,45.632044],[2.035837,45.632008],[2.034599,45.632544],[2.033693,45.632885],[2.032926,45.631837],[2.031758,45.631155],[2.031079,45.631106],[2.030242,45.631264],[2.029405,45.631094],[2.027784,45.630948],[2.027471,45.630704],[2.027,45.629887],[2.026495,45.629704],[2.025832,45.629668],[2.025432,45.629339],[2.025832,45.627998],[2.025867,45.627462],[2.026425,45.626743],[2.026617,45.626218],[2.026634,45.625938],[2.026843,45.625475],[2.026547,45.624902],[2.0251,45.623842],[2.029946,45.622245],[2.031183,45.621562],[2.033571,45.620038],[2.033187,45.619466],[2.032787,45.61921],[2.032473,45.618612],[2.031811,45.618454],[2.03127,45.618198],[2.030329,45.618112],[2.030085,45.617844],[2.030207,45.617552],[2.030869,45.616698],[2.030643,45.615406],[2.030225,45.615113],[2.030695,45.614784],[2.031863,45.614723],[2.032037,45.614028],[2.033292,45.61309],[2.034599,45.612334],[2.035941,45.612163],[2.037301,45.611846],[2.037928,45.611322],[2.038137,45.610603],[2.039357,45.610103],[2.039044,45.608871],[2.038224,45.607567],[2.038312,45.606372],[2.0388,45.605823],[2.039758,45.603884],[2.040682,45.603116],[2.040839,45.602519],[2.041187,45.602275],[2.040647,45.601397],[2.040455,45.600336],[2.04056,45.599897],[2.040368,45.599507],[2.040281,45.599007],[2.03988,45.59836],[2.039863,45.597665],[2.040002,45.596677],[2.039532,45.595348],[2.039706,45.594946],[2.039845,45.594946],[2.039845,45.594275],[2.039061,45.594165],[2.038835,45.592885],[2.039148,45.592348],[2.039288,45.591994],[2.039741,45.591592],[2.040281,45.590775],[2.039845,45.590226],[2.040246,45.589933],[2.040421,45.589457],[2.040909,45.588847],[2.039689,45.58825],[2.038957,45.587786],[2.038747,45.587274],[2.038451,45.586432],[2.040107,45.585896],[2.040821,45.585432],[2.04185,45.584322],[2.042076,45.5837],[2.042146,45.582712],[2.042495,45.581809],[2.042547,45.5812],[2.042913,45.58015],[2.043366,45.579699],[2.04361,45.577674],[2.043296,45.576161],[2.043418,45.575734],[2.044028,45.574905],[2.045004,45.574417],[2.045248,45.5741],[2.045998,45.573465],[2.046538,45.573258],[2.047636,45.572965],[2.048194,45.572635],[2.048699,45.572465],[2.049309,45.57216],[2.050198,45.571818],[2.049937,45.571794],[2.049885,45.571379],[2.048926,45.570464],[2.04856,45.570195],[2.047898,45.569646],[2.047183,45.568707],[2.046974,45.568024],[2.046364,45.567474],[2.045963,45.566474],[2.045963,45.565669],[2.045318,45.564241],[2.045248,45.563655],[2.04476,45.562948],[2.044551,45.561971],[2.044377,45.559457],[2.0449,45.559445],[2.047723,45.558737],[2.050146,45.557798],[2.051366,45.557468],[2.052743,45.557407],[2.054381,45.557749],[2.055357,45.558017],[2.058059,45.559933],[2.059017,45.560702],[2.059819,45.560836],[2.0609,45.560751],[2.064943,45.559958],[2.065588,45.559933],[2.065135,45.558847],[2.065327,45.557395],[2.065536,45.556895],[2.065501,45.556382],[2.06564,45.555833],[2.06707,45.554112],[2.069353,45.552819],[2.069893,45.552428],[2.071113,45.552196],[2.072507,45.551574],[2.073379,45.551293],[2.074128,45.551159],[2.075802,45.551268],[2.076499,45.551561],[2.077039,45.551781],[2.078555,45.552757],[2.079897,45.552904],[2.080699,45.552696],[2.081239,45.552599],[2.081727,45.551879],[2.082512,45.55133],[2.084429,45.550475],[2.086067,45.550024],[2.086538,45.549706],[2.08713,45.548913],[2.087636,45.548461],[2.088263,45.548193],[2.089448,45.548315],[2.090599,45.548596],[2.091279,45.548596],[2.092272,45.548168],[2.094085,45.547607],[2.094729,45.547265],[2.095322,45.546569],[2.096647,45.54613],[2.097065,45.546106],[2.096838,45.545593],[2.095984,45.54508],[2.09513,45.544946],[2.094677,45.54458],[2.094503,45.544116],[2.094555,45.543506],[2.09398,45.542956],[2.094085,45.542627],[2.094207,45.542199],[2.094067,45.541797],[2.093109,45.541662],[2.091505,45.54115],[2.090756,45.540881],[2.089222,45.540832],[2.088507,45.54104],[2.087549,45.541162],[2.086625,45.541113],[2.085265,45.541443],[2.084638,45.541247],[2.084011,45.54115],[2.083592,45.540918],[2.084359,45.540783],[2.084812,45.540454],[2.085021,45.539526],[2.085509,45.539074],[2.08673,45.539184],[2.087043,45.539038],[2.086573,45.539025],[2.084516,45.538391],[2.083157,45.538269],[2.082111,45.538574],[2.081937,45.539074],[2.081623,45.539355],[2.081518,45.539245],[2.081518,45.538684],[2.081152,45.538098],[2.081483,45.537426],[2.081449,45.536865],[2.082006,45.536389],[2.082651,45.536144],[2.084202,45.535925],[2.084324,45.535607],[2.084115,45.535192],[2.084307,45.534521],[2.085178,45.533813],[2.08598,45.533788],[2.087828,45.532433],[2.087984,45.531774],[2.087828,45.531297],[2.086782,45.530492],[2.086154,45.529625],[2.084743,45.52932],[2.082738,45.530223],[2.081117,45.531383],[2.080717,45.531884],[2.080472,45.53236],[2.079096,45.532091],[2.078677,45.532372],[2.078242,45.53247],[2.077196,45.533007],[2.077091,45.533605],[2.076917,45.533788],[2.07669,45.533764],[2.076115,45.533239],[2.075191,45.532775],[2.074808,45.532421],[2.074895,45.532018],[2.074773,45.531432],[2.075226,45.53065],[2.075104,45.530247],[2.074564,45.529881],[2.074512,45.529527],[2.073344,45.52855],[2.07195,45.528538],[2.070921,45.528672],[2.070399,45.529161],[2.069701,45.529356],[2.069405,45.529613],[2.069353,45.529857],[2.068934,45.530125],[2.068568,45.530455],[2.067836,45.530626],[2.066599,45.531615],[2.066338,45.532116],[2.066041,45.53247],[2.065623,45.532665],[2.06524,45.533068],[2.064926,45.533544],[2.064037,45.533752],[2.063409,45.533642],[2.062677,45.533947],[2.061684,45.534887],[2.060882,45.535217],[2.059906,45.535449],[2.059366,45.5359],[2.057884,45.536755],[2.056577,45.537145],[2.056054,45.537512],[2.055044,45.537719],[2.054242,45.538232],[2.052935,45.538733],[2.052011,45.538842],[2.050756,45.538378],[2.049867,45.537963],[2.04802,45.5375],[2.047584,45.537194],[2.047479,45.536852],[2.046102,45.535839],[2.045597,45.535876],[2.045527,45.536511],[2.045283,45.537121],[2.04544,45.538244],[2.045824,45.539013],[2.045754,45.539318],[2.045022,45.540234],[2.044499,45.540759],[2.043889,45.541797],[2.043994,45.542517],[2.043802,45.542956],[2.043279,45.543689],[2.042512,45.544494],[2.042111,45.545446],[2.041205,45.544629],[2.03988,45.544177],[2.03934,45.543786],[2.03866,45.54292],[2.037946,45.540844],[2.037475,45.538708],[2.035314,45.538244],[2.032926,45.5375],[2.032316,45.537255],[2.031845,45.537268],[2.030172,45.538049],[2.030172,45.538269],[2.029963,45.538378],[2.029632,45.538354],[2.027418,45.538781],[2.025728,45.539453],[2.025519,45.5401],[2.025571,45.540625],[2.025728,45.541052],[2.025222,45.541687],[2.025257,45.543457],[2.0251,45.543567],[2.023758,45.543078],[2.022782,45.543139],[2.022085,45.542932],[2.021562,45.542932],[2.021092,45.543127],[2.020813,45.543432],[2.020133,45.543615],[2.019314,45.544177],[2.018861,45.544787],[2.018687,45.545288],[2.018042,45.545874],[2.017745,45.546362],[2.018129,45.547936],[2.017275,45.547924],[2.015497,45.548181],[2.015079,45.548132],[2.014695,45.547717],[2.014486,45.547094],[2.014451,45.546691],[2.013981,45.545922],[2.013284,45.545239],[2.012203,45.545044],[2.01161,45.544629],[2.010687,45.544226],[2.009972,45.543359],[2.009641,45.543042],[2.009519,45.542712],[2.009484,45.541894],[2.008647,45.54049],[2.007933,45.539831],[2.006887,45.539233],[2.005545,45.538671],[2.002913,45.536462],[2.001345,45.534276],[2.00131,45.533312],[2.000264,45.53181],[1.999863,45.531615],[1.999375,45.532128],[1.998783,45.532995],[1.99751,45.533605],[1.995645,45.534289],[1.994408,45.534631],[1.993728,45.53485],[1.992543,45.535033],[1.992369,45.535473],[1.991916,45.535644],[1.991358,45.53601],[1.99073,45.536205],[1.990173,45.536608],[1.989772,45.537145],[1.988621,45.537255],[1.986129,45.537048],[1.985676,45.536254],[1.983567,45.535168],[1.982852,45.535143],[1.982173,45.534618],[1.983096,45.533605],[1.983706,45.533263],[1.983846,45.53275],[1.983306,45.531725],[1.983218,45.531334],[1.982504,45.530943],[1.982347,45.5296],[1.982661,45.52932],[1.983619,45.529283],[1.984072,45.529197],[1.983985,45.528758],[1.983236,45.528465],[1.981667,45.527256],[1.98029,45.525852],[1.979767,45.524582],[1.979907,45.523825],[1.979767,45.523263],[1.979471,45.523056],[1.978931,45.52286],[1.978896,45.522653],[1.979367,45.522176],[1.979872,45.522152],[1.979454,45.520784],[1.979367,45.520027],[1.979698,45.519795],[1.979314,45.519026],[1.979401,45.518537],[1.978669,45.518134],[1.978234,45.517133],[1.976787,45.51618],[1.976944,45.514678],[1.976839,45.514153],[1.977188,45.512394],[1.976874,45.511796],[1.976142,45.511442],[1.975933,45.511002],[1.976107,45.510538],[1.975358,45.509964],[1.975166,45.509414],[1.974783,45.508779],[1.974661,45.508254],[1.974277,45.507899],[1.973232,45.507838],[1.972151,45.507435],[1.971733,45.506971],[1.971227,45.505921],[1.971367,45.505322],[1.971698,45.504785],[1.971646,45.504382],[1.970931,45.504101],[1.970652,45.503881],[1.970269,45.503038],[1.969449,45.502647],[1.968386,45.501938],[1.96687,45.500473],[1.966277,45.50013],[1.966068,45.499801],[1.96572,45.498335],[1.965667,45.497186],[1.965511,45.49671],[1.965389,45.494951],[1.965179,45.494547],[1.964813,45.494389],[1.964517,45.493839],[1.964639,45.493436],[1.965092,45.49291],[1.965354,45.49175],[1.965301,45.491371],[1.964988,45.490919],[1.965232,45.490283],[1.965092,45.489856],[1.965598,45.488903],[1.965877,45.488622],[1.965789,45.488267],[1.965441,45.488096],[1.965214,45.487718],[1.965389,45.487363],[1.965284,45.486593],[1.964639,45.485799],[1.964412,45.484846],[1.963977,45.484516],[1.963227,45.484223],[1.961711,45.483196],[1.96131,45.482561],[1.960944,45.481632],[1.960474,45.481095],[1.960247,45.480545],[1.959776,45.480141],[1.959602,45.479591],[1.959288,45.479176],[1.959184,45.478748],[1.959271,45.478284],[1.959114,45.477771],[1.959166,45.477587],[1.959602,45.477709],[1.959951,45.477636],[1.961467,45.4765],[1.961938,45.476157],[1.962792,45.476194],[1.963245,45.476402],[1.963506,45.476915],[1.963314,45.478333],[1.963802,45.478736],[1.964988,45.478944],[1.966086,45.478492],[1.9668,45.478076],[1.967306,45.477917],[1.968107,45.477661],[1.968683,45.477734],[1.970879,45.477648],[1.971558,45.477697],[1.97236,45.477661],[1.973266,45.477538],[1.974608,45.477661],[1.975166,45.477428],[1.97541,45.477049],[1.975445,45.476451],[1.975863,45.474776],[1.975846,45.474605],[1.974922,45.474727],[1.973876,45.474703],[1.972238,45.474898],[1.972378,45.473945],[1.97236,45.473004],[1.972813,45.472222],[1.972953,45.47133],[1.973354,45.470706],[1.973528,45.469973],[1.974713,45.468812],[1.975393,45.468298],[1.975776,45.467638],[1.976351,45.467345],[1.976073,45.466135],[1.975654,45.465829],[1.974696,45.465536],[1.973476,45.465499],[1.973092,45.465512],[1.972569,45.465414],[1.972482,45.465133],[1.973092,45.464693],[1.973859,45.463971],[1.973598,45.463751],[1.972744,45.463837],[1.971768,45.464032],[1.971524,45.463922],[1.971733,45.463519],[1.973249,45.462773],[1.97365,45.462859],[1.974173,45.463079],[1.974556,45.463006],[1.975009,45.462676],[1.97473,45.461954],[1.974277,45.461588],[1.973615,45.46039],[1.972569,45.45924],[1.971837,45.457896],[1.971262,45.457504],[1.970199,45.457358],[1.969589,45.457456],[1.965911,45.457407],[1.963698,45.457835],[1.962478,45.457835],[1.961816,45.457724],[1.962199,45.457504],[1.962129,45.457333],[1.961589,45.457077],[1.961467,45.456661],[1.960962,45.456331],[1.960822,45.45594],[1.960596,45.455658],[1.960491,45.455304],[1.961031,45.454668],[1.961031,45.45435],[1.960648,45.454668],[1.960247,45.454839],[1.959759,45.455426],[1.95955,45.455023],[1.959271,45.454815],[1.959236,45.454497],[1.959532,45.454314],[1.959829,45.454228],[1.959794,45.45358],[1.959759,45.453152],[1.959515,45.452785],[1.958452,45.452565],[1.958243,45.451991],[1.957389,45.452198],[1.956935,45.452553],[1.955803,45.452614],[1.955384,45.453042],[1.954182,45.45314],[1.953816,45.453384],[1.953467,45.453433],[1.952927,45.45336],[1.952439,45.453702],[1.951376,45.45358],[1.950417,45.453763],[1.949319,45.453763],[1.948831,45.453922],[1.948622,45.453824],[1.948831,45.45358],[1.948569,45.453115],[1.948604,45.452651],[1.948569,45.45237],[1.948813,45.452406],[1.949145,45.452822],[1.94979,45.452944],[1.950138,45.452883],[1.949824,45.452614],[1.949546,45.451942],[1.949598,45.451367],[1.950086,45.450976],[1.950469,45.450389],[1.95,45.450072],[1.949159,45.449993],[1.948842,45.449744],[1.948524,45.44922],[1.946881,45.448395],[1.946526,45.447923],[1.946115,45.447621],[1.945517,45.447333],[1.944602,45.447818],[1.943892,45.448001],[1.94208,45.448224],[1.9418,45.447975],[1.941949,45.447412],[1.941538,45.447372],[1.941202,45.447503],[1.940884,45.447779],[1.939782,45.448067],[1.938661,45.448015],[1.935803,45.448591],[1.934832,45.448526],[1.934159,45.448814],[1.933207,45.448984],[1.931937,45.449731],[1.931731,45.450308],[1.930741,45.450832],[1.930592,45.451382],[1.930069,45.452129],[1.929527,45.453623],[1.928742,45.453283],[1.928219,45.45285],[1.92792,45.452457],[1.926426,45.451972],[1.92637,45.451409],[1.92609,45.450976],[1.926164,45.450439],[1.926015,45.450124],[1.926146,45.448866],[1.925697,45.449849],[1.92566,45.450819],[1.925473,45.451304],[1.924875,45.451959],[1.923325,45.45171],[1.923344,45.450609],[1.922653,45.449509],[1.921083,45.449377],[1.921849,45.45019],[1.921606,45.450544],[1.921121,45.450635],[1.920542,45.449967],[1.919533,45.449731],[1.918842,45.448945],[1.918748,45.448486],[1.919103,45.448159],[1.919253,45.447779],[1.918543,45.447936],[1.91759,45.44787],[1.917198,45.448277],[1.917385,45.449076],[1.917385,45.449902],[1.918001,45.451002],[1.918095,45.451422],[1.917814,45.451972],[1.917684,45.452549],[1.916993,45.452627],[1.916059,45.452444],[1.915535,45.452903],[1.914919,45.453047],[1.914601,45.453597],[1.914004,45.454147],[1.914078,45.454383],[1.915218,45.455418],[1.915237,45.455628],[1.914321,45.456139],[1.914284,45.45644],[1.915012,45.456873],[1.915125,45.457292],[1.914938,45.457725],[1.914303,45.458576],[1.91363,45.459048],[1.913443,45.459493],[1.912603,45.459913],[1.912453,45.460293],[1.912565,45.460843],[1.912285,45.46138],[1.911949,45.461786],[1.911949,45.46235],[1.911538,45.462848],[1.91109,45.462992],[1.91066,45.463503],[1.909988,45.464],[1.909166,45.464315],[1.908288,45.464472],[1.907578,45.464407],[1.9067,45.463974],[1.906196,45.463935],[1.905467,45.464276],[1.904552,45.464354],[1.903599,45.464158],[1.902441,45.463817],[1.901582,45.463856],[1.900816,45.463987],[1.899415,45.46328],[1.89906,45.462769],[1.899134,45.461839],[1.899041,45.461092],[1.898369,45.460699],[1.897976,45.460096],[1.896912,45.460397],[1.896781,45.460109],[1.896314,45.459729],[1.896146,45.458773],[1.895959,45.458498],[1.895959,45.458013],[1.895585,45.457502],[1.896146,45.456873],[1.896482,45.455903],[1.896332,45.454829],[1.895978,45.454527],[1.895847,45.454763],[1.895716,45.455445],[1.895286,45.456126],[1.894614,45.456493],[1.894035,45.457214],[1.893699,45.457423],[1.893493,45.457974],[1.892634,45.45834],[1.891831,45.458288],[1.891214,45.458485],[1.890616,45.458602],[1.890149,45.458799],[1.889085,45.458864],[1.88858,45.458602],[1.888132,45.458118],[1.887478,45.457947],[1.885704,45.458275],[1.884919,45.457869],[1.884134,45.457738],[1.883854,45.457777],[1.883425,45.457541],[1.883051,45.457227],[1.882846,45.456938],[1.882154,45.456991],[1.881127,45.456021],[1.880772,45.456231],[1.880025,45.455694],[1.87939,45.45551],[1.878699,45.454973],[1.878885,45.45458],[1.879614,45.454593],[1.87967,45.454292],[1.87939,45.454056],[1.878288,45.454069],[1.87741,45.454986],[1.875953,45.455654],[1.87485,45.455969],[1.873599,45.455903],[1.872889,45.45568],[1.870479,45.453309],[1.869508,45.45268],[1.868537,45.452785],[1.867472,45.452313],[1.867005,45.45226],[1.866538,45.452313],[1.865977,45.452326],[1.865342,45.45268],[1.864894,45.452627],[1.864053,45.452182],[1.86353,45.452064],[1.862073,45.451278],[1.861476,45.451225],[1.860691,45.451422],[1.859794,45.451278],[1.859271,45.450871],[1.858151,45.450622],[1.857422,45.450858],[1.856488,45.451461],[1.856002,45.452064],[1.855405,45.452405],[1.854844,45.453047],[1.854713,45.453597],[1.85419,45.454213],[1.853051,45.454423],[1.853331,45.454698],[1.853014,45.455143],[1.853761,45.455327],[1.853425,45.45568],[1.853368,45.456192],[1.853555,45.456794],[1.853032,45.457659],[1.853723,45.457214],[1.854844,45.457135],[1.8549,45.457266],[1.854545,45.457318],[1.854228,45.457816],[1.854415,45.458275],[1.855442,45.458576],[1.856488,45.458733],[1.8566,45.458982],[1.855722,45.45969],[1.855479,45.460358],[1.855554,45.460987],[1.85576,45.461865],[1.85576,45.462612],[1.855106,45.463974],[1.853798,45.465468],[1.853144,45.467066],[1.85363,45.467381],[1.853574,45.467734],[1.852864,45.467865],[1.852528,45.469018],[1.852752,45.469647],[1.852584,45.470118],[1.852024,45.471035],[1.852024,45.471808],[1.851762,45.472136],[1.847783,45.472804],[1.847129,45.471952],[1.846662,45.4719],[1.846625,45.471586],[1.846233,45.471363],[1.846345,45.471035],[1.847073,45.470485],[1.845953,45.470525],[1.845355,45.46987],[1.845,45.469463],[1.844421,45.46928],[1.843786,45.469319],[1.842347,45.469084],[1.841656,45.469057],[1.841488,45.468782],[1.841301,45.467996],[1.841563,45.467367],[1.841357,45.466241],[1.840535,45.465363],[1.839676,45.464852],[1.839265,45.464813],[1.838387,45.46438],[1.838425,45.463254],[1.837845,45.461891],[1.836575,45.460633],[1.835062,45.460319],[1.833811,45.460319],[1.833437,45.461288],[1.832652,45.462048],[1.831718,45.462376],[1.831345,45.462677],[1.830504,45.462585],[1.829589,45.460843],[1.829327,45.460149],[1.828842,45.459349],[1.828711,45.458668],[1.828524,45.458314],[1.828393,45.457148],[1.827721,45.456126],[1.827273,45.455838],[1.826955,45.455458],[1.826918,45.455209],[1.825461,45.454318],[1.824695,45.454187],[1.821426,45.455169],[1.820585,45.454842],[1.819857,45.454881],[1.818717,45.455248],[1.818138,45.456178],[1.818194,45.458065],[1.817167,45.458537],[1.817241,45.458681],[1.816363,45.459244],[1.816102,45.459965],[1.816943,45.459978],[1.816774,45.461341],[1.81698,45.46176],[1.817279,45.463083],[1.817129,45.464053],[1.818007,45.465481],[1.818512,45.465822],[1.818736,45.46649],[1.819128,45.467171],[1.818792,45.468324],[1.819278,45.469084],[1.822248,45.47004],[1.82363,45.47021],[1.82406,45.470446],[1.823798,45.4708],[1.824415,45.470852],[1.824938,45.471599],[1.826096,45.472358],[1.826862,45.473144],[1.829085,45.474572],[1.830243,45.474651],[1.830859,45.474965],[1.830878,45.475542],[1.83127,45.476144],[1.829533,45.475515],[1.828356,45.47562],[1.827665,45.475908],[1.827123,45.476616],[1.827048,45.477349],[1.82617,45.477886],[1.825703,45.47858],[1.824471,45.478921],[1.823537,45.479353],[1.822042,45.47989],[1.82122,45.479943],[1.819408,45.480401],[1.818568,45.480466],[1.816999,45.480139],[1.814813,45.479484],[1.81386,45.479471],[1.812721,45.479641],[1.811918,45.479484],[1.810106,45.480087],[1.810815,45.480637],[1.810461,45.481213],[1.810535,45.482366],[1.809601,45.482221],[1.809377,45.482392],[1.809489,45.483138],[1.808854,45.48361],[1.807696,45.48357],[1.806612,45.484186],[1.806725,45.484566],[1.806295,45.484867],[1.805211,45.484723],[1.805025,45.484854],[1.80495,45.485417],[1.804763,45.485666],[1.807808,45.487643],[1.807565,45.491166],[1.805865,45.492384],[1.803941,45.492724],[1.80282,45.49351],[1.801513,45.493209],[1.800859,45.493589],[1.800074,45.494296],[1.800299,45.494531],[1.800579,45.495108],[1.801121,45.495448],[1.801681,45.496142],[1.802185,45.496417],[1.803549,45.498486],[1.80439,45.499206],[1.804576,45.499507],[1.804913,45.500973],[1.804726,45.501392],[1.805118,45.501864],[1.804875,45.502427],[1.80523,45.50278],[1.805286,45.503304],[1.805043,45.503631],[1.804987,45.504705],[1.805305,45.505071],[1.805678,45.507716],[1.806388,45.507467],[1.806855,45.507637],[1.807023,45.507978],[1.806799,45.508829],[1.807192,45.509509],[1.807098,45.509981],[1.806314,45.510871],[1.806164,45.511695],[1.806276,45.512219],[1.806258,45.51269],[1.806725,45.513764],[1.806631,45.514052],[1.806145,45.51434],[1.805959,45.515295],[1.80566,45.515609],[1.805884,45.516748],[1.805791,45.518659],[1.80523,45.519025],[1.805585,45.519497],[1.805492,45.520714],[1.804147,45.522716],[1.802989,45.523201],[1.803269,45.524483],[1.803026,45.526027],[1.80282,45.526433],[1.801961,45.526577],[1.801737,45.526459],[1.800523,45.527048],[1.800074,45.527009],[1.799495,45.52659],[1.799028,45.526695],[1.798786,45.527114],[1.798767,45.52782],[1.798412,45.528566],[1.798617,45.529168],[1.798263,45.529836],[1.797852,45.530045],[1.797665,45.530385],[1.79787,45.531053],[1.79759,45.531524],[1.798375,45.532636],[1.798842,45.533329],[1.797982,45.533761],[1.797142,45.534586],[1.796955,45.534952],[1.796544,45.535371],[1.796488,45.535986],[1.796152,45.536064],[1.795404,45.53469],[1.79363,45.536836]]],"type":"MultiLineString"},"properties":{"geo_point":{"lon":1.9669359938686264,"lat":45.602209739266435},"name":"GR440 Tour de la montagne Limousine (Creuse, Corrèze) (2019)","code_gr":"GR440"}}]}