{"type":"FeatureCollection","features":[{"type":"Feature","geometry":{"coordinates":[[[4.132928,44.402698],[4.133088,44.402355],[4.132187,44.401568],[4.131826,44.401068],[4.132027,44.400124],[4.132567,44.399809],[4.133508,44.399823],[4.134169,44.39988],[4.134609,44.399995],[4.134114,44.399503],[4.133969,44.399456],[4.133996,44.399352],[4.13422,44.399334],[4.134405,44.398833],[4.134537,44.398248],[4.134788,44.397691],[4.135013,44.396899],[4.135277,44.396295],[4.135726,44.395945],[4.136439,44.3952],[4.137232,44.394602],[4.137312,44.394173],[4.137152,44.393775],[4.137166,44.393567],[4.137047,44.393227],[4.137456,44.392415],[4.137654,44.392321],[4.137615,44.391944],[4.137707,44.391821],[4.13772,44.391349],[4.138288,44.391368],[4.139345,44.39183],[4.139913,44.391906],[4.140389,44.391793],[4.140891,44.391264],[4.141075,44.390745],[4.141797,44.390181],[4.142217,44.389394],[4.142538,44.388879],[4.142638,44.388264],[4.143559,44.387534],[4.144239,44.387134],[4.144681,44.387092],[4.144906,44.386875],[4.144853,44.386667],[4.145051,44.386516],[4.144932,44.386403],[4.145263,44.386365],[4.144972,44.386129],[4.145263,44.38611],[4.145064,44.385836],[4.145196,44.385825],[4.145143,44.385688],[4.145248,44.3857],[4.145187,44.385582],[4.145501,44.385601],[4.145387,44.385457],[4.145867,44.385451],[4.145832,44.38532],[4.146119,44.38537],[4.146477,44.385252],[4.147165,44.384735],[4.147932,44.384343],[4.148167,44.383925],[4.148464,44.383614],[4.148952,44.383327],[4.14957,44.383097],[4.149762,44.382916],[4.150111,44.381845],[4.150172,44.381465],[4.150381,44.381235],[4.150651,44.381141],[4.151113,44.380986],[4.151392,44.380699],[4.15154,44.380357],[4.151601,44.380026],[4.151392,44.379597],[4.151435,44.379304],[4.151235,44.378905],[4.151366,44.378656],[4.151374,44.378432],[4.151531,44.378282],[4.15181,44.377628],[4.152708,44.377061],[4.152488,44.376588],[4.152728,44.375358],[4.153229,44.374671],[4.15415,44.374013],[4.15499,44.373655],[4.155211,44.373183],[4.15499,44.372624],[4.15435,44.371923],[4.154009,44.371551],[4.153889,44.370936],[4.153969,44.370263],[4.153689,44.368932],[4.152988,44.36836],[4.152728,44.368259],[4.152788,44.367744],[4.153189,44.367644],[4.154029,44.367945],[4.15463,44.368216],[4.155351,44.368116],[4.155191,44.367658],[4.15433,44.367716],[4.153068,44.367172],[4.152508,44.3669],[4.152127,44.366857],[4.151727,44.366957],[4.149925,44.366943],[4.149665,44.366757],[4.148524,44.366685],[4.148324,44.366857],[4.148544,44.367172],[4.147583,44.367429],[4.14524,44.367544],[4.145421,44.36736],[4.144444,44.367417],[4.144166,44.36737],[4.14377,44.36719],[4.142621,44.366945],[4.142225,44.366945],[4.141432,44.366832],[4.141366,44.366879],[4.141577,44.367115],[4.141485,44.367181],[4.140943,44.367266],[4.140653,44.367219],[4.140032,44.3672],[4.138817,44.367464],[4.1385,44.367681],[4.138302,44.36804],[4.138011,44.368163],[4.137588,44.367899],[4.137552,44.366885],[4.137352,44.366599],[4.136912,44.366184],[4.136471,44.365712],[4.136351,44.365268],[4.136792,44.364996],[4.136892,44.364595],[4.136591,44.364037],[4.136752,44.363794],[4.136792,44.363164],[4.137032,44.362835],[4.137452,44.362477],[4.138193,44.362062],[4.138473,44.361489],[4.138874,44.361232],[4.138273,44.360745],[4.138153,44.359872],[4.137192,44.359672],[4.137272,44.359314],[4.136471,44.358899],[4.136631,44.358455],[4.136511,44.35834],[4.136471,44.35771],[4.136571,44.357138],[4.136291,44.355549],[4.13541,44.354332],[4.13521,44.353745],[4.13521,44.353287],[4.13483,44.352199],[4.13489,44.351526],[4.13501,44.351125],[4.13493,44.350524],[4.13501,44.350195],[4.13491,44.349894],[4.134309,44.349092],[4.133809,44.348949],[4.133088,44.348649],[4.132747,44.34799],[4.132427,44.347589],[4.132007,44.346558],[4.130745,44.345227],[4.130485,44.344683],[4.130405,44.344081],[4.130906,44.343695],[4.130906,44.343294],[4.131066,44.342936],[4.131226,44.342048],[4.131546,44.341304],[4.132187,44.340416],[4.132627,44.34013],[4.133345,44.33982],[4.132803,44.339867],[4.132346,44.339754],[4.132159,44.339513],[4.131925,44.339533],[4.131272,44.340181],[4.13116,44.340121],[4.131384,44.339854],[4.131571,44.339146],[4.132227,44.338941],[4.132027,44.338812],[4.13172,44.338812],[4.131426,44.338898],[4.131057,44.339186],[4.130702,44.33942],[4.130478,44.3398],[4.130226,44.339994],[4.130001,44.340488],[4.12974,44.340562],[4.129348,44.340609],[4.129282,44.340756],[4.12931,44.34111],[4.129133,44.341203],[4.12861,44.341223],[4.128423,44.341303],[4.128227,44.341484],[4.127405,44.341631],[4.127134,44.341811],[4.126975,44.341791],[4.126826,44.341384],[4.127041,44.341123],[4.12693,44.340743],[4.127026,44.340363],[4.127322,44.340207],[4.128037,44.340188],[4.128472,44.339856],[4.12854,44.339658],[4.12883,44.339574],[4.128928,44.339468],[4.128793,44.339226],[4.128873,44.338935],[4.129162,44.338763],[4.12952,44.33871],[4.129785,44.338706],[4.129902,44.338609],[4.13,44.338424],[4.130253,44.338323],[4.13053,44.338265],[4.130709,44.337877],[4.130949,44.337736],[4.131251,44.337745],[4.131824,44.337917],[4.131966,44.337825],[4.131941,44.33767],[4.131701,44.337304],[4.131763,44.337124],[4.132323,44.336661],[4.13281,44.336229],[4.133057,44.336123],[4.133377,44.336176],[4.133759,44.3363],[4.134055,44.336304],[4.134178,44.336159],[4.133987,44.335841],[4.133772,44.335599],[4.133691,44.335229],[4.133833,44.334951],[4.134117,44.334708],[4.134154,44.334559],[4.133562,44.334259],[4.133494,44.334074],[4.133599,44.333924],[4.134061,44.333787],[4.134141,44.333659],[4.134098,44.333505],[4.134012,44.33332],[4.134055,44.333126],[4.134369,44.332866],[4.135318,44.332324],[4.136033,44.332064],[4.136091,44.331552],[4.136411,44.330979],[4.137172,44.331094],[4.137072,44.33075],[4.137112,44.330363],[4.136111,44.33002],[4.135951,44.32979],[4.135791,44.329361],[4.13543,44.328845],[4.13511,44.328215],[4.13511,44.327241],[4.135167,44.327005],[4.135053,44.326053],[4.135266,44.325799],[4.135294,44.325496],[4.135351,44.325323],[4.13528,44.324858],[4.13579,44.323916],[4.135676,44.323551],[4.135838,44.322743],[4.136009,44.32262],[4.136299,44.322551],[4.136449,44.322374],[4.136181,44.322044],[4.136106,44.321538],[4.136235,44.32133],[4.13617,44.320701],[4.13558,44.32011],[4.135795,44.319626],[4.135891,44.319035],[4.135838,44.318774],[4.135419,44.318368],[4.135194,44.318229],[4.135097,44.317922],[4.134572,44.317861],[4.134277,44.318338],[4.134034,44.318419],[4.133844,44.318338],[4.133639,44.318001],[4.133404,44.317844],[4.133078,44.317741],[4.132881,44.317518],[4.132691,44.317046],[4.132251,44.316807],[4.131105,44.316286],[4.130923,44.31608],[4.130885,44.31551],[4.131098,44.315038],[4.131083,44.314804],[4.130847,44.314321],[4.130415,44.313062],[4.130218,44.312687],[4.12999,44.312009],[4.130036,44.311715],[4.129778,44.311314],[4.129497,44.31109],[4.128531,44.310583],[4.12704,44.309916],[4.1269,44.309662],[4.126943,44.309125],[4.126493,44.309225],[4.125849,44.309516],[4.125291,44.309624],[4.12454,44.309731],[4.1241,44.310031],[4.123574,44.310576],[4.122866,44.31099],[4.12204,44.311075],[4.121236,44.311366],[4.120345,44.311397],[4.119691,44.311259],[4.119529,44.311393],[4.119383,44.311928],[4.118798,44.313022],[4.117887,44.314092],[4.116814,44.314442],[4.116017,44.314558],[4.115431,44.314523],[4.114748,44.31422],[4.114537,44.313953],[4.114244,44.313976],[4.114195,44.313418],[4.114065,44.313196],[4.113886,44.313359],[4.113659,44.312964],[4.113724,44.312719],[4.113512,44.311951],[4.113173,44.312081],[4.112943,44.312048],[4.112713,44.311966],[4.112575,44.312114],[4.112046,44.3119],[4.111597,44.311933],[4.111379,44.3113],[4.111517,44.311012],[4.111103,44.310444],[4.110873,44.309983],[4.110551,44.309662],[4.110528,44.308938],[4.10932,44.307942],[4.109056,44.307539],[4.108481,44.307045],[4.108297,44.306247],[4.107101,44.305334],[4.106642,44.305284],[4.105951,44.305557],[4.106577,44.305062],[4.106715,44.304888],[4.106569,44.304801],[4.106308,44.304387],[4.105902,44.304009],[4.105745,44.303953],[4.105213,44.303585],[4.104908,44.302905],[4.104595,44.302862],[4.104264,44.302893],[4.103767,44.302668],[4.10359,44.302017],[4.103701,44.301532],[4.103614,44.301259],[4.103701,44.301065],[4.104514,44.300536],[4.10481,44.300183],[4.104773,44.300059],[4.104526,44.299918],[4.104736,44.299477],[4.104613,44.299318],[4.104366,44.298719],[4.103885,44.298286],[4.103836,44.297563],[4.103713,44.297087],[4.103713,44.296743],[4.102663,44.29595],[4.102252,44.295843],[4.102159,44.295669],[4.101935,44.295562],[4.101412,44.295214],[4.101356,44.29504],[4.100328,44.295388],[4.099432,44.295415],[4.09889,44.29496],[4.098815,44.294519],[4.098442,44.294359],[4.098367,44.294211],[4.097919,44.294078],[4.097713,44.29385],[4.097788,44.29361],[4.098124,44.293463],[4.098815,44.293369],[4.098965,44.293155],[4.099002,44.292968],[4.0979,44.292955],[4.097844,44.2925],[4.097227,44.291631],[4.095733,44.29246],[4.094369,44.291604],[4.09308,44.29258],[4.091997,44.294024],[4.091792,44.294826],[4.091063,44.294639],[4.09097,44.294211],[4.090334,44.292821],[4.08955,44.292647],[4.089419,44.292259],[4.089083,44.292353],[4.088728,44.292366],[4.08841,44.29246],[4.087869,44.293048],[4.087794,44.293369],[4.088037,44.293971],[4.087943,44.294305],[4.087458,44.294666],[4.087476,44.294893],[4.087084,44.294933],[4.086804,44.29484],[4.0868,44.295109],[4.08673,44.295327],[4.086861,44.295739],[4.086852,44.295945],[4.086948,44.296095],[4.086678,44.296313],[4.086242,44.296375],[4.085074,44.296357],[4.084447,44.296475],[4.083898,44.2965],[4.083479,44.29635],[4.083131,44.296413],[4.0828,44.296282],[4.082791,44.296163],[4.08307,44.295951],[4.083366,44.295689],[4.08388,44.295477],[4.084117,44.295261],[4.084179,44.29527],[4.08392,44.294643],[4.083834,44.29429],[4.0836,44.293991],[4.083477,44.293655],[4.083304,44.29347],[4.083242,44.292764],[4.083087,44.292286],[4.082564,44.291925],[4.082078,44.29139],[4.081163,44.291444],[4.080658,44.290922],[4.080247,44.290748],[4.080322,44.290107],[4.079799,44.29012],[4.079351,44.28996],[4.079014,44.289919],[4.078417,44.289532],[4.078043,44.289023],[4.077539,44.28885],[4.077221,44.288422],[4.076922,44.287767],[4.076848,44.287392],[4.076642,44.287125],[4.07653,44.286831],[4.076922,44.286269],[4.07709,44.285787],[4.077557,44.285627],[4.077875,44.285159],[4.078024,44.284811],[4.078398,44.284664],[4.079257,44.284651],[4.079706,44.284892],[4.080098,44.284892],[4.080584,44.284664],[4.081069,44.284678],[4.082377,44.285386],[4.083591,44.285039],[4.084039,44.284932],[4.084413,44.284731],[4.085011,44.284611],[4.086281,44.284704],[4.08694,44.284975],[4.087125,44.284966],[4.087248,44.28508],[4.087075,44.285239],[4.087198,44.285354],[4.088086,44.285777],[4.088209,44.285936],[4.088985,44.286121],[4.089466,44.285963],[4.089897,44.285998],[4.090218,44.285645],[4.09145,44.28546],[4.091783,44.285248],[4.092128,44.285177],[4.092744,44.28493],[4.093361,44.284825],[4.094457,44.284869],[4.093927,44.284754],[4.093102,44.284578],[4.091894,44.284507],[4.091179,44.284101],[4.090316,44.283969],[4.089984,44.283775],[4.089602,44.283651],[4.088751,44.283034],[4.088382,44.282866],[4.087753,44.28246],[4.087689,44.282259],[4.087363,44.282025],[4.087346,44.281926],[4.087398,44.281663],[4.087289,44.28156],[4.086518,44.281408],[4.086047,44.281247],[4.085667,44.281054],[4.085529,44.281045],[4.085311,44.281115],[4.085167,44.281078],[4.085115,44.280938],[4.08524,44.280719],[4.085305,44.280343],[4.085246,44.280209],[4.085037,44.280093],[4.085085,44.280043],[4.085492,44.280174],[4.08553,44.280105],[4.085353,44.280051],[4.085122,44.279909],[4.084935,44.279713],[4.085096,44.279552],[4.085294,44.279629],[4.085428,44.27946],[4.08524,44.27939],[4.085391,44.279225],[4.085755,44.279298],[4.085863,44.279172],[4.085981,44.279191],[4.085788,44.279076],[4.086029,44.279083],[4.08612,44.278937],[4.086607,44.279076],[4.086721,44.278872],[4.086485,44.27882],[4.086428,44.278727],[4.086087,44.278727],[4.085477,44.278634],[4.085396,44.278412],[4.085424,44.278048],[4.085966,44.277987],[4.086003,44.277616],[4.085029,44.277545],[4.084573,44.277431],[4.084278,44.27744],[4.08413,44.277298],[4.084228,44.277254],[4.084475,44.277272],[4.084909,44.276918],[4.085414,44.276855],[4.085867,44.276731],[4.085902,44.276618],[4.085824,44.276575],[4.085571,44.276706],[4.08537,44.276706],[4.08524,44.276618],[4.085187,44.276381],[4.085231,44.276319],[4.085118,44.275951],[4.085083,44.275633],[4.084856,44.275333],[4.084989,44.27524],[4.085225,44.27524],[4.085526,44.275513],[4.085672,44.275833],[4.085884,44.275874],[4.086071,44.275857],[4.086672,44.276014],[4.086697,44.275938],[4.086079,44.275653],[4.085867,44.275461],[4.085875,44.275088],[4.085835,44.274873],[4.085697,44.274704],[4.085176,44.274442],[4.085209,44.274326],[4.085331,44.274302],[4.085558,44.274366],[4.085762,44.274413],[4.086217,44.274646],[4.086274,44.275024],[4.086453,44.27524],[4.08677,44.275327],[4.087217,44.275368],[4.087217,44.275315],[4.086713,44.275141],[4.086648,44.27496],[4.086794,44.274471],[4.086754,44.274331],[4.086558,44.274163],[4.086144,44.274034],[4.086005,44.273953],[4.085867,44.273866],[4.085672,44.273633],[4.085306,44.273464],[4.085168,44.273272],[4.085111,44.273097],[4.084778,44.272509],[4.084444,44.271985],[4.08429,44.271828],[4.08429,44.271613],[4.083908,44.271263],[4.083534,44.271065],[4.083257,44.270402],[4.082816,44.270507],[4.082344,44.270466],[4.082091,44.270342],[4.08193,44.270029],[4.080803,44.26947],[4.080182,44.269362],[4.079872,44.269461],[4.079768,44.269387],[4.079665,44.269173],[4.079446,44.269091],[4.07886,44.269058],[4.078308,44.269124],[4.077687,44.269124],[4.077354,44.268943],[4.077089,44.268621],[4.076526,44.268366],[4.076541,44.268247],[4.076622,44.268061],[4.076533,44.267717],[4.076273,44.267537],[4.076265,44.267193],[4.076549,44.266879],[4.07672,44.266576],[4.076752,44.266174],[4.07672,44.265843],[4.076557,44.265441],[4.076435,44.265278],[4.076362,44.26515],[4.076045,44.265022],[4.075842,44.264992],[4.075574,44.264998],[4.075435,44.264923],[4.075362,44.264754],[4.075078,44.264649],[4.074622,44.264335],[4.074476,44.264096],[4.074275,44.263969],[4.074139,44.26405],[4.073995,44.264349],[4.073608,44.264838],[4.073426,44.265213],[4.073418,44.265414],[4.073676,44.265561],[4.073676,44.265713],[4.073357,44.265821],[4.073054,44.266158],[4.072872,44.266604],[4.072789,44.266886],[4.072652,44.267071],[4.07228,44.267636],[4.07206,44.267783],[4.071946,44.267918],[4.071688,44.268022],[4.071294,44.268299],[4.070634,44.268701],[4.069708,44.269146],[4.068753,44.269554],[4.068108,44.269755],[4.067038,44.269809],[4.066712,44.270005],[4.06653,44.270292],[4.06653,44.270564],[4.066207,44.27071],[4.065686,44.270733],[4.065166,44.270594],[4.064694,44.270535],[4.06458,44.27007],[4.064239,44.269802],[4.064337,44.269383],[4.064109,44.268276],[4.063767,44.267787],[4.063507,44.267799],[4.063458,44.268241],[4.063117,44.268591],[4.06271,44.2688],[4.062271,44.268905],[4.061962,44.269161],[4.061491,44.269744],[4.061279,44.270582],[4.061231,44.271118],[4.061019,44.271385],[4.060369,44.271746],[4.060352,44.272014],[4.060645,44.272666],[4.060743,44.27354],[4.060678,44.274739],[4.060401,44.275216],[4.059962,44.275531],[4.058726,44.275868],[4.057929,44.276113],[4.057067,44.276672],[4.057198,44.277068],[4.05723,44.277417],[4.057442,44.278232],[4.05723,44.278313],[4.056059,44.278022],[4.055539,44.278011],[4.054888,44.278104],[4.053864,44.278174],[4.05201,44.278837],[4.050904,44.28013],[4.049489,44.281201],[4.04892,44.281352],[4.048091,44.281434],[4.047229,44.281329],[4.045961,44.281364],[4.044318,44.280886],[4.043017,44.280654],[4.042741,44.280141],[4.042578,44.27992],[4.042757,44.279547],[4.043993,44.278861],[4.044156,44.278523],[4.044058,44.278232],[4.043635,44.278081],[4.04279,44.276893],[4.041911,44.276299],[4.041635,44.275985],[4.041245,44.275868],[4.040822,44.275566],[4.040383,44.275391],[4.038838,44.274401],[4.037358,44.273179],[4.037082,44.272794],[4.036838,44.272003],[4.036529,44.271677],[4.035488,44.27156],[4.03513,44.271385],[4.035114,44.271188],[4.034415,44.271025],[4.033732,44.270605],[4.032886,44.270023],[4.032138,44.269814],[4.03113,44.269115],[4.029813,44.26887],[4.029195,44.268637],[4.028837,44.268416],[4.028024,44.26837],[4.027894,44.268195],[4.027585,44.268486],[4.027162,44.268533],[4.026934,44.268346],[4.026869,44.26802],[4.026414,44.268148],[4.025975,44.268032],[4.025471,44.268137],[4.024967,44.268113],[4.024576,44.268544],[4.023893,44.268684],[4.02217,44.269359],[4.021421,44.269453],[4.019649,44.269103],[4.018234,44.269068],[4.017014,44.26922],[4.016819,44.269429],[4.016527,44.269487],[4.016445,44.269627],[4.016429,44.269988],[4.015681,44.270454],[4.015014,44.271094],[4.014461,44.271467],[4.012721,44.272049],[4.009859,44.273027],[4.009209,44.273458],[4.008753,44.273575],[4.008347,44.273807],[4.007404,44.274133],[4.006721,44.274192],[4.005208,44.274262],[4.004119,44.274459],[4.003696,44.274622],[4.003062,44.27503],[4.002021,44.275507],[4.000931,44.275764],[3.999289,44.276031],[3.998102,44.27602],[3.997565,44.276381],[3.996216,44.276579],[3.99511,44.276811],[3.994459,44.277056],[3.994085,44.277335],[3.993923,44.277545],[3.993191,44.278232],[3.991971,44.27829],[3.991402,44.278511],[3.990865,44.278896],[3.990459,44.278954],[3.989987,44.278791],[3.988345,44.278663],[3.98802,44.278511],[3.987418,44.278686],[3.986946,44.278593],[3.986849,44.278255],[3.986865,44.278057],[3.98641,44.277708],[3.985938,44.277044],[3.98467,44.275833],[3.984121,44.27548],[3.983914,44.2752],[3.983626,44.27511],[3.98335,44.274657],[3.98289,44.27413],[3.982568,44.273562],[3.981591,44.272788],[3.981713,44.272308],[3.981099,44.271678],[3.980879,44.271341],[3.980644,44.270819],[3.980393,44.270819],[3.979771,44.270673],[3.979324,44.270537],[3.978929,44.270396],[3.978436,44.270347],[3.977389,44.270086],[3.976691,44.269396],[3.977101,44.269586],[3.977609,44.269646],[3.977473,44.269483],[3.977162,44.269244],[3.977169,44.269108],[3.977571,44.268755],[3.977837,44.268435],[3.977996,44.268364],[3.977996,44.268092],[3.977776,44.267951],[3.977624,44.267696],[3.977655,44.267495],[3.97745,44.26706],[3.977298,44.266821],[3.977313,44.266723],[3.977131,44.266424],[3.977131,44.266169],[3.977025,44.265859],[3.97685,44.264806],[3.977253,44.26493],[3.977162,44.264713],[3.976843,44.264322],[3.977184,44.264414],[3.977298,44.264371],[3.977275,44.26404],[3.97748,44.264103],[3.977496,44.264045],[3.977405,44.263999],[3.977314,44.263888],[3.977099,44.263715],[3.976954,44.26353],[3.976852,44.263177],[3.976917,44.26315],[3.977217,44.263534],[3.977298,44.26355],[3.977174,44.263277],[3.977239,44.263181],[3.977432,44.263023],[3.977641,44.262747],[3.977995,44.262524],[3.978505,44.262405],[3.978805,44.262378],[3.979084,44.26229],[3.979127,44.262201],[3.978977,44.262036],[3.978793,44.261497],[3.97858,44.261214],[3.97833,44.260448],[3.978269,44.260149],[3.978391,44.259938],[3.978489,44.259889],[3.978459,44.259622],[3.978656,44.259193],[3.978542,44.258943],[3.978079,44.25871],[3.977397,44.258161],[3.977399,44.257975],[3.977597,44.257417],[3.97763,44.25718],[3.977835,44.256991],[3.977842,44.256863],[3.977769,44.256703],[3.977868,44.256494],[3.977696,44.256192],[3.977723,44.255477],[3.977802,44.254716],[3.977868,44.254172],[3.977855,44.25395],[3.977921,44.25368],[3.977835,44.253259],[3.977545,44.253163],[3.977302,44.252996],[3.977143,44.252996],[3.976545,44.252427],[3.976557,44.2522],[3.976825,44.25225],[3.977099,44.252158],[3.977244,44.252024],[3.977281,44.251808],[3.977244,44.251659],[3.97711,44.251559],[3.977094,44.251409],[3.977314,44.251263],[3.977378,44.250986],[3.977405,44.250644],[3.977609,44.250433],[3.977684,44.250291],[3.977528,44.250287],[3.977303,44.250367],[3.976997,44.250575],[3.97682,44.250463],[3.977121,44.250229],[3.977759,44.249818],[3.977888,44.249564],[3.978472,44.249015],[3.978596,44.248834],[3.978569,44.248754],[3.977882,44.249234],[3.97756,44.249307],[3.977308,44.249276],[3.976702,44.249126],[3.975838,44.249069],[3.975635,44.24898],[3.97534,44.248926],[3.97513,44.248761],[3.974916,44.248519],[3.974589,44.248358],[3.974369,44.2483],[3.973623,44.248269],[3.973269,44.248223],[3.972314,44.24805],[3.971236,44.248903],[3.971172,44.248955],[3.971164,44.249391],[3.971002,44.249811],[3.970469,44.25011],[3.970093,44.250444],[3.969589,44.250487],[3.969101,44.250467],[3.969031,44.250414],[3.96909,44.250402],[3.969267,44.250417],[3.969702,44.250337],[3.969932,44.250241],[3.970109,44.249983],[3.970056,44.249926],[3.969921,44.249999],[3.969417,44.250179],[3.969101,44.250179],[3.969111,44.250125],[3.969299,44.250106],[3.96953,44.249891],[3.969578,44.249749],[3.969052,44.249361],[3.9685,44.249061],[3.968409,44.248788],[3.967894,44.247916],[3.968001,44.247101],[3.967974,44.246798],[3.967717,44.246075],[3.967695,44.245353],[3.967663,44.245191],[3.966821,44.243954],[3.966896,44.243681],[3.966762,44.243335],[3.966091,44.242701],[3.965946,44.242605],[3.965587,44.242459],[3.96541,44.241979],[3.965029,44.241306],[3.964793,44.241102],[3.964546,44.240968],[3.964337,44.24076],[3.964364,44.240587],[3.964707,44.240503],[3.9649,44.240391],[3.96497,44.240169],[3.965485,44.240015],[3.965877,44.239776],[3.966322,44.23985],[3.967175,44.239861],[3.967604,44.239738],[3.96806,44.239515],[3.968296,44.239308],[3.968657,44.239244],[3.969021,44.239271],[3.968938,44.239141],[3.96849,44.238739],[3.968384,44.238499],[3.968384,44.23819],[3.968263,44.237706],[3.968983,44.237619],[3.969856,44.237244],[3.970379,44.237075],[3.971502,44.236945],[3.971214,44.23657],[3.970865,44.236505],[3.970319,44.236505],[3.970319,44.236434],[3.970599,44.23638],[3.97063,44.236304],[3.970508,44.236276],[3.969932,44.236342],[3.969143,44.236157],[3.968839,44.236026],[3.968483,44.235956],[3.968445,44.23588],[3.969044,44.235907],[3.969621,44.235793],[3.970053,44.235619],[3.970592,44.235249],[3.971608,44.235043],[3.972466,44.234939],[3.971449,44.234711],[3.970645,44.234363],[3.970152,44.234341],[3.969704,44.234461],[3.969492,44.23457],[3.969431,44.234499],[3.969562,44.234284],[3.970324,44.233977],[3.971193,44.233785],[3.972845,44.233692],[3.973618,44.233523],[3.973939,44.233639],[3.973406,44.233015],[3.972374,44.232765],[3.971677,44.232721],[3.972177,44.232526],[3.972781,44.232163],[3.972931,44.231548],[3.972802,44.231225],[3.972051,44.230579],[3.971451,44.229806],[3.9712,44.229713],[3.971,44.229921],[3.970419,44.229871],[3.970089,44.230065],[3.970449,44.230287],[3.97095,44.230481],[3.97116,44.230918],[3.9714,44.231205],[3.97127,44.231435],[3.97062,44.23165],[3.970069,44.231628],[3.969819,44.231571],[3.969158,44.231664],[3.969238,44.231363],[3.969188,44.231054],[3.968968,44.231011],[3.968788,44.231198],[3.968447,44.231105],[3.968357,44.230839],[3.967907,44.230696],[3.967446,44.230703],[3.967246,44.230846],[3.966886,44.230889],[3.966986,44.230703],[3.966836,44.230366],[3.966225,44.230316],[3.965825,44.230093],[3.965384,44.229986],[3.965655,44.229749],[3.965184,44.229792],[3.965154,44.229649],[3.965414,44.229577],[3.965404,44.229211],[3.965134,44.229276],[3.964994,44.229211],[3.964844,44.22924],[3.964654,44.229125],[3.9643,44.229423],[3.964169,44.229417],[3.964169,44.229005],[3.96409,44.228761],[3.963838,44.228468],[3.963681,44.228031],[3.963656,44.227815],[3.963522,44.227381],[3.963575,44.227054],[3.963516,44.226773],[3.963082,44.226589],[3.96306,44.226712],[3.962905,44.226835],[3.96262,44.226954],[3.962449,44.227177],[3.962106,44.227931],[3.962004,44.227884],[3.961928,44.227696],[3.96203,44.227246],[3.962041,44.226993],[3.961784,44.226597],[3.961676,44.226577],[3.961639,44.226477],[3.961263,44.226085],[3.961253,44.225959],[3.960963,44.22592],[3.960657,44.225978],[3.960432,44.226151],[3.96019,44.226255],[3.959659,44.226354],[3.959364,44.226281],[3.95893,44.226443],[3.958898,44.226535],[3.958485,44.226666],[3.958275,44.226639],[3.957953,44.226758],[3.957857,44.226766],[3.957734,44.226854],[3.957546,44.226743],[3.957304,44.226847],[3.957229,44.226727],[3.957095,44.226689],[3.956988,44.226716],[3.956763,44.2267],[3.956537,44.2266],[3.956425,44.226677],[3.956071,44.226516],[3.956022,44.226616],[3.955861,44.226639],[3.955631,44.226508],[3.955346,44.226328],[3.955062,44.226205],[3.954794,44.226147],[3.954831,44.225997],[3.954499,44.226055],[3.954349,44.226009],[3.9543,44.22612],[3.954172,44.226135],[3.954102,44.226085],[3.953995,44.226085],[3.95386,44.225932],[3.953748,44.225885],[3.95378,44.225759],[3.953528,44.225593],[3.953506,44.225351],[3.953565,44.225209],[3.953463,44.225113],[3.953447,44.224901],[3.95327,44.22474],[3.953243,44.224432],[3.953047,44.224295],[3.953004,44.223971],[3.952757,44.223672],[3.952339,44.222951],[3.952134,44.222236],[3.952049,44.221475],[3.952824,44.221026],[3.953036,44.220581],[3.953141,44.220203],[3.953445,44.219966],[3.953709,44.2199],[3.954238,44.219218],[3.954251,44.218963],[3.954581,44.218887],[3.955577,44.218916],[3.955845,44.218639],[3.955641,44.218058],[3.955759,44.217474],[3.956569,44.216978],[3.957224,44.216913],[3.958554,44.216701],[3.959616,44.215817],[3.960351,44.214975],[3.96107,44.214271],[3.961344,44.21396],[3.961403,44.213802],[3.961338,44.213618],[3.961097,44.213437],[3.960743,44.213187],[3.960813,44.213129],[3.961247,44.213272],[3.961671,44.213218],[3.962299,44.213075],[3.962932,44.212872],[3.963355,44.212833],[3.963892,44.212714],[3.963838,44.212637],[3.963227,44.212649],[3.962889,44.212626],[3.962513,44.212626],[3.962401,44.21241],[3.961928,44.212426],[3.961886,44.212118],[3.961569,44.211841],[3.961928,44.21191],[3.962254,44.212165],[3.962656,44.212105],[3.963036,44.212182],[3.9634,44.212116],[3.964083,44.211757],[3.964424,44.211692],[3.965562,44.211725],[3.965797,44.211942],[3.965789,44.212535],[3.966328,44.212666],[3.967231,44.212383],[3.968331,44.212318],[3.968581,44.212198],[3.96939,44.211488],[3.969514,44.211145],[3.969621,44.210595],[3.969589,44.209807],[3.969852,44.209419],[3.970447,44.209057],[3.970705,44.208854],[3.970941,44.208462],[3.971012,44.208761],[3.971182,44.208975],[3.97138,44.20903],[3.971748,44.208909],[3.972116,44.20885],[3.973618,44.208127],[3.974347,44.207604],[3.976235,44.20705],[3.976364,44.206589],[3.9763,44.205943],[3.975592,44.205773],[3.974411,44.204774],[3.973832,44.204451],[3.973682,44.203943],[3.973854,44.203451],[3.97439,44.202682],[3.974476,44.201774],[3.975098,44.201297],[3.975871,44.200897],[3.976085,44.200636],[3.977609,44.19959],[3.97778,44.199067],[3.977695,44.198682],[3.977072,44.198236],[3.97733,44.197482],[3.97733,44.197128],[3.977695,44.197051],[3.978338,44.197051],[3.979175,44.196513],[3.979948,44.196359],[3.980527,44.196128],[3.981278,44.19599],[3.981771,44.195575],[3.982072,44.195159],[3.982201,44.194898],[3.983016,44.194236],[3.983831,44.193851],[3.984497,44.193359],[3.984861,44.19359],[3.985162,44.193251],[3.984561,44.192913],[3.984282,44.192528],[3.984346,44.192221],[3.984625,44.191728],[3.983982,44.190097],[3.98411,44.189344],[3.983531,44.18902],[3.983209,44.188636],[3.982737,44.18802],[3.982308,44.187559],[3.981793,44.187451],[3.981214,44.187097],[3.980913,44.186589],[3.980656,44.18662],[3.979948,44.187297],[3.980033,44.188143],[3.980141,44.188374],[3.980012,44.18862],[3.979883,44.188913],[3.978875,44.18839],[3.978167,44.18839],[3.977673,44.188559],[3.977351,44.188605],[3.976278,44.189174],[3.975356,44.189313],[3.974851,44.18919],[3.974293,44.189328],[3.974111,44.189528],[3.973768,44.189667],[3.973682,44.189528],[3.973725,44.189382],[3.9735,44.189359],[3.97366,44.188728],[3.973553,44.188359],[3.973317,44.188359],[3.972952,44.188128],[3.97321,44.187713],[3.973145,44.187497],[3.972695,44.187359],[3.972394,44.187528],[3.972008,44.188266],[3.971729,44.188528],[3.97145,44.188543],[3.970957,44.188728],[3.970914,44.189297],[3.970635,44.189497],[3.970056,44.189067],[3.969605,44.188959],[3.969262,44.188897],[3.969133,44.188805],[3.96909,44.188482],[3.96879,44.188251],[3.96879,44.188559],[3.968554,44.18902],[3.968232,44.189205],[3.967652,44.19019],[3.967373,44.191113],[3.967073,44.191498],[3.966472,44.191867],[3.965957,44.192528],[3.965507,44.192959],[3.965485,44.193344],[3.965335,44.193467],[3.964841,44.193298],[3.963962,44.193328],[3.963232,44.19359],[3.962588,44.194528],[3.961687,44.195005],[3.961129,44.195205],[3.960679,44.195575],[3.960207,44.196298],[3.960035,44.195559],[3.960271,44.19499],[3.959734,44.195221],[3.959627,44.19579],[3.959434,44.195851],[3.95937,44.196113],[3.959434,44.198036],[3.959026,44.198097],[3.958941,44.198236],[3.958576,44.197913],[3.957267,44.197159],[3.956409,44.196759],[3.955679,44.196513],[3.954499,44.197005],[3.954134,44.19699],[3.953447,44.196836],[3.952503,44.196898],[3.951752,44.197621],[3.951559,44.197713],[3.950872,44.198205],[3.95025,44.198405],[3.9498,44.198374],[3.949649,44.197867],[3.948834,44.19839],[3.948512,44.199159],[3.948298,44.199144],[3.948147,44.200051],[3.947825,44.199651],[3.947568,44.199574],[3.947053,44.199528],[3.946645,44.19939],[3.945916,44.199374],[3.945336,44.19919],[3.944778,44.199313],[3.944607,44.199174],[3.943448,44.199544],[3.942955,44.199636],[3.942375,44.200113],[3.941581,44.19979],[3.940337,44.199513],[3.938942,44.200143],[3.938642,44.200482],[3.938556,44.201728],[3.938856,44.202451],[3.939114,44.20262],[3.938792,44.203451],[3.938878,44.203789],[3.939135,44.204174],[3.939071,44.204589],[3.938792,44.204743],[3.937955,44.204804],[3.937697,44.204604],[3.937311,44.204512],[3.936796,44.204035],[3.936346,44.204081],[3.936067,44.203989],[3.935723,44.203989],[3.934994,44.203743],[3.934414,44.203758],[3.933771,44.203066],[3.933148,44.202036],[3.933041,44.201713],[3.93244,44.201436],[3.931797,44.201666],[3.931282,44.202266],[3.930938,44.203051],[3.930123,44.203343],[3.929265,44.203343],[3.928814,44.203389],[3.928406,44.203312],[3.927462,44.203389],[3.927076,44.203543],[3.92684,44.203435],[3.926604,44.203312],[3.926196,44.203482],[3.926132,44.204112],[3.926239,44.20442],[3.926153,44.204958],[3.925853,44.205035],[3.925488,44.204989],[3.924608,44.20525],[3.924072,44.205143],[3.923793,44.204758],[3.924093,44.204635],[3.924158,44.204497],[3.924758,44.204358],[3.924651,44.204066],[3.923986,44.203912],[3.923514,44.203682],[3.924029,44.203682],[3.924029,44.203358],[3.923943,44.20302],[3.923879,44.202651],[3.923578,44.202789],[3.92287,44.202974],[3.92169,44.202574],[3.920918,44.202466],[3.921647,44.202359],[3.922012,44.202174],[3.922184,44.20122],[3.921669,44.201836],[3.921669,44.201482],[3.921626,44.20099],[3.921776,44.200697],[3.92257,44.199959],[3.922634,44.199528],[3.922827,44.199236],[3.922741,44.198928],[3.922849,44.198159],[3.923278,44.197867],[3.922806,44.197159],[3.922999,44.196959],[3.923771,44.196882],[3.923793,44.196098],[3.924673,44.196021],[3.925445,44.195805],[3.927011,44.195667],[3.927441,44.195544],[3.927462,44.19539],[3.926561,44.194821],[3.927569,44.194436],[3.92772,44.194067],[3.928428,44.193451],[3.928642,44.192821],[3.928514,44.192082],[3.928149,44.191574],[3.927612,44.191267],[3.927763,44.190959],[3.927977,44.190744],[3.927934,44.190051],[3.927312,44.190436],[3.926153,44.190682],[3.92596,44.190836],[3.926067,44.191159],[3.925896,44.191421],[3.925424,44.191698],[3.925037,44.192021],[3.9236,44.192405],[3.923042,44.19239],[3.922763,44.192728],[3.922033,44.193221],[3.921475,44.193421],[3.921282,44.193636],[3.920531,44.193651],[3.919115,44.193267],[3.918879,44.193036],[3.918171,44.193036],[3.917398,44.193405],[3.916733,44.193436],[3.916347,44.193374],[3.915553,44.19339],[3.915167,44.193328],[3.914673,44.19339],[3.913536,44.193236],[3.912635,44.192944],[3.912163,44.19299],[3.910918,44.193851],[3.910189,44.194267],[3.909867,44.194328],[3.909266,44.194267],[3.908923,44.194713],[3.9077,44.195128],[3.907034,44.19519],[3.906283,44.195021],[3.905962,44.194544],[3.90609,44.194251],[3.906047,44.193744],[3.905468,44.193451],[3.90521,44.192774],[3.903987,44.192098],[3.9024,44.192082],[3.901713,44.191974],[3.901005,44.191374],[3.899353,44.191005],[3.89888,44.190728],[3.898451,44.190359],[3.898022,44.190374],[3.897357,44.190082],[3.896735,44.189928],[3.895555,44.19002],[3.895962,44.189605],[3.896499,44.189405],[3.896091,44.189282],[3.895297,44.188836],[3.893538,44.187574],[3.893495,44.187682],[3.893709,44.187882],[3.894117,44.188959],[3.893838,44.189067],[3.892851,44.188897],[3.892057,44.188513],[3.892223,44.188255],[3.892104,44.187516],[3.891972,44.187175],[3.891655,44.186948],[3.891021,44.186645],[3.89077,44.186086],[3.890849,44.185821],[3.890638,44.185574],[3.890889,44.18547],[3.890941,44.185186],[3.890704,44.184949],[3.89069,44.184476],[3.890862,44.18403],[3.89077,44.183775],[3.89069,44.182723],[3.890281,44.182079],[3.889779,44.181625],[3.889621,44.181284],[3.889317,44.180952],[3.889264,44.18063],[3.889119,44.180336],[3.889105,44.180147],[3.889237,44.179948],[3.889053,44.179465],[3.888815,44.179218],[3.888788,44.178849],[3.888234,44.178423],[3.888154,44.178195],[3.887996,44.177921],[3.888273,44.177769],[3.888458,44.177314],[3.888551,44.176718],[3.888524,44.17596],[3.888392,44.175628],[3.888113,44.17564],[3.887633,44.1758],[3.887386,44.175994],[3.887756,44.175517],[3.888237,44.175278],[3.888853,44.175145],[3.88921,44.175464],[3.889407,44.175932],[3.889407,44.176286],[3.889518,44.176445],[3.889546,44.176088],[3.889619,44.175715],[3.88983,44.175073],[3.890034,44.174747],[3.890465,44.174409],[3.890863,44.174065],[3.890944,44.17386],[3.891204,44.173615],[3.891416,44.173592],[3.891668,44.173528],[3.892871,44.17365],[3.893091,44.173592],[3.893904,44.173166],[3.894189,44.172607],[3.894473,44.171907],[3.894847,44.171224],[3.895002,44.171219],[3.895075,44.171329],[3.894945,44.171901],[3.895002,44.172047],[3.895148,44.171854],[3.895522,44.171656],[3.896042,44.171487],[3.896124,44.171335],[3.896083,44.17074],[3.896499,44.170282],[3.897316,44.169895],[3.897856,44.169565],[3.898247,44.169111],[3.898408,44.168855],[3.898879,44.168979],[3.899546,44.168888],[3.899776,44.168657],[3.899914,44.168171],[3.899857,44.167915],[3.899765,44.167709],[3.900018,44.167468],[3.900334,44.167018],[3.900667,44.166829],[3.900973,44.166452],[3.901584,44.16631],[3.902335,44.166091],[3.90292,44.165875],[3.90314,44.165737],[3.903478,44.16541],[3.90366,44.165263],[3.904207,44.16504],[3.905033,44.164509],[3.9055,44.164328],[3.905747,44.164294],[3.906037,44.16402],[3.906117,44.163874],[3.906557,44.163482],[3.906761,44.162985],[3.906916,44.162843],[3.907335,44.162589],[3.90778,44.162208],[3.908295,44.161954],[3.908783,44.161646],[3.909062,44.161546],[3.909459,44.161558],[3.909969,44.161496],[3.910559,44.161261],[3.910816,44.161138],[3.911165,44.161115],[3.911481,44.161034],[3.9119,44.160988],[3.913413,44.161261],[3.913686,44.161215],[3.913895,44.161015],[3.914164,44.160826],[3.914394,44.160645],[3.914636,44.160411],[3.915006,44.159822],[3.915049,44.159568],[3.915124,44.159514],[3.915537,44.159364],[3.915939,44.159133],[3.916031,44.158987],[3.915988,44.158787],[3.916073,44.15876],[3.916583,44.158991],[3.916894,44.159052],[3.916932,44.158983],[3.916685,44.158879],[3.916197,44.158552],[3.916025,44.158521],[3.915473,44.158667],[3.915183,44.158921],[3.914968,44.158952],[3.914791,44.158902],[3.914566,44.158798],[3.913745,44.158733],[3.913654,44.158629],[3.913375,44.158075],[3.913279,44.157497],[3.913289,44.157178],[3.91322,44.157113],[3.912855,44.156901],[3.912511,44.156497],[3.91242,44.156281],[3.912436,44.155989],[3.912629,44.155727],[3.91264,44.155485],[3.912533,44.155281],[3.91212,44.155096],[3.91176,44.154803],[3.911481,44.154534],[3.91131,44.154176],[3.910875,44.153957],[3.910714,44.15378],[3.910435,44.153506],[3.910328,44.153329],[3.910307,44.152983],[3.910516,44.152625],[3.910666,44.152459],[3.910816,44.152113],[3.910829,44.15169],[3.91054,44.150987],[3.91081,44.150612],[3.91096,44.150209],[3.910782,44.149874],[3.910586,44.149734],[3.910222,44.149419],[3.909708,44.149412],[3.909559,44.149331],[3.909503,44.149037],[3.909335,44.148789],[3.909494,44.148822],[3.909718,44.14913],[3.910278,44.149063],[3.910857,44.14913],[3.911045,44.149116],[3.910583,44.148718],[3.909922,44.148263],[3.909896,44.147912],[3.909751,44.147666],[3.909619,44.147561],[3.909447,44.147144],[3.909513,44.14685],[3.90983,44.146329],[3.910041,44.145922],[3.910345,44.145884],[3.911362,44.144775],[3.911706,44.144756],[3.912247,44.144604],[3.912577,44.144149],[3.913013,44.143855],[3.913145,44.143675],[3.913528,44.143628],[3.913806,44.143467],[3.913951,44.143306],[3.91444,44.143315],[3.914757,44.142926],[3.914783,44.142623],[3.914717,44.142187],[3.914374,44.141893],[3.914341,44.141756],[3.914209,44.14177],[3.914156,44.141661],[3.913938,44.141661],[3.913931,44.141419],[3.913786,44.14123],[3.913515,44.14104],[3.913495,44.140798],[3.913383,44.140708],[3.913284,44.140391],[3.913383,44.140253],[3.913244,44.139993],[3.913376,44.139813],[3.913317,44.139718],[3.913363,44.139571],[3.913192,44.139263],[3.913463,44.13899],[3.913491,44.138413],[3.913575,44.137924],[3.913837,44.137824],[3.913949,44.137669],[3.914328,44.137482],[3.914816,44.137192],[3.915609,44.136837],[3.91643,44.136689],[3.916508,44.13674],[3.916713,44.13674],[3.916897,44.136613],[3.917088,44.136248],[3.917336,44.136131],[3.918214,44.135968],[3.918547,44.135811],[3.918702,44.135633],[3.919283,44.135247],[3.919487,44.13517],[3.920187,44.135314],[3.920648,44.135263],[3.920688,44.135026],[3.921158,44.134861],[3.921169,44.134739],[3.921479,44.134624],[3.921639,44.134461],[3.92146,44.134343],[3.921355,44.133916],[3.921368,44.133513],[3.921447,44.133205],[3.921632,44.132978],[3.921863,44.132873],[3.921975,44.132731],[3.922001,44.132559],[3.922199,44.13229],[3.922461,44.131853],[3.922723,44.131589],[3.92242,44.131063],[3.92242,44.130778],[3.922698,44.13037],[3.922741,44.129962],[3.923128,44.1293],[3.923213,44.128545],[3.923171,44.128014],[3.923074,44.127513],[3.923095,44.126951],[3.923374,44.125958],[3.923761,44.125865],[3.924801,44.125988],[3.924791,44.125649],[3.925027,44.125003],[3.926014,44.123855],[3.926454,44.123239],[3.926647,44.122731],[3.927076,44.122453],[3.926969,44.122153],[3.927344,44.121213],[3.927966,44.120482],[3.928707,44.119881],[3.930241,44.119057],[3.932204,44.118556],[3.933502,44.118302],[3.934707,44.118165],[3.935053,44.118053],[3.935676,44.117977],[3.936611,44.117743],[3.937934,44.117453],[3.938302,44.117474],[3.938423,44.117443],[3.938706,44.117433],[3.93884,44.117336],[3.939024,44.117027],[3.939704,44.116427],[3.940001,44.115995],[3.940185,44.115411],[3.940157,44.115075],[3.93981,44.114389],[3.939485,44.113998],[3.9393,44.113241],[3.939244,44.112499],[3.939336,44.112026],[3.939511,44.111762],[3.939993,44.111439],[3.940519,44.111323],[3.940845,44.11133],[3.940898,44.111461],[3.941376,44.111624],[3.941574,44.111613],[3.94174,44.111553],[3.941976,44.111591],[3.942249,44.111526],[3.942438,44.111444],[3.942712,44.111194]]],"type":"MultiLineString"},"properties":{"geo_point":{"lon":4.014976129019778,"lat":44.251285737706866},"name":"GR44B De Vans (Ardèche) à Mialet (Gard) (2019)","code_gr":"GR44"}},{"type":"Feature","geometry":{"coordinates":[[[4.132819,44.402646],[4.131102,44.403489],[4.129557,44.403182],[4.128119,44.402324],[4.127604,44.4026],[4.126295,44.402385],[4.125544,44.401757],[4.125051,44.400944],[4.124686,44.398537],[4.125201,44.398691],[4.125223,44.398507],[4.124729,44.397924],[4.12415,44.397096],[4.123334,44.396406],[4.122412,44.396115],[4.121317,44.39521],[4.120995,44.394382],[4.12003,44.394014],[4.119407,44.393232],[4.119129,44.392604],[4.118056,44.391852],[4.117326,44.391193],[4.116446,44.391224],[4.115974,44.389874],[4.113829,44.389522],[4.111661,44.39035],[4.111533,44.389966],[4.111018,44.389905],[4.110675,44.389584],[4.110372,44.388847],[4.109322,44.389721],[4.108507,44.389767],[4.107498,44.389077],[4.106447,44.388985],[4.10679,44.387927],[4.105803,44.388019],[4.104709,44.388295],[4.104022,44.388234],[4.10412,44.387025],[4.103908,44.386732],[4.103014,44.386624],[4.102048,44.386731],[4.101855,44.385888],[4.101405,44.385535],[4.101512,44.385014],[4.101018,44.384477],[4.100053,44.384308],[4.098281,44.384556],[4.098646,44.384683],[4.098287,44.384698],[4.09812,44.384794],[4.097611,44.384752],[4.097657,44.3849],[4.096883,44.384824],[4.096383,44.384109],[4.095826,44.383403],[4.095053,44.383403],[4.094624,44.383695],[4.093916,44.383833],[4.093594,44.384216],[4.093208,44.3844],[4.092907,44.385136],[4.093057,44.385443],[4.091856,44.385366],[4.091083,44.385581],[4.08956,44.385366],[4.088916,44.385397],[4.088659,44.385673],[4.08883,44.386486],[4.088723,44.387375],[4.087736,44.388648],[4.087254,44.388966],[4.087007,44.389361],[4.087041,44.389751],[4.086834,44.390133],[4.086323,44.39022],[4.085989,44.390417],[4.085466,44.390503],[4.084995,44.390984],[4.084684,44.391218],[4.084471,44.391464],[4.084167,44.391547],[4.083902,44.391448],[4.083557,44.391004],[4.083172,44.390758],[4.082994,44.390791],[4.082373,44.391156],[4.081545,44.391403],[4.080947,44.39199],[4.080803,44.39229],[4.080792,44.3931],[4.080054,44.393478],[4.080481,44.39363],[4.080073,44.393728],[4.079882,44.39383],[4.079441,44.393806],[4.079046,44.393876],[4.07886,44.393802],[4.078297,44.393802],[4.077669,44.394044],[4.077725,44.394738],[4.077875,44.395085],[4.07823,44.394311],[4.078454,44.394257],[4.079033,44.394418],[4.079948,44.394484],[4.080733,44.394324],[4.082078,44.393683],[4.082564,44.39315],[4.082993,44.392989],[4.083386,44.393216],[4.083722,44.393897],[4.084002,44.394004],[4.084469,44.39391],[4.084562,44.39371],[4.085795,44.393657],[4.086841,44.393723],[4.086126,44.394352],[4.084401,44.396598],[4.084087,44.396677],[4.084119,44.396793],[4.083542,44.396729],[4.083282,44.397118],[4.083005,44.397316],[4.082712,44.397711],[4.082216,44.398083],[4.082029,44.398275],[4.080338,44.398844],[4.080216,44.398995],[4.080192,44.399152],[4.079948,44.399158],[4.079688,44.399367],[4.079436,44.399547],[4.079314,44.399837],[4.078988,44.399971],[4.078696,44.399971],[4.078566,44.400104],[4.078371,44.400104],[4.078102,44.400285],[4.077818,44.400296],[4.077444,44.400401],[4.077183,44.400813],[4.076777,44.401063],[4.076289,44.401237],[4.075939,44.401505],[4.07585,44.401656],[4.075671,44.401766],[4.074956,44.402091],[4.074663,44.40237],[4.074256,44.402469],[4.073809,44.402417],[4.073159,44.402184],[4.072557,44.402155],[4.072183,44.402295],[4.072093,44.402446],[4.071866,44.402573],[4.071809,44.402887],[4.071703,44.40305],[4.071581,44.4033],[4.071256,44.403416],[4.071175,44.403625],[4.070963,44.403741],[4.070858,44.403927],[4.070597,44.403654],[4.069996,44.403846],[4.06967,44.404066],[4.069361,44.40449],[4.069004,44.404723],[4.06841,44.405054],[4.066979,44.405571],[4.066727,44.40585],[4.066255,44.40603],[4.0658,44.406309],[4.065678,44.4065],[4.065572,44.406541],[4.065516,44.406918],[4.065337,44.407145],[4.065012,44.407358],[4.064982,44.407488],[4.064679,44.40771],[4.064565,44.407721],[4.064269,44.408084],[4.064049,44.40823],[4.063571,44.408436],[4.062949,44.408788],[4.062699,44.408772],[4.062403,44.408897],[4.061819,44.408946],[4.061811,44.409038],[4.061515,44.409005],[4.06109,44.409157],[4.060885,44.409374],[4.060855,44.409607],[4.0604,44.410295],[4.059049,44.411986],[4.059103,44.412154],[4.058905,44.412235],[4.058799,44.412354],[4.058511,44.412484],[4.057425,44.413552],[4.05588,44.414341],[4.054823,44.414725],[4.052986,44.415259],[4.052612,44.415503],[4.052352,44.415608],[4.051831,44.416049],[4.051164,44.416455],[4.049815,44.416874],[4.049067,44.417187],[4.047766,44.418082],[4.04653,44.418372],[4.0457,44.41836],[4.045294,44.418175],[4.045066,44.417884],[4.04479,44.41721],[4.044286,44.416885],[4.044091,44.416595],[4.044204,44.415863],[4.044074,44.415735],[4.043115,44.416258],[4.041733,44.416618],[4.040822,44.416653],[4.040106,44.41649],[4.038887,44.415782],[4.038301,44.4157],[4.037878,44.415863],[4.036366,44.41807],[4.035553,44.418627],[4.034886,44.418813],[4.034675,44.419162],[4.034789,44.419835],[4.034626,44.420312],[4.034057,44.420741],[4.033976,44.42109],[4.033293,44.421961],[4.032252,44.422274],[4.032089,44.422565],[4.031813,44.422751],[4.031715,44.423378],[4.030398,44.424005],[4.029569,44.424737],[4.028999,44.424899],[4.027308,44.425015],[4.026902,44.425155],[4.026349,44.425538],[4.024462,44.425956],[4.023275,44.426583],[4.022804,44.425979],[4.021942,44.426514],[4.021324,44.427338],[4.019925,44.427756],[4.019226,44.427768],[4.017893,44.427582],[4.017486,44.427419],[4.017031,44.427083],[4.016283,44.426908],[4.015421,44.426932],[4.014396,44.426664],[4.013632,44.426258],[4.012803,44.425968],[4.012412,44.425584],[4.012087,44.425515],[4.010656,44.425921],[4.010054,44.425898],[4.009209,44.425689],[4.008266,44.425654],[4.0069,44.42548],[4.006184,44.425213],[4.005436,44.425143],[4.004525,44.424713],[4.004151,44.424771],[4.003647,44.425085],[4.003013,44.426095],[4.002509,44.426479],[4.001468,44.426815],[4.000167,44.427129],[3.999078,44.427059],[3.998362,44.427187],[3.997289,44.427257],[3.99672,44.427431],[3.99511,44.427338],[3.994606,44.42728],[3.994297,44.427837],[3.993727,44.428232],[3.993272,44.428766],[3.990443,44.429428],[3.989581,44.429359],[3.989223,44.429637],[3.989223,44.430056],[3.988816,44.429893],[3.988112,44.429919],[3.987479,44.429727],[3.987018,44.429696],[3.986728,44.429834],[3.986717,44.429972],[3.986814,44.430125],[3.986653,44.43024],[3.986106,44.430355],[3.985076,44.430741],[3.984052,44.430892],[3.983352,44.431112],[3.982946,44.431089],[3.981889,44.431252],[3.981385,44.431542],[3.980133,44.431495],[3.97958,44.431495],[3.979059,44.431403],[3.978132,44.431077],[3.977401,44.430613],[3.97701,44.430508],[3.97675,44.430334],[3.976311,44.430253],[3.975726,44.430032],[3.97527,44.429707],[3.974652,44.429835],[3.974051,44.429881],[3.973563,44.430137],[3.973107,44.430148],[3.97262,44.429788],[3.972067,44.429231],[3.971351,44.429475],[3.970733,44.429533],[3.970245,44.429777],[3.969595,44.429858],[3.9694,44.429986],[3.969302,44.43045],[3.969123,44.430474],[3.9687,44.430346],[3.968083,44.430427],[3.966814,44.430288],[3.965562,44.430021],[3.964863,44.4298],[3.96431,44.429777],[3.963627,44.429788],[3.962911,44.429475],[3.96244,44.429428],[3.961594,44.429719],[3.960553,44.429637],[3.959155,44.429974],[3.958423,44.430334],[3.957545,44.430206],[3.956959,44.430288],[3.956439,44.430195],[3.95613,44.42987],[3.956049,44.430276],[3.955398,44.431205],[3.952878,44.432401],[3.952,44.432413],[3.951317,44.43268],[3.950926,44.432703],[3.950406,44.432796],[3.9493,44.432436],[3.948893,44.43239],[3.948259,44.432018],[3.94769,44.431867],[3.947609,44.431658],[3.947641,44.431379],[3.947349,44.431194],[3.946714,44.430903],[3.946584,44.430613],[3.946584,44.430172],[3.946259,44.429707],[3.945755,44.429591],[3.944243,44.429812],[3.943381,44.430044],[3.943007,44.429963],[3.942372,44.429649],[3.941478,44.429765],[3.940893,44.430021],[3.940876,44.430346],[3.941592,44.431008],[3.941689,44.431344],[3.941852,44.431751],[3.941088,44.431124],[3.940177,44.43088],[3.93951,44.430659],[3.938714,44.430694],[3.9386,44.430822],[3.938177,44.431008],[3.938014,44.431344],[3.937283,44.432111],[3.937087,44.433156],[3.936681,44.433667],[3.936665,44.434004],[3.935201,44.435467],[3.935112,44.435645],[3.934903,44.435898],[3.934388,44.436913],[3.934194,44.437177],[3.934194,44.437292],[3.933937,44.437338],[3.933835,44.437423],[3.933669,44.437365],[3.933594,44.437507],[3.933781,44.437641],[3.933824,44.437752],[3.933593,44.437846],[3.933244,44.437846],[3.933198,44.438062],[3.933039,44.438257],[3.932887,44.438425],[3.932652,44.438713],[3.932242,44.438891],[3.932183,44.439135],[3.931679,44.439725],[3.93155,44.440376],[3.931271,44.441195],[3.930949,44.441149],[3.930509,44.441142],[3.929932,44.441028],[3.928485,44.440715],[3.92816,44.440599],[3.926273,44.440076],[3.925363,44.440065],[3.923964,44.439844],[3.923176,44.439807],[3.922031,44.439882],[3.921265,44.440034],[3.920271,44.440159],[3.919937,44.439975],[3.919603,44.439915],[3.919307,44.439991],[3.918974,44.439969],[3.918716,44.44005],[3.918503,44.440251],[3.918605,44.440307],[3.918852,44.440349],[3.918954,44.440452],[3.918815,44.440644],[3.918461,44.44069],[3.918058,44.440812],[3.917769,44.440866],[3.917533,44.441015],[3.916894,44.44113],[3.916149,44.441329],[3.91617,44.441379],[3.916959,44.441471],[3.917066,44.441548],[3.916937,44.441659],[3.916535,44.441808],[3.916175,44.441873],[3.915328,44.441854],[3.91374,44.441969],[3.911573,44.44231],[3.911267,44.442436],[3.910487,44.442489],[3.910069,44.442402],[3.909198,44.442564],[3.908553,44.442539],[3.907803,44.442389],[3.905921,44.442178],[3.905555,44.442054],[3.904858,44.441705],[3.904544,44.441718],[3.9043,44.441942],[3.904126,44.442489],[3.903795,44.442788],[3.903307,44.442937],[3.902627,44.442837],[3.901825,44.442477],[3.901006,44.441942],[3.900309,44.44183],[3.90003,44.44178],[3.899211,44.441792],[3.898775,44.441618],[3.898549,44.441954],[3.898549,44.44229],[3.898723,44.442514],[3.899124,44.442813],[3.898967,44.443161],[3.898967,44.443335],[3.898636,44.44392],[3.896178,44.443484],[3.895237,44.443534],[3.894888,44.443136],[3.894488,44.443173],[3.894191,44.443758],[3.893878,44.444206],[3.893494,44.444293],[3.892344,44.443796],[3.891978,44.443808],[3.891821,44.444418],[3.891664,44.444828],[3.891298,44.445127],[3.890461,44.445177],[3.890183,44.445326],[3.889573,44.446085],[3.889416,44.44657],[3.888875,44.44657],[3.887621,44.446334],[3.886958,44.446384],[3.886697,44.446545],[3.886662,44.446894],[3.886495,44.446988],[3.886029,44.447],[3.885776,44.446795],[3.885765,44.44652],[3.885518,44.446138],[3.88471,44.445562],[3.884483,44.444853],[3.884448,44.44448],[3.884161,44.444164],[3.883977,44.443844],[3.883735,44.443766],[3.8835,44.44386],[3.883438,44.444144],[3.883523,44.444382],[3.883436,44.444644],[3.883275,44.444784],[3.882494,44.44501],[3.882114,44.444919],[3.881689,44.444751],[3.881528,44.444759],[3.881464,44.444837],[3.88143,44.445178],[3.880942,44.445439],[3.880813,44.44612],[3.880695,44.446258],[3.880185,44.446741],[3.880196,44.446898],[3.880636,44.447074],[3.880867,44.447227],[3.881049,44.447469],[3.880636,44.448104],[3.880405,44.448296],[3.880175,44.448307],[3.879424,44.447882],[3.878539,44.447557],[3.878329,44.447469],[3.878029,44.447449],[3.877042,44.44758],[3.876527,44.447702],[3.876248,44.447913],[3.87591,44.4481],[3.875406,44.448468],[3.8748,44.448679],[3.874784,44.448774],[3.874907,44.4491],[3.874612,44.449081],[3.874161,44.449104],[3.873496,44.449196],[3.873024,44.449165],[3.872477,44.449069],[3.872219,44.44897],[3.871999,44.448748],[3.871849,44.448686],[3.871613,44.448679],[3.870808,44.448491],[3.870422,44.448292],[3.870095,44.448254],[3.869773,44.448365],[3.869285,44.448403],[3.868732,44.448349],[3.868024,44.44846],[3.867606,44.448349],[3.867188,44.448342],[3.866914,44.448414],[3.866715,44.448541],[3.866474,44.448545],[3.865846,44.448434],[3.865707,44.448357],[3.865541,44.448154],[3.865272,44.447974],[3.865095,44.44779],[3.864543,44.447637],[3.864124,44.447798],[3.862789,44.447721],[3.86236,44.447897],[3.862263,44.448008],[3.862542,44.448277],[3.862751,44.448384],[3.86332,44.448656],[3.863282,44.44897],[3.8634,44.449425],[3.863438,44.449854],[3.863416,44.450352],[3.86347,44.451038],[3.863754,44.451692],[3.864194,44.452481],[3.864398,44.452761],[3.864398,44.452994],[3.864114,44.453171],[3.863524,44.453228],[3.862971,44.453431],[3.862488,44.453825],[3.862467,44.453936],[3.862858,44.454059],[3.86318,44.454285],[3.864264,44.454346],[3.865455,44.454346],[3.865401,44.454427],[3.865283,44.454427],[3.864473,44.454714],[3.863668,44.454897],[3.862794,44.455361],[3.862225,44.455748],[3.862054,44.455905],[3.861882,44.456027],[3.861169,44.456739],[3.860863,44.457076],[3.860503,44.457287],[3.859667,44.457582],[3.859334,44.457643],[3.858551,44.458045],[3.858004,44.458256],[3.857542,44.458363],[3.856684,44.459155],[3.856357,44.459274],[3.85603,44.459588],[3.855783,44.459707],[3.85574,44.459787],[3.855364,44.460204],[3.855193,44.460296],[3.855042,44.460499],[3.855026,44.460771],[3.85493,44.460829],[3.854726,44.460779],[3.853825,44.460335],[3.853658,44.460354],[3.853272,44.460549],[3.852929,44.460859],[3.852344,44.461254],[3.852103,44.461322],[3.851534,44.46138],[3.850794,44.461353],[3.850332,44.46125],[3.849882,44.461227],[3.849667,44.461269],[3.849319,44.461491],[3.849029,44.461648],[3.848184,44.461877],[3.847468,44.461889],[3.847127,44.46175],[3.846834,44.461517],[3.846314,44.461459],[3.845679,44.461529],[3.844752,44.461494],[3.842638,44.461134],[3.842151,44.461332],[3.841403,44.462133],[3.841191,44.462156],[3.841321,44.461401],[3.841207,44.461192],[3.840768,44.462109],[3.840378,44.462678],[3.840134,44.46298],[3.840232,44.463316],[3.839955,44.463595],[3.839484,44.463885],[3.839451,44.464175],[3.839906,44.46457],[3.840004,44.465011],[3.839614,44.465417],[3.839077,44.465626],[3.838589,44.465603],[3.837548,44.465115],[3.836882,44.464999],[3.836052,44.464732],[3.835711,44.464744],[3.835386,44.465127],[3.835044,44.465324],[3.834524,44.465301],[3.83415,44.465104],[3.833743,44.464651],[3.833354,44.464611],[3.833075,44.4646],[3.832737,44.464519],[3.83248,44.464359],[3.832158,44.463991],[3.831879,44.463834],[3.831498,44.463765],[3.831203,44.46378],[3.830833,44.463673],[3.830506,44.463237],[3.830157,44.463099],[3.829111,44.463022],[3.828853,44.46311],[3.828666,44.463309],[3.828472,44.463662],[3.827797,44.463976],[3.827668,44.464125],[3.82755,44.464535],[3.827496,44.464542],[3.826734,44.463574],[3.826681,44.463309],[3.826718,44.463072],[3.826751,44.462934],[3.826616,44.462816],[3.82579,44.462414],[3.825698,44.462298],[3.825554,44.462352],[3.825569,44.462444],[3.825463,44.462568],[3.825327,44.462622],[3.824841,44.462655],[3.82387,44.462796],[3.822451,44.463007],[3.822322,44.463175],[3.82258,44.463987],[3.822482,44.464068],[3.822345,44.464041],[3.821989,44.463776],[3.821306,44.463429],[3.821238,44.463364],[3.818992,44.462617],[3.818142,44.462568],[3.817748,44.462503],[3.81749,44.462584],[3.817368,44.462882],[3.817042,44.463028],[3.81651,44.463067],[3.81556,44.462862],[3.814889,44.462576],[3.813495,44.462352],[3.812693,44.462613],[3.811072,44.462327],[3.810157,44.46242],[3.80912,44.462669],[3.808589,44.462712],[3.80817,44.462632],[3.807874,44.462408],[3.807586,44.462389],[3.807517,44.4627],[3.80722,44.463079],[3.807944,44.463639],[3.807952,44.4639],[3.807246,44.464647],[3.806854,44.464939],[3.806436,44.465387],[3.806175,44.465393],[3.804371,44.464721],[3.803665,44.464647],[3.802602,44.464106],[3.802445,44.464143],[3.802445,44.46451],[3.802236,44.464728],[3.801739,44.464852],[3.801425,44.465188],[3.801164,44.465281],[3.800623,44.465356],[3.799691,44.465629],[3.799325,44.465891],[3.798715,44.465996],[3.798384,44.46627],[3.797992,44.466432],[3.797329,44.466506],[3.796955,44.466494],[3.796682,44.466804],[3.796528,44.467106],[3.796284,44.467251],[3.795942,44.467303],[3.79565,44.467622],[3.795324,44.468046],[3.794633,44.468568],[3.793267,44.469316],[3.792381,44.469247],[3.791714,44.468962],[3.791113,44.469003],[3.790869,44.469421],[3.790812,44.469711],[3.790665,44.469699],[3.790226,44.469276],[3.790137,44.469282],[3.789755,44.470158],[3.788966,44.470489],[3.788112,44.470651],[3.787974,44.470593],[3.787161,44.470465],[3.786868,44.470651],[3.786689,44.470993],[3.786047,44.471388],[3.785502,44.471556],[3.784949,44.471574],[3.784405,44.471545],[3.784055,44.471603],[3.783575,44.472073],[3.78299,44.472293],[3.782396,44.472322],[3.782095,44.472247],[3.781721,44.471933],[3.781234,44.471765],[3.780534,44.471695],[3.780185,44.471869],[3.779933,44.472392],[3.779485,44.472676],[3.779006,44.472792],[3.778306,44.472838],[3.777428,44.472589],[3.777127,44.472612],[3.776631,44.472995],[3.776266,44.473059],[3.775745,44.472896],[3.775111,44.472525],[3.774818,44.47231],[3.774257,44.472113],[3.773948,44.472073],[3.773534,44.471945],[3.773314,44.47198],[3.773119,44.472258],[3.772989,44.472862],[3.77317,44.473115],[3.77314,44.47332],[3.77292,44.473661],[3.772709,44.473726],[3.772414,44.473661],[3.772237,44.473562],[3.772184,44.473489],[3.772118,44.473192],[3.770271,44.47201],[3.769452,44.471028],[3.769086,44.470144],[3.768772,44.470343],[3.766593,44.470493],[3.765547,44.470418],[3.764955,44.470294],[3.764118,44.470567],[3.762393,44.470741],[3.761208,44.470144],[3.760981,44.47063],[3.760441,44.470928],[3.759639,44.471214],[3.758802,44.471774],[3.757739,44.47206],[3.756659,44.472047],[3.755317,44.471438],[3.754393,44.471886],[3.753487,44.471774],[3.75333,44.471662],[3.752615,44.471537],[3.752214,44.471376],[3.752145,44.47109],[3.75136,44.470729],[3.751134,44.470829],[3.751116,44.471301],[3.750977,44.471935],[3.750384,44.472172],[3.749408,44.472271],[3.749129,44.472234],[3.748694,44.472333],[3.747874,44.472296],[3.747404,44.472022],[3.747055,44.471761],[3.747003,44.471562],[3.746393,44.471301],[3.745173,44.471164],[3.745155,44.471537],[3.744737,44.472035],[3.743726,44.472184],[3.743186,44.472383],[3.742001,44.47252],[3.741844,44.472993],[3.741426,44.473179],[3.741025,44.47349],[3.740206,44.473776],[3.739997,44.474012],[3.739683,44.474099],[3.739264,44.474274],[3.738463,44.474099],[3.738683,44.474556],[3.739065,44.474838],[3.739656,44.475286],[3.739915,44.475831],[3.740075,44.47679],[3.740445,44.477599],[3.74047,44.478751],[3.740359,44.479454],[3.739668,44.480738],[3.739508,44.48138],[3.739371,44.481758],[3.73908,44.482192],[3.738975,44.482757],[3.74019,44.483304],[3.740269,44.48353],[3.739292,44.484359],[3.738029,44.48568],[3.737771,44.486137],[3.737536,44.486286],[3.737339,44.486172],[3.737056,44.48633],[3.736538,44.486928],[3.736349,44.48659],[3.735844,44.48659],[3.735619,44.486594],[3.735459,44.486644],[3.735201,44.486433],[3.734627,44.486192],[3.734005,44.486077],[3.733339,44.485615],[3.732729,44.485055],[3.732397,44.485155],[3.731997,44.485093],[3.731594,44.485207],[3.731066,44.485317],[3.73083,44.485149],[3.730684,44.48472],[3.730505,44.484644],[3.729984,44.484813],[3.728911,44.484865],[3.728561,44.484668],[3.728098,44.484668],[3.727545,44.484592],[3.726976,44.484621],[3.726138,44.484592],[3.724561,44.484285],[3.724179,44.484082],[3.724024,44.483699],[3.723951,44.483096],[3.723772,44.482765],[3.722455,44.482191],[3.721105,44.481808],[3.720422,44.481721],[3.719959,44.481413],[3.719575,44.481267],[3.71929,44.481087],[3.71913,44.481439],[3.718845,44.481626],[3.718325,44.481779],[3.717606,44.481814],[3.71686,44.48173],[3.716614,44.48158],[3.716415,44.481293],[3.715145,44.480584],[3.712527,44.479864],[3.712023,44.479864],[3.711373,44.47998],[3.711259,44.479516],[3.71147,44.479261],[3.711096,44.479365],[3.710299,44.479806],[3.709047,44.480317],[3.709004,44.480114],[3.709057,44.479811],[3.708405,44.479719],[3.708382,44.479605],[3.708002,44.479638],[3.70782,44.479784],[3.707016,44.480542],[3.706006,44.481094],[3.705112,44.481013],[3.704608,44.481175],[3.705063,44.48157],[3.705258,44.481988],[3.705128,44.482695],[3.704819,44.483577],[3.703437,44.484204],[3.70251,44.48447],[3.701648,44.48367],[3.700884,44.483264],[3.699014,44.483449],[3.697501,44.483763],[3.694981,44.484726],[3.692525,44.484958],[3.692411,44.484598],[3.692379,44.484157],[3.69181,44.48331],[3.6902,44.483183],[3.689744,44.483113],[3.689224,44.483136],[3.687988,44.48374],[3.687435,44.483693],[3.686394,44.48309],[3.685776,44.482985],[3.685175,44.482974],[3.684297,44.482695],[3.683044,44.482869],[3.682638,44.482765],[3.681906,44.482301],[3.680508,44.48215],[3.679564,44.482347],[3.678898,44.482266],[3.678328,44.48222],[3.677662,44.4807],[3.676426,44.479888],[3.676296,44.479458],[3.676572,44.479006],[3.677792,44.477996],[3.678215,44.477613],[3.678572,44.477451],[3.67884,44.477034],[3.67903,44.476893],[3.67906,44.476709],[3.678909,44.47666],[3.678544,44.476915],[3.677634,44.477207],[3.677315,44.47751],[3.676458,44.477857],[3.675722,44.47797],[3.675191,44.477657],[3.674205,44.477759],[3.673879,44.477732],[3.673477,44.477781],[3.672559,44.477667],[3.672597,44.477435],[3.672103,44.477678],[3.671709,44.477808],[3.67158,44.477949],[3.671421,44.477559],[3.671292,44.477813],[3.671186,44.477841],[3.670981,44.477462],[3.670988,44.477315],[3.670783,44.47731],[3.670579,44.477472],[3.670495,44.477759],[3.670495,44.477992],[3.670192,44.478306],[3.670199,44.478404],[3.669957,44.478474],[3.669873,44.478604],[3.669251,44.47895],[3.668454,44.479237],[3.667916,44.479795],[3.667514,44.480433],[3.666994,44.480549],[3.666734,44.480769],[3.666408,44.48092],[3.667075,44.481083],[3.667449,44.481291],[3.668051,44.481964],[3.668148,44.482742],[3.668571,44.483206],[3.669254,44.483577],[3.669027,44.484111],[3.669596,44.485155],[3.668978,44.485886],[3.669628,44.486095],[3.669916,44.486724],[3.669691,44.487191],[3.669691,44.487589],[3.66982,44.488125],[3.669659,44.488416],[3.669189,44.488763],[3.668848,44.489123],[3.668197,44.489517],[3.667319,44.48961],[3.667075,44.489842],[3.66701,44.490712],[3.667514,44.491014],[3.667986,44.491512],[3.668165,44.491872],[3.667352,44.491976],[3.666457,44.492324],[3.665986,44.492858],[3.665709,44.493566],[3.665335,44.495387],[3.663644,44.493832],[3.663579,44.493589],[3.6634,44.493218],[3.66353,44.492614],[3.663107,44.491292],[3.662099,44.491048],[3.660408,44.49026],[3.658977,44.489784],[3.658326,44.489389],[3.657416,44.489146],[3.655562,44.489146],[3.654456,44.488844],[3.653838,44.488856],[3.653171,44.489123],[3.652082,44.489331],[3.650695,44.489364],[3.650361,44.489299],[3.650095,44.489061],[3.649875,44.488747],[3.649693,44.488898],[3.649708,44.488693],[3.650004,44.48839],[3.649997,44.487827],[3.649893,44.487564],[3.649235,44.487428],[3.649462,44.486857],[3.649405,44.486751],[3.649157,44.486615],[3.649037,44.486388],[3.64869,44.486125],[3.64835,44.486029],[3.647996,44.48608],[3.646779,44.486787],[3.646057,44.486984],[3.645512,44.487009],[3.645052,44.486948],[3.644648,44.486792],[3.644195,44.486458],[3.643728,44.486246],[3.643162,44.48606],[3.642998,44.485898],[3.642676,44.485086],[3.643063,44.483888],[3.642836,44.483827],[3.642383,44.484231],[3.641916,44.484393],[3.64159,44.484393],[3.640967,44.484252],[3.640371,44.484238],[3.640334,44.484178],[3.639222,44.484025],[3.63826,44.483832],[3.637849,44.483652],[3.637952,44.483572],[3.638512,44.483492],[3.638475,44.483352],[3.636364,44.483012],[3.635393,44.482639],[3.635309,44.481852],[3.635019,44.481906],[3.634347,44.482199],[3.633329,44.482652],[3.633058,44.482645],[3.632563,44.482399],[3.631872,44.482299],[3.630872,44.482352],[3.630302,44.482272],[3.629537,44.482286],[3.628855,44.482126],[3.628023,44.481666],[3.627463,44.481559],[3.627525,44.480072],[3.627565,44.479415],[3.627825,44.478815],[3.628586,44.478315],[3.629026,44.477901],[3.629747,44.477015],[3.630568,44.476344],[3.631389,44.47613],[3.631689,44.475587],[3.631849,44.474387],[3.63237,44.473473],[3.633731,44.472072],[3.633631,44.471415],[3.63251,44.470901],[3.630988,44.470301],[3.630608,44.469901],[3.630187,44.467943],[3.629767,44.4672],[3.629407,44.465715],[3.629447,44.464243],[3.629887,44.462557],[3.630007,44.461785],[3.629927,44.460928],[3.629867,44.459613],[3.629727,44.45897],[3.629367,44.45837],[3.627825,44.45767],[3.627463,44.457284],[3.627089,44.457064],[3.626716,44.456931],[3.626324,44.456264],[3.626268,44.455864],[3.626277,44.455171],[3.626003,44.454111],[3.626183,44.452882],[3.626103,44.452468],[3.625663,44.452025],[3.625683,44.45171],[3.626363,44.450996],[3.626664,44.450296],[3.626784,44.449767],[3.627104,44.449395],[3.627224,44.448966],[3.627625,44.448523],[3.627705,44.447923],[3.627625,44.447537],[3.626864,44.446808],[3.625503,44.445879],[3.624862,44.445536],[3.624081,44.445293],[3.62334,44.445136],[3.622317,44.44451],[3.621523,44.443963],[3.62043,44.442909],[3.620047,44.442683],[3.619627,44.442696],[3.619375,44.442583],[3.618627,44.442109],[3.61831,44.442042],[3.618002,44.441802],[3.61746,44.441642],[3.617161,44.441429],[3.616601,44.441249],[3.615956,44.440916],[3.615601,44.440669],[3.615256,44.440575],[3.61406,44.439902],[3.613891,44.43984],[3.61356,44.439433],[3.613,44.439047],[3.61288,44.438732],[3.612709,44.438711],[3.612429,44.438268],[3.612359,44.437989],[3.612009,44.437581],[3.611618,44.437353],[3.611388,44.437095],[3.611078,44.436917],[3.610897,44.436595],[3.610677,44.436481],[3.610577,44.436331],[3.610377,44.436266],[3.609876,44.435795],[3.609606,44.435523],[3.609496,44.435309],[3.609226,44.434973],[3.609056,44.434594],[3.609091,44.43438],[3.609045,44.434047],[3.609129,44.433733],[3.609054,44.4331],[3.608998,44.432919],[3.608989,44.432759],[3.60854,44.432132],[3.607597,44.431052],[3.607522,44.430819],[3.606924,44.430425],[3.606532,44.430085],[3.605963,44.430261],[3.604417,44.430629],[3.603215,44.431006],[3.6027,44.431016],[3.601392,44.431374],[3.60093,44.431638],[3.600904,44.43177],[3.599992,44.43228],[3.599372,44.432723],[3.599213,44.433006],[3.599147,44.433496],[3.599279,44.433968],[3.598064,44.433308],[3.597866,44.433581],[3.59795,44.43394],[3.597836,44.434058],[3.597575,44.434151],[3.597383,44.434077],[3.597026,44.433803],[3.596198,44.433535],[3.595553,44.433336],[3.595445,44.433328],[3.595303,44.43317],[3.595401,44.432915],[3.59526,44.432576],[3.595081,44.432457],[3.595019,44.432334],[3.594761,44.432158],[3.594415,44.43207],[3.594298,44.431872],[3.593399,44.431749],[3.593257,44.431524],[3.592961,44.431335],[3.592585,44.431357],[3.592179,44.43152],[3.591723,44.431603],[3.591106,44.431339],[3.590201,44.431251],[3.589609,44.431106],[3.589363,44.431124],[3.589135,44.431221],[3.588765,44.431089],[3.588463,44.430904],[3.588179,44.43086],[3.587804,44.430631],[3.587076,44.430415],[3.587015,44.430191],[3.586781,44.430217],[3.586497,44.430477],[3.586226,44.430578],[3.586367,44.430365],[3.58646,44.430092],[3.586629,44.430011],[3.586909,44.429998],[3.587338,44.429911],[3.587787,44.429838],[3.587217,44.429831],[3.586787,44.429725],[3.586488,44.429438],[3.58633,44.429131],[3.586283,44.428798],[3.585788,44.427904],[3.5852,44.428127],[3.584782,44.428476],[3.58446,44.42893],[3.584355,44.429248],[3.584416,44.429447],[3.584041,44.429534],[3.583597,44.429671],[3.58188,44.429795],[3.581488,44.429689],[3.580756,44.429652],[3.580503,44.429565],[3.579989,44.429273],[3.57971,44.429223],[3.57951,44.429602],[3.579414,44.430125],[3.578987,44.430772],[3.579022,44.431108],[3.578743,44.431519],[3.578516,44.431569],[3.578255,44.431531],[3.577628,44.431812],[3.577331,44.431836],[3.575571,44.432851],[3.574124,44.433909],[3.57402,44.434039],[3.573567,44.434388],[3.57314,44.434531],[3.572774,44.43496],[3.572198,44.435278],[3.571536,44.435819],[3.570028,44.436777],[3.569122,44.437462],[3.568347,44.438127],[3.567475,44.439111],[3.566272,44.440174],[3.566107,44.440174],[3.565026,44.440797],[3.564608,44.441145],[3.564042,44.4415],[3.563859,44.441767],[3.563497,44.441918],[3.563166,44.441824],[3.563047,44.441419],[3.562334,44.440711],[3.561938,44.440494],[3.56137,44.439815],[3.560908,44.439457],[3.560353,44.439099],[3.560168,44.438023],[3.559508,44.437071],[3.559006,44.436552],[3.558728,44.435967],[3.55783,44.435119],[3.557315,44.434185],[3.556866,44.433534],[3.556839,44.433072],[3.557064,44.432732],[3.557183,44.432235],[3.55748,44.431774],[3.557741,44.431513],[3.558002,44.431457],[3.558447,44.431544],[3.558778,44.431469],[3.559414,44.431363],[3.559493,44.431251],[3.559153,44.430965],[3.5591,44.430754],[3.559205,44.430492],[3.559118,44.430368],[3.558656,44.430094],[3.558177,44.42977],[3.557776,44.42964],[3.557532,44.429646],[3.556695,44.429889],[3.554935,44.430237],[3.554708,44.430138],[3.554578,44.429945],[3.554403,44.428893],[3.554447,44.428538],[3.554734,44.428171],[3.554682,44.428034],[3.554203,44.427723],[3.554081,44.427505],[3.554133,44.427107],[3.554281,44.426789],[3.555432,44.4258],[3.555885,44.425221],[3.556957,44.424219],[3.556992,44.423995],[3.556512,44.422993],[3.556495,44.422626],[3.557236,44.421269],[3.557715,44.420466],[3.553117,44.419652],[3.551828,44.419639],[3.550296,44.419479],[3.546709,44.418932],[3.544057,44.418825],[3.541815,44.418438],[3.540582,44.418638],[3.539555,44.418505],[3.53821,44.418518],[3.5375,44.418265],[3.537239,44.417971],[3.537164,44.417624],[3.536492,44.416984],[3.536043,44.416384],[3.535632,44.415436],[3.53481,44.415663],[3.532289,44.41537],[3.531392,44.415476],[3.529916,44.415356],[3.528515,44.415356],[3.526927,44.414929],[3.525171,44.414809],[3.524574,44.414636],[3.523061,44.413875],[3.521323,44.413395],[3.520707,44.413168],[3.518465,44.412914],[3.517494,44.412701],[3.516616,44.412261],[3.516579,44.411767],[3.516224,44.411246],[3.515271,44.410713],[3.514636,44.410659],[3.512749,44.408364],[3.51288,44.40767],[3.513478,44.406749],[3.51387,44.406282],[3.513851,44.405815],[3.513534,44.405001],[3.512245,44.404961],[3.511535,44.404694],[3.510863,44.404588],[3.509798,44.404761],[3.508509,44.405081],[3.505875,44.405362],[3.505128,44.405709],[3.502755,44.406923],[3.50085,44.407483],[3.500514,44.407684],[3.499132,44.408231],[3.497917,44.408471],[3.496946,44.408791],[3.496049,44.409005],[3.495638,44.409205],[3.495358,44.409285],[3.495022,44.409418],[3.494611,44.409445],[3.494144,44.409432],[3.493752,44.409498],[3.49265,44.409458],[3.490968,44.409632],[3.490128,44.409645],[3.489287,44.409405],[3.48854,44.409512],[3.48755,44.409352],[3.487064,44.409418],[3.48641,44.409645],[3.485719,44.409819],[3.485234,44.410139],[3.484598,44.410339],[3.484225,44.410686],[3.483664,44.411046],[3.482693,44.411327],[3.482002,44.411553],[3.481535,44.41198],[3.481143,44.412461],[3.480414,44.412754],[3.479256,44.412968],[3.478565,44.412861],[3.478173,44.412874],[3.477388,44.412754],[3.476678,44.412781],[3.47595,44.413101],[3.474922,44.413888],[3.474455,44.413955],[3.473988,44.413875],[3.473391,44.413141],[3.472531,44.412341],[3.471242,44.412221],[3.470252,44.41154],[3.469673,44.4113],[3.469188,44.410793],[3.468496,44.410379],[3.467824,44.409885],[3.467618,44.409458],[3.467843,44.409018],[3.467394,44.408471],[3.467226,44.408044],[3.465825,44.407083],[3.464368,44.407016],[3.463864,44.407043],[3.463285,44.406709],[3.462836,44.406376],[3.461473,44.405922],[3.461118,44.405602],[3.460782,44.405228],[3.460408,44.405121],[3.45854,44.405362],[3.457456,44.405335],[3.455757,44.404975],[3.454991,44.404948],[3.453739,44.404841],[3.452151,44.404588],[3.45118,44.404641],[3.450041,44.404427],[3.448957,44.404854],[3.448509,44.404841],[3.448191,44.404654],[3.447967,44.404387],[3.44722,44.404321],[3.446286,44.404467],[3.445277,44.404961],[3.444698,44.405081],[3.444044,44.405081],[3.443783,44.405255],[3.443615,44.405642],[3.442625,44.405922],[3.441111,44.40691],[3.440831,44.407363],[3.440701,44.408231],[3.440234,44.408191],[3.439356,44.408284],[3.438272,44.408111],[3.437618,44.407684],[3.436722,44.40731],[3.435732,44.406643],[3.435489,44.406376],[3.432892,44.405895],[3.432388,44.406042],[3.431753,44.405842],[3.431537,44.405165],[3.431328,44.405607],[3.431014,44.405719],[3.430038,44.405645],[3.429533,44.405539],[3.428435,44.405427],[3.428104,44.405408],[3.426901,44.404978],[3.424001,44.404868],[3.422581,44.405428],[3.421983,44.405548],[3.421404,44.405775],[3.420171,44.405962],[3.419723,44.406149],[3.419573,44.406402],[3.4192,44.406576],[3.417407,44.40727],[3.416902,44.407897],[3.416884,44.407577],[3.416959,44.407015],[3.416774,44.406883],[3.416211,44.407217],[3.415707,44.408071],[3.414007,44.408684],[3.413502,44.408791]]],"type":"MultiLineString"},"properties":{"geo_point":{"lon":3.7727950777709993,"lat":44.44005749049563},"name":"GR44 De Les Vans (Ardèche) à Champerboux (Lozère) (2019)","code_gr":"GR44"}}]}