{"type":"FeatureCollection","features":[{"type":"Feature","geometry":{"coordinates":[[[1.163722,45.064339],[1.164563,45.063481],[1.165235,45.063072],[1.165665,45.061278],[1.166206,45.060315],[1.167477,45.058256],[1.167944,45.057689],[1.168392,45.057491],[1.168168,45.056607],[1.16757,45.055828],[1.165702,45.05501],[1.165011,45.054495],[1.164843,45.05402],[1.165123,45.053374],[1.165609,45.053004],[1.166823,45.052595],[1.166916,45.052754],[1.166524,45.053083],[1.166393,45.053638],[1.166617,45.053994],[1.166954,45.054086],[1.168093,45.053809],[1.169886,45.053796],[1.171325,45.053902],[1.172203,45.054086],[1.174258,45.05435],[1.177116,45.054601],[1.178031,45.054812],[1.178666,45.054667],[1.180721,45.054693],[1.181617,45.054839],[1.182178,45.054284],[1.18285,45.053572],[1.183429,45.053255],[1.183149,45.05282],[1.182103,45.052318],[1.182103,45.051949],[1.181898,45.051671],[1.1813,45.051289],[1.180852,45.051289],[1.180422,45.050919],[1.180422,45.050523],[1.180758,45.050259],[1.179862,45.050339],[1.180123,45.049982],[1.181057,45.049718],[1.181692,45.049797],[1.182738,45.049745],[1.183654,45.04956],[1.184942,45.049006],[1.185615,45.04857],[1.186512,45.047963],[1.187801,45.047422],[1.188062,45.047198],[1.188473,45.046353],[1.189183,45.045469],[1.190584,45.045205],[1.191051,45.045073],[1.190584,45.045535],[1.190229,45.046287],[1.190397,45.046696],[1.190789,45.046775],[1.192078,45.046234],[1.194338,45.045878],[1.195403,45.045191],[1.19615,45.044927],[1.197103,45.044465],[1.197551,45.043357],[1.198878,45.04242],[1.199475,45.042525],[1.200559,45.043014],[1.200951,45.043185],[1.201661,45.043608],[1.201885,45.043581],[1.201997,45.043119],[1.202857,45.04238],[1.202969,45.042169],[1.203361,45.042235],[1.203996,45.042446],[1.204687,45.041931],[1.204687,45.041601],[1.20437,45.04139],[1.205117,45.041364],[1.205939,45.041628],[1.207116,45.042472],[1.207844,45.042776],[1.208367,45.043396],[1.208685,45.04374],[1.208984,45.044584],[1.209619,45.046419],[1.209992,45.047092],[1.21074,45.048095],[1.210796,45.049507],[1.210403,45.049982],[1.210441,45.050101],[1.210889,45.050655],[1.211487,45.05088],[1.211505,45.051064],[1.211001,45.051619],[1.209488,45.052318],[1.209413,45.052582],[1.208012,45.053202],[1.208872,45.053374],[1.209563,45.053796],[1.210254,45.054429],[1.21102,45.055855],[1.211468,45.056462],[1.212962,45.057623],[1.214662,45.058177],[1.215522,45.058217],[1.216269,45.058441],[1.216867,45.058401],[1.217315,45.058995],[1.217539,45.059708],[1.218155,45.060341],[1.221481,45.058481],[1.222919,45.05794],[1.223778,45.058032],[1.224675,45.058586],[1.2263,45.05885],[1.227346,45.059206],[1.228355,45.059444],[1.230111,45.060262],[1.23125,45.060539],[1.232035,45.060869],[1.232278,45.060842],[1.233286,45.061027],[1.235098,45.061067],[1.235715,45.061186],[1.240142,45.062967],[1.240329,45.063297],[1.24087,45.063455],[1.241468,45.06327],[1.242047,45.063349],[1.24328,45.063877],[1.244214,45.064088],[1.245372,45.064088],[1.245447,45.063798],[1.24569,45.063402],[1.245746,45.062888],[1.246792,45.063231],[1.247427,45.06331],[1.247483,45.063534],[1.248156,45.063613],[1.248604,45.063534],[1.248641,45.063877],[1.248959,45.064009],[1.250117,45.064049],[1.250808,45.064247],[1.251275,45.064154],[1.251854,45.062808],[1.251929,45.06207],[1.25262,45.061357],[1.2529,45.060922],[1.253423,45.060605],[1.253367,45.060935],[1.254918,45.060697],[1.255422,45.061265],[1.256076,45.061436],[1.257234,45.060974],[1.258168,45.061225],[1.258523,45.061436],[1.25871,45.06203],[1.258672,45.062439],[1.258822,45.064049],[1.25856,45.064299],[1.259102,45.064352],[1.259476,45.064088],[1.259887,45.063191],[1.260204,45.063086],[1.260895,45.064233],[1.261418,45.064946],[1.262166,45.064959],[1.26252,45.065051],[1.262576,45.06521],[1.263324,45.065381],[1.264183,45.066107],[1.264968,45.065764],[1.265584,45.066199],[1.266555,45.066569],[1.266817,45.067492],[1.267022,45.06868],[1.267116,45.070052],[1.267209,45.070764],[1.26719,45.071424],[1.267415,45.071767],[1.267527,45.072017],[1.267844,45.072532],[1.268274,45.072809],[1.268517,45.073112],[1.268199,45.073257],[1.267844,45.073693],[1.267826,45.074194],[1.267489,45.074748],[1.267284,45.074893],[1.267097,45.075474],[1.267097,45.076001],[1.267209,45.076845],[1.267377,45.077637],[1.26777,45.078811],[1.2679,45.080539],[1.267713,45.081528],[1.267489,45.081897],[1.267321,45.08224],[1.266817,45.082873],[1.267116,45.083256],[1.267676,45.083691],[1.268162,45.083876],[1.26861,45.084179],[1.267508,45.085353],[1.268293,45.085815],[1.269189,45.087147],[1.270777,45.088202],[1.271132,45.089441],[1.271748,45.089666],[1.272327,45.090035],[1.272963,45.090061],[1.273168,45.090365],[1.273691,45.091644],[1.273691,45.092039],[1.273037,45.092672],[1.273056,45.093121],[1.273299,45.093424],[1.274532,45.094215],[1.274887,45.094598],[1.275204,45.094835],[1.27526,45.095165],[1.275335,45.095811],[1.275765,45.096259],[1.276568,45.096708],[1.276643,45.097275],[1.277035,45.09767],[1.276941,45.098079],[1.276643,45.098369],[1.27653,45.098448],[1.27653,45.098606],[1.2764,45.098817],[1.277147,45.098804],[1.278398,45.099134],[1.279276,45.099464],[1.279501,45.099846],[1.280285,45.099661],[1.28135,45.099701],[1.28277,45.099767],[1.284955,45.099477],[1.285478,45.099727],[1.286337,45.099965],[1.286618,45.100294],[1.287384,45.102285],[1.288355,45.103472],[1.288915,45.10363],[1.289662,45.103736],[1.291213,45.104593],[1.291867,45.104843],[1.292222,45.10516],[1.292427,45.105964],[1.292427,45.106728],[1.292614,45.107651],[1.293044,45.108205],[1.294071,45.108706],[1.295528,45.108877],[1.296219,45.108785],[1.296705,45.108627],[1.297041,45.108614],[1.297844,45.108311],[1.298666,45.10864],[1.298816,45.108825],[1.298741,45.108996],[1.29876,45.109603],[1.299096,45.110301],[1.298704,45.110552],[1.298479,45.111804],[1.298685,45.112213],[1.299245,45.11303],[1.300011,45.113294],[1.300889,45.114072],[1.301599,45.114282],[1.302328,45.114454],[1.303093,45.114823],[1.303187,45.11626],[1.302757,45.117262],[1.302645,45.118303],[1.302514,45.118725],[1.301879,45.119582],[1.301375,45.119964],[1.3013,45.12028],[1.30102,45.120333],[1.30074,45.120952],[1.301057,45.121163],[1.301674,45.121216],[1.302029,45.12144],[1.302664,45.121348],[1.303355,45.121585],[1.303635,45.121849],[1.304009,45.12177],[1.304494,45.12206],[1.305709,45.122165],[1.30597,45.122837],[1.306232,45.123668],[1.306381,45.124116],[1.306288,45.124485],[1.305653,45.125249],[1.305522,45.125987],[1.30555,45.126238],[1.30542,45.12637],[1.30568,45.126588],[1.304835,45.126737],[1.30468,45.126823],[1.304566,45.127153],[1.30481,45.127584],[1.305246,45.127818],[1.304845,45.129072],[1.304601,45.129355]]],"type":"MultiLineString"},"properties":{"geo_point":{"lon":1.2379399892807084,"lat":45.07199772290655},"name":"GR461 De Montignac à Terrasson-Lavilledieu (Dordogne) (2019)","code_gr":"GR461"}}]}