{"type":"FeatureCollection","features":[{"type":"Feature","geometry":{"coordinates":[[[2.487264,46.17506],[2.488015,46.175037],[2.488639,46.174816],[2.48918,46.174679],[2.489572,46.174618],[2.490033,46.1744],[2.492152,46.174187],[2.492893,46.17403],[2.494786,46.173504],[2.49609,46.173618],[2.497517,46.175503],[2.49868,46.17625],[2.498927,46.176563],[2.498809,46.176849],[2.498251,46.177551],[2.49809,46.178139],[2.498208,46.178707],[2.499034,46.17989],[2.500493,46.180946],[2.500815,46.181347],[2.501662,46.182617],[2.503401,46.184696],[2.503905,46.185574],[2.505192,46.187309],[2.506619,46.1889],[2.508432,46.19072],[2.509001,46.191425],[2.509645,46.192204],[2.510288,46.193733],[2.510213,46.194405],[2.510471,46.195],[2.511554,46.196148],[2.51237,46.197182],[2.512692,46.197914],[2.512617,46.198132],[2.51267,46.198769],[2.513121,46.200722],[2.512799,46.202217],[2.512799,46.204178],[2.512327,46.205593],[2.512971,46.206715],[2.513432,46.207836],[2.514408,46.208496],[2.514837,46.208504],[2.515159,46.208298],[2.515116,46.208073],[2.514741,46.207771],[2.514859,46.207481],[2.515578,46.207466],[2.516125,46.207214],[2.516855,46.207272],[2.517144,46.207138],[2.517198,46.206947],[2.517037,46.206566],[2.517316,46.206394],[2.517852,46.20644],[2.518367,46.206188],[2.518807,46.206284],[2.520095,46.206909],[2.521135,46.20713],[2.522058,46.207161],[2.522466,46.207012],[2.522519,46.206673],[2.522122,46.206455],[2.521243,46.206383],[2.520062,46.205994],[2.519859,46.205631],[2.520191,46.204086],[2.520738,46.202988],[2.521125,46.2029],[2.523496,46.203693],[2.523775,46.204079],[2.524461,46.204212],[2.52592,46.204689],[2.526038,46.205139],[2.527594,46.206814],[2.527819,46.207207],[2.528066,46.207985],[2.52856,46.208199],[2.529118,46.208771],[2.529611,46.20895],[2.53062,46.209641],[2.531296,46.210079],[2.53166,46.210384],[2.534418,46.211639],[2.53519,46.211765],[2.537722,46.212433],[2.540898,46.214088],[2.543602,46.215385],[2.545704,46.216522],[2.547013,46.216915],[2.548193,46.217102],[2.549352,46.217102],[2.550275,46.216991],[2.552152,46.217438],[2.553118,46.21748],[2.553869,46.217392],[2.554963,46.217579],[2.557528,46.21841],[2.558289,46.218773],[2.560553,46.219479],[2.564437,46.219574],[2.566894,46.219501],[2.569168,46.219975],[2.570177,46.220177],[2.571958,46.221222],[2.572762,46.221958],[2.574254,46.222244],[2.576528,46.222454],[2.577934,46.222313],[2.578524,46.2229],[2.579597,46.223583],[2.581185,46.224407],[2.582622,46.225208],[2.583845,46.225681],[2.585004,46.226345],[2.585583,46.226692],[2.587397,46.22728],[2.588899,46.228191],[2.589542,46.228458],[2.591227,46.229439],[2.592707,46.230522],[2.594091,46.230869],[2.594692,46.2314],[2.595872,46.231983],[2.602353,46.235115],[2.605164,46.236698],[2.606591,46.237698],[2.607427,46.238598],[2.60909,46.239689],[2.60982,46.240437],[2.609863,46.240852],[2.609552,46.241447],[2.609756,46.241997],[2.610056,46.241966],[2.610485,46.241699],[2.612041,46.241119],[2.612298,46.24118],[2.612588,46.241615],[2.613811,46.241856],[2.614144,46.24218],[2.613897,46.242931],[2.613629,46.243523],[2.613639,46.243984],[2.6138,46.2444],[2.613747,46.244637],[2.614069,46.24477],[2.614465,46.245365],[2.614895,46.245789],[2.61556,46.247086],[2.616075,46.248123],[2.616708,46.249134],[2.617158,46.25032],[2.617663,46.251011],[2.617942,46.250549],[2.618585,46.249954],[2.6188,46.249699],[2.618929,46.248749],[2.620635,46.249214],[2.621085,46.249275],[2.621997,46.249622],[2.622115,46.250462],[2.623306,46.250698],[2.623692,46.250877],[2.624411,46.250919],[2.625559,46.251575],[2.626256,46.251705],[2.626922,46.252003],[2.627619,46.253071],[2.628928,46.253979],[2.629636,46.254807],[2.629926,46.255489],[2.630012,46.256149],[2.630634,46.257065],[2.632565,46.258919],[2.633005,46.259228],[2.633466,46.260696],[2.633874,46.261417],[2.634346,46.261841],[2.635065,46.262169],[2.635623,46.263073],[2.635333,46.263741],[2.635794,46.264393],[2.636578,46.265118],[2.636835,46.26561],[2.637672,46.266239],[2.638562,46.266685],[2.639174,46.266735],[2.639485,46.267277],[2.64015,46.267418],[2.640633,46.267361],[2.643466,46.266506],[2.645064,46.266171],[2.646834,46.267235],[2.647607,46.268162],[2.647757,46.268909],[2.648841,46.268864],[2.650589,46.268982],[2.651351,46.269287],[2.653411,46.270554],[2.654066,46.271187],[2.654666,46.272011],[2.655257,46.272491],[2.655965,46.272812],[2.656083,46.273434],[2.656523,46.274738],[2.656877,46.275169],[2.656866,46.275517],[2.655729,46.277447],[2.655911,46.277534],[2.655771,46.277779],[2.656319,46.277897],[2.656458,46.278061],[2.655793,46.278374],[2.655128,46.278282],[2.654763,46.2784],[2.654688,46.278549],[2.653626,46.278423],[2.652542,46.278439],[2.651813,46.278179],[2.649806,46.281811],[2.649635,46.282406],[2.649495,46.283005],[2.648948,46.284],[2.648572,46.284416],[2.648068,46.284912],[2.647843,46.285229],[2.648819,46.285603],[2.649409,46.286098],[2.649389,46.287223],[2.649716,46.286938],[2.650327,46.286393],[2.650955,46.286736],[2.651084,46.286804],[2.651154,46.287548],[2.651411,46.288239],[2.651282,46.288692],[2.651352,46.288925],[2.651357,46.289478],[2.651636,46.289581],[2.652355,46.289417],[2.65287,46.290465],[2.653449,46.290253],[2.654608,46.289776],[2.656904,46.289608],[2.657902,46.28915],[2.657923,46.288933],[2.658363,46.288307],[2.658868,46.287598],[2.659457,46.286947],[2.659999,46.286129],[2.660542,46.285786],[2.660271,46.285501],[2.660686,46.285217],[2.661121,46.284576],[2.662832,46.282738],[2.663352,46.282265],[2.664034,46.282207],[2.664211,46.281712],[2.665171,46.280857],[2.666195,46.280125],[2.666635,46.279491],[2.667107,46.279202],[2.669918,46.277809],[2.670111,46.277561],[2.670487,46.276775],[2.671275,46.275299],[2.671275,46.275299],[2.671385,46.274928],[2.671128,46.274617],[2.67072,46.274498],[2.670055,46.273445],[2.66851,46.271576],[2.667136,46.269499],[2.667716,46.26855],[2.668252,46.267838],[2.668724,46.267319],[2.669647,46.267349],[2.670269,46.267482],[2.672072,46.265539],[2.672351,46.265079],[2.672823,46.264916],[2.67396,46.263996],[2.674411,46.262898],[2.675162,46.262053],[2.675591,46.261133],[2.676513,46.260896],[2.67735,46.260955],[2.678337,46.260925],[2.680118,46.261474],[2.680655,46.261756],[2.68205,46.261267],[2.68307,46.259449],[2.6835,46.25885],[2.68414,46.257549],[2.68456,46.256931],[2.68461,46.25666],[2.68437,46.255951],[2.6846,46.255009],[2.68454,46.254082],[2.68429,46.253658],[2.68421,46.253109],[2.68431,46.252499],[2.68462,46.252102],[2.68483,46.251518],[2.68482,46.25108],[2.68506,46.25058],[2.68583,46.2495],[2.68619,46.248821],[2.68604,46.246208],[2.68605,46.245689],[2.68618,46.24498],[2.68712,46.24474],[2.688,46.24435],[2.68893,46.244259],[2.6894,46.244411],[2.68997,46.24445],[2.69074,46.244228],[2.69092,46.244419],[2.69115,46.24453],[2.69151,46.244888],[2.69164,46.244888],[2.69261,46.244431],[2.69298,46.243771],[2.69328,46.243462],[2.69371,46.243221],[2.69442,46.24292],[2.6946,46.24271],[2.69496,46.242489],[2.69579,46.24231],[2.69607,46.242191],[2.69676,46.24168],[2.69792,46.24057],[2.69914,46.24152],[2.69968,46.24176],[2.70011,46.241829],[2.70075,46.241779],[2.70131,46.241539],[2.70216,46.24078],[2.70262,46.240509],[2.70315,46.24036],[2.70315,46.24036],[2.703722,46.24036],[2.70458,46.240686],[2.705674,46.241903],[2.70634,46.242126],[2.707112,46.242066],[2.707691,46.242541],[2.708485,46.242942],[2.709623,46.243328],[2.710717,46.244263],[2.711404,46.244515],[2.712992,46.244812],[2.714172,46.245539],[2.714837,46.245687],[2.716017,46.245643],[2.717133,46.245895],[2.718399,46.245776],[2.718442,46.245509],[2.719536,46.244945],[2.719922,46.24496],[2.720437,46.245316],[2.721467,46.245806],[2.721403,46.246103],[2.721575,46.246207],[2.722411,46.245999],[2.724257,46.246325],[2.724815,46.246563],[2.725351,46.246964],[2.72563,46.246355],[2.726252,46.245806],[2.726682,46.245539],[2.726617,46.245361],[2.726038,46.245272],[2.725544,46.244945],[2.724815,46.245034],[2.723742,46.244708],[2.722669,46.24456],[2.722326,46.244381],[2.722347,46.244144],[2.722605,46.243996],[2.722454,46.243684],[2.722068,46.243788],[2.721725,46.24401],[2.721103,46.243773],[2.720502,46.243729],[2.719193,46.243165],[2.717154,46.241933],[2.715888,46.240953],[2.713507,46.238505],[2.71312,46.237777],[2.714172,46.237584],[2.714751,46.237584],[2.71576,46.236902],[2.716167,46.236976],[2.71614,46.237629],[2.71626,46.23772],[2.71685,46.237801],[2.71894,46.237419],[2.71986,46.23748],[2.72071,46.23735],[2.72176,46.237431],[2.72266,46.237381],[2.72349,46.237289],[2.72398,46.237331],[2.72505,46.237301],[2.72502,46.237148],[2.72551,46.23679],[2.72627,46.236649],[2.72694,46.236431],[2.72837,46.236092],[2.72914,46.235851],[2.73077,46.235661],[2.73296,46.235458],[2.73395,46.23547],[2.73466,46.235409],[2.73488,46.235291],[2.73519,46.234982],[2.73679,46.234451],[2.7371,46.234489],[2.73779,46.23494],[2.73828,46.23505],[2.73937,46.234371],[2.7405,46.233459],[2.74117,46.23336],[2.74395,46.233131],[2.7445,46.232868],[2.7443,46.23185],[2.74425,46.23106],[2.74417,46.230728],[2.74413,46.229729],[2.74415,46.229519],[2.74429,46.229221],[2.74425,46.228909],[2.744,46.227982],[2.74395,46.226879],[2.74412,46.226009],[2.7443,46.225979],[2.74505,46.226269],[2.74601,46.22691],[2.74671,46.2272],[2.74721,46.227482],[2.74747,46.227509],[2.7484,46.227428],[2.74909,46.227291],[2.74965,46.227329],[2.75097,46.227009],[2.75161,46.227169],[2.75214,46.22739],[2.75267,46.227348],[2.75309,46.227459],[2.75331,46.22768],[2.75338,46.227982],[2.75352,46.228199],[2.75357,46.2285],[2.7542,46.228699],[2.75446,46.228642],[2.75514,46.227051],[2.75545,46.22683],[2.7565,46.226421],[2.7572,46.226219],[2.75807,46.225761],[2.75882,46.224838],[2.75997,46.224129],[2.76035,46.223721],[2.7606,46.223289],[2.76116,46.222839],[2.76182,46.22192],[2.76244,46.221519],[2.7631,46.22121],[2.76337,46.22121],[2.7634,46.220901],[2.76353,46.220501],[2.76352,46.21994],[2.76317,46.21946],[2.76314,46.21912],[2.76415,46.217892],[2.76675,46.215729],[2.76791,46.214561],[2.76882,46.213509],[2.7691,46.212399],[2.76928,46.21212],[2.76958,46.211868],[2.76982,46.21175],[2.7699,46.21133],[2.7701,46.21109],[2.77075,46.210678],[2.77118,46.210461],[2.77145,46.21014],[2.77205,46.209801],[2.77268,46.209599],[2.77288,46.209419],[2.77316,46.20903],[2.77352,46.208969],[2.77481,46.209068],[2.77587,46.209209],[2.77653,46.20937],[2.77708,46.209419],[2.7779,46.20929],[2.77859,46.209431],[2.77901,46.20945],[2.77913,46.209518],[2.77965,46.20932],[2.78125,46.20903],[2.7814,46.20895],[2.78227,46.207779],[2.78245,46.207668],[2.78284,46.207561],[2.78338,46.207218],[2.78357,46.206928],[2.78656,46.206348],[2.78708,46.206051],[2.78748,46.205639],[2.78811,46.204571],[2.78861,46.204231],[2.79001,46.203529],[2.79024,46.20351],[2.79179,46.20364],[2.79355,46.20388],[2.79459,46.203751],[2.79554,46.203758],[2.79573,46.204231],[2.79596,46.204399],[2.79656,46.204559],[2.79675,46.2047],[2.79714,46.2052],[2.79801,46.205952],[2.7984,46.206169],[2.7988,46.206638],[2.79898,46.206718],[2.79892,46.207409],[2.79927,46.210041],[2.79919,46.210629],[2.79841,46.211948],[2.79833,46.212318],[2.79841,46.212669],[2.79938,46.21286],[2.80047,46.212841],[2.80149,46.213001],[2.80211,46.213181],[2.80313,46.213791],[2.80364,46.214802],[2.80424,46.215511],[2.80583,46.216331],[2.80623,46.216728],[2.807082,46.21743],[2.808166,46.217896],[2.808348,46.217422],[2.808713,46.216999],[2.809871,46.217533],[2.810944,46.217903],[2.813101,46.218536],[2.814806,46.219278],[2.816277,46.218677],[2.817157,46.220025],[2.817457,46.221006],[2.817371,46.221259],[2.817822,46.222256],[2.818669,46.223183],[2.819753,46.223953],[2.820407,46.224258],[2.820793,46.224621],[2.821341,46.225555],[2.821898,46.226063],[2.823218,46.226677],[2.823497,46.226574],[2.824345,46.226597],[2.824988,46.22678],[2.825986,46.226479],[2.827177,46.225979],[2.827553,46.22604],[2.82795,46.226433],[2.828068,46.226788],[2.828883,46.226887],[2.830567,46.226692],[2.831104,46.226788],[2.831565,46.226894],[2.831715,46.227093],[2.83237,46.227306],[2.832971,46.227539],[2.834192,46.227745],[2.83667,46.227619],[2.838215,46.227444],[2.839063,46.227264],[2.841166,46.227745],[2.841938,46.228222],[2.842432,46.228271],[2.843494,46.228378],[2.843515,46.227295],[2.844824,46.227005],[2.846584,46.225266],[2.847002,46.224731],[2.847871,46.223976],[2.847861,46.223701],[2.848172,46.223606],[2.848494,46.223427],[2.849835,46.223209],[2.850875,46.223183],[2.851058,46.223064],[2.851347,46.222187],[2.851251,46.221912],[2.852839,46.220821],[2.852882,46.220375],[2.853847,46.219952],[2.854802,46.219769],[2.855939,46.220043],[2.856905,46.220226],[2.857431,46.220482],[2.85772,46.220451],[2.858675,46.219566],[2.86125,46.221001],[2.861937,46.221592],[2.864522,46.222668],[2.865048,46.223042],[2.865992,46.223797],[2.867505,46.224274],[2.868084,46.224369],[2.8689,46.224251],[2.869114,46.22393],[2.869833,46.223347],[2.871217,46.222713],[2.871475,46.222385],[2.871915,46.220985],[2.872065,46.219627],[2.872473,46.219166],[2.872794,46.218468],[2.874382,46.216904],[2.874994,46.216049],[2.875283,46.215492],[2.876206,46.214146],[2.876764,46.213154],[2.877193,46.212818],[2.877805,46.212559],[2.877848,46.212307],[2.878105,46.212135],[2.878363,46.211845],[2.879178,46.211193],[2.879564,46.210678],[2.880669,46.208942],[2.88171,46.207897],[2.881925,46.207146],[2.882729,46.205387],[2.883502,46.204494],[2.884253,46.20377],[2.884124,46.203262],[2.884639,46.202564],[2.884628,46.202202],[2.884435,46.201733],[2.884596,46.201237],[2.884778,46.20108],[2.884821,46.200611],[2.88494,46.200565],[2.885316,46.200577],[2.885471,46.200321],[2.885654,46.20015],[2.88604,46.19997],[2.886432,46.199451],[2.88693,46.198906],[2.887483,46.198231],[2.887156,46.19796],[2.886694,46.197319],[2.885622,46.196602],[2.885391,46.196316],[2.885622,46.196152],[2.885734,46.19566],[2.885627,46.195362],[2.885788,46.19521],[2.886088,46.195126],[2.887183,46.195068],[2.887746,46.19495],[2.888475,46.19466],[2.889028,46.194496],[2.889575,46.19418],[2.889645,46.194],[2.889312,46.193291],[2.889178,46.192654],[2.889275,46.192471],[2.88958,46.192287],[2.89053,46.192158],[2.89083,46.192039],[2.891013,46.191784],[2.891624,46.192085],[2.891978,46.19212],[2.89348,46.191711],[2.893759,46.191608],[2.894349,46.190865],[2.894704,46.190758],[2.895229,46.190681],[2.896297,46.190643],[2.896957,46.19054],[2.897799,46.190117],[2.898807,46.189823],[2.900325,46.189384],[2.901194,46.189064],[2.902246,46.189011],[2.902906,46.18895],[2.90326,46.188854],[2.903458,46.188637],[2.904435,46.188396],[2.904499,46.188366],[2.904939,46.188145],[2.905282,46.188107],[2.90577,46.188198],[2.90628,46.188141],[2.906714,46.188213],[2.907111,46.188141],[2.907492,46.187992],[2.90841,46.18787],[2.909305,46.187702],[2.910056,46.187725],[2.910453,46.187828],[2.910888,46.188148],[2.911424,46.188541],[2.911972,46.188797],[2.912342,46.188862],[2.912733,46.188881],[2.913651,46.189053],[2.914766,46.188908],[2.915641,46.188713],[2.916483,46.18861],[2.917325,46.188461],[2.918704,46.188053],[2.918656,46.189365],[2.920683,46.189308],[2.921113,46.189503],[2.921617,46.189407],[2.924444,46.190472],[2.925071,46.190693],[2.925377,46.190731],[2.926085,46.189888],[2.928676,46.190395],[2.929744,46.190784],[2.930892,46.190475],[2.931697,46.189438],[2.932271,46.189495],[2.932705,46.189739],[2.932871,46.189945],[2.933022,46.190285],[2.933311,46.190376],[2.933982,46.190327],[2.934888,46.190086],[2.935516,46.189938],[2.935146,46.189083],[2.934974,46.188454],[2.93498,46.186668],[2.934883,46.186073],[2.93499,46.185371],[2.935967,46.184929],[2.936229,46.184929],[2.936219,46.185116],[2.936905,46.185188],[2.938413,46.185467],[2.939432,46.185486],[2.940221,46.185341],[2.940693,46.185158],[2.941063,46.185169],[2.942645,46.185375],[2.944786,46.185925],[2.947157,46.185898],[2.94706,46.186085],[2.948358,46.18634],[2.951717,46.186813],[2.953229,46.186733],[2.95405,46.186775],[2.95663,46.186516],[2.957955,46.186157],[2.960273,46.185955],[2.960412,46.185925],[2.96133,46.186852],[2.962081,46.187077],[2.9645,46.187767],[2.965047,46.188026],[2.965643,46.18885],[2.96627,46.189499],[2.967005,46.189957],[2.967343,46.190102],[2.968217,46.190353],[2.968712,46.190342],[2.96927,46.190193],[2.970171,46.190529],[2.970729,46.190922],[2.973121,46.191662],[2.974216,46.191486],[2.975223,46.19149],[2.975814,46.191376],[2.975969,46.191196],[2.976178,46.191254],[2.976506,46.190975],[2.976543,46.190704],[2.976328,46.190498],[2.975765,46.190304],[2.975583,46.190102],[2.975561,46.189816],[2.975712,46.189659],[2.976248,46.189598],[2.977557,46.189487],[2.979617,46.188644],[2.980711,46.187813],[2.982396,46.186897],[2.982809,46.186569],[2.983002,46.186211],[2.983367,46.18586],[2.984402,46.185356],[2.985791,46.184452],[2.986682,46.184067],[2.987749,46.18375],[2.988463,46.183411],[2.988854,46.183064],[2.989289,46.182671],[2.990104,46.182247],[2.991601,46.181091],[2.992754,46.18045],[2.994004,46.179642],[2.994964,46.179581],[2.995045,46.179375],[2.995378,46.179718],[2.995555,46.179764],[2.995876,46.179741],[2.996391,46.179844],[2.99726,46.179913],[2.997518,46.180008],[2.997915,46.180222],[2.998602,46.180317],[2.998859,46.180443],[2.999063,46.180672],[2.999224,46.180679],[2.99954,46.1805],[3.000334,46.180458],[3.001037,46.180519],[3.001439,46.180504],[3.002555,46.180744],[3.004567,46.181084],[3.005774,46.181007],[3.006841,46.18079],[3.007989,46.18084],[3.008778,46.180565],[3.009336,46.180405],[3.010232,46.179779],[3.01095,46.179394],[3.011691,46.179356],[3.011691,46.179356],[3.013485,46.179627],[3.013892,46.179478],[3.014643,46.179419],[3.015244,46.179285],[3.015673,46.179018],[3.016382,46.17884],[3.016768,46.178572],[3.017304,46.17832],[3.017519,46.177889],[3.017948,46.17771],[3.017884,46.176938],[3.01769,46.176477],[3.018012,46.175883],[3.018592,46.175378],[3.018849,46.174367],[3.019257,46.174278],[3.020265,46.173713],[3.021853,46.173431],[3.022454,46.173505],[3.022754,46.173401],[3.023227,46.172659],[3.024063,46.172228],[3.024407,46.172213],[3.024364,46.172064],[3.024578,46.171812],[3.026617,46.171232],[3.027883,46.171395],[3.028376,46.171306],[3.028956,46.171455],[3.029278,46.171202],[3.030672,46.170771],[3.032475,46.170415],[3.032925,46.170385],[3.035908,46.169508],[3.03741,46.169389],[3.038976,46.168899],[3.039706,46.167844],[3.040049,46.167636],[3.040564,46.167398],[3.041251,46.167502],[3.042753,46.167205],[3.043676,46.167131],[3.044942,46.166551],[3.045607,46.166581],[3.046444,46.166863],[3.047238,46.166804],[3.047881,46.166388],[3.048418,46.165154],[3.048976,46.164693],[3.050349,46.1645],[3.051379,46.163995],[3.052817,46.163133],[3.053503,46.163044],[3.053868,46.163148],[3.054061,46.164069],[3.054533,46.164485],[3.056658,46.165377],[3.05713,46.164738],[3.057409,46.164901],[3.058839,46.16526],[3.059938,46.165298],[3.060727,46.165241],[3.062427,46.165237],[3.0649,46.165154],[3.065303,46.165295],[3.065786,46.165405],[3.066832,46.165897],[3.067288,46.165966],[3.068355,46.166058],[3.068639,46.166054],[3.069106,46.165894],[3.069626,46.165672],[3.070093,46.165607],[3.070436,46.165543],[3.071343,46.165531],[3.072137,46.165424],[3.072684,46.165264],[3.073462,46.165215],[3.074578,46.164967],[3.075452,46.164955],[3.076439,46.164402],[3.077346,46.164139],[3.078006,46.163849],[3.078687,46.163448],[3.079202,46.163052],[3.079964,46.162628],[3.080098,46.162464],[3.08086,46.162014],[3.081466,46.16011],[3.083156,46.160343],[3.083606,46.15984],[3.084116,46.159401],[3.083499,46.15818],[3.082844,46.157227],[3.082678,46.156849],[3.082641,46.156361],[3.082716,46.156185],[3.0819,46.155636],[3.081814,46.154922],[3.081691,46.154572],[3.081696,46.154266],[3.081176,46.153584],[3.08072,46.15321],[3.080259,46.152992],[3.079953,46.152874],[3.079835,46.15266],[3.079604,46.152138],[3.079282,46.151672],[3.079148,46.15107],[3.079245,46.150818],[3.079626,46.150185],[3.079733,46.150146],[3.079931,46.149738],[3.079926,46.149307],[3.079883,46.148907],[3.079969,46.148354],[3.079958,46.147316],[3.079905,46.1469],[3.079797,46.14682],[3.079524,46.146763],[3.079459,46.145828],[3.079642,46.145115],[3.079626,46.143589],[3.079738,46.143242],[3.080162,46.142673],[3.080339,46.142567],[3.080768,46.14241],[3.081203,46.142117],[3.08131,46.141933],[3.081316,46.141758],[3.081627,46.141407],[3.081782,46.141083],[3.081235,46.140976],[3.080398,46.140587],[3.079926,46.140396],[3.079079,46.139828],[3.077668,46.139172],[3.077244,46.139008],[3.075281,46.138523],[3.075307,46.138306],[3.073628,46.137604],[3.072116,46.137074],[3.071263,46.136719],[3.071756,46.13641],[3.072507,46.136234],[3.072765,46.136028],[3.072909,46.135658],[3.072985,46.134972],[3.072877,46.133968],[3.072631,46.133041],[3.073467,46.131893],[3.073639,46.131275],[3.073827,46.13026],[3.074009,46.129658],[3.073897,46.128834],[3.074181,46.128078],[3.074031,46.127132],[3.074342,46.126354],[3.074953,46.125675],[3.075602,46.124931],[3.076053,46.124683],[3.076901,46.124416],[3.078322,46.124035],[3.078902,46.123493],[3.079239,46.122986],[3.079615,46.122349],[3.080334,46.121941],[3.080554,46.12162],[3.080843,46.1208],[3.081353,46.120216],[3.080811,46.120075],[3.080645,46.119881],[3.080704,46.119083],[3.081138,46.119099],[3.08278,46.119602],[3.083381,46.119827],[3.084674,46.120155],[3.086288,46.120537],[3.086895,46.12059],[3.087447,46.120708],[3.088032,46.120708],[3.088794,46.119957],[3.088477,46.119225],[3.088054,46.116148],[3.091083,46.114384],[3.091362,46.113541],[3.092306,46.112286],[3.092221,46.109272],[3.098658,46.109348],[3.099108,46.109516],[3.100707,46.109859],[3.104183,46.10762],[3.105052,46.106884],[3.106962,46.10577],[3.109097,46.104183],[3.109869,46.103977],[3.110063,46.103493],[3.110384,46.103024],[3.110502,46.102207],[3.110084,46.101025],[3.11017,46.100155],[3.110391,46.099751],[3.110611,46.099548],[3.110584,46.098911],[3.110702,46.09848],[3.110122,46.097687],[3.109216,46.096775],[3.108856,46.095959],[3.108744,46.095116],[3.108948,46.093811],[3.108873,46.092121],[3.108985,46.090672],[3.10847,46.089603],[3.108395,46.089096],[3.108438,46.088776],[3.108636,46.088543],[3.108717,46.088135],[3.10921,46.08773],[3.109307,46.087318],[3.10928,46.086926],[3.109731,46.08643],[3.110208,46.085602],[3.110101,46.084953],[3.110283,46.084709],[3.110541,46.084141],[3.110589,46.083466],[3.110493,46.083046],[3.110525,46.08263],[3.110777,46.082493],[3.111657,46.082443],[3.111968,46.082325],[3.112558,46.081848],[3.113137,46.081566],[3.113845,46.081421],[3.114312,46.081516],[3.114988,46.081779],[3.115873,46.081848],[3.117418,46.08176],[3.119226,46.082031],[3.120658,46.082336],[3.123807,46.083267],[3.124215,46.083294],[3.127745,46.085857],[3.129096,46.086479],[3.130572,46.087078],[3.131907,46.087486],[3.133356,46.087574],[3.134058,46.087887],[3.134847,46.088924],[3.135282,46.089245],[3.138726,46.091015],[3.13923,46.09026],[3.139906,46.089886],[3.139911,46.089718],[3.139519,46.089169],[3.139144,46.088097],[3.139911,46.088135],[3.143034,46.085579],[3.143843,46.085536],[3.144041,46.085184],[3.143618,46.084542],[3.143704,46.083771],[3.143312,46.08265],[3.14336,46.082135],[3.143838,46.081772],[3.143409,46.080902],[3.142717,46.079903],[3.143897,46.078461],[3.146182,46.079506],[3.147394,46.079956],[3.148199,46.080524],[3.148392,46.081158],[3.148859,46.081554],[3.14991,46.082016],[3.150667,46.082245],[3.153977,46.08247],[3.156289,46.08284],[3.156669,46.082756],[3.157753,46.08263],[3.160891,46.083042],[3.161943,46.083355],[3.162774,46.083637],[3.16477,46.084553],[3.166256,46.0853],[3.167549,46.085804],[3.168444,46.086002],[3.169845,46.086567],[3.170794,46.087051],[3.172071,46.088062],[3.172524,46.088639],[3.173012,46.089122],[3.17425,46.08957],[3.175676,46.090244],[3.176062,46.090609],[3.176864,46.090815],[3.179028,46.092167],[3.179527,46.092239],[3.179989,46.092422],[3.180836,46.092907],[3.181099,46.09299],[3.18222,46.09406],[3.184115,46.095045],[3.185561,46.096278],[3.185943,46.094982],[3.188556,46.0961],[3.189017,46.096127],[3.18972,46.096565],[3.190342,46.096725],[3.190953,46.096775],[3.191254,46.096867],[3.191538,46.097202],[3.191951,46.097385],[3.192697,46.097393],[3.193314,46.097267],[3.194054,46.097496],[3.194558,46.097504],[3.195106,46.097729],[3.197047,46.098461],[3.19818,46.098079],[3.198894,46.098054],[3.200794,46.098417],[3.200881,46.099227],[3.200812,46.099384],[3.200934,46.099674],[3.200759,46.099964],[3.200324,46.100846],[3.201195,46.101233],[3.201559,46.10181],[3.201715,46.102222],[3.202197,46.10276],[3.202337,46.103119],[3.202723,46.104114],[3.204375,46.10398],[3.205534,46.104118],[3.206076,46.103996],[3.206269,46.104084],[3.206451,46.104313],[3.208908,46.104828],[3.209139,46.104179],[3.20916,46.10358],[3.209418,46.10302],[3.209418,46.10302],[3.212249,46.103617],[3.214738,46.103944],[3.216176,46.104167],[3.21709,46.104508],[3.21948,46.104822],[3.221176,46.104718],[3.222613,46.104703],[3.225102,46.104985],[3.225188,46.105298],[3.225188,46.105298],[3.225188,46.105298],[3.22491,46.106014],[3.224578,46.106224],[3.222877,46.107094],[3.222131,46.106926],[3.220908,46.107227],[3.221,46.107288],[3.222126,46.107143],[3.222507,46.107201],[3.224427,46.108055],[3.225034,46.108189],[3.226498,46.108482],[3.229969,46.10973],[3.232801,46.111305],[3.236052,46.109013],[3.237699,46.107933],[3.238107,46.107826],[3.240848,46.107624],[3.241282,46.107761],[3.241899,46.108433],[3.242811,46.109112],[3.243369,46.109367],[3.24463,46.109634],[3.245595,46.10976],[3.24559,46.109528],[3.245204,46.108791],[3.245241,46.108494],[3.248015,46.106895],[3.248363,46.106758],[3.249179,46.106552],[3.249281,46.106453],[3.24956,46.105839],[3.250096,46.105602],[3.250842,46.105328],[3.252473,46.104977],[3.257808,46.105708],[3.259187,46.106326],[3.259276,46.107156],[3.259793,46.107288],[3.26068,46.10533],[3.260599,46.09943],[3.264837,46.0979],[3.268066,46.097008],[3.269118,46.096855],[3.269976,46.0965],[3.270512,46.096432],[3.270201,46.100719],[3.27309,46.101015],[3.274188,46.100907],[3.275896,46.101003],[3.278548,46.101364],[3.278902,46.101498],[3.278807,46.102055],[3.278929,46.102695],[3.278849,46.103551],[3.280737,46.103634],[3.28109,46.104012],[3.281252,46.104588],[3.281852,46.104855],[3.282249,46.104759],[3.285828,46.104962],[3.291329,46.106135],[3.293182,46.106147],[3.294636,46.10534],[3.295986,46.104886],[3.296993,46.104758],[3.297806,46.10498],[3.298021,46.10545],[3.298815,46.105576],[3.299705,46.105629],[3.300135,46.105991],[3.303782,46.106579],[3.305327,46.10664],[3.305628,46.106998],[3.305875,46.107109],[3.306518,46.107079],[3.30684,46.106937],[3.308471,46.106838],[3.308868,46.105145],[3.309233,46.104904],[3.30928,46.104919],[3.311521,46.104907],[3.3129,46.105438],[3.31352,46.10553],[3.31486,46.105572],[3.31686,46.10643],[3.31825,46.106918],[3.32028,46.107849],[3.32109,46.10788],[3.32192,46.108021],[3.32211,46.107819],[3.32244,46.107712],[3.32315,46.107841],[3.33108,46.106548],[3.33142,46.106609],[3.3334,46.107182],[3.33614,46.107109],[3.33667,46.106979],[3.33773,46.10651],[3.33814,46.106499],[3.33828,46.106258],[3.33925,46.105759],[3.33978,46.105621],[3.340087,46.105257],[3.340296,46.104399],[3.341,46.104012],[3.34128,46.10331],[3.34121,46.102139],[3.34152,46.101391],[3.357272,46.105305],[3.357865,46.105668],[3.358248,46.105354],[3.3588,46.105751],[3.36922,46.108318],[3.37406,46.109581],[3.37427,46.11018],[3.3753,46.110691],[3.37732,46.110741],[3.3792,46.111172],[3.37989,46.111141],[3.38106,46.110531],[3.38242,46.11013],[3.3864,46.112129],[3.388819,46.111891],[3.39269,46.112049],[3.39364,46.112061],[3.393746,46.111774],[3.39404,46.111771],[3.39463,46.111389],[3.39561,46.111542],[3.39594,46.111408],[3.39657,46.11079],[3.39704,46.11018],[3.39878,46.109798],[3.39927,46.109879],[3.40079,46.110378],[3.40255,46.1106],[3.402762,46.110417],[3.40663,46.112389],[3.40756,46.112728],[3.40864,46.113041],[3.40918,46.11343],[3.40958,46.114021],[3.41034,46.114491],[3.41129,46.114128],[3.41274,46.11594],[3.41462,46.1175],[3.418486,46.120174],[3.419998,46.119396],[3.421103,46.119068],[3.422101,46.11887],[3.424091,46.118496],[3.424263,46.118309],[3.424992,46.118244],[3.425663,46.118053],[3.42673,46.117596],[3.427396,46.117435],[3.429091,46.117308],[3.429611,46.117347],[3.431488,46.117034],[3.432693,46.116632],[3.433538,46.116271],[3.434072,46.115933],[3.434809,46.115463],[3.435507,46.114914],[3.43578,46.114594],[3.436338,46.114178],[3.436402,46.113834],[3.436569,46.113594],[3.436295,46.113403],[3.436097,46.113014],[3.434047,46.11216],[3.433157,46.111881],[3.431725,46.111183],[3.43062,46.11087],[3.430325,46.110828],[3.429327,46.110447],[3.428769,46.110126],[3.428383,46.109821],[3.427868,46.109573],[3.427653,46.109314],[3.427675,46.109035],[3.428066,46.108822],[3.428506,46.108215],[3.428769,46.107803],[3.429182,46.107658],[3.429643,46.107632],[3.430078,46.107681],[3.431022,46.107613],[3.433103,46.107635],[3.434133,46.107288],[3.435233,46.107098],[3.436231,46.106686],[3.436783,46.106262],[3.43747,46.106083],[3.438167,46.104904],[3.438967,46.104214],[3.439267,46.103374],[3.439514,46.102154],[3.439535,46.101727],[3.439728,46.101295],[3.439981,46.101089],[3.440302,46.101017],[3.440554,46.100754],[3.440544,46.100327],[3.440619,46.100071],[3.440581,46.099823],[3.44086,46.098984],[3.441225,46.098602],[3.441604,46.098],[3.44185,46.097759],[3.442167,46.097786],[3.442508,46.098137],[3.442832,46.098351],[3.443607,46.09837],[3.444066,46.098042],[3.44424,46.097767],[3.44468,46.09766],[3.445077,46.097675],[3.445568,46.097836],[3.445796,46.098007],[3.446145,46.09816],[3.446737,46.098286],[3.447086,46.09832],[3.447368,46.09824],[3.44796,46.097828],[3.448379,46.097607],[3.448639,46.097595],[3.449103,46.097656],[3.449463,46.097816],[3.452335,46.098743],[3.453126,46.09914],[3.453821,46.099594],[3.454352,46.100014],[3.45462,46.100105],[3.455403,46.100063],[3.455902,46.100006],[3.456321,46.100067],[3.457522,46.09996],[3.458284,46.099976],[3.458622,46.099171],[3.45896,46.098721],[3.459244,46.097916],[3.459786,46.097301],[3.460017,46.097305],[3.460414,46.098461],[3.460585,46.099007],[3.460564,46.099449],[3.460623,46.09977],[3.461218,46.100727],[3.461991,46.102379],[3.462254,46.103031],[3.462495,46.103184],[3.464619,46.104248],[3.466754,46.104336],[3.466647,46.104996],[3.466921,46.105068],[3.468589,46.105267],[3.468482,46.105534],[3.47044,46.105312],[3.470939,46.104595],[3.47081,46.103783],[3.470826,46.103348],[3.47125,46.10268],[3.472768,46.101822],[3.474286,46.1012],[3.475219,46.1012],[3.475869,46.100328],[3.47582,46.099259],[3.47582,46.099259],[3.477487,46.099726],[3.480191,46.100306],[3.481307,46.100753],[3.482456,46.101006],[3.482874,46.099838],[3.483266,46.099464],[3.483454,46.099239],[3.483738,46.09914],[3.48517,46.098221],[3.486399,46.097351],[3.488287,46.096565],[3.488652,46.096497],[3.4909,46.095764],[3.49304,46.094845],[3.493592,46.094646],[3.494225,46.094479],[3.495014,46.094185],[3.495497,46.094124],[3.496178,46.094139],[3.497417,46.09433],[3.498072,46.094318],[3.498817,46.094391],[3.49915,46.094334],[3.499606,46.094097],[3.500904,46.093765],[3.501988,46.093491],[3.503372,46.09341],[3.503989,46.093292],[3.505206,46.092834],[3.50599,46.092346],[3.506451,46.092106],[3.50857,46.090759],[3.509857,46.090031],[3.512448,46.090878],[3.511798,46.088627],[3.512937,46.087517],[3.518902,46.083015],[3.519492,46.082397],[3.519878,46.081722],[3.520141,46.081051],[3.520007,46.080246],[3.520088,46.079887],[3.519975,46.079838],[3.519792,46.077927],[3.51991,46.076927],[3.519996,46.075043],[3.519841,46.074875],[3.519433,46.074692],[3.518263,46.074413],[3.517883,46.074203],[3.517368,46.073692],[3.517062,46.073166],[3.516992,46.072803],[3.51733,46.072308],[3.517888,46.07172],[3.518553,46.071503],[3.518628,46.071323],[3.518473,46.07122],[3.518097,46.071178],[3.517453,46.071407],[3.517014,46.071411],[3.516472,46.071278],[3.515989,46.070892],[3.515667,46.070282],[3.515522,46.069328],[3.515608,46.068562],[3.515608,46.068047],[3.514622,46.067384],[3.51276,46.066406],[3.510072,46.065041],[3.509605,46.064667],[3.509632,46.064106],[3.510024,46.063805],[3.510394,46.0634],[3.510598,46.06303],[3.51151,46.062595],[3.511885,46.062248],[3.512154,46.06244],[3.512566,46.062566],[3.513489,46.062822],[3.51468,46.062703],[3.515297,46.062618],[3.515764,46.062733],[3.516949,46.062839],[3.517743,46.062875],[3.51851,46.06284],[3.518543,46.062583],[3.521396,46.0625],[3.523665,46.06337],[3.524722,46.063858],[3.525666,46.064159],[3.526332,46.064194],[3.52705,46.064377],[3.527254,46.064659],[3.52837,46.065006],[3.529175,46.065067],[3.529464,46.064663],[3.530113,46.064369],[3.530221,46.064114],[3.530119,46.063179],[3.529652,46.061989],[3.529657,46.061417],[3.530194,46.060444],[3.529668,46.06144],[3.52992,46.060863],[3.530242,46.060375],[3.530779,46.060051],[3.530875,46.059803],[3.530913,46.059376],[3.531149,46.059078],[3.531637,46.058834],[3.532098,46.058758],[3.533171,46.058197],[3.533536,46.058025],[3.533793,46.057949],[3.534357,46.05777],[3.53485,46.057716],[3.535542,46.057743],[3.536127,46.057705],[3.536867,46.057922],[3.537978,46.058167],[3.538766,46.058491],[3.53919,46.058502],[3.540059,46.05822],[3.540574,46.058308],[3.541229,46.058014],[3.541631,46.057716],[3.542307,46.057613],[3.543117,46.057735],[3.544061,46.057732],[3.544957,46.057922],[3.545375,46.057819],[3.545874,46.057606],[3.546545,46.057613],[3.54736,46.057892],[3.547559,46.057789],[3.547736,46.057541],[3.547859,46.056419],[3.547709,46.055428],[3.547655,46.054642],[3.547687,46.054111],[3.547585,46.053665],[3.547274,46.053055],[3.547124,46.052128],[3.546411,46.051132],[3.546099,46.049824],[3.545472,46.049171],[3.54544,46.048309],[3.545649,46.04752],[3.545907,46.046859],[3.547081,46.045477],[3.54788,46.044292],[3.550536,46.040009],[3.551287,46.039223],[3.552263,46.038757],[3.552928,46.038689],[3.554414,46.038696],[3.555847,46.038296],[3.556281,46.038021],[3.556641,46.037727],[3.557445,46.037193],[3.558362,46.036415],[3.559564,46.035873],[3.559993,46.035767],[3.560337,46.035503],[3.560846,46.034904],[3.56105,46.034431],[3.561367,46.034081],[3.562268,46.033451],[3.562976,46.033134],[3.563743,46.032726],[3.564676,46.032703],[3.565304,46.032448],[3.566055,46.032181],[3.566811,46.031826],[3.567273,46.0317],[3.568099,46.031631],[3.568952,46.031376],[3.569697,46.031055],[3.570094,46.030731],[3.57098,46.029785],[3.571865,46.029324],[3.573088,46.028542],[3.573817,46.028053],[3.574204,46.027943],[3.574204,46.027943],[3.575313,46.027963],[3.576472,46.027293],[3.576772,46.026935],[3.577502,46.026622],[3.57806,46.026622],[3.578639,46.026697],[3.579626,46.026414],[3.58042,46.02628],[3.581343,46.026742],[3.583381,46.027665],[3.584025,46.028172],[3.584432,46.028216],[3.585956,46.027725],[3.587994,46.029527],[3.588552,46.030302],[3.588574,46.030645],[3.588316,46.030913],[3.588445,46.032581],[3.58808,46.032969],[3.587372,46.032924],[3.587179,46.033103],[3.5872,46.033356],[3.587823,46.033743],[3.587952,46.03425],[3.587479,46.034801],[3.587329,46.035322],[3.587522,46.036261],[3.587029,46.036767],[3.586621,46.037214],[3.586557,46.03778],[3.586986,46.038153],[3.589861,46.036663],[3.59308,46.032894],[3.593209,46.03206],[3.593101,46.031568],[3.593445,46.031226],[3.593767,46.0306],[3.593252,46.029945],[3.592737,46.029915],[3.592543,46.029706],[3.592887,46.029066],[3.594088,46.028038],[3.594668,46.027799],[3.594689,46.028261],[3.595955,46.029811],[3.597629,46.028946],[3.598122,46.028961],[3.598552,46.02914],[3.600167,46.028637],[3.601568,46.028084],[3.602238,46.02766],[3.603043,46.027531],[3.603112,46.026947],[3.603322,46.026649],[3.603268,46.026489],[3.603086,46.026279],[3.603118,46.026119],[3.603472,46.025726],[3.603327,46.025467],[3.60226,46.024902],[3.601036,46.02478],[3.600854,46.024643],[3.600511,46.024265],[3.599776,46.023922],[3.599395,46.023499],[3.599309,46.023148],[3.600582,46.022188],[3.601256,46.021896],[3.60256,46.020401],[3.603483,46.021118],[3.60374,46.021484],[3.604588,46.022266],[3.605194,46.02256],[3.605891,46.022697],[3.607227,46.023502],[3.608241,46.02404],[3.609802,46.025158],[3.61059,46.025574],[3.611551,46.025887],[3.612361,46.025948],[3.612962,46.026161],[3.613702,46.026703],[3.615205,46.027368],[3.615826,46.027863],[3.616486,46.027912],[3.618535,46.028526],[3.620488,46.027878],[3.621362,46.027748],[3.623428,46.027119],[3.623771,46.027153],[3.624956,46.026943],[3.626019,46.026878],[3.629007,46.027306],[3.629436,46.027458],[3.630712,46.02824],[3.632869,46.029072],[3.63347,46.029263],[3.635111,46.029694],[3.63671,46.030415],[3.638265,46.030743],[3.640009,46.030792],[3.640685,46.031059],[3.641838,46.03104],[3.64312,46.030605],[3.643753,46.031059],[3.645304,46.031616],[3.646698,46.031727],[3.648721,46.031139],[3.649799,46.030792],[3.649847,46.030876],[3.649525,46.031109],[3.649161,46.031239],[3.64915,46.031357],[3.650448,46.031548],[3.651156,46.03149],[3.653887,46.032021],[3.654707,46.032326],[3.655823,46.032608],[3.659981,46.032978],[3.660673,46.033154],[3.664288,46.033356],[3.665308,46.033348],[3.66608,46.033176],[3.667351,46.033012],[3.668274,46.032841],[3.668998,46.032875],[3.669454,46.032768],[3.670307,46.032547],[3.670683,46.032627],[3.672287,46.033401],[3.673971,46.033581],[3.675006,46.033596],[3.676503,46.03389],[3.67764,46.034222],[3.678059,46.034527],[3.679057,46.034737],[3.680124,46.034836],[3.680618,46.034641],[3.680805,46.034325],[3.680843,46.034027],[3.68124,46.033657],[3.681503,46.033352],[3.682726,46.033283],[3.683949,46.033035],[3.684432,46.033115],[3.685687,46.033752],[3.68602,46.033752],[3.687404,46.034126],[3.688037,46.034016],[3.688863,46.034008],[3.689673,46.033855],[3.691314,46.034485],[3.691615,46.034473],[3.692903,46.034785],[3.694125,46.035316],[3.694485,46.0354],[3.694613,46.035587],[3.695284,46.035767],[3.695783,46.035744],[3.696174,46.035896],[3.696893,46.035839],[3.697725,46.035606],[3.698197,46.035603],[3.698808,46.035748],[3.699409,46.035767],[3.700498,46.03558],[3.70082,46.035362],[3.701174,46.035244],[3.70141,46.034775],[3.70163,46.034779],[3.702086,46.034946],[3.703116,46.034985],[3.705315,46.034763],[3.705573,46.034801],[3.705943,46.035],[3.70649,46.034931],[3.708142,46.034817],[3.708378,46.034889],[3.708641,46.035313],[3.708797,46.035671],[3.709403,46.03587],[3.709564,46.035748],[3.70972,46.034962],[3.709988,46.034595],[3.710492,46.03421],[3.71075,46.03397],[3.711399,46.033924],[3.712123,46.034119],[3.712289,46.034039],[3.712402,46.032501],[3.712826,46.031662],[3.713158,46.031284],[3.713598,46.031273],[3.714934,46.031506],[3.7154,46.031666],[3.715535,46.031616],[3.715556,46.030838],[3.71547,46.030643],[3.715454,46.030235],[3.714864,46.029705],[3.714542,46.029621],[3.714515,46.029457],[3.714902,46.029179],[3.715181,46.029148],[3.715513,46.029156],[3.715862,46.02903],[3.716151,46.028706],[3.716495,46.027756],[3.716752,46.027695],[3.717015,46.027859],[3.717176,46.028198],[3.717648,46.028511],[3.718072,46.028599],[3.718608,46.028618],[3.719257,46.029076],[3.719874,46.029366],[3.720255,46.029381],[3.72069,46.029346],[3.721001,46.029655],[3.721194,46.029907],[3.721468,46.02993],[3.721736,46.029682],[3.722165,46.029427],[3.72386,46.029289],[3.724788,46.029339],[3.72526,46.029289],[3.725947,46.029121],[3.726092,46.028759],[3.726317,46.028767],[3.727567,46.029568],[3.728012,46.029591],[3.728297,46.029453],[3.728463,46.028896],[3.728833,46.028488],[3.729428,46.028141],[3.729745,46.027855],[3.730196,46.027538],[3.730544,46.027439],[3.730914,46.027473],[3.731622,46.027657],[3.732529,46.028133],[3.733538,46.02874],[3.733817,46.028725],[3.73431,46.028584],[3.735083,46.028599],[3.735952,46.028919],[3.736257,46.029137],[3.736772,46.029839],[3.736837,46.030094],[3.736815,46.030624],[3.73711,46.030869],[3.737663,46.031536],[3.73777,46.031883],[3.738049,46.032162],[3.738151,46.032429],[3.738001,46.032669],[3.737432,46.033241],[3.738065,46.03297],[3.738532,46.03249],[3.738532,46.03249],[3.739529,46.031673],[3.74043,46.031732],[3.740516,46.031211],[3.741674,46.030466],[3.741953,46.030153],[3.741674,46.029617],[3.742511,46.028321],[3.743026,46.028202],[3.743777,46.028157],[3.74412,46.027188],[3.745322,46.026116],[3.746184,46.025262],[3.748129,46.025173],[3.750033,46.024372],[3.750634,46.024323],[3.751095,46.024059],[3.751412,46.02372],[3.752093,46.022274],[3.752265,46.022095],[3.752973,46.022083],[3.753686,46.022305],[3.754164,46.022736],[3.754185,46.023266],[3.754732,46.024078],[3.755521,46.024715],[3.75639,46.025227],[3.757184,46.025135],[3.757989,46.024918],[3.758445,46.024963],[3.759373,46.025261],[3.760097,46.025261],[3.761137,46.024845],[3.761583,46.024506],[3.761754,46.024593],[3.762146,46.024555],[3.763138,46.02422],[3.764554,46.024125],[3.765123,46.024395],[3.765931,46.024778],[3.766332,46.024839],[3.767168,46.024766],[3.767704,46.024986],[3.768449,46.025505],[3.769141,46.025768],[3.769452,46.025742],[3.769635,46.025574],[3.769626,46.025323],[3.770358,46.024391],[3.77116,46.02243],[3.771438,46.022188],[3.771727,46.022072],[3.772312,46.022057],[3.772773,46.022137],[3.773733,46.022434],[3.774135,46.022644],[3.774396,46.022874],[3.774992,46.02313],[3.775797,46.023134],[3.776617,46.023046],[3.779693,46.023781],[3.781157,46.024246],[3.782263,46.025276],[3.78326,46.026009],[3.784408,46.02652],[3.787085,46.026569],[3.787579,46.02647],[3.788201,46.026199],[3.788882,46.026051],[3.789462,46.025776],[3.790084,46.025139],[3.790561,46.02475],[3.790771,46.024296],[3.790808,46.023643]]],"type":"MultiLineString"},"properties":{"geo_point":{"lon":3.1212988852152335,"lat":46.141514157769265},"name":"GR463 Traversée du Sud de l'Allier (Auvergne) (2020)","code_gr":"GR463"}},{"type":"Feature","geometry":{"coordinates":[[[2.487264,46.17506],[2.488015,46.175037],[2.488639,46.174816],[2.48918,46.174679],[2.489572,46.174618],[2.490033,46.1744],[2.492152,46.174187],[2.492893,46.17403],[2.494786,46.173504],[2.49609,46.173618],[2.497517,46.175503],[2.49868,46.17625],[2.498927,46.176563],[2.498809,46.176849],[2.498251,46.177551],[2.49809,46.178139],[2.498208,46.178707],[2.499034,46.17989],[2.500493,46.180946],[2.500815,46.181347],[2.501662,46.182617],[2.503401,46.184696],[2.503905,46.185574],[2.505192,46.187309],[2.506619,46.1889],[2.508432,46.19072],[2.509001,46.191425],[2.509645,46.192204],[2.510288,46.193733],[2.510213,46.194405],[2.510471,46.195],[2.511554,46.196148],[2.51237,46.197182],[2.512692,46.197914],[2.512617,46.198132],[2.51267,46.198769],[2.513121,46.200722],[2.512799,46.202217],[2.512799,46.204178],[2.512327,46.205593],[2.512971,46.206715],[2.513432,46.207836],[2.514408,46.208496],[2.514837,46.208504],[2.515159,46.208298],[2.515116,46.208073],[2.514741,46.207771],[2.514859,46.207481],[2.515578,46.207466],[2.516125,46.207214],[2.516855,46.207272],[2.517144,46.207138],[2.517198,46.206947],[2.517037,46.206566],[2.517316,46.206394],[2.517852,46.20644],[2.518367,46.206188],[2.518807,46.206284],[2.520095,46.206909],[2.521135,46.20713],[2.522058,46.207161],[2.522466,46.207012],[2.522519,46.206673],[2.522122,46.206455],[2.521243,46.206383],[2.520062,46.205994],[2.519859,46.205631],[2.520191,46.204086],[2.520738,46.202988],[2.521125,46.2029],[2.523496,46.203693],[2.523775,46.204079],[2.524461,46.204212],[2.52592,46.204689],[2.526038,46.205139],[2.527594,46.206814],[2.527819,46.207207],[2.528066,46.207985],[2.52856,46.208199],[2.529118,46.208771],[2.529611,46.20895],[2.53062,46.209641],[2.531296,46.210079],[2.53166,46.210384],[2.534418,46.211639],[2.53519,46.211765],[2.537722,46.212433],[2.540898,46.214088],[2.543602,46.215385],[2.545704,46.216522],[2.547013,46.216915],[2.548193,46.217102],[2.549352,46.217102],[2.550275,46.216991],[2.552152,46.217438],[2.553118,46.21748],[2.553869,46.217392],[2.554963,46.217579],[2.557528,46.21841],[2.558289,46.218773],[2.560553,46.219479],[2.564437,46.219574],[2.566894,46.219501],[2.569168,46.219975],[2.570177,46.220177],[2.571958,46.221222],[2.572762,46.221958],[2.574254,46.222244],[2.576528,46.222454],[2.577934,46.222313],[2.578524,46.2229],[2.579597,46.223583],[2.581185,46.224407],[2.582622,46.225208],[2.583845,46.225681],[2.585004,46.226345],[2.585583,46.226692],[2.587397,46.22728],[2.588899,46.228191],[2.589542,46.228458],[2.591227,46.229439],[2.592707,46.230522],[2.594091,46.230869],[2.594692,46.2314],[2.595872,46.231983],[2.602353,46.235115],[2.605164,46.236698],[2.606591,46.237698],[2.607427,46.238598],[2.60909,46.239689],[2.60982,46.240437],[2.609863,46.240852],[2.609552,46.241447],[2.609756,46.241997],[2.610056,46.241966],[2.610485,46.241699],[2.612041,46.241119],[2.612298,46.24118],[2.612588,46.241615],[2.613811,46.241856],[2.614144,46.24218],[2.613897,46.242931],[2.613629,46.243523],[2.613639,46.243984],[2.6138,46.2444],[2.613747,46.244637],[2.614069,46.24477],[2.614465,46.245365],[2.614895,46.245789],[2.61556,46.247086],[2.616075,46.248123],[2.616708,46.249134],[2.617158,46.25032],[2.617663,46.251011],[2.617942,46.250549],[2.618585,46.249954],[2.6188,46.249699],[2.618929,46.248749],[2.620635,46.249214],[2.621085,46.249275],[2.621997,46.249622],[2.622115,46.250462],[2.623306,46.250698],[2.623692,46.250877],[2.624411,46.250919],[2.625559,46.251575],[2.626256,46.251705],[2.626922,46.252003],[2.627619,46.253071],[2.628928,46.253979],[2.629636,46.254807],[2.629926,46.255489],[2.630012,46.256149],[2.630634,46.257065],[2.632565,46.258919],[2.633005,46.259228],[2.633466,46.260696],[2.633874,46.261417],[2.634346,46.261841],[2.635065,46.262169],[2.635623,46.263073],[2.635333,46.263741],[2.635794,46.264393],[2.636578,46.265118],[2.636835,46.26561],[2.637672,46.266239],[2.638562,46.266685],[2.639174,46.266735],[2.639485,46.267277],[2.64015,46.267418],[2.640633,46.267361],[2.643466,46.266506],[2.645064,46.266171],[2.646834,46.267235],[2.647607,46.268162],[2.647757,46.268909],[2.648841,46.268864],[2.650589,46.268982],[2.651351,46.269287],[2.653411,46.270554],[2.654066,46.271187],[2.654666,46.272011],[2.655257,46.272491],[2.655965,46.272812],[2.656083,46.273434],[2.656523,46.274738],[2.656877,46.275169],[2.656866,46.275517],[2.655729,46.277447],[2.655911,46.277534],[2.655771,46.277779],[2.656319,46.277897],[2.656458,46.278061],[2.655793,46.278374],[2.655128,46.278282],[2.654763,46.2784],[2.654688,46.278549],[2.653626,46.278423],[2.652542,46.278439],[2.651813,46.278179],[2.649806,46.281811],[2.649635,46.282406],[2.649495,46.283005],[2.648948,46.284],[2.648572,46.284416],[2.648068,46.284912],[2.647843,46.285229],[2.648819,46.285603],[2.649409,46.286098],[2.649389,46.287223],[2.649716,46.286938],[2.650327,46.286393],[2.650955,46.286736],[2.651084,46.286804],[2.651154,46.287548],[2.651411,46.288239],[2.651282,46.288692],[2.651352,46.288925],[2.651357,46.289478],[2.651636,46.289581],[2.652355,46.289417],[2.65287,46.290465],[2.653449,46.290253],[2.654608,46.289776],[2.656904,46.289608],[2.657902,46.28915],[2.657923,46.288933],[2.658363,46.288307],[2.658868,46.287598],[2.659457,46.286947],[2.659999,46.286129],[2.660542,46.285786],[2.660271,46.285501],[2.660686,46.285217],[2.661121,46.284576],[2.662832,46.282738],[2.663352,46.282265],[2.664034,46.282207],[2.664211,46.281712],[2.665171,46.280857],[2.666195,46.280125],[2.666635,46.279491],[2.667107,46.279202],[2.669918,46.277809],[2.670111,46.277561],[2.670487,46.276775],[2.671275,46.275299],[2.671275,46.275299],[2.671385,46.274928],[2.671128,46.274617],[2.67072,46.274498],[2.670055,46.273445],[2.66851,46.271576],[2.667136,46.269499],[2.667716,46.26855],[2.668252,46.267838],[2.668724,46.267319],[2.669647,46.267349],[2.670269,46.267482],[2.672072,46.265539],[2.672351,46.265079],[2.672823,46.264916],[2.67396,46.263996],[2.674411,46.262898],[2.675162,46.262053],[2.675591,46.261133],[2.676513,46.260896],[2.67735,46.260955],[2.678337,46.260925],[2.680118,46.261474],[2.680655,46.261756],[2.68205,46.261267],[2.68307,46.259449],[2.6835,46.25885],[2.68414,46.257549],[2.68456,46.256931],[2.68461,46.25666],[2.68437,46.255951],[2.6846,46.255009],[2.68454,46.254082],[2.68429,46.253658],[2.68421,46.253109],[2.68431,46.252499],[2.68462,46.252102],[2.68483,46.251518],[2.68482,46.25108],[2.68506,46.25058],[2.68583,46.2495],[2.68619,46.248821],[2.68604,46.246208],[2.68605,46.245689],[2.68618,46.24498],[2.68712,46.24474],[2.688,46.24435],[2.68893,46.244259],[2.6894,46.244411],[2.68997,46.24445],[2.69074,46.244228],[2.69092,46.244419],[2.69115,46.24453],[2.69151,46.244888],[2.69164,46.244888],[2.69261,46.244431],[2.69298,46.243771],[2.69328,46.243462],[2.69371,46.243221],[2.69442,46.24292],[2.6946,46.24271],[2.69496,46.242489],[2.69579,46.24231],[2.69607,46.242191],[2.69676,46.24168],[2.69792,46.24057],[2.69914,46.24152],[2.69968,46.24176],[2.70011,46.241829],[2.70075,46.241779],[2.70131,46.241539],[2.70216,46.24078],[2.70262,46.240509],[2.70315,46.24036],[2.70315,46.24036],[2.703722,46.24036],[2.70458,46.240686],[2.705674,46.241903],[2.70634,46.242126],[2.707112,46.242066],[2.707691,46.242541],[2.708485,46.242942],[2.709623,46.243328],[2.710717,46.244263],[2.711404,46.244515],[2.712992,46.244812],[2.714172,46.245539],[2.714837,46.245687],[2.716017,46.245643],[2.717133,46.245895],[2.718399,46.245776],[2.718442,46.245509],[2.719536,46.244945],[2.719922,46.24496],[2.720437,46.245316],[2.721467,46.245806],[2.721403,46.246103],[2.721575,46.246207],[2.722411,46.245999],[2.724257,46.246325],[2.724815,46.246563],[2.725351,46.246964],[2.72563,46.246355],[2.726252,46.245806],[2.726682,46.245539],[2.726617,46.245361],[2.726038,46.245272],[2.725544,46.244945],[2.724815,46.245034],[2.723742,46.244708],[2.722669,46.24456],[2.722326,46.244381],[2.722347,46.244144],[2.722605,46.243996],[2.722454,46.243684],[2.722068,46.243788],[2.721725,46.24401],[2.721103,46.243773],[2.720502,46.243729],[2.719193,46.243165],[2.717154,46.241933],[2.715888,46.240953],[2.713507,46.238505],[2.71312,46.237777],[2.714172,46.237584],[2.714751,46.237584],[2.71576,46.236902],[2.716167,46.236976],[2.71614,46.237629],[2.71626,46.23772],[2.71685,46.237801],[2.71894,46.237419],[2.71986,46.23748],[2.72071,46.23735],[2.72176,46.237431],[2.72266,46.237381],[2.72349,46.237289],[2.72398,46.237331],[2.72505,46.237301],[2.72502,46.237148],[2.72551,46.23679],[2.72627,46.236649],[2.72694,46.236431],[2.72837,46.236092],[2.72914,46.235851],[2.73077,46.235661],[2.73296,46.235458],[2.73395,46.23547],[2.73466,46.235409],[2.73488,46.235291],[2.73519,46.234982],[2.73679,46.234451],[2.7371,46.234489],[2.73779,46.23494],[2.73828,46.23505],[2.73937,46.234371],[2.7405,46.233459],[2.74117,46.23336],[2.74395,46.233131],[2.7445,46.232868],[2.7443,46.23185],[2.74425,46.23106],[2.74417,46.230728],[2.74413,46.229729],[2.74415,46.229519],[2.74429,46.229221],[2.74425,46.228909],[2.744,46.227982],[2.74395,46.226879],[2.74412,46.226009],[2.7443,46.225979],[2.74505,46.226269],[2.74601,46.22691],[2.74671,46.2272],[2.74721,46.227482],[2.74747,46.227509],[2.7484,46.227428],[2.74909,46.227291],[2.74965,46.227329],[2.75097,46.227009],[2.75161,46.227169],[2.75214,46.22739],[2.75267,46.227348],[2.75309,46.227459],[2.75331,46.22768],[2.75338,46.227982],[2.75352,46.228199],[2.75357,46.2285],[2.7542,46.228699],[2.75446,46.228642],[2.75514,46.227051],[2.75545,46.22683],[2.7565,46.226421],[2.7572,46.226219],[2.75807,46.225761],[2.75882,46.224838],[2.75997,46.224129],[2.76035,46.223721],[2.7606,46.223289],[2.76116,46.222839],[2.76182,46.22192],[2.76244,46.221519],[2.7631,46.22121],[2.76337,46.22121],[2.7634,46.220901],[2.76353,46.220501],[2.76352,46.21994],[2.76317,46.21946],[2.76314,46.21912],[2.76415,46.217892],[2.76675,46.215729],[2.76791,46.214561],[2.76882,46.213509],[2.7691,46.212399],[2.76928,46.21212],[2.76958,46.211868],[2.76982,46.21175],[2.7699,46.21133],[2.7701,46.21109],[2.77075,46.210678],[2.77118,46.210461],[2.77145,46.21014],[2.77205,46.209801],[2.77268,46.209599],[2.77288,46.209419],[2.77316,46.20903],[2.77352,46.208969],[2.77481,46.209068],[2.77587,46.209209],[2.77653,46.20937],[2.77708,46.209419],[2.7779,46.20929],[2.77859,46.209431],[2.77901,46.20945],[2.77913,46.209518],[2.77965,46.20932],[2.78125,46.20903],[2.7814,46.20895],[2.78227,46.207779],[2.78245,46.207668],[2.78284,46.207561],[2.78338,46.207218],[2.78357,46.206928],[2.78656,46.206348],[2.78708,46.206051],[2.78748,46.205639],[2.78811,46.204571],[2.78861,46.204231],[2.79001,46.203529],[2.79024,46.20351],[2.79179,46.20364],[2.79355,46.20388],[2.79459,46.203751],[2.79554,46.203758],[2.79573,46.204231],[2.79596,46.204399],[2.79656,46.204559],[2.79675,46.2047],[2.79714,46.2052],[2.79801,46.205952],[2.7984,46.206169],[2.7988,46.206638],[2.79898,46.206718],[2.79892,46.207409],[2.79927,46.210041],[2.79919,46.210629],[2.79841,46.211948],[2.79833,46.212318],[2.79841,46.212669],[2.79938,46.21286],[2.80047,46.212841],[2.80149,46.213001],[2.80211,46.213181],[2.80313,46.213791],[2.80364,46.214802],[2.80424,46.215511],[2.80583,46.216331],[2.80623,46.216728],[2.807082,46.21743],[2.808166,46.217896],[2.808348,46.217422],[2.808713,46.216999],[2.809871,46.217533],[2.810944,46.217903],[2.813101,46.218536],[2.814806,46.219278],[2.816277,46.218677],[2.817157,46.220025],[2.817457,46.221006],[2.817371,46.221259],[2.817822,46.222256],[2.818669,46.223183],[2.819753,46.223953],[2.820407,46.224258],[2.820793,46.224621],[2.821341,46.225555],[2.821898,46.226063],[2.823218,46.226677],[2.823497,46.226574],[2.824345,46.226597],[2.824988,46.22678],[2.825986,46.226479],[2.827177,46.225979],[2.827553,46.22604],[2.82795,46.226433],[2.828068,46.226788],[2.828883,46.226887],[2.830567,46.226692],[2.831104,46.226788],[2.831565,46.226894],[2.831715,46.227093],[2.83237,46.227306],[2.832971,46.227539],[2.834192,46.227745],[2.83667,46.227619],[2.838215,46.227444],[2.839063,46.227264],[2.841166,46.227745],[2.841938,46.228222],[2.842432,46.228271],[2.843494,46.228378],[2.843515,46.227295],[2.844824,46.227005],[2.846584,46.225266],[2.847002,46.224731],[2.847871,46.223976],[2.847861,46.223701],[2.848172,46.223606],[2.848494,46.223427],[2.849835,46.223209],[2.850875,46.223183],[2.851058,46.223064],[2.851347,46.222187],[2.851251,46.221912],[2.852839,46.220821],[2.852882,46.220375],[2.853847,46.219952],[2.854802,46.219769],[2.855939,46.220043],[2.856905,46.220226],[2.857431,46.220482],[2.85772,46.220451],[2.858675,46.219566],[2.86125,46.221001],[2.861937,46.221592],[2.864522,46.222668],[2.865048,46.223042],[2.865992,46.223797],[2.867505,46.224274],[2.868084,46.224369],[2.8689,46.224251],[2.869114,46.22393],[2.869833,46.223347],[2.871217,46.222713],[2.871475,46.222385],[2.871915,46.220985],[2.872065,46.219627],[2.872473,46.219166],[2.872794,46.218468],[2.874382,46.216904],[2.874994,46.216049],[2.875283,46.215492],[2.876206,46.214146],[2.876764,46.213154],[2.877193,46.212818],[2.877805,46.212559],[2.877848,46.212307],[2.878105,46.212135],[2.878363,46.211845],[2.879178,46.211193],[2.879564,46.210678],[2.880669,46.208942],[2.88171,46.207897],[2.881925,46.207146],[2.882729,46.205387],[2.883502,46.204494],[2.884253,46.20377],[2.884124,46.203262],[2.884639,46.202564],[2.884628,46.202202],[2.884435,46.201733],[2.884596,46.201237],[2.884778,46.20108],[2.884821,46.200611],[2.88494,46.200565],[2.885316,46.200577],[2.885471,46.200321],[2.885654,46.20015],[2.88604,46.19997],[2.886432,46.199451],[2.88693,46.198906],[2.887483,46.198231],[2.887156,46.19796],[2.886694,46.197319],[2.885622,46.196602],[2.885391,46.196316],[2.885622,46.196152],[2.885734,46.19566],[2.885627,46.195362],[2.885788,46.19521],[2.886088,46.195126],[2.887183,46.195068],[2.887746,46.19495],[2.888475,46.19466],[2.889028,46.194496],[2.889575,46.19418],[2.889645,46.194],[2.889312,46.193291],[2.889178,46.192654],[2.889275,46.192471],[2.88958,46.192287],[2.89053,46.192158],[2.89083,46.192039],[2.891013,46.191784],[2.891624,46.192085],[2.891978,46.19212],[2.89348,46.191711],[2.893759,46.191608],[2.894349,46.190865],[2.894704,46.190758],[2.895229,46.190681],[2.896297,46.190643],[2.896957,46.19054],[2.897799,46.190117],[2.898807,46.189823],[2.900325,46.189384],[2.901194,46.189064],[2.902246,46.189011],[2.902906,46.18895],[2.90326,46.188854],[2.903458,46.188637],[2.904435,46.188396],[2.904499,46.188366],[2.904939,46.188145],[2.905282,46.188107],[2.90577,46.188198],[2.90628,46.188141],[2.906714,46.188213],[2.907111,46.188141],[2.907492,46.187992],[2.90841,46.18787],[2.909305,46.187702],[2.910056,46.187725],[2.910453,46.187828],[2.910888,46.188148],[2.911424,46.188541],[2.911972,46.188797],[2.912342,46.188862],[2.912733,46.188881],[2.913651,46.189053],[2.914766,46.188908],[2.915641,46.188713],[2.916483,46.18861],[2.917325,46.188461],[2.918704,46.188053],[2.918656,46.189365],[2.920683,46.189308],[2.921113,46.189503],[2.921617,46.189407],[2.924444,46.190472],[2.925071,46.190693],[2.925377,46.190731],[2.926085,46.189888],[2.928676,46.190395],[2.929744,46.190784],[2.930892,46.190475],[2.931697,46.189438],[2.932271,46.189495],[2.932705,46.189739],[2.932871,46.189945],[2.933022,46.190285],[2.933311,46.190376],[2.933982,46.190327],[2.934888,46.190086],[2.935516,46.189938],[2.935146,46.189083],[2.934974,46.188454],[2.93498,46.186668],[2.934883,46.186073],[2.93499,46.185371],[2.935967,46.184929],[2.936229,46.184929],[2.936219,46.185116],[2.936905,46.185188],[2.938413,46.185467],[2.939432,46.185486],[2.940221,46.185341],[2.940693,46.185158],[2.941063,46.185169],[2.942645,46.185375],[2.944786,46.185925],[2.947157,46.185898],[2.94706,46.186085],[2.948358,46.18634],[2.951717,46.186813],[2.953229,46.186733],[2.95405,46.186775],[2.95663,46.186516],[2.957955,46.186157],[2.960273,46.185955],[2.960412,46.185925],[2.96133,46.186852],[2.962081,46.187077],[2.9645,46.187767],[2.965047,46.188026],[2.965643,46.18885],[2.96627,46.189499],[2.967005,46.189957],[2.967343,46.190102],[2.968217,46.190353],[2.968712,46.190342],[2.96927,46.190193],[2.970171,46.190529],[2.970729,46.190922],[2.973121,46.191662],[2.974216,46.191486],[2.975223,46.19149],[2.975814,46.191376],[2.975969,46.191196],[2.976178,46.191254],[2.976506,46.190975],[2.976543,46.190704],[2.976328,46.190498],[2.975765,46.190304],[2.975583,46.190102],[2.975561,46.189816],[2.975712,46.189659],[2.976248,46.189598],[2.977557,46.189487],[2.979617,46.188644],[2.980711,46.187813],[2.982396,46.186897],[2.982809,46.186569],[2.983002,46.186211],[2.983367,46.18586],[2.984402,46.185356],[2.985791,46.184452],[2.986682,46.184067],[2.987749,46.18375],[2.988463,46.183411],[2.988854,46.183064],[2.989289,46.182671],[2.990104,46.182247],[2.991601,46.181091],[2.992754,46.18045],[2.994004,46.179642],[2.994964,46.179581],[2.995045,46.179375],[2.995378,46.179718],[2.995555,46.179764],[2.995876,46.179741],[2.996391,46.179844],[2.99726,46.179913],[2.997518,46.180008],[2.997915,46.180222],[2.998602,46.180317],[2.998859,46.180443],[2.999063,46.180672],[2.999224,46.180679],[2.99954,46.1805],[3.000334,46.180458],[3.001037,46.180519],[3.001439,46.180504],[3.002555,46.180744],[3.004567,46.181084],[3.005774,46.181007],[3.006841,46.18079],[3.007989,46.18084],[3.008778,46.180565],[3.009336,46.180405],[3.010232,46.179779],[3.01095,46.179394],[3.011691,46.179356],[3.011691,46.179356],[3.013485,46.179627],[3.013892,46.179478],[3.014643,46.179419],[3.015244,46.179285],[3.015673,46.179018],[3.016382,46.17884],[3.016768,46.178572],[3.017304,46.17832],[3.017519,46.177889],[3.017948,46.17771],[3.017884,46.176938],[3.01769,46.176477],[3.018012,46.175883],[3.018592,46.175378],[3.018849,46.174367],[3.019257,46.174278],[3.020265,46.173713],[3.021853,46.173431],[3.022454,46.173505],[3.022754,46.173401],[3.023227,46.172659],[3.024063,46.172228],[3.024407,46.172213],[3.024364,46.172064],[3.024578,46.171812],[3.026617,46.171232],[3.027883,46.171395],[3.028376,46.171306],[3.028956,46.171455],[3.029278,46.171202],[3.030672,46.170771],[3.032475,46.170415],[3.032925,46.170385],[3.035908,46.169508],[3.03741,46.169389],[3.038976,46.168899],[3.039706,46.167844],[3.040049,46.167636],[3.040564,46.167398],[3.041251,46.167502],[3.042753,46.167205],[3.043676,46.167131],[3.044942,46.166551],[3.045607,46.166581],[3.046444,46.166863],[3.047238,46.166804],[3.047881,46.166388],[3.048418,46.165154],[3.048976,46.164693],[3.050349,46.1645],[3.051379,46.163995],[3.052817,46.163133],[3.053503,46.163044],[3.053868,46.163148],[3.054061,46.164069],[3.054533,46.164485],[3.056658,46.165377],[3.05713,46.164738],[3.057409,46.164901],[3.058839,46.16526],[3.059938,46.165298],[3.060727,46.165241],[3.062427,46.165237],[3.0649,46.165154],[3.065303,46.165295],[3.065786,46.165405],[3.066832,46.165897],[3.067288,46.165966],[3.068355,46.166058],[3.068639,46.166054],[3.069106,46.165894],[3.069626,46.165672],[3.070093,46.165607],[3.070436,46.165543],[3.071343,46.165531],[3.072137,46.165424],[3.072684,46.165264],[3.073462,46.165215],[3.074578,46.164967],[3.075452,46.164955],[3.076439,46.164402],[3.077346,46.164139],[3.078006,46.163849],[3.078687,46.163448],[3.079202,46.163052],[3.079964,46.162628],[3.080098,46.162464],[3.08086,46.162014],[3.081466,46.16011],[3.083156,46.160343],[3.083606,46.15984],[3.084116,46.159401],[3.083499,46.15818],[3.082844,46.157227],[3.082678,46.156849],[3.082641,46.156361],[3.082716,46.156185],[3.0819,46.155636],[3.081814,46.154922],[3.081691,46.154572],[3.081696,46.154266],[3.081176,46.153584],[3.08072,46.15321],[3.080259,46.152992],[3.079953,46.152874],[3.079835,46.15266],[3.079604,46.152138],[3.079282,46.151672],[3.079148,46.15107],[3.079245,46.150818],[3.079626,46.150185],[3.079733,46.150146],[3.079931,46.149738],[3.079926,46.149307],[3.079883,46.148907],[3.079969,46.148354],[3.079958,46.147316],[3.079905,46.1469],[3.079797,46.14682],[3.079524,46.146763],[3.079459,46.145828],[3.079642,46.145115],[3.079626,46.143589],[3.079738,46.143242],[3.080162,46.142673],[3.080339,46.142567],[3.080768,46.14241],[3.081203,46.142117],[3.08131,46.141933],[3.081316,46.141758],[3.081627,46.141407],[3.081782,46.141083],[3.081235,46.140976],[3.080398,46.140587],[3.079926,46.140396],[3.079079,46.139828],[3.077668,46.139172],[3.077244,46.139008],[3.075281,46.138523],[3.075307,46.138306],[3.073628,46.137604],[3.072116,46.137074],[3.071263,46.136719],[3.071756,46.13641],[3.072507,46.136234],[3.072765,46.136028],[3.072909,46.135658],[3.072985,46.134972],[3.072877,46.133968],[3.072631,46.133041],[3.073467,46.131893],[3.073639,46.131275],[3.073827,46.13026],[3.074009,46.129658],[3.073897,46.128834],[3.074181,46.128078],[3.074031,46.127132],[3.074342,46.126354],[3.074953,46.125675],[3.075602,46.124931],[3.076053,46.124683],[3.076901,46.124416],[3.078322,46.124035],[3.078902,46.123493],[3.079239,46.122986],[3.079615,46.122349],[3.080334,46.121941],[3.080554,46.12162],[3.080843,46.1208],[3.081353,46.120216],[3.080811,46.120075],[3.080645,46.119881],[3.080704,46.119083],[3.081138,46.119099],[3.08278,46.119602],[3.083381,46.119827],[3.084674,46.120155],[3.086288,46.120537],[3.086895,46.12059],[3.087447,46.120708],[3.088032,46.120708],[3.088794,46.119957],[3.088477,46.119225],[3.088064,46.116173]]],"type":"MultiLineString"},"properties":{"geo_point":{"lon":2.7881917002927343,"lat":46.21200000512294},"name":"GR463 De Evaux-les-Bains (Creuse) à Ebreuil (Allier) (2019)","code_gr":"GR463"}},{"type":"Feature","geometry":{"coordinates":[[[3.088035,46.116146],[3.091083,46.114384],[3.091362,46.113541],[3.092306,46.112286],[3.092221,46.109272],[3.098658,46.109348],[3.099108,46.109516],[3.100707,46.109859],[3.104183,46.10762],[3.105052,46.106884],[3.106962,46.10577],[3.109097,46.104183],[3.109869,46.103977],[3.110063,46.103493],[3.110384,46.103024],[3.110502,46.102207],[3.110084,46.101025],[3.11017,46.100155],[3.110391,46.099751],[3.110611,46.099548],[3.110584,46.098911],[3.110702,46.09848],[3.110122,46.097687],[3.109216,46.096775],[3.108856,46.095959],[3.108744,46.095116],[3.108948,46.093811],[3.108873,46.092121],[3.108985,46.090672],[3.10847,46.089603],[3.108395,46.089096],[3.108438,46.088776],[3.108636,46.088543],[3.108717,46.088135],[3.10921,46.08773],[3.109307,46.087318],[3.10928,46.086926],[3.109731,46.08643],[3.110208,46.085602],[3.110101,46.084953],[3.110283,46.084709],[3.110541,46.084141],[3.110589,46.083466],[3.110493,46.083046],[3.110525,46.08263],[3.110777,46.082493],[3.111657,46.082443],[3.111968,46.082325],[3.112558,46.081848],[3.113137,46.081566],[3.113845,46.081421],[3.114312,46.081516],[3.114988,46.081779],[3.115873,46.081848],[3.117418,46.08176],[3.119226,46.082031],[3.120658,46.082336],[3.123807,46.083267],[3.124215,46.083294],[3.127745,46.085857],[3.129096,46.086479],[3.130572,46.087078],[3.131907,46.087486],[3.133356,46.087574],[3.134058,46.087887],[3.134847,46.088924],[3.135282,46.089245],[3.138726,46.091015],[3.13923,46.09026],[3.139906,46.089886],[3.139911,46.089718],[3.139519,46.089169],[3.139144,46.088097],[3.139911,46.088135],[3.143034,46.085579],[3.143843,46.085536],[3.144041,46.085184],[3.143618,46.084542],[3.143704,46.083771],[3.143312,46.08265],[3.14336,46.082135],[3.143838,46.081772],[3.143409,46.080902],[3.142717,46.079903],[3.143897,46.078461],[3.146182,46.079506],[3.147394,46.079956],[3.148199,46.080524],[3.148392,46.081158],[3.148859,46.081554],[3.14991,46.082016],[3.150667,46.082245],[3.153977,46.08247],[3.156289,46.08284],[3.156669,46.082756],[3.157753,46.08263],[3.160891,46.083042],[3.161943,46.083355],[3.162774,46.083637],[3.16477,46.084553],[3.166256,46.0853],[3.167549,46.085804],[3.168444,46.086002],[3.169845,46.086567],[3.170794,46.087051],[3.172071,46.088062],[3.172524,46.088639],[3.173012,46.089122],[3.17425,46.08957],[3.175676,46.090244],[3.176062,46.090609],[3.176864,46.090815],[3.179028,46.092167],[3.179527,46.092239],[3.179989,46.092422],[3.180836,46.092907],[3.181099,46.09299],[3.18222,46.09406],[3.184115,46.095045],[3.185561,46.096278],[3.185943,46.094982],[3.188556,46.0961],[3.189017,46.096127],[3.18972,46.096565],[3.190342,46.096725],[3.190953,46.096775],[3.191254,46.096867],[3.191538,46.097202],[3.191951,46.097385],[3.192697,46.097393],[3.193314,46.097267],[3.194054,46.097496],[3.194558,46.097504],[3.195106,46.097729],[3.197047,46.098461],[3.19818,46.098079],[3.198894,46.098054],[3.200794,46.098417],[3.200881,46.099227],[3.200812,46.099384],[3.200934,46.099674],[3.200759,46.099964],[3.200324,46.100846],[3.201195,46.101233],[3.201559,46.10181],[3.201715,46.102222],[3.202197,46.10276],[3.202337,46.103119],[3.202723,46.104114],[3.204375,46.10398],[3.205534,46.104118],[3.206076,46.103996],[3.206269,46.104084],[3.206451,46.104313],[3.208908,46.104828],[3.209139,46.104179],[3.20916,46.10358],[3.209418,46.10302],[3.209418,46.10302],[3.212249,46.103617],[3.214738,46.103944],[3.216176,46.104167],[3.21709,46.104508],[3.21948,46.104822],[3.221176,46.104718],[3.222613,46.104703],[3.225102,46.104985],[3.225188,46.105298],[3.225188,46.105298],[3.225188,46.105298],[3.22491,46.106014],[3.224578,46.106224],[3.222877,46.107094],[3.222131,46.106926],[3.220908,46.107227],[3.221,46.107288],[3.222126,46.107143],[3.222507,46.107201],[3.224427,46.108055],[3.225034,46.108189],[3.226498,46.108482],[3.229969,46.10973],[3.232801,46.111305],[3.236052,46.109013],[3.237699,46.107933],[3.238107,46.107826],[3.240848,46.107624],[3.241282,46.107761],[3.241899,46.108433],[3.242811,46.109112],[3.243369,46.109367],[3.24463,46.109634],[3.245595,46.10976],[3.24559,46.109528],[3.245204,46.108791],[3.245241,46.108494],[3.248015,46.106895],[3.248363,46.106758],[3.249179,46.106552],[3.249281,46.106453],[3.24956,46.105839],[3.250096,46.105602],[3.250842,46.105328],[3.252473,46.104977],[3.257808,46.105708],[3.259187,46.106326],[3.259276,46.107156],[3.259793,46.107288],[3.26068,46.10533],[3.260599,46.09943],[3.264837,46.0979],[3.268066,46.097008],[3.269118,46.096855],[3.269976,46.0965],[3.270512,46.096432],[3.270201,46.100719],[3.27309,46.101015],[3.274188,46.100907],[3.275896,46.101003],[3.278548,46.101364],[3.278902,46.101498],[3.278807,46.102055],[3.278929,46.102695],[3.278849,46.103551],[3.280737,46.103634],[3.28109,46.104012],[3.281252,46.104588],[3.281852,46.104855],[3.282249,46.104759],[3.285828,46.104962],[3.291329,46.106135],[3.293182,46.106147],[3.294636,46.10534],[3.295986,46.104886],[3.296993,46.104758],[3.297806,46.10498],[3.298021,46.10545],[3.298815,46.105576],[3.299705,46.105629],[3.300135,46.105991],[3.303782,46.106579],[3.305327,46.10664],[3.305628,46.106998],[3.305875,46.107109],[3.306518,46.107079],[3.30684,46.106937],[3.308471,46.106838],[3.308868,46.105145],[3.309233,46.104904],[3.30928,46.104919],[3.311521,46.104907],[3.3129,46.105438],[3.31352,46.10553],[3.31486,46.105572],[3.31686,46.10643],[3.31825,46.106918],[3.32028,46.107849],[3.32109,46.10788],[3.32192,46.108021],[3.32211,46.107819],[3.32244,46.107712],[3.32315,46.107841],[3.33108,46.106548],[3.33142,46.106609],[3.3334,46.107182],[3.33614,46.107109],[3.33667,46.106979],[3.33773,46.10651],[3.33814,46.106499],[3.33828,46.106258],[3.33925,46.105759],[3.33978,46.105621],[3.340087,46.105257],[3.340296,46.104399],[3.341,46.104012],[3.34128,46.10331],[3.34121,46.102139],[3.34152,46.101391],[3.357272,46.105305],[3.357865,46.105668],[3.358248,46.105354],[3.3588,46.105751],[3.36922,46.108318],[3.37406,46.109581],[3.37427,46.11018],[3.3753,46.110691],[3.37732,46.110741],[3.3792,46.111172],[3.37989,46.111141],[3.38106,46.110531],[3.38242,46.11013],[3.3864,46.112129],[3.388819,46.111891],[3.39269,46.112049],[3.39364,46.112061],[3.393746,46.111774],[3.39404,46.111771],[3.39463,46.111389],[3.39561,46.111542],[3.39594,46.111408],[3.39657,46.11079],[3.39704,46.11018],[3.39878,46.109798],[3.39927,46.109879],[3.40079,46.110378],[3.40255,46.1106],[3.402762,46.110417],[3.40663,46.112389],[3.40756,46.112728],[3.40864,46.113041],[3.40918,46.11343],[3.40958,46.114021],[3.41034,46.114491],[3.41129,46.114128],[3.41274,46.11594],[3.41462,46.1175],[3.418486,46.120174],[3.419998,46.119396],[3.421103,46.119068],[3.422101,46.11887],[3.424091,46.118496],[3.424263,46.118309],[3.424992,46.118244],[3.425663,46.118053],[3.42673,46.117596],[3.427396,46.117435],[3.429091,46.117308],[3.429611,46.117347],[3.431488,46.117034],[3.432693,46.116632],[3.433538,46.116271],[3.434072,46.115933],[3.434809,46.115463],[3.435507,46.114914],[3.43578,46.114594],[3.436338,46.114178],[3.436402,46.113834],[3.436569,46.113594],[3.436295,46.113403],[3.436097,46.113014],[3.434047,46.11216],[3.433157,46.111881],[3.431725,46.111183],[3.43062,46.11087],[3.430325,46.110828],[3.429327,46.110447],[3.428769,46.110126],[3.428383,46.109821],[3.427868,46.109573],[3.427653,46.109314],[3.427675,46.109035],[3.428066,46.108822],[3.428506,46.108215],[3.428769,46.107803],[3.429182,46.107658],[3.429643,46.107632],[3.430078,46.107681],[3.431022,46.107613],[3.433103,46.107635],[3.434133,46.107288],[3.435233,46.107098],[3.436231,46.106686],[3.436783,46.106262],[3.43747,46.106083],[3.438167,46.104904],[3.438967,46.104214],[3.439267,46.103374],[3.439514,46.102154],[3.439535,46.101727],[3.439728,46.101295],[3.439981,46.101089],[3.440302,46.101017],[3.440554,46.100754],[3.440544,46.100327],[3.440619,46.100071],[3.440581,46.099823],[3.44086,46.098984],[3.441225,46.098602],[3.441604,46.098],[3.44185,46.097759],[3.442167,46.097786],[3.442508,46.098137],[3.442832,46.098351],[3.443607,46.09837],[3.444066,46.098042],[3.44424,46.097767],[3.44468,46.09766],[3.445077,46.097675],[3.445568,46.097836],[3.445796,46.098007],[3.446145,46.09816],[3.446737,46.098286],[3.447086,46.09832],[3.447368,46.09824],[3.44796,46.097828],[3.448379,46.097607],[3.448639,46.097595],[3.449103,46.097656],[3.449463,46.097816],[3.452335,46.098743],[3.453126,46.09914],[3.453821,46.099594],[3.454352,46.100014],[3.45462,46.100105],[3.455403,46.100063],[3.455902,46.100006],[3.456321,46.100067],[3.457522,46.09996],[3.458284,46.099976],[3.458622,46.099171],[3.45896,46.098721],[3.459244,46.097916],[3.459786,46.097301],[3.460017,46.097305],[3.460414,46.098461],[3.460585,46.099007],[3.460564,46.099449],[3.460623,46.09977],[3.461218,46.100727],[3.461991,46.102379],[3.462254,46.103031],[3.462495,46.103184],[3.464619,46.104248],[3.466754,46.104336],[3.466647,46.104996],[3.466921,46.105068],[3.468589,46.105267],[3.468482,46.105534],[3.47044,46.105312],[3.470939,46.104595],[3.47081,46.103783],[3.470826,46.103348],[3.47125,46.10268],[3.472768,46.101822],[3.474286,46.1012],[3.475219,46.1012],[3.475869,46.100328],[3.47582,46.099259],[3.47582,46.099259],[3.477487,46.099726],[3.480191,46.100306],[3.481307,46.100753],[3.482456,46.101006],[3.482874,46.099838],[3.483266,46.099464],[3.483454,46.099239],[3.483738,46.09914],[3.48517,46.098221],[3.486399,46.097351],[3.488287,46.096565],[3.488652,46.096497],[3.4909,46.095764],[3.49304,46.094845],[3.493592,46.094646],[3.494225,46.094479],[3.495014,46.094185],[3.495497,46.094124],[3.496178,46.094139],[3.497417,46.09433],[3.498072,46.094318],[3.498817,46.094391],[3.49915,46.094334],[3.499606,46.094097],[3.500904,46.093765],[3.501988,46.093491],[3.503372,46.09341],[3.503989,46.093292],[3.505206,46.092834],[3.50599,46.092346],[3.506451,46.092106],[3.50857,46.090759],[3.509857,46.090031],[3.512448,46.090878],[3.511798,46.088627],[3.512937,46.087517],[3.518902,46.083015],[3.519492,46.082397],[3.519878,46.081722],[3.520141,46.081051],[3.520007,46.080246],[3.520088,46.079887],[3.519975,46.079838],[3.519792,46.077927],[3.51991,46.076927],[3.519996,46.075043],[3.519841,46.074875],[3.519433,46.074692],[3.518263,46.074413],[3.517883,46.074203],[3.517368,46.073692],[3.517062,46.073166],[3.516992,46.072803],[3.51733,46.072308],[3.517888,46.07172],[3.518553,46.071503],[3.518628,46.071323],[3.518473,46.07122],[3.518097,46.071178],[3.517453,46.071407],[3.517014,46.071411],[3.516472,46.071278],[3.515989,46.070892],[3.515667,46.070282],[3.515522,46.069328],[3.515608,46.068562],[3.515608,46.068047],[3.514622,46.067384],[3.51276,46.066406],[3.510072,46.065041],[3.509605,46.064667],[3.509632,46.064106],[3.510024,46.063805],[3.510394,46.0634],[3.510598,46.06303],[3.51151,46.062595],[3.511885,46.062248],[3.512154,46.06244],[3.512566,46.062566],[3.513489,46.062822],[3.51468,46.062703],[3.515297,46.062618],[3.515764,46.062733],[3.516949,46.062839],[3.517743,46.062875],[3.51851,46.06284],[3.518543,46.062583],[3.521396,46.0625],[3.523665,46.06337],[3.524722,46.063858],[3.525666,46.064159],[3.526332,46.064194],[3.52705,46.064377],[3.527254,46.064659],[3.52837,46.065006],[3.529175,46.065067],[3.529464,46.064663],[3.530113,46.064369],[3.530221,46.064114],[3.530119,46.063179],[3.529652,46.061989],[3.529657,46.061417],[3.530194,46.060444],[3.529668,46.06144],[3.52992,46.060863],[3.530242,46.060375],[3.530779,46.060051],[3.530875,46.059803],[3.530913,46.059376],[3.531149,46.059078],[3.531637,46.058834],[3.532098,46.058758],[3.533171,46.058197],[3.533536,46.058025],[3.533793,46.057949],[3.534357,46.05777],[3.53485,46.057716],[3.535542,46.057743],[3.536127,46.057705],[3.536867,46.057922],[3.537978,46.058167],[3.538766,46.058491],[3.53919,46.058502],[3.540059,46.05822],[3.540574,46.058308],[3.541229,46.058014],[3.541631,46.057716],[3.542307,46.057613],[3.543117,46.057735],[3.544061,46.057732],[3.544957,46.057922],[3.545375,46.057819],[3.545874,46.057606],[3.546545,46.057613],[3.54736,46.057892],[3.547559,46.057789],[3.547736,46.057541],[3.547859,46.056419],[3.547709,46.055428],[3.547655,46.054642],[3.547687,46.054111],[3.547585,46.053665],[3.547274,46.053055],[3.547124,46.052128],[3.546411,46.051132],[3.546099,46.049824],[3.545472,46.049171],[3.54544,46.048309],[3.545649,46.04752],[3.545907,46.046859],[3.547081,46.045477],[3.54788,46.044292],[3.550536,46.040009],[3.551287,46.039223],[3.552263,46.038757],[3.552928,46.038689],[3.554414,46.038696],[3.555847,46.038296],[3.556281,46.038021],[3.556641,46.037727],[3.557445,46.037193],[3.558362,46.036415],[3.559564,46.035873],[3.559993,46.035767],[3.560337,46.035503],[3.560846,46.034904],[3.56105,46.034431],[3.561367,46.034081],[3.562268,46.033451],[3.562976,46.033134],[3.563743,46.032726],[3.564676,46.032703],[3.565304,46.032448],[3.566055,46.032181],[3.566811,46.031826],[3.567273,46.0317],[3.568099,46.031631],[3.568952,46.031376],[3.569697,46.031055],[3.570094,46.030731],[3.57098,46.029785],[3.571865,46.029324],[3.573088,46.028542],[3.573817,46.028053],[3.574204,46.027943],[3.574204,46.027943],[3.575313,46.027963],[3.576472,46.027293],[3.576772,46.026935],[3.577502,46.026622],[3.57806,46.026622],[3.578639,46.026697],[3.579626,46.026414],[3.58042,46.02628],[3.581343,46.026742],[3.583381,46.027665],[3.584025,46.028172],[3.584432,46.028216],[3.585956,46.027725],[3.587994,46.029527],[3.588552,46.030302],[3.588574,46.030645],[3.588316,46.030913],[3.588445,46.032581],[3.58808,46.032969],[3.587372,46.032924],[3.587179,46.033103],[3.5872,46.033356],[3.587823,46.033743],[3.587952,46.03425],[3.587479,46.034801],[3.587329,46.035322],[3.587522,46.036261],[3.587029,46.036767],[3.586621,46.037214],[3.586557,46.03778],[3.586986,46.038153],[3.589861,46.036663],[3.59308,46.032894],[3.593209,46.03206],[3.593101,46.031568],[3.593445,46.031226],[3.593767,46.0306],[3.593252,46.029945],[3.592737,46.029915],[3.592543,46.029706],[3.592887,46.029066],[3.594088,46.028038],[3.594668,46.027799],[3.594689,46.028261],[3.595955,46.029811],[3.597629,46.028946],[3.598122,46.028961],[3.598552,46.02914],[3.600167,46.028637],[3.601568,46.028084],[3.602238,46.02766],[3.603043,46.027531],[3.603112,46.026947],[3.603322,46.026649],[3.603268,46.026489],[3.603086,46.026279],[3.603118,46.026119],[3.603472,46.025726],[3.603327,46.025467],[3.60226,46.024902],[3.601036,46.02478],[3.600854,46.024643],[3.600511,46.024265],[3.599776,46.023922],[3.599395,46.023499],[3.599309,46.023148],[3.600582,46.022188],[3.601256,46.021896],[3.60256,46.020401],[3.603483,46.021118],[3.60374,46.021484],[3.604588,46.022266],[3.605194,46.02256],[3.605891,46.022697],[3.607227,46.023502],[3.608241,46.02404],[3.609802,46.025158],[3.61059,46.025574],[3.611551,46.025887],[3.612361,46.025948],[3.612962,46.026161],[3.613702,46.026703],[3.615205,46.027368],[3.615826,46.027863],[3.616486,46.027912],[3.618535,46.028526],[3.620488,46.027878],[3.621362,46.027748],[3.623428,46.027119],[3.623771,46.027153],[3.624956,46.026943],[3.626019,46.026878],[3.629007,46.027306],[3.629436,46.027458],[3.630712,46.02824],[3.632869,46.029072],[3.63347,46.029263],[3.635111,46.029694],[3.63671,46.030415],[3.638265,46.030743],[3.640009,46.030792],[3.640685,46.031059],[3.641838,46.03104],[3.64312,46.030605],[3.643753,46.031059],[3.645304,46.031616],[3.646698,46.031727],[3.648721,46.031139],[3.649799,46.030792],[3.649847,46.030876],[3.649525,46.031109],[3.649161,46.031239],[3.64915,46.031357],[3.650448,46.031548],[3.651156,46.03149],[3.653887,46.032021],[3.654707,46.032326],[3.655823,46.032608],[3.659981,46.032978],[3.660673,46.033154],[3.664288,46.033356],[3.665308,46.033348],[3.66608,46.033176],[3.667351,46.033012],[3.668274,46.032841],[3.668998,46.032875],[3.669454,46.032768],[3.670307,46.032547],[3.670683,46.032627],[3.672287,46.033401],[3.673971,46.033581],[3.675006,46.033596],[3.676503,46.03389],[3.67764,46.034222],[3.678059,46.034527],[3.679057,46.034737],[3.680124,46.034836],[3.680618,46.034641],[3.680805,46.034325],[3.680843,46.034027],[3.68124,46.033657],[3.681503,46.033352],[3.682726,46.033283],[3.683949,46.033035],[3.684432,46.033115],[3.685687,46.033752],[3.68602,46.033752],[3.687404,46.034126],[3.688037,46.034016],[3.688863,46.034008],[3.689673,46.033855],[3.691314,46.034485],[3.691615,46.034473],[3.692903,46.034785],[3.694125,46.035316],[3.694485,46.0354],[3.694613,46.035587],[3.695284,46.035767],[3.695783,46.035744],[3.696174,46.035896],[3.696893,46.035839],[3.697725,46.035606],[3.698197,46.035603],[3.698808,46.035748],[3.699409,46.035767],[3.700498,46.03558],[3.70082,46.035362],[3.701174,46.035244],[3.70141,46.034775],[3.70163,46.034779],[3.702086,46.034946],[3.703116,46.034985],[3.705315,46.034763],[3.705573,46.034801],[3.705943,46.035],[3.70649,46.034931],[3.708142,46.034817],[3.708378,46.034889],[3.708641,46.035313],[3.708797,46.035671],[3.709403,46.03587],[3.709564,46.035748],[3.70972,46.034962],[3.709988,46.034595],[3.710492,46.03421],[3.71075,46.03397],[3.711399,46.033924],[3.712123,46.034119],[3.712289,46.034039],[3.712402,46.032501],[3.712826,46.031662],[3.713158,46.031284],[3.713598,46.031273],[3.714934,46.031506],[3.7154,46.031666],[3.715535,46.031616],[3.715556,46.030838],[3.71547,46.030643],[3.715454,46.030235],[3.714864,46.029705],[3.714542,46.029621],[3.714515,46.029457],[3.714902,46.029179],[3.715181,46.029148],[3.715513,46.029156],[3.715862,46.02903],[3.716151,46.028706],[3.716495,46.027756],[3.716752,46.027695],[3.717015,46.027859],[3.717176,46.028198],[3.717648,46.028511],[3.718072,46.028599],[3.718608,46.028618],[3.719257,46.029076],[3.719874,46.029366],[3.720255,46.029381],[3.72069,46.029346],[3.721001,46.029655],[3.721194,46.029907],[3.721468,46.02993],[3.721736,46.029682],[3.722165,46.029427],[3.72386,46.029289],[3.724788,46.029339],[3.72526,46.029289],[3.725947,46.029121],[3.726092,46.028759],[3.726317,46.028767],[3.727567,46.029568],[3.728012,46.029591],[3.728297,46.029453],[3.728463,46.028896],[3.728833,46.028488],[3.729428,46.028141],[3.729745,46.027855],[3.730196,46.027538],[3.730544,46.027439],[3.730914,46.027473],[3.731622,46.027657],[3.732529,46.028133],[3.733538,46.02874],[3.733817,46.028725],[3.73431,46.028584],[3.735083,46.028599],[3.735952,46.028919],[3.736257,46.029137],[3.736772,46.029839],[3.736837,46.030094],[3.736815,46.030624],[3.73711,46.030869],[3.737663,46.031536],[3.73777,46.031883],[3.738049,46.032162],[3.738151,46.032429],[3.738001,46.032669],[3.737432,46.033241],[3.738065,46.03297],[3.738532,46.03249],[3.738532,46.03249],[3.739529,46.031673],[3.74043,46.031732],[3.740516,46.031211],[3.741674,46.030466],[3.741953,46.030153],[3.741674,46.029617],[3.742511,46.028321],[3.743026,46.028202],[3.743777,46.028157],[3.74412,46.027188],[3.745322,46.026116],[3.746184,46.025262],[3.748129,46.025173],[3.750033,46.024372],[3.750634,46.024323],[3.751095,46.024059],[3.751412,46.02372],[3.752093,46.022274],[3.752265,46.022095],[3.752973,46.022083],[3.753686,46.022305],[3.754164,46.022736],[3.754185,46.023266],[3.754732,46.024078],[3.755521,46.024715],[3.75639,46.025227],[3.757184,46.025135],[3.757989,46.024918],[3.758445,46.024963],[3.759373,46.025261],[3.760097,46.025261],[3.761137,46.024845],[3.761583,46.024506],[3.761754,46.024593],[3.762146,46.024555],[3.763138,46.02422],[3.764554,46.024125],[3.765123,46.024395],[3.765931,46.024778],[3.766332,46.024839],[3.767168,46.024766],[3.767704,46.024986],[3.768449,46.025505],[3.769141,46.025768],[3.769452,46.025742],[3.769635,46.025574],[3.769626,46.025323],[3.770358,46.024391],[3.77116,46.02243],[3.771438,46.022188],[3.771727,46.022072],[3.772312,46.022057],[3.772773,46.022137],[3.773733,46.022434],[3.774135,46.022644],[3.774396,46.022874],[3.774992,46.02313],[3.775797,46.023134],[3.776617,46.023046],[3.779693,46.023781],[3.781157,46.024246],[3.782263,46.025276],[3.78326,46.026009],[3.784408,46.02652],[3.787085,46.026569],[3.787579,46.02647],[3.788201,46.026199],[3.788882,46.026051],[3.789462,46.025776],[3.790084,46.025139],[3.790561,46.02475],[3.790771,46.024296],[3.790808,46.023643]]],"type":"MultiLineString"},"properties":{"geo_point":{"lon":3.436871744270898,"lat":46.07473892250414},"name":"GR463 De Ebreuil au Rez-de-l'Aile (Allier) (2019)","code_gr":"GR463"}}]}