{"type":"FeatureCollection","features":[{"type":"Feature","geometry":{"coordinates":[[[1.582332,45.054136],[1.582654,45.05403],[1.583104,45.054076],[1.584542,45.05356],[1.585915,45.053409],[1.58673,45.053393],[1.587546,45.053515],[1.587954,45.053378],[1.588469,45.05303],[1.589284,45.052696],[1.590142,45.052347],[1.590378,45.052317],[1.590722,45.052272],[1.591194,45.052272],[1.591644,45.05215],[1.592417,45.051756],[1.593211,45.051408],[1.594155,45.05112],[1.594605,45.050801],[1.594605,45.050316],[1.595099,45.048861],[1.596408,45.048406],[1.596601,45.049331],[1.596601,45.050513],[1.596472,45.051802],[1.598232,45.051817],[1.59821,45.051362],[1.598382,45.051029],[1.599455,45.050892],[1.600657,45.050665],[1.601944,45.051226],[1.602223,45.051165],[1.604004,45.051771],[1.604497,45.052196],[1.604776,45.052166],[1.605463,45.051347],[1.606171,45.05118],[1.608253,45.051392],[1.609948,45.051301],[1.610141,45.050801],[1.610398,45.050695],[1.610892,45.049907],[1.612051,45.049937],[1.612952,45.050301],[1.613424,45.050331],[1.614003,45.050528],[1.616771,45.051013],[1.617801,45.051013],[1.618059,45.05118],[1.618381,45.051711],[1.619239,45.052256],[1.619797,45.052757],[1.620269,45.052984],[1.620913,45.053121],[1.62132,45.053121],[1.622157,45.05359],[1.622715,45.0545],[1.622844,45.05547],[1.623209,45.056076],[1.62338,45.056471],[1.623724,45.056683],[1.624088,45.056986],[1.624925,45.057001],[1.62559,45.056956],[1.626213,45.057016],[1.626706,45.057228],[1.627049,45.057259],[1.627929,45.056698],[1.628487,45.055864],[1.629281,45.056152],[1.629431,45.056471],[1.62986,45.056743],[1.630182,45.057213],[1.630933,45.057683],[1.631148,45.058259],[1.631362,45.058562],[1.631341,45.058941],[1.631577,45.059654],[1.632028,45.060548],[1.632521,45.061139],[1.632864,45.061806],[1.633101,45.062033],[1.633358,45.062549],[1.633744,45.063079],[1.633809,45.064125],[1.634066,45.065004],[1.634302,45.06614],[1.634967,45.066625],[1.635418,45.06705],[1.635997,45.067232],[1.636598,45.067459],[1.638122,45.067686],[1.639087,45.067626],[1.639559,45.067459],[1.64016,45.067383],[1.640353,45.067019],[1.640847,45.067126],[1.641941,45.066913],[1.642778,45.06661],[1.643293,45.066186],[1.643937,45.065534],[1.645439,45.06464],[1.646361,45.064443],[1.647027,45.064201],[1.648057,45.064155],[1.648636,45.064216],[1.649215,45.063867],[1.64973,45.063382],[1.650331,45.063018],[1.65149,45.062655],[1.651876,45.062761],[1.652262,45.062503],[1.653893,45.062003],[1.654773,45.061776],[1.655245,45.061685],[1.654279,45.060563],[1.653936,45.06032],[1.653614,45.06026],[1.653121,45.060048],[1.652927,45.05979],[1.65297,45.059457],[1.652734,45.059199],[1.652327,45.05882],[1.652133,45.058032],[1.65267,45.05688],[1.652133,45.055667],[1.65179,45.055106],[1.651254,45.054833],[1.651146,45.054303],[1.651103,45.053681],[1.650889,45.053105],[1.650953,45.052529],[1.650825,45.052287],[1.649988,45.052211],[1.648593,45.051968],[1.647885,45.051726],[1.647284,45.051711],[1.64664,45.051574],[1.646125,45.051923],[1.645052,45.051423],[1.645632,45.050498],[1.646061,45.050255],[1.647327,45.049983],[1.648486,45.048739],[1.648743,45.04833],[1.648421,45.048315],[1.646791,45.04786],[1.646469,45.047542],[1.646297,45.047511],[1.645589,45.046966],[1.645288,45.046875],[1.644387,45.046526],[1.644173,45.046041],[1.643507,45.045783],[1.643808,45.044904],[1.643615,45.044707],[1.643572,45.044479],[1.643035,45.044267],[1.64252,45.043691],[1.641448,45.043433],[1.640439,45.043024],[1.63986,45.04269],[1.639302,45.042251],[1.63898,45.041553],[1.639302,45.041356],[1.639817,45.040765],[1.639645,45.040416],[1.638744,45.03934],[1.638701,45.03796],[1.638207,45.037338],[1.638637,45.037126],[1.638916,45.037156],[1.63883,45.036519],[1.63898,45.036595],[1.639431,45.036565],[1.639881,45.03661],[1.64149,45.035852],[1.643057,45.0352],[1.643593,45.034745],[1.643615,45.034017],[1.644065,45.033699],[1.644816,45.033289],[1.644816,45.032698],[1.645353,45.030969],[1.645782,45.029847],[1.645997,45.028876],[1.646512,45.028088],[1.647348,45.027527],[1.648593,45.027193],[1.64928,45.027178],[1.649923,45.026935],[1.651404,45.026647],[1.652391,45.026131],[1.652563,45.026465],[1.653807,45.025874],[1.655889,45.0251],[1.656747,45.024691],[1.657391,45.024569],[1.658013,45.02419],[1.658785,45.023356],[1.659536,45.022947],[1.660802,45.022037],[1.661189,45.021915],[1.66106,45.021475],[1.66136,45.021142],[1.661854,45.020763],[1.662347,45.020277],[1.663356,45.019792],[1.663871,45.019322],[1.664493,45.019018],[1.664665,45.018851],[1.665137,45.01876],[1.665072,45.017972],[1.664665,45.017319],[1.664515,45.016455],[1.66445,45.015484],[1.664729,45.015196],[1.665351,45.014938],[1.665759,45.015059],[1.666746,45.014574],[1.667175,45.014134],[1.668227,45.013846],[1.668742,45.013542],[1.668999,45.014286],[1.668978,45.015423],[1.669257,45.016273],[1.669922,45.017016],[1.671059,45.017972],[1.672218,45.017259],[1.673205,45.016728],[1.67357,45.01644],[1.674299,45.016728],[1.675994,45.016713],[1.677647,45.016849],[1.679127,45.016789],[1.680222,45.016606],[1.680887,45.015621],[1.681015,45.015332],[1.681767,45.016819],[1.681852,45.017426],[1.683075,45.017183],[1.684449,45.016986],[1.685071,45.016698],[1.686037,45.016364],[1.689234,45.015985],[1.690865,45.015696],[1.691723,45.015439],[1.692367,45.015378],[1.693418,45.015014],[1.694813,45.014938],[1.69565,45.014771],[1.696765,45.014786],[1.698418,45.014665],[1.700134,45.014786],[1.701508,45.015014],[1.702473,45.014953],[1.703203,45.014786],[1.705971,45.014589],[1.706765,45.014392],[1.707451,45.014043],[1.708052,45.013967],[1.708503,45.0138],[1.709018,45.013831],[1.709447,45.013967],[1.709983,45.013588],[1.710434,45.012981],[1.710241,45.012298],[1.710863,45.011859],[1.711142,45.011828],[1.711314,45.01154],[1.711721,45.011191],[1.712279,45.011115],[1.712773,45.010554],[1.713159,45.009902],[1.714103,45.009416],[1.714661,45.009295],[1.715627,45.009568],[1.717043,45.00975],[1.717858,45.010038],[1.718824,45.010023],[1.719124,45.010084],[1.719768,45.009932],[1.720455,45.010114],[1.720948,45.010129],[1.722794,45.009871],[1.724918,45.009462],[1.725926,45.009158],[1.726034,45.009007],[1.726356,45.008976],[1.728051,45.008582],[1.729767,45.008642],[1.730561,45.008976],[1.730905,45.0089],[1.731892,45.008946],[1.733994,45.008961],[1.73511,45.008567],[1.736269,45.007823],[1.737084,45.007505],[1.737964,45.007323],[1.738307,45.006352],[1.738887,45.005457],[1.740346,45.004486],[1.741226,45.004137],[1.741955,45.003135],[1.741998,45.00271],[1.74262,45.001922],[1.742578,45.001745],[1.742713,45.00171],[1.742845,45.001462],[1.743235,45.001108],[1.743305,45.000902],[1.743495,45.001405],[1.743916,45.001808],[1.744401,45.001633],[1.745303,45.001755],[1.745861,45.001512],[1.746075,45.001709],[1.747727,45.001254],[1.748757,45.001208],[1.751525,45.000404],[1.751869,45.000374],[1.752019,44.9996],[1.751719,44.998189],[1.751332,44.997324],[1.75159,44.996307],[1.751547,44.995336],[1.751375,44.99482],[1.750882,44.994001],[1.750281,44.992362],[1.752963,44.992286],[1.754594,44.992104],[1.757061,44.991573],[1.758521,44.990921],[1.759486,44.990799],[1.760108,44.990465],[1.760452,44.99042],[1.761289,44.990587],[1.761847,44.989934],[1.761782,44.989737],[1.762748,44.989509],[1.763649,44.989828],[1.764421,44.989782],[1.763864,44.988857],[1.76367,44.988234],[1.763585,44.987658],[1.763306,44.987202],[1.763284,44.986155],[1.763434,44.98526],[1.762919,44.984713],[1.762984,44.984471],[1.762726,44.984106],[1.764314,44.983651],[1.764958,44.983317],[1.765709,44.983181],[1.766288,44.982847],[1.766717,44.982376],[1.767662,44.98224],[1.768713,44.98095],[1.769636,44.980145],[1.769958,44.97969],[1.77073,44.979644],[1.771502,44.97931],[1.770966,44.979386],[1.769893,44.979189],[1.770837,44.978764],[1.773541,44.977944],[1.775215,44.978081],[1.776416,44.977975],[1.777468,44.97755],[1.778433,44.976624],[1.779249,44.975242],[1.780043,44.975364],[1.781781,44.976047],[1.782489,44.975956],[1.78324,44.975455],[1.783369,44.975971],[1.783991,44.976153],[1.78457,44.976138],[1.785386,44.976457],[1.786308,44.9767],[1.787252,44.976669],[1.787446,44.976897],[1.787102,44.977458],[1.787188,44.97758],[1.787703,44.977428],[1.787381,44.977792],[1.786673,44.978308],[1.787424,44.978324],[1.788046,44.978126],[1.788712,44.978597],[1.789269,44.97799],[1.789377,44.977489],[1.7906,44.976016],[1.791093,44.975758],[1.79148,44.975455],[1.792724,44.975273],[1.79311,44.974574],[1.793497,44.974362],[1.79399,44.974499],[1.79517,44.974225],[1.795557,44.974377],[1.795685,44.974832],[1.795685,44.975303],[1.795943,44.975652],[1.796544,44.975971],[1.796479,44.976775],[1.796629,44.976821],[1.79796,44.976533],[1.798496,44.976517],[1.798732,44.976775],[1.79884,44.977261],[1.799719,44.977534],[1.799505,44.978384],[1.800256,44.978642],[1.800878,44.979371],[1.801178,44.979523],[1.801822,44.979432],[1.802015,44.979143],[1.802294,44.979523],[1.803002,44.97972],[1.805277,44.978931],[1.807036,44.978521],[1.807766,44.978233],[1.808174,44.978248],[1.808538,44.978718],[1.80841,44.978885],[1.807423,44.979386],[1.807079,44.979857],[1.806414,44.980418],[1.806607,44.980813],[1.806972,44.980919],[1.809032,44.9806],[1.810791,44.980676],[1.811886,44.980965],[1.812572,44.980767],[1.813731,44.980236],[1.814461,44.980039],[1.815898,44.979067],[1.817143,44.978673],[1.8171,44.978931],[1.817164,44.979523],[1.816885,44.979978],[1.817186,44.980251],[1.817293,44.98057],[1.818538,44.981056],[1.819181,44.981541],[1.820791,44.981906],[1.82225,44.981693],[1.822979,44.981663],[1.823666,44.98145],[1.824546,44.981891],[1.825426,44.981997],[1.82549,44.982118],[1.826262,44.982482],[1.827142,44.982589],[1.828344,44.982528],[1.834159,44.981329],[1.83505,44.981193],[1.83526,44.981236],[1.835681,44.981158],[1.835727,44.981269],[1.835575,44.9814],[1.835707,44.981587],[1.836367,44.981484],[1.836202,44.981741],[1.836301,44.981886],[1.836308,44.982031],[1.8364,44.982133],[1.836724,44.982147],[1.836968,44.98218],[1.837219,44.982096],[1.837472,44.98197],[1.837873,44.981884],[1.838453,44.981626],[1.83837,44.981476],[1.838505,44.981231],[1.838681,44.981071],[1.838866,44.98061],[1.838979,44.98052],[1.839234,44.980435],[1.839244,44.980373],[1.839663,44.98013],[1.83992,44.979872],[1.839952,44.979523],[1.839877,44.979242],[1.839759,44.979121],[1.840564,44.978422],[1.841133,44.978066],[1.841347,44.977861],[1.841412,44.977534],[1.844401,44.977205],[1.844373,44.978167],[1.844656,44.978667],[1.845335,44.978888],[1.846181,44.978984],[1.846642,44.978828],[1.847583,44.978786],[1.847943,44.978672],[1.847883,44.978318],[1.847923,44.97812],[1.847683,44.977709],[1.847423,44.977624],[1.847603,44.977171],[1.847983,44.9771],[1.848484,44.977086],[1.848584,44.976916],[1.848924,44.976817],[1.849705,44.976406],[1.850646,44.976449],[1.851647,44.976647],[1.852928,44.977185],[1.853469,44.977596],[1.85405,44.977582],[1.85467,44.97744],[1.85469,44.977752],[1.855331,44.978757],[1.855791,44.978984],[1.856572,44.979041],[1.856752,44.979239],[1.857393,44.979607],[1.857753,44.979225],[1.858294,44.978871],[1.859015,44.978587],[1.859395,44.978559],[1.859415,44.978701],[1.859135,44.978927],[1.858754,44.97972],[1.858955,44.980004],[1.860261,44.980516],[1.86042,44.980721],[1.860402,44.981639],[1.860168,44.981811],[1.859141,44.982379],[1.858543,44.982604],[1.857945,44.982769],[1.857926,44.982881],[1.858375,44.983317],[1.858365,44.98343],[1.858477,44.983496],[1.859262,44.983165],[1.8607,44.982676],[1.860953,44.982703],[1.861657,44.983813],[1.862558,44.98496],[1.862899,44.985201],[1.863179,44.985144],[1.863399,44.985767],[1.86384,44.986376],[1.86448,44.986928],[1.865061,44.987041],[1.865822,44.986914],[1.865802,44.987353],[1.865982,44.988387],[1.866022,44.988967],[1.866182,44.989378],[1.865582,44.990765],[1.865541,44.991105],[1.866362,44.990595],[1.867063,44.990326],[1.867904,44.99027],[1.868605,44.990355],[1.870907,44.991856],[1.870987,44.992195],[1.870687,44.992804],[1.871648,44.993158],[1.872028,44.993654],[1.87333,44.994036],[1.875432,44.994263],[1.876112,44.993866],[1.877474,44.994305],[1.880937,44.995084],[1.885522,44.996443],[1.885382,44.996868],[1.885502,44.997349],[1.886623,44.999204],[1.887444,44.999614],[1.887885,45.000534],[1.888165,45.00052],[1.888545,45.000393],[1.889006,45.000704],[1.889787,45.000973],[1.890487,45.000959],[1.891008,45.00137],[1.890868,45.00161],[1.890888,45.002106],[1.891729,45.003479],[1.892027,45.003586],[1.892791,45.004058],[1.893165,45.004115],[1.893571,45.004092],[1.893945,45.004265],[1.894319,45.004357],[1.894661,45.004472],[1.895393,45.004426],[1.895929,45.004495],[1.896352,45.004678],[1.897279,45.005161],[1.898027,45.005426],[1.898954,45.005345],[1.90006,45.005357],[1.900304,45.005575],[1.900418,45.005794],[1.900759,45.006196],[1.901345,45.00653],[1.901621,45.006576],[1.903085,45.008174],[1.903524,45.008542],[1.904239,45.008668],[1.90515,45.008703],[1.905426,45.008875],[1.905508,45.009094],[1.905215,45.009634],[1.905378,45.009703],[1.905638,45.009657],[1.905849,45.009358],[1.906435,45.009094],[1.906646,45.008726],[1.906532,45.008427],[1.905898,45.008059],[1.905687,45.007737],[1.905719,45.007449],[1.905865,45.007208],[1.906353,45.006944],[1.906288,45.007438],[1.906402,45.007587],[1.907394,45.007955],[1.907736,45.008323],[1.908841,45.008588],[1.909394,45.008634],[1.909785,45.008737],[1.911476,45.008852],[1.912224,45.00868],[1.913248,45.008703],[1.91346,45.00899],[1.914484,45.00914],[1.915167,45.009289],[1.91694,45.010059],[1.917688,45.010324],[1.919769,45.011899],[1.920371,45.012451],[1.920826,45.012761],[1.920989,45.013635],[1.921721,45.014187],[1.922046,45.014681],[1.922583,45.015083],[1.922696,45.015394],[1.922631,45.016405],[1.922794,45.016877],[1.923493,45.017693],[1.924079,45.01852],[1.924794,45.01913],[1.925933,45.019624],[1.926811,45.019957],[1.927949,45.020233],[1.928762,45.020704],[1.929266,45.020957],[1.929526,45.021314],[1.9299,45.021417],[1.930258,45.021383],[1.930762,45.020992],[1.931169,45.020808],[1.931803,45.020773],[1.932258,45.020808],[1.932372,45.020681],[1.932795,45.020589],[1.933332,45.02013],[1.934096,45.019716],[1.934535,45.019348],[1.934909,45.018681],[1.935267,45.018325],[1.936112,45.018118],[1.93673,45.017589],[1.937853,45.01721],[1.938666,45.016543],[1.938633,45.01544],[1.938991,45.014911],[1.939056,45.01437],[1.938861,45.013704],[1.939853,45.014152],[1.940032,45.013094],[1.940357,45.012979],[1.94143,45.013106],[1.941934,45.013025],[1.942536,45.013048],[1.942812,45.012841],[1.94426,45.012347],[1.944601,45.012577],[1.945935,45.012876],[1.946114,45.013186],[1.946146,45.013876],[1.946423,45.014187],[1.946845,45.014451],[1.947837,45.015474],[1.949659,45.01644],[1.949919,45.017003],[1.950732,45.016854],[1.951285,45.016658],[1.952049,45.016624],[1.953789,45.017152],[1.954212,45.017129],[1.954261,45.016152],[1.954537,45.015715],[1.95496,45.015233],[1.955724,45.01398],[1.955724,45.013462],[1.955627,45.012681],[1.955806,45.011841],[1.955724,45.011404],[1.95535,45.011163],[1.955383,45.011037],[1.956651,45.010933],[1.956537,45.010416],[1.956602,45.010105],[1.957513,45.009209],[1.95844,45.008496],[1.959546,45.007472],[1.959985,45.007139],[1.961823,45.006449],[1.962115,45.006185],[1.962473,45.006139],[1.962945,45.006323],[1.963611,45.006311],[1.964164,45.00592],[1.96475,45.005207],[1.965075,45.005058],[1.966847,45.004713],[1.967514,45.004724],[1.969075,45.003816],[1.970604,45.002597],[1.971515,45.001919],[1.973482,45.000884],[1.974978,45.000286],[1.975678,44.999792],[1.975922,44.999458],[1.976231,44.998607],[1.976865,44.997538],[1.977662,44.996342],[1.978166,44.993616],[1.977922,44.992639],[1.976832,44.991109],[1.976344,44.991063],[1.976637,44.990638],[1.976507,44.990362],[1.97667,44.99012],[1.980621,44.98782],[1.981321,44.986509],[1.981711,44.986371],[1.983565,44.986635],[1.983939,44.986118],[1.984053,44.9856],[1.983825,44.985336],[1.982947,44.984945],[1.983483,44.984404],[1.985288,44.983242],[1.985402,44.982943],[1.987077,44.982989],[1.987516,44.983162],[1.989712,44.983116],[1.990362,44.983599],[1.99111,44.984001],[1.991387,44.984864],[1.991777,44.985497],[1.992753,44.985531],[1.99324,44.985761],[1.993989,44.986279],[1.994281,44.986313],[1.994997,44.985888],[1.995615,44.985761],[1.996151,44.985738],[1.99659,44.985853],[1.997127,44.98606],[1.998542,44.985704],[1.99942,44.98537],[1.999892,44.985336],[2.000363,44.985439],[2.000835,44.985474],[2.001404,44.985543],[2.00181,44.985474],[2.002949,44.984887],[2.003128,44.984623],[2.00316,44.984243],[2.003469,44.984082],[2.003794,44.984093],[2.004786,44.984404],[2.007405,44.98307],[2.007486,44.982817],[2.007486,44.982046],[2.007697,44.98192],[2.008266,44.981954],[2.008689,44.982081],[2.008884,44.982207],[2.009096,44.982184],[2.009161,44.98192],[2.008966,44.981126],[2.009047,44.980976],[2.009697,44.980896],[2.010315,44.980919],[2.011486,44.981126],[2.011925,44.981367],[2.012348,44.981367],[2.012446,44.981252],[2.01199,44.980815],[2.012202,44.980758],[2.012836,44.980804],[2.013047,44.980769],[2.013486,44.980827],[2.014121,44.980689],[2.014348,44.980723],[2.01443,44.980942],[2.014787,44.981252],[2.015877,44.981149],[2.016251,44.981551],[2.016853,44.981874],[2.017796,44.981793],[2.018349,44.982127],[2.018869,44.982219],[2.019406,44.982069],[2.020333,44.982092],[2.020674,44.982506],[2.021081,44.982368],[2.021585,44.982368],[2.023032,44.981517],[2.02339,44.981482],[2.023699,44.98154],[2.023114,44.980723],[2.023292,44.980689],[2.02404,44.981195],[2.024545,44.981459],[2.024837,44.981954],[2.025065,44.981851],[2.025179,44.981482],[2.025114,44.981229],[2.024854,44.98093],[2.025,44.980873],[2.025276,44.980942],[2.025683,44.981321],[2.025699,44.981022],[2.025488,44.980804],[2.025618,44.980723],[2.025911,44.980746],[2.026268,44.980942],[2.026805,44.980861]]],"type":"MultiLineString"},"properties":{"geo_point":{"lon":1.7949515007688464,"lat":45.008956666982236},"name":"GR480 De Turenne aux Gorges de la Cère (Corrèze) (2020)","code_gr":"GR480"}}]}