{"type":"FeatureCollection","features":[{"type":"Feature","geometry":{"coordinates":[[[6.767728,43.423964],[6.768077,43.424685],[6.768318,43.424917],[6.768726,43.425047],[6.768798,43.425254],[6.768651,43.42564],[6.768871,43.426212],[6.770351,43.427062],[6.77062,43.427288],[6.771623,43.427806],[6.771888,43.427876],[6.772111,43.427907],[6.772132,43.428113],[6.772846,43.429422],[6.772631,43.430591],[6.772704,43.430928],[6.772991,43.431359],[6.773044,43.431631],[6.773023,43.432036],[6.772841,43.432558],[6.772889,43.432897],[6.773154,43.433234],[6.774284,43.433914],[6.775158,43.434397],[6.775678,43.434814],[6.77603,43.435272],[6.776478,43.436368],[6.77695,43.436836],[6.778108,43.43779],[6.778468,43.438199],[6.778688,43.438647],[6.778774,43.439181],[6.779138,43.439987],[6.779095,43.440263],[6.779235,43.440396],[6.77909,43.440474],[6.77916,43.441455],[6.778961,43.442234],[6.779015,43.442861],[6.7799,43.444096],[6.779943,43.444357],[6.779594,43.446154],[6.779396,43.446943],[6.779348,43.447934],[6.779281,43.448512],[6.779267,43.449459],[6.780297,43.450878],[6.780866,43.451823],[6.780925,43.45236],[6.781338,43.453556],[6.783044,43.455919],[6.783119,43.456243],[6.782867,43.457037],[6.782869,43.457393],[6.784149,43.460783],[6.784503,43.46162],[6.784792,43.461862],[6.785152,43.462302],[6.785482,43.462463],[6.785855,43.46259],[6.786058,43.462757],[6.786482,43.463244],[6.786691,43.463598],[6.787078,43.463913],[6.787898,43.464445],[6.789352,43.464926],[6.789701,43.465477],[6.789696,43.465646],[6.789438,43.465689],[6.789341,43.465831],[6.789336,43.466116],[6.789411,43.466635],[6.789634,43.466806],[6.79005,43.466997],[6.790334,43.467258],[6.791066,43.467534],[6.791509,43.467612],[6.792442,43.468161],[6.792608,43.468371],[6.791916,43.468636],[6.791385,43.469076],[6.791286,43.469027],[6.791149,43.468745],[6.790726,43.468535],[6.790393,43.468593],[6.789679,43.468953],[6.789502,43.469154],[6.789347,43.469676],[6.789717,43.470154],[6.789819,43.470439],[6.790082,43.470606],[6.790527,43.470668],[6.790819,43.470836],[6.790987,43.471017],[6.791167,43.47115],[6.791236,43.47131],[6.791412,43.471408],[6.791273,43.471544],[6.791273,43.471793],[6.791034,43.471912],[6.79087,43.47207],[6.791369,43.472183],[6.792147,43.472097],[6.792482,43.472154],[6.792898,43.472475],[6.792348,43.473129],[6.792104,43.473495],[6.791664,43.473541],[6.791458,43.473662],[6.791477,43.473845],[6.79134,43.473954],[6.791171,43.47425],[6.790983,43.474293],[6.790602,43.474005],[6.789803,43.473596],[6.789465,43.473604],[6.789111,43.47374],[6.788832,43.473985],[6.788553,43.474491],[6.788405,43.474526],[6.788129,43.474149],[6.787909,43.473977],[6.787711,43.473915],[6.787609,43.474079],[6.787367,43.474227],[6.787169,43.474172],[6.786587,43.474199],[6.786248,43.474155],[6.786037,43.47418],[6.785656,43.474102],[6.785514,43.474172],[6.78529,43.474489],[6.785227,43.474768],[6.785265,43.475394],[6.78513,43.475496],[6.785029,43.475803],[6.784996,43.476414],[6.785366,43.476796],[6.785817,43.477053],[6.786104,43.477107],[6.786504,43.477103],[6.786919,43.477138],[6.787185,43.477205],[6.788081,43.477226],[6.788649,43.477127],[6.788907,43.477006],[6.789572,43.477068],[6.790087,43.47729],[6.790371,43.477333],[6.790425,43.477567],[6.790597,43.477656],[6.790618,43.477779],[6.790881,43.478175],[6.791015,43.478322],[6.791004,43.478485],[6.791262,43.478952],[6.791273,43.479256],[6.791187,43.479723],[6.791332,43.480034],[6.791261,43.480482],[6.791222,43.480743],[6.791058,43.481175],[6.791224,43.481615],[6.791281,43.482152],[6.791357,43.482358],[6.791337,43.482638],[6.791181,43.482882],[6.791042,43.483436],[6.790795,43.483748],[6.790852,43.483868],[6.79079,43.484137],[6.790629,43.484425],[6.790677,43.484476],[6.790886,43.484433],[6.792388,43.484624],[6.793134,43.484795],[6.793169,43.48519],[6.79309,43.485317],[6.79315,43.485351],[6.793306,43.485355],[6.793773,43.485834],[6.793928,43.486161],[6.794014,43.486609],[6.79392,43.487046],[6.793665,43.48736],[6.793032,43.487562],[6.793199,43.487741],[6.793298,43.487698],[6.793719,43.487838],[6.794566,43.487912],[6.795473,43.48792],[6.794824,43.488407],[6.79418,43.489164],[6.794116,43.489368],[6.794459,43.489489],[6.795001,43.489798],[6.795033,43.490088],[6.794835,43.490403],[6.794867,43.490738],[6.795317,43.490707],[6.795661,43.490862],[6.796691,43.491111],[6.796916,43.491088],[6.797297,43.491236],[6.798048,43.4918],[6.799115,43.492326],[6.799346,43.492649],[6.799486,43.492952],[6.800103,43.493805],[6.800628,43.494334],[6.800982,43.494334],[6.801449,43.494248],[6.801878,43.494369],[6.802034,43.494575],[6.801926,43.495159],[6.80169,43.495657],[6.801631,43.496365],[6.801862,43.496295],[6.802141,43.496459],[6.802168,43.496614],[6.802592,43.496497],[6.802822,43.496692],[6.803042,43.496809],[6.803471,43.496782],[6.803777,43.49692],[6.804153,43.497252],[6.804584,43.497494],[6.805499,43.497715],[6.805826,43.497632],[6.806465,43.497832],[6.806813,43.498027],[6.808058,43.498914],[6.808825,43.499626],[6.809115,43.500042],[6.809158,43.500334],[6.808932,43.50112],[6.808498,43.502412],[6.808393,43.502945],[6.808353,43.503556],[6.808439,43.503949],[6.808847,43.504587],[6.809308,43.505124],[6.809657,43.505325],[6.810633,43.505657],[6.811126,43.505891],[6.811387,43.506198],[6.811674,43.506821],[6.811808,43.507638],[6.81169,43.50814],[6.811953,43.508676],[6.812226,43.509139],[6.812221,43.509344],[6.812001,43.509976],[6.812028,43.51031],[6.812317,43.510777],[6.812966,43.511174],[6.81302,43.511719],[6.813143,43.511991],[6.813087,43.512155],[6.812655,43.512512],[6.812419,43.512886],[6.812178,43.513003],[6.812095,43.513154],[6.811604,43.513606],[6.811529,43.513981],[6.811722,43.514788],[6.811792,43.515068],[6.811861,43.516325],[6.81148,43.517052],[6.81151,43.517296],[6.812001,43.518157],[6.812033,43.518581],[6.811786,43.519721],[6.811041,43.520316],[6.810413,43.521016],[6.810198,43.521125],[6.809893,43.521911],[6.809895,43.522183],[6.811003,43.523171],[6.811362,43.523381],[6.811596,43.523611],[6.811565,43.523885],[6.811631,43.524245],[6.811521,43.524945],[6.811243,43.525506],[6.810869,43.525628],[6.810664,43.525615],[6.809842,43.525459],[6.809618,43.525351],[6.809487,43.525378],[6.808936,43.52573],[6.808609,43.525858],[6.808525,43.525967],[6.808562,43.526231],[6.809216,43.526346],[6.809244,43.526468],[6.808871,43.526956],[6.808553,43.52705],[6.808161,43.52722],[6.807974,43.527233],[6.807913,43.527232],[6.80743,43.527139],[6.806964,43.527178],[6.806575,43.527166],[6.806137,43.527232],[6.805714,43.527139],[6.80544,43.527115],[6.805116,43.527244],[6.804689,43.527512],[6.803603,43.527858],[6.80338,43.527804],[6.803053,43.527547],[6.802468,43.52752],[6.802149,43.527582],[6.801572,43.527784],[6.801358,43.527948],[6.801165,43.528177],[6.80088,43.528304],[6.800526,43.528337],[6.799979,43.528337],[6.799746,43.528414],[6.799389,43.528729],[6.799115,43.528854],[6.798627,43.528819],[6.798322,43.528974],[6.797871,43.530219],[6.797485,43.530577],[6.79712,43.530729],[6.796669,43.530686],[6.795913,43.530892],[6.795693,43.531044],[6.795296,43.53116],[6.794717,43.53144],[6.794346,43.532156],[6.793901,43.532366],[6.79315,43.532661],[6.792818,43.532969],[6.792474,43.533634],[6.792469,43.534124],[6.792549,43.53445],[6.792796,43.534816],[6.792721,43.535742],[6.792807,43.536103],[6.792815,43.536477],[6.79292,43.536904],[6.792815,43.537266],[6.792807,43.537806],[6.792549,43.538464],[6.792431,43.539125],[6.792324,43.539413],[6.791884,43.539961],[6.791128,43.540564],[6.790211,43.541528],[6.790082,43.542061],[6.789905,43.542413],[6.789878,43.543013],[6.789545,43.543367],[6.789379,43.543725],[6.789521,43.544104],[6.789578,43.544483],[6.790296,43.544961],[6.790457,43.544932],[6.790613,43.54461],[6.790983,43.544157],[6.791289,43.543912],[6.791621,43.543414],[6.791871,43.543455],[6.791965,43.543616],[6.792061,43.544102],[6.792048,43.544363],[6.791886,43.544536],[6.791466,43.544716],[6.791391,43.544891],[6.791509,43.545187],[6.791723,43.5455],[6.792093,43.545708],[6.791927,43.546163],[6.791825,43.547294],[6.791627,43.547454],[6.790913,43.547885],[6.790704,43.548344],[6.790205,43.548795],[6.789655,43.549027],[6.789331,43.549277],[6.788945,43.549427],[6.788805,43.549639],[6.78947,43.549837],[6.789835,43.550061],[6.790135,43.550386],[6.790618,43.551163],[6.790919,43.551548],[6.791165,43.551684],[6.792067,43.551999],[6.792608,43.55202],[6.793306,43.552174],[6.793837,43.552092],[6.794588,43.551913],[6.794835,43.551956],[6.794196,43.552115],[6.793649,43.552415],[6.793306,43.552535],[6.792952,43.552897],[6.792818,43.553282],[6.792877,43.5534],[6.793105,43.553534],[6.793113,43.553772],[6.792965,43.553929],[6.792446,43.554124],[6.792372,43.554312],[6.792445,43.554557],[6.792303,43.554872],[6.791739,43.554926],[6.791468,43.555187],[6.791434,43.555494],[6.790581,43.555622],[6.78995,43.555822],[6.789374,43.556116],[6.789229,43.55626],[6.789148,43.556287],[6.789009,43.556419],[6.788843,43.556512],[6.788749,43.556816],[6.78851,43.557033],[6.788324,43.557057],[6.787923,43.556995],[6.78777,43.557115],[6.78778,43.557617],[6.787641,43.558122],[6.787842,43.55832],[6.78792,43.558511],[6.788419,43.558752],[6.788612,43.558981],[6.788467,43.559366],[6.788679,43.559622],[6.788796,43.55993],[6.789041,43.560334],[6.788843,43.560703],[6.788857,43.560806],[6.78914,43.560855],[6.789824,43.561255],[6.790076,43.561337],[6.790591,43.561407],[6.790827,43.561663],[6.790857,43.561922],[6.790752,43.562344],[6.790557,43.562806],[6.790382,43.563455],[6.790028,43.563731],[6.790135,43.563902],[6.790227,43.564388],[6.790683,43.564583],[6.790844,43.564703],[6.791332,43.564736],[6.791557,43.564827],[6.791409,43.565269],[6.79145,43.565784],[6.792142,43.566526],[6.792378,43.56693],[6.792281,43.567377],[6.792442,43.567465],[6.792903,43.567447],[6.793011,43.567539],[6.793129,43.567715],[6.793408,43.567793],[6.793472,43.567925],[6.793451,43.56824],[6.793536,43.568417],[6.793435,43.568827],[6.793158,43.569391],[6.793016,43.569519],[6.793131,43.569682],[6.793032,43.569923],[6.792458,43.569962],[6.792442,43.570098],[6.792726,43.570314],[6.793188,43.571155],[6.793172,43.571571],[6.793542,43.571726],[6.793692,43.572146],[6.793424,43.572356],[6.793453,43.572488],[6.793944,43.572912],[6.794631,43.573098],[6.794714,43.573225],[6.794572,43.573452],[6.794454,43.573545],[6.794406,43.573701],[6.794588,43.574089],[6.794245,43.574319],[6.794304,43.574385],[6.794639,43.574342],[6.795371,43.57442],[6.795773,43.574704],[6.796723,43.575139],[6.796825,43.575337],[6.796535,43.575792],[6.796594,43.575866],[6.79705,43.575846],[6.797434,43.57597],[6.797726,43.576165],[6.797785,43.576779],[6.797957,43.57681],[6.798413,43.57674],[6.798928,43.57693],[6.799083,43.57721],[6.79926,43.578244],[6.799225,43.578654],[6.799083,43.579056],[6.798692,43.579639],[6.79837,43.580195],[6.797927,43.580554],[6.797479,43.580719],[6.797018,43.580778],[6.796106,43.580405],[6.795688,43.579927],[6.795511,43.579938],[6.795275,43.580358],[6.795087,43.580379],[6.794121,43.580129],[6.793971,43.580226],[6.794062,43.580377],[6.794561,43.580863],[6.794982,43.581223],[6.79514,43.581555],[6.794695,43.582146],[6.79396,43.582697],[6.793512,43.582536],[6.793317,43.582604],[6.793107,43.583168],[6.792737,43.583257],[6.792421,43.58314],[6.792324,43.582839],[6.792308,43.582669],[6.792335,43.582418],[6.792174,43.582363],[6.791611,43.58253],[6.791407,43.58246],[6.791235,43.582116],[6.791171,43.581749],[6.790924,43.5815],[6.791004,43.581228],[6.790613,43.58112],[6.790428,43.580916],[6.790243,43.580537],[6.789873,43.580591],[6.789476,43.580381],[6.789221,43.580103],[6.789079,43.579837],[6.789001,43.579536],[6.788859,43.579538],[6.788585,43.57967],[6.788244,43.579674],[6.787094,43.579456],[6.786852,43.579441],[6.78674,43.579559],[6.786885,43.579709],[6.787335,43.579849],[6.787807,43.580094],[6.788338,43.580249],[6.788486,43.580636],[6.788708,43.58098],[6.788698,43.581205],[6.787893,43.58145],[6.78726,43.58173],[6.786928,43.581936],[6.786439,43.582074],[6.78545,43.582185],[6.78513,43.58225],[6.784433,43.582231],[6.78409,43.582313],[6.784114,43.582468],[6.784176,43.582709],[6.784106,43.582829],[6.78373,43.582866],[6.783092,43.582639],[6.782378,43.582612],[6.781697,43.582866],[6.781402,43.583024],[6.780973,43.58295],[6.78086,43.582826],[6.780834,43.582511],[6.779755,43.582328],[6.779669,43.582072],[6.77949,43.581963],[6.779142,43.581901],[6.778682,43.581738],[6.778267,43.581741],[6.777882,43.58167],[6.776853,43.581804],[6.776419,43.581827],[6.775786,43.582208],[6.774788,43.582503],[6.774332,43.582662],[6.774031,43.582328],[6.773747,43.582313],[6.773297,43.582826],[6.772969,43.582868],[6.77254,43.582651],[6.772444,43.5824],[6.772406,43.582072],[6.772218,43.581819],[6.772267,43.581565],[6.772267,43.581112],[6.771966,43.580611],[6.771693,43.58056],[6.771494,43.580667],[6.77143,43.580933],[6.771725,43.581263],[6.771735,43.581765],[6.771972,43.582464],[6.771794,43.583424],[6.771805,43.583754],[6.771899,43.584164],[6.771827,43.584792],[6.771489,43.585697],[6.771494,43.586486],[6.771322,43.586649],[6.770893,43.586801],[6.770287,43.586435],[6.769853,43.586268],[6.76922,43.585534],[6.768163,43.585277],[6.767439,43.585332],[6.766875,43.58525],[6.766194,43.585254],[6.765599,43.585289],[6.764998,43.585009],[6.764762,43.584765],[6.763925,43.583702],[6.763689,43.583497],[6.763281,43.582971],[6.762981,43.582756],[6.762568,43.582565],[6.762254,43.582781],[6.760913,43.582775],[6.760146,43.582918],[6.75899,43.582903],[6.758625,43.582798],[6.758024,43.582775],[6.757101,43.582829],[6.756742,43.582785],[6.756468,43.582631],[6.755851,43.582596],[6.755371,43.582695],[6.754918,43.582709],[6.75443,43.58288],[6.754124,43.582888],[6.753687,43.58293],[6.753393,43.582905],[6.753132,43.58295],[6.752617,43.583125],[6.752311,43.583012],[6.752011,43.582965],[6.751804,43.582849],[6.751667,43.582608],[6.750433,43.582375],[6.750071,43.582344],[6.749264,43.581978],[6.749028,43.581699],[6.748561,43.581561],[6.748094,43.581361],[6.747301,43.581357],[6.746847,43.581291],[6.746808,43.581192],[6.746866,43.580999],[6.74678,43.580848],[6.746609,43.580766],[6.746426,43.580797],[6.746158,43.581011],[6.745123,43.581331],[6.743524,43.581671],[6.742518,43.581712],[6.742247,43.581889],[6.74074,43.582192],[6.739908,43.582474],[6.739034,43.582635],[6.738417,43.582505],[6.73713,43.581559],[6.736754,43.581547],[6.735893,43.581234],[6.735263,43.580867],[6.734013,43.580331],[6.7336,43.580028],[6.733144,43.579884],[6.732704,43.579622],[6.73161,43.578733],[6.730574,43.577774],[6.729544,43.577101],[6.728834,43.576482],[6.728305,43.576134],[6.728107,43.576099],[6.727669,43.576501],[6.726732,43.576947],[6.726471,43.577175],[6.725848,43.576775],[6.725719,43.576888],[6.725725,43.577735],[6.725805,43.578011],[6.725526,43.578533],[6.725199,43.578811],[6.724558,43.578969],[6.723778,43.579107],[6.723016,43.579017],[6.721857,43.579091],[6.721589,43.579099],[6.720972,43.579565],[6.71998,43.579892],[6.719406,43.580265],[6.718606,43.580867],[6.717528,43.581574],[6.716959,43.581959],[6.716308,43.58268],[6.716053,43.582903],[6.715828,43.583222],[6.715736,43.583599],[6.715731,43.584224],[6.715838,43.584827],[6.716021,43.585068],[6.715956,43.585445],[6.715704,43.585888],[6.715506,43.586474],[6.715575,43.586727],[6.715484,43.587135],[6.715522,43.587483],[6.715506,43.587764],[6.715876,43.588413],[6.716243,43.589151],[6.716407,43.589338],[6.716407,43.589501],[6.716241,43.589754],[6.715924,43.590535],[6.71564,43.591001],[6.715055,43.59156],[6.714669,43.592174],[6.714009,43.592831],[6.713768,43.593227],[6.713612,43.593726],[6.713467,43.594435],[6.712995,43.595158],[6.71292,43.595714],[6.712652,43.596491],[6.712416,43.596809],[6.712271,43.59765],[6.71207,43.598374],[6.711917,43.598643],[6.711557,43.600096],[6.711397,43.601708],[6.711268,43.603021],[6.710978,43.603437],[6.710613,43.603606],[6.709943,43.604361],[6.709852,43.604602],[6.710039,43.605014],[6.709846,43.605612],[6.710631,43.606947],[6.711184,43.608077],[6.706712,43.607524],[6.704289,43.607124],[6.704192,43.607371],[6.703053,43.607795],[6.702842,43.608101],[6.702419,43.60969],[6.701964,43.613234],[6.701525,43.613705],[6.700256,43.614],[6.700208,43.614365],[6.70037,43.614859],[6.700565,43.61493],[6.700695,43.615307],[6.701021,43.61553],[6.700956,43.61739],[6.703118,43.617591],[6.703167,43.618179],[6.703173,43.61825],[6.70332,43.618718],[6.703151,43.619085],[6.703202,43.619295],[6.70356,43.619606],[6.70387,43.619746],[6.704045,43.619944],[6.704096,43.620654],[6.704192,43.620973],[6.704055,43.621291],[6.703731,43.62152],[6.703575,43.62199],[6.703366,43.622223],[6.70269,43.622316],[6.702285,43.622297],[6.701655,43.622534],[6.701322,43.622942],[6.70107,43.623087],[6.700855,43.62314],[6.700791,43.623268],[6.700973,43.623481],[6.70078,43.623625],[6.700858,43.623887],[6.701097,43.624068],[6.700319,43.624976],[6.700131,43.625093],[6.699391,43.62531],[6.699069,43.625759],[6.698812,43.626045],[6.698613,43.626359],[6.698727,43.62656],[6.699034,43.626885],[6.699391,43.627465],[6.699686,43.627729],[6.700389,43.628188],[6.701075,43.628553],[6.701698,43.629147],[6.702202,43.629869],[6.702368,43.630781],[6.702551,43.631461],[6.702765,43.631869],[6.703366,43.633825],[6.703672,43.63419],[6.703744,43.634427],[6.70387,43.634555],[6.703916,43.635118],[6.703983,43.635367],[6.703972,43.63571],[6.703522,43.637188],[6.703425,43.637494],[6.703473,43.638337],[6.703693,43.638659],[6.704315,43.639164],[6.704417,43.640317],[6.704396,43.64107],[6.704718,43.642316],[6.704653,43.642677],[6.704492,43.644917],[6.704157,43.64502],[6.703957,43.64504],[6.703527,43.645181],[6.703232,43.645798],[6.703039,43.646066],[6.702894,43.646505],[6.703216,43.646978],[6.702792,43.647316],[6.702744,43.648028],[6.702545,43.648795],[6.702454,43.649132],[6.702559,43.649266],[6.702744,43.649781],[6.702899,43.650266],[6.703087,43.650489],[6.703489,43.65053],[6.703634,43.650759],[6.704071,43.651081],[6.704832,43.651176],[6.705566,43.651193],[6.705834,43.651302],[6.706375,43.651438],[6.706638,43.651611],[6.707084,43.651756],[6.707513,43.651677],[6.707792,43.651749],[6.708205,43.651972],[6.708465,43.651963],[6.708435,43.652129],[6.708838,43.652403],[6.70916,43.65289],[6.709484,43.652911],[6.709835,43.652835],[6.709908,43.652927],[6.709696,43.653433],[6.709358,43.653763],[6.709347,43.653988],[6.709557,43.654264],[6.710726,43.654908],[6.711831,43.65535],[6.712748,43.65589],[6.713612,43.656379],[6.713743,43.656631],[6.714159,43.656946],[6.71414,43.657093],[6.713047,43.657889],[6.712431,43.658508],[6.711858,43.659216],[6.711702,43.659666],[6.711568,43.66073],[6.711278,43.662604],[6.711037,43.663617],[6.711456,43.66385],[6.712185,43.663691],[6.715264,43.663978],[6.715471,43.664075],[6.715624,43.664994],[6.715828,43.66532],[6.716702,43.666966],[6.716911,43.667618],[6.717372,43.668755],[6.717759,43.669119],[6.718612,43.669651],[6.719867,43.670078],[6.720441,43.670477],[6.720757,43.670829],[6.720698,43.671335],[6.720425,43.671901],[6.720854,43.672809],[6.720714,43.673096],[6.720476,43.673341],[6.720409,43.673655],[6.719475,43.674528],[6.718579,43.674831],[6.718166,43.675075],[6.717871,43.675417],[6.718177,43.675999],[6.717904,43.676817],[6.718081,43.676965],[6.718504,43.676422],[6.718821,43.676096],[6.718891,43.675529],[6.719062,43.675533],[6.719046,43.675991],[6.71914,43.67589],[6.71918,43.675688],[6.720205,43.675343],[6.721063,43.67498],[6.721321,43.674986],[6.721884,43.674794],[6.722866,43.674745],[6.723853,43.674218],[6.724014,43.674462],[6.724185,43.675102],[6.723917,43.675384],[6.723761,43.6757],[6.723721,43.676133],[6.723204,43.67641],[6.722313,43.676495],[6.721219,43.677341],[6.72065,43.678036],[6.720562,43.678387],[6.72063,43.679078],[6.720546,43.67963],[6.720452,43.679847],[6.72035,43.68008],[6.720012,43.680224],[6.719765,43.680709],[6.719545,43.681283],[6.719626,43.68157],[6.719706,43.682288],[6.719623,43.682856],[6.71964,43.683342],[6.719572,43.683913],[6.719497,43.683975],[6.719223,43.683479],[6.718971,43.684204],[6.719041,43.684753],[6.719304,43.68562],[6.719282,43.68612],[6.719062,43.686605],[6.719502,43.686458],[6.719341,43.686679],[6.719478,43.686797],[6.719899,43.686854],[6.72002,43.686931],[6.719683,43.687009],[6.719363,43.687191],[6.719432,43.687245],[6.71962,43.68722],[6.720039,43.687265],[6.720208,43.68735],[6.720189,43.687428],[6.719663,43.68749],[6.718813,43.68813],[6.717786,43.689057],[6.717453,43.689705],[6.716957,43.690211],[6.716246,43.690845],[6.715699,43.691586],[6.716031,43.691504],[6.715661,43.692075],[6.715264,43.692172],[6.715109,43.69242],[6.714851,43.69228],[6.714508,43.692381],[6.714674,43.693106],[6.714958,43.693618],[6.714969,43.694014],[6.714819,43.694142],[6.71454,43.694154],[6.714234,43.693948],[6.71384,43.693647],[6.713503,43.693528],[6.713199,43.693568],[6.712614,43.693824],[6.713027,43.694258],[6.711911,43.694041],[6.711718,43.693698],[6.711466,43.693529],[6.711131,43.693547],[6.71012,43.693514],[6.710029,43.693708],[6.71042,43.694216],[6.710817,43.694227],[6.711193,43.694425],[6.711193,43.694557],[6.71093,43.694631],[6.710903,43.694875],[6.711101,43.695267],[6.711112,43.695662],[6.711252,43.69612],[6.710828,43.697163],[6.710865,43.69797],[6.710994,43.698618],[6.71086,43.698769],[6.710509,43.698963],[6.709471,43.699746],[6.708945,43.70053],[6.70847,43.700883],[6.708131,43.701209],[6.707931,43.70148],[6.70755,43.701722],[6.706711,43.702069],[6.706359,43.702329],[6.70656,43.702558],[6.706774,43.702696],[6.706708,43.703043],[6.706343,43.703322],[6.705544,43.703694],[6.705855,43.704474],[6.706193,43.70471],[6.706322,43.705424],[6.706558,43.705823],[6.706874,43.706711],[6.706628,43.707274],[6.706563,43.707809],[6.706153,43.708501],[6.705796,43.708856],[6.705474,43.709339],[6.705265,43.710236],[6.705319,43.710407],[6.705147,43.710713],[6.705276,43.711307],[6.704879,43.710938],[6.704852,43.71159],[6.704707,43.711815],[6.704723,43.712055],[6.704085,43.712679],[6.704018,43.712995],[6.703446,43.713323],[6.703527,43.713069],[6.703452,43.712947],[6.703224,43.7133],[6.702894,43.713462],[6.703084,43.712739],[6.702895,43.711909],[6.70261,43.711264],[6.70188,43.710453],[6.701429,43.710151],[6.700641,43.710029],[6.700029,43.709837],[6.699643,43.70955],[6.699088,43.709558],[6.698521,43.7095],[6.698141,43.70941],[6.697656,43.709503],[6.697311,43.709511],[6.696532,43.709608],[6.696065,43.709821],[6.695802,43.710081],[6.695445,43.710122],[6.695411,43.710368],[6.695582,43.710675],[6.695824,43.711105],[6.695813,43.711659],[6.695762,43.711958],[6.695808,43.712326],[6.695073,43.712528],[6.694735,43.712745],[6.694568,43.712958],[6.693852,43.71315],[6.693318,43.713431],[6.6932,43.713633],[6.693216,43.714156],[6.693015,43.714478],[6.692594,43.714947],[6.69209,43.715157],[6.691934,43.715285],[6.691714,43.715566],[6.690674,43.715874],[6.688708,43.716202],[6.688174,43.716394],[6.687769,43.716628],[6.687568,43.716669],[6.687257,43.716905],[6.687219,43.71719],[6.687444,43.717568],[6.687469,43.717836],[6.687573,43.718042],[6.687345,43.71827],[6.686951,43.718429],[6.686422,43.718499],[6.685783,43.718437],[6.684982,43.718282],[6.684746,43.718181],[6.684263,43.718158],[6.683941,43.71789],[6.683094,43.718073],[6.682718,43.717987],[6.68248,43.717821],[6.682037,43.717631],[6.681584,43.717603],[6.680846,43.717472],[6.680911,43.717762],[6.682321,43.719333],[6.682455,43.719678],[6.682571,43.720058],[6.683265,43.720899],[6.683351,43.721201],[6.683298,43.721374],[6.682944,43.72155],[6.683067,43.722019],[6.682544,43.722202],[6.682236,43.722419],[6.682171,43.722733],[6.683056,43.724086],[6.683268,43.724351],[6.683523,43.724578],[6.68362,43.725008],[6.683775,43.726361],[6.684274,43.727699],[6.684161,43.728245],[6.684212,43.728571],[6.684467,43.728881],[6.684725,43.729904],[6.685417,43.730451],[6.686001,43.73149],[6.68665,43.732102],[6.686768,43.732567],[6.684735,43.734381],[6.684537,43.734748],[6.684717,43.735055],[6.685293,43.735366],[6.686001,43.735684],[6.686768,43.736106],[6.686795,43.736548],[6.687214,43.736808],[6.6873,43.73706],[6.689043,43.7378],[6.68892,43.738304],[6.688453,43.738428],[6.688265,43.738726],[6.687546,43.738982],[6.687058,43.739281],[6.68639,43.739868],[6.686314,43.740033],[6.685798,43.74024],[6.685503,43.740444],[6.685266,43.74047],[6.685301,43.740835],[6.685452,43.741168],[6.685474,43.741486],[6.685684,43.741815],[6.685658,43.742238],[6.685207,43.742563],[6.684253,43.743044],[6.684017,43.74309],[6.68429,43.74255],[6.684304,43.742388],[6.684521,43.742094],[6.681962,43.7429],[6.67917,43.743929],[6.678751,43.743968],[6.678535,43.744207],[6.677703,43.744343],[6.67744,43.744563],[6.67719,43.744616],[6.676994,43.744786],[6.676163,43.745071],[6.67582,43.745338],[6.675305,43.745238],[6.674918,43.745246],[6.674795,43.745181],[6.674446,43.745193],[6.673738,43.745404],[6.673481,43.745245],[6.673331,43.745055],[6.673744,43.744602],[6.673561,43.744509],[6.673406,43.744299],[6.673477,43.744092],[6.673398,43.743978],[6.673496,43.743786],[6.673464,43.743671],[6.673722,43.743292],[6.673624,43.74313],[6.673622,43.743014],[6.67347,43.742906],[6.673394,43.74276],[6.673189,43.742597],[6.67315,43.742352],[6.672893,43.742216],[6.67196,43.742344],[6.671672,43.74232],[6.671105,43.742568],[6.670957,43.742699],[6.66979,43.742238],[6.669669,43.742119],[6.669613,43.741854],[6.669431,43.741785],[6.668905,43.74184],[6.667221,43.741656],[6.66672,43.741495],[6.666327,43.741505],[6.66565,43.741216],[6.665214,43.741156],[6.664619,43.740846],[6.663889,43.740839],[6.663482,43.740684],[6.662328,43.739658],[6.662076,43.739277],[6.661561,43.739157],[6.661078,43.739013],[6.660392,43.739044],[6.659673,43.73887],[6.658804,43.738825],[6.657404,43.738583],[6.655808,43.738476],[6.655177,43.738571],[6.654963,43.738273],[6.654539,43.73794],[6.654008,43.737664],[6.653423,43.737474],[6.652763,43.737133],[6.65245,43.736633],[6.652168,43.736273],[6.65175,43.735726],[6.651117,43.735025],[6.650942,43.734732],[6.650903,43.734384],[6.650607,43.734118],[6.649427,43.733804],[6.64888,43.7338],[6.648558,43.733533],[6.648413,43.733133],[6.648244,43.732996],[6.647666,43.732807],[6.64719,43.732548],[6.647129,43.732294],[6.646869,43.732066],[6.646833,43.731924],[6.646601,43.731786],[6.646149,43.731331],[6.644824,43.730974],[6.643783,43.730955],[6.64337,43.730839],[6.642719,43.730934],[6.642292,43.731114],[6.641756,43.731087],[6.640608,43.730819],[6.639385,43.730808],[6.63895,43.730839],[6.638851,43.73072],[6.639,43.730607],[6.639332,43.73057],[6.63976,43.730323],[6.640291,43.729683],[6.640667,43.729439],[6.640581,43.729331],[6.64035,43.729373],[6.64005,43.729586],[6.639309,43.729877],[6.638725,43.729893],[6.638284,43.730006],[6.638003,43.730135],[6.637625,43.73023],[6.636193,43.730226],[6.635608,43.730176],[6.63534,43.730393],[6.63497,43.730556],[6.63449,43.730839],[6.633928,43.730961],[6.633012,43.731125],[6.631483,43.731226],[6.630606,43.731833],[6.629085,43.732257],[6.628661,43.732129],[6.628307,43.732319],[6.627969,43.732436],[6.627615,43.732846],[6.627245,43.732984],[6.627044,43.733165],[6.626751,43.733284],[6.626475,43.733734],[6.626011,43.733978],[6.625233,43.733773],[6.624944,43.734203],[6.62438,43.734319],[6.624348,43.734412],[6.62467,43.735281],[6.624791,43.735513],[6.624611,43.735513],[6.624659,43.735624],[6.625169,43.735936],[6.62511,43.736335],[6.625249,43.736812],[6.624724,43.737079],[6.624445,43.736982],[6.624065,43.736988],[6.623986,43.737133],[6.623639,43.73719],[6.623468,43.737288],[6.622586,43.737174],[6.621934,43.736998],[6.620947,43.736633],[6.619965,43.736385],[6.619917,43.73611],[6.619145,43.736129],[6.618501,43.736064],[6.618034,43.735924],[6.617846,43.735643],[6.617423,43.735544],[6.617184,43.735657],[6.616999,43.735654],[6.616741,43.735348],[6.616143,43.735235],[6.615524,43.735222],[6.615218,43.735331],[6.614368,43.735226],[6.613304,43.73491],[6.612938,43.734835],[6.612884,43.734269],[6.613018,43.733912],[6.61356,43.733242],[6.613517,43.733058],[6.613008,43.73266],[6.612512,43.732748],[6.612439,43.732691],[6.610875,43.733038],[6.609713,43.733332],[6.609532,43.733498],[6.609035,43.733434],[6.608346,43.733029],[6.606764,43.732912],[6.606291,43.7328],[6.605489,43.732848],[6.604457,43.732815],[6.604091,43.732752],[6.603478,43.73255],[6.602606,43.732443],[6.601587,43.732424],[6.601254,43.732318],[6.6009,43.73229],[6.600149,43.732009],[6.599505,43.731906],[6.598695,43.731625],[6.597993,43.731296],[6.597623,43.731211],[6.597357,43.731038],[6.597006,43.730966],[6.595804,43.731145],[6.594484,43.731145],[6.594238,43.731091],[6.59369,43.731067],[6.593208,43.730934],[6.592821,43.730715],[6.592247,43.730627],[6.591529,43.730366],[6.591124,43.730162],[6.590316,43.72985],[6.589753,43.729234],[6.588857,43.728986],[6.588098,43.728867],[6.587504,43.728975],[6.586636,43.728889],[6.585974,43.728927],[6.583514,43.72878],[6.583013,43.728834],[6.581384,43.728784],[6.581186,43.728908],[6.57999,43.728885],[6.579453,43.72905],[6.578638,43.729548],[6.577983,43.729129],[6.577249,43.729063],[6.576752,43.728914],[6.576578,43.728951],[6.576937,43.729241],[6.576886,43.729437],[6.576426,43.72959],[6.576327,43.729529],[6.576143,43.729534],[6.575952,43.729411],[6.575768,43.729488],[6.575619,43.729442],[6.574947,43.729472],[6.574572,43.72938],[6.574685,43.729534],[6.57447,43.729544],[6.573467,43.729369],[6.572635,43.729447],[6.571734,43.729687],[6.570412,43.730218],[6.569492,43.730672],[6.567898,43.731676],[6.56748,43.731771],[6.567244,43.731711],[6.566917,43.731521],[6.566734,43.731498],[6.566616,43.73156],[6.566638,43.731908],[6.565718,43.732403],[6.565077,43.732594],[6.564921,43.73304],[6.564669,43.733408],[6.564717,43.73368],[6.564579,43.733951],[6.563829,43.734788],[6.563498,43.735269],[6.562974,43.735781],[6.562931,43.736095],[6.562689,43.736527],[6.562293,43.736502],[6.561837,43.73635],[6.561268,43.736505],[6.560748,43.736786],[6.560313,43.737176],[6.559959,43.737509],[6.559616,43.737606],[6.559074,43.737548],[6.558521,43.737695],[6.558393,43.737598],[6.558264,43.737129],[6.558022,43.736901],[6.557808,43.736637],[6.557459,43.736494],[6.556531,43.736358],[6.55622,43.736149],[6.555869,43.736058],[6.555034,43.736164],[6.554611,43.736091],[6.553852,43.736261],[6.553097,43.736591],[6.55247,43.736812],[6.552293,43.737211],[6.551926,43.737441],[6.551757,43.737695],[6.551585,43.737726],[6.551371,43.737645],[6.550477,43.737651],[6.549981,43.737726],[6.5496,43.737653],[6.548919,43.737765],[6.548222,43.737742],[6.547996,43.737455],[6.547599,43.737451],[6.546258,43.737781],[6.545373,43.737893],[6.544815,43.737858],[6.544166,43.73787],[6.543844,43.738048],[6.543431,43.738356],[6.542852,43.738575],[6.542344,43.739008],[6.5418,43.739186],[6.541374,43.739279],[6.541236,43.739542],[6.540756,43.739828],[6.540538,43.740025],[6.539955,43.74023],[6.53936,43.740724],[6.538861,43.740831],[6.538204,43.741189],[6.53775,43.741199],[6.536849,43.740943],[6.536238,43.740904],[6.535787,43.740668],[6.534398,43.740149],[6.534309,43.740007],[6.534313,43.739781],[6.534221,43.739602],[6.534403,43.739281],[6.534446,43.738982],[6.534591,43.738846],[6.534615,43.738569],[6.534328,43.738071],[6.534194,43.738071],[6.534019,43.738224],[6.531479,43.739211],[6.531447,43.739281],[6.529953,43.739953],[6.529437,43.740266],[6.528706,43.740587],[6.527703,43.740796],[6.526464,43.741125],[6.526056,43.741288],[6.525959,43.741222],[6.526431,43.740684],[6.52641,43.740567],[6.526131,43.740618],[6.525208,43.74099],[6.524811,43.740959],[6.524768,43.740784],[6.524951,43.740571],[6.525509,43.740273],[6.525482,43.740199],[6.524699,43.740327],[6.524323,43.740304],[6.523215,43.74043],[6.522236,43.740385],[6.52207,43.7403],[6.521882,43.739796],[6.521094,43.739424],[6.520345,43.739354],[6.519334,43.739063],[6.518795,43.738639],[6.518508,43.738533],[6.517773,43.737719],[6.516346,43.736738],[6.516067,43.736562],[6.515906,43.736323],[6.515563,43.73616],[6.515359,43.735986],[6.515075,43.735961],[6.51478,43.736087],[6.514571,43.736389],[6.514434,43.736825],[6.514222,43.737114],[6.513975,43.73735],[6.513761,43.737451],[6.513514,43.737821],[6.513702,43.738296],[6.513613,43.738817],[6.513594,43.73947],[6.51361,43.740404],[6.512457,43.740591],[6.511821,43.740558],[6.51095,43.740393],[6.510054,43.740362],[6.509587,43.740587],[6.509619,43.740691],[6.510097,43.741168],[6.509957,43.741387],[6.509979,43.741722],[6.510279,43.742032],[6.510435,43.742621],[6.51058,43.742734],[6.510542,43.743133],[6.510998,43.743571],[6.510934,43.743685],[6.510097,43.74397],[6.509421,43.743935],[6.507978,43.744028],[6.507651,43.744191],[6.50639,43.744265],[6.505902,43.744156],[6.505328,43.744113],[6.504866,43.743982],[6.504373,43.743993],[6.503987,43.744075],[6.503493,43.744017],[6.503085,43.744113],[6.502576,43.743935],[6.501599,43.743838],[6.501546,43.743451],[6.501717,43.743334],[6.501624,43.743189],[6.500725,43.743005],[6.500366,43.742776],[6.4998,43.742286],[6.49954,43.742017],[6.499312,43.742243],[6.49923,43.742572],[6.499266,43.742784],[6.498933,43.74379],[6.498842,43.744307],[6.498274,43.744536],[6.497595,43.744976],[6.496348,43.745261],[6.495983,43.745253],[6.495345,43.745439],[6.494953,43.745307],[6.494282,43.745435],[6.493499,43.74547],[6.493075,43.745373],[6.491697,43.745485],[6.491313,43.745741],[6.490393,43.746187],[6.488725,43.746718],[6.488339,43.74695],[6.48799,43.747357],[6.487588,43.74764],[6.487014,43.748617],[6.486842,43.749027],[6.486354,43.749705],[6.486188,43.750124],[6.486204,43.750688],[6.486064,43.751077],[6.485753,43.751379],[6.485348,43.752273],[6.484968,43.752661],[6.484905,43.753038],[6.484614,43.753198],[6.484334,43.753412],[6.483924,43.753514],[6.483634,43.753859],[6.483602,43.754016],[6.483409,43.75432],[6.482958,43.754561],[6.482979,43.75446],[6.482807,43.754506],[6.482731,43.754317],[6.482623,43.75422],[6.482642,43.754057],[6.481995,43.753305],[6.481946,43.753092],[6.481644,43.753042],[6.481641,43.75329],[6.481274,43.753964],[6.481343,43.754716],[6.481199,43.755161],[6.480791,43.755601],[6.480582,43.755797],[6.480552,43.756109],[6.480275,43.756722],[6.480045,43.757533],[6.480118,43.75786],[6.480265,43.758025],[6.480528,43.758114],[6.48093,43.757955],[6.481113,43.757819],[6.481349,43.757478],[6.481727,43.757368],[6.48196,43.757637],[6.482572,43.757998],[6.482808,43.758056],[6.483216,43.757978],[6.482958,43.758366],[6.482524,43.758451],[6.482009,43.758466],[6.481402,43.758586],[6.481081,43.758869],[6.480909,43.758869],[6.480614,43.758683],[6.480072,43.758753],[6.479627,43.758796],[6.479015,43.759222],[6.47864,43.758734],[6.478039,43.758521],[6.476827,43.758358],[6.476215,43.758908],[6.475496,43.759237],[6.475314,43.759454],[6.475161,43.759356],[6.475024,43.75914],[6.474356,43.758834],[6.473969,43.758751],[6.47378,43.758578],[6.473517,43.758443],[6.472932,43.757959],[6.472165,43.75766],[6.471822,43.757742],[6.471687,43.757678],[6.471687,43.757432],[6.471261,43.757139],[6.470845,43.756851],[6.46952,43.756548],[6.468313,43.756382],[6.467873,43.756126],[6.467339,43.756092],[6.466166,43.756624],[6.465292,43.75684],[6.464372,43.756723],[6.463774,43.756723],[6.463107,43.756541],[6.462509,43.756474],[6.461865,43.756142],[6.461842,43.756375],[6.461336,43.756657],[6.46106,43.757305],[6.460623,43.75762],[6.460163,43.757571],[6.45945,43.757969],[6.458531,43.758401],[6.457381,43.759846],[6.45676,43.760278],[6.455817,43.760643],[6.456093,43.759946],[6.45699,43.759464],[6.456921,43.758999],[6.456461,43.758733],[6.456318,43.758703],[6.454425,43.759545],[6.454312,43.759825],[6.453856,43.759965],[6.453432,43.759989],[6.452714,43.760469],[6.452601,43.76059],[6.452247,43.760826],[6.452129,43.761],[6.451732,43.761035],[6.451568,43.760994],[6.451025,43.761443],[6.450727,43.761605],[6.450529,43.761884],[6.450525,43.762023],[6.450426,43.762108],[6.450412,43.762355],[6.450568,43.762486],[6.450184,43.76281],[6.449886,43.762933],[6.449849,43.763383],[6.448422,43.76312],[6.448192,43.763496],[6.447682,43.763882],[6.447593,43.763557],[6.447618,43.763201],[6.447118,43.762426],[6.446416,43.762015],[6.445895,43.761299],[6.445295,43.761058],[6.445284,43.761252],[6.445034,43.761072],[6.444436,43.760989],[6.444785,43.761299],[6.444238,43.761512],[6.443197,43.761531],[6.442537,43.761603],[6.44199,43.761767],[6.441545,43.76167],[6.441116,43.761653],[6.440735,43.761713],[6.439767,43.761558],[6.439138,43.761361],[6.438732,43.761308],[6.438358,43.761155],[6.438058,43.760868],[6.437972,43.760322],[6.43772,43.760024],[6.437184,43.760128],[6.436636,43.760357],[6.436218,43.76026],[6.435722,43.760402],[6.435081,43.760431],[6.434831,43.760026],[6.434635,43.759993],[6.43397,43.760396],[6.433037,43.761225],[6.432339,43.761686],[6.431824,43.761961],[6.431025,43.762399],[6.43021,43.762724],[6.42937,43.762614],[6.428558,43.762461],[6.427951,43.762794],[6.427603,43.762904],[6.427056,43.763209],[6.426522,43.763317],[6.425902,43.763302],[6.425323,43.76346],[6.424942,43.763745],[6.424599,43.764119],[6.424132,43.764181],[6.423939,43.764377],[6.422421,43.765018],[6.421415,43.765454],[6.420849,43.765765],[6.420146,43.765827],[6.419615,43.765944],[6.418483,43.765835],[6.417536,43.765982],[6.416606,43.766199],[6.415664,43.766269],[6.414276,43.766288],[6.413687,43.766238],[6.413125,43.766004],[6.412521,43.765645],[6.411863,43.765297],[6.411397,43.765173],[6.410522,43.76483],[6.409707,43.764216],[6.409573,43.762709],[6.409358,43.762463],[6.40887,43.762372],[6.408564,43.762441],[6.408291,43.762635],[6.407725,43.762771],[6.407449,43.762972],[6.407545,43.763143],[6.407583,43.763533],[6.407309,43.76373],[6.407116,43.764386],[6.406687,43.764398],[6.406488,43.764607],[6.406531,43.764979],[6.406231,43.765444],[6.406349,43.765715],[6.406201,43.766573],[6.406086,43.766839],[6.405861,43.767431],[6.405904,43.76802],[6.406301,43.768322],[6.406547,43.768605],[6.406124,43.769562],[6.405839,43.769849],[6.40556,43.770375],[6.405485,43.770693],[6.405265,43.770836],[6.404761,43.771352],[6.404257,43.772142],[6.403871,43.772421],[6.403972,43.772545],[6.404927,43.772382],[6.405099,43.772467],[6.405018,43.77263],[6.404705,43.772665],[6.404343,43.772816],[6.403763,43.773366],[6.403385,43.773556],[6.403164,43.773569],[6.402685,43.773776],[6.402476,43.773989],[6.402932,43.774268],[6.402894,43.774638],[6.402406,43.77564],[6.402084,43.77704],[6.401735,43.77753],[6.401566,43.77833],[6.401317,43.778862],[6.401269,43.779364],[6.401328,43.779648],[6.400963,43.779362],[6.400856,43.779486],[6.400908,43.779585],[6.400842,43.77997],[6.400706,43.780094],[6.400641,43.780624],[6.400381,43.781132],[6.400486,43.782123],[6.400384,43.782156],[6.400075,43.781909],[6.399926,43.781732],[6.399488,43.781415],[6.399558,43.781837],[6.399434,43.782313],[6.399504,43.782642],[6.399804,43.782956],[6.400239,43.783092],[6.400055,43.783144],[6.400172,43.783228],[6.399997,43.783287],[6.40015,43.78359],[6.39998,43.783703],[6.400099,43.78393],[6.400223,43.783963],[6.400349,43.784306],[6.400571,43.784579],[6.400963,43.784687],[6.401253,43.785113],[6.401607,43.785415],[6.401891,43.785469],[6.401896,43.785555],[6.402208,43.78564],[6.401816,43.785799],[6.402057,43.78589],[6.402047,43.785985],[6.402358,43.786012],[6.402277,43.786107],[6.402615,43.786143],[6.402489,43.786315],[6.402288,43.786362],[6.402482,43.786479],[6.40243,43.786557],[6.402942,43.786775],[6.402987,43.786929],[6.403246,43.787069],[6.403193,43.787235],[6.403382,43.787317],[6.403323,43.7874],[6.403522,43.787809],[6.403693,43.787975],[6.403769,43.788227],[6.404061,43.788283],[6.404439,43.788641],[6.404658,43.788632],[6.404774,43.788773],[6.405142,43.788692],[6.405424,43.788695],[6.405312,43.788835],[6.405956,43.78903],[6.406134,43.789145],[6.406376,43.789191],[6.406554,43.789084],[6.406738,43.789096],[6.406981,43.789022],[6.406939,43.789125],[6.407207,43.789222],[6.407508,43.789718],[6.407705,43.790416],[6.407234,43.79051],[6.40686,43.790193],[6.406486,43.790099],[6.405754,43.790392],[6.405363,43.790627],[6.405217,43.791155],[6.403835,43.791531],[6.404128,43.791625],[6.403705,43.791672],[6.404063,43.791836],[6.40364,43.791883],[6.403249,43.792399],[6.403412,43.792763],[6.403022,43.792963],[6.402713,43.793397],[6.402323,43.79355],[6.401916,43.793597],[6.401753,43.793796],[6.401265,43.793984],[6.401298,43.794195],[6.40107,43.794407],[6.400843,43.79443],[6.400176,43.794383],[6.399818,43.794548],[6.399525,43.794477],[6.399466,43.794388],[6.399182,43.794078],[6.398866,43.794039],[6.398528,43.794136],[6.39841,43.794554],[6.398246,43.79463],[6.397519,43.794608],[6.398141,43.794825],[6.398585,43.795099],[6.398857,43.795381],[6.399312,43.795554],[6.399021,43.795817],[6.398984,43.796084],[6.399161,43.796351],[6.398705,43.796463],[6.398742,43.79663],[6.398997,43.796794],[6.399108,43.797028],[6.399236,43.797195],[6.399128,43.797571],[6.398125,43.797861],[6.398619,43.798103],[6.399171,43.798554],[6.400555,43.798341],[6.401025,43.798661],[6.401398,43.798659],[6.400925,43.79917],[6.401038,43.799249],[6.40158,43.799201],[6.402106,43.799034],[6.402331,43.799038]]],"type":"MultiLineString"},"properties":{"geo_point":{"lon":6.657401677140147,"lat":43.65398557005538},"name":"GR49 De Saint Raphaël (Var) à Rougon (Alpes de Haute-Provence) (2019)","code_gr":"GR49"}}]}