{"type":"FeatureCollection","features":[{"type":"Feature","geometry":{"coordinates":[[[7.201022,44.066735],[7.201182,44.067209],[7.201603,44.068993],[7.202023,44.070014],[7.202103,44.070906],[7.202244,44.070863],[7.202324,44.070647],[7.202644,44.070604],[7.202844,44.070662],[7.202904,44.07118],[7.202564,44.071784],[7.202604,44.072071],[7.202304,44.072345],[7.202364,44.072575],[7.202123,44.072848],[7.201683,44.072877],[7.201883,44.073495],[7.201983,44.074517],[7.201843,44.075423],[7.202043,44.076343],[7.201923,44.07735],[7.202464,44.077537],[7.202599,44.077848],[7.202401,44.077838],[7.202612,44.078095],[7.202704,44.078493],[7.20277,44.079271],[7.203035,44.079603],[7.203021,44.079898],[7.202784,44.080249],[7.201595,44.080742],[7.201542,44.080998],[7.201436,44.081103],[7.201687,44.081662],[7.201489,44.081985],[7.20071,44.082298],[7.20038,44.082659],[7.200208,44.083617],[7.199719,44.08394],[7.199587,44.084167],[7.198993,44.084272],[7.198491,44.084509],[7.198359,44.08468],[7.198279,44.084926],[7.198095,44.084907],[7.197923,44.085277],[7.197962,44.085486],[7.198134,44.085629],[7.198055,44.085799],[7.198095,44.085999],[7.198293,44.086217],[7.198319,44.08653],[7.198134,44.08671],[7.198174,44.086815],[7.19861,44.086909],[7.197778,44.087488],[7.198055,44.087744],[7.197593,44.088038],[7.198055,44.088228],[7.197262,44.088826],[7.197236,44.089177],[7.196866,44.089395],[7.196206,44.089528],[7.195928,44.089869],[7.195426,44.090012],[7.19503,44.090382],[7.193947,44.090496],[7.193617,44.090581],[7.193141,44.090429],[7.192428,44.09116],[7.192283,44.091416],[7.191688,44.092118],[7.191371,44.092687],[7.191332,44.092981],[7.191015,44.093095],[7.190777,44.093361],[7.190196,44.093844],[7.190156,44.094015],[7.189601,44.09466],[7.189588,44.094897],[7.189126,44.095343],[7.188914,44.095666],[7.188545,44.095922],[7.188162,44.096491],[7.187845,44.09651],[7.187052,44.096842],[7.186907,44.096814],[7.186933,44.096927],[7.186431,44.096909],[7.186643,44.097108],[7.186629,44.097459],[7.187131,44.097867],[7.187554,44.097829],[7.187924,44.097999],[7.188122,44.097848],[7.188914,44.098142],[7.189113,44.098616],[7.189113,44.098758],[7.189509,44.099128],[7.189535,44.099337],[7.189377,44.09947],[7.189403,44.09965],[7.189245,44.099953],[7.189271,44.100333],[7.189192,44.100542],[7.189271,44.100826],[7.189192,44.101063],[7.189416,44.101471],[7.189377,44.101813],[7.189337,44.102211],[7.189179,44.102192],[7.189364,44.102638],[7.189231,44.1026],[7.189271,44.102714],[7.188967,44.102609],[7.189152,44.102989],[7.188914,44.103444],[7.189033,44.103757],[7.188769,44.10371],[7.188386,44.103397],[7.188267,44.103767],[7.188426,44.103899],[7.188452,44.104051],[7.188703,44.104193],[7.188941,44.104478],[7.189628,44.1048],[7.190024,44.105123],[7.190103,44.104781],[7.19042,44.104668],[7.190381,44.104848],[7.190526,44.105132],[7.190724,44.105066],[7.190856,44.10535],[7.190896,44.105787],[7.191332,44.106271],[7.191781,44.107845],[7.192111,44.108196],[7.19223,44.108509],[7.192454,44.10886],[7.192177,44.109618],[7.192415,44.110131],[7.192653,44.110216],[7.192714,44.110335],[7.192554,44.110537],[7.193294,44.110666],[7.193494,44.11091],[7.193875,44.110867],[7.194015,44.110724],[7.194135,44.111701],[7.193995,44.112032],[7.194275,44.112348],[7.194355,44.112908],[7.194596,44.113469],[7.194435,44.114619],[7.194155,44.115108],[7.194315,44.115553],[7.194816,44.116143],[7.194976,44.117149],[7.195557,44.117106],[7.195817,44.116948],[7.196197,44.117221],[7.196337,44.117609],[7.196818,44.117882],[7.197819,44.117896],[7.197619,44.11804],[7.19868,44.117867],[7.19898,44.117724],[7.199721,44.11758],[7.199621,44.117709],[7.200482,44.117321],[7.201283,44.116991],[7.201853,44.116882],[7.201703,44.117031],[7.20187,44.11701],[7.201491,44.117369],[7.20145,44.117592],[7.201629,44.117448],[7.201646,44.117522],[7.201749,44.117489],[7.201686,44.117679],[7.201772,44.117844],[7.201841,44.117683],[7.201899,44.117745],[7.201996,44.117518],[7.202077,44.11765],[7.202255,44.117489],[7.202238,44.117712],[7.202462,44.118104],[7.20257,44.117818],[7.203709,44.118704],[7.203934,44.118677],[7.203784,44.119066],[7.204046,44.119227],[7.204401,44.118945],[7.204363,44.119227],[7.204531,44.119159],[7.204569,44.11928],[7.205073,44.119267],[7.205316,44.119535],[7.205372,44.120085],[7.205521,44.120407],[7.205559,44.120608],[7.205895,44.12042],[7.205858,44.120769],[7.206287,44.120661],[7.206306,44.121117],[7.206138,44.121479],[7.206493,44.121694],[7.206549,44.122056],[7.206829,44.122284],[7.206642,44.122633],[7.206287,44.12278],[7.206381,44.123021],[7.20681,44.123021],[7.206399,44.12333],[7.207035,44.123477],[7.207744,44.123169],[7.207726,44.123786],[7.207091,44.124523],[7.20681,44.1251],[7.206624,44.125086],[7.206613,44.125856],[7.206379,44.125723],[7.206391,44.126068],[7.206144,44.125962],[7.205858,44.125945],[7.204905,44.126561],[7.204606,44.126883],[7.204625,44.127312],[7.20498,44.127755],[7.204905,44.128479],[7.204662,44.129243],[7.204961,44.129913],[7.204924,44.130812],[7.205017,44.131227],[7.204886,44.131522],[7.205129,44.131925],[7.205185,44.132541],[7.20498,44.133574],[7.205148,44.134727],[7.205615,44.135343],[7.206082,44.136188],[7.206848,44.137046],[7.20668,44.137247],[7.206885,44.137435],[7.207165,44.137395],[7.207315,44.13714],[7.207539,44.137113],[7.20752,44.137609],[7.2078,44.137783],[7.207744,44.138266],[7.207912,44.138561],[7.207763,44.138762],[7.208043,44.138963],[7.208959,44.139352],[7.210098,44.140263],[7.20993,44.140424],[7.210397,44.1408],[7.211443,44.141148],[7.212022,44.141792],[7.212265,44.141577],[7.212863,44.141778],[7.213498,44.141456],[7.214264,44.141202],[7.214637,44.140934],[7.215198,44.1408],[7.216262,44.141028],[7.217533,44.141095],[7.217906,44.141001],[7.218243,44.141001],[7.219942,44.140518],[7.22097,44.140545],[7.222221,44.140089],[7.2228,44.14017],[7.224164,44.14096],[7.224556,44.140974],[7.225733,44.140652],[7.226686,44.140692],[7.227881,44.140599],[7.22917,44.14096],[7.229413,44.141202],[7.229675,44.141175],[7.230441,44.141296],[7.231001,44.141121],[7.231412,44.140491],[7.23285,44.139298],[7.232925,44.138802],[7.233541,44.138762],[7.233859,44.138668],[7.234513,44.138534],[7.235185,44.138293],[7.235409,44.138038],[7.235634,44.137582],[7.235316,44.137529],[7.234606,44.137569],[7.234214,44.137368],[7.233728,44.137395],[7.233504,44.137193],[7.233317,44.136697],[7.233766,44.136483],[7.235297,44.136697],[7.236175,44.136041],[7.237221,44.135679],[7.238137,44.135477],[7.23838,44.135223],[7.238865,44.135089],[7.239127,44.134901],[7.239482,44.134794],[7.24036,44.134847],[7.241406,44.134727],[7.24191,44.134459],[7.242863,44.133601],[7.243386,44.133386],[7.244152,44.133171],[7.244974,44.132836],[7.245665,44.132796],[7.245926,44.132608],[7.245945,44.132273],[7.246225,44.132126],[7.246356,44.131844],[7.246991,44.131415],[7.247458,44.130812],[7.248018,44.130705],[7.248149,44.130517],[7.248523,44.130436],[7.24856,44.130249],[7.248784,44.130249],[7.24884,44.130115],[7.249139,44.130007],[7.249326,44.129632],[7.249494,44.129498],[7.250297,44.129109],[7.251605,44.128425],[7.252334,44.128184],[7.252838,44.127889],[7.253417,44.12746],[7.25394,44.127326],[7.255285,44.126749],[7.256705,44.126897],[7.257078,44.12687],[7.257583,44.126642],[7.257881,44.126159],[7.258274,44.126146],[7.259488,44.126387],[7.260702,44.125971],[7.260683,44.12573],[7.261281,44.12565],[7.261692,44.125502],[7.263187,44.125368],[7.263672,44.125288],[7.264494,44.124818],[7.266736,44.124148],[7.267819,44.123464],[7.268118,44.123156],[7.268286,44.122914],[7.269052,44.122874],[7.269855,44.122431],[7.270322,44.121935],[7.270546,44.121801],[7.270528,44.122043],[7.270945,44.122273],[7.27145,44.122255],[7.271537,44.122083],[7.271779,44.121868],[7.272265,44.121251],[7.273311,44.120621],[7.274189,44.119924],[7.274693,44.119924],[7.275011,44.11983],[7.275179,44.119267],[7.27587,44.119387],[7.276057,44.11928],[7.276225,44.118824],[7.276655,44.11873],[7.276804,44.118489],[7.277271,44.118194],[7.277365,44.118006],[7.278149,44.117456],[7.278205,44.117295],[7.278504,44.117121],[7.278952,44.116987],[7.278952,44.116665],[7.279251,44.11637],[7.279382,44.116196],[7.279849,44.115914],[7.280092,44.115686],[7.280933,44.1157],[7.281437,44.11578],[7.282053,44.115793],[7.28239,44.115726],[7.282913,44.11574],[7.283193,44.115525],[7.284538,44.11519],[7.285304,44.114881],[7.286219,44.114667],[7.286593,44.114412],[7.286798,44.114466],[7.287116,44.114412],[7.288012,44.114425],[7.288218,44.114573],[7.288442,44.114707],[7.288834,44.114855],[7.288946,44.115056],[7.289563,44.11527],[7.289731,44.115404],[7.290235,44.115579],[7.290217,44.115793],[7.290627,44.116142],[7.291094,44.116397],[7.292234,44.116544],[7.292626,44.116799],[7.292981,44.116679],[7.293131,44.116491],[7.293504,44.116611],[7.293934,44.116531],[7.294307,44.116062],[7.294326,44.116585],[7.294812,44.115874],[7.295372,44.115552],[7.2964,44.115123],[7.297278,44.114908],[7.297614,44.114868],[7.298361,44.114667],[7.298959,44.1146],[7.29965,44.114332],[7.300304,44.114238],[7.300696,44.11401],[7.30135,44.113755],[7.301966,44.113688],[7.302097,44.113554],[7.302751,44.113379],[7.303535,44.113057],[7.304936,44.112709],[7.305329,44.11236],[7.306113,44.112186],[7.3063,44.11228],[7.306487,44.112199],[7.306524,44.111998],[7.30673,44.111998],[7.307066,44.112159],[7.307832,44.112132],[7.308635,44.111542],[7.310447,44.110925],[7.311568,44.110831],[7.312222,44.11059],[7.312408,44.110375],[7.313567,44.110147],[7.314388,44.109919],[7.314725,44.109718],[7.314837,44.109087],[7.314557,44.109007],[7.314295,44.109087],[7.313981,44.10893],[7.314129,44.108851],[7.313883,44.108789],[7.314018,44.108682],[7.314006,44.10862],[7.314425,44.10847],[7.314573,44.108284],[7.314721,44.108178],[7.314647,44.107983],[7.31493,44.107988],[7.315845,44.108001],[7.316312,44.10831],[7.316966,44.108511],[7.317919,44.108296],[7.318311,44.108403],[7.318591,44.108323],[7.318984,44.108658],[7.31889,44.108927],[7.319002,44.109087],[7.318853,44.109463],[7.319581,44.109745],[7.319675,44.109973],[7.319974,44.11016],[7.320273,44.110697],[7.320179,44.111207],[7.320777,44.111394],[7.320777,44.11185],[7.321151,44.112105],[7.321711,44.112119],[7.321711,44.112266],[7.322066,44.112508],[7.321618,44.112669],[7.321636,44.113178],[7.322234,44.113876],[7.322907,44.11409],[7.323243,44.114104],[7.323112,44.114358],[7.32427,44.114962],[7.324961,44.115579],[7.325783,44.115954],[7.326456,44.116021],[7.326867,44.116263],[7.327296,44.116397],[7.327408,44.116746],[7.327633,44.117081],[7.32795,44.117255],[7.328062,44.11747],[7.32851,44.117859],[7.328623,44.118315],[7.32893,44.118929],[7.329177,44.119141],[7.329263,44.119398],[7.329719,44.119654],[7.329916,44.119875],[7.330052,44.11992],[7.330261,44.120123],[7.330508,44.120132],[7.330828,44.120008],[7.330989,44.120026],[7.331038,44.119831],[7.33068,44.119619],[7.33057,44.119203],[7.330705,44.11892],[7.331112,44.118699],[7.33121,44.118026],[7.331617,44.118185],[7.332221,44.118132],[7.332504,44.117947],[7.332899,44.118053],[7.332985,44.118177],[7.33333,44.118],[7.334119,44.117991],[7.334452,44.117929],[7.334809,44.11792],[7.33476,44.118026],[7.335572,44.118006],[7.33658,44.117899],[7.336618,44.11802],[7.337458,44.117738],[7.33772,44.117899],[7.338019,44.117818],[7.338149,44.11759],[7.338336,44.11759],[7.338635,44.117242],[7.33927,44.116893],[7.339737,44.116866],[7.341157,44.116236],[7.34168,44.116102],[7.34224,44.115713],[7.342577,44.115632],[7.343025,44.115404],[7.343361,44.115056],[7.343772,44.114895],[7.344332,44.114774],[7.344949,44.114506],[7.344968,44.114265],[7.345939,44.113943],[7.346256,44.11401],[7.346387,44.113956],[7.346555,44.114023],[7.346966,44.113634],[7.34775,44.113507],[7.34845,44.113516],[7.349308,44.113308],[7.349229,44.113071],[7.349625,44.112928],[7.349889,44.113004],[7.349823,44.112881],[7.350008,44.112928],[7.350061,44.112691],[7.350444,44.112378],[7.350563,44.112596],[7.350471,44.11271],[7.350788,44.112852],[7.35092,44.112767],[7.350986,44.112833],[7.351025,44.112758],[7.351118,44.112805],[7.351158,44.112739],[7.351369,44.112976],[7.351501,44.11272],[7.351739,44.112919],[7.351805,44.112729],[7.351976,44.112796],[7.35195,44.112691],[7.352267,44.112843],[7.352505,44.112577],[7.352809,44.11252],[7.353178,44.11252],[7.35326,44.112276],[7.35343,44.112331],[7.353386,44.112187],[7.353778,44.112224],[7.353412,44.112061],[7.353674,44.111993],[7.353543,44.111899],[7.353839,44.111911],[7.353822,44.11183],[7.353944,44.111824],[7.353866,44.111699],[7.353979,44.111636],[7.35397,44.111517],[7.353935,44.111404],[7.354127,44.111273],[7.354022,44.11116],[7.354066,44.110998],[7.35397,44.110829],[7.354014,44.110529],[7.354101,44.110253],[7.354049,44.110166],[7.354223,44.109903],[7.354162,44.109746],[7.354293,44.109659],[7.35424,44.109546],[7.354423,44.109477],[7.35431,44.109377],[7.354545,44.109164],[7.354754,44.109058],[7.354789,44.108902],[7.354885,44.108895],[7.354842,44.108714],[7.355016,44.108751],[7.355107,44.108613],[7.354843,44.108518],[7.355199,44.108243],[7.355199,44.108054],[7.355067,44.107987],[7.355265,44.10794],[7.355199,44.107864],[7.355411,44.107892],[7.355094,44.107712],[7.355067,44.107447],[7.355173,44.107172],[7.355147,44.106565],[7.355239,44.106195],[7.355239,44.105569],[7.355979,44.104838],[7.35619,44.104487],[7.356864,44.103909],[7.356824,44.104279],[7.357392,44.103956],[7.357537,44.103577],[7.358092,44.103321],[7.358224,44.103454],[7.358607,44.103387],[7.358581,44.103539],[7.358832,44.103349],[7.359017,44.103435],[7.358924,44.103159],[7.359096,44.103235],[7.359188,44.102979],[7.359109,44.102695],[7.359175,44.102543],[7.359136,44.102372],[7.359294,44.101841],[7.359875,44.101471],[7.359836,44.101101],[7.360139,44.100959],[7.360021,44.100598],[7.360245,44.100551],[7.360166,44.10002],[7.360021,44.099745],[7.359928,44.099394],[7.359677,44.099071],[7.359532,44.098644],[7.359122,44.098588],[7.358634,44.098758],[7.358158,44.098312],[7.35866,44.098388],[7.358515,44.098123],[7.358013,44.097867],[7.358026,44.097715],[7.358317,44.097772],[7.358171,44.097468],[7.357722,44.097326],[7.357313,44.097051],[7.357009,44.097051],[7.35689,44.096728],[7.357167,44.096472],[7.357617,44.096444],[7.356383,44.096014],[7.356493,44.095921],[7.356592,44.095646],[7.357577,44.095837],[7.358449,44.095742],[7.359149,44.096007],[7.3594,44.095751],[7.359822,44.095656],[7.359915,44.095448],[7.360153,44.095362],[7.360126,44.095561],[7.360245,44.095742],[7.360232,44.09595],[7.360562,44.095922],[7.360866,44.096121],[7.361143,44.096074],[7.361407,44.096273],[7.361592,44.096292],[7.362009,44.096881],[7.36199,44.097147],[7.362107,44.097589],[7.362335,44.097863],[7.362347,44.098045],[7.362569,44.098253],[7.362699,44.09862],[7.362643,44.098744],[7.362773,44.09881],[7.36268,44.098987],[7.362766,44.09935],[7.362625,44.099589],[7.362877,44.099815],[7.362964,44.099983],[7.363463,44.100142],[7.363487,44.100656],[7.363678,44.100519],[7.363894,44.100483],[7.36387,44.100687],[7.36395,44.10089],[7.364153,44.100974],[7.364215,44.101116],[7.364338,44.10124],[7.36451,44.101705],[7.364362,44.101824],[7.364683,44.101899],[7.364837,44.101957],[7.36517,44.101935],[7.365546,44.102005],[7.365644,44.101886],[7.365718,44.102094],[7.366039,44.102116],[7.366254,44.102001],[7.36663,44.101992],[7.366809,44.101943],[7.366803,44.101859],[7.366969,44.101873],[7.367061,44.101612],[7.367234,44.101669],[7.367302,44.101497],[7.367561,44.101461],[7.367573,44.101275],[7.367955,44.101116],[7.36814,44.101213],[7.368405,44.101107],[7.368368,44.100979],[7.368479,44.100789],[7.368436,44.10062],[7.368704,44.100722],[7.369567,44.100712],[7.370034,44.100936],[7.370289,44.100936],[7.370487,44.100986],[7.370756,44.100966],[7.371181,44.101037],[7.37162,44.101017],[7.371945,44.101108],[7.372257,44.101129],[7.372554,44.1012],[7.373149,44.10118],[7.373687,44.101302],[7.374225,44.101647],[7.374593,44.102176],[7.375074,44.102257],[7.375371,44.102227],[7.375994,44.102247],[7.376292,44.102389],[7.377127,44.102522],[7.377707,44.102318],[7.378274,44.102328],[7.3785,44.102481],[7.378868,44.102552],[7.379222,44.102501],[7.379364,44.102583],[7.37925,44.102715],[7.379859,44.102765],[7.38027,44.102725],[7.380383,44.102562],[7.381275,44.102389],[7.381317,44.102003],[7.381544,44.102013],[7.381615,44.101912],[7.381997,44.101932],[7.382252,44.101698],[7.382889,44.101668],[7.383384,44.101444],[7.383781,44.101474],[7.384701,44.101881],[7.385026,44.101515],[7.385932,44.101159],[7.386357,44.101088],[7.387221,44.10057],[7.387376,44.100295],[7.388721,44.10001],[7.38984,44.100285],[7.391015,44.10001],[7.391595,44.099756],[7.391779,44.099553],[7.392176,44.099533],[7.392444,44.099187],[7.392629,44.09876],[7.393067,44.098577],[7.393195,44.098374],[7.39328,44.098465],[7.393775,44.098343],[7.393888,44.098404],[7.394639,44.097896],[7.39478,44.098099],[7.394851,44.098262],[7.395106,44.098557],[7.395417,44.098608],[7.395729,44.09873],[7.395904,44.098741],[7.396024,44.09887],[7.396354,44.098827],[7.396655,44.098885],[7.396775,44.098964],[7.396965,44.098964],[7.396985,44.099215],[7.396815,44.099302],[7.396725,44.099481],[7.396595,44.099381],[7.396454,44.099417],[7.396394,44.099553],[7.396404,44.100035],[7.396314,44.100143],[7.396364,44.10038],[7.396304,44.100668],[7.396354,44.100869],[7.396114,44.101041],[7.396074,44.101638],[7.395964,44.101947],[7.395984,44.102177],[7.395814,44.102393],[7.396034,44.102745],[7.396264,44.103435],[7.396204,44.103759],[7.396414,44.104082],[7.396505,44.104326],[7.396825,44.104499],[7.397285,44.104542],[7.397425,44.104722],[7.398136,44.104743],[7.399077,44.105024],[7.399508,44.105052],[7.399828,44.105009],[7.400128,44.105146],[7.400349,44.105182],[7.400349,44.105074],[7.400579,44.105131],[7.400499,44.104671],[7.400729,44.104722],[7.400639,44.104499],[7.401129,44.104786],[7.40163,44.104679],[7.402281,44.104736],[7.402808,44.104548],[7.403141,44.104526],[7.403263,44.104363],[7.403036,44.104097],[7.403594,44.104051],[7.403669,44.10392],[7.403626,44.103812],[7.403873,44.103774],[7.404109,44.103512],[7.404399,44.103466],[7.405064,44.103388],[7.405246,44.10325],[7.405504,44.103211],[7.405804,44.103065],[7.406266,44.103073],[7.406362,44.102926],[7.406491,44.102949],[7.406867,44.103219],[7.407285,44.103119],[7.407607,44.103188],[7.408133,44.103234],[7.408004,44.103096],[7.4081,44.10305],[7.407768,44.102803],[7.407618,44.102487],[7.407682,44.102364],[7.407843,44.102241],[7.407929,44.102071],[7.408445,44.101975],[7.408705,44.101742],[7.409014,44.101742],[7.40916,44.101392],[7.410055,44.101368],[7.410282,44.101193],[7.410705,44.1011],[7.411225,44.100924],[7.411778,44.100983],[7.412445,44.10117],[7.413892,44.101216],[7.414575,44.101322],[7.416039,44.101216],[7.416755,44.101123],[7.417291,44.100983],[7.417665,44.100866],[7.418316,44.100843],[7.418511,44.100703],[7.418576,44.100469],[7.418934,44.100025],[7.419535,44.099733],[7.420202,44.09971],[7.42108,44.099605],[7.421958,44.099395],[7.42282,44.099091],[7.423324,44.098776],[7.423341,44.09825],[7.423435,44.098114],[7.42342,44.097934],[7.423685,44.097754],[7.423921,44.097493],[7.424277,44.097466],[7.424649,44.097302],[7.424861,44.097133],[7.425392,44.09734],[7.426144,44.097291],[7.426584,44.097204],[7.427054,44.096621],[7.427752,44.096801],[7.42761,44.096583],[7.427955,44.096583],[7.42776,44.096377],[7.428128,44.096203],[7.427944,44.096104],[7.42822,44.09598],[7.428013,44.095881],[7.42822,44.095757],[7.428082,44.095658],[7.428208,44.0956],[7.427955,44.095254],[7.42807,44.095022],[7.428335,44.094931],[7.428461,44.094766],[7.428519,44.094419],[7.428829,44.094114],[7.429013,44.093965],[7.429082,44.093511],[7.429959,44.092235],[7.430138,44.092119],[7.430317,44.091698],[7.431049,44.091173],[7.431163,44.090974],[7.431553,44.090869],[7.431878,44.090811],[7.432122,44.090565],[7.432203,44.090005],[7.432594,44.089339],[7.434008,44.087937],[7.434594,44.087412],[7.434952,44.08719],[7.435244,44.086641],[7.435553,44.08622],[7.435651,44.086057],[7.435797,44.085881],[7.435895,44.085169],[7.436578,44.08462],[7.437294,44.084556],[7.437347,44.084017],[7.437776,44.083578],[7.437911,44.083534],[7.438204,44.083335],[7.438367,44.08337],[7.438269,44.082576],[7.437797,44.082132],[7.438692,44.082202],[7.438464,44.081898],[7.438415,44.081594],[7.439115,44.081629],[7.438952,44.080648],[7.43848,44.080566],[7.43835,44.080274],[7.437911,44.080169],[7.437505,44.079982],[7.437342,44.079725],[7.437879,44.079714],[7.437488,44.079492],[7.437684,44.07948],[7.437261,44.079176],[7.437082,44.078919],[7.437667,44.079071],[7.437423,44.078802],[7.43744,44.078651],[7.437814,44.078732],[7.437326,44.078265],[7.437553,44.07823],[7.438058,44.078382],[7.438074,44.0783],[7.437488,44.077879],[7.437488,44.077482],[7.437781,44.077342],[7.438025,44.076957],[7.438123,44.076513],[7.438403,44.076219],[7.438236,44.076088],[7.438335,44.075696],[7.438661,44.075347],[7.438646,44.075189],[7.438919,44.074573],[7.438904,44.074377],[7.439109,44.07423],[7.439147,44.07405],[7.439298,44.073843],[7.439412,44.07357],[7.439754,44.073341],[7.439834,44.07305],[7.439712,44.072949],[7.439869,44.072599],[7.439695,44.072298],[7.439834,44.071484],[7.440078,44.071171],[7.440444,44.071096],[7.440601,44.07067],[7.440863,44.070257],[7.441072,44.070119],[7.441176,44.069769],[7.441455,44.069406],[7.441804,44.069093],[7.441891,44.068617],[7.441821,44.068216],[7.441943,44.067815],[7.442118,44.067552],[7.442048,44.067264],[7.442205,44.067064],[7.442205,44.066788],[7.442484,44.066626],[7.442431,44.066337],[7.442518,44.06615],[7.44271,44.066024],[7.442257,44.065887],[7.44224,44.065774],[7.44203,44.065711],[7.441961,44.065498],[7.442274,44.06511],[7.442327,44.06486],[7.442919,44.064734],[7.44339,44.063294],[7.443146,44.063232],[7.442919,44.062605],[7.44264,44.062493],[7.442675,44.062305],[7.443198,44.061942],[7.443198,44.061704],[7.443303,44.061566],[7.443146,44.061303],[7.443303,44.060852],[7.443233,44.060627],[7.443338,44.060376],[7.443111,44.060226],[7.442797,44.060126],[7.442832,44.059362],[7.442553,44.059124],[7.442466,44.058861],[7.443233,44.058046],[7.443756,44.057996],[7.444157,44.057808],[7.445202,44.05757],[7.446475,44.057132],[7.448305,44.057057],[7.450083,44.057032],[7.450675,44.056882],[7.451146,44.056844],[7.451198,44.056543],[7.451721,44.056481],[7.452209,44.05618],[7.45185,44.055914],[7.451516,44.055815],[7.452011,44.055551],[7.451367,44.055468],[7.451436,44.055229],[7.451528,44.055113],[7.45147,44.054931],[7.451103,44.05465],[7.451321,44.054245],[7.451252,44.054121],[7.450907,44.053964],[7.4507,44.053774],[7.450424,44.053758],[7.450171,44.053601],[7.449412,44.053584],[7.448124,44.053898],[7.448159,44.05365],[7.447779,44.053253],[7.44771,44.052964],[7.447814,44.052865],[7.44748,44.05284],[7.447446,44.052724],[7.447354,44.052766],[7.447227,44.052559],[7.447147,44.052774],[7.446675,44.052749],[7.446468,44.052683],[7.446158,44.052683],[7.445871,44.052617],[7.445664,44.052658],[7.445365,44.052212],[7.444836,44.052047],[7.444652,44.051708],[7.444295,44.051774],[7.444318,44.051906],[7.443962,44.051882],[7.444008,44.05208],[7.443766,44.052039],[7.443663,44.05208],[7.443421,44.05208],[7.443272,44.051972],[7.442881,44.051948],[7.442513,44.051683],[7.441696,44.051799],[7.441317,44.0517],[7.440949,44.051683],[7.440662,44.051741],[7.440478,44.051675],[7.440294,44.051435],[7.43988,44.051353],[7.439788,44.051229],[7.439615,44.051163],[7.439408,44.051295],[7.439132,44.05127],[7.438994,44.051369],[7.438684,44.051369],[7.438465,44.051328],[7.437879,44.051377],[7.437557,44.051303],[7.437488,44.051204],[7.437235,44.051245],[7.437212,44.051163],[7.437028,44.051171],[7.436844,44.051072],[7.43651,44.050948],[7.436315,44.050956],[7.436211,44.050832],[7.435798,44.050493],[7.43582,44.05041],[7.435407,44.050394],[7.435108,44.050286],[7.434889,44.050311],[7.434107,44.050204],[7.43382,44.050121],[7.433452,44.050138],[7.433371,44.049848],[7.433463,44.049733],[7.432946,44.049667],[7.432681,44.04946],[7.432371,44.049402],[7.432026,44.049435],[7.431738,44.04927],[7.431336,44.049311],[7.430635,44.049196],[7.430701,44.048414],[7.430492,44.048276],[7.430353,44.04785],[7.430754,44.047549],[7.430771,44.047236],[7.43051,44.047236],[7.430597,44.047011],[7.430893,44.046572],[7.430736,44.046184],[7.430841,44.045871],[7.430841,44.04557],[7.430945,44.045269],[7.430858,44.044756],[7.431015,44.044518],[7.430876,44.044179],[7.430701,44.043916],[7.43051,44.04309],[7.43044,44.042513],[7.430048,44.042451],[7.429807,44.042344],[7.429749,44.042203],[7.429473,44.042104],[7.429485,44.041922],[7.429312,44.041856],[7.429128,44.041682],[7.42922,44.041658],[7.429094,44.041509],[7.428979,44.041236],[7.429071,44.04093],[7.428795,44.041046],[7.429128,44.040682],[7.429151,44.040509],[7.429071,44.040401],[7.429094,44.040285],[7.428818,44.040285],[7.428668,44.040162],[7.428795,44.039988],[7.428933,44.039938],[7.428967,44.039715],[7.429094,44.039632],[7.429312,44.039393],[7.429611,44.038913],[7.429209,44.039021],[7.428956,44.038996],[7.428852,44.038814],[7.42876,44.03855],[7.428093,44.03788],[7.427346,44.037186],[7.427242,44.037045],[7.426932,44.036913],[7.426955,44.036805],[7.426851,44.036557],[7.426874,44.036037],[7.426771,44.03588],[7.426656,44.035557],[7.42669,44.035375],[7.426334,44.035069],[7.426081,44.034764],[7.425885,44.03435],[7.425816,44.033788],[7.425954,44.033333],[7.426092,44.033077],[7.42577,44.0323],[7.425563,44.032193],[7.425322,44.032143],[7.425035,44.032035],[7.424414,44.032027],[7.423503,44.031851],[7.423224,44.031713],[7.423033,44.031738],[7.422248,44.031337],[7.421238,44.030735],[7.420052,44.03051],[7.419512,44.030309],[7.418989,44.029908],[7.41871,44.029608],[7.418065,44.029395],[7.417787,44.029169],[7.417665,44.028856],[7.416915,44.028342],[7.416567,44.028041],[7.415991,44.027778],[7.415277,44.027314],[7.414858,44.026938],[7.414179,44.025309],[7.414179,44.025134],[7.414318,44.025021],[7.414702,44.023968],[7.415468,44.022615],[7.416044,44.021637],[7.416514,44.021123],[7.416706,44.020785],[7.417281,44.020183],[7.4181,44.019294],[7.419285,44.018817],[7.419704,44.018253],[7.420279,44.01794],[7.420662,44.017539],[7.420924,44.017188],[7.42176,44.016849],[7.422057,44.016574],[7.422353,44.015834],[7.422353,44.015145],[7.422963,44.01606],[7.424183,44.015433],[7.423277,44.015496],[7.423085,44.014643],[7.423259,44.013929],[7.423137,44.013315],[7.423172,44.012976],[7.422858,44.012525],[7.423416,44.012312],[7.423834,44.011848],[7.424026,44.011485],[7.424044,44.011272],[7.42441,44.010758],[7.424427,44.010545],[7.425107,44.010231],[7.425403,44.009981],[7.42549,44.009792],[7.425961,44.009542],[7.426135,44.009379],[7.426501,44.008978],[7.426606,44.008777],[7.427233,44.008602],[7.427739,44.008263],[7.428505,44.007862],[7.428976,44.007498],[7.429656,44.00627],[7.429882,44.006132],[7.430179,44.006032],[7.430492,44.005693],[7.430893,44.004878],[7.431242,44.004214],[7.431277,44.003675],[7.431956,44.001619],[7.432061,44.001092],[7.432288,44.000616],[7.432148,44.000465],[7.431399,44.00029],[7.430806,44.00024],[7.429516,43.999801],[7.428697,43.999688],[7.427599,43.999625],[7.427129,43.999588],[7.427076,43.999425],[7.426641,43.999061],[7.426327,43.99866],[7.425612,43.998271],[7.42549,43.997858],[7.425142,43.997456],[7.424444,43.99713],[7.424218,43.996917],[7.42251,43.99614],[7.421569,43.996152],[7.419843,43.996516],[7.418797,43.996729],[7.417124,43.996779],[7.416183,43.996529],[7.415172,43.996391],[7.413813,43.995839],[7.413238,43.995613],[7.412889,43.99535],[7.412018,43.995074],[7.411286,43.994635],[7.410832,43.993971],[7.410641,43.992767],[7.409395,43.992004],[7.408274,43.990778],[7.407639,43.990402],[7.406966,43.990187],[7.406443,43.989837],[7.406219,43.989797],[7.405958,43.98981],[7.402334,43.989233],[7.402147,43.988937],[7.401344,43.988803],[7.400727,43.988453],[7.40026,43.987969],[7.401176,43.988265],[7.402035,43.988225],[7.402558,43.987795],[7.403174,43.987055],[7.403959,43.987096],[7.404407,43.986921],[7.405042,43.986934],[7.405621,43.98676],[7.406481,43.986249],[7.407452,43.987378],[7.407471,43.987674],[7.407938,43.987915],[7.408722,43.988184],[7.409115,43.988641],[7.409563,43.988614],[7.410049,43.988749],[7.410553,43.988735],[7.411113,43.989286],[7.411861,43.989595],[7.411842,43.989985],[7.411991,43.99016],[7.411954,43.990509],[7.412178,43.99063],[7.413019,43.990671],[7.413355,43.990926],[7.413785,43.991235],[7.413878,43.991934],[7.414046,43.992646],[7.415372,43.992512],[7.416082,43.992821],[7.416811,43.993358],[7.417016,43.993345],[7.417371,43.993237],[7.417838,43.993251],[7.418399,43.99313],[7.418959,43.992727],[7.419295,43.992068],[7.41937,43.991759],[7.419818,43.991302],[7.420304,43.991289],[7.421294,43.991584],[7.422116,43.991732],[7.422508,43.991853],[7.423498,43.992512],[7.423928,43.992619],[7.424096,43.992781],[7.424432,43.992861],[7.424899,43.992324],[7.425235,43.991033],[7.425366,43.990402],[7.425833,43.989824],[7.426524,43.989636],[7.426991,43.989394],[7.427477,43.988964],[7.428262,43.989058],[7.428523,43.989031],[7.428691,43.989286],[7.428953,43.9893],[7.42927,43.989071],[7.429326,43.988292],[7.429401,43.987714],[7.429084,43.987028],[7.429065,43.9868],[7.429364,43.986773],[7.429999,43.986907],[7.431157,43.986585],[7.431587,43.986773],[7.432072,43.986813],[7.432353,43.987069],[7.432707,43.987096],[7.433417,43.986706],[7.433772,43.98637],[7.434108,43.986074],[7.43437,43.985752],[7.434706,43.985577],[7.434949,43.985322],[7.435509,43.985026],[7.435827,43.984623],[7.436294,43.984448],[7.436742,43.983951],[7.437807,43.983547],[7.437826,43.983265],[7.438143,43.982687],[7.438573,43.982284],[7.43876,43.981881],[7.4396,43.981155],[7.439339,43.980752],[7.439881,43.980873],[7.439451,43.980389],[7.439862,43.980456],[7.440292,43.980671],[7.440609,43.980738],[7.440646,43.981034],[7.440684,43.98141],[7.440534,43.981907],[7.440123,43.982028],[7.440236,43.982633],[7.440927,43.982378],[7.441749,43.98219],[7.442085,43.981867],[7.441973,43.982324],[7.441506,43.982781],[7.441562,43.982916],[7.442328,43.982606],[7.442776,43.982499],[7.443243,43.982176],[7.443859,43.981975],[7.444046,43.981558],[7.444065,43.981155],[7.444793,43.980657],[7.445447,43.980066],[7.445597,43.979259],[7.445634,43.978426],[7.445896,43.977741],[7.446101,43.977633],[7.44625,43.976934],[7.44683,43.976074],[7.447241,43.975617],[7.447427,43.97477],[7.447689,43.974366],[7.447876,43.973977],[7.448343,43.973519],[7.449071,43.973116],[7.448642,43.972552],[7.448511,43.971933],[7.448118,43.971288],[7.447614,43.970683],[7.447241,43.969957],[7.447147,43.969419],[7.447577,43.968088],[7.447801,43.967093],[7.447801,43.966663],[7.448193,43.965359],[7.448529,43.964727],[7.448847,43.96435],[7.448996,43.963853],[7.449874,43.962656],[7.450117,43.961823],[7.449856,43.961446],[7.449744,43.960586],[7.449688,43.96029],[7.449893,43.959281],[7.450472,43.958165],[7.450902,43.957574],[7.451798,43.95674],[7.45305,43.955691],[7.453517,43.955099],[7.453797,43.954629],[7.454171,43.953149],[7.454488,43.952638],[7.454656,43.952222],[7.455329,43.951684],[7.455703,43.951052],[7.455684,43.950379],[7.455441,43.949989],[7.455721,43.949532],[7.456151,43.949169],[7.456282,43.948765],[7.456226,43.948469],[7.456581,43.948147],[7.456151,43.947434],[7.4563,43.947084],[7.45673,43.946734],[7.456823,43.946358],[7.456861,43.945632],[7.456991,43.945134],[7.456879,43.94469],[7.456674,43.943601],[7.456506,43.94274],[7.456226,43.942283],[7.455852,43.94204],[7.455964,43.941233],[7.455815,43.940494],[7.455441,43.940157],[7.455292,43.939875],[7.454937,43.93966],[7.454769,43.939081],[7.454451,43.938678],[7.453237,43.937561],[7.45277,43.937413],[7.452041,43.937077],[7.451985,43.936727],[7.451481,43.936216],[7.45092,43.93518],[7.450808,43.936028],[7.450584,43.936539],[7.450528,43.936943],[7.450173,43.937575],[7.44909,43.937736],[7.449688,43.937292],[7.449127,43.93744],[7.449426,43.936889],[7.44937,43.93666],[7.449183,43.936754],[7.449127,43.936485],[7.448922,43.936593],[7.448772,43.936014],[7.447801,43.935328],[7.447764,43.934844],[7.446587,43.934172],[7.4464,43.933876],[7.445783,43.93358],[7.445447,43.933163],[7.445036,43.932342],[7.444214,43.93214],[7.443897,43.931723],[7.443038,43.931414],[7.442645,43.93101],[7.442066,43.930647],[7.441599,43.930512],[7.44046,43.930566],[7.439974,43.93027],[7.439003,43.930122],[7.438368,43.930176],[7.437583,43.930311],[7.437228,43.930136],[7.437639,43.929611],[7.437807,43.929113],[7.437807,43.928777],[7.43749,43.927956],[7.437434,43.92692],[7.437658,43.925871],[7.438069,43.924458],[7.437807,43.924149],[7.437452,43.923516],[7.436612,43.922602],[7.436163,43.921862],[7.436051,43.921337],[7.436556,43.920328],[7.436948,43.920018],[7.437172,43.919292],[7.437079,43.91761],[7.437172,43.917112],[7.436742,43.916452],[7.436481,43.915672],[7.436369,43.914932],[7.4365,43.914568],[7.436257,43.913882],[7.436425,43.913546],[7.436443,43.913075],[7.43678,43.91255],[7.436724,43.911608],[7.436574,43.911379],[7.43678,43.911366],[7.43678,43.911123],[7.437377,43.9115],[7.437508,43.910639],[7.437396,43.909939],[7.437826,43.909334],[7.438255,43.908997],[7.438498,43.908943],[7.438666,43.908728],[7.438741,43.908419],[7.438891,43.908109],[7.438573,43.907517],[7.438722,43.907315],[7.438722,43.907046],[7.438872,43.90679],[7.439003,43.906238],[7.439245,43.906265],[7.439395,43.906225],[7.439432,43.906104],[7.439656,43.906117],[7.439899,43.905915],[7.440254,43.905498],[7.441113,43.905067],[7.44117,43.904892],[7.441506,43.904919],[7.441898,43.90465],[7.441898,43.903843],[7.44173,43.903331],[7.441468,43.902793],[7.441767,43.901756],[7.441879,43.901137],[7.442178,43.900935],[7.442234,43.900626],[7.442514,43.900572],[7.44244,43.900451],[7.442757,43.900343],[7.442701,43.900209],[7.442869,43.900087],[7.442795,43.89998],[7.443019,43.899832],[7.442851,43.899455],[7.443168,43.899266],[7.443262,43.898876],[7.443374,43.898459],[7.443318,43.898082],[7.443056,43.89788],[7.443056,43.897786],[7.443392,43.89788],[7.444308,43.897759],[7.444681,43.896803],[7.445466,43.896278],[7.446138,43.895888],[7.445503,43.896103],[7.445111,43.89609],[7.445914,43.895753],[7.445989,43.895497],[7.445933,43.895201],[7.44612,43.894771],[7.446904,43.894515],[7.447035,43.894232],[7.446568,43.894353],[7.446848,43.894071],[7.446811,43.893896],[7.446867,43.893599],[7.446213,43.893384],[7.44597,43.893101],[7.446045,43.892805],[7.44526,43.89228],[7.444887,43.891917],[7.445765,43.89158],[7.446194,43.891203],[7.446138,43.890894],[7.445933,43.890853],[7.446045,43.890665],[7.445877,43.890624],[7.446101,43.890476],[7.4464,43.890463],[7.445765,43.890315],[7.446325,43.89014],[7.445671,43.890059],[7.445914,43.889938],[7.445597,43.889844],[7.445877,43.88983],[7.445354,43.889655],[7.445709,43.889561],[7.445148,43.889561],[7.445802,43.88944],[7.445204,43.889251],[7.445355,43.889067],[7.445275,43.888822],[7.444795,43.888778],[7.444554,43.887624],[7.444234,43.88722],[7.444014,43.887263],[7.443974,43.887018],[7.444114,43.886629],[7.443733,43.885373],[7.443974,43.883945],[7.444214,43.883901],[7.444654,43.884089],[7.445275,43.884031],[7.445555,43.883945],[7.445015,43.882372],[7.445235,43.881939],[7.445355,43.881434],[7.445976,43.8809],[7.446476,43.880712],[7.446857,43.880178],[7.447698,43.879312],[7.447819,43.879298],[7.447713,43.879079],[7.448334,43.879155],[7.4484,43.878889],[7.447437,43.878504],[7.447377,43.877826],[7.449219,43.87774],[7.44992,43.877595],[7.45024,43.876917],[7.450641,43.876571],[7.451922,43.876744],[7.452102,43.876599],[7.452482,43.875964],[7.454384,43.875575],[7.454324,43.875171],[7.455145,43.87507],[7.456487,43.874622],[7.456887,43.874261],[7.457608,43.874478],[7.458869,43.874492],[7.45979,43.874305],[7.460571,43.873612],[7.460891,43.873222],[7.461051,43.873266],[7.461452,43.873655],[7.461532,43.874016],[7.461812,43.874146],[7.462473,43.874117],[7.463234,43.874204],[7.464315,43.87416],[7.465136,43.874521],[7.465836,43.874478],[7.466157,43.874362],[7.466277,43.874218],[7.466717,43.874132],[7.466917,43.874175],[7.467238,43.874002],[7.467498,43.873525],[7.467978,43.873424],[7.46906,43.872544],[7.46914,43.872053],[7.46954,43.871245],[7.470221,43.871332],[7.470821,43.871274],[7.471903,43.871389],[7.472723,43.871346],[7.473344,43.871173],[7.473624,43.870855],[7.473684,43.870567],[7.474356,43.870325],[7.474483,43.870151],[7.475078,43.869906],[7.475134,43.869631],[7.474979,43.869406],[7.474979,43.868427],[7.475163,43.867865],[7.475715,43.86758],[7.476295,43.867018],[7.476451,43.86662],[7.476578,43.865599],[7.476451,43.865518],[7.47655,43.865263],[7.476734,43.865191],[7.476861,43.86466],[7.476762,43.864395],[7.477074,43.864395],[7.476748,43.863436],[7.476564,43.863262],[7.476451,43.863068],[7.476663,43.863048],[7.476564,43.86265],[7.47689,43.86265],[7.47706,43.862047],[7.47706,43.861272],[7.476876,43.860884],[7.476451,43.860516],[7.475941,43.86018],[7.475488,43.859496],[7.475941,43.859302],[7.476083,43.859026],[7.476607,43.858659],[7.47655,43.858393],[7.477003,43.858036],[7.477951,43.857025],[7.478079,43.856597],[7.478305,43.855913],[7.478645,43.8558],[7.479058,43.856063],[7.479731,43.856596],[7.480088,43.856539],[7.480379,43.856044],[7.480339,43.855758],[7.480564,43.855463],[7.480696,43.85492],[7.48133,43.854253],[7.482915,43.852929],[7.48302,43.852605],[7.482743,43.852224],[7.482862,43.8519],[7.48273,43.851748],[7.482809,43.851538],[7.483509,43.851453],[7.484777,43.85151],[7.485464,43.851243],[7.485887,43.850729],[7.486283,43.850243],[7.486613,43.850129],[7.486692,43.849948],[7.487168,43.849805],[7.488251,43.849271],[7.48837,43.848909],[7.489136,43.848481],[7.489942,43.847928],[7.490351,43.84789],[7.490999,43.847557],[7.491263,43.84749],[7.491778,43.847118],[7.492412,43.847204],[7.493152,43.846842],[7.493455,43.84648],[7.493706,43.846061],[7.495754,43.845604],[7.496546,43.845223],[7.496639,43.84507],[7.497273,43.84488],[7.498039,43.844442],[7.49965,43.844146],[7.499796,43.843756],[7.500416,43.843613],[7.500892,43.843232],[7.501671,43.842898],[7.501777,43.842727],[7.501373,43.842531],[7.501653,43.84165],[7.501633,43.840654],[7.501974,43.840192],[7.502094,43.839845],[7.502754,43.839123],[7.502895,43.83817],[7.503495,43.83661],[7.503542,43.836099],[7.503486,43.835836],[7.503673,43.835405],[7.503663,43.834791],[7.503514,43.834381],[7.503262,43.832979],[7.503066,43.832725],[7.50342,43.831806],[7.503349,43.831193],[7.503476,43.830958],[7.503462,43.830427],[7.503816,43.829396],[7.504,43.829222],[7.504127,43.828497],[7.504226,43.828558],[7.504241,43.828273],[7.50434,43.828334],[7.50434,43.827721],[7.504807,43.827997],[7.504736,43.82767],[7.504354,43.827067],[7.504057,43.826884],[7.504198,43.826863],[7.50417,43.8267],[7.504538,43.826761],[7.505161,43.826444],[7.5056,43.825719],[7.505883,43.825117],[7.505911,43.824637],[7.506378,43.82382],[7.506053,43.823237],[7.505628,43.822727],[7.505161,43.822379],[7.50458,43.822093],[7.504368,43.821848],[7.504651,43.821736],[7.505048,43.821736],[7.505288,43.821644],[7.505586,43.821756],[7.505741,43.821705],[7.506095,43.821307],[7.505854,43.821184],[7.505869,43.821031],[7.506109,43.820796],[7.506251,43.820347],[7.506407,43.820091],[7.506407,43.819795],[7.506746,43.819826],[7.507044,43.819775],[7.50744,43.819826],[7.507398,43.81955],[7.507865,43.819479],[7.508134,43.819182],[7.508417,43.819213],[7.508502,43.81907],[7.508643,43.819039],[7.508785,43.818968],[7.508898,43.818825],[7.509181,43.818743],[7.50945,43.818549],[7.509762,43.818477],[7.509946,43.818151],[7.510031,43.817875],[7.510257,43.817814],[7.510342,43.817967],[7.510894,43.818334],[7.511192,43.818416],[7.511475,43.818733],[7.51163,43.81862],[7.511885,43.81858],[7.511984,43.818304],[7.512197,43.81814],[7.512296,43.817834],[7.512268,43.81763],[7.512579,43.817303],[7.512593,43.816935],[7.512749,43.816506],[7.512636,43.816261],[7.512848,43.815862],[7.51248,43.81573],[7.512494,43.815556],[7.512749,43.815485],[7.513046,43.81527],[7.513044,43.815064],[7.513196,43.814969],[7.513004,43.814931],[7.513117,43.814878],[7.512793,43.814673],[7.512714,43.814183],[7.512674,43.813711],[7.513064,43.813754],[7.513533,43.813711],[7.51404,43.813444],[7.514162,43.813161],[7.514003,43.813154],[7.514414,43.812682],[7.514049,43.812649],[7.514106,43.812561],[7.513872,43.812467],[7.514255,43.812184],[7.514124,43.812177],[7.514208,43.812089],[7.514227,43.811887],[7.514442,43.811611],[7.514255,43.811563],[7.514395,43.811368],[7.514106,43.811314],[7.514376,43.811011],[7.51419,43.81097],[7.514236,43.810815],[7.514554,43.810404],[7.514376,43.81037],[7.514545,43.809872],[7.51489,43.809359],[7.514965,43.809137],[7.515226,43.808874],[7.515021,43.808787],[7.515114,43.808369],[7.514965,43.808295],[7.514937,43.807769],[7.514404,43.807937],[7.514068,43.807897],[7.514087,43.807701],[7.514264,43.807573],[7.514302,43.807364],[7.514423,43.807115],[7.514666,43.806913],[7.514713,43.806643],[7.51489,43.80638],[7.514703,43.805598],[7.514376,43.805093],[7.514367,43.804938],[7.514442,43.804796],[7.514488,43.804607],[7.515198,43.803981],[7.515338,43.803711],[7.515647,43.803556],[7.515936,43.803158],[7.516431,43.80299],[7.516637,43.802747],[7.51744,43.802235],[7.517571,43.802046],[7.517879,43.801925],[7.518355,43.801547],[7.518981,43.80094],[7.518841,43.800886],[7.518869,43.800806],[7.518776,43.800657],[7.519065,43.800307],[7.519551,43.799592],[7.519513,43.799316],[7.519233,43.799336],[7.519766,43.798932],[7.520438,43.798298],[7.521101,43.797887],[7.521325,43.797657],[7.52196,43.797152],[7.52225,43.796889],[7.522091,43.796801],[7.522213,43.796619],[7.522194,43.796451],[7.522306,43.79641],[7.522259,43.796296],[7.522474,43.796134],[7.522558,43.795797],[7.522045,43.795817],[7.52196,43.795689],[7.522194,43.795534],[7.522203,43.795433],[7.521998,43.795419],[7.52197,43.795338],[7.521774,43.795251],[7.521624,43.795069],[7.52154,43.795069],[7.521447,43.794927],[7.521447,43.794806],[7.521185,43.794745],[7.521026,43.794792],[7.521279,43.794543],[7.521023,43.794167],[7.520853,43.794181],[7.520633,43.793842],[7.520413,43.793697],[7.520473,43.793596],[7.520353,43.793502],[7.520383,43.793307],[7.520273,43.793206],[7.520263,43.79304],[7.519922,43.793018],[7.519572,43.793083],[7.519362,43.793003],[7.519232,43.7927],[7.519121,43.792671],[7.518951,43.792707],[7.518971,43.792498],[7.518641,43.792411],[7.518531,43.79231],[7.518251,43.792396],[7.518391,43.792187],[7.51822,43.792209],[7.518251,43.792013],[7.5181,43.792035],[7.51805,43.791905],[7.5179,43.791876],[7.51767,43.791551],[7.51756,43.791529],[7.51742,43.791414],[7.51729,43.791414],[7.517089,43.791182],[7.516869,43.791117],[7.516759,43.790937],[7.516399,43.790821],[7.516562,43.791098],[7.516338,43.791219],[7.515703,43.791273],[7.515385,43.791475],[7.515385,43.791273],[7.515609,43.791125],[7.51602,43.791111],[7.516151,43.790909],[7.515647,43.790464],[7.515665,43.790221],[7.516132,43.790073],[7.517048,43.789992],[7.517888,43.789951],[7.517411,43.789798],[7.517498,43.789547],[7.517681,43.789427],[7.51762,43.789289],[7.517646,43.78905],[7.517812,43.78893],[7.51772,43.788825],[7.517234,43.788778],[7.517963,43.788481],[7.518374,43.788455],[7.518579,43.788562],[7.518579,43.788778],[7.51886,43.788778],[7.518804,43.788522],[7.518748,43.788198],[7.518355,43.78805],[7.518168,43.788171],[7.517384,43.788387],[7.516375,43.788117],[7.51617,43.787807],[7.516338,43.787376],[7.516992,43.787093],[7.516992,43.786958],[7.517141,43.786823],[7.517104,43.786553],[7.517403,43.786283],[7.517739,43.786297],[7.517814,43.786135],[7.518112,43.786149],[7.518112,43.785892],[7.518523,43.785703],[7.518523,43.785461],[7.517749,43.785309]]],"type":"MultiLineString"},"properties":{"geo_point":{"lon":7.384595923652416,"lat":44.01342962672826},"name":"GR52 De St Dalmas de Valdeblore à Menton (Alpes-Maritimes) (2019)","code_gr":"GR52"}}]}