{"type":"FeatureCollection","features":[{"type":"Feature","geometry":{"coordinates":[[[6.192847,48.694359],[6.1945,48.692191],[6.195186,48.691158],[6.202739,48.676113],[6.203201,48.675234],[6.204242,48.673977],[6.205325,48.673056],[6.205824,48.67281],[6.207031,48.671936],[6.208045,48.671284],[6.208367,48.67082],[6.210711,48.669173],[6.213484,48.667795],[6.220351,48.665361],[6.222985,48.664173],[6.23115,48.659816],[6.23189,48.659911],[6.232372,48.659674],[6.233172,48.661038],[6.237072,48.662565],[6.239191,48.664882],[6.241974,48.663741],[6.242715,48.664581],[6.243509,48.665131],[6.244035,48.665641],[6.244464,48.666236],[6.245569,48.667341],[6.246191,48.667625],[6.245488,48.668064],[6.245576,48.668583],[6.244585,48.66899],[6.243259,48.66957],[6.241204,48.670039],[6.241354,48.670137],[6.240756,48.670729],[6.240625,48.671087],[6.239766,48.671679],[6.240439,48.672],[6.240644,48.672222],[6.241092,48.672432],[6.241373,48.672777],[6.241309,48.67296],[6.241361,48.673121],[6.241248,48.673403],[6.241326,48.673708],[6.241178,48.674053],[6.241099,48.674387],[6.241248,48.674686],[6.241246,48.675085],[6.241148,48.67528],[6.241172,48.675427],[6.241567,48.675467],[6.241727,48.676108],[6.242232,48.676761],[6.242904,48.679388],[6.244436,48.679758],[6.243558,48.68241],[6.243509,48.682559],[6.245998,48.684656],[6.245805,48.68569],[6.244689,48.687446],[6.245569,48.687956],[6.247521,48.68848],[6.248176,48.688779],[6.250451,48.689532],[6.250826,48.689864],[6.251303,48.69165],[6.25405,48.692177],[6.254581,48.69245],[6.254731,48.692702],[6.254967,48.693254],[6.255659,48.693392],[6.256158,48.693357],[6.256363,48.69324],[6.256512,48.692588],[6.256831,48.692505],[6.258073,48.692542],[6.258572,48.692432],[6.258701,48.692007],[6.259036,48.691888],[6.259371,48.691961],[6.259801,48.692475],[6.264216,48.694968],[6.280995,48.697673],[6.28224,48.69756],[6.28327,48.697673],[6.284944,48.697489],[6.285995,48.697673],[6.288055,48.697914],[6.288119,48.695563],[6.287054,48.693678],[6.286751,48.692949],[6.286912,48.69177],[6.285673,48.689659],[6.285695,48.689075],[6.291885,48.684454],[6.29284,48.683466],[6.292347,48.682106],[6.292304,48.68127],[6.293398,48.680221],[6.293291,48.680015],[6.292647,48.67964],[6.292862,48.678535],[6.293698,48.676509],[6.293634,48.673109],[6.293849,48.672655],[6.295115,48.671748],[6.295672,48.67019],[6.295661,48.66958],[6.295436,48.668121],[6.295694,48.667795],[6.298226,48.666959],[6.300865,48.666902],[6.303483,48.667327],[6.303805,48.666083],[6.304341,48.665435],[6.304148,48.665216],[6.305168,48.663663],[6.316048,48.667121],[6.323352,48.669925],[6.32675,48.670748],[6.32876,48.67144],[6.329751,48.671889],[6.330261,48.672767],[6.331195,48.673384],[6.332583,48.673796],[6.336377,48.674375],[6.337198,48.674656],[6.338642,48.675965],[6.339803,48.677348],[6.340426,48.677385],[6.342464,48.676095],[6.344446,48.676974],[6.34589,48.67503],[6.346371,48.673927],[6.348665,48.671627],[6.355318,48.673983],[6.359594,48.669159],[6.35781,48.66828],[6.35614,48.667607],[6.356142,48.667152],[6.356367,48.666732],[6.358552,48.665351],[6.360532,48.664413],[6.361989,48.661896],[6.362494,48.661365],[6.363446,48.661748],[6.364343,48.662056],[6.364604,48.661908],[6.36679,48.662562],[6.367369,48.66255],[6.369312,48.661884],[6.370731,48.661662],[6.372375,48.662044],[6.373758,48.661859],[6.376672,48.662118],[6.377269,48.662044],[6.378185,48.661699],[6.377288,48.659539],[6.375999,48.656788],[6.375532,48.656492],[6.374953,48.656516],[6.374486,48.656381],[6.375532,48.656047],[6.379324,48.654332],[6.380576,48.653851],[6.381491,48.653147],[6.382687,48.652481],[6.383807,48.651519],[6.384938,48.651079],[6.387189,48.648433],[6.387301,48.648631],[6.38717,48.649026],[6.387147,48.649128],[6.385773,48.650772],[6.385768,48.651038],[6.385945,48.651283],[6.386946,48.652148],[6.38815,48.653491],[6.390092,48.653813],[6.391299,48.654327],[6.392779,48.655075],[6.393876,48.655702],[6.393477,48.653919],[6.393748,48.653268],[6.39433,48.652561],[6.394698,48.651333],[6.395053,48.650544],[6.395576,48.65042],[6.39537,48.649507],[6.395236,48.64866],[6.396062,48.648174],[6.396996,48.647397],[6.397403,48.646845],[6.39839,48.645924],[6.399613,48.645031],[6.399536,48.643743],[6.401368,48.64289],[6.402317,48.641869],[6.403261,48.641316],[6.404077,48.641075],[6.403926,48.640337],[6.404636,48.64009],[6.405439,48.639633],[6.40557,48.63988],[6.40712,48.641016],[6.408633,48.64109],[6.409754,48.640978],[6.410296,48.640818],[6.410214,48.639969],[6.409656,48.63909],[6.409527,48.636325],[6.410214,48.635169],[6.410761,48.635332],[6.413089,48.635276],[6.415078,48.633436],[6.417076,48.633152],[6.418771,48.633232],[6.422382,48.633757],[6.424161,48.633049],[6.425688,48.632597],[6.426672,48.632681],[6.428378,48.633152],[6.43118,48.633609],[6.432272,48.633886],[6.432336,48.634411],[6.435644,48.637127],[6.436485,48.637695],[6.439063,48.638176],[6.4408,48.638399],[6.439941,48.636485],[6.439847,48.635318],[6.440619,48.633276],[6.440404,48.632184],[6.440128,48.63151],[6.439997,48.630658],[6.440104,48.629688],[6.440726,48.628554],[6.440598,48.627958],[6.437937,48.624597],[6.4371,48.623136],[6.439074,48.622243],[6.443795,48.619022],[6.446049,48.61899],[6.449417,48.620483],[6.451765,48.6192],[6.453054,48.618274],[6.453794,48.618625],[6.454438,48.618526],[6.454829,48.6182],[6.455704,48.618143],[6.456111,48.61854],[6.456905,48.61854],[6.457356,48.618767],[6.458837,48.618129],[6.459116,48.618143],[6.46109,48.617547],[6.462613,48.616696],[6.462334,48.616398],[6.464029,48.615391],[6.466411,48.614596],[6.467398,48.614483],[6.468578,48.614682],[6.469308,48.614412],[6.467312,48.61261],[6.465381,48.611305],[6.46075,48.609728],[6.461834,48.608567],[6.462992,48.608122],[6.463643,48.607517],[6.46411,48.606279],[6.465805,48.60596],[6.466733,48.605176],[6.467742,48.604722],[6.46823,48.604665],[6.469121,48.604839],[6.470723,48.605608],[6.471768,48.605979],[6.473986,48.607063],[6.474694,48.606538],[6.475321,48.605158],[6.476273,48.604565],[6.477253,48.604417],[6.478141,48.6037],[6.478384,48.603725],[6.478771,48.603143],[6.479286,48.601827],[6.480606,48.601154],[6.482826,48.600593],[6.484527,48.599294],[6.486088,48.597826],[6.486286,48.597261],[6.489044,48.597606],[6.489293,48.596931],[6.488154,48.596733],[6.487967,48.596461],[6.486902,48.596239],[6.486753,48.595387],[6.489592,48.595745],[6.489798,48.595164],[6.492002,48.595201],[6.492114,48.595547],[6.493253,48.595671],[6.4943,48.595572],[6.498857,48.59572],[6.498783,48.59614],[6.498633,48.596585],[6.498708,48.596968],[6.498297,48.5995],[6.496383,48.602948],[6.504836,48.605073],[6.506022,48.607371],[6.507768,48.607159],[6.509057,48.607282],[6.509785,48.607196],[6.511269,48.608195],[6.511448,48.608122],[6.511499,48.606687],[6.511837,48.606204],[6.515987,48.606097],[6.518266,48.606146],[6.519144,48.606094],[6.521858,48.606354],[6.524111,48.60629],[6.526448,48.606035],[6.527811,48.606097],[6.528577,48.606282],[6.530569,48.606548],[6.530451,48.604389],[6.53028,48.603701],[6.529813,48.603112],[6.528848,48.600089],[6.529733,48.600181],[6.5308,48.600649],[6.532308,48.60065],[6.533397,48.600106],[6.534909,48.600057],[6.537002,48.599451],[6.538347,48.599414],[6.539785,48.599192],[6.542083,48.599352],[6.543288,48.600138],[6.544306,48.600056],[6.546454,48.60039],[6.550718,48.601345],[6.553658,48.601515],[6.556635,48.601427],[6.556728,48.602206],[6.557363,48.602379],[6.558241,48.602428],[6.559605,48.602255],[6.562482,48.601588],[6.564256,48.601045],[6.567749,48.600748],[6.569184,48.600278],[6.570146,48.600166],[6.571784,48.599661],[6.572307,48.600464],[6.57135,48.602618],[6.57334,48.603029],[6.574874,48.604009],[6.5758,48.604367],[6.576996,48.604009],[6.577529,48.603683],[6.578434,48.603157],[6.581404,48.602799],[6.584954,48.602206],[6.586074,48.602156],[6.588465,48.602428],[6.589904,48.602267],[6.592003,48.601246],[6.593913,48.600695],[6.594846,48.600823],[6.59587,48.60033],[6.59682,48.599315],[6.598263,48.598585],[6.6001,48.598518],[6.600815,48.598629],[6.601494,48.598572],[6.602549,48.598659],[6.603129,48.598922],[6.603499,48.598931],[6.604797,48.59857],[6.606272,48.598642],[6.607028,48.597262],[6.607627,48.596859],[6.607818,48.59659],[6.607426,48.596371],[6.604157,48.592298],[6.607855,48.59257],[6.60864,48.592483],[6.609362,48.592514],[6.611111,48.591928],[6.613291,48.591779],[6.614448,48.590584],[6.615553,48.590124],[6.616009,48.589612],[6.621207,48.58765],[6.626378,48.586077],[6.628164,48.585123],[6.628975,48.585989],[6.630348,48.58704],[6.630514,48.587515],[6.629607,48.588661],[6.629688,48.58897],[6.631614,48.589694],[6.64275,48.595371],[6.641587,48.59734],[6.641661,48.597538],[6.642579,48.597758],[6.644633,48.597846],[6.645846,48.598177],[6.646637,48.598569],[6.648801,48.600309],[6.649231,48.601373],[6.649595,48.601777],[6.649214,48.602295],[6.649209,48.60275],[6.648512,48.603573],[6.648437,48.60403],[6.648608,48.606169],[6.649017,48.606651],[6.648893,48.606995],[6.648549,48.607538],[6.64856,48.609025],[6.647728,48.610142],[6.648952,48.610851],[6.65261,48.6126],[6.654144,48.613767],[6.655721,48.614369],[6.656633,48.615008],[6.657787,48.615994],[6.661477,48.618387],[6.662368,48.619217],[6.665356,48.620156],[6.667947,48.620526],[6.673113,48.6217],[6.677904,48.62359],[6.681197,48.624649],[6.681803,48.623469],[6.682169,48.622043],[6.683574,48.621337],[6.684748,48.620433],[6.685241,48.619881],[6.684979,48.619369],[6.68491,48.618855],[6.68588,48.617994],[6.686202,48.617334],[6.686481,48.616285],[6.685982,48.612195],[6.685807,48.611778],[6.685508,48.611445],[6.68166,48.610803],[6.678727,48.610481],[6.678877,48.609987],[6.680967,48.610375],[6.68485,48.611021],[6.685145,48.609953],[6.685816,48.608808],[6.685483,48.607088],[6.68912,48.607531],[6.690939,48.607439],[6.693433,48.608141],[6.695241,48.609439],[6.69722,48.610677],[6.698522,48.61186],[6.698803,48.611476],[6.701345,48.609636],[6.701886,48.609491],[6.703708,48.60867],[6.70599,48.611],[6.706831,48.610973],[6.708693,48.611053],[6.710114,48.610073],[6.711055,48.609822],[6.713798,48.609186],[6.716541,48.607638],[6.719464,48.606684],[6.721865,48.605215],[6.722986,48.606524],[6.725577,48.607829],[6.726876,48.608847],[6.727808,48.610691],[6.728045,48.611458],[6.728608,48.612069],[6.729348,48.612489],[6.729617,48.613384],[6.730185,48.613993],[6.730485,48.61588],[6.730842,48.616845],[6.731092,48.617987],[6.732985,48.618511],[6.733197,48.618756],[6.732702,48.620563],[6.732771,48.621044],[6.733399,48.621472],[6.735534,48.622004],[6.737991,48.62332],[6.738301,48.623873],[6.73953,48.624381],[6.738242,48.62599],[6.735759,48.627426],[6.735968,48.627969],[6.735402,48.62908],[6.735314,48.62966],[6.737872,48.63095],[6.737904,48.63162],[6.737754,48.632266],[6.737143,48.632893],[6.737143,48.633149],[6.737889,48.633645],[6.739203,48.633971],[6.742277,48.63563],[6.746952,48.637176],[6.752238,48.638671],[6.753686,48.637573],[6.7561,48.637651],[6.75691,48.637466],[6.758944,48.637176],[6.760006,48.637278],[6.761256,48.6378],[6.765922,48.638356],[6.765612,48.639557],[6.767588,48.640584],[6.769833,48.641542],[6.771778,48.640139],[6.773621,48.639161],[6.775482,48.638883],[6.777244,48.637494],[6.772999,48.635734],[6.773964,48.634219],[6.776201,48.631106],[6.777676,48.63157],[6.779451,48.630419],[6.780026,48.630167],[6.781345,48.629802],[6.782354,48.62922],[6.783856,48.628734],[6.784886,48.62819],[6.785127,48.627713],[6.785709,48.627516],[6.786571,48.627405],[6.788829,48.627621],[6.79266,48.628674],[6.793539,48.628688],[6.795427,48.629113],[6.79776,48.629802],[6.798039,48.629663],[6.79878,48.629557],[6.802589,48.624668],[6.80276,48.624143],[6.8026,48.623331],[6.803168,48.622597],[6.804133,48.622323],[6.80615,48.621008],[6.806469,48.620636],[6.806674,48.620669],[6.807425,48.620541],[6.813583,48.623137],[6.813691,48.622399],[6.81412,48.621378],[6.814742,48.620357],[6.814935,48.61918],[6.815407,48.617335],[6.815429,48.61647],[6.815686,48.615506],[6.816343,48.614526],[6.817703,48.613122],[6.81924,48.612242],[6.820119,48.611192],[6.821385,48.610497],[6.821584,48.609461],[6.824199,48.607063],[6.82487,48.606256],[6.825679,48.605676],[6.827488,48.604028],[6.829336,48.602547],[6.831814,48.598876],[6.832831,48.597869],[6.830556,48.597614],[6.831093,48.596961],[6.832488,48.597273],[6.833518,48.59743],[6.834097,48.597004],[6.8362,48.595954],[6.83753,48.59462],[6.839247,48.593484],[6.840405,48.593527],[6.841135,48.593243],[6.842101,48.592079],[6.842208,48.591795],[6.841822,48.591313],[6.841671,48.59083],[6.842315,48.590703],[6.842487,48.591086],[6.84371,48.591881],[6.843839,48.592065],[6.844869,48.592477],[6.84504,48.592675],[6.845405,48.592633],[6.845663,48.591866],[6.846049,48.591469],[6.846907,48.591199],[6.847444,48.590376],[6.846263,48.58995],[6.846435,48.589638],[6.845885,48.589339],[6.845834,48.589198],[6.847096,48.589432],[6.847401,48.58917],[6.846735,48.588815],[6.846395,48.588446],[6.846045,48.588287],[6.845645,48.588247],[6.845615,48.588009],[6.844433,48.587999],[6.844548,48.587634],[6.844479,48.586615],[6.843444,48.586737],[6.843283,48.58622],[6.843237,48.585687],[6.844387,48.584242],[6.844571,48.583709],[6.845146,48.583709],[6.845353,48.583527],[6.845284,48.583086],[6.845652,48.582355],[6.845997,48.582097],[6.849654,48.583299],[6.85032,48.583329],[6.851447,48.583131],[6.851976,48.583131],[6.852942,48.583299],[6.854253,48.583451],[6.855127,48.583618],[6.856231,48.583801],[6.857036,48.584105],[6.857841,48.584303],[6.858761,48.584318],[6.859382,48.5845],[6.860209,48.58479],[6.860945,48.584835],[6.862325,48.584805],[6.862877,48.584911],[6.863866,48.585413],[6.864625,48.585702],[6.86566,48.586402],[6.866074,48.586752],[6.866488,48.586752],[6.86704,48.586828],[6.868535,48.586828],[6.869915,48.586722],[6.870696,48.586539],[6.872007,48.586098],[6.873571,48.585276],[6.874629,48.58482],[6.875342,48.584242],[6.876055,48.583983],[6.877251,48.584181],[6.877734,48.58444],[6.878677,48.587619],[6.878677,48.588927],[6.878815,48.589247],[6.879528,48.589521],[6.881298,48.590433],[6.882724,48.590677],[6.883552,48.59057],[6.884012,48.590646],[6.884403,48.590905],[6.884817,48.591346],[6.885829,48.591605],[6.886496,48.591909],[6.887301,48.592791],[6.887922,48.593293],[6.888704,48.592654],[6.88921,48.591954],[6.891003,48.592183],[6.891578,48.592365],[6.894131,48.592791],[6.894545,48.591833],[6.89466,48.591042],[6.895281,48.589642],[6.897857,48.589308],[6.898961,48.589079],[6.899743,48.58914],[6.901651,48.589566],[6.902548,48.589658],[6.902985,48.589521],[6.903445,48.588943],[6.905216,48.589019],[6.907194,48.588988],[6.911311,48.589658],[6.91384,48.588775],[6.915013,48.588182],[6.9166,48.587619],[6.917244,48.587269],[6.919406,48.587482],[6.920809,48.587482],[6.922188,48.588075],[6.922602,48.588562],[6.923315,48.588304],[6.923637,48.58841],[6.923614,48.58806],[6.92412,48.587863],[6.924741,48.587482],[6.925247,48.587482],[6.925937,48.587345],[6.926535,48.587391],[6.927846,48.587847],[6.928053,48.588121],[6.928467,48.588136],[6.929318,48.587634],[6.930721,48.587163],[6.930836,48.58698],[6.930652,48.586646],[6.930721,48.585991],[6.931273,48.5859],[6.932353,48.585398],[6.933917,48.584211],[6.935044,48.583618],[6.935619,48.583177],[6.935941,48.583299],[6.937804,48.583025],[6.939,48.582416],[6.940058,48.582021],[6.941507,48.58196],[6.942426,48.581503],[6.941713,48.580966],[6.941127,48.580729],[6.940347,48.580622],[6.940851,48.580299],[6.942363,48.579621],[6.944022,48.581041],[6.943762,48.581181],[6.943941,48.581353],[6.944266,48.581342],[6.94503,48.581493],[6.945404,48.581461],[6.945615,48.581633],[6.945924,48.581557],[6.946396,48.581923],[6.947258,48.582257],[6.947518,48.582483],[6.94773,48.584451],[6.948884,48.585043],[6.950104,48.584946],[6.95077,48.585237],[6.952283,48.585204],[6.95347,48.58457],[6.953958,48.584161],[6.954868,48.584559],[6.95534,48.585032],[6.955682,48.585151],[6.955828,48.585301],[6.956007,48.585376],[6.956234,48.585635],[6.956869,48.585635],[6.958056,48.586334],[6.95843,48.586345],[6.958527,48.586592],[6.959471,48.586753],[6.959828,48.58671],[6.960706,48.586753],[6.961048,48.586882],[6.961243,48.587001],[6.961308,48.587259],[6.961812,48.587323],[6.962105,48.587076],[6.962625,48.587012],[6.963048,48.586678],[6.963585,48.5867],[6.964154,48.586484],[6.964398,48.586205],[6.964121,48.586065],[6.964365,48.586022],[6.966772,48.586054],[6.967764,48.586011],[6.968821,48.585904],[6.969407,48.585527],[6.970106,48.585344],[6.97113,48.585527],[6.97209,48.585441],[6.974562,48.584935],[6.976562,48.584462],[6.976253,48.58415],[6.975976,48.583376],[6.976123,48.582934],[6.975976,48.582633],[6.975749,48.582332],[6.976025,48.582138],[6.976643,48.582375],[6.980139,48.581568],[6.982774,48.58103],[6.984189,48.580611],[6.985181,48.581568],[6.989864,48.581073],[6.991978,48.58145],[6.992352,48.581762],[6.992905,48.581912],[6.993377,48.581956],[6.993653,48.581869],[6.994661,48.582106],[6.994613,48.581547],[6.994157,48.581106],[6.991815,48.579374],[6.991295,48.578771],[6.989701,48.577523],[6.98962,48.576619],[6.989425,48.575414],[6.989604,48.574952],[6.990206,48.574295],[6.991588,48.574575],[6.992889,48.574715],[6.995686,48.575253],[6.998564,48.575038],[6.999881,48.57507],[7.000694,48.574919],[7.001638,48.574521],[7.002191,48.574424],[7.003784,48.57436],[7.004109,48.574198],[7.004288,48.573865],[7.006175,48.572692],[7.006825,48.572412],[7.007638,48.572143],[7.009573,48.572003],[7.011444,48.571734],[7.012793,48.571465],[7.013411,48.571229],[7.013753,48.570927],[7.013867,48.570637],[7.014696,48.570712],[7.015395,48.57096],[7.019005,48.57281],[7.019396,48.57295],[7.020127,48.573338],[7.021087,48.57365],[7.021672,48.573736],[7.023266,48.573703],[7.025982,48.573671],[7.027039,48.57379],[7.028128,48.573757],[7.029478,48.573574],[7.032242,48.573962],[7.032486,48.573876],[7.033592,48.573219],[7.034064,48.573036],[7.034487,48.572993],[7.034991,48.573036],[7.036617,48.573639],[7.036308,48.573886],[7.035218,48.575296],[7.034487,48.576178],[7.034031,48.57705],[7.033885,48.578179],[7.034129,48.580041],[7.034129,48.580944],[7.033413,48.581848],[7.033186,48.58245],[7.033527,48.583354],[7.034031,48.58429],[7.034487,48.584699],[7.034958,48.584946],[7.035966,48.585366],[7.036893,48.585936],[7.037349,48.586129],[7.038048,48.586355],[7.039268,48.586969],[7.041512,48.587539],[7.043089,48.58813],[7.043642,48.588464],[7.043528,48.589572],[7.043886,48.590529],[7.044699,48.591379],[7.044959,48.591798],[7.04535,48.592777],[7.045756,48.593272],[7.046846,48.594218],[7.047138,48.59467],[7.047366,48.595434],[7.047399,48.596079],[7.046813,48.597326],[7.046927,48.597896],[7.047317,48.598918],[7.047773,48.59938],[7.047756,48.599542],[7.047545,48.599585],[7.046732,48.599337],[7.046179,48.599112],[7.045675,48.599251],[7.045463,48.599864],[7.045805,48.600144],[7.046472,48.600542],[7.046862,48.601327],[7.046553,48.602693],[7.046829,48.602962],[7.046943,48.60337],[7.047236,48.603886],[7.047756,48.604403],[7.048618,48.604886],[7.048911,48.605166],[7.049187,48.605284],[7.049903,48.605854],[7.050456,48.606155],[7.05109,48.606833],[7.051171,48.607177],[7.05174,48.607403],[7.051806,48.607811],[7.052358,48.608112],[7.052375,48.608478],[7.053106,48.608693],[7.053838,48.607908],[7.053627,48.607499],[7.053627,48.607037],[7.05483,48.607091],[7.05657,48.607048],[7.057188,48.607317],[7.057709,48.607446],[7.058278,48.607489],[7.060115,48.608112],[7.060424,48.608295],[7.060928,48.608467],[7.061205,48.608682],[7.061237,48.608843],[7.061644,48.608962],[7.061937,48.609101],[7.062815,48.609338],[7.063091,48.609198],[7.063173,48.609005],[7.063384,48.608919],[7.064506,48.609155],[7.064413,48.60932],[7.065024,48.609405],[7.065432,48.609285],[7.065529,48.609306],[7.065099,48.610015],[7.065807,48.610183],[7.066469,48.610483],[7.066766,48.611163],[7.067428,48.611624],[7.069345,48.612361],[7.07053,48.612718],[7.072552,48.613156],[7.074121,48.613329],[7.075184,48.613663],[7.076212,48.613767],[7.07731,48.614101],[7.078844,48.61394],[7.080012,48.613963],[7.080935,48.613836],[7.07989,48.614216],[7.079454,48.614516],[7.079384,48.614735],[7.079576,48.615207],[7.080517,48.615495],[7.081371,48.615495],[7.082312,48.615357],[7.082922,48.616083],[7.084003,48.61689],[7.084613,48.617178],[7.086321,48.617857],[7.087367,48.618192],[7.088517,48.618894],[7.088761,48.619229],[7.088569,48.619885],[7.089232,48.620565],[7.089772,48.621429],[7.091044,48.622224],[7.091497,48.622581],[7.091794,48.623042],[7.091846,48.623514],[7.091532,48.624206],[7.091149,48.624851],[7.091062,48.625496],[7.091166,48.625807],[7.091445,48.626037],[7.091776,48.626187],[7.091515,48.626694],[7.090783,48.627454],[7.090655,48.627893],[7.090639,48.628463],[7.09085,48.628871],[7.091208,48.629279],[7.091452,48.629688],[7.091956,48.629967],[7.092655,48.630483],[7.093046,48.630988],[7.093956,48.631751],[7.094737,48.632235],[7.095612,48.632526],[7.095666,48.632632],[7.095344,48.632653],[7.093896,48.633072],[7.093306,48.632994],[7.092447,48.632824],[7.092553,48.633182],[7.093266,48.633704],[7.093691,48.633764],[7.095087,48.633704],[7.094495,48.633934],[7.093691,48.634025],[7.09275,48.634035],[7.092553,48.634205],[7.093129,48.634777],[7.093296,48.635579],[7.093934,48.635699],[7.094267,48.63603],[7.094541,48.636792],[7.094612,48.636792],[7.095393,48.636521],[7.095873,48.636402],[7.096114,48.636329],[7.096234,48.636362],[7.096684,48.636839],[7.097455,48.6366],[7.097655,48.636415],[7.097926,48.635979],[7.098456,48.635721],[7.099597,48.635423],[7.101088,48.63509],[7.102123,48.634573],[7.102997,48.633965],[7.104032,48.633722],[7.104216,48.633373],[7.104883,48.633023],[7.105596,48.633677],[7.10755,48.635075],[7.110862,48.637461],[7.110011,48.63775],[7.110494,48.638813],[7.110908,48.639178],[7.112334,48.640166],[7.113622,48.641002],[7.114818,48.641488],[7.115439,48.641579],[7.115623,48.641412],[7.117807,48.642096],[7.119233,48.642445],[7.12059,48.642977],[7.122085,48.643266],[7.12427,48.643995],[7.125374,48.644254],[7.126708,48.64439],[7.128202,48.644679],[7.129099,48.644983],[7.12995,48.645302],[7.130709,48.645363],[7.131675,48.645712],[7.132825,48.645879],[7.134619,48.645424],[7.135976,48.644968],[7.137149,48.645074],[7.139517,48.645074],[7.14023,48.646001],[7.141081,48.645743],[7.142139,48.645652],[7.143197,48.645697],[7.144232,48.645864],[7.145612,48.645636],[7.145681,48.644634],[7.145658,48.643068],[7.146396,48.642567],[7.146496,48.642395],[7.146856,48.642097],[7.146936,48.642296],[7.146246,48.642818],[7.145965,48.643228],[7.146045,48.643414],[7.146035,48.64381],[7.146766,48.645206],[7.146896,48.645742],[7.146876,48.646092],[7.147076,48.646377],[7.147457,48.646436],[7.147887,48.64645],[7.148138,48.646549],[7.148238,48.64676],[7.148638,48.647263],[7.149637,48.647182],[7.15097,48.646849],[7.152743,48.647719],[7.153296,48.647902],[7.153751,48.647945],[7.154646,48.647816],[7.154841,48.648386],[7.156093,48.648149],[7.156662,48.647967],[7.157508,48.647601],[7.157979,48.647612],[7.158988,48.647827],[7.15954,48.647666],[7.160061,48.647462],[7.160337,48.647214],[7.16172,48.647633],[7.162744,48.647698],[7.163411,48.647591],[7.164321,48.647064],[7.165037,48.646785],[7.165915,48.646011],[7.166435,48.645452],[7.167411,48.644647],[7.169493,48.643465],[7.170631,48.642637],[7.171038,48.64224],[7.171249,48.641799],[7.171965,48.641154],[7.172956,48.640123],[7.173152,48.639704],[7.172956,48.639005],[7.17307,48.63806],[7.173461,48.637372],[7.174924,48.637039],[7.175721,48.63619],[7.176729,48.63591],[7.177949,48.635889],[7.179185,48.635416],[7.17977,48.635846],[7.180095,48.635846],[7.180567,48.636007],[7.182453,48.637125],[7.182844,48.637254],[7.18351,48.63734],[7.184372,48.637684],[7.184633,48.638726],[7.18512,48.639317],[7.186616,48.640907],[7.186535,48.641595],[7.186649,48.642132],[7.187917,48.642347],[7.189641,48.642906],[7.191918,48.643744],[7.192406,48.643894],[7.192959,48.644399],[7.192942,48.644679],[7.192731,48.644786],[7.192227,48.644937],[7.191755,48.645345],[7.191495,48.645678],[7.191593,48.645807],[7.192389,48.646108],[7.192877,48.646172],[7.194666,48.646065],[7.195317,48.645968],[7.195837,48.646086],[7.196048,48.646269],[7.196016,48.646409],[7.195723,48.646677],[7.195707,48.647376],[7.196341,48.647376],[7.198114,48.646989],[7.198975,48.647193],[7.199919,48.647676],[7.200716,48.648246],[7.200634,48.648353],[7.20122,48.648837],[7.200813,48.649041],[7.200667,48.649471],[7.200862,48.65004],[7.20122,48.650491],[7.201773,48.651114],[7.201935,48.651555],[7.201984,48.652114],[7.202228,48.652425],[7.202309,48.652726],[7.203073,48.653575],[7.203431,48.654413],[7.203643,48.654842],[7.203724,48.655358],[7.205253,48.655605],[7.20696,48.655562],[7.208245,48.655594],[7.208814,48.655648],[7.209432,48.655755],[7.210115,48.655798],[7.210473,48.655927],[7.210619,48.655841],[7.210717,48.655551],[7.211139,48.65524],[7.213627,48.65496],[7.214863,48.655154],[7.215807,48.655132],[7.216912,48.65495],[7.217124,48.654778],[7.217124,48.65437],[7.217628,48.654531],[7.218164,48.654563],[7.220132,48.654101],[7.221075,48.654112],[7.225011,48.654015],[7.225921,48.654058],[7.226377,48.654133],[7.228475,48.653757],[7.229288,48.653779],[7.230719,48.653704],[7.231873,48.653682],[7.232963,48.653768],[7.233735,48.653729],[7.235087,48.653594],[7.235418,48.653552],[7.236062,48.65378],[7.237005,48.653294],[7.238569,48.65334],[7.241765,48.65299],[7.245468,48.652975],[7.246549,48.652717],[7.24809,48.651942],[7.248619,48.651532],[7.24901,48.650848],[7.248711,48.649967],[7.248734,48.647992],[7.249332,48.647262],[7.248648,48.646839],[7.248305,48.646414],[7.248284,48.645783],[7.248681,48.644699],[7.249271,48.643664],[7.249947,48.643331],[7.250322,48.64321],[7.250444,48.643013],[7.250265,48.64282],[7.24968,48.642691],[7.248997,48.642369],[7.247745,48.641574],[7.247338,48.640735],[7.247712,48.640026],[7.248233,48.639478],[7.249713,48.63922],[7.250981,48.638629],[7.251875,48.637995],[7.252461,48.637727],[7.253437,48.637469],[7.255697,48.636663],[7.25794,48.636135],[7.258422,48.635844],[7.258991,48.635447],[7.259697,48.635309],[7.259927,48.634883],[7.260469,48.634167],[7.260543,48.633662],[7.260272,48.631886],[7.26042,48.630599],[7.261332,48.631169],[7.261874,48.631772],[7.262293,48.631984],[7.263505,48.632361],[7.264219,48.632696],[7.265387,48.63303],[7.267095,48.633341],[7.268158,48.633502],[7.268594,48.633686],[7.269378,48.633778],[7.271017,48.633847],[7.271905,48.63394],[7.272777,48.634101],[7.274659,48.634331],[7.275374,48.634561],[7.276071,48.63508],[7.276942,48.635967],[7.277483,48.636543],[7.277727,48.637026],[7.278389,48.637245],[7.27865,48.637245],[7.279051,48.637406],[7.279505,48.637372],[7.280413,48.637613],[7.280781,48.637674],[7.281988,48.638228],[7.28208,48.638547],[7.281885,48.638943],[7.281402,48.639695],[7.280896,48.64088],[7.281034,48.641587],[7.281034,48.64224],[7.281724,48.64316],[7.282023,48.643175],[7.282678,48.642901],[7.283184,48.642749],[7.283334,48.642856],[7.284392,48.642658],[7.28499,48.642369],[7.287439,48.641951],[7.288336,48.642043],[7.28944,48.642286],[7.289946,48.642157],[7.290038,48.641989],[7.290373,48.641842],[7.291038,48.641097],[7.291811,48.640495],[7.292272,48.639878],[7.292508,48.639431],[7.293162,48.638843],[7.293634,48.63824],[7.2943,48.637709],[7.294847,48.637468],[7.295737,48.637212],[7.295889,48.637001],[7.2969,48.637375],[7.298724,48.637848],[7.298913,48.638127],[7.299149,48.63812],[7.298849,48.638581],[7.298259,48.639233],[7.297347,48.640431],[7.297089,48.640941],[7.297089,48.641211],[7.297325,48.641338],[7.297733,48.64136],[7.298666,48.641253],[7.299396,48.641147],[7.300254,48.641083],[7.300801,48.64114],[7.301547,48.641328],[7.302067,48.641498],[7.302341,48.641555],[7.302867,48.641618],[7.303119,48.641675],[7.303178,48.641753],[7.30402,48.64193],[7.304583,48.641913],[7.305511,48.641696],[7.305718,48.641616],[7.305068,48.641326],[7.304962,48.640848],[7.304767,48.640623],[7.304328,48.640316],[7.304198,48.639752],[7.304344,48.638984],[7.304247,48.638076],[7.304458,48.636921],[7.304743,48.635921],[7.304954,48.635567],[7.305422,48.635114],[7.305523,48.634556],[7.305296,48.634481],[7.305287,48.634379],[7.305361,48.634304],[7.305491,48.634272],[7.305055,48.634089],[7.304236,48.633335],[7.304175,48.633024],[7.304219,48.632482],[7.304376,48.631624],[7.304585,48.631054],[7.304829,48.630714],[7.304872,48.630357],[7.30523,48.629729],[7.305483,48.628969],[7.305578,48.62837],[7.305378,48.62803],[7.305326,48.627794],[7.305038,48.627408],[7.304824,48.627127],[7.304451,48.626843],[7.304301,48.626362],[7.304637,48.624856],[7.304936,48.624547],[7.305758,48.623954],[7.306188,48.623349],[7.307514,48.622868],[7.309382,48.62246],[7.310055,48.622287],[7.310671,48.621966],[7.311194,48.621571],[7.312408,48.620991],[7.313156,48.621065],[7.313454,48.621102],[7.314034,48.621299],[7.315322,48.621374],[7.314547,48.621929],[7.314052,48.622189],[7.313819,48.622275],[7.313296,48.623343],[7.312959,48.62438],[7.312903,48.625195],[7.312987,48.625831],[7.312913,48.625985],[7.31136,48.626465],[7.311307,48.626614],[7.311465,48.626762],[7.311769,48.626779],[7.312496,48.627094],[7.314213,48.627443],[7.314662,48.627356],[7.315428,48.627408],[7.315911,48.627337],[7.316593,48.627399],[7.317564,48.627597],[7.318872,48.627973],[7.318624,48.627748],[7.318783,48.627583],[7.319206,48.627347],[7.320104,48.627862],[7.320645,48.628176],[7.321068,48.628508],[7.321547,48.628801],[7.322468,48.629072],[7.322906,48.629297],[7.323487,48.629334],[7.324959,48.629662],[7.32544,48.629531],[7.327281,48.628426],[7.328654,48.627968],[7.33116,48.628249],[7.33149,48.628211],[7.332731,48.628403],[7.333709,48.62856],[7.334237,48.628866],[7.33466,48.628971],[7.334779,48.629154],[7.334554,48.629416],[7.33425,48.629529],[7.333894,48.629591],[7.333511,48.629818],[7.333458,48.630062],[7.33355,48.63021],[7.334171,48.630368],[7.334845,48.630533],[7.335394,48.630591],[7.336048,48.631023],[7.336487,48.631368],[7.338121,48.631646],[7.339046,48.63172],[7.339588,48.631745],[7.340559,48.631936],[7.341297,48.631912],[7.34239,48.631837],[7.343118,48.631868],[7.343959,48.631837],[7.344304,48.631912],[7.344865,48.631899],[7.34507,48.631868],[7.34627,48.631958],[7.34715,48.632072],[7.347858,48.632058],[7.349596,48.631675],[7.349811,48.631448],[7.349939,48.630923],[7.351034,48.63054],[7.351227,48.630739],[7.352278,48.631079],[7.352922,48.631178],[7.355111,48.631193],[7.356977,48.631093],[7.358651,48.631108],[7.360346,48.630881],[7.361226,48.630966],[7.361569,48.631235],[7.362363,48.632129],[7.36275,48.632668],[7.363197,48.633114],[7.363989,48.633685],[7.364485,48.633862],[7.365915,48.63404],[7.366594,48.634255],[7.367203,48.63433],[7.367741,48.634471],[7.368576,48.634443],[7.370176,48.63477],[7.371204,48.635305],[7.372084,48.635688],[7.372963,48.635901],[7.373457,48.636298],[7.374058,48.636666],[7.374766,48.636993],[7.375598,48.637174],[7.375966,48.637577],[7.376292,48.63782],[7.377339,48.638381],[7.377821,48.638746],[7.378259,48.639522],[7.378812,48.640046],[7.379364,48.640336],[7.379576,48.640383],[7.379703,48.640486],[7.381204,48.640944],[7.382181,48.641384],[7.382426,48.641657],[7.384336,48.642381],[7.385044,48.642466],[7.385734,48.642722],[7.386414,48.643105],[7.387037,48.643367],[7.387575,48.643526],[7.387999,48.643853],[7.388241,48.644351],[7.3897,48.644351],[7.390859,48.643841],[7.391438,48.643798],[7.392919,48.644068],[7.393134,48.64428],[7.393799,48.644436],[7.394764,48.644904],[7.395515,48.644933],[7.397017,48.645613],[7.397447,48.645656],[7.399464,48.645627],[7.400215,48.645372],[7.400494,48.645471],[7.401266,48.645003],[7.401459,48.644848],[7.401953,48.644975],[7.403026,48.645429],[7.404141,48.645131],[7.40515,48.644975],[7.405751,48.645046],[7.406931,48.645656],[7.407811,48.645599],[7.407982,48.645755],[7.409399,48.645755],[7.409742,48.6455],[7.410214,48.645344],[7.410343,48.645188],[7.41399,48.644677],[7.415128,48.64455],[7.418454,48.643798],[7.419312,48.643416],[7.420428,48.64265],[7.4212,48.642366],[7.422166,48.642168],[7.422981,48.642154],[7.425492,48.641828],[7.427723,48.641813],[7.42841,48.641743],[7.430148,48.641884],[7.431414,48.642111],[7.431929,48.640055],[7.43238,48.639446],[7.43253,48.638396],[7.435384,48.638327],[7.43697,48.638327],[7.437683,48.638145],[7.438442,48.637841],[7.438971,48.63781],[7.441409,48.638342],[7.443318,48.638494],[7.444054,48.638525],[7.444215,48.638084],[7.445181,48.637582],[7.446491,48.63737],[7.448492,48.636777],[7.449331,48.636588],[7.44951,48.636612],[7.449752,48.636772],[7.449851,48.636607],[7.449798,48.636401],[7.450064,48.636486],[7.450284,48.636451],[7.450595,48.63621],[7.450954,48.636301],[7.451372,48.635794],[7.451198,48.635022],[7.450518,48.633559],[7.450135,48.633214],[7.449804,48.632511],[7.451512,48.632235],[7.453342,48.631843],[7.453621,48.631555],[7.453324,48.631048],[7.453464,48.630795],[7.454022,48.630403],[7.456235,48.629562],[7.45756,48.628986],[7.4581,48.628894],[7.458605,48.629816],[7.459285,48.630518],[7.45993,48.630968],[7.460836,48.631359],[7.461377,48.63144],[7.461952,48.631394],[7.463015,48.63106],[7.46617,48.629758],[7.467093,48.629067],[7.469167,48.627604],[7.469289,48.627143],[7.469063,48.626798],[7.468767,48.626579],[7.468801,48.626141],[7.468801,48.625974],[7.469004,48.625372],[7.469077,48.624394],[7.46941,48.623255],[7.469004,48.622911],[7.469118,48.622669],[7.468906,48.622556],[7.468597,48.622475],[7.46824,48.622502],[7.467914,48.622411],[7.467036,48.621965],[7.467523,48.62125],[7.467465,48.620711],[7.467109,48.620323],[7.467695,48.619418],[7.467672,48.619251],[7.46728,48.619122],[7.467377,48.618648],[7.467592,48.618343],[7.467066,48.61835],[7.467012,48.617875],[7.467218,48.617539],[7.466777,48.617142],[7.466727,48.616903],[7.466427,48.616764],[7.465996,48.616731],[7.465546,48.6165],[7.465486,48.616268],[7.465286,48.616076],[7.466061,48.615681],[7.4665,48.615327],[7.466516,48.614983],[7.466418,48.614391],[7.466678,48.613209],[7.467313,48.612564],[7.466776,48.612488],[7.465264,48.611445],[7.464467,48.610897],[7.463865,48.610338],[7.463296,48.610198],[7.461605,48.609919],[7.459458,48.609843],[7.459474,48.608779],[7.461328,48.6088],[7.462564,48.608962],[7.462889,48.607768],[7.462808,48.607069],[7.462824,48.606564],[7.462743,48.606392],[7.462792,48.605886],[7.463166,48.605005],[7.463816,48.60422],[7.464255,48.603607],[7.464906,48.602951],[7.465231,48.602435],[7.466239,48.602779],[7.466223,48.602596],[7.466077,48.6018],[7.466662,48.600854],[7.466613,48.60052],[7.466809,48.599907],[7.467036,48.598703],[7.467378,48.597617],[7.467459,48.59695],[7.467622,48.59652],[7.467735,48.596305],[7.467004,48.596165],[7.466727,48.596305],[7.466369,48.596154],[7.465995,48.595799],[7.466483,48.594993],[7.466971,48.594562],[7.466841,48.594347],[7.466955,48.5931],[7.467085,48.592906],[7.46767,48.591637],[7.468353,48.591088],[7.468874,48.590303],[7.469459,48.589486],[7.469801,48.58884],[7.469898,48.588292],[7.474923,48.587904],[7.4772,48.587549],[7.478485,48.587377],[7.479704,48.587313],[7.480615,48.587345],[7.48107,48.587485],[7.481363,48.587926],[7.482745,48.587754],[7.483201,48.587775],[7.483444,48.587848],[7.48355,48.587688],[7.484377,48.587733],[7.484865,48.58829],[7.48509,48.588652],[7.485917,48.589681],[7.486324,48.590319],[7.48715,48.591327],[7.487611,48.591194],[7.488071,48.591285],[7.488853,48.591878],[7.490624,48.592882],[7.491291,48.593171],[7.493131,48.593156],[7.493223,48.592365],[7.49362,48.591512],[7.493556,48.591135],[7.493223,48.590617],[7.492987,48.589915],[7.492526,48.588999],[7.492236,48.588687],[7.49185,48.588417],[7.491592,48.588169],[7.490777,48.587644],[7.490101,48.587239],[7.489854,48.586945],[7.489505,48.586082],[7.489566,48.585038],[7.4899,48.584456],[7.489991,48.584054],[7.490476,48.583783],[7.491523,48.583482],[7.493466,48.583582],[7.493631,48.583655],[7.494307,48.583677],[7.494467,48.583819],[7.4951,48.583982],[7.49583,48.58296],[7.496002,48.582875],[7.498437,48.5834],[7.499328,48.583286],[7.500132,48.583258],[7.501066,48.583187],[7.501559,48.583194],[7.502257,48.583102],[7.503662,48.583095],[7.50426,48.583053],[7.504764,48.58287],[7.505008,48.581622],[7.506374,48.58173],[7.506813,48.57989],[7.507296,48.579186],[7.507516,48.578619],[7.50678,48.578574],[7.50571,48.578378],[7.50613,48.577033],[7.50657,48.576401],[7.507224,48.57577],[7.507364,48.575507],[7.507569,48.575542],[7.507728,48.575246],[7.507774,48.574975],[7.50722,48.574804],[7.507045,48.574568],[7.507334,48.574031],[7.507447,48.573961],[7.507842,48.574162],[7.508031,48.574137],[7.508365,48.573625],[7.507581,48.57364],[7.507651,48.573259],[7.507581,48.57259],[7.50725,48.572498],[7.506082,48.572729],[7.505612,48.572936],[7.505246,48.572625],[7.504914,48.57221],[7.505664,48.571714],[7.506169,48.570987],[7.5065,48.570215],[7.50657,48.569776],[7.506919,48.569488],[7.506675,48.569416],[7.506488,48.569243],[7.506585,48.568684],[7.506707,48.56828],[7.506943,48.568119],[7.506344,48.567717],[7.505485,48.567631],[7.504065,48.567668],[7.502982,48.56747],[7.501898,48.567211],[7.501151,48.566889],[7.499731,48.566667],[7.499601,48.566086],[7.499738,48.565855],[7.499625,48.5648],[7.499411,48.564026],[7.499311,48.563324],[7.499311,48.5629],[7.499571,48.562463],[7.500086,48.562019],[7.500236,48.562105],[7.500628,48.56208],[7.50102,48.562142],[7.501422,48.561913],[7.501702,48.561864],[7.502454,48.561562],[7.503615,48.560528],[7.503876,48.559932],[7.504016,48.559031],[7.504056,48.558156],[7.504316,48.557587],[7.504709,48.557636],[7.505326,48.557988],[7.506951,48.559274],[7.507642,48.559701],[7.50835,48.560402],[7.508821,48.561012],[7.509251,48.561403],[7.510633,48.561072],[7.511584,48.56076],[7.512705,48.560572],[7.513539,48.560502],[7.51451,48.563102],[7.514496,48.564811],[7.522177,48.564597],[7.524822,48.564217],[7.526524,48.56411],[7.527375,48.564247],[7.529145,48.564887],[7.528984,48.565906],[7.528703,48.566974],[7.531321,48.566697],[7.532898,48.566534],[7.534003,48.566555],[7.536149,48.566789],[7.537962,48.567279],[7.538595,48.567385],[7.539947,48.56735],[7.543026,48.567613],[7.546363,48.567627],[7.547393,48.567584],[7.547983,48.567442],[7.54897,48.566974],[7.549474,48.566654],[7.550333,48.565831],[7.550912,48.565461],[7.551845,48.565234],[7.553058,48.565213],[7.555182,48.564354],[7.556456,48.563815],[7.557002,48.5637],[7.557336,48.56372],[7.558147,48.56384],[7.558762,48.563825],[7.559657,48.563735],[7.560226,48.56371],[7.560734,48.56364],[7.561402,48.563142],[7.562601,48.562269],[7.563132,48.561671],[7.564831,48.560376],[7.566007,48.559276],[7.566455,48.55898],[7.56763,48.558654],[7.569497,48.558227],[7.571439,48.557715],[7.571932,48.557675],[7.572964,48.55772],[7.573313,48.557685],[7.576158,48.556716],[7.576742,48.55663],[7.577167,48.556701],[7.577789,48.557032],[7.578312,48.557198],[7.58187,48.558081],[7.582356,48.558157],[7.582735,48.558086],[7.583471,48.557444],[7.583729,48.557298],[7.584958,48.556841],[7.586005,48.556645],[7.586817,48.556414],[7.588364,48.555862],[7.589919,48.554953],[7.590314,48.554782],[7.592862,48.552964],[7.594525,48.552751],[7.595426,48.552644],[7.596638,48.552701],[7.597089,48.552893],[7.598387,48.553717],[7.599503,48.553781],[7.600576,48.553979],[7.604545,48.553745],[7.606047,48.553766],[7.606455,48.553724],[7.607152,48.553774],[7.608182,48.553781],[7.609931,48.553923],[7.613257,48.554825],[7.614502,48.555109],[7.615521,48.555506],[7.615929,48.555755],[7.616873,48.556082],[7.617216,48.556387],[7.617506,48.556614],[7.617377,48.556721],[7.617517,48.557076],[7.618407,48.558489],[7.618654,48.558993],[7.618954,48.559483],[7.619008,48.559888],[7.618986,48.560257],[7.618911,48.560619],[7.618933,48.560931],[7.619094,48.561258],[7.619104,48.561656],[7.618804,48.562479],[7.618192,48.563047],[7.618128,48.563346],[7.618343,48.5638],[7.619072,48.564553],[7.620272,48.565827],[7.621176,48.567204],[7.621676,48.567535],[7.622028,48.567947],[7.622597,48.568926],[7.622905,48.569393],[7.624286,48.570286],[7.624961,48.570733],[7.625151,48.570949],[7.625576,48.571888],[7.626683,48.574292],[7.627004,48.574919],[7.628126,48.575554],[7.6285,48.576114],[7.62985,48.577502],[7.631785,48.579255],[7.632306,48.579868],[7.63333,48.58074],[7.633655,48.580783],[7.63455,48.580353],[7.635086,48.580256],[7.636989,48.580245],[7.6379,48.580191],[7.638859,48.58032],[7.642876,48.580353],[7.647283,48.579976],[7.651478,48.579546],[7.651852,48.579449],[7.654438,48.579244],[7.655495,48.579567],[7.65665,48.579567],[7.657479,48.579277],[7.657788,48.579244],[7.658395,48.579452],[7.659161,48.579402],[7.659631,48.579447],[7.66039,48.579728],[7.661126,48.580155],[7.66152,48.580235],[7.663667,48.580481],[7.666667,48.579782],[7.674798,48.578029],[7.679807,48.576888],[7.684409,48.575005],[7.686897,48.574693],[7.691125,48.574328],[7.691434,48.574435],[7.691938,48.574726],[7.69241,48.574693],[7.693353,48.574166],[7.694068,48.57408],[7.69467,48.574166],[7.695678,48.575081],[7.69602,48.575597],[7.696475,48.575705],[7.697158,48.575554],[7.698264,48.57479],[7.698817,48.573843],[7.69976,48.572907],[7.700297,48.572767],[7.701321,48.572789],[7.709045,48.57054],[7.709176,48.570734],[7.709633,48.570613],[7.709793,48.570482],[7.710066,48.570437],[7.710369,48.570437],[7.710673,48.570377],[7.710969,48.570226],[7.711454,48.570025],[7.711651,48.570015],[7.712113,48.569672],[7.712756,48.569558],[7.713422,48.569679],[7.713754,48.569821],[7.714065,48.569913],[7.71414,48.570218],[7.714806,48.570573],[7.715374,48.570949],[7.716179,48.571091],[7.71663,48.571035],[7.71752,48.570779],[7.718303,48.570367],[7.719355,48.570133],[7.72002,48.57019],[7.720299,48.570275],[7.720492,48.57031],[7.722348,48.571198],[7.722788,48.571368],[7.722895,48.57156],[7.723668,48.571744],[7.724118,48.571922],[7.72459,48.571851],[7.724955,48.572064],[7.72562,48.571908],[7.726564,48.571965],[7.728517,48.572334],[7.729139,48.57249],[7.729375,48.572674],[7.729933,48.572703],[7.731349,48.572802],[7.7321,48.572646],[7.732744,48.572603],[7.733431,48.572717],[7.733609,48.572837],[7.734479,48.573203],[7.734877,48.573461],[7.736089,48.572934],[7.736481,48.573576],[7.737173,48.573922],[7.737882,48.573972],[7.73792,48.574392],[7.737303,48.574305],[7.736836,48.574503],[7.737191,48.575418],[7.737341,48.575949],[7.73721,48.576728],[7.736799,48.577729],[7.737079,48.578359],[7.737733,48.579088],[7.739358,48.579348],[7.739526,48.579459],[7.739713,48.579521],[7.739078,48.580423],[7.739141,48.580538],[7.739585,48.580848],[7.740275,48.581036],[7.741101,48.58115],[7.741175,48.581044],[7.741532,48.581093],[7.741852,48.581062],[7.74199,48.581115],[7.742346,48.580956],[7.742737,48.580552],[7.742829,48.580583],[7.744117,48.579563],[7.744945,48.579115],[7.747532,48.57878],[7.748544,48.578909],[7.749304,48.579083],[7.750612,48.579567],[7.751413,48.579971],[7.750385,48.581112],[7.750315,48.58125],[7.749496,48.582058],[7.748764,48.581769],[7.748485,48.581527],[7.747806,48.582046],[7.747056,48.582853],[7.746359,48.584294],[7.747422,48.584306],[7.748381,48.584421],[7.75096,48.585528],[7.753191,48.586577],[7.754707,48.586022],[7.754742,48.586113],[7.754615,48.586311],[7.754857,48.586364],[7.755029,48.586615],[7.754903,48.586935],[7.754949,48.587102],[7.755133,48.587148],[7.755857,48.588326],[7.756617,48.589368],[7.75886,48.591275],[7.759008,48.591278],[7.759169,48.591407],[7.759388,48.591376],[7.760549,48.591582],[7.760974,48.59146],[7.761906,48.591177],[7.762237,48.5912],[7.762324,48.590612],[7.762812,48.59075],[7.763056,48.590889],[7.763422,48.590854],[7.764224,48.59082],[7.764537,48.590647],[7.765618,48.591488],[7.766036,48.591972],[7.766228,48.592572],[7.767042,48.592508],[7.76713,48.592424],[7.76952,48.592001],[7.769902,48.592457],[7.770028,48.592497],[7.770254,48.592382],[7.770559,48.592457],[7.770925,48.592468],[7.770934,48.592676],[7.771404,48.592843],[7.771751,48.593248],[7.772121,48.593288],[7.772189,48.593558],[7.772494,48.593932],[7.772851,48.594145],[7.773383,48.594249],[7.773949,48.594209],[7.774402,48.594015],[7.774944,48.593663],[7.77599,48.593014],[7.776214,48.592613],[7.776176,48.592236],[7.775971,48.591952],[7.779401,48.589856],[7.779981,48.589803],[7.780302,48.589803],[7.780362,48.590227],[7.781022,48.590439],[7.781303,48.590611],[7.781823,48.590266],[7.782247,48.59084],[7.782322,48.591044],[7.782967,48.591019],[7.787599,48.590469],[7.787609,48.590293],[7.787269,48.589551],[7.786899,48.589419],[7.785348,48.586262],[7.785167,48.58583],[7.781783,48.58134],[7.781743,48.579989],[7.781543,48.579247],[7.783965,48.577963],[7.792454,48.574863],[7.793415,48.574572],[7.796451,48.569807],[7.795678,48.569454],[7.795622,48.569306],[7.795417,48.569219],[7.795417,48.568743],[7.795473,48.568298],[7.795501,48.567878],[7.801745,48.568882],[7.802496,48.568882],[7.803543,48.568985]]],"type":"MultiLineString"},"properties":{"geo_point":{"lon":6.988485139511783,"lat":48.61555049899747},"name":"GR534 Sentier Stanislas-Kléber (2020)","code_gr":"GR534"}},{"type":"Feature","geometry":{"coordinates":[[[6.945924,48.581557],[6.946396,48.581923],[6.947258,48.582257],[6.947518,48.582483],[6.94773,48.584451],[6.948884,48.585043],[6.950104,48.584946],[6.95077,48.585237],[6.952283,48.585204],[6.95347,48.58457],[6.953958,48.584161],[6.954868,48.584559],[6.95534,48.585032],[6.955682,48.585151],[6.955828,48.585301],[6.956007,48.585376],[6.956234,48.585635],[6.956869,48.585635],[6.958056,48.586334],[6.95843,48.586345],[6.958527,48.586592],[6.959471,48.586753],[6.959828,48.58671],[6.960706,48.586753],[6.961048,48.586882],[6.961243,48.587001],[6.961308,48.587259],[6.961812,48.587323],[6.962105,48.587076],[6.962625,48.587012],[6.963048,48.586678],[6.963585,48.5867],[6.964154,48.586484],[6.964398,48.586205],[6.964121,48.586065],[6.964365,48.586022],[6.966772,48.586054],[6.967764,48.586011],[6.968821,48.585904],[6.969407,48.585527],[6.970106,48.585344],[6.97113,48.585527],[6.97209,48.585441],[6.974562,48.584935],[6.976562,48.584462],[6.976253,48.58415],[6.975976,48.583376],[6.976123,48.582934],[6.975976,48.582633],[6.975749,48.582332],[6.976025,48.582138],[6.976643,48.582375],[6.980139,48.581568],[6.982774,48.58103],[6.984189,48.580611],[6.985181,48.581568],[6.989864,48.581073],[6.991978,48.58145],[6.992352,48.581762],[6.992905,48.581912],[6.993377,48.581956],[6.993653,48.581869],[6.994661,48.582106],[6.994613,48.581547],[6.994157,48.581106],[6.991815,48.579374],[6.991295,48.578771],[6.989701,48.577523],[6.98962,48.576619],[6.989425,48.575414],[6.989604,48.574952],[6.990206,48.574295],[6.991588,48.574575],[6.992889,48.574715],[6.995686,48.575253],[6.998564,48.575038],[6.999881,48.57507],[7.000694,48.574919],[7.001638,48.574521],[7.002191,48.574424],[7.003784,48.57436],[7.004109,48.574198],[7.004288,48.573865],[7.006175,48.572692],[7.006825,48.572412],[7.007638,48.572143],[7.009573,48.572003],[7.011444,48.571734],[7.012793,48.571465],[7.013411,48.571229],[7.013753,48.570927],[7.013867,48.570637],[7.014696,48.570712],[7.015395,48.57096],[7.019005,48.57281],[7.019396,48.57295],[7.020127,48.573338],[7.021087,48.57365],[7.021672,48.573736],[7.023266,48.573703],[7.025982,48.573671],[7.027039,48.57379],[7.028128,48.573757],[7.029478,48.573574],[7.032242,48.573962],[7.032486,48.573876],[7.033592,48.573219],[7.034064,48.573036],[7.034487,48.572993],[7.034991,48.573036],[7.036617,48.573639],[7.036308,48.573886],[7.035218,48.575296],[7.034487,48.576178],[7.034031,48.57705],[7.033885,48.578179],[7.034129,48.580041],[7.034129,48.580944],[7.033413,48.581848],[7.033186,48.58245],[7.033527,48.583354],[7.034031,48.58429],[7.034487,48.584699],[7.034958,48.584946],[7.035966,48.585366],[7.036893,48.585936],[7.037349,48.586129],[7.038048,48.586355],[7.039268,48.586969],[7.041512,48.587539],[7.043089,48.58813],[7.043642,48.588464],[7.043528,48.589572],[7.043886,48.590529],[7.044699,48.591379],[7.044959,48.591798],[7.04535,48.592777],[7.045756,48.593272],[7.046846,48.594218],[7.047138,48.59467],[7.047366,48.595434],[7.047399,48.596079],[7.046813,48.597326],[7.046927,48.597896],[7.047317,48.598918],[7.047773,48.59938],[7.047756,48.599542],[7.047545,48.599585],[7.046732,48.599337],[7.046179,48.599112],[7.045675,48.599251],[7.045463,48.599864],[7.045805,48.600144],[7.046472,48.600542],[7.046862,48.601327],[7.046553,48.602693],[7.046829,48.602962],[7.046943,48.60337],[7.047236,48.603886],[7.047756,48.604403],[7.048618,48.604886],[7.048911,48.605166],[7.049187,48.605284],[7.049903,48.605854],[7.050456,48.606155],[7.05109,48.606833],[7.051171,48.607177],[7.05174,48.607403],[7.051806,48.607811],[7.052358,48.608112],[7.052375,48.608478],[7.053106,48.608693],[7.053838,48.607908],[7.053627,48.607499],[7.053627,48.607037],[7.05483,48.607091],[7.05657,48.607048],[7.057188,48.607317],[7.057709,48.607446],[7.058278,48.607489],[7.060115,48.608112],[7.060424,48.608295],[7.060928,48.608467],[7.061205,48.608682],[7.061237,48.608843],[7.061644,48.608962],[7.061937,48.609101],[7.062815,48.609338],[7.063091,48.609198],[7.063173,48.609005],[7.063384,48.608919],[7.064506,48.609155],[7.064413,48.60932],[7.065024,48.609405],[7.065432,48.609285],[7.065529,48.609306],[7.065099,48.610015],[7.065807,48.610183],[7.066469,48.610483],[7.066766,48.611163],[7.067428,48.611624],[7.069345,48.612361],[7.07053,48.612718],[7.072552,48.613156],[7.074121,48.613329],[7.075184,48.613663],[7.076212,48.613767],[7.07731,48.614101],[7.078844,48.61394],[7.080012,48.613963],[7.080935,48.613836],[7.07989,48.614216],[7.079454,48.614516],[7.079384,48.614735],[7.079576,48.615207],[7.080517,48.615495],[7.081371,48.615495],[7.082312,48.615357],[7.082922,48.616083],[7.084003,48.61689],[7.084613,48.617178],[7.086321,48.617857],[7.087367,48.618192],[7.088517,48.618894],[7.088761,48.619229],[7.088569,48.619885],[7.089232,48.620565],[7.089772,48.621429],[7.091044,48.622224],[7.091497,48.622581],[7.091794,48.623042],[7.091846,48.623514],[7.091532,48.624206],[7.091149,48.624851],[7.091062,48.625496],[7.091166,48.625807],[7.091445,48.626037],[7.091776,48.626187],[7.091515,48.626694],[7.090783,48.627454],[7.090655,48.627893],[7.090639,48.628463],[7.09085,48.628871],[7.091208,48.629279],[7.091452,48.629688],[7.091956,48.629967],[7.092655,48.630483],[7.093046,48.630988],[7.093956,48.631751],[7.094737,48.632235],[7.095612,48.632526],[7.095666,48.632632],[7.095344,48.632653],[7.093896,48.633072],[7.093306,48.632994],[7.092447,48.632824],[7.092553,48.633182],[7.093266,48.633704],[7.093691,48.633764],[7.095087,48.633704],[7.094495,48.633934],[7.093691,48.634025],[7.09275,48.634035],[7.092553,48.634205],[7.093129,48.634777],[7.093296,48.635579],[7.093934,48.635699],[7.094267,48.63603],[7.094541,48.636792],[7.094612,48.636792],[7.095393,48.636521],[7.095873,48.636402],[7.096114,48.636329],[7.096234,48.636362],[7.096684,48.636839],[7.097455,48.6366],[7.097655,48.636415],[7.097926,48.635979],[7.098456,48.635721],[7.099597,48.635423],[7.101088,48.63509],[7.102123,48.634573],[7.102997,48.633965],[7.104032,48.633722],[7.104216,48.633373],[7.104883,48.633023],[7.105596,48.633677],[7.10755,48.635075],[7.110862,48.637461],[7.110011,48.63775],[7.110494,48.638813],[7.110908,48.639178],[7.112334,48.640166],[7.113622,48.641002],[7.114818,48.641488],[7.115439,48.641579],[7.115623,48.641412],[7.117807,48.642096],[7.119233,48.642445],[7.12059,48.642977],[7.122085,48.643266],[7.12427,48.643995],[7.125374,48.644254],[7.126708,48.64439],[7.128202,48.644679],[7.129099,48.644983],[7.12995,48.645302],[7.130709,48.645363],[7.131675,48.645712],[7.132825,48.645879],[7.134619,48.645424],[7.135976,48.644968],[7.137149,48.645074],[7.139517,48.645074],[7.14023,48.646001],[7.141081,48.645743],[7.142139,48.645652],[7.143197,48.645697],[7.144232,48.645864],[7.145612,48.645636],[7.145681,48.644634],[7.145658,48.643068],[7.146396,48.642567],[7.146496,48.642395],[7.146856,48.642097],[7.146936,48.642296],[7.146246,48.642818],[7.145965,48.643228],[7.146045,48.643414],[7.146035,48.64381],[7.146766,48.645206],[7.146896,48.645742],[7.146876,48.646092],[7.147076,48.646377],[7.147457,48.646436],[7.147887,48.64645],[7.148138,48.646549],[7.148238,48.64676],[7.148638,48.647263],[7.149637,48.647182],[7.15097,48.646849],[7.152743,48.647719],[7.153296,48.647902],[7.153751,48.647945],[7.154646,48.647816],[7.154841,48.648386],[7.156093,48.648149],[7.156662,48.647967],[7.157508,48.647601],[7.157979,48.647612],[7.158988,48.647827],[7.15954,48.647666],[7.160061,48.647462],[7.160337,48.647214],[7.16172,48.647633],[7.162744,48.647698],[7.163411,48.647591],[7.164321,48.647064],[7.165037,48.646785],[7.165915,48.646011],[7.166435,48.645452],[7.167411,48.644647],[7.169493,48.643465],[7.170631,48.642637],[7.171038,48.64224],[7.171249,48.641799],[7.171965,48.641154],[7.172956,48.640123],[7.173152,48.639704],[7.172956,48.639005],[7.17307,48.63806],[7.173461,48.637372],[7.174924,48.637039],[7.175721,48.63619],[7.176729,48.63591],[7.177949,48.635889],[7.179185,48.635416],[7.17977,48.635846],[7.180095,48.635846],[7.180567,48.636007],[7.182453,48.637125],[7.182844,48.637254],[7.18351,48.63734],[7.184372,48.637684],[7.184633,48.638726],[7.18512,48.639317],[7.186616,48.640907],[7.186535,48.641595],[7.186649,48.642132],[7.187917,48.642347],[7.189641,48.642906],[7.191918,48.643744],[7.192406,48.643894],[7.192959,48.644399],[7.192942,48.644679],[7.192731,48.644786],[7.192227,48.644937],[7.191755,48.645345],[7.191495,48.645678],[7.191593,48.645807],[7.192389,48.646108],[7.192877,48.646172],[7.194666,48.646065],[7.195317,48.645968],[7.195837,48.646086],[7.196048,48.646269],[7.196016,48.646409],[7.195723,48.646677],[7.195707,48.647376],[7.196341,48.647376],[7.198114,48.646989],[7.198975,48.647193],[7.199919,48.647676],[7.200716,48.648246],[7.200634,48.648353],[7.20122,48.648837],[7.200813,48.649041],[7.200667,48.649471],[7.200862,48.65004],[7.20122,48.650491],[7.201773,48.651114],[7.201935,48.651555],[7.201984,48.652114],[7.202228,48.652425],[7.202309,48.652726],[7.203073,48.653575],[7.203431,48.654413],[7.203643,48.654842],[7.203724,48.655358],[7.205253,48.655605],[7.20696,48.655562],[7.208245,48.655594],[7.208814,48.655648],[7.209432,48.655755],[7.210115,48.655798],[7.210473,48.655927],[7.210619,48.655841],[7.210717,48.655551],[7.211139,48.65524],[7.213627,48.65496],[7.214863,48.655154],[7.215807,48.655132],[7.216912,48.65495],[7.217124,48.654778],[7.217124,48.65437],[7.217628,48.654531],[7.218164,48.654563],[7.220132,48.654101],[7.221075,48.654112],[7.225011,48.654015],[7.225921,48.654058],[7.226377,48.654133],[7.228475,48.653757],[7.229288,48.653779],[7.230719,48.653704],[7.231873,48.653682],[7.232963,48.653768],[7.233735,48.653729],[7.235087,48.653594],[7.235418,48.653552],[7.236062,48.65378],[7.237005,48.653294],[7.238569,48.65334],[7.241765,48.65299],[7.245468,48.652975],[7.246549,48.652717],[7.24809,48.651942],[7.248619,48.651532],[7.24901,48.650848],[7.248711,48.649967],[7.248734,48.647992],[7.249332,48.647262],[7.248648,48.646839],[7.248305,48.646414],[7.248284,48.645783],[7.248681,48.644699],[7.249271,48.643664],[7.249947,48.643331],[7.250322,48.64321],[7.250444,48.643013],[7.250265,48.64282],[7.24968,48.642691],[7.248997,48.642369],[7.247745,48.641574],[7.247338,48.640735],[7.247712,48.640026],[7.248233,48.639478],[7.249713,48.63922],[7.250981,48.638629],[7.251875,48.637995],[7.252461,48.637727],[7.253437,48.637469],[7.255697,48.636663],[7.25794,48.636135],[7.258422,48.635844],[7.258991,48.635447],[7.259697,48.635309],[7.259927,48.634883],[7.260469,48.634167],[7.260543,48.633662],[7.260272,48.631886],[7.26042,48.630599],[7.261332,48.631169],[7.261874,48.631772],[7.262293,48.631984],[7.263505,48.632361],[7.264219,48.632696],[7.265387,48.63303],[7.267095,48.633341],[7.268158,48.633502],[7.268594,48.633686],[7.269378,48.633778],[7.271017,48.633847],[7.271905,48.63394],[7.272777,48.634101],[7.274659,48.634331],[7.275374,48.634561],[7.276071,48.63508],[7.276942,48.635967],[7.277483,48.636543],[7.277727,48.637026],[7.278389,48.637245],[7.27865,48.637245],[7.279051,48.637406],[7.279505,48.637372],[7.280413,48.637613],[7.280781,48.637674],[7.281988,48.638228],[7.28208,48.638547],[7.281885,48.638943],[7.281402,48.639695],[7.280896,48.64088],[7.281034,48.641587],[7.281034,48.64224],[7.281724,48.64316],[7.282023,48.643175],[7.282678,48.642901],[7.283184,48.642749],[7.283334,48.642856],[7.284392,48.642658],[7.28499,48.642369],[7.287439,48.641951],[7.288336,48.642043],[7.28944,48.642286],[7.289946,48.642157],[7.290038,48.641989],[7.290373,48.641842],[7.291038,48.641097],[7.291811,48.640495],[7.292272,48.639878],[7.292508,48.639431],[7.293162,48.638843],[7.293634,48.63824],[7.2943,48.637709],[7.294847,48.637468],[7.295737,48.637212],[7.295889,48.637001],[7.2969,48.637375],[7.298724,48.637848],[7.298913,48.638127],[7.299149,48.63812],[7.298849,48.638581],[7.298259,48.639233],[7.297347,48.640431],[7.297089,48.640941],[7.297089,48.641211],[7.297325,48.641338],[7.297733,48.64136],[7.298666,48.641253],[7.299396,48.641147],[7.300254,48.641083],[7.300801,48.64114],[7.301547,48.641328],[7.302067,48.641498],[7.302341,48.641555],[7.302867,48.641618],[7.303119,48.641675],[7.303178,48.641753],[7.30402,48.64193],[7.304583,48.641913],[7.305511,48.641696],[7.305718,48.641616],[7.305068,48.641326],[7.304962,48.640848],[7.304767,48.640623],[7.304328,48.640316],[7.304198,48.639752],[7.304344,48.638984],[7.304247,48.638076],[7.304458,48.636921],[7.304743,48.635921],[7.304954,48.635567],[7.305422,48.635114],[7.305523,48.634556],[7.305296,48.634481],[7.305287,48.634379],[7.305361,48.634304],[7.305491,48.634272],[7.305055,48.634089],[7.304236,48.633335],[7.304175,48.633024],[7.304219,48.632482],[7.304376,48.631624],[7.304585,48.631054],[7.304829,48.630714],[7.304872,48.630357],[7.30523,48.629729],[7.305483,48.628969],[7.305578,48.62837],[7.305378,48.62803],[7.305326,48.627794],[7.305038,48.627408],[7.304824,48.627127],[7.304451,48.626843],[7.304301,48.626362],[7.304637,48.624856],[7.304936,48.624547],[7.305758,48.623954],[7.306188,48.623349],[7.307514,48.622868],[7.309382,48.62246],[7.310055,48.622287],[7.310671,48.621966],[7.311194,48.621571],[7.312408,48.620991],[7.313156,48.621065],[7.313454,48.621102],[7.314034,48.621299],[7.315322,48.621374],[7.314547,48.621929],[7.314052,48.622189],[7.313819,48.622275],[7.313296,48.623343],[7.312959,48.62438],[7.312903,48.625195],[7.312987,48.625831],[7.312913,48.625985],[7.31136,48.626465],[7.311307,48.626614],[7.311465,48.626762],[7.311769,48.626779],[7.312496,48.627094],[7.314213,48.627443],[7.314662,48.627356],[7.315428,48.627408],[7.315911,48.627337],[7.316593,48.627399],[7.317564,48.627597],[7.318872,48.627973],[7.318624,48.627748],[7.318783,48.627583],[7.319206,48.627347],[7.320104,48.627862],[7.320645,48.628176],[7.321068,48.628508],[7.321547,48.628801],[7.322468,48.629072],[7.322906,48.629297],[7.323487,48.629334],[7.324959,48.629662],[7.32544,48.629531],[7.327281,48.628426],[7.328654,48.627968],[7.33116,48.628249],[7.33149,48.628211],[7.332731,48.628403],[7.333709,48.62856],[7.334237,48.628866],[7.33466,48.628971],[7.334779,48.629154],[7.334554,48.629416],[7.33425,48.629529],[7.333894,48.629591],[7.333511,48.629818],[7.333458,48.630062],[7.33355,48.63021],[7.334171,48.630368],[7.334845,48.630533],[7.335394,48.630591],[7.336048,48.631023],[7.336487,48.631368],[7.338121,48.631646],[7.339046,48.63172],[7.339588,48.631745],[7.340559,48.631936],[7.341297,48.631912],[7.34239,48.631837],[7.343118,48.631868],[7.343959,48.631837],[7.344304,48.631912],[7.344865,48.631899],[7.34507,48.631868],[7.34627,48.631958],[7.34715,48.632072],[7.347858,48.632058],[7.349596,48.631675],[7.349811,48.631448],[7.349939,48.630923],[7.351034,48.63054],[7.351227,48.630739],[7.352278,48.631079],[7.352922,48.631178],[7.355111,48.631193],[7.356977,48.631093],[7.358651,48.631108],[7.360346,48.630881],[7.361226,48.630966],[7.361569,48.631235],[7.362363,48.632129],[7.36275,48.632668],[7.363197,48.633114],[7.363989,48.633685],[7.364485,48.633862],[7.365915,48.63404],[7.366594,48.634255],[7.367203,48.63433],[7.367741,48.634471],[7.368576,48.634443],[7.370176,48.63477],[7.371204,48.635305],[7.372084,48.635688],[7.372963,48.635901],[7.373457,48.636298],[7.374058,48.636666],[7.374766,48.636993],[7.375598,48.637174],[7.375966,48.637577],[7.376292,48.63782],[7.377339,48.638381],[7.377821,48.638746],[7.378259,48.639522],[7.378812,48.640046],[7.379364,48.640336],[7.379576,48.640383],[7.379703,48.640486],[7.381204,48.640944],[7.382181,48.641384],[7.382426,48.641657],[7.384336,48.642381],[7.385044,48.642466],[7.385734,48.642722],[7.386414,48.643105],[7.387037,48.643367],[7.387575,48.643526],[7.387999,48.643853],[7.388241,48.644351],[7.3897,48.644351],[7.390859,48.643841],[7.391438,48.643798],[7.392919,48.644068],[7.393134,48.64428],[7.393799,48.644436],[7.394764,48.644904],[7.395515,48.644933],[7.397017,48.645613],[7.397447,48.645656],[7.399464,48.645627],[7.400215,48.645372],[7.400494,48.645471],[7.401266,48.645003],[7.401459,48.644848],[7.401953,48.644975],[7.403026,48.645429],[7.404141,48.645131],[7.40515,48.644975],[7.405751,48.645046],[7.406931,48.645656],[7.407811,48.645599],[7.407982,48.645755],[7.409399,48.645755],[7.409742,48.6455],[7.410214,48.645344],[7.410343,48.645188],[7.41399,48.644677],[7.415128,48.64455],[7.418454,48.643798],[7.419312,48.643416],[7.420428,48.64265],[7.4212,48.642366],[7.422166,48.642168],[7.422981,48.642154],[7.425492,48.641828],[7.427723,48.641813],[7.42841,48.641743],[7.430148,48.641884],[7.431414,48.642111],[7.431929,48.640055],[7.43238,48.639446],[7.43253,48.638396],[7.435384,48.638327],[7.43697,48.638327],[7.437683,48.638145],[7.438442,48.637841],[7.438971,48.63781],[7.441409,48.638342],[7.443318,48.638494],[7.444054,48.638525],[7.444215,48.638084],[7.445181,48.637582],[7.446491,48.63737],[7.448492,48.636777],[7.449331,48.636588],[7.44951,48.636612],[7.449752,48.636772],[7.449851,48.636607],[7.449798,48.636401],[7.450064,48.636486],[7.450284,48.636451],[7.450595,48.63621],[7.450954,48.636301],[7.451372,48.635794],[7.451198,48.635022],[7.450518,48.633559],[7.450135,48.633214],[7.449804,48.632511],[7.451512,48.632235],[7.453342,48.631843],[7.453621,48.631555],[7.453324,48.631048],[7.453464,48.630795],[7.454022,48.630403],[7.456235,48.629562],[7.45756,48.628986],[7.4581,48.628894],[7.458605,48.629816],[7.459285,48.630518],[7.45993,48.630968],[7.460836,48.631359],[7.461377,48.63144],[7.461952,48.631394],[7.463015,48.63106],[7.46617,48.629758],[7.467093,48.629067],[7.469167,48.627604],[7.469289,48.627143],[7.469063,48.626798],[7.468767,48.626579],[7.468801,48.626141],[7.468801,48.625974],[7.469004,48.625372],[7.469077,48.624394],[7.46941,48.623255],[7.469004,48.622911],[7.469118,48.622669],[7.468906,48.622556],[7.468597,48.622475],[7.46824,48.622502],[7.467914,48.622411],[7.467036,48.621965],[7.467523,48.62125],[7.467465,48.620711],[7.467109,48.620323],[7.467695,48.619418],[7.467672,48.619251],[7.46728,48.619122],[7.467377,48.618648],[7.467592,48.618343],[7.467066,48.61835],[7.467012,48.617875],[7.467218,48.617539],[7.466777,48.617142],[7.466727,48.616903],[7.466427,48.616764],[7.465996,48.616731],[7.465546,48.6165],[7.465486,48.616268],[7.465286,48.616076],[7.466061,48.615681],[7.4665,48.615327],[7.466516,48.614983],[7.466418,48.614391],[7.466678,48.613209],[7.467313,48.612564],[7.466776,48.612488],[7.465264,48.611445],[7.464467,48.610897],[7.463865,48.610338],[7.463296,48.610198],[7.461605,48.609919],[7.459458,48.609843],[7.459474,48.608779],[7.461328,48.6088],[7.462564,48.608962],[7.462889,48.607768],[7.462808,48.607069],[7.462824,48.606564],[7.462743,48.606392],[7.462792,48.605886],[7.463166,48.605005],[7.463816,48.60422],[7.464255,48.603607],[7.464906,48.602951],[7.465231,48.602435],[7.466239,48.602779],[7.466223,48.602596],[7.466077,48.6018],[7.466662,48.600854],[7.466613,48.60052],[7.466809,48.599907],[7.467036,48.598703],[7.467378,48.597617],[7.467459,48.59695],[7.467622,48.59652],[7.467735,48.596305],[7.467004,48.596165],[7.466727,48.596305],[7.466369,48.596154],[7.465995,48.595799],[7.466483,48.594993],[7.466971,48.594562],[7.466841,48.594347],[7.466955,48.5931],[7.467085,48.592906],[7.46767,48.591637],[7.468353,48.591088],[7.468874,48.590303],[7.469459,48.589486],[7.469801,48.58884],[7.469898,48.588292],[7.474923,48.587904],[7.4772,48.587549],[7.478485,48.587377],[7.479704,48.587313],[7.480615,48.587345],[7.48107,48.587485],[7.481363,48.587926],[7.482745,48.587754],[7.483201,48.587775],[7.483444,48.587848],[7.48355,48.587688],[7.484377,48.587733],[7.484865,48.58829],[7.48509,48.588652],[7.485917,48.589681],[7.486324,48.590319],[7.48715,48.591327],[7.487611,48.591194],[7.488071,48.591285],[7.488853,48.591878],[7.490624,48.592882],[7.491291,48.593171],[7.493131,48.593156],[7.493223,48.592365],[7.49362,48.591512],[7.493556,48.591135],[7.493223,48.590617],[7.492987,48.589915],[7.492526,48.588999],[7.492236,48.588687],[7.49185,48.588417],[7.491592,48.588169],[7.490777,48.587644],[7.490101,48.587239],[7.489854,48.586945],[7.489505,48.586082],[7.489566,48.585038],[7.4899,48.584456],[7.489991,48.584054],[7.490476,48.583783],[7.491523,48.583482],[7.493466,48.583582],[7.493631,48.583655],[7.494307,48.583677],[7.494467,48.583819],[7.4951,48.583982],[7.49583,48.58296],[7.496002,48.582875],[7.498437,48.5834],[7.499328,48.583286],[7.500132,48.583258],[7.501066,48.583187],[7.501559,48.583194],[7.502257,48.583102],[7.503662,48.583095],[7.50426,48.583053],[7.504764,48.58287],[7.505008,48.581622],[7.506374,48.58173],[7.506813,48.57989],[7.507296,48.579186],[7.507516,48.578619],[7.50678,48.578574],[7.50571,48.578378],[7.50613,48.577033],[7.50657,48.576401],[7.507224,48.57577],[7.507364,48.575507],[7.507569,48.575542],[7.507728,48.575246],[7.507774,48.574975],[7.50722,48.574804],[7.507045,48.574568],[7.507334,48.574031],[7.507447,48.573961],[7.507842,48.574162],[7.508031,48.574137],[7.508365,48.573625],[7.507581,48.57364],[7.507651,48.573259],[7.507581,48.57259],[7.50725,48.572498],[7.506082,48.572729],[7.505612,48.572936],[7.505246,48.572625],[7.504914,48.57221],[7.505664,48.571714],[7.506169,48.570987],[7.5065,48.570215],[7.50657,48.569776],[7.506919,48.569488],[7.506675,48.569416],[7.506488,48.569243],[7.506585,48.568684],[7.506707,48.56828],[7.506943,48.568119],[7.506344,48.567717],[7.505485,48.567631],[7.504065,48.567668],[7.502982,48.56747],[7.501898,48.567211],[7.501151,48.566889],[7.499731,48.566667],[7.499601,48.566086],[7.499738,48.565855],[7.499625,48.5648],[7.499411,48.564026],[7.499311,48.563324],[7.499311,48.5629],[7.499571,48.562463],[7.500086,48.562019],[7.500236,48.562105],[7.500628,48.56208],[7.50102,48.562142],[7.501422,48.561913],[7.501702,48.561864],[7.502454,48.561562],[7.503615,48.560528],[7.503876,48.559932],[7.504016,48.559031],[7.504056,48.558156],[7.504316,48.557587],[7.504709,48.557636],[7.505326,48.557988],[7.506951,48.559274],[7.507642,48.559701],[7.50835,48.560402],[7.508821,48.561012],[7.509251,48.561403],[7.510633,48.561072],[7.511584,48.56076],[7.512705,48.560572],[7.513539,48.560502],[7.51451,48.563102],[7.514496,48.564811],[7.522177,48.564597],[7.524822,48.564217],[7.526524,48.56411],[7.527375,48.564247],[7.529145,48.564887],[7.528984,48.565906],[7.528703,48.566974],[7.531321,48.566697],[7.532898,48.566534],[7.534003,48.566555],[7.536149,48.566789],[7.537962,48.567279],[7.538595,48.567385],[7.539947,48.56735],[7.543026,48.567613],[7.546363,48.567627],[7.547393,48.567584],[7.547983,48.567442],[7.54897,48.566974],[7.549474,48.566654],[7.550333,48.565831],[7.550912,48.565461],[7.551845,48.565234],[7.553058,48.565213],[7.555182,48.564354],[7.556456,48.563815],[7.557002,48.5637],[7.557336,48.56372],[7.558147,48.56384],[7.558762,48.563825],[7.559657,48.563735],[7.560226,48.56371],[7.560734,48.56364],[7.561402,48.563142],[7.562601,48.562269],[7.563132,48.561671],[7.564831,48.560376],[7.566007,48.559276],[7.566455,48.55898],[7.56763,48.558654],[7.569497,48.558227],[7.571439,48.557715],[7.571932,48.557675],[7.572964,48.55772],[7.573313,48.557685],[7.576158,48.556716],[7.576742,48.55663],[7.577167,48.556701],[7.577789,48.557032],[7.578312,48.557198],[7.58187,48.558081],[7.582356,48.558157],[7.582735,48.558086],[7.583471,48.557444],[7.583729,48.557298],[7.584958,48.556841],[7.586005,48.556645],[7.586817,48.556414],[7.588364,48.555862],[7.589919,48.554953],[7.590314,48.554782],[7.592862,48.552964],[7.594525,48.552751],[7.595426,48.552644],[7.596638,48.552701],[7.597089,48.552893],[7.598387,48.553717],[7.599503,48.553781],[7.600576,48.553979],[7.604545,48.553745],[7.606047,48.553766],[7.606455,48.553724],[7.607152,48.553774],[7.608182,48.553781],[7.609931,48.553923],[7.613257,48.554825],[7.614502,48.555109],[7.615521,48.555506],[7.615929,48.555755],[7.616873,48.556082],[7.617216,48.556387],[7.617506,48.556614],[7.617377,48.556721],[7.617517,48.557076],[7.618407,48.558489],[7.618654,48.558993],[7.618954,48.559483],[7.619008,48.559888],[7.618986,48.560257],[7.618911,48.560619],[7.618933,48.560931],[7.619094,48.561258],[7.619104,48.561656],[7.618804,48.562479],[7.618192,48.563047],[7.618128,48.563346],[7.618343,48.5638],[7.619072,48.564553],[7.620272,48.565827],[7.621176,48.567204],[7.621676,48.567535],[7.622028,48.567947],[7.622597,48.568926],[7.622905,48.569393],[7.624286,48.570286],[7.624961,48.570733],[7.625151,48.570949],[7.625576,48.571888],[7.626683,48.574292],[7.627004,48.574919],[7.628126,48.575554],[7.6285,48.576114],[7.62985,48.577502],[7.631785,48.579255],[7.632306,48.579868],[7.63333,48.58074],[7.633655,48.580783],[7.63455,48.580353],[7.635086,48.580256],[7.636989,48.580245],[7.6379,48.580191],[7.638859,48.58032],[7.642876,48.580353],[7.647283,48.579976],[7.651478,48.579546],[7.651852,48.579449],[7.654438,48.579244],[7.655495,48.579567],[7.65665,48.579567],[7.657479,48.579277],[7.657788,48.579244],[7.658395,48.579452],[7.659161,48.579402],[7.659631,48.579447],[7.66039,48.579728],[7.661126,48.580155],[7.66152,48.580235],[7.663667,48.580481],[7.666667,48.579782],[7.674798,48.578029],[7.679807,48.576888],[7.684409,48.575005],[7.686897,48.574693],[7.691125,48.574328],[7.691434,48.574435],[7.691938,48.574726],[7.69241,48.574693],[7.693353,48.574166],[7.694068,48.57408],[7.69467,48.574166],[7.695678,48.575081],[7.69602,48.575597],[7.696475,48.575705],[7.697158,48.575554],[7.698264,48.57479],[7.698817,48.573843],[7.69976,48.572907],[7.700297,48.572767],[7.701321,48.572789],[7.709045,48.57054],[7.709176,48.570734],[7.709633,48.570613],[7.709793,48.570482],[7.710066,48.570437],[7.710369,48.570437],[7.710673,48.570377],[7.710969,48.570226],[7.711454,48.570025],[7.711651,48.570015],[7.712113,48.569672],[7.712756,48.569558],[7.713422,48.569679],[7.713754,48.569821],[7.714065,48.569913],[7.71414,48.570218],[7.714806,48.570573],[7.715374,48.570949],[7.716179,48.571091],[7.71663,48.571035],[7.71752,48.570779],[7.718303,48.570367],[7.719355,48.570133],[7.72002,48.57019],[7.720299,48.570275],[7.720492,48.57031],[7.722348,48.571198],[7.722788,48.571368],[7.722895,48.57156],[7.723668,48.571744],[7.724118,48.571922],[7.72459,48.571851],[7.724955,48.572064],[7.72562,48.571908],[7.726564,48.571965],[7.728517,48.572334],[7.729139,48.57249],[7.729375,48.572674],[7.729933,48.572703],[7.731349,48.572802],[7.7321,48.572646],[7.732744,48.572603],[7.733431,48.572717],[7.733609,48.572837],[7.734479,48.573203],[7.734877,48.573461],[7.736089,48.572934],[7.736481,48.573576],[7.737173,48.573922],[7.737882,48.573972],[7.73792,48.574392],[7.737303,48.574305],[7.736836,48.574503],[7.737191,48.575418],[7.737341,48.575949],[7.73721,48.576728],[7.736799,48.577729],[7.737079,48.578359],[7.737733,48.579088],[7.739358,48.579348],[7.739526,48.579459],[7.739713,48.579521],[7.739078,48.580423],[7.739141,48.580538],[7.739585,48.580848],[7.740275,48.581036],[7.741101,48.58115],[7.741175,48.581044],[7.741532,48.581093],[7.741852,48.581062],[7.74199,48.581115],[7.742346,48.580956],[7.742737,48.580552],[7.742829,48.580583],[7.744117,48.579563],[7.744945,48.579115],[7.747532,48.57878],[7.748544,48.578909],[7.749304,48.579083],[7.750612,48.579567],[7.751413,48.579971],[7.750385,48.581112],[7.750315,48.58125],[7.749496,48.582058],[7.748764,48.581769],[7.748485,48.581527],[7.747806,48.582046],[7.747056,48.582853],[7.746359,48.584294],[7.747422,48.584306],[7.748381,48.584421],[7.75096,48.585528],[7.753191,48.586577],[7.754707,48.586022],[7.754742,48.586113],[7.754615,48.586311],[7.754857,48.586364],[7.755029,48.586615],[7.754903,48.586935],[7.754949,48.587102],[7.755133,48.587148],[7.755857,48.588326],[7.756617,48.589368],[7.75886,48.591275],[7.759008,48.591278],[7.759169,48.591407],[7.759388,48.591376],[7.760549,48.591582],[7.760974,48.59146],[7.761906,48.591177],[7.762237,48.5912],[7.762324,48.590612],[7.762812,48.59075],[7.763056,48.590889],[7.763422,48.590854],[7.764224,48.59082],[7.764537,48.590647],[7.765618,48.591488],[7.766036,48.591972],[7.766228,48.592572],[7.767042,48.592508],[7.76713,48.592424],[7.76952,48.592001],[7.769902,48.592457],[7.770028,48.592497],[7.770254,48.592382],[7.770559,48.592457],[7.770925,48.592468],[7.770934,48.592676],[7.771404,48.592843],[7.771751,48.593248],[7.772121,48.593288],[7.772189,48.593558],[7.772494,48.593932],[7.772851,48.594145],[7.773383,48.594249],[7.773949,48.594209],[7.774402,48.594015],[7.774944,48.593663],[7.77599,48.593014],[7.776214,48.592613],[7.776176,48.592236],[7.775971,48.591952],[7.779401,48.589856],[7.779981,48.589803],[7.780302,48.589803],[7.780362,48.590227],[7.781022,48.590439],[7.781303,48.590611],[7.781823,48.590266],[7.782247,48.59084],[7.782322,48.591044],[7.782967,48.591019],[7.787599,48.590469],[7.787609,48.590293],[7.787269,48.589551],[7.786899,48.589419],[7.785348,48.586262],[7.785167,48.58583],[7.781783,48.58134],[7.781743,48.579989],[7.781543,48.579247],[7.783965,48.577963],[7.792454,48.574863],[7.793415,48.574572],[7.796451,48.569807],[7.795678,48.569454],[7.795622,48.569306],[7.795417,48.569219],[7.795417,48.568743],[7.795473,48.568298],[7.795501,48.567878],[7.801745,48.568882],[7.802496,48.568882],[7.803543,48.568985]]],"type":"MultiLineString"},"properties":{"geo_point":{"lon":7.373626201235435,"lat":48.60503179510429},"name":"GR534 De Cirey-sur-Vezouze (Meurthe-et-Moselle) à Strasbourg (Bas-Rhin) (2020)","code_gr":"GR534"}},{"type":"Feature","geometry":{"coordinates":[[[6.192847,48.694359],[6.1945,48.692191],[6.195186,48.691158],[6.202739,48.676113],[6.203201,48.675234],[6.204242,48.673977],[6.205325,48.673056],[6.205824,48.67281],[6.207031,48.671936],[6.208045,48.671284],[6.208367,48.67082],[6.210711,48.669173],[6.213484,48.667795],[6.220351,48.665361],[6.222985,48.664173],[6.23115,48.659816],[6.23189,48.659911],[6.232372,48.659674],[6.233172,48.661038],[6.237072,48.662565],[6.239191,48.664882],[6.241974,48.663741],[6.242715,48.664581],[6.243509,48.665131],[6.244035,48.665641],[6.244464,48.666236],[6.245569,48.667341],[6.246191,48.667625],[6.245488,48.668064],[6.245576,48.668583],[6.244585,48.66899],[6.243259,48.66957],[6.241204,48.670039],[6.241354,48.670137],[6.240756,48.670729],[6.240625,48.671087],[6.239766,48.671679],[6.240439,48.672],[6.240644,48.672222],[6.241092,48.672432],[6.241373,48.672777],[6.241309,48.67296],[6.241361,48.673121],[6.241248,48.673403],[6.241326,48.673708],[6.241178,48.674053],[6.241099,48.674387],[6.241248,48.674686],[6.241246,48.675085],[6.241148,48.67528],[6.241172,48.675427],[6.241567,48.675467],[6.241727,48.676108],[6.242232,48.676761],[6.242904,48.679388],[6.244436,48.679758],[6.243558,48.68241],[6.243509,48.682559],[6.245998,48.684656],[6.245805,48.68569],[6.244689,48.687446],[6.245569,48.687956],[6.247521,48.68848],[6.248176,48.688779],[6.250451,48.689532],[6.250826,48.689864],[6.251303,48.69165],[6.25405,48.692177],[6.254581,48.69245],[6.254731,48.692702],[6.254967,48.693254],[6.255659,48.693392],[6.256158,48.693357],[6.256363,48.69324],[6.256512,48.692588],[6.256831,48.692505],[6.258073,48.692542],[6.258572,48.692432],[6.258701,48.692007],[6.259036,48.691888],[6.259371,48.691961],[6.259801,48.692475],[6.264216,48.694968],[6.280995,48.697673],[6.28224,48.69756],[6.28327,48.697673],[6.284944,48.697489],[6.285995,48.697673],[6.288055,48.697914],[6.288119,48.695563],[6.287054,48.693678],[6.286751,48.692949],[6.286912,48.69177],[6.285673,48.689659],[6.285695,48.689075],[6.291885,48.684454],[6.29284,48.683466],[6.292347,48.682106],[6.292304,48.68127],[6.293398,48.680221],[6.293291,48.680015],[6.292647,48.67964],[6.292862,48.678535],[6.293698,48.676509],[6.293634,48.673109],[6.293849,48.672655],[6.295115,48.671748],[6.295672,48.67019],[6.295661,48.66958],[6.295436,48.668121],[6.295694,48.667795],[6.298226,48.666959],[6.300865,48.666902],[6.303483,48.667327],[6.303805,48.666083],[6.304341,48.665435],[6.304148,48.665216],[6.305168,48.663663],[6.316048,48.667121],[6.323352,48.669925],[6.32675,48.670748],[6.32876,48.67144],[6.329751,48.671889],[6.330261,48.672767],[6.331195,48.673384],[6.332583,48.673796],[6.336377,48.674375],[6.337198,48.674656],[6.338642,48.675965],[6.339803,48.677348],[6.340426,48.677385],[6.342464,48.676095],[6.344446,48.676974],[6.34589,48.67503],[6.346371,48.673927],[6.348665,48.671627],[6.355318,48.673983],[6.359594,48.669159],[6.35781,48.66828],[6.35614,48.667607],[6.356142,48.667152],[6.356367,48.666732],[6.358552,48.665351],[6.360532,48.664413],[6.361989,48.661896],[6.362494,48.661365],[6.363446,48.661748],[6.364343,48.662056],[6.364604,48.661908],[6.36679,48.662562],[6.367369,48.66255],[6.369312,48.661884],[6.370731,48.661662],[6.372375,48.662044],[6.373758,48.661859],[6.376672,48.662118],[6.377269,48.662044],[6.378185,48.661699],[6.377288,48.659539],[6.375999,48.656788],[6.375532,48.656492],[6.374953,48.656516],[6.374486,48.656381],[6.375532,48.656047],[6.379324,48.654332],[6.380576,48.653851],[6.381491,48.653147],[6.382687,48.652481],[6.383807,48.651519],[6.384938,48.651079],[6.387189,48.648433],[6.387301,48.648631],[6.38717,48.649026],[6.387147,48.649128],[6.385773,48.650772],[6.385768,48.651038],[6.385945,48.651283],[6.386946,48.652148],[6.38815,48.653491],[6.390092,48.653813],[6.391299,48.654327],[6.392779,48.655075],[6.393876,48.655702],[6.393477,48.653919],[6.393748,48.653268],[6.39433,48.652561],[6.394698,48.651333],[6.395053,48.650544],[6.395576,48.65042],[6.39537,48.649507],[6.395236,48.64866],[6.396062,48.648174],[6.396996,48.647397],[6.397403,48.646845],[6.39839,48.645924],[6.399613,48.645031],[6.399536,48.643743],[6.401368,48.64289],[6.402317,48.641869],[6.403261,48.641316],[6.404077,48.641075],[6.403926,48.640337],[6.404636,48.64009],[6.405439,48.639633],[6.40557,48.63988],[6.40712,48.641016],[6.408633,48.64109],[6.409754,48.640978],[6.410296,48.640818],[6.410214,48.639969],[6.409656,48.63909],[6.409527,48.636325],[6.410214,48.635169],[6.410761,48.635332],[6.413089,48.635276],[6.415078,48.633436],[6.417076,48.633152],[6.418771,48.633232],[6.422382,48.633757],[6.424161,48.633049],[6.425688,48.632597],[6.426672,48.632681],[6.428378,48.633152],[6.43118,48.633609],[6.432272,48.633886],[6.432336,48.634411],[6.435644,48.637127],[6.436485,48.637695],[6.439063,48.638176],[6.4408,48.638399],[6.439941,48.636485],[6.439847,48.635318],[6.440619,48.633276],[6.440404,48.632184],[6.440128,48.63151],[6.439997,48.630658],[6.440104,48.629688],[6.440726,48.628554],[6.440598,48.627958],[6.437937,48.624597],[6.4371,48.623136],[6.439074,48.622243],[6.443795,48.619022],[6.446049,48.61899],[6.449417,48.620483],[6.451765,48.6192],[6.453054,48.618274],[6.453794,48.618625],[6.454438,48.618526],[6.454829,48.6182],[6.455704,48.618143],[6.456111,48.61854],[6.456905,48.61854],[6.457356,48.618767],[6.458837,48.618129],[6.459116,48.618143],[6.46109,48.617547],[6.462613,48.616696],[6.462334,48.616398],[6.464029,48.615391],[6.466411,48.614596],[6.467398,48.614483],[6.468578,48.614682],[6.469308,48.614412],[6.467312,48.61261],[6.465381,48.611305],[6.46075,48.609728],[6.461834,48.608567],[6.462992,48.608122],[6.463643,48.607517],[6.46411,48.606279],[6.465805,48.60596],[6.466733,48.605176],[6.467742,48.604722],[6.46823,48.604665],[6.469121,48.604839],[6.470723,48.605608],[6.471768,48.605979],[6.473986,48.607063],[6.474694,48.606538],[6.475321,48.605158],[6.476273,48.604565],[6.477253,48.604417],[6.478141,48.6037],[6.478384,48.603725],[6.478771,48.603143],[6.479286,48.601827],[6.480606,48.601154],[6.482826,48.600593],[6.484527,48.599294],[6.486088,48.597826],[6.486286,48.597261],[6.489044,48.597606],[6.489293,48.596931],[6.488154,48.596733],[6.487967,48.596461],[6.486902,48.596239],[6.486753,48.595387],[6.489592,48.595745],[6.489798,48.595164],[6.492002,48.595201],[6.492114,48.595547],[6.493253,48.595671],[6.4943,48.595572],[6.498857,48.59572],[6.498783,48.59614],[6.498633,48.596585],[6.498708,48.596968],[6.498297,48.5995],[6.496383,48.602948],[6.504836,48.605073],[6.506022,48.607371],[6.507768,48.607159],[6.509057,48.607282],[6.509785,48.607196],[6.511269,48.608195],[6.511448,48.608122],[6.511499,48.606687],[6.511837,48.606204],[6.515987,48.606097],[6.518266,48.606146],[6.519144,48.606094],[6.521858,48.606354],[6.524111,48.60629],[6.526448,48.606035],[6.527811,48.606097],[6.528577,48.606282],[6.530569,48.606548],[6.530451,48.604389],[6.53028,48.603701],[6.529813,48.603112],[6.528848,48.600089],[6.529733,48.600181],[6.5308,48.600649],[6.532308,48.60065],[6.533397,48.600106],[6.534909,48.600057],[6.537002,48.599451],[6.538347,48.599414],[6.539785,48.599192],[6.542083,48.599352],[6.543288,48.600138],[6.544306,48.600056],[6.546454,48.60039],[6.550718,48.601345],[6.553658,48.601515],[6.556635,48.601427],[6.556728,48.602206],[6.557363,48.602379],[6.558241,48.602428],[6.559605,48.602255],[6.562482,48.601588],[6.564256,48.601045],[6.567749,48.600748],[6.569184,48.600278],[6.570146,48.600166],[6.571784,48.599661],[6.572307,48.600464],[6.57135,48.602618],[6.57334,48.603029],[6.574874,48.604009],[6.5758,48.604367],[6.576996,48.604009],[6.577529,48.603683],[6.578434,48.603157],[6.581404,48.602799],[6.584954,48.602206],[6.586074,48.602156],[6.588465,48.602428],[6.589904,48.602267],[6.592003,48.601246],[6.593913,48.600695],[6.594846,48.600823],[6.59587,48.60033],[6.59682,48.599315],[6.598263,48.598585],[6.6001,48.598518],[6.600815,48.598629],[6.601494,48.598572],[6.602549,48.598659],[6.603129,48.598922],[6.603499,48.598931],[6.604797,48.59857],[6.606272,48.598642],[6.607028,48.597262],[6.607627,48.596859],[6.607818,48.59659],[6.607426,48.596371],[6.604157,48.592298],[6.607855,48.59257],[6.60864,48.592483],[6.609362,48.592514],[6.611111,48.591928],[6.613291,48.591779],[6.614448,48.590584],[6.615553,48.590124],[6.616009,48.589612],[6.621207,48.58765],[6.626378,48.586077],[6.628164,48.585123],[6.628975,48.585989],[6.630348,48.58704],[6.630514,48.587515],[6.629607,48.588661],[6.629688,48.58897],[6.631614,48.589694],[6.64275,48.595371],[6.641587,48.59734],[6.641661,48.597538],[6.642579,48.597758],[6.644633,48.597846],[6.645846,48.598177],[6.646637,48.598569],[6.648801,48.600309],[6.649231,48.601373],[6.649595,48.601777],[6.649214,48.602295],[6.649209,48.60275],[6.648512,48.603573],[6.648437,48.60403],[6.648608,48.606169],[6.649017,48.606651],[6.648893,48.606995],[6.648549,48.607538],[6.64856,48.609025],[6.647728,48.610142],[6.648952,48.610851],[6.65261,48.6126],[6.654144,48.613767],[6.655721,48.614369],[6.656633,48.615008],[6.657787,48.615994],[6.661477,48.618387],[6.662368,48.619217],[6.665356,48.620156],[6.667947,48.620526],[6.673113,48.6217],[6.677904,48.62359],[6.681197,48.624649],[6.681803,48.623469],[6.682169,48.622043],[6.683574,48.621337],[6.684748,48.620433],[6.685241,48.619881],[6.684979,48.619369],[6.68491,48.618855],[6.68588,48.617994],[6.686202,48.617334],[6.686481,48.616285],[6.685982,48.612195],[6.685807,48.611778],[6.685508,48.611445],[6.68166,48.610803],[6.678727,48.610481],[6.678877,48.609987],[6.680967,48.610375],[6.68485,48.611021],[6.685145,48.609953],[6.685816,48.608808],[6.685483,48.607088],[6.68912,48.607531],[6.690939,48.607439],[6.693433,48.608141],[6.695241,48.609439],[6.69722,48.610677],[6.698522,48.61186],[6.698803,48.611476],[6.701345,48.609636],[6.701886,48.609491],[6.703708,48.60867],[6.70599,48.611],[6.706831,48.610973],[6.708693,48.611053],[6.710114,48.610073],[6.711055,48.609822],[6.713798,48.609186],[6.716541,48.607638],[6.719464,48.606684],[6.721865,48.605215],[6.722986,48.606524],[6.725577,48.607829],[6.726876,48.608847],[6.727808,48.610691],[6.728045,48.611458],[6.728608,48.612069],[6.729348,48.612489],[6.729617,48.613384],[6.730185,48.613993],[6.730485,48.61588],[6.730842,48.616845],[6.731092,48.617987],[6.732985,48.618511],[6.733197,48.618756],[6.732702,48.620563],[6.732771,48.621044],[6.733399,48.621472],[6.735534,48.622004],[6.737991,48.62332],[6.738301,48.623873],[6.73953,48.624381],[6.738242,48.62599],[6.735759,48.627426],[6.735968,48.627969],[6.735402,48.62908],[6.735314,48.62966],[6.737872,48.63095],[6.737904,48.63162],[6.737754,48.632266],[6.737143,48.632893],[6.737143,48.633149],[6.737889,48.633645],[6.739203,48.633971],[6.742277,48.63563],[6.746952,48.637176],[6.752238,48.638671],[6.753686,48.637573],[6.7561,48.637651],[6.75691,48.637466],[6.758944,48.637176],[6.760006,48.637278],[6.761256,48.6378],[6.765922,48.638356],[6.765612,48.639557],[6.767588,48.640584],[6.769833,48.641542],[6.771778,48.640139],[6.773621,48.639161],[6.775482,48.638883],[6.777244,48.637494],[6.772999,48.635734],[6.773964,48.634219],[6.776201,48.631106],[6.777676,48.63157],[6.779451,48.630419],[6.780026,48.630167],[6.781345,48.629802],[6.782354,48.62922],[6.783856,48.628734],[6.784886,48.62819],[6.785127,48.627713],[6.785709,48.627516],[6.786571,48.627405],[6.788829,48.627621],[6.79266,48.628674],[6.793539,48.628688],[6.795427,48.629113],[6.79776,48.629802],[6.798039,48.629663],[6.79878,48.629557],[6.802589,48.624668],[6.80276,48.624143],[6.8026,48.623331],[6.803168,48.622597],[6.804133,48.622323],[6.80615,48.621008],[6.806469,48.620636],[6.806674,48.620669],[6.807425,48.620541],[6.813583,48.623137],[6.813691,48.622399],[6.81412,48.621378],[6.814742,48.620357],[6.814935,48.61918],[6.815407,48.617335],[6.815429,48.61647],[6.815686,48.615506],[6.816343,48.614526],[6.817703,48.613122],[6.81924,48.612242],[6.820119,48.611192],[6.821385,48.610497],[6.821584,48.609461],[6.824199,48.607063],[6.82487,48.606256],[6.825679,48.605676],[6.827488,48.604028],[6.829336,48.602547],[6.831814,48.598876],[6.832831,48.597869],[6.830556,48.597614],[6.831093,48.596961],[6.832488,48.597273],[6.833518,48.59743],[6.834097,48.597004],[6.8362,48.595954],[6.83753,48.59462],[6.839247,48.593484],[6.840405,48.593527],[6.841135,48.593243],[6.842101,48.592079],[6.842208,48.591795],[6.841822,48.591313],[6.841671,48.59083],[6.842315,48.590703],[6.842487,48.591086],[6.84371,48.591881],[6.843839,48.592065],[6.844869,48.592477],[6.84504,48.592675],[6.845405,48.592633],[6.845663,48.591866],[6.846049,48.591469],[6.846907,48.591199],[6.847444,48.590376],[6.846263,48.58995],[6.846435,48.589638],[6.845885,48.589339],[6.845834,48.589198],[6.847096,48.589432],[6.847401,48.58917],[6.846735,48.588815],[6.846395,48.588446],[6.846045,48.588287],[6.845645,48.588247],[6.845615,48.588009],[6.844433,48.587999],[6.844548,48.587634],[6.844479,48.586615],[6.843444,48.586737],[6.843283,48.58622],[6.843237,48.585687],[6.844387,48.584242],[6.844571,48.583709],[6.845146,48.583709],[6.845353,48.583527],[6.845284,48.583086],[6.845652,48.582355],[6.845997,48.582097],[6.849654,48.583299],[6.85032,48.583329],[6.851447,48.583131],[6.851976,48.583131],[6.852942,48.583299],[6.854253,48.583451],[6.855127,48.583618],[6.856231,48.583801],[6.857036,48.584105],[6.857841,48.584303],[6.858761,48.584318],[6.859382,48.5845],[6.860209,48.58479],[6.860945,48.584835],[6.862325,48.584805],[6.862877,48.584911],[6.863866,48.585413],[6.864625,48.585702],[6.86566,48.586402],[6.866074,48.586752],[6.866488,48.586752],[6.86704,48.586828],[6.868535,48.586828],[6.869915,48.586722],[6.870696,48.586539],[6.872007,48.586098],[6.873571,48.585276],[6.874629,48.58482],[6.875342,48.584242],[6.876055,48.583983],[6.877251,48.584181],[6.877734,48.58444],[6.878677,48.587619],[6.878677,48.588927],[6.878815,48.589247],[6.879528,48.589521],[6.881298,48.590433],[6.882724,48.590677],[6.883552,48.59057],[6.884012,48.590646],[6.884403,48.590905],[6.884817,48.591346],[6.885829,48.591605],[6.886496,48.591909],[6.887301,48.592791],[6.887922,48.593293],[6.888704,48.592654],[6.88921,48.591954],[6.891003,48.592183],[6.891578,48.592365],[6.894131,48.592791],[6.894545,48.591833],[6.89466,48.591042],[6.895281,48.589642],[6.897857,48.589308],[6.898961,48.589079],[6.899743,48.58914],[6.901651,48.589566],[6.902548,48.589658],[6.902985,48.589521],[6.903445,48.588943],[6.905216,48.589019],[6.907194,48.588988],[6.911311,48.589658],[6.91384,48.588775],[6.915013,48.588182],[6.9166,48.587619],[6.917244,48.587269],[6.919406,48.587482],[6.920809,48.587482],[6.922188,48.588075],[6.922602,48.588562],[6.923315,48.588304],[6.923637,48.58841],[6.923614,48.58806],[6.92412,48.587863],[6.924741,48.587482],[6.925247,48.587482],[6.925937,48.587345],[6.926535,48.587391],[6.927846,48.587847],[6.928053,48.588121],[6.928467,48.588136],[6.929318,48.587634],[6.930721,48.587163],[6.930836,48.58698],[6.930652,48.586646],[6.930721,48.585991],[6.931273,48.5859],[6.932353,48.585398],[6.933917,48.584211],[6.935044,48.583618],[6.935619,48.583177],[6.935941,48.583299],[6.937804,48.583025],[6.939,48.582416],[6.940058,48.582021],[6.941507,48.58196],[6.942426,48.581503],[6.941713,48.580966],[6.941127,48.580729],[6.940347,48.580622],[6.940851,48.580299],[6.942363,48.579621],[6.944022,48.581041],[6.943762,48.581181],[6.943941,48.581353],[6.944266,48.581342],[6.94503,48.581493],[6.945404,48.581461],[6.945615,48.581633],[6.945924,48.581557]]],"type":"MultiLineString"},"properties":{"geo_point":{"lon":6.558638397082223,"lat":48.62729017324273},"name":"GR534 De Nancy à Cirey-sur-Vezouze (Meurthe-et-Moselle) (2020)","code_gr":"GR534"}}]}