{"type":"FeatureCollection","features":[{"type":"Feature","geometry":{"coordinates":[[[7.940916,49.03464],[7.940916,49.03464],[7.939372,49.035857],[7.938429,49.035821],[7.936587,49.03599],[7.934768,49.036075],[7.935133,49.035315],[7.935154,49.034682],[7.934425,49.03363],[7.933609,49.032804],[7.933094,49.033032],[7.931635,49.03267],[7.929447,49.032656],[7.928932,49.032892],[7.928159,49.032677],[7.926464,49.032937],[7.92582,49.033782],[7.92508,49.033521],[7.924388,49.033504],[7.923184,49.03282],[7.922559,49.033008],[7.921969,49.032304],[7.91964,49.031531],[7.918449,49.031383],[7.917387,49.03063],[7.915885,49.030082],[7.913761,49.029455],[7.910907,49.028942],[7.90874,49.028661],[7.904255,49.028379],[7.903397,49.02852],[7.902088,49.028421],[7.902034,49.028154],[7.901101,49.027704],[7.900822,49.028168],[7.899985,49.028365],[7.899438,49.028829],[7.898612,49.028703],[7.898151,49.028928],[7.895372,49.029406],[7.893634,49.029434],[7.891509,49.02904],[7.891702,49.029491],[7.889675,49.028914],[7.890136,49.029688],[7.889074,49.029329],[7.888521,49.028981],[7.887754,49.028998],[7.885383,49.027626],[7.886955,49.027299],[7.887078,49.026874],[7.88769,49.026874],[7.887239,49.026388],[7.887164,49.026153],[7.886376,49.025887],[7.885456,49.025825],[7.885489,49.025533],[7.885334,49.025619],[7.8853,49.025459],[7.885304,49.025093],[7.88563,49.024721],[7.884589,49.024608],[7.88431,49.02439],[7.881676,49.023718],[7.880671,49.023601],[7.878698,49.023556],[7.877723,49.023419],[7.875947,49.022593],[7.875738,49.022434],[7.874762,49.022375],[7.87386,49.022237],[7.871688,49.02293],[7.870749,49.022955],[7.869982,49.022881],[7.868891,49.022406],[7.868454,49.022059],[7.86804,49.020793],[7.867348,49.020767],[7.864795,49.021724],[7.863958,49.021689],[7.863936,49.02178],[7.862531,49.021499],[7.861774,49.021055],[7.860331,49.020387],[7.858824,49.019923],[7.856887,49.019965],[7.851083,49.018361],[7.851255,49.019824],[7.850997,49.020957],[7.849345,49.022582],[7.840569,49.024496],[7.838831,49.025305],[7.838144,49.025833],[7.83661,49.026128],[7.835033,49.026269],[7.832072,49.026276],[7.830934,49.026001],[7.830494,49.026212],[7.830226,49.027155],[7.829411,49.027183],[7.827437,49.027451],[7.825892,49.027774],[7.825398,49.027999],[7.825881,49.02852],[7.825613,49.029336],[7.824937,49.030004],[7.823767,49.03056],[7.823134,49.030883],[7.822904,49.031425],[7.823282,49.032385],[7.822613,49.032893],[7.822287,49.033514],[7.821933,49.033711],[7.821708,49.034218],[7.820474,49.03478],[7.81917,49.035118],[7.817995,49.035653],[7.817116,49.036525],[7.816461,49.037552],[7.81637,49.038318],[7.816558,49.038972],[7.814433,49.040492],[7.813725,49.041181],[7.813521,49.041863],[7.81379,49.042826],[7.813167,49.043347],[7.81306,49.043924],[7.813253,49.045077],[7.812695,49.046286],[7.812749,49.046961],[7.812583,49.048438],[7.812156,49.049036],[7.811567,49.049482],[7.811451,49.049816],[7.810989,49.049922],[7.809589,49.050706],[7.807717,49.051996],[7.806296,49.052045],[7.805003,49.051996],[7.803232,49.052474],[7.800228,49.053459],[7.798598,49.054274],[7.794392,49.053501],[7.793383,49.053213],[7.7926,49.053086],[7.791195,49.053135],[7.791055,49.053234],[7.789468,49.051616],[7.788384,49.050815],[7.787644,49.050498],[7.786635,49.050716],[7.785809,49.051701],[7.784135,49.05329],[7.782601,49.054155],[7.781238,49.054598],[7.780402,49.054345],[7.778814,49.052959],[7.777912,49.051522],[7.776389,49.050463],[7.775681,49.049718],[7.775091,49.048959],[7.77493,49.04848],[7.774393,49.047805],[7.774522,49.047355],[7.775166,49.047102],[7.774061,49.046406],[7.773342,49.045569],[7.773261,49.044539],[7.772881,49.044212],[7.77287,49.043459],[7.771636,49.042341],[7.76986,49.042148],[7.768694,49.041517],[7.767227,49.040871],[7.766368,49.040105],[7.766207,49.039716],[7.766347,49.039243],[7.765617,49.03886],[7.765006,49.038508],[7.764952,49.037861],[7.764137,49.037608],[7.762849,49.037312],[7.76169,49.036398],[7.760655,49.035985],[7.758976,49.035881],[7.758064,49.035505],[7.757018,49.035429],[7.754341,49.035635],[7.752737,49.035517],[7.750404,49.035695],[7.749073,49.036243],[7.748816,49.036862],[7.748794,49.03803],[7.748118,49.038557],[7.74733,49.038695],[7.745297,49.038382],[7.743805,49.037594],[7.743344,49.037087],[7.742303,49.038002],[7.741161,49.038487],[7.740147,49.038691],[7.737937,49.038536],[7.737154,49.038135],[7.735882,49.036388],[7.735641,49.035259],[7.735834,49.034035],[7.73533,49.033507],[7.734391,49.0333],[7.733216,49.033444],[7.732862,49.033831],[7.733114,49.034728],[7.733774,49.03599],[7.733763,49.03637],[7.733114,49.036813],[7.732615,49.037763],[7.732583,49.038761],[7.731607,49.04111],[7.730534,49.042601],[7.729525,49.0418],[7.728377,49.041258],[7.727637,49.041181],[7.726682,49.041286],[7.725261,49.041128],[7.724676,49.040899],[7.723957,49.040906],[7.722933,49.040601],[7.722444,49.040745],[7.722316,49.041589],[7.722262,49.042222],[7.721886,49.042714],[7.721854,49.043094],[7.720894,49.043804],[7.719362,49.044412],[7.717423,49.044444],[7.716458,49.044099],[7.714891,49.043727],[7.712928,49.04367],[7.711174,49.043839],[7.709524,49.043825],[7.70796,49.044064],[7.707124,49.045288],[7.705911,49.045801],[7.705988,49.045952],[7.705598,49.046453],[7.704899,49.04689],[7.703809,49.047144],[7.702947,49.047551],[7.703321,49.047093],[7.703923,49.046688],[7.703825,49.046411],[7.703433,49.046216],[7.702371,49.046125],[7.701351,49.045864],[7.700622,49.045344],[7.7003,49.044233],[7.699903,49.04353],[7.699227,49.043051],[7.698394,49.041475],[7.69815,49.040559],[7.6975,49.039599],[7.69691,49.038227],[7.694453,49.03732],[7.692811,49.037059],[7.69176,49.036553],[7.69132,49.036159],[7.690971,49.035962],[7.69099,49.034893],[7.69027,49.034738],[7.689588,49.033606],[7.688026,49.032065],[7.687543,49.031214],[7.687468,49.03018],[7.687039,49.029477],[7.686428,49.02923],[7.684191,49.027546],[7.683051,49.02683],[7.681782,49.02534],[7.679422,49.024081],[7.676868,49.023103],[7.676879,49.022838],[7.679272,49.021555],[7.679883,49.021597],[7.681305,49.021829],[7.681969,49.021868],[7.682392,49.021537],[7.682233,49.020795],[7.682683,49.020471],[7.68204,49.019986],[7.681525,49.019163],[7.681804,49.018614],[7.681846,49.017643],[7.682694,49.01632],[7.683327,49.015631],[7.683048,49.014688],[7.682737,49.013984],[7.684344,49.013325],[7.685645,49.013101],[7.683863,49.012872],[7.684475,49.012767],[7.684888,49.012306],[7.685556,49.011984],[7.685451,49.011549],[7.684593,49.011],[7.684443,49.009748],[7.685384,49.008429],[7.685742,49.008131],[7.685628,49.007192],[7.685157,49.00636],[7.686202,49.006778],[7.684507,49.004779],[7.684765,49.004441],[7.684555,49.003522],[7.684636,49.002648],[7.684566,49.001767],[7.684035,49.001101],[7.68367,49.000443],[7.68264,49.000063],[7.683263,48.99931],[7.683222,48.998754],[7.683016,48.998328],[7.68249,48.997726],[7.681739,48.997389],[7.681031,48.997459],[7.680666,48.997022],[7.680099,48.997217],[7.67955,48.997543],[7.678585,48.99722],[7.677759,48.996396],[7.677253,48.995894],[7.67689,48.995291],[7.676587,48.994635],[7.67631,48.993387],[7.67566,48.993814],[7.675367,48.99423],[7.675253,48.994859],[7.674867,48.99509],[7.674505,48.995683],[7.673843,48.99584],[7.673156,48.995516],[7.673092,48.99508],[7.672416,48.994355],[7.672335,48.993908],[7.671847,48.993193],[7.671432,48.992779],[7.670749,48.992384],[7.669871,48.992213],[7.666895,48.992096],[7.665799,48.992259],[7.664509,48.992334],[7.663318,48.992834],[7.662121,48.993316],[7.660925,48.994453],[7.660406,48.994336],[7.660099,48.994868],[7.659037,48.995178],[7.658415,48.99508],[7.657621,48.994446],[7.655947,48.994193],[7.655121,48.994006],[7.654796,48.993685],[7.654129,48.993504],[7.653715,48.99332],[7.652042,48.992996],[7.64996,48.99339],[7.647787,48.994006],[7.646935,48.993763],[7.645261,48.992714],[7.641527,48.98942],[7.639618,48.987209],[7.638116,48.986237],[7.636227,48.985618],[7.634339,48.985505],[7.634712,48.98485],[7.632086,48.985998],[7.63082,48.985942],[7.629361,48.986068],[7.627996,48.985746],[7.626744,48.985277],[7.625524,48.985287],[7.622305,48.985672],[7.62155,48.985702],[7.620166,48.985357],[7.618439,48.985238],[7.617624,48.984942],[7.616765,48.984026],[7.615392,48.982266],[7.614126,48.981766],[7.614523,48.981756],[7.615029,48.981258],[7.615412,48.980946],[7.615108,48.980903],[7.615293,48.980747],[7.615029,48.980747],[7.615319,48.980573],[7.614949,48.980582],[7.615134,48.9804],[7.614883,48.980348],[7.615121,48.980209],[7.613959,48.979966],[7.614249,48.979776],[7.614315,48.979385],[7.614381,48.979238],[7.61421,48.978917],[7.614355,48.978415],[7.614659,48.978458],[7.614831,48.977868],[7.614989,48.977574],[7.615187,48.977548],[7.615174,48.977426],[7.615398,48.977452],[7.615346,48.977279],[7.61557,48.977261],[7.615583,48.977123],[7.615742,48.977105],[7.615649,48.976932],[7.6159,48.976958],[7.615861,48.976733],[7.616072,48.976637],[7.616085,48.976394],[7.616191,48.976178],[7.616244,48.97597],[7.616693,48.975701],[7.616759,48.975484],[7.616933,48.975416],[7.617393,48.975521],[7.617233,48.975968],[7.617854,48.975429],[7.617974,48.975666],[7.618534,48.975232],[7.618795,48.975324],[7.619595,48.974995],[7.620376,48.974838],[7.620636,48.974614],[7.620917,48.9751],[7.621057,48.974535],[7.621557,48.974115],[7.622538,48.973799],[7.623499,48.973445],[7.62424,48.973011],[7.624601,48.972406],[7.6245,48.971762],[7.624881,48.970488],[7.624781,48.96966],[7.62408,48.968582],[7.62384,48.967438],[7.623579,48.966755],[7.623539,48.966308],[7.623199,48.965572],[7.623119,48.965125],[7.623099,48.964599],[7.622959,48.964021],[7.623079,48.963574],[7.62398,48.963062],[7.624761,48.962575],[7.625381,48.961971],[7.626022,48.96105],[7.626442,48.960722],[7.627083,48.960564],[7.627484,48.960209],[7.627944,48.959696],[7.628445,48.959578],[7.629085,48.959079],[7.629806,48.958763],[7.631007,48.958566],[7.632068,48.958474],[7.632749,48.958145],[7.633069,48.957514],[7.635091,48.955582],[7.634911,48.955306],[7.634911,48.954701],[7.635151,48.954162],[7.635492,48.953728],[7.635832,48.953518],[7.636012,48.95315],[7.637574,48.952926],[7.639196,48.952282],[7.638995,48.952032],[7.638295,48.952216],[7.637694,48.95219],[7.637314,48.952348],[7.637053,48.952282],[7.636413,48.952256],[7.635192,48.952019],[7.634851,48.951532],[7.632869,48.952413],[7.630587,48.953715],[7.630166,48.95407],[7.628905,48.955293],[7.627383,48.956528],[7.627518,48.956692],[7.626711,48.95778],[7.626937,48.957222],[7.626867,48.95712],[7.627008,48.956646],[7.626966,48.956283],[7.626753,48.95632],[7.626527,48.956636],[7.6263,48.956283],[7.625882,48.955582],[7.625281,48.95641],[7.624861,48.9552],[7.62386,48.955214],[7.62448,48.956252],[7.62436,48.956647],[7.622679,48.957567],[7.621798,48.957869],[7.620777,48.957882],[7.619375,48.957672],[7.615912,48.956975],[7.615091,48.957067],[7.614911,48.957475],[7.615551,48.95825],[7.616352,48.959802],[7.615122,48.959027],[7.613392,48.957393],[7.613331,48.955919],[7.613999,48.9555],[7.614027,48.955376],[7.612719,48.955356],[7.610994,48.955628],[7.608971,48.953619],[7.608856,48.953091],[7.607568,48.951444],[7.60674,48.950704],[7.605958,48.950266],[7.605291,48.949224],[7.605475,48.948363],[7.604969,48.947367],[7.604233,48.946913],[7.603175,48.946536],[7.602186,48.946022],[7.601542,48.945901],[7.600944,48.945992],[7.600163,48.947004],[7.598944,48.947034],[7.59738,48.948167],[7.596598,48.948303],[7.594965,48.948122],[7.593792,48.948273],[7.59255,48.948801],[7.591814,48.949602],[7.590756,48.949708],[7.589791,48.949572],[7.5894,48.949798],[7.589354,48.950161],[7.588871,48.950568],[7.587997,48.952426],[7.586525,48.953725],[7.585582,48.954057],[7.583627,48.95451],[7.582592,48.954404],[7.581005,48.954042],[7.579993,48.953921],[7.579074,48.953785],[7.578361,48.953498],[7.578062,48.953166],[7.577119,48.953181],[7.575785,48.953695],[7.574313,48.95368],[7.571001,48.954269],[7.569828,48.954525],[7.568219,48.955175],[7.566149,48.954389],[7.564608,48.953604],[7.563458,48.952819],[7.562469,48.952003],[7.560123,48.950765],[7.559249,48.950433],[7.556996,48.9493],[7.553891,48.948998],[7.552258,48.9493],[7.551315,48.9493],[7.550234,48.948801],[7.550073,48.949406],[7.549475,48.948892],[7.549406,48.949647],[7.549038,48.949254],[7.548855,48.949587],[7.548349,48.949828],[7.547245,48.949828],[7.546325,48.949949],[7.545175,48.949844],[7.544462,48.950115],[7.544048,48.949874],[7.543105,48.949677],[7.542622,48.949768],[7.542185,48.949617],[7.541656,48.949692],[7.541265,48.950085],[7.540805,48.951203],[7.540207,48.952275],[7.539402,48.952773],[7.538092,48.95229],[7.537057,48.952079],[7.536735,48.950916],[7.53639,48.950825],[7.536183,48.950387],[7.535033,48.949496],[7.532066,48.948439],[7.530985,48.947925],[7.531238,48.947412],[7.531238,48.94708],[7.530663,48.946702],[7.529973,48.946385],[7.528754,48.946234],[7.527766,48.945856],[7.526455,48.945146],[7.525351,48.944844],[7.524661,48.944436],[7.523649,48.944361],[7.523097,48.943334],[7.523074,48.942609],[7.523258,48.941959],[7.522867,48.941113],[7.522039,48.940433],[7.521142,48.93992],[7.518888,48.939874],[7.517693,48.940297],[7.516635,48.940766],[7.514381,48.94214],[7.513967,48.94282],[7.512817,48.943364],[7.512081,48.943364],[7.51146,48.943258],[7.511345,48.942926],[7.510356,48.942004],[7.509528,48.941884],[7.508194,48.94208],[7.507849,48.942125],[7.507505,48.942337],[7.506884,48.942367],[7.50578,48.942019],[7.505711,48.941642],[7.505389,48.941294],[7.505458,48.940796],[7.505205,48.940328],[7.505205,48.939935],[7.505136,48.939708],[7.50532,48.939074],[7.504975,48.938651],[7.503664,48.937865],[7.502169,48.93566],[7.499846,48.93433],[7.498673,48.933378],[7.49665,48.933016],[7.495937,48.933091],[7.494948,48.933333],[7.494166,48.932986],[7.494488,48.932759],[7.493522,48.93288],[7.492809,48.932638],[7.490187,48.931173],[7.489083,48.930719],[7.487887,48.930085],[7.486255,48.92948],[7.486416,48.928468],[7.485795,48.926806],[7.486577,48.924509],[7.483104,48.922862],[7.48246,48.922651],[7.482368,48.922333],[7.481411,48.922231],[7.481861,48.921653],[7.481968,48.920793],[7.479758,48.920554],[7.479672,48.920257],[7.479179,48.920257],[7.478728,48.919524],[7.47817,48.919073],[7.476518,48.919383],[7.475553,48.91982],[7.475145,48.9203],[7.475123,48.920962],[7.473621,48.921033],[7.473085,48.921315],[7.471647,48.921442],[7.470102,48.921752],[7.469459,48.921667],[7.469501,48.921428],[7.469695,48.921089],[7.469437,48.92092],[7.46933,48.920723],[7.468858,48.920596],[7.468815,48.920427],[7.468965,48.919877],[7.468193,48.919228],[7.468214,48.918819],[7.467506,48.918523],[7.463644,48.917212],[7.463365,48.91607],[7.461026,48.916831],[7.457335,48.91834],[7.456648,48.918382],[7.45564,48.918636],[7.452464,48.918001],[7.450769,48.917818],[7.448022,48.917776],[7.446542,48.917494],[7.444847,48.917451],[7.44283,48.917212],[7.441392,48.916859],[7.44004,48.916211],[7.439182,48.915125],[7.438602,48.914998],[7.437615,48.91418],[7.436135,48.91339],[7.434096,48.912262],[7.431457,48.910612],[7.429376,48.911162],[7.428367,48.911571],[7.427208,48.911825],[7.426929,48.911599],[7.427466,48.911204],[7.427337,48.910936],[7.425277,48.910245],[7.424355,48.910259],[7.423882,48.910443],[7.421651,48.910795],[7.42135,48.910499],[7.42017,48.910006],[7.418497,48.910527],[7.41811,48.910471],[7.417724,48.910485],[7.417252,48.909752],[7.417316,48.909442],[7.416909,48.907791],[7.41693,48.906973],[7.416222,48.906677],[7.415707,48.906169],[7.414999,48.905958],[7.413368,48.905831],[7.412167,48.905873],[7.4103,48.905605],[7.408433,48.905478],[7.407832,48.90521],[7.407446,48.904548],[7.406995,48.903913],[7.40721,48.902869],[7.406759,48.902051],[7.406545,48.901162],[7.404785,48.90057],[7.404184,48.900302],[7.402468,48.899611],[7.401073,48.899286],[7.399528,48.898666],[7.397919,48.897565],[7.397683,48.89765],[7.397017,48.89717],[7.397768,48.896691],[7.398219,48.895731],[7.397983,48.895379],[7.39749,48.895407],[7.397146,48.894927],[7.397039,48.894532],[7.396696,48.894377],[7.396052,48.894321],[7.395709,48.894109],[7.395258,48.89346],[7.394164,48.893333],[7.393842,48.893164],[7.393842,48.892938],[7.391481,48.891203],[7.388928,48.890582],[7.387834,48.889524],[7.387984,48.888903],[7.388444,48.888757],[7.388197,48.888417],[7.388222,48.887996],[7.383465,48.883911],[7.380704,48.882258],[7.37856,48.880994],[7.376933,48.879438],[7.375553,48.877573],[7.374099,48.877103],[7.371461,48.876763],[7.369662,48.876698],[7.368922,48.876503],[7.368134,48.875969],[7.365028,48.875742],[7.363722,48.875482],[7.36,48.875661],[7.35931,48.875531],[7.359852,48.875077],[7.358595,48.875028],[7.357412,48.874882],[7.354799,48.874801],[7.353838,48.872872],[7.352876,48.872159],[7.351816,48.871721],[7.349278,48.870975],[7.348193,48.870311],[7.3477,48.870181],[7.34701,48.870181],[7.346172,48.869646],[7.343732,48.869289],[7.339862,48.868333],[7.337496,48.867327],[7.336017,48.866436],[7.335968,48.865738],[7.335179,48.864976],[7.334612,48.863971],[7.334612,48.862917],[7.335154,48.861993],[7.33471,48.861506],[7.335109,48.86077],[7.33503,48.860388],[7.333656,48.860492],[7.332678,48.860283],[7.330697,48.859797],[7.329535,48.859727],[7.327738,48.859327],[7.326074,48.859571],[7.324119,48.859519],[7.321927,48.859275],[7.321347,48.859323],[7.320776,48.859355],[7.320826,48.858868],[7.320602,48.857916],[7.319808,48.857422],[7.319604,48.85692],[7.319781,48.856585],[7.3194,48.856391],[7.319486,48.854414],[7.318241,48.854005],[7.31558,48.85337],[7.313885,48.851294],[7.313842,48.850525],[7.313435,48.849755],[7.31322,48.849148],[7.312469,48.848103],[7.312791,48.847538],[7.312533,48.847016],[7.312147,48.847065],[7.312523,48.846292],[7.313327,48.845886],[7.31528,48.84614],[7.315108,48.845879],[7.315666,48.846003],[7.315344,48.845768],[7.315656,48.845891],[7.315559,48.845547],[7.316857,48.846303],[7.317597,48.846423],[7.317748,48.845279],[7.317415,48.844573],[7.316562,48.843853],[7.316396,48.843514],[7.314701,48.843041],[7.313832,48.842903],[7.311997,48.841452],[7.31072,48.840244],[7.309594,48.840195],[7.309411,48.839348],[7.308757,48.838867],[7.307727,48.838613],[7.305324,48.838472],[7.300131,48.838995],[7.299015,48.838684],[7.298522,48.838098],[7.298157,48.83713],[7.298041,48.835715],[7.297341,48.835999],[7.297038,48.835369],[7.295839,48.83481],[7.294989,48.833981],[7.290406,48.832112],[7.290659,48.831658],[7.289325,48.831159],[7.287715,48.831083],[7.286473,48.830689],[7.284633,48.830159],[7.282908,48.829236],[7.28146,48.828539],[7.281391,48.82804],[7.281758,48.825966],[7.281827,48.824966],[7.281988,48.824194],[7.282047,48.823741],[7.28194,48.823148],[7.281865,48.822002],[7.281964,48.82131],[7.281785,48.818922],[7.281946,48.818413],[7.282723,48.817481],[7.28382,48.816718],[7.284617,48.816463],[7.284199,48.815715],[7.283823,48.815531],[7.285111,48.815277],[7.285947,48.814641],[7.286452,48.813687],[7.287111,48.813026],[7.286849,48.812578],[7.287653,48.812373],[7.288823,48.811673],[7.291344,48.809335],[7.291768,48.808759],[7.292859,48.807793],[7.293994,48.806303],[7.294638,48.806141],[7.295861,48.806017],[7.299616,48.805399],[7.300238,48.805053],[7.302191,48.803336],[7.303006,48.802933],[7.304894,48.802477],[7.306611,48.801696],[7.307684,48.800163],[7.30895,48.799251],[7.308939,48.798912],[7.308226,48.798693],[7.307641,48.798219],[7.308499,48.79805],[7.30998,48.798071],[7.31087,48.798406],[7.31108,48.798716],[7.311589,48.798276],[7.312619,48.798021],[7.312791,48.797788],[7.31234,48.796551],[7.312158,48.795173],[7.31226,48.794442],[7.311997,48.792749],[7.312566,48.790756],[7.312657,48.789589],[7.313024,48.788554],[7.312834,48.785836],[7.311654,48.784698],[7.311353,48.783998],[7.310946,48.782117],[7.311611,48.781326],[7.313456,48.78076],[7.316353,48.778639],[7.316374,48.777975],[7.315312,48.776469],[7.314035,48.775288],[7.313671,48.773725],[7.313681,48.771905],[7.313864,48.770338],[7.314379,48.769525],[7.316889,48.767633],[7.316692,48.767201],[7.315611,48.767262],[7.316439,48.766079],[7.318477,48.764738],[7.320655,48.763302],[7.321631,48.762333],[7.321674,48.761548],[7.322039,48.761453],[7.322683,48.76031],[7.32485,48.759334],[7.326095,48.75845],[7.32661,48.757541],[7.326781,48.756703],[7.32809,48.755897],[7.330086,48.754921],[7.3303,48.753761],[7.33191,48.752587],[7.333701,48.751738],[7.334533,48.751667],[7.336995,48.750662],[7.339956,48.748936],[7.341662,48.748321],[7.343154,48.747988],[7.343438,48.747658],[7.342381,48.74737],[7.342473,48.746976],[7.343163,48.746642],[7.343346,48.746051],[7.344887,48.745459],[7.350406,48.745074],[7.352616,48.746192],[7.353518,48.746121],[7.355642,48.745654],[7.356157,48.744345],[7.357015,48.743461],[7.357026,48.742647],[7.357581,48.74197],[7.358823,48.741632],[7.359762,48.740928],[7.359306,48.740716],[7.355974,48.740772],[7.354703,48.740461],[7.351436,48.740206],[7.350846,48.739959],[7.349757,48.739269],[7.349526,48.738805],[7.348647,48.73589],[7.348314,48.735182],[7.348362,48.733923],[7.346543,48.732492],[7.345968,48.731718],[7.344979,48.730854],[7.344243,48.730353],[7.343209,48.729003],[7.343806,48.728366],[7.341668,48.727729],[7.340426,48.727031],[7.339345,48.726151],[7.340587,48.726742],[7.341461,48.726682],[7.340909,48.72653],[7.339012,48.725034],[7.33758,48.723628],[7.336539,48.723196],[7.336051,48.722791],[7.335772,48.721694],[7.334039,48.719743],[7.332907,48.71768],[7.332484,48.717287],[7.332329,48.716792],[7.331745,48.716467],[7.331135,48.71542],[7.331159,48.714063],[7.331631,48.711713],[7.330794,48.710622],[7.329308,48.708863],[7.328251,48.707982],[7.327881,48.707431],[7.327559,48.707544],[7.327409,48.707275],[7.326787,48.70719],[7.325799,48.707304],[7.325799,48.707035],[7.325349,48.706964],[7.325649,48.706454],[7.325542,48.705803],[7.325778,48.705406],[7.326572,48.705208],[7.326722,48.704741],[7.326159,48.702792],[7.32507,48.702843],[7.325199,48.702418],[7.326154,48.702105],[7.327369,48.70099],[7.327811,48.699733],[7.327328,48.698579],[7.327232,48.697453],[7.32764,48.697014],[7.326379,48.696541],[7.3264,48.694756],[7.325692,48.692858],[7.323782,48.691569],[7.322645,48.690167],[7.320349,48.688467],[7.318311,48.687207],[7.316551,48.686852],[7.31595,48.68647],[7.315462,48.685827],[7.315264,48.685007],[7.314392,48.683903],[7.31372,48.68282],[7.313113,48.682459],[7.312501,48.682307],[7.312067,48.681997],[7.311718,48.681375],[7.311289,48.681191],[7.311128,48.680631],[7.310672,48.680407],[7.310136,48.680245],[7.309186,48.680299],[7.307748,48.680631],[7.306783,48.680571],[7.30519,48.680011],[7.302781,48.678855],[7.301697,48.678145],[7.301043,48.678188],[7.299621,48.67784],[7.298007,48.676756],[7.297266,48.676586],[7.296081,48.676756],[7.294651,48.677224],[7.293979,48.677146],[7.291998,48.677706],[7.291129,48.677231],[7.290668,48.676289],[7.290893,48.67512],[7.291211,48.674629],[7.290604,48.674067],[7.288601,48.673066],[7.288328,48.672484],[7.287873,48.670681],[7.28757,48.67038],[7.287509,48.669619],[7.287145,48.668937],[7.284907,48.667886],[7.284593,48.667447],[7.283764,48.666752],[7.282828,48.665746],[7.282435,48.665186],[7.281205,48.664572],[7.280146,48.664326],[7.278759,48.663521],[7.27863,48.663011],[7.279274,48.662317],[7.279253,48.661778],[7.279821,48.661204],[7.279709,48.660754],[7.278695,48.659936],[7.278223,48.659284],[7.277283,48.658816],[7.276372,48.658776],[7.274946,48.659357],[7.274543,48.658384],[7.274929,48.657547],[7.275583,48.657264],[7.274854,48.656902],[7.273652,48.656768],[7.273202,48.656534],[7.272472,48.655329],[7.272547,48.654989],[7.271297,48.653897],[7.269747,48.653954],[7.26915,48.654827],[7.26715,48.654532],[7.266517,48.653555],[7.266244,48.652202],[7.265584,48.650878],[7.266153,48.650261],[7.266635,48.648851],[7.266002,48.648532],[7.264726,48.648525],[7.264297,48.648241],[7.263052,48.646965],[7.262966,48.646441],[7.262322,48.647192],[7.261722,48.648213],[7.26126,48.649099],[7.259898,48.649758],[7.259222,48.650474],[7.258374,48.650821],[7.257666,48.650963],[7.255756,48.650467],[7.255241,48.649804],[7.253675,48.649184],[7.252559,48.648114],[7.251401,48.647759],[7.249404,48.647386],[7.249631,48.646935],[7.249953,48.646548],[7.249309,48.646259],[7.249194,48.645515],[7.249539,48.644573],[7.250114,48.644238],[7.250022,48.643813],[7.250183,48.643327],[7.250482,48.642932],[7.249148,48.642521],[7.247903,48.641748],[7.247388,48.640911],[7.247366,48.639975],[7.24815,48.639316],[7.249185,48.639213],[7.250886,48.638345],[7.252173,48.637579],[7.253986,48.637168],[7.258138,48.635807],[7.258921,48.63541],[7.259619,48.635325],[7.260499,48.63363],[7.260391,48.632712],[7.260155,48.631935],[7.26021,48.630591],[7.260992,48.63085],[7.265133,48.630801],[7.26596,48.630631],[7.267682,48.629879],[7.267923,48.629283],[7.268878,48.629829],[7.270004,48.630063],[7.270884,48.630007],[7.27348,48.629368],[7.274231,48.628645],[7.276791,48.628053],[7.276515,48.628874],[7.278033,48.628691],[7.279122,48.628789],[7.279725,48.628645],[7.280625,48.62806],[7.282507,48.629039],[7.284328,48.629634],[7.286571,48.630044],[7.287292,48.630058],[7.288433,48.630455],[7.290715,48.630825],[7.293178,48.630931],[7.29596,48.630613],[7.299084,48.630071],[7.299364,48.629793],[7.298864,48.628854],[7.298423,48.628007],[7.298663,48.627596],[7.299324,48.627094],[7.299224,48.62675],[7.300906,48.626061],[7.302487,48.625638],[7.302948,48.625254],[7.303088,48.624182],[7.303588,48.623322],[7.303488,48.622303],[7.303307,48.622064],[7.302684,48.621142],[7.299594,48.619922],[7.298843,48.618915],[7.297191,48.617596],[7.295255,48.616876],[7.293189,48.616355],[7.291805,48.615695],[7.290303,48.615546],[7.285518,48.613486],[7.283372,48.612262],[7.282782,48.611929],[7.28172,48.609226],[7.281892,48.607034],[7.282621,48.605381],[7.284445,48.60487],[7.285829,48.604884],[7.287809,48.604963],[7.288136,48.604643],[7.288404,48.603153],[7.288675,48.602324],[7.287939,48.602605],[7.288052,48.601668],[7.287373,48.601069],[7.288251,48.599983],[7.287713,48.59989],[7.288335,48.598541],[7.285929,48.595826],[7.283936,48.594554],[7.283494,48.594253],[7.283596,48.593937],[7.283579,48.593504],[7.282929,48.592986],[7.282418,48.592163],[7.281135,48.591506],[7.28054,48.590452],[7.280143,48.589963],[7.28028,48.589319],[7.280889,48.588306],[7.281347,48.587151],[7.281334,48.58679],[7.282064,48.585839],[7.282643,48.58613],[7.28289,48.586957],[7.283464,48.587626],[7.283802,48.588451],[7.284435,48.588749],[7.286098,48.589132],[7.286537,48.588618],[7.286248,48.588189],[7.287396,48.586879],[7.286591,48.586805],[7.285593,48.586329],[7.285481,48.58541],[7.285926,48.584406],[7.285765,48.584051],[7.285089,48.583724],[7.282772,48.581496],[7.282954,48.580836],[7.282943,48.580034],[7.283085,48.579805],[7.282863,48.579647],[7.282833,48.579375],[7.282697,48.57926],[7.283099,48.5791],[7.28389,48.579496],[7.284554,48.580027],[7.284821,48.579949],[7.284783,48.57953],[7.285483,48.579356],[7.285243,48.579255],[7.284874,48.579317],[7.284767,48.579136],[7.28451,48.57928],[7.284349,48.579103],[7.284209,48.578146],[7.285282,48.577258],[7.285583,48.576825],[7.285003,48.57532],[7.285207,48.574426],[7.28488,48.57378],[7.285153,48.573177],[7.285132,48.572673],[7.285744,48.572193],[7.286355,48.570238],[7.285819,48.569741],[7.286419,48.56896],[7.288512,48.567781],[7.289493,48.567348],[7.289319,48.567018],[7.293028,48.565197],[7.294766,48.565147],[7.296311,48.564842],[7.297728,48.56487],[7.298779,48.564331],[7.30027,48.564061],[7.303264,48.564501],[7.303736,48.563379],[7.304294,48.562882],[7.304916,48.562087],[7.305538,48.561874],[7.306354,48.561171],[7.306268,48.560791],[7.306933,48.560156],[7.307974,48.558849],[7.308113,48.558068],[7.308907,48.557351],[7.309379,48.557088],[7.310699,48.555952],[7.310452,48.555469],[7.311332,48.555256],[7.312276,48.554184],[7.315237,48.551815],[7.317018,48.550546],[7.317898,48.549603],[7.318745,48.549489],[7.319614,48.54983],[7.319936,48.54988],[7.319454,48.549564],[7.319558,48.549229],[7.319877,48.549008],[7.319746,48.548276],[7.318822,48.547327],[7.318756,48.54652],[7.319614,48.54657],[7.320215,48.546808],[7.321331,48.546989],[7.322708,48.547547],[7.323841,48.547266],[7.324294,48.546573],[7.324803,48.54616],[7.325341,48.546048],[7.326162,48.54541],[7.326247,48.544904],[7.325455,48.544398],[7.32486,48.544323],[7.324888,48.544061],[7.326524,48.54348],[7.326331,48.54277],[7.325408,48.541719],[7.325322,48.539844],[7.3244,48.539275],[7.323509,48.539147],[7.323262,48.538238],[7.323756,48.536731],[7.323584,48.536107],[7.323944,48.535031],[7.324381,48.534464],[7.325419,48.533898],[7.325859,48.532569],[7.325912,48.531503],[7.325231,48.531027],[7.323925,48.530803],[7.323305,48.530409],[7.322983,48.529784],[7.323573,48.529301],[7.322935,48.528739],[7.322833,48.528022],[7.32028,48.527823],[7.318102,48.528562],[7.317463,48.528903],[7.316593,48.529161],[7.315696,48.529346],[7.313249,48.530694],[7.31196,48.53203],[7.311194,48.532661],[7.309943,48.533243],[7.30927,48.533688],[7.308373,48.534579],[7.307664,48.534888],[7.306151,48.535271],[7.305497,48.535519],[7.303909,48.535815],[7.303012,48.536335],[7.301948,48.535902],[7.301387,48.535469],[7.29938,48.534906],[7.297545,48.534189],[7.295951,48.533985],[7.294825,48.533997],[7.293146,48.534381],[7.29136,48.534349],[7.290831,48.534123],[7.290087,48.534096],[7.289287,48.533871],[7.288458,48.533848],[7.287106,48.533294],[7.285153,48.532825],[7.284081,48.532967],[7.282922,48.533961],[7.281012,48.53389],[7.27965,48.533663],[7.278802,48.533379],[7.278072,48.533329],[7.27657,48.532821],[7.275154,48.532569],[7.274017,48.532782],[7.272193,48.533919],[7.272107,48.534736],[7.271506,48.535173],[7.270562,48.53561],[7.270026,48.535993],[7.268953,48.536036],[7.267719,48.536206],[7.266373,48.537329],[7.26585,48.538444],[7.265159,48.538561],[7.264148,48.538492],[7.262108,48.53892],[7.262151,48.539595],[7.259533,48.539506],[7.258846,48.540257],[7.257409,48.54042],[7.256325,48.539791],[7.256722,48.539389],[7.257323,48.538352],[7.257441,48.537592],[7.257902,48.536817],[7.254941,48.537442],[7.255263,48.537016],[7.253385,48.537535],[7.25125,48.539446],[7.250993,48.539915],[7.25125,48.540412],[7.250392,48.539957],[7.249963,48.539005],[7.249448,48.53973],[7.249255,48.540454],[7.250081,48.541641],[7.251401,48.542742],[7.251261,48.543225],[7.249856,48.544134],[7.24948,48.545228],[7.249743,48.546599],[7.250135,48.547401],[7.251486,48.549134],[7.253675,48.550753],[7.252699,48.550753],[7.251846,48.550512],[7.249789,48.550278],[7.247731,48.550242],[7.245156,48.550583],[7.244674,48.551435],[7.243847,48.552373],[7.242989,48.554034],[7.242828,48.551741],[7.242925,48.549944],[7.242552,48.549609],[7.241165,48.549478],[7.240061,48.54929],[7.240061,48.548841],[7.239353,48.548766],[7.238645,48.549609],[7.237654,48.54974],[7.237286,48.549628],[7.236097,48.54974],[7.233605,48.549253],[7.232275,48.549215],[7.231454,48.549347],[7.230585,48.548849],[7.229307,48.548784],[7.22893,48.548166],[7.228296,48.547973],[7.226426,48.547204],[7.225351,48.546023],[7.223109,48.545988],[7.219514,48.545895],[7.217916,48.546506],[7.215244,48.546634],[7.21327,48.546378],[7.212283,48.546023],[7.211189,48.546116],[7.210459,48.546464],[7.209869,48.54716],[7.210674,48.548268],[7.210856,48.54917],[7.21076,48.550484],[7.210019,48.551016],[7.207627,48.551591],[7.203915,48.551464],[7.200224,48.550952],[7.198722,48.550185],[7.197992,48.549617],[7.19546,48.548708],[7.192628,48.547543],[7.190461,48.545498],[7.189817,48.545057],[7.190353,48.544787],[7.191126,48.543736],[7.191662,48.542088],[7.191727,48.540753],[7.189474,48.538551],[7.188873,48.536604],[7.18809,48.535979],[7.184646,48.535155],[7.183766,48.534729],[7.183144,48.534047],[7.181277,48.533137],[7.17941,48.532796],[7.174668,48.531205],[7.172179,48.530722],[7.170484,48.530025],[7.168359,48.527652]]],"type":"MultiLineString"},"properties":{"geo_point":{"lon":7.465850818190396,"lat":48.81922235205685},"name":"GR53 De Wissembourg au Donon (Bas-Rhin) (2019)","code_gr":"GR53"}}]}