{"type":"FeatureCollection","features":[{"type":"Feature","geometry":{"coordinates":[[[6.901532,45.466656],[6.901372,45.466375],[6.900611,45.466052],[6.900151,45.465785],[6.89969,45.465785],[6.89915,45.465476],[6.89895,45.464676],[6.89939,45.464114],[6.899971,45.463511],[6.901092,45.462865],[6.900511,45.461896],[6.900852,45.461376],[6.900792,45.460857],[6.89923,45.458862],[6.899791,45.458497],[6.900491,45.458947],[6.900992,45.459087],[6.901272,45.459031],[6.900912,45.458891],[6.900611,45.45861],[6.901032,45.458287],[6.901472,45.458174],[6.902173,45.457613],[6.902073,45.457276],[6.902433,45.456812],[6.902293,45.456222],[6.902333,45.455267],[6.902593,45.454326],[6.903194,45.453203],[6.903835,45.452613],[6.905016,45.451307],[6.905296,45.451068],[6.906317,45.450857],[6.907378,45.45038],[6.908079,45.450282],[6.90926,45.449762],[6.910101,45.449481],[6.910942,45.448807],[6.912223,45.448414],[6.912924,45.448161],[6.913164,45.44802],[6.913505,45.447992],[6.913785,45.447838],[6.914826,45.447599],[6.915066,45.447234],[6.915447,45.447149],[6.915547,45.446953],[6.915807,45.446911],[6.915887,45.446686],[6.916107,45.446588],[6.916528,45.446054],[6.916928,45.446138],[6.917429,45.445885],[6.917589,45.445478],[6.91869,45.444748],[6.919351,45.444453],[6.920312,45.443933],[6.920392,45.443638],[6.920652,45.443568],[6.920592,45.443343],[6.920952,45.443315],[6.921013,45.443104],[6.921253,45.442964],[6.921453,45.4425],[6.921673,45.442374],[6.922134,45.441503],[6.922074,45.441011],[6.921853,45.440885],[6.921913,45.440688],[6.922014,45.440435],[6.921773,45.440393],[6.921493,45.439901],[6.921053,45.439719],[6.920732,45.43948],[6.920692,45.439227],[6.919911,45.438553],[6.919751,45.43823],[6.91901,45.437808],[6.91879,45.437415],[6.91835,45.437204],[6.917469,45.436305],[6.916988,45.436221],[6.916168,45.435785],[6.916147,45.435308],[6.915967,45.43483],[6.915887,45.434156],[6.915767,45.433875],[6.915567,45.432132],[6.915327,45.431669],[6.914586,45.431458],[6.914205,45.431219],[6.914085,45.430896],[6.913825,45.43084],[6.913725,45.430643],[6.913425,45.430699],[6.913244,45.430222],[6.912744,45.429927],[6.912123,45.428789],[6.911563,45.428634],[6.911082,45.428409],[6.910462,45.428423],[6.910362,45.427847],[6.910221,45.427636],[6.910301,45.427187],[6.910261,45.426737],[6.909981,45.426597],[6.909421,45.426091],[6.90896,45.425711],[6.90854,45.425641],[6.90858,45.42529],[6.908259,45.425163],[6.908079,45.424896],[6.908279,45.424756],[6.908059,45.424433],[6.907659,45.424264],[6.906778,45.42366],[6.905777,45.422592],[6.905116,45.422325],[6.904776,45.42196],[6.904656,45.421412],[6.904495,45.421201],[6.904455,45.420892],[6.904135,45.420484],[6.904075,45.420091],[6.904135,45.419683],[6.903815,45.419149],[6.903875,45.418924],[6.903254,45.418151],[6.903174,45.417772],[6.903154,45.417027],[6.903354,45.416577],[6.903334,45.416226],[6.903154,45.415664],[6.903074,45.41527],[6.903514,45.414244],[6.903615,45.413668],[6.903394,45.413443],[6.902974,45.412389],[6.902613,45.411954],[6.901933,45.411701],[6.901572,45.411448],[6.901392,45.411504],[6.900732,45.411532],[6.900211,45.411181],[6.900171,45.410899],[6.900351,45.410632],[6.900571,45.410365],[6.900651,45.409705],[6.900872,45.409311],[6.900892,45.409044],[6.901012,45.408918],[6.900491,45.408665],[6.900251,45.40889],[6.89963,45.408735],[6.89941,45.408946],[6.898269,45.408566],[6.897388,45.407906],[6.896527,45.407147],[6.895646,45.406163],[6.895446,45.405868],[6.894906,45.405446],[6.894625,45.404856],[6.894165,45.404546],[6.893444,45.404307],[6.893104,45.40435],[6.891922,45.404082],[6.891582,45.404054],[6.890921,45.403661],[6.88978,45.40345],[6.88912,45.403169],[6.888499,45.402831],[6.887998,45.402663],[6.886897,45.402058],[6.886277,45.401566],[6.886176,45.401313],[6.886337,45.400821],[6.886497,45.400161],[6.886957,45.399711],[6.886076,45.398586],[6.885636,45.398249],[6.885256,45.398164],[6.884675,45.397911],[6.883754,45.397574],[6.883534,45.397349],[6.882653,45.397082],[6.883714,45.39718],[6.883754,45.396955],[6.883334,45.396857],[6.883013,45.396604],[6.882493,45.396491],[6.882232,45.396365],[6.881772,45.396224],[6.881331,45.396224],[6.881251,45.396084],[6.880631,45.396084],[6.879029,45.395521],[6.878428,45.395409],[6.878609,45.395071],[6.877868,45.394861],[6.877548,45.394664],[6.877067,45.394636],[6.876426,45.394368],[6.875686,45.393876],[6.875365,45.393525],[6.874504,45.39337],[6.873964,45.393469],[6.873123,45.393455],[6.872562,45.393384],[6.872122,45.393384],[6.871101,45.39323],[6.869699,45.393314],[6.868398,45.393483],[6.866716,45.393412],[6.866376,45.393511],[6.865535,45.393314],[6.861691,45.392836],[6.857507,45.392878],[6.855345,45.39271],[6.854824,45.39278],[6.853983,45.392611],[6.853523,45.392808],[6.852642,45.392695],[6.852662,45.39247],[6.851841,45.392456],[6.8507,45.392203],[6.85052,45.392091],[6.849178,45.391711],[6.848858,45.391697],[6.848578,45.391528],[6.848277,45.39143],[6.847096,45.390783],[6.846115,45.390165],[6.844854,45.389813],[6.844133,45.389518],[6.843232,45.38897],[6.842171,45.38821],[6.84141,45.387845],[6.84113,45.387634],[6.840669,45.387381],[6.840429,45.387114],[6.840069,45.386903],[6.839508,45.386621],[6.839288,45.38634],[6.838827,45.386017],[6.838727,45.385679],[6.837866,45.384962],[6.837386,45.384569],[6.836665,45.383739],[6.836045,45.383261],[6.835504,45.3826],[6.835224,45.38208],[6.834503,45.379886],[6.834403,45.379],[6.834002,45.377678],[6.834163,45.376511],[6.833862,45.376398],[6.833802,45.376229],[6.833001,45.375793],[6.832801,45.375456],[6.832681,45.375456],[6.832321,45.374936],[6.832081,45.375836],[6.83192,45.375695],[6.8317,45.376159],[6.83154,45.3763],[6.8314,45.376047],[6.83146,45.375751],[6.83122,45.375006],[6.830879,45.374373],[6.830599,45.374359],[6.830419,45.374922],[6.830199,45.375273],[6.830078,45.375132],[6.829858,45.375583],[6.829518,45.375498],[6.829057,45.376454],[6.828877,45.376567],[6.828797,45.376384],[6.828477,45.376609],[6.828297,45.377059],[6.828016,45.377369],[6.827896,45.37803],[6.827556,45.378747],[6.827215,45.379197],[6.827356,45.379478],[6.827576,45.379591],[6.827576,45.379886],[6.827396,45.38028],[6.827296,45.380687],[6.826735,45.381011],[6.826014,45.381095],[6.825073,45.381461],[6.824252,45.381672],[6.822911,45.382164],[6.822831,45.382319],[6.82159,45.382586],[6.819067,45.383036],[6.818266,45.383247],[6.817626,45.383247],[6.816805,45.38319],[6.816364,45.383261],[6.815984,45.383162],[6.815503,45.383247],[6.814943,45.38343],[6.814402,45.383528],[6.814102,45.383823],[6.813321,45.383894],[6.81246,45.384104],[6.8118,45.38402],[6.811339,45.384076],[6.810839,45.384006],[6.810118,45.38402],[6.808776,45.384104],[6.808116,45.384386],[6.807235,45.384723],[6.805893,45.38492],[6.804312,45.385243],[6.80293,45.385764],[6.801909,45.385989],[6.801149,45.386242],[6.800328,45.386425],[6.799667,45.386762],[6.799327,45.387114],[6.798866,45.387339],[6.798426,45.387676],[6.797865,45.388028],[6.797485,45.388562],[6.796784,45.389054],[6.796444,45.389363],[6.796344,45.389588],[6.795843,45.389687],[6.795242,45.389954],[6.794842,45.390263],[6.794442,45.390924],[6.793901,45.391233],[6.79272,45.391697],[6.790978,45.392217],[6.790978,45.392344],[6.790698,45.392864],[6.790477,45.393314],[6.790037,45.393666],[6.789557,45.393778],[6.789396,45.394144],[6.789356,45.394889],[6.789516,45.395282],[6.788896,45.396112],[6.789036,45.396351],[6.788916,45.397068],[6.788636,45.397194],[6.788535,45.39756],[6.788275,45.397672],[6.788135,45.397883],[6.787915,45.39801],[6.787975,45.398221],[6.787875,45.398488],[6.787214,45.398769],[6.786994,45.398839],[6.786834,45.398994],[6.786073,45.399247],[6.783871,45.39957],[6.784611,45.399008],[6.78345,45.39912],[6.782349,45.399134],[6.782029,45.399205],[6.781568,45.399205],[6.780847,45.399303],[6.779446,45.39964],[6.778645,45.399668],[6.778445,45.399289],[6.778105,45.399148],[6.777864,45.399345],[6.777384,45.399458],[6.777864,45.398811],[6.777224,45.398375],[6.774201,45.397222],[6.7738,45.397194],[6.77312,45.397068],[6.772519,45.396815],[6.771157,45.39666],[6.770697,45.396393],[6.770617,45.396112],[6.770777,45.395873],[6.770657,45.395831],[6.770216,45.395971],[6.769095,45.395817],[6.768575,45.395817],[6.768034,45.395929],[6.767914,45.39569],[6.767414,45.395817],[6.767334,45.395606],[6.767654,45.395381],[6.767514,45.395114],[6.766633,45.39472],[6.765812,45.394607],[6.765351,45.394242],[6.765091,45.394383],[6.765131,45.394579],[6.764471,45.394326],[6.76395,45.393947],[6.76385,45.394045],[6.76359,45.393961],[6.76349,45.3942],[6.763189,45.394087],[6.762929,45.394129],[6.762629,45.394073],[6.762268,45.39389],[6.762328,45.393736],[6.762048,45.393455],[6.761648,45.393272],[6.761127,45.392794],[6.760466,45.39233],[6.758925,45.391908],[6.758464,45.391683],[6.757704,45.391528],[6.757003,45.39105],[6.756642,45.390966],[6.755181,45.390024],[6.75444,45.389743],[6.75414,45.38949],[6.75388,45.389448],[6.75388,45.389757],[6.753579,45.389869],[6.752778,45.389673],[6.751717,45.389138],[6.750856,45.388871],[6.750176,45.38911],[6.749175,45.388534],[6.748054,45.388056],[6.748054,45.387859],[6.747713,45.387915],[6.747173,45.38769],[6.746612,45.387732],[6.746832,45.387564],[6.746512,45.387535],[6.746232,45.387606],[6.745551,45.387549],[6.745811,45.387367],[6.74487,45.387282],[6.745371,45.387071],[6.745311,45.386973],[6.74501,45.386973],[6.74439,45.38686],[6.743249,45.386804],[6.742187,45.386537],[6.741987,45.386382],[6.742007,45.386242],[6.741247,45.386031],[6.741226,45.38589],[6.741647,45.385567],[6.741727,45.385398],[6.741387,45.385426],[6.740906,45.385117],[6.740706,45.384878],[6.740366,45.384765],[6.740105,45.384315],[6.739685,45.38409],[6.738143,45.383444],[6.736662,45.382572],[6.735894,45.382063],[6.735683,45.381784],[6.735247,45.381599],[6.735141,45.381339],[6.734864,45.381033],[6.73456,45.381053],[6.734389,45.380898],[6.734149,45.380821],[6.734099,45.38068],[6.73382,45.380532],[6.7336,45.380468],[6.733418,45.380348],[6.733026,45.380242],[6.732543,45.380016],[6.732141,45.379964],[6.732017,45.379899],[6.731919,45.379685],[6.731588,45.379636],[6.731631,45.379452],[6.731466,45.37941],[6.731039,45.379544],[6.730673,45.379544],[6.730394,45.379397],[6.730097,45.379501],[6.729914,45.379501],[6.72979,45.379427],[6.729642,45.379531],[6.729161,45.379505],[6.728791,45.379618],[6.728619,45.379869],[6.728483,45.38025],[6.728224,45.38038],[6.72815,45.380328],[6.728274,45.380098],[6.727929,45.380245],[6.727103,45.380367],[6.726937,45.380492],[6.726961,45.38067],[6.726721,45.38047],[6.726431,45.380315],[6.726171,45.380153],[6.72553,45.380139],[6.724389,45.380111],[6.723688,45.3799],[6.723961,45.379453],[6.723615,45.378915],[6.722948,45.378634],[6.723268,45.378086],[6.723889,45.376047],[6.723528,45.375962],[6.723168,45.375695],[6.723388,45.375667],[6.723308,45.375442],[6.722367,45.374767],[6.721826,45.37464],[6.721506,45.374331],[6.721166,45.374148],[6.720845,45.373796],[6.720565,45.37381],[6.720485,45.373923],[6.719704,45.373712],[6.719124,45.373951],[6.718683,45.373853],[6.718103,45.373445],[6.718043,45.37329],[6.718183,45.373107],[6.718043,45.372657],[6.717462,45.372474],[6.717162,45.372235],[6.717082,45.371996],[6.716921,45.371827],[6.716761,45.371209],[6.716441,45.370998],[6.71592,45.370871],[6.714939,45.370421],[6.714699,45.369901],[6.714058,45.369816],[6.713598,45.369155],[6.713398,45.368775],[6.711656,45.367397],[6.710995,45.367003],[6.710395,45.3663],[6.710134,45.366187],[6.709754,45.365639],[6.709654,45.365034],[6.709654,45.364415],[6.709454,45.364021],[6.709374,45.363585],[6.708913,45.363261],[6.708453,45.363036],[6.707872,45.36253],[6.707151,45.362263],[6.707231,45.36208],[6.707532,45.361925],[6.706911,45.361784],[6.706551,45.361123],[6.70625,45.361025],[6.70613,45.361489],[6.705089,45.360659],[6.704829,45.359984],[6.704949,45.35914],[6.704809,45.358901],[6.704729,45.358605],[6.704368,45.357958],[6.704068,45.357466],[6.703427,45.356875],[6.703367,45.356607],[6.703047,45.356185],[6.702987,45.355834],[6.703107,45.355482],[6.702907,45.354736],[6.702647,45.354159],[6.702546,45.353175],[6.702607,45.352823],[6.702546,45.352316],[6.702326,45.351951],[6.702326,45.351416],[6.702246,45.350952],[6.702306,45.350614],[6.702887,45.349756],[6.702907,45.349066],[6.702827,45.348883],[6.702827,45.348658],[6.702506,45.348095],[6.701686,45.347434],[6.701525,45.347223],[6.701465,45.346913],[6.700264,45.346154],[6.699563,45.345563],[6.698682,45.344451],[6.69821,45.344041],[6.697729,45.343773],[6.697589,45.343566],[6.697404,45.343214],[6.697642,45.343],[6.69674,45.342678],[6.69646,45.341988],[6.69594,45.341468],[6.695739,45.340877],[6.69588,45.3403],[6.695339,45.339624],[6.695139,45.33916],[6.695019,45.338611],[6.694818,45.338316],[6.693817,45.337527],[6.693497,45.337049],[6.693097,45.336852],[6.692696,45.336556],[6.692536,45.336641],[6.692536,45.337021],[6.692416,45.337133],[6.692216,45.336768],[6.691595,45.336458],[6.691355,45.335937],[6.690814,45.335402],[6.690734,45.335121],[6.690294,45.334671],[6.690294,45.33384],[6.690134,45.333573],[6.690074,45.332897],[6.690274,45.332531],[6.690254,45.332151],[6.690014,45.331799],[6.690054,45.329871],[6.689973,45.328773],[6.689713,45.328055],[6.690034,45.327746],[6.690434,45.327535],[6.690674,45.327197],[6.690714,45.326901],[6.690374,45.326479],[6.690094,45.325649],[6.689753,45.325254],[6.689573,45.324987],[6.689593,45.324663],[6.689193,45.324368],[6.688892,45.323847],[6.688892,45.323227],[6.688632,45.322974],[6.688152,45.3222],[6.687811,45.321327],[6.687231,45.320327],[6.686089,45.319229],[6.685289,45.318582],[6.684228,45.317625],[6.683146,45.316555],[6.682826,45.315949],[6.682706,45.315499],[6.682265,45.315231],[6.681985,45.314907],[6.681325,45.314401],[6.680724,45.314218],[6.678902,45.313274],[6.678261,45.313105],[6.677521,45.312627],[6.6766,45.31212],[6.676099,45.312035],[6.674437,45.311486],[6.673176,45.310839],[6.672595,45.310388],[6.671154,45.309783],[6.670633,45.309585],[6.669893,45.309191],[6.669152,45.308698],[6.668671,45.307966],[6.668411,45.307149],[6.668031,45.30622],[6.668291,45.305826],[6.667871,45.305277],[6.66753,45.304333],[6.66777,45.3037],[6.667911,45.302798],[6.66775,45.301179],[6.66777,45.300855],[6.66775,45.300376],[6.66751,45.300137],[6.66739,45.299616],[6.66741,45.299306],[6.66691,45.298743],[6.666669,45.298377],[6.666309,45.298039],[6.665648,45.29763],[6.665108,45.297348],[6.663406,45.296912],[6.662785,45.296461],[6.662365,45.29625],[6.663106,45.29556],[6.663026,45.295405],[6.662165,45.295489],[6.661724,45.295715],[6.661964,45.295264],[6.662545,45.294729],[6.662625,45.294335],[6.662885,45.293785],[6.663146,45.292926],[6.663126,45.292687],[6.663866,45.292757],[6.663766,45.291997],[6.663826,45.291701],[6.663586,45.291194],[6.663553,45.290951],[6.663388,45.290479],[6.663118,45.290755],[6.662769,45.290289],[6.662569,45.289866],[6.662481,45.289768],[6.662281,45.289388],[6.662325,45.289191],[6.662264,45.289001],[6.662264,45.28886],[6.662185,45.28867],[6.662255,45.288517],[6.662455,45.288284],[6.662272,45.288272],[6.662325,45.288051],[6.662211,45.28802],[6.662377,45.287702],[6.66249,45.287597],[6.662534,45.287413],[6.662307,45.286623],[6.662325,45.286016],[6.662211,45.285464],[6.662359,45.285041],[6.66202,45.284593],[6.662124,45.28436],[6.661854,45.284041],[6.661898,45.283367],[6.661837,45.283195],[6.661959,45.283023],[6.662002,45.282576],[6.661828,45.281999],[6.661985,45.28195],[6.661924,45.28165],[6.661776,45.281558],[6.661845,45.281441],[6.661688,45.281417],[6.66181,45.28127],[6.661671,45.281172],[6.661793,45.281006],[6.66181,45.28092],[6.661636,45.280847],[6.661749,45.280608],[6.661331,45.280319],[6.661322,45.279945],[6.661401,45.279761],[6.661035,45.279154],[6.660974,45.278934],[6.660712,45.278835],[6.660442,45.278486],[6.660416,45.278155],[6.660207,45.277554],[6.660163,45.277241],[6.660163,45.276928],[6.660277,45.276511],[6.660547,45.276174],[6.66059,45.275524],[6.660468,45.274997],[6.660111,45.27477],[6.660137,45.274678],[6.659972,45.274586],[6.660068,45.274524],[6.659824,45.274334],[6.659858,45.274163],[6.659789,45.274009],[6.659667,45.273991],[6.659649,45.273893],[6.659754,45.273856],[6.659527,45.273396],[6.659379,45.273365],[6.659379,45.273169],[6.659179,45.272899],[6.659179,45.272654],[6.658943,45.272525],[6.659004,45.272212],[6.658856,45.272169],[6.658926,45.272047],[6.658682,45.271593],[6.65876,45.271323],[6.658534,45.271004],[6.65802,45.270728],[6.657627,45.270593],[6.657819,45.270274],[6.65781,45.270103],[6.658037,45.269704],[6.658124,45.269042],[6.658185,45.268962],[6.658298,45.268919],[6.658359,45.268809],[6.658542,45.268661],[6.658621,45.26852],[6.658847,45.268398],[6.658804,45.268251],[6.659283,45.267962],[6.658861,45.267499],[6.658805,45.267302],[6.658964,45.267184],[6.658973,45.266921],[6.658842,45.266842],[6.658992,45.26675],[6.658702,45.266697],[6.658711,45.266605],[6.658786,45.266395],[6.658571,45.265777],[6.658824,45.265264],[6.658908,45.264922],[6.65888,45.264817],[6.658964,45.264712],[6.658889,45.264646],[6.658824,45.264416],[6.658571,45.264173],[6.658394,45.26412],[6.658385,45.263706],[6.657964,45.263384],[6.657964,45.263121],[6.657759,45.262345],[6.657899,45.262115],[6.657852,45.26176],[6.657946,45.261675],[6.65789,45.261537],[6.657974,45.261333],[6.657656,45.261228],[6.65803,45.261037],[6.657796,45.260998],[6.657871,45.260886],[6.657787,45.260702],[6.65802,45.260459],[6.658244,45.259939],[6.658039,45.259755],[6.658142,45.259433],[6.658301,45.258868],[6.65817,45.25848],[6.658254,45.258243],[6.658291,45.257356],[6.658244,45.256928],[6.657862,45.256382],[6.658095,45.255955],[6.65802,45.255725],[6.657852,45.255672],[6.657834,45.255521],[6.657609,45.255363],[6.657693,45.255219],[6.657609,45.255146],[6.65746,45.254936],[6.656741,45.254897],[6.656451,45.254607],[6.656208,45.254482],[6.656012,45.253983],[6.655713,45.253739],[6.65491,45.252773],[6.654695,45.252418],[6.654434,45.252411],[6.65392,45.252076],[6.653873,45.251773],[6.653771,45.251609],[6.653696,45.25105],[6.653406,45.250629],[6.653201,45.250583],[6.652902,45.250458],[6.652519,45.250688],[6.652323,45.250649],[6.652089,45.250728],[6.651772,45.250695],[6.650819,45.250261],[6.650707,45.25011],[6.650502,45.249965],[6.650408,45.249781],[6.650474,45.24965],[6.650277,45.249603],[6.650081,45.249386],[6.649979,45.249064],[6.649773,45.248887],[6.649362,45.248834],[6.649128,45.24862],[6.648944,45.248101],[6.649001,45.247882],[6.648449,45.247314],[6.64852,45.247055],[6.648718,45.246816],[6.64869,45.246487],[6.649029,45.246048],[6.649043,45.245789],[6.648902,45.2456],[6.648605,45.245908],[6.648265,45.245879],[6.648081,45.245799],[6.647883,45.245859],[6.647599,45.245869],[6.647444,45.245918],[6.647302,45.245908],[6.647557,45.245619],[6.64754,45.245421],[6.64758,45.245252],[6.647319,45.245104],[6.647249,45.244921],[6.647089,45.244822],[6.646879,45.244815],[6.646639,45.244766],[6.646418,45.244858],[6.645898,45.244921],[6.645808,45.244766],[6.645668,45.244681],[6.645678,45.244265],[6.645558,45.244026],[6.645427,45.243927],[6.645397,45.243751],[6.645558,45.243589],[6.645437,45.243215],[6.645437,45.242799],[6.645137,45.242257],[6.644887,45.24237],[6.644867,45.242257],[6.644957,45.242088],[6.644817,45.241876],[6.644717,45.241326],[6.644767,45.240678],[6.644907,45.239945],[6.645337,45.238281],[6.645367,45.237696],[6.645527,45.237259],[6.645227,45.236921],[6.645367,45.236202],[6.645257,45.23561],[6.645537,45.234686],[6.646118,45.234327],[6.646629,45.233847],[6.647059,45.233763],[6.647286,45.233263],[6.647726,45.232712],[6.647866,45.232251],[6.648145,45.23207],[6.647651,45.232062],[6.647877,45.231767],[6.649196,45.231065],[6.650795,45.230536],[6.651889,45.229735],[6.652087,45.22942],[6.652469,45.228583],[6.652908,45.228044],[6.653078,45.227466],[6.653366,45.226935],[6.653914,45.226395],[6.653749,45.225939],[6.653732,45.225615],[6.65361,45.225425],[6.653584,45.225204],[6.653444,45.225179],[6.653322,45.224743],[6.653166,45.22443],[6.653096,45.224314],[6.653113,45.223847],[6.652869,45.223338],[6.653009,45.223203],[6.652939,45.223019],[6.652712,45.222706],[6.652628,45.221805],[6.6528,45.221145],[6.653047,45.220468],[6.653244,45.219557],[6.65317,45.21901],[6.652936,45.218532],[6.652985,45.218176],[6.652985,45.217673],[6.653318,45.217438],[6.653466,45.216865],[6.653971,45.216075],[6.655043,45.21585],[6.655586,45.215693],[6.655672,45.215598],[6.655989,45.215499],[6.657227,45.215524],[6.656756,45.215014],[6.657497,45.214971],[6.658098,45.215303],[6.658368,45.215585],[6.658847,45.215812],[6.659318,45.215886],[6.659126,45.215481],[6.659109,45.214971],[6.659501,45.215174],[6.659797,45.215468],[6.660346,45.215628],[6.660259,45.215456],[6.661418,45.215634],[6.661802,45.21556],[6.66127,45.215241],[6.660904,45.214775],[6.660817,45.214339],[6.661061,45.213762],[6.66134,45.213885],[6.66154,45.214228],[6.661767,45.21437],[6.662804,45.214087],[6.662716,45.21384],[6.662475,45.213742],[6.662325,45.213508],[6.662429,45.21303],[6.662394,45.212633],[6.662268,45.212422],[6.662279,45.211993],[6.662739,45.212252],[6.662923,45.211847],[6.662877,45.211499],[6.662659,45.211337],[6.662808,45.21081],[6.662831,45.210316],[6.663153,45.21004],[6.663084,45.209676],[6.663268,45.20936],[6.663291,45.209003],[6.663395,45.208841],[6.663395,45.208501],[6.66351,45.208128],[6.66374,45.207877],[6.663952,45.20775],[6.664285,45.207074],[6.664212,45.206914],[6.664,45.20692],[6.663862,45.207057],[6.663578,45.207011],[6.663578,45.206805],[6.663765,45.206502],[6.664074,45.206318],[6.664374,45.206043],[6.664618,45.205562],[6.664944,45.205304],[6.665505,45.204915],[6.6662,45.204945],[6.666499,45.204701],[6.667051,45.203924],[6.667626,45.204053],[6.667994,45.203891],[6.668408,45.203519],[6.669029,45.203551],[6.669811,45.203049],[6.670034,45.20317],[6.671119,45.202261]]],"type":"MultiLineString"},"properties":{"geo_point":{"lon":6.764484725225297,"lat":45.351453336384566},"name":"GR55 De Tignes à Modane (Savoie) (2019)","code_gr":"GR55"}}]}