{"type":"FeatureCollection","features":[{"type":"Feature","geometry":{"coordinates":[[[6.604566,45.018607],[6.604727,45.018184],[6.604382,45.017745],[6.603945,45.017501],[6.603784,45.017355],[6.603174,45.017279],[6.602913,45.017159],[6.601962,45.017173],[6.601232,45.017003],[6.600941,45.017109],[6.600671,45.01735],[6.600241,45.017265],[6.598949,45.017399],[6.598289,45.017322],[6.597818,45.01735],[6.597498,45.017293],[6.597288,45.017484],[6.596647,45.017647],[6.595506,45.017633],[6.594945,45.017513],[6.594475,45.017322],[6.593764,45.017131],[6.593293,45.017194],[6.592803,45.017201],[6.592372,45.017364],[6.591305,45.017459],[6.59081,45.017569],[6.590484,45.017539],[6.590024,45.017629],[6.58967,45.017589],[6.588639,45.017279],[6.587808,45.016961],[6.588148,45.01694],[6.587568,45.016664],[6.587307,45.016402],[6.586987,45.016437],[6.586647,45.01643],[6.586286,45.016508],[6.586056,45.016494],[6.585706,45.016557],[6.585195,45.017138],[6.584775,45.017216],[6.584514,45.017145],[6.584244,45.017201],[6.583313,45.016982],[6.583033,45.017003],[6.582572,45.017216],[6.582192,45.017329],[6.581731,45.017598],[6.581441,45.018008],[6.581211,45.018418],[6.580831,45.018553],[6.58021,45.018659],[6.57986,45.018659],[6.579569,45.018751],[6.579369,45.018716],[6.579059,45.018779],[6.578658,45.018772],[6.577687,45.018737],[6.577427,45.018581],[6.576686,45.018532],[6.576463,45.01844],[6.57578,45.018536],[6.574718,45.018601],[6.573853,45.018525],[6.573337,45.018515],[6.573535,45.018021],[6.575644,45.017078],[6.576099,45.017163],[6.576645,45.016777],[6.577464,45.016241],[6.576736,45.016112],[6.577358,45.015801],[6.577313,45.015672],[6.576691,45.01563],[6.575886,45.015426],[6.575886,45.0152],[6.576235,45.014847],[6.57572,45.014589],[6.575355,45.014106],[6.574794,45.014021],[6.574293,45.013817],[6.573626,45.013742],[6.572913,45.013549],[6.572503,45.013484],[6.571957,45.013216],[6.571744,45.013034],[6.571471,45.012916],[6.571228,45.012916],[6.57089,45.012616],[6.57061,45.012488],[6.57045,45.012149],[6.570149,45.011936],[6.569899,45.010762],[6.569669,45.010535],[6.569188,45.00975],[6.568898,45.009587],[6.568748,45.009077],[6.568778,45.008872],[6.568758,45.008412],[6.568618,45.007471],[6.568788,45.007287],[6.568788,45.006685],[6.568608,45.006296],[6.568458,45.005772],[6.568177,45.005319],[6.567537,45.00488],[6.567226,45.004449],[6.566726,45.004045],[6.566295,45.00379],[6.565905,45.003387],[6.565915,45.00321],[6.565204,45.003061],[6.563923,45.002566],[6.563583,45.002254],[6.562992,45.001865],[6.562642,45.001476],[6.562311,45.000895],[6.562101,45.000025],[6.562061,44.999614],[6.562081,44.998942],[6.562291,44.998503],[6.562341,44.998007],[6.562952,44.996889],[6.563142,44.99616],[6.563132,44.99599],[6.563252,44.995544],[6.563182,44.99519],[6.563292,44.994383],[6.563202,44.994121],[6.562842,44.993597],[6.562492,44.993349],[6.562301,44.992769],[6.562381,44.992592],[6.561891,44.992167],[6.561901,44.992026],[6.561751,44.991849],[6.561651,44.991551],[6.561671,44.991381],[6.561541,44.990751],[6.56144,44.990758],[6.561491,44.990617],[6.56139,44.990624],[6.56146,44.990326],[6.561561,44.990199],[6.561481,44.989994],[6.5607,44.98942],[6.56065,44.989194],[6.56057,44.988875],[6.56063,44.988606],[6.56056,44.988535],[6.56054,44.988295],[6.559869,44.988118],[6.559649,44.987948],[6.559539,44.987728],[6.559328,44.987551],[6.559119,44.987294],[6.55925,44.987142],[6.559222,44.986977],[6.558932,44.98664],[6.558428,44.986462],[6.558325,44.98633],[6.558101,44.986217],[6.557877,44.985728],[6.55784,44.985352],[6.557625,44.984863],[6.557391,44.984546],[6.557391,44.984381],[6.557232,44.983971],[6.557148,44.983575],[6.557008,44.98335],[6.557148,44.982908],[6.557092,44.982709],[6.55713,44.982524],[6.55699,44.982359],[6.556885,44.982338],[6.556767,44.982088],[6.556714,44.981875],[6.556263,44.98167],[6.556102,44.981458],[6.556113,44.981329],[6.555662,44.981033],[6.554707,44.981033],[6.554031,44.980699],[6.553774,44.980676],[6.553463,44.980745],[6.552948,44.980752],[6.552358,44.980585],[6.552025,44.980616],[6.551371,44.980411],[6.550856,44.980251],[6.549268,44.980555],[6.548785,44.980365],[6.54842,44.980312],[6.548109,44.980221],[6.547819,44.980274],[6.546876,44.980813],[6.546406,44.981178],[6.546072,44.981479],[6.544737,44.981908],[6.544357,44.982123],[6.542977,44.982498],[6.542582,44.982788],[6.542172,44.982981],[6.541641,44.983507],[6.541323,44.984012],[6.540731,44.984097],[6.540048,44.984022],[6.539411,44.98384],[6.538819,44.983636],[6.537833,44.983507],[6.536862,44.983239],[6.536058,44.983196],[6.535147,44.983217],[6.534814,44.983293],[6.534282,44.983325],[6.533691,44.983421],[6.531809,44.983561],[6.531051,44.98384],[6.530641,44.984237],[6.530535,44.98487],[6.530671,44.985246],[6.53099,44.985793],[6.530853,44.987531],[6.530747,44.987671],[6.530656,44.988369],[6.529503,44.989227],[6.529989,44.989045],[6.529913,44.989409],[6.529533,44.989667],[6.529093,44.989849],[6.529048,44.990161],[6.529442,44.990493],[6.529336,44.990751],[6.529488,44.991416],[6.530611,44.992553],[6.531187,44.993444],[6.532583,44.995064],[6.532583,44.995397],[6.532917,44.995837],[6.532871,44.996137],[6.533236,44.996341],[6.53319,44.996513],[6.532978,44.996727],[6.532871,44.997114],[6.53228,44.998069],[6.53231,44.998551],[6.532234,44.998916],[6.532477,44.999174],[6.532477,44.999474],[6.532659,45.000182],[6.531931,45.000622],[6.531658,45.001362],[6.531627,45.001598],[6.531445,45.001888],[6.531491,45.002103],[6.531187,45.002682],[6.530793,45.003025],[6.530626,45.003615],[6.530413,45.003851],[6.530504,45.004195],[6.530338,45.004527],[6.530474,45.004656],[6.529852,45.004849],[6.529154,45.004667],[6.528911,45.004205],[6.528699,45.004259],[6.528304,45.004484],[6.527986,45.004527],[6.52788,45.004978],[6.52788,45.0053],[6.527773,45.00545],[6.528016,45.005868],[6.528608,45.006093],[6.528699,45.00634],[6.528942,45.006555],[6.529306,45.006898],[6.529154,45.006909],[6.529169,45.007155],[6.529078,45.00722],[6.529124,45.007391],[6.528653,45.00752],[6.528486,45.007703],[6.528304,45.007638],[6.52835,45.008067],[6.528957,45.008475],[6.529291,45.008507],[6.529806,45.008453],[6.530019,45.008614],[6.530413,45.008636],[6.530793,45.008861],[6.530762,45.008915],[6.530398,45.008979],[6.53011,45.009065],[6.529837,45.009011],[6.529215,45.00914],[6.528775,45.009537],[6.528987,45.009891],[6.528335,45.009977],[6.528137,45.010095],[6.526453,45.010534],[6.527622,45.011639],[6.527364,45.012337],[6.52706,45.012669],[6.525786,45.012809],[6.524966,45.01357],[6.524375,45.013935],[6.524132,45.014621],[6.523965,45.01504],[6.524314,45.015318],[6.524344,45.015683],[6.524435,45.016123],[6.524101,45.016917],[6.524056,45.017153],[6.523828,45.017431],[6.523859,45.017828],[6.523783,45.018021],[6.52395,45.018322],[6.52395,45.01859],[6.524344,45.018987],[6.524845,45.019276],[6.524997,45.019308],[6.52527,45.019501],[6.525513,45.019469],[6.526059,45.01978],[6.526226,45.020124],[6.526863,45.020402],[6.526969,45.020649],[6.527667,45.020885],[6.528274,45.021561],[6.528441,45.02199],[6.528411,45.022279],[6.528183,45.022419],[6.52832,45.022622],[6.528183,45.022783],[6.527536,45.022552],[6.526885,45.022642],[6.526686,45.022642],[6.526106,45.022913],[6.525908,45.022943],[6.52571,45.023103],[6.525285,45.023193],[6.524931,45.023223],[6.524676,45.023313],[6.524336,45.023493],[6.523544,45.023803],[6.522921,45.023953],[6.522524,45.023943],[6.522043,45.023903],[6.52125,45.023713],[6.521066,45.023603],[6.520825,45.023683],[6.519212,45.023283],[6.518886,45.023053],[6.518291,45.023023],[6.517343,45.023073],[6.51672,45.023023],[6.516012,45.023093],[6.515106,45.023203],[6.513775,45.023523],[6.513209,45.023613],[6.512954,45.023623],[6.512317,45.023763],[6.511907,45.023893],[6.511425,45.023963],[6.511199,45.023963],[6.510633,45.024063],[6.510024,45.023923],[6.509783,45.023933],[6.508721,45.023683],[6.508509,45.023583],[6.507702,45.023473],[6.507221,45.023423],[6.506739,45.023263],[6.50497,45.022973],[6.504729,45.022873],[6.50354,45.022692],[6.503299,45.022803],[6.50303,45.022853],[6.502945,45.022933],[6.502606,45.023003],[6.502294,45.023233],[6.501756,45.023323],[6.501261,45.023593],[6.500709,45.023703],[6.500355,45.024023],[6.499817,45.024203],[6.49976,45.024364],[6.499873,45.024414],[6.499619,45.024654],[6.499491,45.024884],[6.499265,45.025064],[6.499151,45.025334],[6.498769,45.025594],[6.498783,45.025754],[6.498543,45.026125],[6.49816,45.026425],[6.497637,45.026635],[6.497028,45.026705],[6.496702,45.026905],[6.495216,45.027876],[6.494791,45.028046],[6.494777,45.028156],[6.494381,45.027876],[6.494352,45.027685],[6.494225,45.027655],[6.494041,45.027806],[6.494069,45.028016],[6.493885,45.028296],[6.493828,45.028036],[6.493644,45.027796],[6.493673,45.027625],[6.493531,45.027255],[6.493319,45.027675],[6.49322,45.027305],[6.493276,45.027115],[6.493234,45.026855],[6.493022,45.027095],[6.492979,45.026905],[6.492781,45.027125],[6.492738,45.026685],[6.492413,45.026425],[6.492328,45.026035],[6.492158,45.025844],[6.49213,45.025544],[6.491974,45.025594],[6.491875,45.025404],[6.49162,45.025334],[6.491549,45.025544],[6.491365,45.025904],[6.491252,45.025854],[6.491209,45.025904],[6.491294,45.026165],[6.490997,45.026405],[6.49104,45.026635],[6.490771,45.026445],[6.490771,45.026725],[6.490388,45.026355],[6.490176,45.026715],[6.49002,45.026525],[6.489992,45.026305],[6.489765,45.026205],[6.489666,45.026025],[6.489454,45.025734],[6.489213,45.026014],[6.489157,45.025984],[6.488944,45.026145],[6.488789,45.026065],[6.488137,45.025864],[6.488095,45.026155],[6.487868,45.026285],[6.487656,45.026025],[6.487486,45.026235],[6.487515,45.026445],[6.487005,45.026165],[6.486793,45.026235],[6.48675,45.026395],[6.486538,45.026635],[6.486325,45.026835],[6.486424,45.027035],[6.48641,45.027175],[6.486085,45.027025],[6.485943,45.026855],[6.485816,45.027225],[6.485688,45.027355],[6.485377,45.027195],[6.485221,45.027335],[6.484839,45.027405],[6.484825,45.027675],[6.484556,45.027936],[6.484443,45.028556],[6.484853,45.028776],[6.485391,45.028896],[6.485122,45.028966],[6.48454,45.028977],[6.484906,45.029058],[6.485306,45.029692],[6.485202,45.029994],[6.484975,45.030178],[6.484932,45.030388],[6.484792,45.030579],[6.484958,45.030917],[6.485045,45.031004],[6.485132,45.031158],[6.485768,45.031589],[6.485866,45.03176],[6.48617,45.032031],[6.486381,45.032675],[6.486513,45.032712],[6.486434,45.033039],[6.48642,45.033263],[6.486262,45.033384],[6.486262,45.033496],[6.486117,45.033552],[6.485932,45.033944],[6.485905,45.03429],[6.485628,45.034906],[6.48539,45.035139],[6.485139,45.035251],[6.4851,45.035345],[6.484901,45.035485],[6.484875,45.035699],[6.484545,45.035942],[6.484532,45.036465],[6.48366,45.036959],[6.483462,45.037482],[6.482933,45.038331],[6.482722,45.03849],[6.482696,45.038667],[6.482537,45.038854],[6.482537,45.039041],[6.482326,45.039237],[6.482075,45.039545],[6.48148,45.039703],[6.481018,45.039741],[6.480595,45.039554],[6.480344,45.039563],[6.480041,45.039451],[6.479816,45.039414],[6.479473,45.039321],[6.479169,45.039358],[6.478825,45.039311],[6.478522,45.039367],[6.478152,45.039265],[6.477769,45.03933],[6.477646,45.039422],[6.477803,45.039742],[6.477925,45.03981],[6.478265,45.040297],[6.478579,45.04034],[6.478474,45.04042],[6.478683,45.040457],[6.478596,45.040555],[6.478736,45.040746],[6.4785,45.041202],[6.47864,45.042236],[6.478832,45.042544],[6.478727,45.04279],[6.478814,45.043031],[6.478588,45.043351],[6.478317,45.043566],[6.478082,45.043936],[6.478056,45.044244],[6.47789,45.044404],[6.477699,45.044718],[6.477629,45.044976],[6.477472,45.045383],[6.477324,45.045598],[6.477272,45.045814],[6.477202,45.045918],[6.477045,45.046331],[6.476792,45.046799],[6.476548,45.047002],[6.476278,45.047648],[6.476252,45.047932],[6.476104,45.048172],[6.476174,45.048695],[6.47593,45.049065],[6.475877,45.049225],[6.475642,45.049465],[6.475171,45.050142],[6.474622,45.050351],[6.474134,45.050684],[6.473864,45.051022],[6.473829,45.051281],[6.473603,45.051459],[6.472836,45.051601],[6.472374,45.052094],[6.471921,45.052235],[6.471616,45.052561],[6.471572,45.052931],[6.471111,45.053085],[6.470779,45.053072],[6.470396,45.052839],[6.470056,45.052814],[6.469707,45.0529],[6.469272,45.052931],[6.468984,45.053029],[6.468418,45.053103],[6.468313,45.053239],[6.468069,45.053146],[6.467938,45.053196],[6.468034,45.053436],[6.467285,45.053817],[6.466849,45.053885],[6.466527,45.054094],[6.466117,45.054279],[6.465734,45.054335],[6.465542,45.054421],[6.465887,45.054495],[6.466102,45.054687],[6.466158,45.054885],[6.466233,45.054997],[6.466224,45.055254],[6.466504,45.055479],[6.466616,45.056013],[6.466728,45.056204],[6.466747,45.056382],[6.466821,45.056541],[6.466775,45.056719],[6.466775,45.056891],[6.466737,45.057181],[6.46698,45.057458],[6.466691,45.057781],[6.466663,45.058085],[6.466728,45.058296],[6.466663,45.058494],[6.46684,45.058883],[6.467214,45.059167],[6.467232,45.059332],[6.467447,45.059503],[6.46755,45.059635],[6.468054,45.059853],[6.468129,45.06017],[6.468456,45.06044],[6.46854,45.060836],[6.468727,45.060941],[6.46882,45.061357],[6.469483,45.061515],[6.469707,45.061779],[6.469754,45.06205],[6.469567,45.062175],[6.469119,45.062386],[6.468951,45.062927],[6.469147,45.063422],[6.469418,45.063653],[6.469437,45.063857],[6.469577,45.064088],[6.469502,45.064187],[6.469558,45.064299],[6.469493,45.064431],[6.469997,45.064939],[6.470352,45.065421],[6.470548,45.065942],[6.470697,45.066146],[6.470856,45.066945],[6.470838,45.067334],[6.47122,45.06738],[6.471295,45.067598],[6.471613,45.067736],[6.471743,45.067763],[6.471697,45.067862],[6.471743,45.06806],[6.471678,45.068264],[6.471435,45.06835],[6.471473,45.068548],[6.471753,45.068647],[6.471762,45.068732],[6.471155,45.069049],[6.470838,45.069141],[6.470763,45.069286],[6.470511,45.069656],[6.47061,45.070179],[6.470293,45.070776],[6.470253,45.071102],[6.470266,45.071457],[6.470345,45.071718],[6.470279,45.071979],[6.470174,45.07224],[6.470253,45.072315],[6.470253,45.072455],[6.470332,45.072688],[6.470359,45.072958],[6.470478,45.073332],[6.470887,45.073658],[6.471164,45.073611],[6.471746,45.07391],[6.472221,45.074078],[6.472855,45.074246],[6.473172,45.074395],[6.473383,45.074432],[6.473661,45.0746],[6.474242,45.074665],[6.475272,45.074526],[6.475497,45.074805],[6.475695,45.074861],[6.476171,45.074675],[6.476448,45.074703],[6.477373,45.075552],[6.477359,45.075934],[6.477597,45.076503],[6.477439,45.076848],[6.47728,45.077053],[6.477042,45.07766],[6.47695,45.078331],[6.477214,45.078732],[6.477174,45.078909],[6.476897,45.079068],[6.476659,45.07987],[6.476501,45.080113],[6.47658,45.080766],[6.476461,45.081092],[6.476474,45.081334],[6.476144,45.081698],[6.476244,45.081908],[6.476232,45.082135],[6.476416,45.082195],[6.476503,45.082657],[6.476515,45.083013],[6.476195,45.083823],[6.476182,45.084197],[6.476503,45.084545],[6.477045,45.084858],[6.478117,45.085032],[6.478857,45.08498],[6.479189,45.084937],[6.479473,45.085041],[6.480163,45.084902],[6.480804,45.084554],[6.481667,45.084388],[6.481913,45.084388],[6.482221,45.084197],[6.482591,45.084249],[6.482628,45.084119],[6.483108,45.084223],[6.483293,45.08404],[6.484316,45.084588],[6.48455,45.084641],[6.484686,45.084728],[6.48455,45.085319],[6.484698,45.08538],[6.485552,45.084888],[6.485942,45.084902],[6.487194,45.084613],[6.487544,45.08498],[6.487584,45.084811],[6.487734,45.084803],[6.487764,45.084436],[6.487934,45.084372],[6.488165,45.084203],[6.488455,45.084174],[6.488555,45.084457],[6.488555,45.08469],[6.488615,45.085023],[6.488525,45.085199],[6.488605,45.085362],[6.488565,45.085447],[6.488545,45.085531],[6.488365,45.085539],[6.488315,45.085751],[6.488475,45.086288],[6.488885,45.086691],[6.489026,45.086719],[6.489036,45.08686],[6.489166,45.086994],[6.489686,45.086804],[6.490317,45.086316],[6.490487,45.08633],[6.490867,45.086175],[6.491368,45.08604],[6.491728,45.085864],[6.492039,45.085871],[6.492749,45.085461],[6.49355,45.085199],[6.493881,45.084931],[6.494501,45.08539],[6.494711,45.085369],[6.495773,45.085114],[6.496113,45.08522],[6.496173,45.085312],[6.496663,45.085298],[6.496874,45.085348],[6.497384,45.085341],[6.497746,45.085313],[6.497867,45.085373],[6.497877,45.085478],[6.497989,45.085498],[6.498316,45.085426],[6.498792,45.08567],[6.499334,45.085168],[6.499605,45.085201],[6.499782,45.085386],[6.49982,45.085531],[6.499913,45.085577],[6.500165,45.085327],[6.500856,45.085485],[6.501043,45.085709],[6.501155,45.085656],[6.501426,45.085848],[6.501473,45.086131],[6.50194,45.086092],[6.502341,45.086369],[6.502808,45.086151],[6.503014,45.085722],[6.503686,45.085201],[6.50391,45.085129],[6.504079,45.084905],[6.504293,45.084891],[6.504415,45.084753],[6.504583,45.084733],[6.504788,45.084417],[6.505097,45.084258],[6.505246,45.084285],[6.50547,45.084212],[6.505564,45.084238],[6.505722,45.084153],[6.505834,45.083942],[6.506031,45.083783],[6.506582,45.083421],[6.506899,45.083032],[6.507273,45.082847],[6.507422,45.082497],[6.50773,45.082042],[6.508039,45.081798],[6.508291,45.081363],[6.508562,45.080776],[6.508954,45.080677],[6.509328,45.080671],[6.509692,45.080578],[6.509785,45.080433],[6.509739,45.080249],[6.509804,45.080038],[6.510028,45.080308],[6.510336,45.080433],[6.510523,45.080446],[6.51085,45.080737],[6.511048,45.081008],[6.511369,45.081029],[6.511599,45.0811],[6.511819,45.0811],[6.511849,45.081177],[6.512099,45.081234],[6.51224,45.081312],[6.51235,45.081142],[6.51249,45.081163],[6.51258,45.081269],[6.51272,45.081291],[6.51285,45.08146],[6.51289,45.08163],[6.5131,45.081863],[6.513151,45.082096],[6.513311,45.082266],[6.513381,45.082443],[6.513641,45.082725],[6.513891,45.083164],[6.514162,45.083404],[6.514342,45.083418],[6.514772,45.083559],[6.514952,45.083772],[6.515243,45.083948],[6.515333,45.084125],[6.515743,45.084485],[6.516394,45.085023],[6.516404,45.085171],[6.516554,45.085235],[6.516614,45.085425],[6.516684,45.085546],[6.516924,45.085708],[6.517315,45.085722],[6.517795,45.08592],[6.518206,45.085885],[6.518676,45.085963],[6.519307,45.085807],[6.519547,45.085885],[6.520128,45.086005],[6.520408,45.085977],[6.520868,45.086118],[6.521279,45.086641],[6.52193,45.086804],[6.522961,45.086556],[6.523231,45.086641],[6.523571,45.086846],[6.524052,45.086896],[6.524833,45.086733],[6.525113,45.086719],[6.525513,45.086528],[6.525934,45.086196],[6.526384,45.086012],[6.526494,45.085842],[6.526725,45.085736],[6.526865,45.085567],[6.527185,45.085517],[6.527365,45.085355],[6.527425,45.08515],[6.527635,45.085114],[6.527716,45.08498],[6.52796,45.084945],[6.528175,45.085074],[6.528432,45.085157],[6.528647,45.085134],[6.529001,45.08518],[6.530471,45.084869],[6.530857,45.084756],[6.531919,45.0844],[6.532252,45.084241],[6.532466,45.084082],[6.532724,45.083953],[6.533024,45.084029],[6.533175,45.084006],[6.533518,45.084135],[6.534033,45.084248],[6.534301,45.084392],[6.53473,45.084422],[6.535449,45.084703],[6.53561,45.084831],[6.535943,45.084885],[6.536125,45.085036],[6.536576,45.085203],[6.536812,45.085392],[6.536983,45.085377],[6.537627,45.085809],[6.538464,45.085937],[6.538914,45.085915],[6.539065,45.085831],[6.539193,45.085869],[6.539365,45.085854],[6.53959,45.085945],[6.539826,45.086089],[6.540116,45.086157],[6.540202,45.086293],[6.540095,45.086506],[6.54017,45.086612],[6.540256,45.087036],[6.541736,45.087604],[6.541972,45.087907],[6.542423,45.088255],[6.542948,45.088361],[6.543163,45.088672],[6.543431,45.088839],[6.543463,45.089073],[6.543571,45.089263],[6.543539,45.089407],[6.543667,45.089626],[6.543657,45.08996],[6.543571,45.090088],[6.543345,45.090172],[6.543185,45.090535],[6.543292,45.090906],[6.543163,45.091134],[6.543163,45.091581],[6.542991,45.09174],[6.542884,45.091921],[6.54268,45.09208],[6.542637,45.092315],[6.542788,45.092497],[6.543313,45.092679],[6.544043,45.093391],[6.544343,45.09355],[6.544708,45.093853],[6.545287,45.094171],[6.545867,45.094444],[6.545974,45.094572],[6.5465,45.09486],[6.54724,45.094845],[6.54753,45.095042],[6.547626,45.095262],[6.548184,45.095451],[6.548195,45.09561],[6.548077,45.096413],[6.54857,45.096973],[6.548806,45.097004],[6.549343,45.097344],[6.549675,45.097693],[6.550126,45.097965],[6.550404,45.097935],[6.55073,45.098042],[6.550927,45.097817],[6.551048,45.097576],[6.551428,45.097629],[6.551557,45.09757],[6.551496,45.097437],[6.551663,45.097362],[6.551663,45.097233],[6.551845,45.097121],[6.552118,45.097088],[6.552232,45.097158],[6.55227,45.09727],[6.552482,45.09727],[6.552581,45.09749],[6.552809,45.097581],[6.553059,45.09756],[6.553529,45.097024],[6.554402,45.096639],[6.555267,45.096424],[6.556465,45.096264],[6.557087,45.096012],[6.557497,45.095969],[6.55796,45.095808],[6.558976,45.095675],[6.559219,45.095562],[6.559689,45.095535],[6.559925,45.095294],[6.560418,45.095219],[6.560805,45.094952],[6.561245,45.094775],[6.561267,45.094518],[6.561358,45.094491],[6.561412,45.094341],[6.561503,45.094229],[6.561548,45.094095],[6.562625,45.093693],[6.562845,45.093661],[6.563361,45.093484],[6.563483,45.09349],[6.563581,45.093543],[6.564052,45.093441],[6.564264,45.093511],[6.564514,45.093634],[6.564727,45.093602],[6.564916,45.093661],[6.565106,45.093656],[6.565212,45.093779],[6.565364,45.093789],[6.565979,45.093623],[6.566563,45.093538],[6.566828,45.093307],[6.567094,45.093281],[6.567208,45.093318],[6.567268,45.093393],[6.567534,45.093249],[6.567559,45.093466],[6.567527,45.093678],[6.567974,45.094212],[6.568283,45.09439],[6.568649,45.094413],[6.568917,45.094694],[6.569186,45.094694],[6.56943,45.094602],[6.56973,45.094924],[6.569991,45.094941],[6.570291,45.094895],[6.570836,45.094929],[6.570991,45.094993],[6.571129,45.094998],[6.571145,45.095142],[6.570812,45.095503],[6.57082,45.095567],[6.570958,45.095721],[6.570771,45.095991],[6.570804,45.096123],[6.570983,45.096204],[6.570943,45.096613],[6.570573,45.096761],[6.570093,45.096987],[6.569711,45.096987],[6.56955,45.097196],[6.569244,45.097525],[6.56902,45.097934],[6.569169,45.098066],[6.569599,45.098119],[6.570252,45.09825],[6.570775,45.098501],[6.571728,45.09862],[6.571952,45.098567],[6.572457,45.098778],[6.572681,45.098672],[6.573503,45.098804],[6.5741,45.099108],[6.574642,45.099028],[6.575147,45.099081],[6.575595,45.098857],[6.575819,45.098844],[6.576043,45.099068],[6.576006,45.099279],[6.576137,45.099661],[6.576305,45.09978],[6.576342,45.099925],[6.57679,45.100321],[6.576884,45.100637],[6.577351,45.100954],[6.577687,45.101033],[6.577388,45.101415],[6.577575,45.101811],[6.577388,45.102206],[6.577575,45.102523],[6.57836,45.102773],[6.578602,45.103129],[6.579125,45.103155],[6.579518,45.10334],[6.580097,45.10334],[6.580601,45.103248],[6.580149,45.103624],[6.580051,45.103772],[6.579915,45.103842],[6.57989,45.103946],[6.579718,45.103999],[6.579681,45.104068],[6.57957,45.104094],[6.579434,45.104233],[6.579434,45.104668],[6.579521,45.104694],[6.579558,45.105008],[6.579459,45.105068],[6.57941,45.105225],[6.579052,45.105451],[6.579028,45.105686],[6.578941,45.10579],[6.578917,45.105912],[6.578448,45.106164],[6.578214,45.107095],[6.578855,45.106974],[6.579326,45.106999],[6.579625,45.106771],[6.579947,45.106723],[6.58043,45.106228],[6.581304,45.105903],[6.582385,45.105773],[6.584627,45.105562],[6.585133,45.105449],[6.585421,45.105327],[6.586042,45.105286],[6.586237,45.105165],[6.58672,45.105148],[6.587054,45.105238],[6.587582,45.105286],[6.587916,45.105213],[6.588445,45.105294],[6.588709,45.105262],[6.589112,45.105343],[6.589641,45.105311],[6.590618,45.105392],[6.592067,45.105303],[6.592872,45.10514],[6.59309,45.105197],[6.593309,45.105351],[6.593999,45.105286],[6.594229,45.105351],[6.594539,45.105367],[6.594585,45.105473],[6.594999,45.105854],[6.594999,45.106],[6.595126,45.106211],[6.595057,45.106398],[6.594654,45.106463],[6.594493,45.106755],[6.59401,45.106909],[6.593746,45.107137],[6.593711,45.107267],[6.593481,45.107518],[6.593159,45.108127],[6.593182,45.108273],[6.593079,45.108403],[6.592699,45.108297],[6.592182,45.108386],[6.591826,45.108411],[6.591297,45.108549],[6.591228,45.108646],[6.590871,45.108468],[6.590193,45.108403],[6.58971,45.10846],[6.589595,45.108589],[6.589365,45.108695],[6.589238,45.108865],[6.589261,45.108995],[6.58887,45.109109],[6.588617,45.109442],[6.588272,45.109539],[6.588353,45.109912],[6.588537,45.110058],[6.588514,45.110229],[6.588171,45.110475],[6.587838,45.110566],[6.587774,45.110771],[6.587784,45.111293],[6.588439,45.111293],[6.588707,45.111475],[6.58905,45.111604],[6.589383,45.111649],[6.589522,45.111702],[6.589565,45.1118],[6.589962,45.111823],[6.590263,45.111929],[6.590627,45.111929],[6.591121,45.112028],[6.591411,45.111937],[6.591636,45.111982],[6.59184,45.112126],[6.592323,45.112255],[6.592559,45.112467],[6.592913,45.112618],[6.592923,45.11277],[6.593277,45.112966],[6.593138,45.113292],[6.593739,45.113406],[6.59376,45.113542],[6.593932,45.113602],[6.594018,45.113701],[6.594265,45.113731],[6.594597,45.113951],[6.595166,45.114042],[6.595316,45.114208],[6.595423,45.114375],[6.596045,45.114284],[6.596453,45.114284],[6.596678,45.114413],[6.597397,45.114549],[6.597826,45.114579],[6.59788,45.114905],[6.598331,45.115124],[6.598384,45.115404],[6.599135,45.115624],[6.599393,45.115654],[6.599618,45.11579],[6.600412,45.115949],[6.600766,45.116131],[6.601142,45.116184],[6.60141,45.116298],[6.602644,45.116729],[6.602901,45.116722],[6.603062,45.116896],[6.603684,45.116654],[6.60421,45.116623],[6.604553,45.116752],[6.605026,45.116782],[6.605508,45.117131],[6.605862,45.117827],[6.60612,45.118826],[6.606356,45.11922],[6.606356,45.11947],[6.60671,45.120424],[6.606764,45.121007],[6.606877,45.120697],[6.606998,45.120626],[6.606918,45.12033],[6.606998,45.12004],[6.606918,45.11985],[6.606777,45.119729],[6.606887,45.119383],[6.607059,45.119288],[6.607348,45.119277],[6.607509,45.119334],[6.607804,45.119379],[6.608126,45.119538],[6.608346,45.119553],[6.608496,45.119371],[6.608469,45.11925],[6.608539,45.119065],[6.609113,45.118902],[6.609365,45.118437],[6.609339,45.118039],[6.609483,45.117899],[6.609644,45.117206],[6.609768,45.11696],[6.609548,45.1164],[6.609446,45.11626],[6.609467,45.115931],[6.609296,45.115302],[6.609317,45.114984],[6.609065,45.114742],[6.608925,45.114325],[6.60862,45.114095],[6.608432,45.113996],[6.60826,45.113765],[6.607783,45.113518],[6.607612,45.113357],[6.607068,45.11307],[6.606734,45.112973],[6.606271,45.112542],[6.606246,45.112135],[6.606124,45.111814],[6.606092,45.111492],[6.605946,45.111211],[6.606035,45.111091],[6.605881,45.110769],[6.605734,45.110517],[6.605872,45.110207],[6.605799,45.109851],[6.605848,45.109662],[6.605783,45.109392],[6.605913,45.108973],[6.605962,45.10864],[6.606141,45.108365],[6.606084,45.108101],[6.606474,45.107634],[6.606486,45.107487],[6.606326,45.107408],[6.606141,45.107052],[6.606116,45.106834],[6.605956,45.106443],[6.605993,45.105921],[6.606289,45.105451],[6.606338,45.104938],[6.606585,45.104268],[6.6064,45.103981],[6.606486,45.103477],[6.606671,45.103355],[6.606597,45.102833],[6.606523,45.101902],[6.606585,45.101354],[6.606548,45.100362],[6.606449,45.100101],[6.606535,45.09991],[6.606523,45.099345],[6.60672,45.099014],[6.607004,45.097718],[6.607176,45.097187],[6.607139,45.096387],[6.607275,45.095847],[6.607275,45.095508],[6.607312,45.095325],[6.607262,45.095073],[6.607078,45.094864],[6.60693,45.094412],[6.606954,45.094238],[6.606843,45.094012],[6.606819,45.093533],[6.60688,45.093324],[6.606868,45.093185],[6.606967,45.093072],[6.606831,45.092994],[6.606733,45.092385],[6.606585,45.092184],[6.606634,45.091958],[6.606498,45.09181],[6.606067,45.091776],[6.605784,45.091636],[6.605882,45.091575],[6.605796,45.091471],[6.606129,45.091488],[6.606119,45.09126],[6.606274,45.091183],[6.606211,45.091025],[6.606331,45.091017],[6.606285,45.090891],[6.606406,45.090814],[6.60659,45.090842],[6.606636,45.090769],[6.606579,45.090668],[6.606797,45.09057],[6.606751,45.090387],[6.606791,45.090213],[6.606659,45.089511],[6.606676,45.08936],[6.606533,45.089227],[6.606636,45.089011],[6.606699,45.088764],[6.606872,45.088618],[6.606906,45.08852],[6.607033,45.08839],[6.607228,45.088159],[6.607441,45.088045],[6.607527,45.087712],[6.607723,45.087311],[6.607746,45.087148],[6.607832,45.086953],[6.607734,45.086673],[6.607608,45.086552],[6.607504,45.086012],[6.607343,45.085857],[6.607343,45.085732],[6.607205,45.085663],[6.607292,45.085529],[6.607102,45.085435],[6.60705,45.085289],[6.607355,45.085082],[6.60709,45.085062],[6.606981,45.084968],[6.606958,45.084794],[6.60747,45.084745],[6.607826,45.084546],[6.608033,45.084465],[6.608188,45.084319],[6.608723,45.084059],[6.60908,45.083917],[6.609689,45.083426],[6.609816,45.083288],[6.610057,45.083133],[6.610431,45.082691],[6.610477,45.082281],[6.610563,45.081944],[6.610592,45.081623],[6.610523,45.08138],[6.610517,45.081051],[6.610626,45.080937],[6.610942,45.080673],[6.611167,45.080166],[6.61123,45.079813],[6.611218,45.07961],[6.61127,45.079545],[6.61146,45.079443],[6.611563,45.079252],[6.611466,45.078489],[6.611322,45.077994],[6.611379,45.07786],[6.611397,45.077641],[6.611632,45.077157],[6.611782,45.076946],[6.611914,45.076869],[6.612305,45.076743],[6.612501,45.076658],[6.612897,45.076678],[6.613208,45.076609],[6.613484,45.076463],[6.613719,45.076313],[6.614038,45.076059],[6.614258,45.076047],[6.614467,45.075938],[6.614478,45.075797],[6.61436,45.075631],[6.614381,45.075479],[6.614494,45.07529],[6.614606,45.07524],[6.614622,45.075097],[6.614842,45.075085],[6.614996,45.075052],[6.615244,45.074777],[6.61557,45.074617],[6.616065,45.074492],[6.616433,45.074322],[6.616617,45.074177],[6.617028,45.074007],[6.617877,45.073787],[6.618422,45.073557],[6.619023,45.073263],[6.619387,45.072931],[6.619797,45.07277],[6.62007,45.072299],[6.62054,45.072041],[6.620904,45.071591],[6.621056,45.071345],[6.621602,45.071098],[6.622301,45.070638],[6.622411,45.070645],[6.6229,45.070561],[6.623091,45.070393],[6.623659,45.070155],[6.623164,45.070123],[6.622728,45.07016],[6.622642,45.070048],[6.622939,45.069773],[6.622682,45.069563],[6.62216,45.068859],[6.621757,45.068364],[6.621473,45.068136],[6.621282,45.067907],[6.62115,45.067828],[6.62109,45.067739],[6.620938,45.067669],[6.620853,45.067534],[6.62107,45.067548],[6.621751,45.067487],[6.622127,45.067389],[6.622372,45.067137],[6.622457,45.066904],[6.622405,45.06676],[6.622193,45.067007],[6.621903,45.067128],[6.621559,45.0671],[6.621817,45.066951],[6.621936,45.066713],[6.621658,45.066862],[6.621493,45.066862],[6.62117,45.066764],[6.621539,45.066643],[6.621896,45.066218],[6.621671,45.066256],[6.621526,45.066354],[6.621328,45.066405],[6.621196,45.066498],[6.620892,45.066517],[6.620608,45.066489],[6.620476,45.066414],[6.620714,45.066396],[6.620866,45.066298],[6.620436,45.066214],[6.620291,45.066041],[6.6201,45.065939],[6.620073,45.065757],[6.619657,45.065696],[6.619215,45.065687],[6.619479,45.065612],[6.619651,45.065528],[6.620199,45.065533],[6.62039,45.06557],[6.620701,45.065537],[6.620912,45.065444],[6.621064,45.065234],[6.62113,45.065052],[6.6215,45.064852],[6.621572,45.064633],[6.621658,45.064469],[6.62144,45.064269],[6.621401,45.064077],[6.621711,45.063592],[6.62179,45.063378],[6.621969,45.063233],[6.622239,45.063182],[6.622464,45.063308],[6.622292,45.063088],[6.622636,45.063163],[6.622675,45.06328],[6.622781,45.063331],[6.622761,45.063214],[6.622768,45.063093],[6.622728,45.062916],[6.622543,45.062879],[6.622405,45.062893],[6.622206,45.062841],[6.622576,45.062739],[6.623091,45.062799],[6.623349,45.063014],[6.623527,45.063],[6.623864,45.062879],[6.624168,45.062678],[6.624234,45.062496],[6.624425,45.062389],[6.624617,45.062351],[6.624762,45.062183],[6.624901,45.061871],[6.625079,45.061591],[6.625264,45.0614],[6.625357,45.061157],[6.625343,45.061036],[6.625522,45.060891],[6.625641,45.060751],[6.625746,45.060355],[6.625892,45.060201],[6.626063,45.060103],[6.626103,45.059944],[6.626024,45.059786],[6.625997,45.059524],[6.62603,45.059436],[6.625944,45.05931],[6.625938,45.058526],[6.626255,45.058097],[6.626631,45.057486],[6.626843,45.057304],[6.627034,45.057122],[6.62788,45.056898],[6.62815,45.056744],[6.628533,45.056385],[6.629399,45.05582],[6.629557,45.055596],[6.629729,45.055139],[6.630211,45.054882],[6.630442,45.054686],[6.630885,45.054131],[6.631175,45.053403],[6.631228,45.052741],[6.6314,45.052312],[6.631386,45.05206],[6.631479,45.051864],[6.631466,45.051565],[6.631611,45.051378],[6.631585,45.050259],[6.631822,45.049484],[6.631849,45.049008],[6.631928,45.048523],[6.631822,45.04787],[6.631902,45.047515],[6.631862,45.047282],[6.63206,45.046647],[6.632073,45.046069],[6.631888,45.045481],[6.631968,45.045005],[6.632126,45.044641],[6.632126,45.044314],[6.632628,45.043997],[6.632602,45.043847],[6.633011,45.043343],[6.633619,45.042849],[6.63457,45.042223],[6.634847,45.041999],[6.635296,45.041878],[6.636027,45.041459],[6.636349,45.041362],[6.63697,45.041045],[6.637568,45.040484],[6.63812,45.039956],[6.638258,45.03959],[6.638661,45.039135],[6.639189,45.038396],[6.639546,45.038136],[6.639672,45.037884],[6.640144,45.037323],[6.640604,45.036982],[6.64101,45.036481],[6.641643,45.035655],[6.641783,45.035587],[6.64219,45.035101],[6.64248,45.035026],[6.642759,45.034722],[6.643016,45.034412],[6.643285,45.034237],[6.64322,45.03473],[6.643435,45.034586],[6.643639,45.034343],[6.643724,45.034548],[6.643671,45.0347],[6.643789,45.034669],[6.643853,45.034806],[6.644057,45.034836],[6.644293,45.035018],[6.644057,45.035564],[6.644121,45.035723],[6.644336,45.035898],[6.644658,45.036436],[6.644787,45.035822],[6.645055,45.035511],[6.645076,45.035192],[6.645377,45.034775],[6.645795,45.034578],[6.646332,45.034601],[6.646707,45.034662],[6.646825,45.034798],[6.647029,45.034836],[6.647222,45.035064],[6.647598,45.035071],[6.647919,45.034935],[6.647995,45.034662],[6.647662,45.034343],[6.647362,45.034275],[6.647222,45.033775],[6.647512,45.033828],[6.647758,45.033813],[6.648284,45.033957],[6.648638,45.033957],[6.6491,45.033418],[6.649175,45.032986],[6.649346,45.033221],[6.649464,45.032986],[6.649561,45.032925],[6.649615,45.032615],[6.64969,45.032546],[6.649615,45.032364],[6.649947,45.032516],[6.649872,45.032342],[6.649572,45.032046],[6.6494,45.031735],[6.649411,45.031621],[6.649604,45.031849],[6.649894,45.032114],[6.649754,45.031811],[6.649754,45.031712],[6.650022,45.031955],[6.650087,45.031909],[6.650044,45.03169],[6.649979,45.031333],[6.64999,45.030446],[6.650162,45.03012],[6.650022,45.029908],[6.649926,45.029475],[6.649904,45.029256],[6.650044,45.029316],[6.650151,45.029172],[6.650237,45.029331],[6.650602,45.029839],[6.650623,45.029468],[6.650795,45.029043],[6.650848,45.028725],[6.651342,45.02824],[6.651578,45.02786],[6.651825,45.027731],[6.651964,45.027527],[6.652608,45.027277],[6.652747,45.027064],[6.652812,45.026632],[6.652822,45.026169],[6.65308,45.025775],[6.653177,45.025411],[6.653413,45.025146],[6.653477,45.02485],[6.653209,45.024562],[6.653455,45.024569],[6.653702,45.024683],[6.653928,45.024668],[6.653895,45.024562],[6.654485,45.024531],[6.654099,45.024281],[6.654764,45.024274],[6.654754,45.024167],[6.654936,45.024061],[6.654625,45.023955],[6.654829,45.023796],[6.654657,45.023735],[6.654507,45.023553],[6.65485,45.023075],[6.654775,45.022924],[6.654228,45.022757],[6.654067,45.022749],[6.653992,45.02259],[6.653681,45.022522],[6.653434,45.022317],[6.653252,45.021923],[6.653305,45.021559],[6.653745,45.021362],[6.653956,45.021228],[6.654327,45.021164],[6.654557,45.021065],[6.654727,45.021093],[6.654867,45.021086],[6.654947,45.020973],[6.655087,45.020973],[6.654897,45.020626],[6.654236,45.020131],[6.653956,45.020095],[6.653706,45.02011],[6.653326,45.01989],[6.653035,45.01994],[6.652685,45.019685],[6.653155,45.019367],[6.653716,45.018921],[6.653416,45.018836],[6.653416,45.018758],[6.653636,45.018666],[6.653476,45.018588],[6.653556,45.018418],[6.654006,45.018418],[6.653536,45.018093],[6.653296,45.018058],[6.653616,45.017824],[6.654046,45.01776],[6.653936,45.017378],[6.653456,45.016975],[6.653486,45.016777],[6.653456,45.016579],[6.653746,45.016296],[6.653816,45.01597],[6.654006,45.015722],[6.653996,45.01556],[6.654877,45.015163],[6.655568,45.01476],[6.655738,45.014576],[6.655768,45.01442],[6.656158,45.014265],[6.656339,45.014017],[6.656219,45.013812],[6.656539,45.013727],[6.656609,45.013507],[6.656749,45.013451],[6.656749,45.013253],[6.65723,45.01258],[6.6576,45.012524],[6.65791,45.012149],[6.658221,45.012142],[6.658361,45.011738],[6.658841,45.011257],[6.658791,45.011023],[6.659152,45.010677],[6.659212,45.010224],[6.659172,45.009912],[6.659422,45.009516],[6.659642,45.00936],[6.659672,45.009084],[6.659572,45.008893],[6.659562,45.008518],[6.659882,45.008093],[6.660393,45.007641],[6.660683,45.00728],[6.660753,45.006805],[6.660593,45.00665],[6.660643,45.006232],[6.660623,45.005977],[6.660763,45.005737],[6.660933,45.005531],[6.661174,45.005093],[6.661164,45.004788],[6.660933,45.004427],[6.660763,45.003953],[6.660763,45.003762],[6.660823,45.003677],[6.660897,45.003298],[6.66128,45.002829],[6.661056,45.002842],[6.660822,45.002802],[6.660271,45.002809],[6.659686,45.002945],[6.659352,45.003143],[6.659277,45.003551],[6.659148,45.003706],[6.659064,45.00391],[6.658015,45.003501],[6.657355,45.003118],[6.657005,45.002791],[6.656529,45.002805],[6.656193,45.002726],[6.656054,45.002768],[6.655922,45.002749],[6.65571,45.002829],[6.655334,45.003212],[6.655109,45.003272],[6.654964,45.003478],[6.654753,45.003627],[6.654707,45.00387],[6.654621,45.003987],[6.654568,45.004258],[6.654429,45.004379],[6.654119,45.004804],[6.654073,45.005042],[6.653907,45.005178],[6.653841,45.005346],[6.653656,45.005561],[6.653491,45.006037],[6.653161,45.006331],[6.652857,45.006602],[6.652705,45.006691],[6.652593,45.006943],[6.652256,45.007349],[6.651919,45.007363],[6.651986,45.007606],[6.651682,45.007947],[6.651338,45.008143],[6.651101,45.008386],[6.650856,45.008428],[6.650698,45.008554],[6.650486,45.008591],[6.650242,45.008764],[6.650136,45.008909],[6.649899,45.008932],[6.64972,45.008979],[6.649126,45.00903],[6.648928,45.009259],[6.648578,45.009347],[6.648697,45.008876],[6.649324,45.007835],[6.648868,45.00797],[6.648485,45.008129],[6.648181,45.008325],[6.64801,45.008372],[6.648096,45.008194],[6.648082,45.00811],[6.647858,45.00825],[6.647389,45.00846],[6.646629,45.008549],[6.646709,45.008344],[6.646491,45.008311],[6.646596,45.008133],[6.646365,45.008138],[6.646477,45.008017],[6.646623,45.007765],[6.646794,45.007685],[6.64688,45.007582],[6.646464,45.007554],[6.646913,45.00712],[6.647164,45.006957],[6.646854,45.006845],[6.646577,45.006831],[6.646418,45.006775],[6.64653,45.00663],[6.646345,45.006625],[6.646563,45.006508],[6.646735,45.006485],[6.646616,45.006415],[6.646682,45.006373],[6.646491,45.006266],[6.646643,45.006224],[6.646544,45.006168],[6.646603,45.00613],[6.646537,45.006098],[6.646596,45.006042],[6.646458,45.005929],[6.64659,45.00592],[6.646458,45.005822],[6.646643,45.005799],[6.646616,45.005701],[6.646821,45.005654],[6.646973,45.005537],[6.646946,45.00542],[6.646603,45.005318],[6.646537,45.005154],[6.645976,45.004827],[6.64581,45.004276],[6.645863,45.004048],[6.645738,45.00388],[6.645936,45.003739],[6.64624,45.003291],[6.646511,45.003006],[6.646603,45.002819],[6.646524,45.002418],[6.646669,45.002082],[6.647032,45.001517],[6.647191,45.001106],[6.647178,45.000863],[6.647336,45.000204],[6.647125,45.000167],[6.647151,44.999962],[6.647415,44.999317],[6.648043,44.998892],[6.648076,44.998766],[6.64832,44.998542],[6.64838,44.99835],[6.648657,44.997869],[6.64867,44.997673],[6.648492,44.997187],[6.648551,44.996529],[6.648671,44.995973],[6.649017,44.995597],[6.648933,44.995333],[6.648671,44.995214],[6.64868,44.994943],[6.648961,44.994606],[6.64925,44.994567],[6.649549,44.994633],[6.650343,44.994507],[6.650539,44.994276],[6.65038,44.994005],[6.649568,44.993331],[6.650072,44.992946],[6.650372,44.992564],[6.650312,44.992181],[6.649512,44.990369],[6.649371,44.989534],[6.649031,44.989038],[6.649211,44.988684],[6.649512,44.988486],[6.651073,44.988174],[6.651173,44.987863],[6.651053,44.987325],[6.651894,44.98588],[6.652294,44.985597],[6.652595,44.984875],[6.652475,44.984408],[6.651894,44.983756],[6.651834,44.98268],[6.652395,44.982099],[6.652395,44.98176],[6.652074,44.981533],[6.651113,44.98149],[6.649031,44.981023],[6.64827,44.98057],[6.64793,44.980287],[6.64775,44.979834],[6.64773,44.979465],[6.646929,44.978573],[6.646969,44.978318],[6.64753,44.977723],[6.64761,44.977398],[6.64751,44.976775],[6.646869,44.976562],[6.646068,44.97652],[6.645047,44.976973],[6.643585,44.977072],[6.643265,44.977185],[6.642044,44.978063],[6.641483,44.97829],[6.641183,44.978587],[6.640843,44.978601],[6.639261,44.978375],[6.637639,44.977978],[6.636398,44.97795],[6.636018,44.977723],[6.635817,44.977157],[6.636058,44.975981],[6.635097,44.97584],[6.634516,44.975868],[6.634096,44.976095],[6.633515,44.976633],[6.633115,44.976619],[6.632454,44.976463],[6.632114,44.975783],[6.631052,44.975316],[6.630852,44.975514],[6.630312,44.976732],[6.629171,44.976973],[6.62891,44.976916],[6.627649,44.976109],[6.627209,44.975486],[6.626788,44.975358],[6.625427,44.975542],[6.624686,44.975811],[6.624145,44.975769],[6.623545,44.97618],[6.622964,44.976166],[6.622263,44.976874],[6.621783,44.976874],[6.621423,44.976633],[6.621122,44.976619],[6.620081,44.977114],[6.619541,44.976902],[6.6193,44.976619],[6.61944,44.976166],[6.618319,44.975571],[6.617779,44.974409],[6.617318,44.974169],[6.616998,44.97414],[6.615857,44.974225],[6.614555,44.974041],[6.613735,44.973829],[6.612473,44.974098],[6.611712,44.974409],[6.61133,44.974504],[6.611012,44.974537],[6.610657,44.974755],[6.610657,44.974867],[6.610835,44.974999],[6.6109,44.975237],[6.610769,44.97564],[6.609919,44.976056],[6.609368,44.976261],[6.60921,44.976493],[6.609191,44.976929],[6.608789,44.977173],[6.608089,44.977246],[6.607584,44.977431],[6.607192,44.977781],[6.606594,44.978395],[6.606015,44.97862],[6.605903,44.978812],[6.605875,44.979036],[6.6058,44.979261],[6.605511,44.979756],[6.60552,44.980001],[6.605389,44.980635],[6.605296,44.98113],[6.60538,44.981276],[6.605427,44.981312],[6.60575,44.981373],[6.605811,44.98154],[6.606186,44.981694],[6.606334,44.981688],[6.606334,44.981756],[6.606473,44.981811],[6.606569,44.981731],[6.606595,44.981897],[6.607022,44.982279],[6.60697,44.982471],[6.606979,44.982612],[6.607353,44.98268],[6.607414,44.982766],[6.60765,44.982896],[6.608103,44.98326],[6.608234,44.983562],[6.608356,44.983808],[6.608643,44.984049],[6.608669,44.984178],[6.608817,44.984505],[6.609314,44.984702],[6.609593,44.984936],[6.610125,44.9853],[6.610395,44.985737],[6.610769,44.985941],[6.611135,44.986052],[6.611589,44.986076],[6.611911,44.986187],[6.612181,44.986354],[6.612486,44.986711],[6.612591,44.987081],[6.612338,44.987568],[6.612356,44.987704],[6.612504,44.987747],[6.612521,44.987833],[6.612652,44.987882],[6.612678,44.988086],[6.612861,44.988363],[6.612791,44.988517],[6.612957,44.988764],[6.61314,44.988899],[6.613654,44.989627],[6.613837,44.989873],[6.614011,44.989941],[6.614168,44.990267],[6.614159,44.990662],[6.614037,44.990773],[6.614098,44.990896],[6.614168,44.991303],[6.614081,44.992246],[6.614229,44.992431],[6.614133,44.993213],[6.614351,44.993799],[6.614342,44.994015],[6.614447,44.994101],[6.614517,44.994489],[6.614796,44.994668],[6.614473,44.99476],[6.614395,44.994914],[6.61422,44.994828],[6.61409,44.995124],[6.613698,44.99529],[6.613375,44.99566],[6.613105,44.996338],[6.612844,44.996856],[6.612878,44.997909],[6.612948,44.998217],[6.612809,44.998864],[6.612634,44.999031],[6.612216,44.998969],[6.611989,44.999117],[6.611728,44.999789],[6.611092,45.00091],[6.611066,45.001767],[6.61083,45.002032],[6.610822,45.002383],[6.610735,45.002765],[6.610752,45.003252],[6.611031,45.003677],[6.611641,45.005304],[6.61165,45.00563],[6.61144,45.006135],[6.611336,45.006302],[6.611301,45.006487],[6.611223,45.006604],[6.610987,45.006579],[6.610613,45.00677],[6.610055,45.007097],[6.609183,45.007294],[6.608756,45.007466],[6.608434,45.00754],[6.608164,45.007651],[6.607789,45.007676],[6.607275,45.007854],[6.607005,45.007916],[6.6069,45.007996],[6.607005,45.008015],[6.607057,45.008082],[6.607197,45.008064],[6.607188,45.008132],[6.60738,45.008095],[6.607414,45.008175],[6.607545,45.008132],[6.607528,45.008218],[6.607641,45.008169],[6.607693,45.008267],[6.60785,45.008267],[6.6086,45.008421],[6.608661,45.008563],[6.608878,45.008594],[6.60907,45.008754],[6.609114,45.008883],[6.609247,45.00897],[6.609097,45.009122],[6.609153,45.009241],[6.609032,45.009353],[6.608985,45.009518],[6.608789,45.009532],[6.608901,45.00969],[6.608845,45.009809],[6.608546,45.009875],[6.608369,45.009934],[6.608135,45.010324],[6.607781,45.010476],[6.607454,45.010562],[6.607043,45.010733],[6.606837,45.010931],[6.606622,45.011044],[6.606473,45.01146],[6.606585,45.011466],[6.606725,45.011414],[6.606912,45.011407],[6.607304,45.011744],[6.608089,45.011757],[6.608434,45.011592],[6.608668,45.011585],[6.60892,45.011367],[6.609284,45.011149],[6.609443,45.011229],[6.609817,45.011242],[6.610779,45.011057],[6.611134,45.011031],[6.612142,45.011149],[6.612516,45.011149],[6.612908,45.011024],[6.614309,45.011123],[6.615206,45.011262],[6.615523,45.011532],[6.61585,45.011552],[6.616084,45.011598],[6.615822,45.01177],[6.616112,45.011777],[6.616336,45.011856],[6.616028,45.011968],[6.616243,45.012034],[6.616485,45.012054],[6.616392,45.012206],[6.616607,45.01216],[6.616682,45.012285],[6.616896,45.012279],[6.616747,45.01243],[6.616934,45.012424],[6.617298,45.012272],[6.617494,45.012318],[6.61755,45.012457],[6.617438,45.01251],[6.617307,45.0128],[6.617494,45.013025],[6.617326,45.013223],[6.617167,45.013526],[6.617205,45.01389],[6.617064,45.014048],[6.616952,45.014431],[6.616971,45.014656],[6.616887,45.014893],[6.617139,45.015375],[6.617363,45.015527],[6.617457,45.015758],[6.617639,45.015921],[6.617759,45.016812],[6.617739,45.01718],[6.617398,45.017775],[6.617619,45.018213],[6.616602,45.018624],[6.615078,45.018669],[6.613233,45.018791],[6.61274,45.018927],[6.611087,45.018882],[6.609907,45.019504],[6.609092,45.019473],[6.608276,45.019534],[6.606925,45.019367],[6.606002,45.019033]]],"type":"MultiLineString"},"properties":{"geo_point":{"lon":6.574721538979281,"lat":45.039529758199},"name":"GR57 Tour du Mont Thabor (Hautes-Alpes) (2019)","code_gr":"GR57"}}]}