{"type":"FeatureCollection","features":[{"type":"Feature","geometry":{"coordinates":[[[6.731762,44.792503],[6.735335,44.793097],[6.735195,44.793753],[6.735439,44.793975],[6.735718,44.794458],[6.736346,44.7952],[6.737008,44.795336],[6.737845,44.79541],[6.738245,44.795645],[6.738594,44.79562],[6.738751,44.795323],[6.738629,44.794965],[6.738873,44.795138],[6.739117,44.795286],[6.739082,44.795558],[6.739483,44.795657],[6.739744,44.795843],[6.74018,44.795695],[6.74018,44.795521],[6.740738,44.795447],[6.741078,44.795163],[6.740964,44.795107],[6.741391,44.795076],[6.741557,44.795286],[6.742097,44.795589],[6.742655,44.795664],[6.743047,44.795812],[6.743954,44.795855],[6.744511,44.795614],[6.744781,44.795818],[6.7452,44.795824],[6.74513,44.795967],[6.746193,44.795831],[6.746211,44.795929],[6.746341,44.795948],[6.746428,44.796158],[6.746611,44.796066],[6.746611,44.796245],[6.746472,44.796406],[6.746908,44.796529],[6.7473,44.796424],[6.747361,44.796344],[6.747622,44.796282],[6.747553,44.796412],[6.747718,44.796449],[6.748023,44.796579],[6.748311,44.79648],[6.748293,44.796585],[6.748773,44.796356],[6.748773,44.796591],[6.749208,44.796399],[6.749217,44.796616],[6.749025,44.796789],[6.748572,44.797253],[6.748694,44.79771],[6.748834,44.79768],[6.748869,44.797927],[6.749095,44.797896],[6.749923,44.797247],[6.75028,44.797142],[6.750507,44.797148],[6.750829,44.797024],[6.75089,44.796888],[6.751038,44.796839],[6.751117,44.796702],[6.751274,44.796628],[6.751352,44.796566],[6.751544,44.796505],[6.751683,44.796399],[6.752293,44.796288],[6.75279,44.796393],[6.75299,44.796356],[6.753303,44.796199],[6.753475,44.79603],[6.753845,44.796752],[6.753792,44.797098],[6.753792,44.797426],[6.753699,44.797651],[6.753501,44.797708],[6.753462,44.797839],[6.75329,44.798008],[6.753298,44.798142],[6.753625,44.798255],[6.755082,44.798228],[6.755306,44.798096],[6.755371,44.79797],[6.755436,44.797771],[6.755605,44.797559],[6.755586,44.797386],[6.755773,44.797201],[6.756034,44.797082],[6.756361,44.79679],[6.756398,44.796644],[6.756592,44.796523],[6.756957,44.796447],[6.757271,44.795899],[6.757662,44.795467],[6.757731,44.795515],[6.757616,44.795768],[6.757697,44.796078],[6.75849,44.795687],[6.758628,44.795793],[6.758755,44.795638],[6.758985,44.795883],[6.759088,44.795671],[6.759008,44.79554],[6.759341,44.795679],[6.759364,44.795467],[6.759157,44.795369],[6.759594,44.795385],[6.759767,44.795564],[6.760365,44.795385],[6.760526,44.79545],[6.760675,44.795352],[6.76079,44.795507],[6.761216,44.795564],[6.761526,44.79554],[6.761802,44.795524],[6.761722,44.795336],[6.761906,44.795246],[6.761998,44.795148],[6.762584,44.794985],[6.762584,44.795165],[6.762871,44.794912],[6.763078,44.795116],[6.763182,44.794912],[6.763274,44.794952],[6.763469,44.794797],[6.76355,44.795001],[6.763446,44.795107],[6.76363,44.795377],[6.76386,44.795418],[6.764033,44.795328],[6.764148,44.795377],[6.764366,44.795091],[6.764412,44.794789],[6.764274,44.794487],[6.764343,44.794357],[6.764297,44.794063],[6.764182,44.794071],[6.764148,44.793753],[6.764263,44.793329],[6.764447,44.793206],[6.765164,44.793059],[6.765164,44.792808],[6.765368,44.79261],[6.765379,44.792206],[6.765132,44.791704],[6.765325,44.791429],[6.765593,44.791171],[6.765314,44.790523],[6.765432,44.790211],[6.765121,44.789633],[6.765218,44.789282],[6.7651,44.789061],[6.765143,44.78881],[6.764724,44.78862],[6.764735,44.788285],[6.764885,44.787965],[6.764928,44.787752],[6.765164,44.787561],[6.765389,44.787485],[6.765572,44.787044],[6.765776,44.786747],[6.765518,44.785726],[6.765143,44.785292],[6.765076,44.78497],[6.76532,44.784555],[6.765369,44.78422],[6.765304,44.783377],[6.764881,44.782996],[6.764848,44.781969],[6.765434,44.781115],[6.765694,44.780376],[6.766247,44.779684],[6.766247,44.779222],[6.766458,44.778183],[6.766702,44.777837],[6.766995,44.777144],[6.767141,44.776659],[6.76802,44.775828],[6.768157,44.775781],[6.768544,44.775517],[6.768779,44.775528],[6.768999,44.775452],[6.769113,44.775484],[6.768954,44.775813],[6.768938,44.775942],[6.769151,44.776082],[6.769386,44.776018],[6.769682,44.776411],[6.769606,44.776728],[6.769826,44.776998],[6.769834,44.777186],[6.769879,44.777289],[6.769834,44.777477],[6.770183,44.777181],[6.770334,44.776831],[6.770524,44.776793],[6.770835,44.776939],[6.770835,44.77731],[6.771047,44.777197],[6.771116,44.777289],[6.771267,44.777224],[6.77126,44.777606],[6.77151,44.777445],[6.77167,44.77724],[6.77167,44.777601],[6.77148,44.777924],[6.771806,44.777762],[6.772307,44.777213],[6.772367,44.777423],[6.772201,44.778026],[6.772246,44.778199],[6.77261,44.777902],[6.772853,44.77759],[6.773103,44.777509],[6.772845,44.77808],[6.772845,44.778279],[6.772754,44.778506],[6.773801,44.777789],[6.774052,44.777558],[6.774226,44.777477],[6.774105,44.777854],[6.774401,44.777671],[6.774659,44.777348],[6.775167,44.776971],[6.775933,44.776949],[6.776335,44.7771],[6.776813,44.777213],[6.777359,44.777466],[6.778042,44.777617],[6.778232,44.777806],[6.778406,44.778242],[6.778543,44.778775],[6.778831,44.779421],[6.779036,44.780143],[6.779286,44.780595],[6.779438,44.781031],[6.779582,44.781209],[6.779825,44.78179],[6.780568,44.782464],[6.780826,44.782636],[6.781039,44.782948],[6.781418,44.783896],[6.781433,44.784908],[6.782086,44.785393],[6.782321,44.785484],[6.782366,44.785721],[6.782564,44.785942],[6.782677,44.786217],[6.782928,44.786351],[6.78308,44.786534],[6.78314,44.786674],[6.783254,44.786809],[6.783307,44.787218],[6.783641,44.787568],[6.78374,44.787826],[6.784005,44.78795],[6.78421,44.788101],[6.784908,44.788279],[6.785378,44.788747],[6.785841,44.788839],[6.786364,44.78907],[6.786842,44.789652],[6.786258,44.789436],[6.78616,44.789469],[6.786251,44.789582],[6.786243,44.789991],[6.786835,44.790761],[6.787722,44.791062],[6.788109,44.791601],[6.78839,44.791751],[6.78861,44.791945],[6.788876,44.792107],[6.788913,44.792354],[6.788785,44.792694],[6.788633,44.792904],[6.78861,44.793291],[6.788936,44.793625],[6.790135,44.794384],[6.790628,44.794869],[6.790719,44.795245],[6.790939,44.79552],[6.791189,44.796053],[6.791372,44.796145],[6.791546,44.796322],[6.792047,44.796581],[6.792153,44.796731],[6.79298,44.796947],[6.793041,44.797092],[6.79301,44.797254],[6.793041,44.79734],[6.792783,44.797803],[6.793367,44.79875],[6.793367,44.798906],[6.793883,44.799235],[6.794209,44.799881],[6.794156,44.800177],[6.794391,44.800354],[6.794497,44.80072],[6.79449,44.800887],[6.79477,44.801356],[6.795013,44.801404],[6.795392,44.801194],[6.795764,44.801139],[6.796047,44.801169],[6.795771,44.80125],[6.796132,44.801345],[6.795729,44.801506],[6.795955,44.801596],[6.795637,44.801762],[6.795899,44.801797],[6.795856,44.801948],[6.796416,44.802119],[6.796791,44.802119],[6.797074,44.802229],[6.797145,44.80236],[6.797145,44.802485],[6.79723,44.802646],[6.797194,44.802907],[6.797435,44.803098],[6.797491,44.803289],[6.797654,44.803525],[6.797753,44.803942],[6.797605,44.80469],[6.797676,44.804946],[6.797697,44.805348],[6.797874,44.805634],[6.798079,44.80583],[6.798136,44.806026],[6.798518,44.806704],[6.798794,44.80693],[6.799976,44.808321],[6.800238,44.808793],[6.800323,44.809155],[6.800556,44.809456],[6.800847,44.809983],[6.800854,44.810184],[6.801441,44.810962],[6.801491,44.811244],[6.801611,44.81149],[6.801583,44.812353],[6.801512,44.812544],[6.801654,44.812906],[6.802637,44.813915],[6.802793,44.814256],[6.803607,44.814613],[6.80377,44.814794],[6.80389,44.8151],[6.80411,44.815281],[6.804258,44.815959],[6.804195,44.81627],[6.804315,44.816511],[6.8044,44.816858],[6.804287,44.817134],[6.804421,44.817445],[6.804329,44.817932],[6.804081,44.818128],[6.803579,44.818233],[6.803381,44.818504],[6.803374,44.818816],[6.803643,44.819022],[6.803572,44.819137],[6.803643,44.819559],[6.803798,44.819699],[6.804096,44.8199],[6.804258,44.820161],[6.804577,44.820427],[6.805115,44.820704],[6.805582,44.820884],[6.805844,44.821145],[6.805886,44.821477],[6.806063,44.821778],[6.806042,44.821979],[6.806255,44.822531],[6.80641,44.822722],[6.80646,44.823018],[6.806679,44.823144],[6.806807,44.823601],[6.806708,44.823766],[6.806538,44.823932],[6.806623,44.824826],[6.806495,44.824976],[6.806531,44.825483],[6.806679,44.825694],[6.806991,44.825835],[6.807054,44.826206],[6.807224,44.826156],[6.807217,44.826377],[6.807104,44.826633],[6.807238,44.826618],[6.80721,44.826743],[6.807387,44.826703],[6.807359,44.826869],[6.807607,44.826794],[6.807592,44.826969],[6.807783,44.826944],[6.807847,44.827029],[6.807783,44.8272],[6.808031,44.827185],[6.80796,44.827321],[6.807833,44.827421],[6.808137,44.827848],[6.80835,44.827868],[6.808562,44.827988],[6.809362,44.828244],[6.809504,44.828405],[6.809999,44.828676],[6.810112,44.828797],[6.810141,44.829033],[6.810204,44.829163],[6.810105,44.829424],[6.810226,44.82976],[6.810395,44.830011],[6.810516,44.830373],[6.810771,44.830724],[6.810997,44.831106],[6.811245,44.831427],[6.811245,44.831673],[6.811436,44.83205],[6.811813,44.832401],[6.812156,44.832568],[6.812897,44.834029],[6.813337,44.834585],[6.813712,44.835346],[6.813991,44.835604],[6.814624,44.836076],[6.815128,44.836662],[6.815815,44.837316],[6.816545,44.837864],[6.816952,44.838168],[6.817145,44.839165],[6.817456,44.839461],[6.817639,44.840131],[6.817607,44.84042],[6.81765,44.840816],[6.817803,44.840928],[6.817924,44.841192],[6.817583,44.841402],[6.817416,44.841569],[6.817211,44.841601],[6.81712,44.841741],[6.817127,44.841918],[6.817021,44.842128],[6.816991,44.842381],[6.81712,44.842483],[6.81709,44.842924],[6.817302,44.84294],[6.817803,44.842849],[6.818804,44.84286],[6.818986,44.842833],[6.819206,44.842838],[6.819365,44.842806],[6.81913,44.842698],[6.819229,44.842596],[6.819381,44.842531],[6.81951,44.842445],[6.81976,44.842424],[6.819896,44.842257],[6.820541,44.842026],[6.820807,44.842053],[6.821217,44.842026],[6.821285,44.841929],[6.821664,44.841886],[6.822013,44.841811],[6.822362,44.841854],[6.822574,44.841956],[6.822886,44.841961],[6.823052,44.842026],[6.823652,44.841967],[6.824024,44.841907],[6.824213,44.841956],[6.824509,44.841875],[6.824873,44.84202],[6.825473,44.842096],[6.826087,44.842053],[6.826322,44.842123],[6.826489,44.842133],[6.826762,44.842252],[6.827362,44.842187],[6.827999,44.842053],[6.828196,44.841929],[6.828659,44.841913],[6.828977,44.841789],[6.829228,44.841628],[6.829888,44.841681],[6.830624,44.841633],[6.831102,44.841542],[6.831299,44.841547],[6.831671,44.841488],[6.83184,44.841505],[6.832151,44.841377],[6.832511,44.841384],[6.833122,44.841079],[6.834023,44.8411],[6.834713,44.841178],[6.834943,44.841285],[6.835614,44.841299],[6.836075,44.841214],[6.836355,44.841306],[6.836625,44.841264],[6.836926,44.841292],[6.837476,44.841143],[6.837937,44.841122],[6.838557,44.840909],[6.839328,44.840511],[6.839788,44.840284],[6.84123,44.839844],[6.841751,44.839851],[6.842051,44.839688],[6.842561,44.839659],[6.843072,44.839525],[6.843973,44.839383],[6.844543,44.838879],[6.845464,44.838183],[6.845725,44.838062],[6.846025,44.837835],[6.846355,44.837707],[6.846495,44.837438],[6.846836,44.837267],[6.847236,44.837147],[6.847326,44.837019],[6.847947,44.836721],[6.848177,44.836678],[6.848978,44.836344],[6.849218,44.836217],[6.849539,44.836139],[6.849609,44.836004],[6.850219,44.836018],[6.85074,44.836146],[6.85091,44.836068],[6.85123,44.836146],[6.851881,44.836039],[6.852041,44.835968],[6.852241,44.836018],[6.853463,44.835848],[6.853943,44.835606],[6.854273,44.835592],[6.854804,44.835393],[6.854994,44.835386],[6.855254,44.835294],[6.855515,44.835287],[6.855975,44.835102],[6.856115,44.834705],[6.856566,44.834378],[6.857076,44.834279],[6.857337,44.834314],[6.857557,44.83413],[6.858168,44.833952],[6.858438,44.834037],[6.859219,44.833917],[6.859889,44.833661],[6.860059,44.833448],[6.86031,44.833398],[6.8604,44.83354],[6.86072,44.833285],[6.86083,44.833469],[6.861191,44.833313],[6.861451,44.833335],[6.861651,44.833462],[6.862032,44.833498],[6.862682,44.833377],[6.862882,44.833171],[6.863033,44.832767],[6.862932,44.832518],[6.863433,44.832575],[6.863603,44.832767],[6.863984,44.832646],[6.864174,44.832703],[6.864804,44.832518],[6.865185,44.832603],[6.865495,44.832099],[6.866156,44.831759],[6.866476,44.831709],[6.866506,44.831624],[6.866686,44.831624],[6.866706,44.831397],[6.866897,44.831318],[6.867007,44.831127],[6.866947,44.831013],[6.867207,44.830999],[6.867237,44.830814],[6.867697,44.830701],[6.868188,44.83068],[6.868528,44.830722],[6.868935,44.830696],[6.868809,44.830339],[6.868608,44.830204],[6.868558,44.830041],[6.868989,44.830168],[6.869249,44.830104],[6.869329,44.829984],[6.869539,44.829849],[6.869699,44.8296],[6.86987,44.829473],[6.869469,44.829338],[6.869459,44.829238],[6.869509,44.829174],[6.869539,44.829011],[6.869669,44.828876],[6.869549,44.82877],[6.869669,44.828536],[6.869649,44.828443],[6.869529,44.828401],[6.869539,44.828117],[6.869589,44.827989],[6.869539,44.827804],[6.869599,44.827378],[6.869489,44.827279],[6.869439,44.826874],[6.869289,44.826597],[6.869129,44.826115],[6.869109,44.82571],[6.869249,44.82539],[6.869529,44.825014],[6.86989,44.824929],[6.87054,44.823963],[6.87072,44.823835],[6.870791,44.823239],[6.870931,44.823097],[6.871161,44.822671],[6.871291,44.822138],[6.871041,44.82172],[6.871361,44.82157],[6.871421,44.821443],[6.871191,44.821152],[6.871491,44.820811],[6.871872,44.820633],[6.871902,44.820463],[6.872632,44.820434],[6.872913,44.820335],[6.873393,44.820427],[6.873243,44.820051],[6.873473,44.819888],[6.873894,44.820094],[6.874304,44.820413],[6.874454,44.820115],[6.874675,44.820399],[6.874875,44.82047],[6.875075,44.820065],[6.875405,44.820399],[6.875345,44.820704],[6.875475,44.82091],[6.875936,44.821208],[6.875986,44.821343],[6.875916,44.821478],[6.875986,44.821656],[6.876166,44.8214],[6.876196,44.821712],[6.875836,44.822146],[6.876106,44.822685],[6.877117,44.823026],[6.877708,44.823324],[6.878098,44.823701],[6.878629,44.824034],[6.879039,44.824169],[6.879009,44.823708],[6.87982,44.823949],[6.87969,44.823573],[6.879379,44.823225],[6.879399,44.822351],[6.879199,44.821968],[6.879389,44.821996],[6.879309,44.821798],[6.879129,44.821627],[6.879652,44.821771],[6.880113,44.822288],[6.880488,44.822372],[6.880842,44.822555],[6.881239,44.822631],[6.881411,44.822715],[6.881797,44.822638],[6.882205,44.822425],[6.882312,44.822296],[6.882216,44.822121],[6.88199,44.82203],[6.881797,44.821603],[6.881658,44.821193],[6.881658,44.82101],[6.881304,44.820492],[6.881325,44.820348],[6.880939,44.820371],[6.880896,44.819891],[6.880982,44.819754],[6.881046,44.819305],[6.880993,44.819077],[6.881551,44.818164],[6.881948,44.817798],[6.882012,44.817471],[6.882409,44.817205],[6.882538,44.816725],[6.882302,44.816398],[6.88243,44.816147],[6.882967,44.816383],[6.883246,44.816322],[6.883482,44.816474],[6.883997,44.81636],[6.884726,44.815873],[6.88507,44.815782],[6.885499,44.815112],[6.886067,44.81467],[6.886239,44.814305],[6.8864,44.814138],[6.886421,44.813833],[6.88655,44.813689],[6.886561,44.813133],[6.886432,44.812965],[6.886582,44.812745],[6.886561,44.812562],[6.886722,44.812303],[6.886657,44.812128],[6.886625,44.811542],[6.886561,44.811017],[6.886829,44.810522],[6.886808,44.809982],[6.887022,44.809746],[6.887441,44.809472],[6.887748,44.809016],[6.887528,44.808561],[6.887728,44.808085],[6.888018,44.807851],[6.888319,44.807808],[6.888679,44.807332],[6.888819,44.806544],[6.88935,44.80594],[6.88982,44.805699],[6.88989,44.805365],[6.890661,44.804726],[6.891032,44.804584],[6.891222,44.804143],[6.892033,44.803533],[6.892233,44.803284],[6.892693,44.802964],[6.893874,44.802666],[6.894365,44.802318],[6.894735,44.80219],[6.894615,44.801942],[6.894755,44.801565],[6.895046,44.801281],[6.895746,44.800954],[6.896017,44.800869],[6.896167,44.800954],[6.896307,44.800883],[6.896397,44.800947],[6.896567,44.800905],[6.896657,44.800478],[6.897028,44.799988],[6.897305,44.799987],[6.897753,44.799897],[6.898041,44.799408],[6.898892,44.799147],[6.89926,44.798861],[6.899662,44.798437],[6.900042,44.798216],[6.900168,44.797857],[6.900479,44.797637],[6.900732,44.797564],[6.901031,44.797327],[6.901329,44.797253],[6.901605,44.796935],[6.901939,44.796707],[6.902686,44.796601],[6.903284,44.796593],[6.904779,44.796389],[6.906285,44.796593],[6.906711,44.796788],[6.907711,44.79709],[6.90793,44.797278],[6.908401,44.797123],[6.90931,44.797319],[6.909724,44.797523],[6.910264,44.797392],[6.910586,44.797588],[6.910862,44.797604],[6.91115,44.79736],[6.911954,44.797474],[6.912322,44.797678],[6.912889,44.797825],[6.913673,44.797657],[6.914113,44.797444],[6.914359,44.797414],[6.914563,44.797322],[6.915464,44.7973],[6.915529,44.797201],[6.915722,44.79714],[6.916022,44.796812],[6.916666,44.796607],[6.917084,44.796569],[6.91717,44.796409],[6.917717,44.796142],[6.91835,44.796142],[6.918683,44.795807],[6.919144,44.795823],[6.919627,44.795526],[6.920003,44.795488],[6.920668,44.795518],[6.921741,44.795335],[6.922106,44.795366],[6.922889,44.795312],[6.923296,44.795328],[6.923876,44.79532],[6.924101,44.795495],[6.924348,44.795533],[6.924402,44.795457],[6.924262,44.795305],[6.92482,44.795351],[6.925163,44.795335],[6.92541,44.795427],[6.925603,44.795594],[6.926343,44.795724],[6.925796,44.795153],[6.925641,44.794943],[6.925362,44.794783],[6.925088,44.794631],[6.924739,44.794559],[6.924584,44.794486],[6.924611,44.794399],[6.924857,44.794445],[6.924991,44.794411],[6.925075,44.79426],[6.925386,44.794357],[6.925788,44.794497],[6.926182,44.794783],[6.926691,44.795278],[6.927638,44.794809],[6.927744,44.79508],[6.927939,44.79508],[6.928524,44.795034],[6.928719,44.795553],[6.929232,44.795657],[6.929036,44.796061],[6.929256,44.796286],[6.92924,44.79654],[6.929272,44.796701],[6.929191,44.79692],[6.929305,44.797117],[6.929524,44.796788],[6.929687,44.79654],[6.929939,44.796343],[6.930053,44.796217],[6.930321,44.796136],[6.930264,44.796378],[6.930516,44.796672],[6.930508,44.79718],[6.931175,44.797399],[6.931516,44.797636],[6.931923,44.797722],[6.931939,44.797959],[6.93211,44.798276],[6.932175,44.798634],[6.932297,44.798611],[6.932321,44.798807],[6.932232,44.799124],[6.93237,44.799234],[6.932427,44.799413],[6.93263,44.799563],[6.93263,44.79973],[6.932508,44.799932],[6.932915,44.80025],[6.933159,44.800388],[6.933338,44.800717],[6.933704,44.800919],[6.934061,44.800936],[6.934322,44.800798],[6.934427,44.800901],[6.934601,44.800864],[6.934732,44.800957],[6.934714,44.801254],[6.934863,44.801612],[6.935019,44.801804],[6.934279,44.802391],[6.934157,44.802701],[6.933965,44.802991],[6.934148,44.803362],[6.934192,44.803647],[6.934566,44.803882],[6.934828,44.804444],[6.93468,44.804871],[6.93529,44.805427],[6.935412,44.80565],[6.935429,44.805817],[6.935786,44.80638],[6.935917,44.806713],[6.936274,44.806942],[6.936597,44.807041],[6.936823,44.807313],[6.93725,44.808006],[6.937224,44.808494],[6.937446,44.807848],[6.937499,44.807277],[6.937895,44.807136],[6.938041,44.807249],[6.937922,44.80753],[6.93808,44.808129],[6.938305,44.807998],[6.938477,44.807717],[6.938767,44.807698],[6.939058,44.807876],[6.939811,44.807961],[6.94059,44.808354],[6.941554,44.809104],[6.941858,44.809404],[6.942294,44.809704],[6.942439,44.810332],[6.94273,44.810631],[6.943707,44.810931],[6.945279,44.811016],[6.946486,44.811555],[6.947159,44.811528],[6.947962,44.81125],[6.948709,44.811104],[6.949157,44.810759],[6.949942,44.810534],[6.950652,44.810349],[6.950932,44.810176],[6.951156,44.809938],[6.952464,44.809116],[6.953416,44.809182],[6.953902,44.80905],[6.954612,44.808705],[6.95521,44.808599],[6.956405,44.80799],[6.957003,44.807605],[6.957152,44.807393],[6.957451,44.807301],[6.957825,44.807632],[6.958551,44.807818],[6.958058,44.807923],[6.959007,44.807958],[6.960117,44.807626],[6.960868,44.807678],[6.961694,44.807433],[6.962162,44.807416],[6.963032,44.806987],[6.96355,44.806457],[6.964458,44.806489],[6.965091,44.806816],[6.965815,44.806979],[6.966091,44.806897],[6.966068,44.806596],[6.966781,44.806955],[6.969391,44.806653],[6.969449,44.806473],[6.969115,44.806269],[6.96877,44.806212],[6.968184,44.805674],[6.967931,44.805274],[6.968057,44.804917],[6.968049,44.804432],[6.967943,44.803994],[6.967756,44.803936],[6.96761,44.803786],[6.967626,44.803573],[6.967349,44.802892],[6.967351,44.802519],[6.967215,44.802283],[6.967141,44.801986],[6.967141,44.801793],[6.967055,44.801662],[6.967117,44.80147],[6.966796,44.801347],[6.966661,44.801094],[6.966969,44.800709],[6.966809,44.799817],[6.966747,44.799423],[6.966587,44.79917],[6.966476,44.798969],[6.965971,44.798881],[6.965934,44.798356],[6.965687,44.798103],[6.965699,44.797762],[6.965502,44.797543],[6.965182,44.79715],[6.964886,44.796922],[6.964578,44.796809],[6.96411,44.796572],[6.964159,44.796319],[6.964529,44.7961],[6.96443,44.795969],[6.964011,44.795987],[6.963592,44.796056],[6.963481,44.796196],[6.962507,44.796529],[6.961534,44.796669],[6.960733,44.796502],[6.960338,44.796319],[6.959967,44.796222],[6.959739,44.796286],[6.959462,44.796436],[6.958983,44.796609],[6.959219,44.796228],[6.959397,44.796084],[6.959406,44.795363],[6.958422,44.795801],[6.958031,44.795743],[6.958096,44.795611],[6.958137,44.795374],[6.958186,44.795178],[6.95817,44.794832],[6.957918,44.79437],[6.958015,44.794087],[6.957991,44.793764],[6.957934,44.793574],[6.95804,44.793285],[6.957958,44.793107],[6.957755,44.793055],[6.9576,44.793332],[6.957096,44.793701],[6.956958,44.793949],[6.956251,44.794318],[6.956113,44.794526],[6.955966,44.794566],[6.955706,44.794232],[6.955665,44.79377],[6.95556,44.793568],[6.955511,44.793245],[6.955218,44.792858],[6.954681,44.793233],[6.954039,44.793764],[6.953633,44.793845],[6.953478,44.794209],[6.952683,44.794577],[6.952431,44.794544],[6.951384,44.794357],[6.951131,44.794291],[6.950648,44.794243],[6.950338,44.794267],[6.949222,44.79421],[6.948463,44.794006],[6.946923,44.793728],[6.946394,44.793639],[6.946681,44.793263],[6.946762,44.793092],[6.946635,44.792814],[6.946279,44.792447],[6.94637,44.791902],[6.946506,44.791681],[6.946704,44.791525],[6.946696,44.791272],[6.946643,44.791154],[6.946787,44.790809],[6.946871,44.790745],[6.946969,44.790508],[6.947265,44.790174],[6.947417,44.789894],[6.947789,44.789716],[6.948024,44.789479],[6.948138,44.789243],[6.948358,44.789022],[6.948517,44.78879],[6.949033,44.788607],[6.949116,44.788397],[6.9492,44.788693],[6.949291,44.788591],[6.949344,44.788688],[6.949655,44.788532],[6.949571,44.788397],[6.949807,44.788101],[6.950034,44.787579],[6.95058,44.78731],[6.95074,44.787272],[6.950982,44.787008],[6.951453,44.786895],[6.951658,44.78676],[6.951726,44.78661],[6.951893,44.78662],[6.952136,44.7864],[6.952409,44.786313],[6.952606,44.786147],[6.953023,44.786093],[6.953372,44.785931],[6.953251,44.785845],[6.953304,44.785727],[6.953744,44.785484],[6.954503,44.785005],[6.954442,44.784822],[6.954472,44.784687],[6.954305,44.784504],[6.954009,44.784483],[6.953827,44.784391],[6.953524,44.784343],[6.9536,44.784257],[6.953888,44.784197],[6.95366,44.784025],[6.953145,44.784127],[6.952887,44.784251],[6.952416,44.784364],[6.952773,44.783934],[6.953266,44.783664],[6.953516,44.783605],[6.953304,44.783379],[6.953069,44.78325],[6.953023,44.78312],[6.95316,44.782921],[6.953091,44.782792],[6.953155,44.782604],[6.953262,44.782543],[6.953403,44.782264],[6.953759,44.782038],[6.953873,44.781758],[6.953858,44.781661],[6.953972,44.781532],[6.954009,44.781387],[6.95385,44.78137],[6.953706,44.78151],[6.953486,44.78157],[6.953342,44.781694],[6.953084,44.781785],[6.953137,44.78165],[6.952947,44.78143],[6.952621,44.781537],[6.952424,44.781483],[6.952211,44.781532],[6.952302,44.781295],[6.952196,44.781306],[6.952227,44.781214],[6.952022,44.781225],[6.952113,44.781117],[6.951787,44.781203],[6.951438,44.78122],[6.951377,44.781096],[6.951278,44.781139],[6.95121,44.781047],[6.951073,44.781096],[6.95077,44.78102],[6.950558,44.780859],[6.950823,44.780579],[6.950717,44.780477],[6.950778,44.780331],[6.950755,44.780256],[6.950884,44.780083],[6.950929,44.77996],[6.950869,44.779863],[6.951043,44.779728],[6.951073,44.779566],[6.950952,44.779588],[6.950945,44.779502],[6.950808,44.779486],[6.950869,44.779335],[6.950717,44.779303],[6.950808,44.779098],[6.950474,44.779044],[6.950376,44.778893],[6.950527,44.778802],[6.950459,44.778683],[6.950535,44.778619],[6.950292,44.778554],[6.950345,44.778441],[6.950262,44.778188],[6.950497,44.777978],[6.95055,44.777822],[6.950694,44.777741],[6.95074,44.777617],[6.950945,44.77759],[6.950922,44.777509],[6.951111,44.77745],[6.951195,44.777348],[6.951354,44.777192],[6.951362,44.777046],[6.951574,44.776836],[6.951878,44.776777],[6.952181,44.776653],[6.952287,44.776508],[6.952333,44.776303],[6.952538,44.776174],[6.952909,44.776088],[6.953243,44.775851],[6.95407,44.775468],[6.953511,44.774516],[6.955788,44.773961],[6.955903,44.773716],[6.956961,44.773439],[6.957513,44.773226],[6.958686,44.7729],[6.958985,44.772933],[6.960411,44.77272],[6.961764,44.77263],[6.963113,44.77248],[6.963829,44.772226],[6.964674,44.772134],[6.96539,44.772134],[6.96739,44.771257],[6.968089,44.771199],[6.969976,44.77113],[6.971082,44.770956],[6.971651,44.770725],[6.972448,44.770218],[6.972773,44.770079],[6.973537,44.769421],[6.974041,44.768913],[6.974399,44.768647],[6.97461,44.768382],[6.975651,44.768209],[6.976041,44.768105],[6.976302,44.767955],[6.976676,44.767839],[6.977879,44.767193],[6.978464,44.766685],[6.978806,44.766511],[6.979343,44.766315],[6.979977,44.765738],[6.981522,44.765403],[6.982075,44.765207],[6.9824,44.764907],[6.983083,44.764514],[6.983392,44.764445],[6.983733,44.764491],[6.983945,44.764214],[6.984161,44.764135],[6.98442,44.763952],[6.985147,44.76368],[6.985603,44.763295],[6.986441,44.762779],[6.986244,44.762447],[6.987217,44.761685],[6.988438,44.761405],[6.989818,44.760766],[6.991371,44.759524],[6.991408,44.759261],[6.991679,44.758806],[6.991494,44.75829],[6.991087,44.757721],[6.990878,44.75717],[6.990878,44.756426],[6.991032,44.75609],[6.991021,44.755567],[6.991136,44.755142],[6.991159,44.754677],[6.991504,44.754089],[6.991767,44.75344],[6.991929,44.753163],[6.991946,44.752978],[6.991897,44.752846],[6.992124,44.752597],[6.992238,44.751841],[6.992141,44.751437],[6.992027,44.751535],[6.991986,44.751835],[6.991824,44.752118],[6.991604,44.752332],[6.991328,44.752361],[6.991116,44.752262],[6.990921,44.752343],[6.990539,44.752303],[6.990474,44.752199],[6.990271,44.752228],[6.989872,44.751858],[6.989417,44.751292],[6.989059,44.750669],[6.988815,44.750392],[6.988352,44.750299],[6.987945,44.750397],[6.987709,44.750536],[6.987417,44.750443],[6.987197,44.75027],[6.987067,44.750224],[6.986807,44.749866],[6.986815,44.749629],[6.986872,44.749346],[6.986701,44.749098],[6.986335,44.748879],[6.985717,44.748353],[6.985381,44.748237],[6.984805,44.748231],[6.984509,44.747748],[6.984579,44.747464],[6.985102,44.746925],[6.985119,44.746616],[6.984971,44.746306],[6.984492,44.746083],[6.984439,44.745947],[6.984596,44.745749],[6.984361,44.745465],[6.984047,44.744691],[6.984056,44.744548],[6.983821,44.744388],[6.983847,44.744189],[6.984073,44.744059],[6.984065,44.743899],[6.984161,44.74375],[6.984182,44.743259],[6.98436,44.742748],[6.984397,44.742304],[6.984248,44.741581],[6.984332,44.741355],[6.984248,44.741116],[6.984276,44.740897],[6.98408,44.740486],[6.983809,44.740214],[6.984089,44.739796],[6.983949,44.739577],[6.983613,44.739299],[6.983641,44.738529],[6.983725,44.738297],[6.983613,44.73774],[6.983594,44.737381],[6.983687,44.737268],[6.983613,44.737109],[6.982949,44.736778],[6.982959,44.736658],[6.982763,44.736572],[6.982716,44.736466],[6.982576,44.736446],[6.982548,44.7363],[6.982286,44.736333],[6.982146,44.736472],[6.982053,44.736466],[6.981992,44.736368],[6.981788,44.736236],[6.981763,44.736094],[6.981623,44.736021],[6.981604,44.735802],[6.981446,44.735643],[6.981688,44.735318],[6.981679,44.735039],[6.982043,44.734754],[6.982249,44.734482],[6.982548,44.73427],[6.982669,44.734097],[6.983136,44.73354],[6.98322,44.733168],[6.983061,44.732863],[6.982912,44.73271],[6.982828,44.732452],[6.982912,44.732359],[6.982819,44.732272],[6.982819,44.731947],[6.983155,44.731775],[6.98337,44.731489],[6.983528,44.730806],[6.983939,44.730647],[6.984042,44.730434],[6.98421,44.730295],[6.984042,44.730023],[6.983398,44.729851],[6.983239,44.729724],[6.982707,44.729658],[6.982258,44.72932],[6.982352,44.729114],[6.982744,44.72859],[6.983043,44.728358],[6.983192,44.727926],[6.98308,44.72784],[6.982977,44.727588],[6.982772,44.727429],[6.982669,44.727263],[6.982305,44.727309],[6.981623,44.72705],[6.981306,44.726765],[6.980764,44.726035],[6.980915,44.725614],[6.980764,44.725123],[6.980544,44.724768],[6.980054,44.724291],[6.979493,44.723864],[6.979653,44.723559],[6.979603,44.723288],[6.979663,44.723139],[6.979553,44.722769],[6.979343,44.722477],[6.979263,44.722129],[6.979083,44.721965],[6.979123,44.721716],[6.979243,44.721446],[6.978912,44.719803],[6.978952,44.719334],[6.978742,44.71885],[6.978602,44.71838],[6.978182,44.718409],[6.978312,44.718281],[6.978092,44.718295],[6.978001,44.718131],[6.977801,44.718146],[6.977801,44.718046],[6.977971,44.717968],[6.978162,44.717456],[6.978322,44.717022],[6.978502,44.716993],[6.978612,44.71668],[6.978592,44.716431],[6.978672,44.716339],[6.978652,44.716047],[6.978732,44.715777],[6.978622,44.715578],[6.978612,44.714945],[6.978792,44.714376],[6.979003,44.714205],[6.979283,44.7137],[6.979433,44.713572],[6.979593,44.713344],[6.979903,44.713188],[6.980094,44.712903],[6.980224,44.712476],[6.980244,44.712355],[6.980644,44.711893],[6.980754,44.711523],[6.981055,44.711046],[6.981075,44.710797],[6.981145,44.710669],[6.981115,44.710228],[6.981165,44.710065],[6.981105,44.709894],[6.980945,44.709581],[6.981175,44.708919],[6.981505,44.70862],[6.982056,44.707795],[6.982126,44.70719],[6.982286,44.706671],[6.982476,44.706429],[6.982476,44.706009],[6.982656,44.705426],[6.982806,44.704409],[6.982947,44.704245],[6.983297,44.703562],[6.983757,44.702865],[6.984028,44.702495],[6.984108,44.701847],[6.984438,44.701591],[6.984488,44.70125],[6.985369,44.699762],[6.98595,44.699456],[6.98624,44.698894],[6.98625,44.698596],[6.98636,44.698453],[6.98633,44.698311],[6.9866,44.698261],[6.98658,44.698112],[6.98645,44.697955],[6.98666,44.697585],[6.986991,44.6974],[6.986821,44.697343],[6.986831,44.69718],[6.98653,44.697073],[6.98649,44.696938],[6.98656,44.696674],[6.98638,44.696468],[6.98658,44.696162],[6.98647,44.695948],[6.98665,44.695628],[6.98661,44.695372],[6.98596,44.695102],[6.985719,44.694846],[6.985519,44.694532],[6.985279,44.694411],[6.984989,44.694426],[6.984488,44.694298],[6.984288,44.694134],[6.984038,44.693935],[6.983727,44.693821],[6.983177,44.693408],[6.983157,44.692937],[6.982747,44.69242],[6.982322,44.692031],[6.981548,44.691826],[6.981245,44.691956],[6.980921,44.691741],[6.980114,44.691791],[6.979491,44.692053],[6.979066,44.692415],[6.978755,44.692787],[6.977906,44.692928],[6.977453,44.692858],[6.976518,44.692978],[6.975938,44.692928],[6.975329,44.692707],[6.974296,44.692576],[6.973942,44.692646],[6.972823,44.692747],[6.971365,44.692636],[6.971011,44.692687],[6.970402,44.692485],[6.971054,44.692153],[6.971266,44.691932],[6.971238,44.691821],[6.971464,44.691559],[6.971408,44.691358],[6.971691,44.691278],[6.972172,44.690895],[6.972597,44.690513],[6.973191,44.690221],[6.973191,44.689949],[6.973545,44.689295],[6.974182,44.688812],[6.974225,44.68857],[6.974579,44.688117],[6.974664,44.687765],[6.974734,44.687493],[6.974763,44.687171],[6.974947,44.68695],[6.974947,44.686628],[6.975216,44.685742],[6.975046,44.685581],[6.974961,44.685319],[6.974749,44.685309],[6.974678,44.685128],[6.974267,44.684947],[6.973319,44.684202],[6.973276,44.68392],[6.974126,44.684222],[6.973474,44.683115],[6.973135,44.682974],[6.972951,44.682974],[6.972625,44.682894],[6.972342,44.682501],[6.97179,44.681978],[6.97162,44.681937],[6.971478,44.681827],[6.971266,44.681837],[6.9707,44.681696],[6.970417,44.681474],[6.970318,44.681474],[6.970006,44.681384],[6.96927,44.681424],[6.968675,44.681293],[6.96818,44.681283],[6.966906,44.681092],[6.966481,44.681092],[6.966325,44.680981],[6.966141,44.680991],[6.965957,44.680921],[6.965278,44.681052],[6.964952,44.681052],[6.964641,44.680941],[6.964301,44.681152],[6.963919,44.681243],[6.963763,44.681243],[6.963423,44.681354],[6.963069,44.681394],[6.962404,44.681625],[6.96246,44.681354],[6.961753,44.681585],[6.96171,44.681374],[6.96137,44.681414],[6.96096,44.681333],[6.960464,44.681364],[6.960294,44.681404],[6.960252,44.681625],[6.959898,44.681978],[6.959035,44.681806],[6.959035,44.681474],[6.958284,44.681394],[6.957661,44.681253],[6.957123,44.680921],[6.956883,44.681021],[6.956373,44.680971],[6.955467,44.681041],[6.955014,44.681021],[6.954533,44.681122],[6.953712,44.681031],[6.95323,44.680739],[6.952041,44.680971],[6.951432,44.680719],[6.950909,44.680397],[6.950441,44.680337],[6.950286,44.680367],[6.950215,44.680246],[6.94979,44.680226],[6.949479,44.680297],[6.949295,44.680488],[6.94921,44.680699],[6.949096,44.680901],[6.949054,44.681072],[6.948813,44.681263],[6.948714,44.681434],[6.948346,44.681565],[6.947865,44.681515],[6.94744,44.681343],[6.947299,44.681092],[6.947058,44.680961],[6.946775,44.680609],[6.946704,44.680407],[6.946308,44.680075],[6.945487,44.679783],[6.944878,44.679783],[6.944906,44.679592],[6.944524,44.679451],[6.944142,44.679511],[6.944071,44.679471],[6.943151,44.679612],[6.942981,44.679743],[6.94274,44.679823],[6.942301,44.680156],[6.941721,44.680367],[6.941508,44.680287],[6.941282,44.680276],[6.941126,44.680166],[6.940277,44.679954],[6.940064,44.679511],[6.939767,44.679139],[6.939654,44.678907],[6.939569,44.678646],[6.939187,44.678666],[6.938677,44.678585],[6.938238,44.678636],[6.9377,44.678616],[6.937261,44.678475],[6.936085,44.678327],[6.93601,44.67806],[6.936042,44.677763],[6.935914,44.677694],[6.93571,44.677847],[6.935259,44.677732],[6.934873,44.677831],[6.934637,44.677808],[6.934154,44.677595],[6.933939,44.677404],[6.933628,44.677244],[6.933178,44.677198],[6.932845,44.677068],[6.932802,44.676817],[6.932888,44.676405],[6.932158,44.676763],[6.931643,44.676916],[6.931343,44.677038],[6.930968,44.677061],[6.930742,44.676984],[6.930485,44.676946],[6.930099,44.676679],[6.929809,44.676618],[6.929594,44.676511],[6.929326,44.676519],[6.928908,44.676389],[6.928146,44.675977],[6.927577,44.675924],[6.927127,44.67581],[6.926891,44.67584],[6.926429,44.675741],[6.926043,44.67581],[6.92585,44.675817],[6.92541,44.675932],[6.924959,44.675901],[6.924745,44.676008],[6.924466,44.675985],[6.924176,44.676046],[6.924144,44.675787],[6.923844,44.675665],[6.923728,44.675661],[6.923671,44.675601],[6.923501,44.675636],[6.923154,44.675601],[6.923175,44.675379],[6.923027,44.675359],[6.923076,44.675263],[6.92285,44.675339],[6.922567,44.675319],[6.922269,44.675248],[6.922284,44.675017],[6.922194,44.674832],[6.921713,44.674818],[6.921353,44.674476],[6.921123,44.674419],[6.921063,44.67427],[6.920742,44.674298],[6.920602,44.674163],[6.920422,44.674248],[6.920432,44.674077],[6.920202,44.674277],[6.920192,44.674092],[6.919851,44.674376],[6.919661,44.674369],[6.919511,44.674006],[6.919071,44.674248],[6.91893,44.674462],[6.91847,44.674732],[6.91823,44.675003],[6.917879,44.675245],[6.917599,44.675501],[6.917209,44.675615],[6.917038,44.675615],[6.916728,44.675878],[6.916528,44.676113],[6.916238,44.676184],[6.915867,44.676177],[6.915477,44.676384],[6.915327,44.67664],[6.914916,44.676804],[6.914175,44.676889],[6.913805,44.676854],[6.913244,44.67669],[6.912814,44.676782],[6.912384,44.676626],[6.912153,44.67659],[6.912012,44.676331],[6.911639,44.676059],[6.911293,44.675992],[6.910705,44.675647],[6.910228,44.675521],[6.909855,44.675554],[6.909033,44.675368],[6.90878,44.675208],[6.908519,44.675235],[6.90822,44.675142],[6.907959,44.675109],[6.907744,44.674943],[6.907473,44.674969],[6.907081,44.674797],[6.90681,44.674876],[6.906614,44.674757],[6.90553,44.67469],[6.905213,44.674637],[6.904026,44.67475],[6.903261,44.674644],[6.902775,44.674458],[6.902261,44.674206],[6.901869,44.674113],[6.901094,44.674066],[6.900711,44.673933],[6.900225,44.673873],[6.899786,44.67386],[6.898169,44.67412],[6.896968,44.67449],[6.896147,44.67486],[6.894765,44.675843],[6.893384,44.676469],[6.892543,44.676711],[6.891842,44.677124],[6.891042,44.677338],[6.890461,44.677608],[6.88956,44.677822],[6.889079,44.678021],[6.888399,44.678206],[6.888018,44.678363],[6.887598,44.678519],[6.887298,44.678861],[6.885996,44.67953],[6.884335,44.680313],[6.883754,44.680982],[6.883314,44.681309],[6.882713,44.68158],[6.881291,44.682491],[6.88029,44.68306],[6.87981,44.683815],[6.878986,44.684415],[6.878536,44.685071],[6.877592,44.685818],[6.877334,44.685895],[6.876969,44.686215],[6.875961,44.6871],[6.876411,44.687664],[6.876025,44.688229],[6.875939,44.688961],[6.875961,44.689449],[6.875918,44.689937],[6.875682,44.690166],[6.875682,44.69041],[6.875725,44.690608],[6.87551,44.690974],[6.875467,44.691371],[6.875231,44.691798],[6.875253,44.692713],[6.875339,44.692988],[6.874909,44.693385],[6.874523,44.693888],[6.874287,44.694407],[6.874201,44.69491],[6.874523,44.695246],[6.874545,44.69584],[6.873965,44.696039],[6.873343,44.696512],[6.873,44.696954],[6.872635,44.697198],[6.872249,44.697717],[6.871669,44.698052],[6.87109,44.698586],[6.868494,44.698952],[6.86682,44.699059],[6.866047,44.69973],[6.865618,44.69976],[6.864411,44.698996],[6.86417,44.698956],[6.864184,44.698765],[6.863774,44.698594],[6.863742,44.698307],[6.863847,44.698213],[6.863728,44.697988],[6.863359,44.697837],[6.862791,44.698035],[6.862434,44.697969],[6.861773,44.697969],[6.86143,44.697912],[6.860915,44.697912],[6.859951,44.697978],[6.859673,44.698147],[6.859039,44.69825],[6.859,44.697866],[6.858617,44.697424],[6.85789,44.697415],[6.857415,44.697265],[6.857098,44.697349],[6.856622,44.697302],[6.856199,44.697349],[6.855697,44.697265],[6.855063,44.696964],[6.854588,44.696889],[6.853967,44.696917],[6.853201,44.696579],[6.852607,44.695791],[6.852065,44.695312],[6.851061,44.694645],[6.850889,44.694316],[6.849252,44.694467],[6.849252,44.694729],[6.849397,44.695039],[6.849318,44.695133],[6.849146,44.695105],[6.848618,44.694814],[6.848499,44.694889],[6.848367,44.694786],[6.848327,44.694927],[6.848129,44.694786],[6.848063,44.69519],[6.847627,44.694795],[6.847151,44.694805],[6.8469,44.694729],[6.846636,44.695039],[6.846438,44.695105],[6.845936,44.694992],[6.845196,44.694983],[6.844153,44.694748],[6.843532,44.694457],[6.843308,44.694485],[6.84307,44.69442],[6.842647,44.694485],[6.842,44.694354],[6.841564,44.694166],[6.841075,44.694082],[6.840877,44.694138],[6.840706,44.69396],[6.840534,44.693922],[6.84019,44.693969],[6.839979,44.693913],[6.839358,44.693988],[6.8392,44.6941],[6.838143,44.694391],[6.83776,44.694335],[6.837747,44.694166],[6.837958,44.693988],[6.838249,44.693875],[6.838222,44.693762],[6.837879,44.693603],[6.837786,44.693462],[6.837496,44.693575],[6.837271,44.693481],[6.8371,44.693302],[6.83673,44.693218],[6.836399,44.693237],[6.836016,44.693208],[6.835858,44.693152],[6.835739,44.693152],[6.835316,44.693002],[6.834986,44.693011],[6.834696,44.692805],[6.834497,44.692908],[6.834418,44.692758],[6.834299,44.692767],[6.83426,44.692664],[6.834022,44.692776],[6.834035,44.692673],[6.833758,44.692776],[6.833811,44.692485],[6.833375,44.692119],[6.832886,44.691819],[6.832292,44.69164],[6.831975,44.691621],[6.831525,44.691499],[6.831182,44.691509],[6.830825,44.691283],[6.830588,44.691283],[6.830442,44.691208],[6.830178,44.69118],[6.830033,44.690795],[6.830086,44.690335],[6.83035,44.689922],[6.830191,44.689922],[6.830429,44.68964],[6.830667,44.689499],[6.830588,44.689396],[6.830535,44.68902],[6.83035,44.688673],[6.830218,44.688739],[6.829914,44.688598],[6.829676,44.688551],[6.82932,44.688363],[6.829016,44.68825],[6.829016,44.687846],[6.828923,44.687537],[6.828752,44.687537],[6.828329,44.687048],[6.828263,44.686804],[6.828184,44.686682],[6.827985,44.686306],[6.827721,44.686053],[6.82784,44.685856],[6.827457,44.685508],[6.827219,44.685527],[6.827153,44.685349],[6.827418,44.685104],[6.827431,44.684879],[6.827246,44.684832],[6.827338,44.684738],[6.826638,44.684447],[6.826678,44.684297],[6.8264,44.684081],[6.826414,44.683837],[6.826797,44.683386],[6.826361,44.683433],[6.826559,44.682963],[6.826387,44.682756],[6.826414,44.682597],[6.826202,44.682634],[6.82644,44.682371],[6.826916,44.682249],[6.826678,44.682146],[6.826902,44.681827],[6.826731,44.681479],[6.826651,44.681489],[6.826559,44.681122],[6.826414,44.681207],[6.826295,44.681047],[6.826004,44.681066],[6.825992,44.680711],[6.826214,44.680536],[6.826165,44.680387],[6.825844,44.680255],[6.825647,44.680264],[6.826054,44.679984],[6.825635,44.679957],[6.825832,44.679589],[6.826189,44.679326],[6.826066,44.678879],[6.826202,44.678722],[6.82651,44.678643],[6.826325,44.678389],[6.826374,44.678301],[6.826054,44.678099],[6.826448,44.677074],[6.825894,44.677109],[6.825672,44.677214],[6.825586,44.677065],[6.825265,44.67703],[6.824982,44.677127],[6.824698,44.677372],[6.823811,44.677469],[6.823503,44.677644],[6.822776,44.677872],[6.821691,44.677653],[6.820902,44.67781],[6.820976,44.677267],[6.820644,44.67739],[6.820335,44.6776],[6.820114,44.677661],[6.820175,44.677495],[6.819867,44.677565],[6.819867,44.677469],[6.81967,44.677539],[6.819695,44.677337],[6.819473,44.677407],[6.819584,44.676995],[6.818425,44.67696],[6.818129,44.676925],[6.818055,44.676776],[6.817772,44.676802],[6.816318,44.676478],[6.816342,44.676373],[6.815566,44.676443],[6.815578,44.676294],[6.815283,44.67625],[6.815504,44.67597],[6.816268,44.675339],[6.816318,44.675225],[6.815899,44.675321],[6.815048,44.6754],[6.815739,44.674857],[6.814962,44.674866],[6.81543,44.674463],[6.814691,44.674314],[6.815455,44.673744],[6.815085,44.673648],[6.815135,44.673551],[6.815024,44.673551],[6.815036,44.67335],[6.814703,44.673244],[6.814531,44.672719],[6.813283,44.672456],[6.812742,44.672864],[6.812593,44.673167],[6.812213,44.673404],[6.812317,44.674075],[6.812202,44.6745],[6.811661,44.674541],[6.811339,44.674729],[6.810822,44.674794],[6.810707,44.674909],[6.810672,44.675064],[6.810396,44.674999],[6.80981,44.67508],[6.809212,44.675048],[6.808809,44.675113],[6.808488,44.675097],[6.807786,44.675121],[6.807453,44.675236],[6.807234,44.675203],[6.80705,44.675432],[6.806878,44.675497],[6.80674,44.675686],[6.806165,44.675914],[6.805912,44.675931],[6.80582,44.676078],[6.805659,44.676045],[6.805097,44.676305],[6.804979,44.676122],[6.805118,44.675962],[6.804657,44.675985],[6.804872,44.67584],[6.804636,44.675718],[6.804324,44.675764],[6.804249,44.675878],[6.804174,44.676229],[6.803906,44.676382],[6.803445,44.676504],[6.802769,44.67655],[6.80249,44.676763],[6.801846,44.676931],[6.801589,44.677145],[6.801149,44.677183],[6.800719,44.677343],[6.800494,44.677396],[6.800355,44.677572],[6.800215,44.677595],[6.799649,44.677761],[6.79895,44.677657],[6.798006,44.677114],[6.797014,44.676813],[6.796559,44.676825],[6.795567,44.676536],[6.795079,44.676524],[6.794169,44.676235],[6.79238,44.675345],[6.7909,44.675506],[6.790591,44.675437],[6.790282,44.675183],[6.789648,44.67531],[6.789095,44.675171],[6.788965,44.674974],[6.788444,44.674674],[6.787631,44.674628],[6.787225,44.6745],[6.78633,44.673668],[6.786375,44.673612],[6.785753,44.673658],[6.78557,44.673422],[6.785731,44.673475],[6.785527,44.673101],[6.784798,44.672773],[6.784326,44.672697],[6.784197,44.672483],[6.783875,44.672437],[6.783661,44.671903],[6.783178,44.671568],[6.782942,44.671369],[6.783446,44.671461],[6.782802,44.671112],[6.781549,44.670649],[6.78124,44.670441],[6.779419,44.669574],[6.778508,44.668811],[6.778118,44.668383],[6.777549,44.669158],[6.777305,44.669331],[6.77711,44.669747],[6.77659,44.67006],[6.77576,44.67036],[6.775142,44.67043],[6.774248,44.670279],[6.772101,44.670175],[6.770817,44.670291],[6.769711,44.670233],[6.769451,44.671124],[6.769548,44.671586],[6.769743,44.671713],[6.769776,44.67213],[6.769711,44.672604],[6.770117,44.673598],[6.770459,44.674211],[6.77093,44.67457],[6.771191,44.675113],[6.771548,44.67561],[6.77163,44.676593],[6.771939,44.676327],[6.77189,44.676802],[6.77202,44.676732],[6.77215,44.677241],[6.772209,44.678098],[6.772565,44.677738],[6.772358,44.678114],[6.772358,44.678417],[6.772542,44.678228],[6.772611,44.678359],[6.772749,44.678261],[6.77291,44.678457],[6.773013,44.678351],[6.773002,44.678547],[6.773186,44.678523],[6.773266,44.678302],[6.773439,44.678498],[6.773462,44.678106],[6.773565,44.678359],[6.773623,44.678163],[6.773772,44.67858],[6.77391,44.678425],[6.773991,44.678744],[6.774152,44.678433],[6.774313,44.678556],[6.774348,44.678396],[6.774563,44.678556],[6.774691,44.678434],[6.774799,44.678571],[6.774766,44.678792],[6.77497,44.678564],[6.77496,44.679037],[6.775314,44.679105],[6.775839,44.678922],[6.776285,44.678877],[6.777007,44.679069],[6.777502,44.679401],[6.778012,44.679954],[6.778153,44.680468],[6.778323,44.680679],[6.778521,44.681635],[6.778762,44.681917],[6.779328,44.6823],[6.779442,44.682642],[6.779371,44.683326],[6.779413,44.683729],[6.779541,44.683729],[6.779597,44.684041],[6.779796,44.684172],[6.77988,44.684575],[6.780206,44.684605],[6.780093,44.684695],[6.780093,44.684776],[6.780517,44.684876],[6.780546,44.685188],[6.780786,44.685722],[6.780956,44.68696],[6.780832,44.687282],[6.780626,44.687421],[6.780449,44.687687],[6.78043,44.68786],[6.780496,44.688026],[6.780412,44.688324],[6.780253,44.688311],[6.780131,44.688178],[6.779786,44.688118],[6.779861,44.688258],[6.77958,44.688258],[6.779552,44.688391],[6.779627,44.688484],[6.77958,44.689041],[6.779524,44.689347],[6.779253,44.689652],[6.778814,44.689891],[6.778559,44.689944],[6.778402,44.689937],[6.778254,44.690049],[6.778088,44.690049],[6.777914,44.690222],[6.777853,44.69039],[6.777539,44.690427],[6.777217,44.690346],[6.777034,44.690253],[6.776973,44.690129],[6.77679,44.690235],[6.776685,44.690421],[6.776502,44.690396],[6.776328,44.690693],[6.776145,44.690551],[6.776154,44.690371],[6.775674,44.690427],[6.775003,44.690582],[6.774742,44.69073],[6.774437,44.690811],[6.774236,44.691127],[6.773016,44.691821],[6.772764,44.692155],[6.77286,44.692471],[6.772624,44.692787],[6.772284,44.692967],[6.771744,44.692985],[6.771507,44.693381],[6.771039,44.69367],[6.769732,44.694152],[6.769227,44.694309],[6.768845,44.694651],[6.768333,44.694718],[6.768103,44.694873],[6.767942,44.695258],[6.767299,44.695691],[6.766333,44.696639],[6.765999,44.69677],[6.765781,44.697039],[6.765804,44.697187],[6.765196,44.697549],[6.764359,44.698075],[6.763673,44.69825],[6.763415,44.698289],[6.763233,44.698372],[6.763008,44.698426],[6.762514,44.698616],[6.7623,44.699105],[6.76172,44.699135],[6.761447,44.699328],[6.761107,44.699905],[6.760857,44.700111],[6.760156,44.700488],[6.760146,44.700623],[6.759846,44.701001],[6.758935,44.701805],[6.758364,44.702103],[6.758144,44.702587],[6.758064,44.703],[6.757423,44.703413],[6.756823,44.703911],[6.756352,44.704039],[6.756125,44.704219],[6.755672,44.704505],[6.755149,44.705205],[6.754979,44.705295],[6.754759,44.705175],[6.754724,44.704782],[6.75483,44.70443],[6.75471,44.704096],[6.75411,44.70342],[6.753219,44.703569],[6.752949,44.703697],[6.752638,44.703683],[6.752118,44.70359],[6.751547,44.70374],[6.751017,44.704444],[6.750876,44.704487],[6.750736,44.704608],[6.750446,44.704764],[6.750246,44.704985],[6.749845,44.705163],[6.749705,44.705291],[6.749575,44.705447],[6.749365,44.70559],[6.748965,44.705725],[6.748704,44.705874],[6.748469,44.706091],[6.748002,44.706224],[6.747768,44.706443],[6.747619,44.706748],[6.74774,44.706781],[6.748039,44.706555],[6.748263,44.706555],[6.748544,44.706502],[6.748786,44.706542],[6.749048,44.706682],[6.749141,44.706828],[6.749039,44.707332],[6.748964,44.707551],[6.749048,44.707803],[6.749291,44.707717],[6.749692,44.707803],[6.749832,44.708042],[6.749851,44.708235],[6.749015,44.708877],[6.748559,44.709026],[6.748227,44.708956],[6.747918,44.709026],[6.747808,44.709254],[6.747906,44.709344],[6.747906,44.709438],[6.747802,44.709438],[6.747658,44.709397],[6.74744,44.709291],[6.747413,44.709456],[6.747431,44.709679],[6.747213,44.70992],[6.745714,44.709555],[6.745287,44.70953],[6.74493,44.709369],[6.744302,44.709276],[6.743901,44.709394],[6.743614,44.709604],[6.743204,44.709765],[6.743631,44.709827],[6.74384,44.709827],[6.743927,44.709889],[6.743319,44.710101],[6.743744,44.710236],[6.74382,44.710338],[6.743463,44.710484],[6.743031,44.710511],[6.742849,44.710592],[6.743152,44.710743],[6.743744,44.710818],[6.744245,44.711481],[6.744009,44.711492],[6.743934,44.711557],[6.74341,44.711595],[6.742962,44.711681],[6.742871,44.711993],[6.742978,44.712128],[6.743311,44.712193],[6.743486,44.712301],[6.743387,44.712387],[6.743607,44.7125],[6.743501,44.712587],[6.743797,44.712657],[6.743888,44.712786],[6.743706,44.712829],[6.744009,44.713023],[6.743873,44.713066],[6.744229,44.713228],[6.743971,44.713282],[6.744366,44.713492],[6.744025,44.713541],[6.744275,44.713659],[6.744358,44.713864],[6.744601,44.714026],[6.744381,44.714085],[6.744616,44.714172],[6.744715,44.714382],[6.745072,44.714651],[6.74517,44.714829],[6.745041,44.714829],[6.745238,44.715039],[6.745223,44.715126],[6.74498,44.715142],[6.745185,44.715374],[6.745481,44.715622],[6.745633,44.716015],[6.745572,44.716107],[6.74539,44.716042],[6.745474,44.716376],[6.745329,44.716695],[6.745428,44.71684],[6.745709,44.716926],[6.745762,44.71704],[6.74602,44.717142],[6.745337,44.717],[6.745573,44.717138],[6.745772,44.717275],[6.745949,44.717568],[6.746088,44.717679],[6.746233,44.717751],[6.746029,44.717728],[6.745707,44.717469],[6.745493,44.717389],[6.744978,44.717363],[6.74464,44.717401],[6.744415,44.717313],[6.744205,44.71726],[6.744103,44.717035],[6.744103,44.716741],[6.744162,44.71649],[6.744125,44.716276],[6.743733,44.716166],[6.743664,44.716101],[6.743519,44.716185],[6.743208,44.716147],[6.742827,44.71591],[6.742526,44.716158],[6.742226,44.716352],[6.742086,44.716539],[6.742392,44.716505],[6.742162,44.716637],[6.742035,44.716784],[6.74244,44.717451],[6.742464,44.717711],[6.742749,44.71815],[6.743342,44.718496],[6.74348,44.718618],[6.743464,44.718704],[6.743188,44.718583],[6.742497,44.718491],[6.742155,44.718392],[6.742017,44.718213],[6.741903,44.718225],[6.741537,44.718543],[6.741513,44.718647],[6.741366,44.718704],[6.741179,44.718652],[6.741033,44.718941],[6.740586,44.719138],[6.740252,44.719426],[6.739838,44.719322],[6.739456,44.719322],[6.739204,44.718866],[6.739073,44.718352],[6.738943,44.718144],[6.738529,44.71804],[6.738,44.717711],[6.737675,44.717491],[6.737342,44.717427],[6.736585,44.717081],[6.736504,44.717127],[6.736537,44.7173],[6.736211,44.7173],[6.735471,44.717087],[6.735073,44.717058],[6.73452,44.717104],[6.734227,44.717185],[6.733992,44.717133],[6.733796,44.717179],[6.734927,44.717843],[6.735341,44.717976],[6.735569,44.718138],[6.735878,44.718271],[6.736219,44.718693],[6.736301,44.719496],[6.736203,44.719981],[6.736244,44.720212],[6.736211,44.720386],[6.73591,44.7199],[6.735902,44.719698],[6.735642,44.719282],[6.734967,44.718982],[6.73374,44.718675],[6.733252,44.718612],[6.732748,44.71867],[6.732243,44.718618],[6.732837,44.719005],[6.733211,44.718976],[6.73287,44.719213],[6.73243,44.719218],[6.73217,44.719166],[6.731967,44.719172],[6.731796,44.719403],[6.73152,44.719571],[6.731308,44.719554],[6.731162,44.719461],[6.730357,44.719513],[6.730203,44.71971],[6.729975,44.719681],[6.72952,44.719785],[6.729243,44.719692],[6.728788,44.719669],[6.728585,44.719617],[6.728056,44.719623],[6.72804,44.719686],[6.728511,44.719883],[6.728154,44.719923],[6.728129,44.719987],[6.727763,44.720016],[6.727552,44.720097],[6.72704,44.72012],[6.726755,44.719866],[6.726804,44.718901],[6.726194,44.719455],[6.726121,44.71964],[6.725966,44.719808],[6.725885,44.719975],[6.725934,44.720102],[6.725625,44.720258],[6.725698,44.720102],[6.725495,44.720126],[6.725422,44.719958],[6.725503,44.719785],[6.72536,44.719692],[6.72528,44.719566],[6.725194,44.719661],[6.725188,44.719821],[6.724899,44.71965],[6.72484,44.719531],[6.724754,44.719753],[6.724684,44.719775],[6.724542,44.719823],[6.724655,44.719888],[6.724591,44.719938],[6.724676,44.719989],[6.724542,44.720024],[6.72452,44.72015],[6.724343,44.720099],[6.724301,44.720185],[6.724089,44.72015],[6.724124,44.72021],[6.724046,44.72021],[6.724032,44.72028],[6.723657,44.720275],[6.723798,44.720396],[6.723735,44.720567],[6.723515,44.720436],[6.723544,44.720547],[6.722673,44.72024],[6.722779,44.719697],[6.722687,44.719521],[6.722453,44.719702],[6.722241,44.719843],[6.721972,44.720094],[6.721597,44.720336],[6.72142,44.720336],[6.720946,44.720688],[6.720323,44.721316],[6.71982,44.721689],[6.719693,44.721829],[6.718992,44.722061],[6.718702,44.722347],[6.718645,44.722579],[6.718525,44.72274],[6.718482,44.723016],[6.718376,44.723172],[6.718327,44.723338],[6.718015,44.723685],[6.717817,44.723992],[6.717654,44.724098],[6.717555,44.724324],[6.717421,44.72449],[6.717265,44.724812],[6.717024,44.724948],[6.71672,44.725013],[6.716444,44.7253],[6.716253,44.725395],[6.71604,44.725647],[6.715757,44.725797],[6.715594,44.726094],[6.71558,44.726391],[6.714972,44.726818],[6.714596,44.726994],[6.714526,44.727125],[6.714391,44.727185],[6.71425,44.727326],[6.71369,44.727437],[6.713379,44.727593],[6.713195,44.727623],[6.713046,44.727678],[6.712551,44.727789],[6.712268,44.727774],[6.712268,44.72795],[6.712289,44.728101],[6.712105,44.728538],[6.712154,44.729021],[6.712268,44.729227],[6.712586,44.729363],[6.712799,44.7298],[6.712975,44.730082],[6.713068,44.730333],[6.712898,44.73065],[6.712664,44.730917],[6.712707,44.731259],[6.712091,44.732486],[6.711935,44.732697],[6.712077,44.732747],[6.711956,44.732878],[6.712211,44.733014],[6.712756,44.733165],[6.712721,44.733225],[6.71214,44.733386],[6.711928,44.733506],[6.712204,44.733542],[6.712515,44.733677],[6.711808,44.734009],[6.711418,44.734402],[6.711185,44.734507],[6.710597,44.734472],[6.710456,44.734296],[6.710427,44.734331],[6.710137,44.734221],[6.710222,44.734482],[6.71018,44.734794],[6.710371,44.734889],[6.710661,44.73494],[6.71093,44.735142],[6.710656,44.735184],[6.710678,44.735318],[6.710506,44.735493],[6.710774,44.73555],[6.710576,44.735622],[6.710656,44.735695],[6.710817,44.73568],[6.710946,44.735706],[6.710855,44.735824],[6.711144,44.735923],[6.711016,44.73603],[6.711048,44.736057],[6.710994,44.736152],[6.711155,44.736209],[6.711155,44.736301],[6.711413,44.736381],[6.711965,44.73627],[6.711842,44.736499],[6.711643,44.736701],[6.71189,44.736708],[6.711794,44.736815],[6.711912,44.73691],[6.712212,44.736823],[6.712303,44.736868],[6.71225,44.736975],[6.712486,44.736933],[6.712598,44.736849],[6.712716,44.736948],[6.712625,44.737093],[6.712646,44.737189],[6.712512,44.737238],[6.712389,44.737413],[6.712566,44.73741],[6.712593,44.737589],[6.712695,44.737661],[6.712539,44.737726],[6.712593,44.737836],[6.713017,44.737863],[6.71307,44.738],[6.712947,44.738156],[6.713231,44.73832],[6.713499,44.738652],[6.713558,44.739052],[6.713499,44.739162],[6.713526,44.739292],[6.713778,44.739303],[6.714073,44.739284],[6.714336,44.739505],[6.714745,44.739706],[6.714957,44.740139],[6.715,44.740591],[6.714889,44.740733],[6.714839,44.740932],[6.714639,44.741095],[6.714619,44.741301],[6.714249,44.741685],[6.714078,44.741963],[6.714048,44.742155],[6.713868,44.742084],[6.713728,44.74214],[6.713608,44.742105],[6.713518,44.742197],[6.713378,44.742283],[6.713278,44.74246],[6.713528,44.742475],[6.713758,44.742581],[6.713518,44.742766],[6.713638,44.74283],[6.713468,44.742965],[6.713518,44.743043],[6.713398,44.743093],[6.713107,44.743378],[6.713167,44.743854],[6.712957,44.743961],[6.713187,44.744259],[6.712757,44.744864],[6.712777,44.745624],[6.712557,44.746278],[6.712667,44.746954],[6.712487,44.74721],[6.712637,44.747622],[6.712977,44.747807],[6.713408,44.748489],[6.713618,44.748802],[6.713638,44.749065],[6.713748,44.7493],[6.713578,44.749577],[6.713318,44.749776],[6.712927,44.75016],[6.712807,44.750601],[6.713338,44.751227],[6.713208,44.751674],[6.713518,44.751596],[6.713718,44.751852],[6.713818,44.752549],[6.713958,44.752933],[6.714048,44.753352],[6.713998,44.753757],[6.713838,44.7538],[6.713418,44.754098],[6.712867,44.754745],[6.712507,44.755534],[6.712437,44.755904],[6.712226,44.756565],[6.712347,44.757319],[6.712967,44.758371],[6.712577,44.758307],[6.712937,44.758861],[6.712937,44.759373],[6.713187,44.759529],[6.713418,44.759771],[6.713888,44.760013],[6.713898,44.760425],[6.714068,44.760254],[6.714158,44.760041],[6.714259,44.76002],[6.714289,44.760119],[6.714559,44.759792],[6.715119,44.759622],[6.71529,44.759472],[6.71563,44.759316],[6.71572,44.759352],[6.71554,44.759551],[6.71546,44.759757],[6.715029,44.760233],[6.714909,44.760844],[6.714609,44.761178],[6.714649,44.761377],[6.715049,44.761498],[6.714969,44.761583],[6.7152,44.761669],[6.71556,44.761605],[6.71585,44.761797],[6.71605,44.761996],[6.71601,44.76223],[6.716341,44.762344],[6.716531,44.762252],[6.716821,44.762479],[6.717382,44.762927],[6.718453,44.763268],[6.719444,44.764114],[6.719975,44.764839],[6.720415,44.765045],[6.720785,44.765294],[6.721426,44.765564],[6.722147,44.766154],[6.721987,44.766125],[6.722517,44.766715],[6.722337,44.766964],[6.722447,44.767362],[6.722677,44.767504],[6.722868,44.767831],[6.723148,44.768023],[6.723118,44.768328],[6.723268,44.768392],[6.723258,44.76852],[6.723328,44.768662],[6.723268,44.768868],[6.723608,44.76906],[6.724119,44.76921],[6.724509,44.769451],[6.72502,44.769508],[6.72542,44.769828],[6.72504,44.770219],[6.724119,44.770588],[6.723478,44.77073],[6.723318,44.770944],[6.722547,44.770865],[6.721826,44.770887],[6.721136,44.770986],[6.720665,44.770986],[6.719914,44.770873],[6.720445,44.771178],[6.719864,44.771114],[6.719314,44.771228],[6.719024,44.771064],[6.719044,44.771342],[6.719784,44.771725],[6.720015,44.771953],[6.720685,44.77213],[6.720145,44.772294],[6.720535,44.772379],[6.720675,44.772386],[6.720966,44.772479],[6.721416,44.772507],[6.721856,44.772948],[6.722167,44.77309],[6.722327,44.773317],[6.723158,44.773651],[6.723178,44.773914],[6.723378,44.773943],[6.723458,44.774063],[6.723768,44.773964],[6.724409,44.774049],[6.72515,44.774255],[6.725831,44.774227],[6.726571,44.774291],[6.727042,44.774468],[6.727362,44.774476],[6.727793,44.774639],[6.727893,44.774753],[6.728293,44.774746],[6.728664,44.774866],[6.729594,44.774987],[6.730225,44.775129],[6.730515,44.775343],[6.730996,44.776558],[6.730996,44.776899],[6.731126,44.777233],[6.730866,44.777751],[6.731376,44.778007],[6.731266,44.778334],[6.731519,44.778568],[6.731583,44.778819],[6.731325,44.779132],[6.731304,44.779238],[6.731175,44.779383],[6.731111,44.779512],[6.730918,44.779665],[6.731004,44.779954],[6.730918,44.780205],[6.73051,44.780411],[6.73036,44.780678],[6.730177,44.780853],[6.731454,44.780936],[6.732259,44.78083],[6.732345,44.781279],[6.732237,44.78147],[6.732398,44.781675],[6.732377,44.78198],[6.732302,44.782162],[6.732409,44.782437],[6.732173,44.783389],[6.732227,44.783571],[6.732087,44.783845],[6.731905,44.784021],[6.731926,44.784447],[6.731851,44.784615],[6.731894,44.784767],[6.731862,44.785079],[6.731604,44.785818],[6.731561,44.786206],[6.731604,44.786526],[6.7314,44.787021],[6.731325,44.787561],[6.731433,44.787683],[6.731411,44.787965],[6.731476,44.788292],[6.731529,44.78862],[6.731433,44.788955],[6.731261,44.789176],[6.731615,44.789221],[6.731926,44.789084],[6.732334,44.78916],[6.732345,44.789655],[6.732495,44.78993],[6.732248,44.790333],[6.732109,44.791483]]],"type":"MultiLineString"},"properties":{"geo_point":{"lon":6.849146385578746,"lat":44.74895598138008},"name":"GR58 Tour du Queyras (Hautes-Alpes) (2019)","code_gr":"GR58"}}]}