{"type":"FeatureCollection","features":[{"type":"Feature","geometry":{"coordinates":[[[3.065831,44.576555],[3.065831,44.576555],[3.067326,44.576817],[3.068867,44.576653],[3.069925,44.575818],[3.071305,44.575244],[3.0728,44.574737],[3.073685,44.576629],[3.074548,44.576645],[3.074962,44.576891],[3.076249,44.576719],[3.080916,44.577177],[3.081583,44.577049],[3.082005,44.577466],[3.084136,44.578127],[3.086884,44.578868],[3.089746,44.578022],[3.090771,44.576922],[3.090836,44.576621],[3.092608,44.5761],[3.093356,44.5761],[3.09347,44.575984],[3.093909,44.576053],[3.094787,44.575775],[3.095861,44.575833],[3.096495,44.575984],[3.097178,44.575822],[3.097958,44.57588],[3.101715,44.57508],[3.105975,44.573864],[3.10661,44.573852],[3.107293,44.574096],[3.109781,44.574304],[3.110935,44.574478],[3.112431,44.574107],[3.113667,44.57369],[3.114204,44.57318],[3.115603,44.572451],[3.116969,44.571999],[3.11744,44.571373],[3.117847,44.571408],[3.118611,44.571709],[3.120936,44.571941],[3.122237,44.571489],[3.123636,44.571315],[3.123782,44.570458],[3.124026,44.570284],[3.124449,44.570122],[3.125457,44.569323],[3.125831,44.569288],[3.126335,44.569172],[3.1264,44.568987],[3.126839,44.568987],[3.128742,44.567944],[3.131019,44.567041],[3.132694,44.566172],[3.133751,44.56543],[3.134011,44.565013],[3.134629,44.565048],[3.135198,44.564839],[3.13606,44.564897],[3.13845,44.56426],[3.139085,44.564028],[3.140565,44.563831],[3.141491,44.563507],[3.141914,44.563426],[3.143248,44.562649],[3.14341,44.562371],[3.143898,44.562174],[3.144435,44.561769],[3.145394,44.561456],[3.14611,44.560981],[3.147508,44.560529],[3.149069,44.560321],[3.150728,44.559614],[3.151915,44.559266],[3.154159,44.558571],[3.155135,44.558142],[3.156208,44.558154],[3.157835,44.558293],[3.158459,44.557776],[3.158668,44.557081],[3.158372,44.55646],[3.159348,44.555578],[3.161195,44.553243],[3.161561,44.552436],[3.163723,44.548921],[3.164751,44.547182],[3.167139,44.544996],[3.16815,44.544213],[3.16855,44.543617],[3.168864,44.541853],[3.169474,44.539828],[3.16916,44.538971],[3.169143,44.538101],[3.16923,44.537393],[3.168951,44.536225],[3.16862,44.535927],[3.168603,44.535008],[3.169143,44.533604],[3.169614,44.532983],[3.170258,44.532424],[3.170293,44.531393],[3.170398,44.530535],[3.170712,44.529827],[3.170415,44.529218],[3.170136,44.527876],[3.169631,44.52774],[3.169927,44.527466],[3.170903,44.526286],[3.171182,44.525478],[3.171217,44.525031],[3.171688,44.524323],[3.171688,44.52354],[3.171165,44.522782],[3.171095,44.522409],[3.170694,44.521626],[3.170799,44.520595],[3.170764,44.520222],[3.171043,44.51919],[3.171165,44.518097],[3.170851,44.517326],[3.17106,44.516568],[3.171078,44.515947],[3.171339,44.515387],[3.171287,44.514406],[3.171025,44.514095],[3.170659,44.51407],[3.170363,44.513834],[3.170136,44.513387],[3.169509,44.512889],[3.168882,44.512007],[3.168725,44.511473],[3.168394,44.511087],[3.168341,44.510839],[3.168184,44.510503],[3.16808,44.510143],[3.167156,44.509335],[3.166755,44.509248],[3.166372,44.508775],[3.165814,44.508415],[3.166075,44.508166],[3.16679,44.508017],[3.167888,44.508141],[3.168028,44.50711],[3.16794,44.505842],[3.168062,44.505283],[3.168725,44.503679],[3.169195,44.503331],[3.169736,44.502623],[3.169683,44.502225],[3.169387,44.501429],[3.169248,44.499975],[3.168882,44.49857],[3.168533,44.497824],[3.168376,44.497277],[3.167836,44.496792],[3.167818,44.494952],[3.167592,44.494082],[3.167452,44.493274],[3.167139,44.492839],[3.166407,44.492428],[3.166023,44.491807],[3.167243,44.491123],[3.168306,44.490899],[3.169091,44.491024],[3.169213,44.490539],[3.169509,44.490103],[3.170084,44.490116],[3.172193,44.489382],[3.172015,44.48907],[3.172348,44.489239],[3.172543,44.488792],[3.172714,44.488728],[3.173202,44.488728],[3.174056,44.488444],[3.174422,44.488403],[3.174389,44.488264],[3.173983,44.488084],[3.172891,44.486629],[3.172817,44.485733],[3.172102,44.48495],[3.171856,44.484343],[3.17087,44.483183],[3.170328,44.482813],[3.169995,44.482022],[3.170229,44.481319],[3.169872,44.481037],[3.170106,44.480773],[3.170562,44.480378],[3.170796,44.480351],[3.170722,44.479947],[3.170747,44.479841],[3.170562,44.479525],[3.170681,44.478647],[3.171615,44.477941],[3.171821,44.477221],[3.171727,44.476421],[3.171578,44.475928],[3.171148,44.475661],[3.170027,44.474395],[3.169411,44.473369],[3.168851,44.472449],[3.168533,44.471076],[3.168197,44.470196],[3.167674,44.46925],[3.167506,44.468743],[3.167375,44.468663],[3.167263,44.46825],[3.16745,44.46773],[3.167935,44.467437],[3.168683,44.467144],[3.169037,44.466744],[3.169168,44.466464],[3.169224,44.46593],[3.170158,44.465917],[3.170457,44.465704],[3.169971,44.465117],[3.170177,44.464757],[3.170756,44.464197],[3.171167,44.463531],[3.171148,44.463024],[3.169673,44.462651],[3.168869,44.463424],[3.168626,44.463451],[3.168421,44.462477],[3.167282,44.460504],[3.167001,44.460184],[3.166889,44.459198],[3.167524,44.458691],[3.169467,44.458891],[3.170681,44.458678],[3.172138,44.458598],[3.173147,44.458371],[3.173409,44.457864],[3.173184,44.457024],[3.173427,44.455411],[3.172194,44.454291],[3.172942,44.453918],[3.174044,44.453878],[3.174884,44.454011],[3.175725,44.454291],[3.175912,44.454544],[3.176883,44.454611],[3.177668,44.454464],[3.17791,44.454144],[3.178228,44.454078],[3.178564,44.453278],[3.178975,44.452291],[3.179741,44.451451],[3.180283,44.450717],[3.181123,44.449731],[3.181273,44.44885],[3.180843,44.448717],[3.179648,44.448957],[3.178975,44.448917],[3.179013,44.44849],[3.17778,44.447984],[3.177668,44.447664],[3.178695,44.446463],[3.179685,44.446023],[3.180862,44.444903],[3.181366,44.444543],[3.181983,44.44381],[3.182039,44.443396],[3.182599,44.443223],[3.183533,44.442716],[3.184,44.442569],[3.184243,44.442409],[3.184822,44.442316],[3.185233,44.442529],[3.186186,44.442676],[3.186578,44.443063],[3.187363,44.443209],[3.187643,44.443116],[3.187736,44.442863],[3.188838,44.443129],[3.190108,44.443756],[3.19108,44.444143],[3.192107,44.44449],[3.193135,44.444943],[3.192892,44.444156],[3.19334,44.442796],[3.193396,44.441796],[3.193228,44.441422],[3.193901,44.441822],[3.195133,44.442849],[3.196123,44.443383],[3.196927,44.443329],[3.198776,44.442449],[3.198029,44.440342],[3.198141,44.439902],[3.198496,44.439528],[3.19971,44.437448],[3.202307,44.436021],[3.20565,44.4343],[3.207331,44.433793],[3.209218,44.433446],[3.213571,44.433553],[3.214112,44.43322],[3.214243,44.433006],[3.214561,44.433126],[3.214617,44.433406],[3.214934,44.433766],[3.21499,44.434087],[3.215345,44.434607],[3.216298,44.43546],[3.216709,44.435634],[3.217008,44.435954],[3.217624,44.437488],[3.217942,44.438115],[3.218184,44.438808],[3.219698,44.439662],[3.221379,44.439675],[3.222948,44.439929],[3.222574,44.439662],[3.223247,44.439742],[3.223901,44.439568],[3.224648,44.439502],[3.223546,44.439288],[3.224722,44.439262],[3.225899,44.439595],[3.226348,44.439822],[3.227599,44.439809],[3.228795,44.439688],[3.230719,44.439769],[3.231391,44.439542],[3.232082,44.439288],[3.233745,44.439502],[3.235258,44.439809],[3.237238,44.439328],[3.237967,44.439448],[3.238676,44.439448],[3.239087,44.439702],[3.239741,44.439408],[3.242151,44.439075],[3.240993,44.439462],[3.240133,44.440142],[3.239461,44.441262],[3.238789,44.441769],[3.238097,44.442743],[3.238564,44.443009],[3.238826,44.443329],[3.239909,44.443396],[3.242188,44.444316],[3.243421,44.444756],[3.24443,44.44493],[3.244841,44.444703],[3.245681,44.44477],[3.246429,44.44501],[3.246653,44.445157],[3.248633,44.44553],[3.249417,44.445597],[3.250053,44.445863],[3.250968,44.44581],[3.251995,44.446023],[3.252462,44.446237],[3.253209,44.44633],[3.253471,44.446557],[3.253826,44.446743],[3.254909,44.447477],[3.255059,44.447997],[3.256329,44.44849],[3.258104,44.448837],[3.259243,44.448984],[3.260868,44.44881],[3.263726,44.450677],[3.265258,44.450904],[3.266043,44.451477],[3.266398,44.451557],[3.267276,44.451051],[3.268023,44.450917],[3.268247,44.450651],[3.268303,44.450331],[3.268807,44.450064],[3.269498,44.449957],[3.271404,44.450064],[3.27288,44.449771],[3.274523,44.449677],[3.277232,44.449784],[3.279044,44.449664],[3.279847,44.449264],[3.281435,44.44861],[3.283135,44.448304],[3.284274,44.448144],[3.28504,44.447864],[3.285376,44.447264],[3.285675,44.44613],[3.285432,44.445543],[3.285526,44.44509],[3.285937,44.444303],[3.286049,44.443169],[3.286852,44.441622],[3.287282,44.441196],[3.28788,44.440942],[3.28872,44.440876],[3.289224,44.440595],[3.28999,44.440435],[3.290999,44.440635],[3.291952,44.440449],[3.292437,44.440529],[3.293614,44.440275],[3.29354,44.439408],[3.293745,44.438942],[3.294361,44.438728],[3.29537,44.438515],[3.295875,44.438261],[3.295949,44.437581],[3.296323,44.437048],[3.297107,44.436994],[3.298191,44.437341],[3.299069,44.437941],[3.29933,44.438341],[3.299872,44.438835],[3.300787,44.438862],[3.302917,44.439435],[3.303832,44.439382],[3.304206,44.439488],[3.304486,44.439675],[3.30514,44.439462],[3.3057,44.439488],[3.307157,44.439248],[3.307325,44.438942],[3.3074,44.438648],[3.30768,44.438101],[3.308857,44.437795],[3.311099,44.437181],[3.311566,44.436914],[3.313172,44.436314],[3.313826,44.435967],[3.314032,44.435714],[3.314386,44.435767],[3.316198,44.435767],[3.316535,44.435954],[3.316591,44.436474],[3.316964,44.436914],[3.317375,44.437128],[3.317861,44.437581],[3.318403,44.437741],[3.319075,44.437781],[3.319449,44.437968],[3.320177,44.438475],[3.321093,44.439048],[3.321447,44.439422],[3.321672,44.440315],[3.3224,44.441302],[3.323315,44.440755],[3.325258,44.440249],[3.326043,44.440169],[3.326547,44.440035],[3.327593,44.440009],[3.328303,44.440195],[3.329032,44.440155],[3.330283,44.439795],[3.330601,44.439795],[3.332338,44.439062],[3.332618,44.438728],[3.333291,44.438608],[3.33387,44.438008],[3.334561,44.437541],[3.336111,44.436581],[3.336952,44.43554],[3.336746,44.434607],[3.336858,44.434233],[3.33768,44.433606],[3.338969,44.432913],[3.339698,44.432753],[3.340277,44.432819],[3.341566,44.432459],[3.342481,44.431752],[3.343266,44.430698],[3.344088,44.430432],[3.34504,44.430392],[3.345956,44.430232],[3.346311,44.430245],[3.346665,44.429845],[3.347618,44.428898],[3.348589,44.428337],[3.348851,44.42783],[3.348832,44.42647],[3.348627,44.425269],[3.349617,44.424002],[3.350308,44.423348],[3.351242,44.422708],[3.353147,44.422241],[3.353689,44.422534],[3.354268,44.422481],[3.355651,44.422067],[3.356697,44.421347],[3.356902,44.420466],[3.358621,44.420119],[3.361292,44.419386],[3.362357,44.418839],[3.363104,44.418385],[3.363328,44.418171],[3.364262,44.417745],[3.366186,44.416731],[3.36755,44.415303],[3.368297,44.415436],[3.36981,44.41529],[3.371267,44.415223],[3.373658,44.414876],[3.374349,44.414676],[3.376217,44.414275],[3.378123,44.413635],[3.380514,44.413408],[3.383951,44.412581],[3.385763,44.412394],[3.38722,44.412234],[3.388228,44.412341],[3.390059,44.412581],[3.391479,44.412447],[3.392189,44.412554],[3.394729,44.412261],[3.396392,44.412421],[3.398166,44.412141],[3.398988,44.412234],[3.400651,44.412114],[3.401155,44.41186],[3.402257,44.411687],[3.40405,44.41166],[3.405339,44.411754],[3.406946,44.411593],[3.407786,44.41122],[3.40844,44.4111],[3.409505,44.410392],[3.410563,44.409849],[3.410797,44.409585],[3.411438,44.409461],[3.41227,44.409325],[3.412587,44.409058],[3.413428,44.409018],[3.413465,44.408805],[3.411877,44.40791],[3.411578,44.407283],[3.411578,44.406496],[3.411373,44.405562],[3.411672,44.404895],[3.412176,44.404241],[3.412083,44.403827],[3.411971,44.40336],[3.412886,44.401985],[3.413671,44.401598],[3.413876,44.401171],[3.413764,44.400771],[3.413484,44.39965],[3.413353,44.398609],[3.413671,44.397981],[3.413764,44.397434],[3.414156,44.396727],[3.414306,44.396179],[3.414754,44.395339],[3.415221,44.394951],[3.416323,44.394311],[3.417481,44.392709],[3.417892,44.392429],[3.418285,44.392042],[3.418789,44.391948],[3.419293,44.391428],[3.419387,44.391161],[3.420881,44.390186],[3.420825,44.39056],[3.422021,44.39048],[3.421759,44.390186],[3.422133,44.389986],[3.422282,44.389666],[3.422842,44.389893],[3.423272,44.389172],[3.423067,44.388638],[3.423141,44.388117],[3.423683,44.38733],[3.424206,44.386862],[3.425103,44.386489],[3.425065,44.386275],[3.42415,44.385995],[3.42288,44.384753],[3.422562,44.383819],[3.422525,44.382684],[3.422226,44.381616],[3.422618,44.380294],[3.422581,44.379747],[3.423011,44.379413],[3.422898,44.379279],[3.422338,44.379106],[3.421815,44.378719],[3.421174,44.378455],[3.420644,44.378085],[3.420891,44.378402],[3.421445,44.37901],[3.421125,44.378966],[3.420755,44.378816],[3.420385,44.378728],[3.419252,44.377997],[3.418845,44.377544],[3.418583,44.377103],[3.418079,44.376916],[3.417444,44.376128],[3.417294,44.375501],[3.416865,44.37458],[3.41623,44.374059],[3.415613,44.373792],[3.414661,44.373044],[3.413558,44.372804],[3.412737,44.372323],[3.411896,44.371535],[3.411317,44.371455],[3.411149,44.371375],[3.41113,44.370707],[3.411392,44.370734],[3.411429,44.371242],[3.411747,44.371308],[3.412232,44.371282],[3.412811,44.371629],[3.413913,44.371989],[3.414679,44.372083],[3.414661,44.371963],[3.413652,44.371655],[3.41311,44.371295],[3.412531,44.370494],[3.412606,44.370147],[3.412475,44.369773],[3.412662,44.369773],[3.412979,44.370053],[3.413185,44.370667],[3.413353,44.370681],[3.413484,44.369612],[3.412662,44.369399],[3.412288,44.369158],[3.412027,44.368744],[3.412101,44.368371],[3.412326,44.36813],[3.411336,44.367489],[3.410439,44.367503],[3.409766,44.367382],[3.409337,44.366781],[3.409561,44.366127],[3.409654,44.366621],[3.410177,44.367075],[3.410439,44.367022],[3.410682,44.366234],[3.410495,44.365633],[3.410271,44.365553],[3.410514,44.364538],[3.411915,44.364364],[3.412288,44.364672],[3.413372,44.364471],[3.4141,44.36395],[3.414941,44.363176],[3.415296,44.362214],[3.415542,44.362324],[3.415678,44.362227],[3.415739,44.362597],[3.415998,44.363584],[3.416158,44.363381],[3.416122,44.363773],[3.416724,44.363576],[3.416561,44.363494],[3.416691,44.363477],[3.416577,44.363366],[3.416805,44.363372],[3.417382,44.363215],[3.416854,44.36307],[3.41709,44.363023],[3.416984,44.36296],[3.41713,44.362948],[3.417016,44.362733],[3.417431,44.362837],[3.417884,44.3628],[3.41744,44.362571],[3.417613,44.361778],[3.417933,44.361284],[3.418142,44.361989],[3.418278,44.361496],[3.418118,44.361038],[3.418179,44.360879],[3.418093,44.360606],[3.418327,44.360588],[3.418586,44.360817],[3.418796,44.360465],[3.419005,44.360694],[3.419202,44.361179],[3.419658,44.361337],[3.420336,44.361223],[3.420755,44.361064],[3.421421,44.361073],[3.422567,44.360456],[3.42343,44.360412],[3.423861,44.35991],[3.424822,44.359381],[3.425747,44.359055],[3.426449,44.358976],[3.42672,44.358782],[3.426548,44.358615],[3.426474,44.35828],[3.426178,44.35872],[3.426141,44.358306],[3.426252,44.357883],[3.426449,44.357328],[3.426375,44.356835],[3.426562,44.355717],[3.426482,44.355358],[3.426535,44.354961],[3.426324,44.354659],[3.426403,44.353563],[3.426746,44.353053],[3.426773,44.352562],[3.426373,44.351583],[3.426541,44.350768],[3.426392,44.35002],[3.426186,44.349606],[3.426242,44.348738],[3.426653,44.348177],[3.426896,44.347963],[3.426896,44.347241],[3.426672,44.346988],[3.426261,44.346841],[3.42613,44.345131],[3.426373,44.34461],[3.426504,44.343635],[3.426578,44.342633],[3.426541,44.342192],[3.426578,44.341965],[3.426915,44.341617],[3.426915,44.341163],[3.427587,44.340989],[3.428353,44.340642],[3.42882,44.340402],[3.428596,44.339947],[3.428017,44.339453],[3.427811,44.338905],[3.427737,44.338144],[3.427699,44.335605],[3.426747,44.335498],[3.427195,44.335231],[3.427363,44.334884],[3.427307,44.33463],[3.427587,44.333815],[3.427681,44.333307],[3.427923,44.33308],[3.428689,44.332706],[3.428988,44.332185],[3.429231,44.330995],[3.429549,44.330314],[3.429623,44.329312],[3.429343,44.32839],[3.429212,44.326893],[3.42938,44.32537],[3.429156,44.324501],[3.429418,44.323953],[3.430034,44.323031],[3.430408,44.321908],[3.43037,44.321173],[3.430632,44.319917],[3.431603,44.31846],[3.433397,44.314758],[3.433285,44.314264],[3.432948,44.313756],[3.432836,44.3127],[3.433135,44.312419],[3.433079,44.311604],[3.433733,44.310882],[3.434013,44.310107],[3.434424,44.309091],[3.434032,44.308035],[3.433733,44.307714],[3.433546,44.306952],[3.434088,44.305843],[3.435003,44.304934],[3.434368,44.304787],[3.434536,44.304038],[3.434611,44.303383],[3.434947,44.303009],[3.434854,44.302113],[3.435115,44.301231],[3.435358,44.30087],[3.435564,44.300161],[3.435676,44.299586],[3.437002,44.29619],[3.437544,44.295776],[3.438496,44.294679],[3.439075,44.293583],[3.440215,44.292259],[3.440981,44.291176],[3.440962,44.290855],[3.440869,44.290708],[3.440943,44.29028],[3.441149,44.289746],[3.441168,44.289492],[3.442681,44.286256],[3.443241,44.285453],[3.443801,44.285012],[3.444156,44.284477],[3.445165,44.284169],[3.445669,44.283929],[3.446043,44.283608],[3.444866,44.282645],[3.445445,44.281789],[3.446174,44.281334],[3.447799,44.280532],[3.448677,44.27989],[3.448677,44.279609],[3.44905,44.279181],[3.449237,44.278084],[3.450526,44.276092],[3.4526,44.275062],[3.453048,44.27442],[3.453104,44.274152],[3.453739,44.273604],[3.454262,44.272975],[3.454262,44.272708],[3.454785,44.271798],[3.45514,44.270702],[3.456597,44.268387],[3.457755,44.267036],[3.45826,44.266863],[3.459194,44.266234],[3.460725,44.264174],[3.461043,44.264187],[3.46123,44.263692],[3.461136,44.263371],[3.461342,44.26317],[3.461155,44.262555],[3.461136,44.261458],[3.46222,44.259585],[3.461884,44.257338],[3.462145,44.256923],[3.461996,44.255839],[3.461491,44.255103],[3.461529,44.254193],[3.462239,44.253043],[3.462986,44.25228],[3.462967,44.251932],[3.463453,44.251036],[3.463808,44.250019],[3.464536,44.249055],[3.465321,44.248333],[3.4659,44.247477],[3.467058,44.246807],[3.467674,44.246794],[3.46816,44.24654],[3.468534,44.24654],[3.469225,44.246152],[3.470327,44.244907],[3.471168,44.243837],[3.471504,44.243676],[3.472251,44.242806],[3.472307,44.242097],[3.472755,44.24096],[3.472811,44.239835],[3.472643,44.239046],[3.472998,44.238216],[3.473148,44.23756],[3.47311,44.236878],[3.473727,44.23558],[3.474231,44.234147],[3.47509,44.23309],[3.475875,44.232769],[3.476753,44.231819],[3.476921,44.230908],[3.477257,44.229891],[3.477145,44.229383],[3.476772,44.228847],[3.476865,44.228205],[3.477369,44.227227],[3.478266,44.226705],[3.478453,44.22621],[3.478826,44.225461],[3.47877,44.224443],[3.478864,44.223359],[3.47963,44.22273],[3.48019,44.221686],[3.481031,44.221204],[3.481853,44.220414],[3.482805,44.220039],[3.483907,44.219959],[3.484449,44.219758],[3.484991,44.219798],[3.485645,44.220092],[3.486056,44.220414],[3.486616,44.220454],[3.487064,44.220039],[3.487344,44.219945],[3.487419,44.219129],[3.488222,44.218432],[3.488652,44.218272],[3.489362,44.218392],[3.490912,44.218178],[3.492687,44.21787],[3.493658,44.217335],[3.494275,44.21712],[3.494611,44.216853],[3.49547,44.216598],[3.496442,44.216558],[3.498758,44.215942],[3.500514,44.215915],[3.501298,44.2155],[3.501971,44.215018],[3.50283,44.214603],[3.503447,44.214001],[3.504362,44.213626],[3.503802,44.213385],[3.505072,44.213372],[3.50552,44.212568],[3.506267,44.21206],[3.506977,44.211363],[3.507706,44.210172],[3.509181,44.208806],[3.510209,44.207387],[3.510489,44.206355],[3.511143,44.205873],[3.512749,44.205324],[3.513627,44.205137],[3.514169,44.204789],[3.51458,44.2044],[3.515066,44.204119],[3.515308,44.202927],[3.516074,44.201294],[3.516037,44.20045],[3.516485,44.198937],[3.517251,44.197222],[3.518746,44.19674],[3.519661,44.19591],[3.52009,44.194812],[3.520221,44.193446],[3.520726,44.19224],[3.521174,44.191745],[3.521193,44.191437],[3.521604,44.190847],[3.522799,44.189561],[3.523472,44.187994],[3.524424,44.185248],[3.524817,44.184686],[3.525975,44.183976],[3.528048,44.182944],[3.529132,44.182435],[3.530738,44.18135],[3.531317,44.181029],[3.532382,44.180037],[3.533316,44.179073],[3.533671,44.178577],[3.534418,44.178041],[3.535352,44.177773],[3.536193,44.1778],[3.537836,44.17705],[3.538939,44.176353],[3.539742,44.176152],[3.540414,44.176072],[3.540844,44.175697],[3.541124,44.175308],[3.541012,44.175],[3.541236,44.174612],[3.54118,44.174196],[3.542544,44.172307],[3.544748,44.169922],[3.545327,44.169145],[3.545589,44.168355],[3.545981,44.167979],[3.546784,44.167644],[3.547195,44.167095],[3.547363,44.166251],[3.547643,44.166023],[3.54798,44.165929],[3.548577,44.165366],[3.54953,44.164522],[3.54953,44.163102],[3.550203,44.162539],[3.550483,44.161494],[3.551435,44.160784],[3.552033,44.159577],[3.552239,44.158559],[3.552556,44.158211],[3.55265,44.157822],[3.552295,44.157675],[3.552108,44.157447],[3.551211,44.157085],[3.551267,44.156803],[3.552482,44.156281],[3.553303,44.155785],[3.554032,44.155195],[3.55435,44.154726],[3.554966,44.154498],[3.556367,44.154163],[3.557058,44.153681],[3.557955,44.151925],[3.558403,44.151161],[3.559076,44.149392],[3.55986,44.148226],[3.56029,44.147864],[3.560757,44.147609],[3.561747,44.146296],[3.56255,44.145599],[3.563297,44.144459],[3.563951,44.143682],[3.564474,44.143373],[3.56468,44.14273],[3.565427,44.14218],[3.565856,44.141577],[3.566118,44.140719],[3.566379,44.140491],[3.566454,44.139901],[3.566379,44.139097],[3.565894,44.138078],[3.565558,44.136992],[3.565259,44.136349],[3.565147,44.135906],[3.564325,44.134606],[3.564698,44.133936],[3.56481,44.132555],[3.565558,44.131791],[3.56651,44.131093],[3.567463,44.130798],[3.56892,44.130463],[3.569536,44.129726],[3.570153,44.128519],[3.570414,44.127648],[3.570377,44.126977],[3.570022,44.126173],[3.57019,44.125462],[3.570284,44.123169],[3.569929,44.122351],[3.567893,44.122673],[3.566249,44.123316],[3.564026,44.123451],[3.5627,44.122847],[3.561803,44.121761],[3.561149,44.120742],[3.561168,44.120407],[3.561242,44.119763],[3.561093,44.119575],[3.560663,44.119454],[3.56014,44.119951],[3.559954,44.119723],[3.559673,44.119146],[3.559337,44.119012],[3.55902,44.118744],[3.557955,44.118569],[3.55689,44.117979],[3.556572,44.117912],[3.556292,44.117711],[3.555788,44.117537],[3.555545,44.117282],[3.554462,44.117054],[3.553546,44.116665],[3.552949,44.116383],[3.551865,44.116598],[3.550016,44.116477],[3.549717,44.116303],[3.549399,44.116021],[3.548671,44.115632],[3.547606,44.114828],[3.546112,44.114452],[3.545645,44.113607],[3.54529,44.113232],[3.545551,44.112709],[3.545533,44.111837],[3.545252,44.110684],[3.543833,44.109758],[3.543478,44.109235],[3.54344,44.1089],[3.543216,44.108578],[3.543067,44.108028],[3.542824,44.107786],[3.542208,44.106351],[3.542002,44.105211],[3.541778,44.104809],[3.541087,44.103347],[3.541068,44.102998],[3.541105,44.10222],[3.541068,44.101643],[3.541423,44.100785],[3.541554,44.099872],[3.541049,44.098719],[3.540153,44.097525],[3.539779,44.096867],[3.539667,44.096103],[3.539873,44.095781],[3.541629,44.094815],[3.542152,44.094359],[3.542749,44.093768],[3.544169,44.093634],[3.544785,44.093487],[3.545066,44.093165],[3.545252,44.092655],[3.545599,44.092703],[3.546179,44.092602],[3.54653,44.092438],[3.546998,44.09238],[3.547438,44.092252],[3.547438,44.092252],[3.548951,44.092306],[3.549717,44.092078],[3.550576,44.091541],[3.551398,44.09079],[3.552127,44.090428],[3.553901,44.089918],[3.55732,44.089341],[3.558982,44.088724],[3.560514,44.087892],[3.561485,44.087073],[3.562064,44.085799],[3.563129,44.084001],[3.563465,44.082068],[3.562961,44.080982],[3.562513,44.079881],[3.562064,44.078969],[3.562326,44.078512],[3.563092,44.077949],[3.563167,44.077586],[3.563054,44.076593],[3.56326,44.076298],[3.56382,44.074902],[3.565184,44.072836],[3.565352,44.07305],[3.56552,44.072285],[3.566398,44.071561],[3.566622,44.070769],[3.566566,44.069829],[3.566286,44.069319],[3.566155,44.06842],[3.565969,44.068058],[3.566137,44.06732],[3.56694,44.066206],[3.567799,44.066098],[3.568173,44.066179],[3.569387,44.066192],[3.570508,44.065749],[3.571367,44.065628],[3.573478,44.064622],[3.574449,44.063964],[3.575607,44.063467],[3.57783,44.062689],[3.578932,44.062326],[3.579736,44.062259],[3.580184,44.062232],[3.580651,44.062461],[3.580819,44.062917],[3.581678,44.062944],[3.582351,44.062917],[3.583248,44.06332],[3.583658,44.063682],[3.584443,44.064018],[3.584985,44.06442],[3.585396,44.065373],[3.585751,44.065615],[3.586479,44.065333],[3.587077,44.06493],[3.587208,44.064675],[3.587563,44.064407],[3.587936,44.063964],[3.588403,44.06387],[3.58887,44.064018],[3.589225,44.064434],[3.589431,44.064917],[3.589599,44.064984],[3.589786,44.065387],[3.590458,44.0654],[3.590757,44.065226],[3.59171,44.064984],[3.592083,44.065091],[3.592289,44.065279],[3.592588,44.065279],[3.59283,44.065038],[3.593503,44.064649],[3.593858,44.064004],[3.594213,44.06438],[3.594381,44.065615],[3.594885,44.066219],[3.595165,44.066152],[3.595502,44.065373],[3.596155,44.064461],[3.59694,44.063789],[3.597743,44.063534],[3.598023,44.062944],[3.598378,44.062555],[3.600246,44.062004],[3.600639,44.062112],[3.60118,44.06293],[3.601778,44.061924],[3.601871,44.061414],[3.601834,44.060903],[3.601946,44.060595],[3.604412,44.058944],[3.604375,44.057333],[3.60458,44.056876],[3.604468,44.056594],[3.604543,44.055776],[3.604337,44.055104],[3.604244,44.054205],[3.604076,44.053802],[3.60387,44.052298],[3.603908,44.051681],[3.604057,44.051224],[3.604393,44.050902],[3.604431,44.050244],[3.60415,44.04968],[3.605197,44.050043],[3.605645,44.050607],[3.605813,44.050916],[3.606224,44.050513],[3.606355,44.049989],[3.606056,44.049398],[3.607861,44.050259],[3.608268,44.049896],[3.609512,44.049291],[3.6108,44.048955],[3.611622,44.048969],[3.6125,44.048781],[3.613285,44.048848],[3.613733,44.049117],[3.614779,44.048848],[3.616199,44.048257],[3.615452,44.048982],[3.615601,44.049103],[3.617021,44.048298],[3.61788,44.048217],[3.618534,44.048365],[3.61915,44.04823],[3.619692,44.048324],[3.621074,44.047908],[3.62171,44.047801],[3.622008,44.047854],[3.622457,44.047599],[3.622345,44.047264],[3.622363,44.046297],[3.622588,44.045934],[3.622812,44.045787],[3.622849,44.045384],[3.623204,44.045344],[3.624792,44.044001],[3.625147,44.043894],[3.625801,44.043437],[3.62595,44.043142],[3.626081,44.043195],[3.626286,44.042819],[3.626622,44.042833],[3.627164,44.043007],[3.628117,44.043182],[3.628957,44.043598],[3.630022,44.043732],[3.630321,44.044082],[3.631311,44.044632],[3.632637,44.044659],[3.634468,44.045572],[3.635253,44.045612],[3.636336,44.045626],[3.637139,44.044968],[3.637793,44.044807],[3.639101,44.043961],[3.63968,44.043988],[3.639848,44.0438],[3.639717,44.043464],[3.640372,44.043108],[3.640543,44.04287],[3.640847,44.04268],[3.641058,44.042206],[3.641402,44.04193],[3.641679,44.041921],[3.641679,44.041721],[3.641864,44.04156],[3.642326,44.04138],[3.642102,44.04099],[3.642155,44.040857],[3.642458,44.040715],[3.642388,44.040463],[3.641959,44.040187],[3.641865,44.039852],[3.64222,44.039234],[3.643136,44.038563],[3.643416,44.038448],[3.6435,44.038234],[3.643929,44.037972],[3.644807,44.037945],[3.645639,44.038207],[3.645919,44.038193],[3.646358,44.038341],[3.647292,44.038536],[3.647609,44.038066],[3.648048,44.037817],[3.648123,44.037623],[3.647908,44.037341],[3.647946,44.036944],[3.648646,44.036501],[3.649319,44.036421],[3.649735,44.036501],[3.650186,44.037134],[3.651388,44.037859],[3.652139,44.03772],[3.652761,44.037458],[3.65304,44.037519],[3.653362,44.037242],[3.653448,44.036856],[3.653838,44.03683],[3.65431,44.036624],[3.654862,44.036533],[3.655115,44.035805],[3.655816,44.035474],[3.65623,44.035078],[3.656529,44.035003],[3.65692,44.034664],[3.657345,44.034532],[3.657782,44.034268],[3.658047,44.033962],[3.658403,44.033821],[3.658898,44.033441],[3.659335,44.032937],[3.659944,44.032656],[3.660519,44.032118],[3.661106,44.03187],[3.661658,44.031878],[3.662485,44.032019],[3.663371,44.031986],[3.664578,44.03125],[3.665142,44.030704],[3.665211,44.030192],[3.664762,44.029903],[3.664475,44.029886],[3.664176,44.029721],[3.663612,44.029555],[3.662888,44.028877],[3.662658,44.028431],[3.662738,44.028232],[3.662623,44.027869],[3.662922,44.027464],[3.66283,44.027149],[3.662853,44.026901],[3.662738,44.02662],[3.663187,44.026349],[3.663727,44.025572],[3.664337,44.024946],[3.664442,44.02467],[3.664755,44.02452],[3.66486,44.024332],[3.664581,44.023968],[3.664564,44.023116],[3.664372,44.022552],[3.664459,44.022214],[3.664755,44.021875],[3.665592,44.02175],[3.666306,44.02175],[3.66669,44.021587],[3.667161,44.021061],[3.667422,44.020534],[3.666707,44.021011],[3.667073,44.020196],[3.668346,44.019732],[3.669113,44.019695],[3.668764,44.019469],[3.668346,44.019369],[3.668485,44.019143],[3.668956,44.018968],[3.669461,44.01898],[3.670402,44.019306],[3.670908,44.019093],[3.671553,44.017125],[3.671431,44.015032],[3.671152,44.014781],[3.670838,44.013879],[3.669932,44.012951],[3.669879,44.012625],[3.669653,44.012074],[3.66967,44.011372],[3.669479,44.010921],[3.669601,44.010457],[3.670052,44.009975],[3.670017,44.010264],[3.67027,44.009966],[3.670259,44.009437],[3.670535,44.00909],[3.670891,44.008842],[3.671029,44.008436],[3.670914,44.008139],[3.670466,44.007948],[3.670109,44.007882],[3.670109,44.007121],[3.669891,44.005889],[3.669971,44.004921],[3.669718,44.004566],[3.670236,44.004086],[3.670236,44.003581],[3.670351,44.003499],[3.670581,44.003557],[3.671282,44.003375],[3.671731,44.003093],[3.671754,44.002887],[3.671317,44.002506],[3.671294,44.001993],[3.671202,44.001778],[3.671744,44.001456],[3.67232,44.001418],[3.672842,44.00108],[3.672912,44.000791],[3.673229,44.000377],[3.673561,44.000156],[3.673956,43.998994],[3.673327,43.99911],[3.673993,43.998861],[3.675213,43.998649],[3.676482,43.998525],[3.676554,43.998263],[3.677862,43.998089],[3.678646,43.99782],[3.6793,43.997511],[3.679502,43.997478],[3.679588,43.997549],[3.679662,43.997354],[3.679995,43.997727],[3.680081,43.99809],[3.68018,43.998117],[3.680266,43.997877],[3.680401,43.998356],[3.680315,43.998693],[3.680352,43.998977],[3.680586,43.999287],[3.680709,43.998932],[3.680931,43.999207],[3.681079,43.998808],[3.681153,43.998941],[3.681523,43.998321],[3.681646,43.997851],[3.682114,43.998755],[3.682386,43.998844],[3.68294,44.000182],[3.682812,44.000333],[3.683055,44.0004],[3.683466,44.000803],[3.683185,44.000964],[3.683185,44.00126],[3.683522,44.001085],[3.683951,44.001139],[3.684456,44.001488],[3.685035,44.001744],[3.685539,44.0022],[3.686081,44.002442],[3.686735,44.002415],[3.687781,44.001985],[3.688696,44.002308],[3.689574,44.0022],[3.690246,44.002268],[3.691591,44.002227],[3.692133,44.00216],[3.692768,44.002174],[3.693179,44.001838],[3.693179,44.002174],[3.693646,44.001757],[3.694281,44.001502],[3.69473,44.001058],[3.695029,43.999903],[3.69585,44.000104],[3.696205,44.000118],[3.69585,44.000239],[3.695925,44.00044],[3.696934,44.000709],[3.697382,44.000722],[3.697775,44.000857],[3.698484,44.000857],[3.699063,44.000628],[3.699904,44.000037],[3.700035,43.99907],[3.700315,43.998465],[3.700913,43.997726],[3.700931,43.996248],[3.701641,43.995455],[3.701791,43.99485],[3.701679,43.994608],[3.70138,43.995334],[3.701212,43.995361],[3.701268,43.994998],[3.701249,43.994568],[3.701697,43.994044],[3.701809,43.993264],[3.701623,43.992418],[3.700875,43.99184],[3.700875,43.990899],[3.70052,43.990429],[3.700726,43.989878],[3.701092,43.989486],[3.700339,43.989838],[3.700762,43.989448],[3.701171,43.988859],[3.701158,43.988422],[3.701568,43.987699],[3.701436,43.987395],[3.701475,43.987224],[3.701303,43.987291],[3.701145,43.987633],[3.701132,43.987243],[3.701,43.987186],[3.701185,43.986958],[3.701052,43.986806],[3.701026,43.986331],[3.701119,43.986207],[3.700973,43.985884],[3.700986,43.984706],[3.701264,43.984449],[3.701224,43.984145],[3.700418,43.983518],[3.700432,43.983394],[3.700154,43.983147],[3.700154,43.982273],[3.700313,43.981864],[3.701541,43.98136],[3.701832,43.981294],[3.701858,43.981218],[3.701369,43.980106],[3.701013,43.979716],[3.701118,43.978977],[3.700847,43.978345],[3.700577,43.977203],[3.701062,43.976402],[3.701534,43.976016],[3.701427,43.975229],[3.701534,43.974827],[3.702114,43.974241],[3.701921,43.973855],[3.701191,43.973175],[3.700976,43.972202],[3.701041,43.971924],[3.700998,43.970812],[3.700268,43.969932],[3.700032,43.96899],[3.700054,43.968388],[3.699946,43.967924],[3.699989,43.966905],[3.699839,43.966318],[3.699925,43.96567],[3.700333,43.965253],[3.701035,43.964929],[3.70112,43.964103],[3.700228,43.963451],[3.699662,43.963186],[3.699463,43.963186],[3.699336,43.962982],[3.69918,43.962931],[3.698954,43.962524],[3.69894,43.962157],[3.698628,43.961698],[3.698373,43.961148],[3.698005,43.960853],[3.697807,43.960384],[3.697892,43.960109],[3.698798,43.959059],[3.699775,43.958682],[3.699902,43.958387],[3.700157,43.958122],[3.700228,43.957775],[3.700412,43.957225],[3.700681,43.957082],[3.700978,43.956766],[3.701134,43.95641],[3.701219,43.956083],[3.701488,43.955839],[3.70153,43.955452],[3.701332,43.955278],[3.701516,43.954962],[3.701417,43.95483],[3.701573,43.954534],[3.701941,43.954422],[3.702196,43.953658],[3.702394,43.953576],[3.701431,43.953057],[3.70095,43.953006],[3.70078,43.952843],[3.700681,43.952527],[3.700426,43.952201],[3.700412,43.951834],[3.700624,43.951732],[3.700568,43.951497],[3.701049,43.951181],[3.701247,43.950865],[3.702351,43.95056],[3.702818,43.950183],[3.702889,43.949551],[3.70262,43.948643],[3.702139,43.948266],[3.701912,43.947961],[3.701389,43.947706],[3.701176,43.947431],[3.701445,43.94738],[3.701035,43.947033],[3.700879,43.946819],[3.700256,43.946646],[3.700568,43.946371],[3.700978,43.945993],[3.701021,43.945749],[3.701247,43.945667],[3.701686,43.945137],[3.701885,43.944737],[3.701607,43.944015],[3.701647,43.943491],[3.701805,43.943282],[3.701911,43.942578],[3.701819,43.942341],[3.702149,43.941352],[3.702968,43.940391],[3.702662,43.939546],[3.702863,43.939084],[3.702983,43.938046],[3.702843,43.937758],[3.703063,43.937383],[3.703263,43.937383],[3.703563,43.937585],[3.704224,43.937571],[3.705185,43.937744],[3.706106,43.937715],[3.707608,43.937253],[3.708212,43.9367],[3.710338,43.936548],[3.711316,43.936358],[3.712212,43.937138],[3.713494,43.937917],[3.714174,43.938306],[3.714495,43.938681],[3.714955,43.939257],[3.715356,43.939272],[3.715456,43.938767],[3.716937,43.935523],[3.717217,43.93463],[3.717878,43.933995],[3.718739,43.933418],[3.719159,43.933],[3.71936,43.932121],[3.7193,43.931385],[3.718999,43.930347],[3.71996,43.930016],[3.722583,43.929583],[3.723324,43.928761],[3.723564,43.928704],[3.723244,43.926829],[3.723023,43.926079],[3.723164,43.925113],[3.723764,43.924998],[3.724045,43.923484],[3.72426,43.923002],[3.723604,43.922746],[3.723622,43.922589],[3.723831,43.922545],[3.724337,43.922445],[3.724572,43.922514],[3.724659,43.922671],[3.726201,43.923104],[3.727021,43.92321],[3.727404,43.92321],[3.728197,43.923537],[3.729975,43.923901],[3.731561,43.923876],[3.73177,43.92375],[3.732641,43.923951],[3.733042,43.9237],[3.733234,43.923838],[3.733445,43.923803],[3.733583,43.923877],[3.733767,43.923844],[3.734629,43.923844],[3.735296,43.923654],[3.735446,43.92372],[3.735917,43.923703],[3.736044,43.923496],[3.736377,43.923405],[3.736653,43.923397],[3.737424,43.923157],[3.737746,43.922867],[3.738667,43.922611],[3.739203,43.922673],[3.739547,43.922819],[3.740158,43.922781],[3.74092,43.922572],[3.740351,43.922309],[3.739203,43.921969],[3.739128,43.92173],[3.739053,43.921513],[3.739214,43.921343],[3.740201,43.921266],[3.740748,43.921119],[3.741381,43.920787],[3.741767,43.920748],[3.742143,43.920787],[3.74254,43.920486],[3.743141,43.920246],[3.742218,43.920331],[3.741134,43.920068],[3.740566,43.920022],[3.740126,43.91969],[3.740001,43.9194],[3.740348,43.918854],[3.740355,43.91864],[3.739888,43.918155],[3.739867,43.91788],[3.740058,43.917671],[3.740447,43.917488],[3.740617,43.917222],[3.740662,43.916784],[3.741338,43.916714],[3.741392,43.916359],[3.742175,43.916003],[3.742186,43.915408],[3.742347,43.915223],[3.742046,43.914906],[3.742218,43.914674],[3.742068,43.914427],[3.742261,43.914187],[3.741832,43.913561],[3.742014,43.913043],[3.74195,43.91278],[3.741499,43.912672],[3.74077,43.912711],[3.740373,43.912633],[3.739429,43.912085],[3.739214,43.911822],[3.740051,43.911126],[3.740137,43.910717],[3.740137,43.910423],[3.74004,43.910245],[3.740169,43.910168],[3.740233,43.910006],[3.740834,43.909542],[3.741692,43.90914],[3.741542,43.9088],[3.741671,43.908576],[3.741585,43.908321],[3.74166,43.908236],[3.741574,43.908089],[3.741907,43.907803],[3.741843,43.90754],[3.742057,43.907486],[3.742411,43.907316],[3.742712,43.907447],[3.742712,43.907292],[3.742883,43.907354],[3.742905,43.907215],[3.743216,43.907339],[3.743173,43.907122],[3.74298,43.907122],[3.741853,43.90669],[3.742561,43.906836],[3.742872,43.906767],[3.742518,43.906342],[3.741789,43.906025],[3.741124,43.905677],[3.740566,43.905321],[3.740126,43.905213],[3.739686,43.905213],[3.739643,43.905074],[3.740201,43.905012],[3.740287,43.904834],[3.740709,43.904809],[3.740758,43.904668],[3.740498,43.904633],[3.741197,43.904457],[3.741571,43.904246],[3.74162,43.904106],[3.741278,43.903906],[3.740888,43.903192],[3.742156,43.902664],[3.742189,43.902348],[3.742335,43.902149],[3.742156,43.901821],[3.742156,43.901165],[3.741799,43.90079],[3.741278,43.900204],[3.740546,43.899841],[3.740172,43.899231],[3.740107,43.898423],[3.739945,43.89786],[3.737733,43.896677],[3.737522,43.896302],[3.736367,43.895587],[3.735505,43.895505],[3.735115,43.895329],[3.733635,43.895458],[3.732708,43.893396],[3.732367,43.892411],[3.732204,43.89165],[3.732448,43.890419],[3.732936,43.889353],[3.733066,43.888497],[3.733082,43.888052],[3.733359,43.887219],[3.7337,43.886575],[3.7337,43.886294],[3.733375,43.886071],[3.733603,43.885544],[3.733716,43.884934],[3.734432,43.884571],[3.735082,43.8845],[3.735505,43.884571],[3.735782,43.884418],[3.737083,43.884934],[3.737473,43.885485],[3.738091,43.885919],[3.738774,43.8862],[3.73905,43.886669],[3.740367,43.887501],[3.740791,43.887532],[3.740952,43.886651],[3.741843,43.886171],[3.742497,43.885645],[3.74328,43.885599],[3.743892,43.885398],[3.744117,43.885197],[3.744375,43.885104],[3.744707,43.884841],[3.745812,43.884818],[3.746917,43.884315],[3.748258,43.884037],[3.75005,43.883349],[3.750608,43.883449],[3.751445,43.883441],[3.751831,43.883225],[3.75329,43.882815],[3.753397,43.882622],[3.753676,43.882544],[3.754427,43.882707],[3.754921,43.882738],[3.755511,43.883008],[3.756391,43.883101],[3.757163,43.883364],[3.758215,43.883905],[3.758987,43.883952],[3.759137,43.884045],[3.759803,43.884122],[3.760779,43.884408],[3.761176,43.884601],[3.762036,43.884693],[3.762291,43.88457],[3.762744,43.88454],[3.763735,43.884499],[3.764754,43.884295],[3.765689,43.884693],[3.767388,43.885285],[3.768308,43.885428],[3.768874,43.885356],[3.7692,43.885642],[3.769624,43.885764],[3.770361,43.886142],[3.770686,43.886101],[3.771012,43.886193],[3.771465,43.886152],[3.771748,43.885927],[3.77247,43.885927],[3.775117,43.88557],[3.776788,43.88557],[3.776979,43.885228],[3.776894,43.88498],[3.776937,43.884764],[3.778052,43.883867],[3.778095,43.883666],[3.778911,43.88215],[3.778996,43.881238],[3.779404,43.880712],[3.779469,43.880402],[3.780091,43.880124],[3.780606,43.879691],[3.780842,43.879134],[3.781915,43.878747],[3.782666,43.878376],[3.784254,43.878021],[3.785348,43.87751],[3.786528,43.87683],[3.787601,43.876675],[3.78788,43.876536],[3.789554,43.876273],[3.789532,43.875994],[3.790712,43.875809],[3.791249,43.876273],[3.792841,43.876928],[3.793195,43.877009],[3.793493,43.877244],[3.793634,43.877295],[3.794427,43.878152],[3.79454,43.878469],[3.795276,43.878877],[3.795319,43.879101],[3.795659,43.879448],[3.796692,43.880346],[3.796933,43.880397],[3.79723,43.880601],[3.797598,43.880713],[3.79757,43.880805],[3.798122,43.880856],[3.798476,43.880367],[3.798221,43.880164],[3.798522,43.879904],[3.798201,43.878519],[3.798462,43.878259],[3.799322,43.87797],[3.799042,43.877768],[3.797701,43.877711],[3.79714,43.877451],[3.79694,43.877148],[3.796459,43.87722],[3.796219,43.876888],[3.796299,43.876383],[3.795891,43.87647],[3.795971,43.876118],[3.795852,43.875804],[3.796116,43.875328],[3.795799,43.875309],[3.795257,43.875414],[3.794636,43.875195],[3.794293,43.874995],[3.793738,43.874899],[3.793157,43.87468],[3.792682,43.874128],[3.792444,43.873662],[3.791942,43.873071],[3.791427,43.872709],[3.791374,43.872528],[3.791004,43.872195],[3.790753,43.871843],[3.790291,43.871443],[3.789842,43.870881],[3.789815,43.870053],[3.789987,43.869386],[3.789855,43.869091],[3.78971,43.868539],[3.789432,43.867996],[3.789379,43.867472],[3.789445,43.867234],[3.789406,43.866996],[3.789617,43.866767],[3.789815,43.866129],[3.789974,43.865929],[3.79004,43.865663],[3.790225,43.86552],[3.790535,43.865557],[3.791999,43.865557],[3.792121,43.865446],[3.79221,43.864977],[3.792332,43.864953],[3.792389,43.86476],[3.792666,43.864549],[3.79256,43.864338],[3.792625,43.86405],[3.792391,43.86382],[3.792108,43.863802],[3.791652,43.863856],[3.791467,43.863802],[3.79111,43.863465],[3.790875,43.863394],[3.790629,43.863243],[3.790493,43.863021],[3.790309,43.862949],[3.790025,43.862372],[3.789224,43.861785],[3.788152,43.861439],[3.787955,43.86119],[3.787696,43.861101],[3.787671,43.860764],[3.787154,43.860612],[3.786882,43.860435],[3.786624,43.860435],[3.786426,43.860204],[3.784935,43.859768],[3.785477,43.858035],[3.78581,43.857182],[3.785687,43.856836],[3.78618,43.855796],[3.786291,43.855103],[3.786463,43.854747],[3.786352,43.854356],[3.785576,43.853645],[3.784837,43.852606],[3.78475,43.852241],[3.784578,43.851957],[3.784307,43.85113],[3.784368,43.850588],[3.784319,43.850037],[3.7839,43.84953],[3.78374,43.849039],[3.783142,43.848581],[3.78275,43.848056],[3.782021,43.847584],[3.781666,43.847045],[3.78105,43.846843],[3.780303,43.846304],[3.779854,43.845819],[3.779742,43.844567],[3.779798,43.844189],[3.779817,43.84365],[3.779798,43.842963],[3.780116,43.842559],[3.780508,43.842249],[3.780527,43.841845],[3.7809,43.841293],[3.781311,43.840956],[3.781311,43.840215],[3.78105,43.839582],[3.780471,43.8388],[3.779836,43.838692],[3.779126,43.837978],[3.778958,43.837695],[3.778715,43.83783],[3.778192,43.837897],[3.777781,43.838059],[3.777407,43.837978],[3.776492,43.836523],[3.776567,43.835728],[3.776847,43.835229],[3.776884,43.834839],[3.776959,43.834502],[3.776884,43.834017],[3.776716,43.833505],[3.776735,43.831712],[3.77681,43.831079],[3.776567,43.830432],[3.776548,43.82992],[3.77595,43.828829],[3.775969,43.828397],[3.776436,43.827764],[3.776922,43.827387],[3.777389,43.826794],[3.77737,43.826443],[3.77623,43.826214],[3.775334,43.826228],[3.772756,43.824462],[3.771803,43.823613],[3.771654,43.823249],[3.770496,43.822036],[3.769599,43.822009],[3.768983,43.82143],[3.767768,43.820055],[3.767171,43.81926],[3.76676,43.818519],[3.764593,43.816322],[3.763846,43.815702],[3.762557,43.814462],[3.76293,43.812992],[3.762333,43.810795],[3.761922,43.809488],[3.761268,43.80822],[3.760054,43.807021],[3.759923,43.8064],[3.759979,43.80605],[3.760259,43.805915],[3.760147,43.805753],[3.760147,43.805241],[3.760913,43.805039],[3.761174,43.804527],[3.7611,43.804109],[3.760707,43.803475],[3.760988,43.802248],[3.760857,43.801668],[3.760147,43.800671],[3.75996,43.799282],[3.760054,43.798567],[3.759736,43.79846],[3.759157,43.797826],[3.758597,43.796882],[3.758372,43.796316],[3.758055,43.7961],[3.757793,43.795682],[3.756841,43.795291],[3.756187,43.794833],[3.755701,43.793835],[3.754748,43.792958],[3.753142,43.792352],[3.751199,43.791853],[3.750639,43.791354],[3.749518,43.791178],[3.750396,43.790005],[3.751237,43.78979],[3.751872,43.789439],[3.752227,43.789385],[3.752731,43.789075],[3.75247,43.788792],[3.751928,43.787902],[3.751909,43.787416],[3.752339,43.786432],[3.752488,43.786189],[3.752283,43.785434],[3.752544,43.784813],[3.753105,43.784908],[3.753142,43.784692],[3.752656,43.784449],[3.752582,43.784126],[3.752544,43.783047],[3.75288,43.782467],[3.752338,43.782207],[3.752142,43.782224],[3.752004,43.781983],[3.752338,43.781925],[3.752522,43.781643],[3.752637,43.781352],[3.75312,43.780746],[3.753752,43.78058],[3.754097,43.780256],[3.754499,43.779958],[3.754445,43.779361],[3.75481,43.779061],[3.755247,43.778895],[3.755511,43.778596],[3.755569,43.778364],[3.755822,43.778197],[3.756776,43.777771],[3.756938,43.777313],[3.756906,43.776961],[3.756581,43.776562],[3.756581,43.77621],[3.755849,43.775857],[3.756288,43.775458],[3.756792,43.775399],[3.757394,43.775247],[3.75754,43.775035],[3.758613,43.775024],[3.758987,43.774848],[3.759752,43.774836],[3.760614,43.774765],[3.761134,43.774636],[3.761443,43.774801],[3.762695,43.774895],[3.763622,43.774695],[3.763931,43.774401],[3.76424,43.774378],[3.765346,43.774531],[3.765996,43.774812],[3.76624,43.775035],[3.7665,43.774836],[3.767004,43.77473],[3.767655,43.774448],[3.769688,43.774613],[3.770582,43.774542],[3.771704,43.774648],[3.773135,43.77446],[3.773477,43.774167],[3.773786,43.773979],[3.773883,43.773591],[3.775087,43.772851],[3.775103,43.772358],[3.775526,43.771994],[3.776111,43.771935],[3.776404,43.771489],[3.77751,43.771231],[3.778274,43.771325],[3.778908,43.77109],[3.779477,43.771008],[3.780713,43.770468],[3.786112,43.76873],[3.787511,43.769458],[3.788942,43.769857],[3.788844,43.770127],[3.789267,43.770655],[3.789608,43.770832],[3.790129,43.770902],[3.7913,43.771172],[3.79156,43.771736],[3.79221,43.771971],[3.792405,43.772358],[3.793056,43.77264],[3.79356,43.772969],[3.794129,43.773051],[3.794341,43.773368],[3.795853,43.773967],[3.796325,43.774343],[3.79717,43.774484],[3.797691,43.774542],[3.798178,43.774683],[3.799138,43.775106],[3.799496,43.775106],[3.800081,43.775165],[3.801528,43.775493],[3.802472,43.775634],[3.802894,43.775611],[3.803529,43.77574],[3.804797,43.775705],[3.805578,43.775881],[3.806618,43.775893],[3.80709,43.776045],[3.808342,43.776491],[3.809724,43.776785],[3.810196,43.776785],[3.811351,43.776562],[3.812456,43.776785],[3.81353,43.776621],[3.813757,43.776691],[3.81379,43.777043],[3.814273,43.77692],[3.814691,43.777075],[3.815024,43.777338],[3.815829,43.777315],[3.816268,43.777245],[3.816751,43.777307],[3.817137,43.777191],[3.818157,43.777175],[3.818468,43.777121],[3.818983,43.777129],[3.819551,43.777075],[3.819938,43.776912],[3.820045,43.776718],[3.820871,43.776439],[3.821799,43.776033],[3.822633,43.775825],[3.822998,43.775781],[3.823483,43.775485],[3.82412,43.775299],[3.824333,43.774948],[3.825,43.774751],[3.825547,43.774641],[3.826032,43.774444],[3.827914,43.774203],[3.828778,43.774455],[3.829446,43.7744],[3.831024,43.773853],[3.831646,43.773874],[3.832906,43.773754],[3.833452,43.773776],[3.834074,43.773633],[3.83465,43.773622],[3.837822,43.773064],[3.83902,43.772549],[3.840264,43.772373],[3.841387,43.772549],[3.841584,43.772417],[3.841159,43.771952],[3.840564,43.77139],[3.842079,43.770112],[3.842489,43.769345],[3.84307,43.768793],[3.84365,43.768681],[3.8445,43.768844],[3.845038,43.769304],[3.845363,43.769754],[3.845476,43.769315],[3.845434,43.768855],[3.84559,43.768527],[3.845618,43.767198],[3.846626,43.767695],[3.848079,43.76842],[3.847934,43.767924],[3.848026,43.767466],[3.849194,43.767628],[3.850555,43.767917],[3.852217,43.767874],[3.853478,43.767556],[3.8545,43.766992],[3.85518,43.766876],[3.855781,43.76757],[3.856462,43.767729],[3.857022,43.767498],[3.857623,43.76825],[3.857643,43.767975],[3.857322,43.76731],[3.857583,43.766862],[3.858011,43.766416],[3.858833,43.76531],[3.858983,43.764824],[3.859039,43.764203],[3.860795,43.762679],[3.860926,43.762369],[3.86171,43.762207],[3.863391,43.761289],[3.866604,43.760116],[3.86851,43.760723],[3.86935,43.760763],[3.870079,43.760561],[3.870676,43.760979],[3.870938,43.761438],[3.871442,43.761006],[3.87247,43.761397],[3.873366,43.761667],[3.874039,43.76187],[3.874356,43.762544],[3.874674,43.763124],[3.874095,43.763205],[3.873983,43.763623],[3.873516,43.764028],[3.873049,43.764379],[3.872918,43.764905],[3.873161,43.764999],[3.873366,43.765458],[3.87305,43.766046],[3.872388,43.766776],[3.871446,43.767329],[3.870732,43.767657],[3.870069,43.76777],[3.869721,43.768022],[3.869512,43.769054],[3.869303,43.769154]]],"type":"MultiLineString"},"properties":{"geo_point":{"lon":3.513162341020404,"lat":44.16768546639447},"name":"GR60 Du Signal de Mailhebiau (Lozère-Aveyron) à St Mathieu-de-Tréviers (Hérault) (2020)","code_gr":"GR60"}},{"type":"Feature","geometry":{"coordinates":[[[3.547438,44.092252],[3.548951,44.092306],[3.549717,44.092078],[3.550576,44.091541],[3.551398,44.09079],[3.552127,44.090428],[3.553901,44.089918],[3.55732,44.089341],[3.558982,44.088724],[3.560514,44.087892],[3.561485,44.087073],[3.562064,44.085799],[3.563129,44.084001],[3.563465,44.082068],[3.562961,44.080982],[3.562513,44.079881],[3.562064,44.078969],[3.562326,44.078512],[3.563092,44.077949],[3.563167,44.077586],[3.563054,44.076593],[3.56326,44.076298],[3.56382,44.074902],[3.565184,44.072836],[3.565352,44.07305],[3.56552,44.072285],[3.566398,44.071561],[3.566622,44.070769],[3.566566,44.069829],[3.566286,44.069319],[3.566155,44.06842],[3.565969,44.068058],[3.566137,44.06732],[3.56694,44.066206],[3.567799,44.066098],[3.568173,44.066179],[3.569387,44.066192],[3.570508,44.065749],[3.571367,44.065628],[3.573478,44.064622],[3.574449,44.063964],[3.575607,44.063467],[3.57783,44.062689],[3.578932,44.062326],[3.579736,44.062259],[3.580184,44.062232],[3.580651,44.062461],[3.580819,44.062917],[3.581678,44.062944],[3.582351,44.062917],[3.583248,44.06332],[3.583658,44.063682],[3.584443,44.064018],[3.584985,44.06442],[3.585396,44.065373],[3.585751,44.065615],[3.586479,44.065333],[3.587077,44.06493],[3.587208,44.064675],[3.587563,44.064407],[3.587936,44.063964],[3.588403,44.06387],[3.58887,44.064018],[3.589225,44.064434],[3.589431,44.064917],[3.589599,44.064984],[3.589786,44.065387],[3.590458,44.0654],[3.590757,44.065226],[3.59171,44.064984],[3.592083,44.065091],[3.592289,44.065279],[3.592588,44.065279],[3.59283,44.065038],[3.593503,44.064649],[3.593858,44.064004],[3.594213,44.06438],[3.594381,44.065615],[3.594885,44.066219],[3.595165,44.066152],[3.595502,44.065373],[3.596155,44.064461],[3.59694,44.063789],[3.597743,44.063534],[3.598023,44.062944],[3.598378,44.062555],[3.600246,44.062004],[3.600639,44.062112],[3.60118,44.06293],[3.601778,44.061924],[3.601871,44.061414],[3.601834,44.060903],[3.601946,44.060595],[3.604412,44.058944],[3.604375,44.057333],[3.60458,44.056876],[3.604468,44.056594],[3.604543,44.055776],[3.604337,44.055104],[3.604244,44.054205],[3.604076,44.053802],[3.60387,44.052298],[3.603908,44.051681],[3.604057,44.051224],[3.604393,44.050902],[3.604431,44.050244],[3.60415,44.04968],[3.605197,44.050043],[3.605645,44.050607],[3.605813,44.050916],[3.606224,44.050513],[3.606355,44.049989],[3.606056,44.049398],[3.607861,44.050259],[3.608268,44.049896],[3.609512,44.049291],[3.6108,44.048955],[3.611622,44.048969],[3.6125,44.048781],[3.613285,44.048848],[3.613733,44.049117],[3.614779,44.048848],[3.616199,44.048257],[3.615452,44.048982],[3.615601,44.049103],[3.617021,44.048298],[3.61788,44.048217],[3.618534,44.048365],[3.61915,44.04823],[3.619692,44.048324],[3.621074,44.047908],[3.62171,44.047801],[3.622008,44.047854],[3.622457,44.047599],[3.622345,44.047264],[3.622363,44.046297],[3.622588,44.045934],[3.622812,44.045787],[3.622849,44.045384],[3.623204,44.045344],[3.624792,44.044001],[3.625147,44.043894],[3.625801,44.043437],[3.62595,44.043142],[3.626081,44.043195],[3.626286,44.042819],[3.626622,44.042833],[3.627164,44.043007],[3.628117,44.043182],[3.628957,44.043598],[3.630022,44.043732],[3.630321,44.044082],[3.631311,44.044632],[3.632637,44.044659],[3.634468,44.045572],[3.635253,44.045612],[3.636336,44.045626],[3.637139,44.044968],[3.637793,44.044807],[3.639101,44.043961],[3.63968,44.043988],[3.639848,44.0438],[3.639717,44.043464],[3.640372,44.043108],[3.640543,44.04287],[3.640847,44.04268],[3.641058,44.042206],[3.641402,44.04193],[3.641679,44.041921],[3.641679,44.041721],[3.641864,44.04156],[3.642326,44.04138],[3.642102,44.04099],[3.642155,44.040857],[3.642458,44.040715],[3.642388,44.040463],[3.641959,44.040187],[3.641865,44.039852],[3.64222,44.039234],[3.643136,44.038563],[3.643416,44.038448],[3.6435,44.038234],[3.643929,44.037972],[3.644807,44.037945],[3.645639,44.038207],[3.645919,44.038193],[3.646358,44.038341],[3.647292,44.038536],[3.647609,44.038066],[3.648048,44.037817],[3.648123,44.037623],[3.647908,44.037341],[3.647946,44.036944],[3.648646,44.036501],[3.649319,44.036421],[3.649735,44.036501],[3.650186,44.037134],[3.651388,44.037859],[3.652139,44.03772],[3.652761,44.037458],[3.65304,44.037519],[3.653362,44.037242],[3.653448,44.036856],[3.653838,44.03683],[3.65431,44.036624],[3.654862,44.036533],[3.655115,44.035805],[3.655816,44.035474],[3.65623,44.035078],[3.656529,44.035003],[3.65692,44.034664],[3.657345,44.034532],[3.657782,44.034268],[3.658047,44.033962],[3.658403,44.033821],[3.658898,44.033441],[3.659335,44.032937],[3.659944,44.032656],[3.660519,44.032118],[3.661106,44.03187],[3.661658,44.031878],[3.662485,44.032019],[3.663371,44.031986],[3.664578,44.03125],[3.665142,44.030704],[3.665211,44.030192],[3.664762,44.029903],[3.664475,44.029886],[3.664176,44.029721],[3.663612,44.029555],[3.662888,44.028877],[3.662658,44.028431],[3.662738,44.028232],[3.662623,44.027869],[3.662922,44.027464],[3.66283,44.027149],[3.662853,44.026901],[3.662738,44.02662],[3.663187,44.026349],[3.663727,44.025572],[3.664337,44.024946],[3.664442,44.02467],[3.664755,44.02452],[3.66486,44.024332],[3.664581,44.023968],[3.664564,44.023116],[3.664372,44.022552],[3.664459,44.022214],[3.664755,44.021875],[3.665592,44.02175],[3.666306,44.02175],[3.66669,44.021587],[3.667161,44.021061],[3.667422,44.020534],[3.666707,44.021011],[3.667073,44.020196],[3.668346,44.019732],[3.669113,44.019695],[3.668764,44.019469],[3.668346,44.019369],[3.668485,44.019143],[3.668956,44.018968],[3.669461,44.01898],[3.670402,44.019306],[3.670908,44.019093],[3.671553,44.017125],[3.671431,44.015032],[3.671152,44.014781],[3.670838,44.013879],[3.669932,44.012951],[3.669879,44.012625],[3.669653,44.012074],[3.66967,44.011372],[3.669479,44.010921],[3.669601,44.010457],[3.670052,44.009975],[3.670017,44.010264],[3.67027,44.009966],[3.670259,44.009437],[3.670535,44.00909],[3.670891,44.008842],[3.671029,44.008436],[3.670914,44.008139],[3.670466,44.007948],[3.670109,44.007882],[3.670109,44.007121],[3.669891,44.005889],[3.669971,44.004921],[3.669718,44.004566],[3.670236,44.004086],[3.670236,44.003581],[3.670351,44.003499],[3.670581,44.003557],[3.671282,44.003375],[3.671731,44.003093],[3.671754,44.002887],[3.671317,44.002506],[3.671294,44.001993],[3.671202,44.001778],[3.671744,44.001456],[3.67232,44.001418],[3.672842,44.00108],[3.672912,44.000791],[3.673229,44.000377],[3.673561,44.000156],[3.673956,43.998994],[3.673327,43.99911],[3.673993,43.998861],[3.675213,43.998649],[3.676482,43.998525],[3.676554,43.998263],[3.677862,43.998089],[3.678646,43.99782],[3.6793,43.997511],[3.679502,43.997478],[3.679588,43.997549],[3.679662,43.997354],[3.679995,43.997727],[3.680081,43.99809],[3.68018,43.998117],[3.680266,43.997877],[3.680401,43.998356],[3.680315,43.998693],[3.680352,43.998977],[3.680586,43.999287],[3.680709,43.998932],[3.680931,43.999207],[3.681079,43.998808],[3.681153,43.998941],[3.681523,43.998321],[3.681646,43.997851],[3.682114,43.998755],[3.682386,43.998844],[3.68294,44.000182],[3.682812,44.000333],[3.683055,44.0004],[3.683466,44.000803],[3.683185,44.000964],[3.683185,44.00126],[3.683522,44.001085],[3.683951,44.001139],[3.684456,44.001488],[3.685035,44.001744],[3.685539,44.0022],[3.686081,44.002442],[3.686735,44.002415],[3.687781,44.001985],[3.688696,44.002308],[3.689574,44.0022],[3.690246,44.002268],[3.691591,44.002227],[3.692133,44.00216],[3.692768,44.002174],[3.693179,44.001838],[3.693179,44.002174],[3.693646,44.001757],[3.694281,44.001502],[3.69473,44.001058],[3.695029,43.999903],[3.69585,44.000104],[3.696205,44.000118],[3.69585,44.000239],[3.695925,44.00044],[3.696934,44.000709],[3.697382,44.000722],[3.697775,44.000857],[3.698484,44.000857],[3.699063,44.000628],[3.699904,44.000037],[3.700035,43.99907],[3.700315,43.998465],[3.700913,43.997726],[3.700931,43.996248],[3.701641,43.995455],[3.701791,43.99485],[3.701679,43.994608],[3.70138,43.995334],[3.701212,43.995361],[3.701268,43.994998],[3.701249,43.994568],[3.701697,43.994044],[3.701809,43.993264],[3.701623,43.992418],[3.700875,43.99184],[3.700875,43.990899],[3.70052,43.990429],[3.700726,43.989878],[3.701092,43.989486],[3.700339,43.989838],[3.700762,43.989448],[3.701171,43.988859],[3.701158,43.988422],[3.701568,43.987699],[3.701436,43.987395],[3.701475,43.987224],[3.701303,43.987291],[3.701145,43.987633],[3.701132,43.987243],[3.701,43.987186],[3.701185,43.986958],[3.701052,43.986806],[3.701026,43.986331],[3.701119,43.986207],[3.700973,43.985884],[3.700986,43.984706],[3.701264,43.984449],[3.701224,43.984145],[3.700418,43.983518],[3.700432,43.983394],[3.700154,43.983147],[3.700154,43.982273],[3.700313,43.981864],[3.701541,43.98136],[3.701832,43.981294],[3.701858,43.981218],[3.701369,43.980106],[3.701013,43.979716],[3.701118,43.978977],[3.700847,43.978345],[3.700577,43.977203],[3.701062,43.976402],[3.701534,43.976016],[3.701427,43.975229],[3.701534,43.974827],[3.702114,43.974241],[3.701921,43.973855],[3.701191,43.973175],[3.700976,43.972202],[3.701041,43.971924],[3.700998,43.970812],[3.700268,43.969932],[3.700032,43.96899],[3.700054,43.968388],[3.699946,43.967924],[3.699989,43.966905],[3.699839,43.966318],[3.699925,43.96567],[3.700333,43.965253],[3.701035,43.964929],[3.70112,43.964103],[3.700228,43.963451],[3.699662,43.963186],[3.699463,43.963186],[3.699336,43.962982],[3.69918,43.962931],[3.698954,43.962524],[3.69894,43.962157],[3.698628,43.961698],[3.698373,43.961148],[3.698005,43.960853],[3.697807,43.960384],[3.697892,43.960109],[3.698798,43.959059],[3.699775,43.958682],[3.699902,43.958387],[3.700157,43.958122],[3.700228,43.957775],[3.700412,43.957225],[3.700681,43.957082],[3.700978,43.956766],[3.701134,43.95641],[3.701219,43.956083],[3.701488,43.955839],[3.70153,43.955452],[3.701332,43.955278],[3.701516,43.954962],[3.701417,43.95483],[3.701573,43.954534],[3.701941,43.954422],[3.702196,43.953658],[3.702394,43.953576],[3.701431,43.953057],[3.70095,43.953006],[3.70078,43.952843],[3.700681,43.952527],[3.700426,43.952201],[3.700412,43.951834],[3.700624,43.951732],[3.700568,43.951497],[3.701049,43.951181],[3.701247,43.950865],[3.702351,43.95056],[3.702818,43.950183],[3.702889,43.949551],[3.70262,43.948643],[3.702139,43.948266],[3.701912,43.947961],[3.701389,43.947706],[3.701176,43.947431],[3.701445,43.94738],[3.701035,43.947033],[3.700879,43.946819],[3.700256,43.946646],[3.700568,43.946371],[3.700978,43.945993],[3.701021,43.945749],[3.701247,43.945667],[3.701686,43.945137],[3.701885,43.944737],[3.701607,43.944015],[3.701647,43.943491],[3.701805,43.943282],[3.701911,43.942578],[3.701819,43.942341],[3.702149,43.941352],[3.702968,43.940391],[3.702662,43.939546],[3.702863,43.939084],[3.702983,43.938046],[3.702843,43.937758],[3.703063,43.937383],[3.703263,43.937383],[3.703563,43.937585],[3.704224,43.937571],[3.705185,43.937744],[3.706106,43.937715],[3.707608,43.937253],[3.708212,43.9367],[3.710338,43.936548],[3.711316,43.936358],[3.712212,43.937138],[3.713494,43.937917],[3.714174,43.938306],[3.714495,43.938681],[3.714955,43.939257],[3.715356,43.939272],[3.715456,43.938767],[3.716937,43.935523],[3.717217,43.93463],[3.717878,43.933995],[3.718739,43.933418],[3.719159,43.933],[3.71936,43.932121],[3.7193,43.931385],[3.718999,43.930347],[3.71996,43.930016],[3.722583,43.929583],[3.723324,43.928761],[3.723564,43.928704],[3.723244,43.926829],[3.723023,43.926079],[3.723164,43.925113],[3.723764,43.924998],[3.724045,43.923484],[3.72426,43.923002],[3.723604,43.922746],[3.723622,43.922589],[3.723831,43.922545],[3.724337,43.922445],[3.724572,43.922514],[3.724659,43.922671],[3.726201,43.923104],[3.727021,43.92321],[3.727404,43.92321],[3.728197,43.923537],[3.729975,43.923901],[3.731561,43.923876],[3.73177,43.92375],[3.732641,43.923951],[3.733042,43.9237],[3.733234,43.923838],[3.733445,43.923803],[3.733583,43.923877],[3.733767,43.923844],[3.734629,43.923844],[3.735296,43.923654],[3.735446,43.92372],[3.735917,43.923703],[3.736044,43.923496],[3.736377,43.923405],[3.736653,43.923397],[3.737424,43.923157],[3.737746,43.922867],[3.738667,43.922611],[3.739203,43.922673],[3.739547,43.922819],[3.740158,43.922781],[3.74092,43.922572],[3.740351,43.922309],[3.739203,43.921969],[3.739128,43.92173],[3.739053,43.921513],[3.739214,43.921343],[3.740201,43.921266],[3.740748,43.921119],[3.741381,43.920787],[3.741767,43.920748],[3.742143,43.920787],[3.74254,43.920486],[3.743141,43.920246],[3.742218,43.920331],[3.741134,43.920068],[3.740566,43.920022],[3.740126,43.91969],[3.740001,43.9194],[3.740348,43.918854],[3.740355,43.91864],[3.739888,43.918155],[3.739867,43.91788],[3.740058,43.917671],[3.740447,43.917488],[3.740617,43.917222],[3.740662,43.916784],[3.741338,43.916714],[3.741392,43.916359],[3.742175,43.916003],[3.742186,43.915408],[3.742347,43.915223],[3.742046,43.914906],[3.742218,43.914674],[3.742068,43.914427],[3.742261,43.914187],[3.741832,43.913561],[3.742014,43.913043],[3.74195,43.91278],[3.741499,43.912672],[3.74077,43.912711],[3.740373,43.912633],[3.739429,43.912085],[3.739214,43.911822],[3.740051,43.911126],[3.740137,43.910717],[3.740137,43.910423],[3.74004,43.910245],[3.740169,43.910168],[3.740233,43.910006],[3.740834,43.909542],[3.741692,43.90914],[3.741542,43.9088],[3.741671,43.908576],[3.741585,43.908321],[3.74166,43.908236],[3.741574,43.908089],[3.741907,43.907803],[3.741843,43.90754],[3.742057,43.907486],[3.742411,43.907316],[3.742712,43.907447],[3.742712,43.907292],[3.742883,43.907354],[3.742905,43.907215],[3.743216,43.907339],[3.743173,43.907122],[3.74298,43.907122],[3.741853,43.90669],[3.742561,43.906836],[3.742872,43.906767],[3.742518,43.906342],[3.741789,43.906025],[3.741124,43.905677],[3.740566,43.905321],[3.740126,43.905213],[3.739686,43.905213],[3.739643,43.905074],[3.740201,43.905012],[3.740287,43.904834],[3.740709,43.904809],[3.740758,43.904668],[3.740498,43.904633],[3.741197,43.904457],[3.741571,43.904246],[3.74162,43.904106],[3.741278,43.903906],[3.740888,43.903192],[3.742156,43.902664],[3.742189,43.902348],[3.742335,43.902149],[3.742156,43.901821],[3.742156,43.901165],[3.741799,43.90079],[3.741278,43.900204],[3.740546,43.899841],[3.740172,43.899231],[3.740107,43.898423],[3.739945,43.89786],[3.737733,43.896677],[3.737522,43.896302],[3.736367,43.895587],[3.735505,43.895505],[3.735115,43.895329],[3.733635,43.895458],[3.732708,43.893396],[3.732367,43.892411],[3.732204,43.89165],[3.732448,43.890419],[3.732936,43.889353],[3.733066,43.888497],[3.733082,43.888052],[3.733359,43.887219],[3.7337,43.886575],[3.7337,43.886294],[3.733375,43.886071],[3.733603,43.885544],[3.733716,43.884934],[3.734432,43.884571],[3.735082,43.8845],[3.735505,43.884571],[3.735782,43.884418],[3.737083,43.884934],[3.737473,43.885485],[3.738091,43.885919],[3.738774,43.8862],[3.73905,43.886669],[3.740367,43.887501],[3.740791,43.887532],[3.740952,43.886651],[3.741843,43.886171],[3.742497,43.885645],[3.74328,43.885599],[3.743892,43.885398],[3.744117,43.885197],[3.744375,43.885104],[3.744707,43.884841],[3.745812,43.884818],[3.746917,43.884315],[3.748258,43.884037],[3.75005,43.883349],[3.750608,43.883449],[3.751445,43.883441],[3.751831,43.883225],[3.75329,43.882815],[3.753397,43.882622],[3.753676,43.882544],[3.754427,43.882707],[3.754921,43.882738],[3.755511,43.883008],[3.756391,43.883101],[3.757163,43.883364],[3.758215,43.883905],[3.758987,43.883952],[3.759137,43.884045],[3.759803,43.884122],[3.760779,43.884408],[3.761176,43.884601],[3.762036,43.884693],[3.762291,43.88457],[3.762744,43.88454],[3.763735,43.884499],[3.764754,43.884295],[3.765689,43.884693],[3.767388,43.885285],[3.768308,43.885428],[3.768874,43.885356],[3.7692,43.885642],[3.769624,43.885764],[3.770361,43.886142],[3.770686,43.886101],[3.771012,43.886193],[3.771465,43.886152],[3.771748,43.885927],[3.77247,43.885927],[3.775117,43.88557],[3.776788,43.88557],[3.776979,43.885228],[3.776894,43.88498],[3.776937,43.884764],[3.778052,43.883867],[3.778095,43.883666],[3.778911,43.88215],[3.778996,43.881238],[3.779404,43.880712],[3.779469,43.880402],[3.780091,43.880124],[3.780606,43.879691],[3.780842,43.879134],[3.781915,43.878747],[3.782666,43.878376],[3.784254,43.878021],[3.785348,43.87751],[3.786528,43.87683],[3.787601,43.876675],[3.78788,43.876536],[3.789554,43.876273],[3.789532,43.875994],[3.790712,43.875809],[3.791249,43.876273],[3.792841,43.876928],[3.793195,43.877009],[3.793493,43.877244],[3.793634,43.877295],[3.794427,43.878152],[3.79454,43.878469],[3.795276,43.878877],[3.795319,43.879101],[3.795659,43.879448],[3.796692,43.880346],[3.796933,43.880397],[3.79723,43.880601],[3.797598,43.880713],[3.79757,43.880805],[3.798122,43.880856],[3.798476,43.880367],[3.798221,43.880164],[3.798522,43.879904],[3.798201,43.878519],[3.798462,43.878259],[3.799322,43.87797],[3.799042,43.877768],[3.797701,43.877711],[3.79714,43.877451],[3.79694,43.877148],[3.796459,43.87722],[3.796219,43.876888],[3.796299,43.876383],[3.795891,43.87647],[3.795971,43.876118],[3.795852,43.875804],[3.796116,43.875328],[3.795799,43.875309],[3.795257,43.875414],[3.794636,43.875195],[3.794293,43.874995],[3.793738,43.874899],[3.793157,43.87468],[3.792682,43.874128],[3.792444,43.873662],[3.791942,43.873071],[3.791427,43.872709],[3.791374,43.872528],[3.791004,43.872195],[3.790753,43.871843],[3.790291,43.871443],[3.789842,43.870881],[3.789815,43.870053],[3.789987,43.869386],[3.789855,43.869091],[3.78971,43.868539],[3.789432,43.867996],[3.789379,43.867472],[3.789445,43.867234],[3.789406,43.866996],[3.789617,43.866767],[3.789815,43.866129],[3.789974,43.865929],[3.79004,43.865663],[3.790225,43.86552],[3.790535,43.865557],[3.791999,43.865557],[3.792121,43.865446],[3.79221,43.864977],[3.792332,43.864953],[3.792389,43.86476],[3.792666,43.864549],[3.79256,43.864338],[3.792625,43.86405],[3.792391,43.86382],[3.792108,43.863802],[3.791652,43.863856],[3.791467,43.863802],[3.79111,43.863465],[3.790875,43.863394],[3.790629,43.863243],[3.790493,43.863021],[3.790309,43.862949],[3.790025,43.862372],[3.789224,43.861785],[3.788152,43.861439],[3.787955,43.86119],[3.787696,43.861101],[3.787671,43.860764],[3.787154,43.860612],[3.786882,43.860435],[3.786624,43.860435],[3.786426,43.860204],[3.784935,43.859768],[3.785477,43.858035],[3.78581,43.857182],[3.785687,43.856836],[3.78618,43.855796],[3.786291,43.855103],[3.786463,43.854747],[3.786352,43.854356],[3.785576,43.853645],[3.784837,43.852606],[3.78475,43.852241],[3.784578,43.851957],[3.784307,43.85113],[3.784368,43.850588],[3.784319,43.850037],[3.7839,43.84953],[3.78374,43.849039],[3.783142,43.848581],[3.78275,43.848056],[3.782021,43.847584],[3.781666,43.847045],[3.78105,43.846843],[3.780303,43.846304],[3.779854,43.845819],[3.779742,43.844567],[3.779798,43.844189],[3.779817,43.84365],[3.779798,43.842963],[3.780116,43.842559],[3.780508,43.842249],[3.780527,43.841845],[3.7809,43.841293],[3.781311,43.840956],[3.781311,43.840215],[3.78105,43.839582],[3.780471,43.8388],[3.779836,43.838692],[3.779126,43.837978],[3.778958,43.837695],[3.778715,43.83783],[3.778192,43.837897],[3.777781,43.838059],[3.777407,43.837978],[3.776492,43.836523],[3.776567,43.835728],[3.776847,43.835229],[3.776884,43.834839],[3.776959,43.834502],[3.776884,43.834017],[3.776716,43.833505],[3.776735,43.831712],[3.77681,43.831079],[3.776567,43.830432],[3.776548,43.82992],[3.77595,43.828829],[3.775969,43.828397],[3.776436,43.827764],[3.776922,43.827387],[3.777389,43.826794],[3.77737,43.826443],[3.77623,43.826214],[3.775334,43.826228],[3.772756,43.824462],[3.771803,43.823613],[3.771654,43.823249],[3.770496,43.822036],[3.769599,43.822009],[3.768983,43.82143],[3.767768,43.820055],[3.767171,43.81926],[3.76676,43.818519],[3.764593,43.816322],[3.763846,43.815702],[3.762557,43.814462],[3.76293,43.812992],[3.762333,43.810795],[3.761922,43.809488],[3.761268,43.80822],[3.760054,43.807021],[3.759923,43.8064],[3.759979,43.80605],[3.760259,43.805915],[3.760147,43.805753],[3.760147,43.805241],[3.760913,43.805039],[3.761174,43.804527],[3.7611,43.804109],[3.760707,43.803475],[3.760988,43.802248],[3.760857,43.801668],[3.760147,43.800671],[3.75996,43.799282],[3.760054,43.798567],[3.759736,43.79846],[3.759157,43.797826],[3.758597,43.796882],[3.758372,43.796316],[3.758055,43.7961],[3.757793,43.795682],[3.756841,43.795291],[3.756187,43.794833],[3.755701,43.793835],[3.754748,43.792958],[3.753142,43.792352],[3.751199,43.791853],[3.750639,43.791354],[3.749518,43.791178],[3.750396,43.790005],[3.751237,43.78979],[3.751872,43.789439],[3.752227,43.789385],[3.752731,43.789075],[3.75247,43.788792],[3.751928,43.787902],[3.751909,43.787416],[3.752339,43.786432],[3.752488,43.786189],[3.752283,43.785434],[3.752544,43.784813],[3.753105,43.784908],[3.753142,43.784692],[3.752656,43.784449],[3.752582,43.784126],[3.752544,43.783047],[3.75288,43.782467],[3.752338,43.782207],[3.752142,43.782224],[3.752004,43.781983],[3.752338,43.781925],[3.752522,43.781643],[3.752637,43.781352],[3.75312,43.780746],[3.753752,43.78058],[3.754097,43.780256],[3.754499,43.779958],[3.754445,43.779361],[3.75481,43.779061],[3.755247,43.778895],[3.755511,43.778596],[3.755569,43.778364],[3.755822,43.778197],[3.756776,43.777771],[3.756938,43.777313],[3.756906,43.776961],[3.756581,43.776562],[3.756581,43.77621],[3.755849,43.775857],[3.756288,43.775458],[3.756792,43.775399],[3.757394,43.775247],[3.75754,43.775035],[3.758613,43.775024],[3.758987,43.774848],[3.759752,43.774836],[3.760614,43.774765],[3.761134,43.774636],[3.761443,43.774801],[3.762695,43.774895],[3.763622,43.774695],[3.763931,43.774401],[3.76424,43.774378],[3.765346,43.774531],[3.765996,43.774812],[3.76624,43.775035],[3.7665,43.774836],[3.767004,43.77473],[3.767655,43.774448],[3.769688,43.774613],[3.770582,43.774542],[3.771704,43.774648],[3.773135,43.77446],[3.773477,43.774167],[3.773786,43.773979],[3.773883,43.773591],[3.775087,43.772851],[3.775103,43.772358],[3.775526,43.771994],[3.776111,43.771935],[3.776404,43.771489],[3.77751,43.771231],[3.778274,43.771325],[3.778908,43.77109],[3.779477,43.771008],[3.780713,43.770468],[3.786112,43.76873],[3.787511,43.769458],[3.788942,43.769857],[3.788844,43.770127],[3.789267,43.770655],[3.789608,43.770832],[3.790129,43.770902],[3.7913,43.771172],[3.79156,43.771736],[3.79221,43.771971],[3.792405,43.772358],[3.793056,43.77264],[3.79356,43.772969],[3.794129,43.773051],[3.794341,43.773368],[3.795853,43.773967],[3.796325,43.774343],[3.79717,43.774484],[3.797691,43.774542],[3.798178,43.774683],[3.799138,43.775106],[3.799496,43.775106],[3.800081,43.775165],[3.801528,43.775493],[3.802472,43.775634],[3.802894,43.775611],[3.803529,43.77574],[3.804797,43.775705],[3.805578,43.775881],[3.806618,43.775893],[3.80709,43.776045],[3.808342,43.776491],[3.809724,43.776785],[3.810196,43.776785],[3.811351,43.776562],[3.812456,43.776785],[3.81353,43.776621],[3.813757,43.776691],[3.81379,43.777043],[3.814273,43.77692],[3.814691,43.777075],[3.815024,43.777338],[3.815829,43.777315],[3.816268,43.777245],[3.816751,43.777307],[3.817137,43.777191],[3.818157,43.777175],[3.818468,43.777121],[3.818983,43.777129],[3.819551,43.777075],[3.819938,43.776912],[3.820045,43.776718],[3.820871,43.776439],[3.821799,43.776033],[3.822633,43.775825],[3.822998,43.775781],[3.823483,43.775485],[3.82412,43.775299],[3.824333,43.774948],[3.825,43.774751],[3.825547,43.774641],[3.826032,43.774444],[3.827914,43.774203],[3.828778,43.774455],[3.829446,43.7744],[3.831024,43.773853],[3.831646,43.773874],[3.832906,43.773754],[3.833452,43.773776],[3.834074,43.773633],[3.83465,43.773622],[3.837822,43.773064],[3.83902,43.772549],[3.840264,43.772373],[3.841387,43.772549],[3.841584,43.772417],[3.841159,43.771952],[3.840564,43.77139],[3.842079,43.770112],[3.842489,43.769345],[3.84307,43.768793],[3.84365,43.768681],[3.8445,43.768844],[3.845038,43.769304],[3.845363,43.769754],[3.845476,43.769315],[3.845434,43.768855],[3.84559,43.768527],[3.845618,43.767198],[3.846626,43.767695],[3.848079,43.76842],[3.847934,43.767924],[3.848026,43.767466],[3.849194,43.767628],[3.850555,43.767917],[3.852217,43.767874],[3.853478,43.767556],[3.8545,43.766992],[3.85518,43.766876],[3.855781,43.76757],[3.856462,43.767729],[3.857022,43.767498],[3.857623,43.76825],[3.857643,43.767975],[3.857322,43.76731],[3.857583,43.766862],[3.858011,43.766416],[3.858833,43.76531],[3.858983,43.764824],[3.859039,43.764203],[3.860795,43.762679],[3.860926,43.762369],[3.86171,43.762207],[3.863391,43.761289],[3.866604,43.760116],[3.86851,43.760723],[3.86935,43.760763],[3.870079,43.760561],[3.870676,43.760979],[3.870938,43.761438],[3.871442,43.761006],[3.87247,43.761397],[3.873366,43.761667],[3.874039,43.76187],[3.874356,43.762544],[3.874674,43.763124],[3.874095,43.763205],[3.873983,43.763623],[3.873516,43.764028],[3.873049,43.764379],[3.872918,43.764905],[3.873161,43.764999],[3.873366,43.765458],[3.87305,43.766046],[3.872388,43.766776],[3.871446,43.767329],[3.870732,43.767657],[3.870069,43.76777],[3.869721,43.768022],[3.869512,43.769054],[3.869303,43.769154]]],"type":"MultiLineString"},"properties":{"geo_point":{"lon":3.7226422375629116,"lat":43.916011038743996},"name":"GR60 De l'Espérou (Gard) à St Mathieu-de-Tréviers (Hérault) (2019)","code_gr":"GR60"}},{"type":"Feature","geometry":{"coordinates":[[[3.065831,44.576555],[3.065831,44.576555],[3.067326,44.576817],[3.068867,44.576653],[3.069925,44.575818],[3.071305,44.575244],[3.0728,44.574737],[3.073685,44.576629],[3.074548,44.576645],[3.074962,44.576891],[3.076249,44.576719],[3.080916,44.577177],[3.081583,44.577049],[3.082005,44.577466],[3.084136,44.578127],[3.086884,44.578868],[3.089746,44.578022],[3.090771,44.576922],[3.090836,44.576621],[3.092608,44.5761],[3.093356,44.5761],[3.09347,44.575984],[3.093909,44.576053],[3.094787,44.575775],[3.095861,44.575833],[3.096495,44.575984],[3.097178,44.575822],[3.097958,44.57588],[3.101715,44.57508],[3.105975,44.573864],[3.10661,44.573852],[3.107293,44.574096],[3.109781,44.574304],[3.110935,44.574478],[3.112431,44.574107],[3.113667,44.57369],[3.114204,44.57318],[3.115603,44.572451],[3.116969,44.571999],[3.11744,44.571373],[3.117847,44.571408],[3.118611,44.571709],[3.120936,44.571941],[3.122237,44.571489],[3.123636,44.571315],[3.123782,44.570458],[3.124026,44.570284],[3.124449,44.570122],[3.125457,44.569323],[3.125831,44.569288],[3.126335,44.569172],[3.1264,44.568987],[3.126839,44.568987],[3.128742,44.567944],[3.131019,44.567041],[3.132694,44.566172],[3.133751,44.56543],[3.134011,44.565013],[3.134629,44.565048],[3.135198,44.564839],[3.13606,44.564897],[3.13845,44.56426],[3.139085,44.564028],[3.140565,44.563831],[3.141491,44.563507],[3.141914,44.563426],[3.143248,44.562649],[3.14341,44.562371],[3.143898,44.562174],[3.144435,44.561769],[3.145394,44.561456],[3.14611,44.560981],[3.147508,44.560529],[3.149069,44.560321],[3.150728,44.559614],[3.151915,44.559266],[3.154159,44.558571],[3.155135,44.558142],[3.156208,44.558154],[3.157835,44.558293],[3.158459,44.557776],[3.158668,44.557081],[3.158372,44.55646],[3.159348,44.555578],[3.161195,44.553243],[3.161561,44.552436],[3.163723,44.548921],[3.164751,44.547182],[3.167139,44.544996],[3.16815,44.544213],[3.16855,44.543617],[3.168864,44.541853],[3.169474,44.539828],[3.16916,44.538971],[3.169143,44.538101],[3.16923,44.537393],[3.168951,44.536225],[3.16862,44.535927],[3.168603,44.535008],[3.169143,44.533604],[3.169614,44.532983],[3.170258,44.532424],[3.170293,44.531393],[3.170398,44.530535],[3.170712,44.529827],[3.170415,44.529218],[3.170136,44.527876],[3.169631,44.52774],[3.169927,44.527466],[3.170903,44.526286],[3.171182,44.525478],[3.171217,44.525031],[3.171688,44.524323],[3.171688,44.52354],[3.171165,44.522782],[3.171095,44.522409],[3.170694,44.521626],[3.170799,44.520595],[3.170764,44.520222],[3.171043,44.51919],[3.171165,44.518097],[3.170851,44.517326],[3.17106,44.516568],[3.171078,44.515947],[3.171339,44.515387],[3.171287,44.514406],[3.171025,44.514095],[3.170659,44.51407],[3.170363,44.513834],[3.170136,44.513387],[3.169509,44.512889],[3.168882,44.512007],[3.168725,44.511473],[3.168394,44.511087],[3.168341,44.510839],[3.168184,44.510503],[3.16808,44.510143],[3.167156,44.509335],[3.166755,44.509248],[3.166372,44.508775],[3.165814,44.508415],[3.166075,44.508166],[3.16679,44.508017],[3.167888,44.508141],[3.168028,44.50711],[3.16794,44.505842],[3.168062,44.505283],[3.168725,44.503679],[3.169195,44.503331],[3.169736,44.502623],[3.169683,44.502225],[3.169387,44.501429],[3.169248,44.499975],[3.168882,44.49857],[3.168533,44.497824],[3.168376,44.497277],[3.167836,44.496792],[3.167818,44.494952],[3.167592,44.494082],[3.167452,44.493274],[3.167139,44.492839],[3.166407,44.492428],[3.166023,44.491807],[3.167243,44.491123],[3.168306,44.490899],[3.169091,44.491024],[3.169213,44.490539],[3.169509,44.490103],[3.170084,44.490116],[3.172193,44.489382],[3.172015,44.48907],[3.172348,44.489239],[3.172543,44.488792],[3.172714,44.488728],[3.173202,44.488728],[3.174056,44.488444],[3.174422,44.488403],[3.174389,44.488264],[3.173983,44.488084],[3.172891,44.486629],[3.172817,44.485733],[3.172102,44.48495],[3.171856,44.484343],[3.17087,44.483183],[3.170328,44.482813],[3.169995,44.482022],[3.170229,44.481319],[3.169872,44.481037],[3.170106,44.480773],[3.170562,44.480378],[3.170796,44.480351],[3.170722,44.479947],[3.170747,44.479841],[3.170562,44.479525],[3.170681,44.478647],[3.171615,44.477941],[3.171821,44.477221],[3.171727,44.476421],[3.171578,44.475928],[3.171148,44.475661],[3.170027,44.474395],[3.169411,44.473369],[3.168851,44.472449],[3.168533,44.471076],[3.168197,44.470196],[3.167674,44.46925],[3.167506,44.468743],[3.167375,44.468663],[3.167263,44.46825],[3.16745,44.46773],[3.167935,44.467437],[3.168683,44.467144],[3.169037,44.466744],[3.169168,44.466464],[3.169224,44.46593],[3.170158,44.465917],[3.170457,44.465704],[3.169971,44.465117],[3.170177,44.464757],[3.170756,44.464197],[3.171167,44.463531],[3.171148,44.463024],[3.169673,44.462651],[3.168869,44.463424],[3.168626,44.463451],[3.168421,44.462477],[3.167282,44.460504],[3.167001,44.460184],[3.166889,44.459198],[3.167524,44.458691],[3.169467,44.458891],[3.170681,44.458678],[3.172138,44.458598],[3.173147,44.458371],[3.173409,44.457864],[3.173184,44.457024],[3.173427,44.455411],[3.172194,44.454291],[3.172942,44.453918],[3.174044,44.453878],[3.174884,44.454011],[3.175725,44.454291],[3.175912,44.454544],[3.176883,44.454611],[3.177668,44.454464],[3.17791,44.454144],[3.178228,44.454078],[3.178564,44.453278],[3.178975,44.452291],[3.179741,44.451451],[3.180283,44.450717],[3.181123,44.449731],[3.181273,44.44885],[3.180843,44.448717],[3.179648,44.448957],[3.178975,44.448917],[3.179013,44.44849],[3.17778,44.447984],[3.177668,44.447664],[3.178695,44.446463],[3.179685,44.446023],[3.180862,44.444903],[3.181366,44.444543],[3.181983,44.44381],[3.182039,44.443396],[3.182599,44.443223],[3.183533,44.442716],[3.184,44.442569],[3.184243,44.442409],[3.184822,44.442316],[3.185233,44.442529],[3.186186,44.442676],[3.186578,44.443063],[3.187363,44.443209],[3.187643,44.443116],[3.187736,44.442863],[3.188838,44.443129],[3.190108,44.443756],[3.19108,44.444143],[3.192107,44.44449],[3.193135,44.444943],[3.192892,44.444156],[3.19334,44.442796],[3.193396,44.441796],[3.193228,44.441422],[3.193901,44.441822],[3.195133,44.442849],[3.196123,44.443383],[3.196927,44.443329],[3.198776,44.442449],[3.198029,44.440342],[3.198141,44.439902],[3.198496,44.439528],[3.19971,44.437448],[3.202307,44.436021],[3.20565,44.4343],[3.207331,44.433793],[3.209218,44.433446],[3.213571,44.433553],[3.214112,44.43322],[3.214243,44.433006],[3.214561,44.433126],[3.214617,44.433406],[3.214934,44.433766],[3.21499,44.434087],[3.215345,44.434607],[3.216298,44.43546],[3.216709,44.435634],[3.217008,44.435954],[3.217624,44.437488],[3.217942,44.438115],[3.218184,44.438808],[3.219698,44.439662],[3.221379,44.439675],[3.222948,44.439929],[3.222574,44.439662],[3.223247,44.439742],[3.223901,44.439568],[3.224648,44.439502],[3.223546,44.439288],[3.224722,44.439262],[3.225899,44.439595],[3.226348,44.439822],[3.227599,44.439809],[3.228795,44.439688],[3.230719,44.439769],[3.231391,44.439542],[3.232082,44.439288],[3.233745,44.439502],[3.235258,44.439809],[3.237238,44.439328],[3.237967,44.439448],[3.238676,44.439448],[3.239087,44.439702],[3.239741,44.439408],[3.242151,44.439075],[3.240993,44.439462],[3.240133,44.440142],[3.239461,44.441262],[3.238789,44.441769],[3.238097,44.442743],[3.238564,44.443009],[3.238826,44.443329],[3.239909,44.443396],[3.242188,44.444316],[3.243421,44.444756],[3.24443,44.44493],[3.244841,44.444703],[3.245681,44.44477],[3.246429,44.44501],[3.246653,44.445157],[3.248633,44.44553],[3.249417,44.445597],[3.250053,44.445863],[3.250968,44.44581],[3.251995,44.446023],[3.252462,44.446237],[3.253209,44.44633],[3.253471,44.446557],[3.253826,44.446743],[3.254909,44.447477],[3.255059,44.447997],[3.256329,44.44849],[3.258104,44.448837],[3.259243,44.448984],[3.260868,44.44881],[3.263726,44.450677],[3.265258,44.450904],[3.266043,44.451477],[3.266398,44.451557],[3.267276,44.451051],[3.268023,44.450917],[3.268247,44.450651],[3.268303,44.450331],[3.268807,44.450064],[3.269498,44.449957],[3.271404,44.450064],[3.27288,44.449771],[3.274523,44.449677],[3.277232,44.449784],[3.279044,44.449664],[3.279847,44.449264],[3.281435,44.44861],[3.283135,44.448304],[3.284274,44.448144],[3.28504,44.447864],[3.285376,44.447264],[3.285675,44.44613],[3.285432,44.445543],[3.285526,44.44509],[3.285937,44.444303],[3.286049,44.443169],[3.286852,44.441622],[3.287282,44.441196],[3.28788,44.440942],[3.28872,44.440876],[3.289224,44.440595],[3.28999,44.440435],[3.290999,44.440635],[3.291952,44.440449],[3.292437,44.440529],[3.293614,44.440275],[3.29354,44.439408],[3.293745,44.438942],[3.294361,44.438728],[3.29537,44.438515],[3.295875,44.438261],[3.295949,44.437581],[3.296323,44.437048],[3.297107,44.436994],[3.298191,44.437341],[3.299069,44.437941],[3.29933,44.438341],[3.299872,44.438835],[3.300787,44.438862],[3.302917,44.439435],[3.303832,44.439382],[3.304206,44.439488],[3.304486,44.439675],[3.30514,44.439462],[3.3057,44.439488],[3.307157,44.439248],[3.307325,44.438942],[3.3074,44.438648],[3.30768,44.438101],[3.308857,44.437795],[3.311099,44.437181],[3.311566,44.436914],[3.313172,44.436314],[3.313826,44.435967],[3.314032,44.435714],[3.314386,44.435767],[3.316198,44.435767],[3.316535,44.435954],[3.316591,44.436474],[3.316964,44.436914],[3.317375,44.437128],[3.317861,44.437581],[3.318403,44.437741],[3.319075,44.437781],[3.319449,44.437968],[3.320177,44.438475],[3.321093,44.439048],[3.321447,44.439422],[3.321672,44.440315],[3.3224,44.441302],[3.323315,44.440755],[3.325258,44.440249],[3.326043,44.440169],[3.326547,44.440035],[3.327593,44.440009],[3.328303,44.440195],[3.329032,44.440155],[3.330283,44.439795],[3.330601,44.439795],[3.332338,44.439062],[3.332618,44.438728],[3.333291,44.438608],[3.33387,44.438008],[3.334561,44.437541],[3.336111,44.436581],[3.336952,44.43554],[3.336746,44.434607],[3.336858,44.434233],[3.33768,44.433606],[3.338969,44.432913],[3.339698,44.432753],[3.340277,44.432819],[3.341566,44.432459],[3.342481,44.431752],[3.343266,44.430698],[3.344088,44.430432],[3.34504,44.430392],[3.345956,44.430232],[3.346311,44.430245],[3.346665,44.429845],[3.347618,44.428898],[3.348589,44.428337],[3.348851,44.42783],[3.348832,44.42647],[3.348627,44.425269],[3.349617,44.424002],[3.350308,44.423348],[3.351242,44.422708],[3.353147,44.422241],[3.353689,44.422534],[3.354268,44.422481],[3.355651,44.422067],[3.356697,44.421347],[3.356902,44.420466],[3.358621,44.420119],[3.361292,44.419386],[3.362357,44.418839],[3.363104,44.418385],[3.363328,44.418171],[3.364262,44.417745],[3.366186,44.416731],[3.36755,44.415303],[3.368297,44.415436],[3.36981,44.41529],[3.371267,44.415223],[3.373658,44.414876],[3.374349,44.414676],[3.376217,44.414275],[3.378123,44.413635],[3.380514,44.413408],[3.383951,44.412581],[3.385763,44.412394],[3.38722,44.412234],[3.388228,44.412341],[3.390059,44.412581],[3.391479,44.412447],[3.392189,44.412554],[3.394729,44.412261],[3.396392,44.412421],[3.398166,44.412141],[3.398988,44.412234],[3.400651,44.412114],[3.401155,44.41186],[3.402257,44.411687],[3.40405,44.41166],[3.405339,44.411754],[3.406946,44.411593],[3.407786,44.41122],[3.40844,44.4111],[3.409505,44.410392],[3.410563,44.409849],[3.410797,44.409585],[3.411438,44.409461],[3.41227,44.409325],[3.412587,44.409058],[3.413428,44.409018],[3.413465,44.408805],[3.411877,44.40791],[3.411578,44.407283],[3.411578,44.406496],[3.411373,44.405562],[3.411672,44.404895],[3.412176,44.404241],[3.412083,44.403827],[3.411971,44.40336],[3.412886,44.401985],[3.413671,44.401598],[3.413876,44.401171],[3.413764,44.400771],[3.413484,44.39965],[3.413353,44.398609],[3.413671,44.397981],[3.413764,44.397434],[3.414156,44.396727],[3.414306,44.396179],[3.414754,44.395339],[3.415221,44.394951],[3.416323,44.394311],[3.417481,44.392709],[3.417892,44.392429],[3.418285,44.392042],[3.418789,44.391948],[3.419293,44.391428],[3.419387,44.391161],[3.420881,44.390186],[3.420825,44.39056],[3.422021,44.39048],[3.421759,44.390186],[3.422133,44.389986],[3.422282,44.389666],[3.422842,44.389893],[3.423272,44.389172],[3.423067,44.388638],[3.423141,44.388117],[3.423683,44.38733],[3.424206,44.386862],[3.425103,44.386489],[3.425065,44.386275],[3.42415,44.385995],[3.42288,44.384753],[3.422562,44.383819],[3.422525,44.382684],[3.422226,44.381616],[3.422618,44.380294],[3.422581,44.379747],[3.423011,44.379413],[3.422898,44.379279],[3.422338,44.379106],[3.421815,44.378719],[3.421174,44.378455],[3.420644,44.378085],[3.420891,44.378402],[3.421445,44.37901],[3.421125,44.378966],[3.420755,44.378816],[3.420385,44.378728],[3.419252,44.377997],[3.418845,44.377544],[3.418583,44.377103],[3.418079,44.376916],[3.417444,44.376128],[3.417294,44.375501],[3.416865,44.37458],[3.41623,44.374059],[3.415613,44.373792],[3.414661,44.373044],[3.413558,44.372804],[3.412737,44.372323],[3.411896,44.371535],[3.411317,44.371455],[3.411149,44.371375],[3.41113,44.370707],[3.411392,44.370734],[3.411429,44.371242],[3.411747,44.371308],[3.412232,44.371282],[3.412811,44.371629],[3.413913,44.371989],[3.414679,44.372083],[3.414661,44.371963],[3.413652,44.371655],[3.41311,44.371295],[3.412531,44.370494],[3.412606,44.370147],[3.412475,44.369773],[3.412662,44.369773],[3.412979,44.370053],[3.413185,44.370667],[3.413353,44.370681],[3.413484,44.369612],[3.412662,44.369399],[3.412288,44.369158],[3.412027,44.368744],[3.412101,44.368371],[3.412326,44.36813],[3.411336,44.367489],[3.410439,44.367503],[3.409766,44.367382],[3.409337,44.366781],[3.409561,44.366127],[3.409654,44.366621],[3.410177,44.367075],[3.410439,44.367022],[3.410682,44.366234],[3.410495,44.365633],[3.410271,44.365553],[3.410514,44.364538],[3.411915,44.364364],[3.412288,44.364672],[3.413372,44.364471],[3.4141,44.36395],[3.414941,44.363176],[3.415296,44.362214],[3.415542,44.362324],[3.415678,44.362227],[3.415739,44.362597],[3.415998,44.363584],[3.416158,44.363381],[3.416122,44.363773],[3.416724,44.363576],[3.416561,44.363494],[3.416691,44.363477],[3.416577,44.363366],[3.416805,44.363372],[3.417382,44.363215],[3.416854,44.36307],[3.41709,44.363023],[3.416984,44.36296],[3.41713,44.362948],[3.417016,44.362733],[3.417431,44.362837],[3.417884,44.3628],[3.41744,44.362571],[3.417613,44.361778],[3.417933,44.361284],[3.418142,44.361989],[3.418278,44.361496],[3.418118,44.361038],[3.418179,44.360879],[3.418093,44.360606],[3.418327,44.360588],[3.418586,44.360817],[3.418796,44.360465],[3.419005,44.360694],[3.419202,44.361179],[3.419658,44.361337],[3.420336,44.361223],[3.420755,44.361064],[3.421421,44.361073],[3.422567,44.360456],[3.42343,44.360412],[3.423861,44.35991],[3.424822,44.359381],[3.425747,44.359055],[3.426449,44.358976],[3.42672,44.358782],[3.426548,44.358615],[3.426474,44.35828],[3.426178,44.35872],[3.426141,44.358306],[3.426252,44.357883],[3.426449,44.357328],[3.426375,44.356835],[3.426562,44.355717],[3.426482,44.355358],[3.426535,44.354961],[3.426324,44.354659],[3.426403,44.353563],[3.426746,44.353053],[3.426773,44.352562],[3.426373,44.351583],[3.426541,44.350768],[3.426392,44.35002],[3.426186,44.349606],[3.426242,44.348738],[3.426653,44.348177],[3.426896,44.347963],[3.426896,44.347241],[3.426672,44.346988],[3.426261,44.346841],[3.42613,44.345131],[3.426373,44.34461],[3.426504,44.343635],[3.426578,44.342633],[3.426541,44.342192],[3.426578,44.341965],[3.426915,44.341617],[3.426915,44.341163],[3.427587,44.340989],[3.428353,44.340642],[3.42882,44.340402],[3.428596,44.339947],[3.428017,44.339453],[3.427811,44.338905],[3.427737,44.338144],[3.427699,44.335605],[3.426747,44.335498],[3.427195,44.335231],[3.427363,44.334884],[3.427307,44.33463],[3.427587,44.333815],[3.427681,44.333307],[3.427923,44.33308],[3.428689,44.332706],[3.428988,44.332185],[3.429231,44.330995],[3.429549,44.330314],[3.429623,44.329312],[3.429343,44.32839],[3.429212,44.326893],[3.42938,44.32537],[3.429156,44.324501],[3.429418,44.323953],[3.430034,44.323031],[3.430408,44.321908],[3.43037,44.321173],[3.430632,44.319917],[3.431603,44.31846],[3.433397,44.314758],[3.433285,44.314264],[3.432948,44.313756],[3.432836,44.3127],[3.433135,44.312419],[3.433079,44.311604],[3.433733,44.310882],[3.434013,44.310107],[3.434424,44.309091],[3.434032,44.308035],[3.433733,44.307714],[3.433546,44.306952],[3.434088,44.305843],[3.435003,44.304934],[3.434368,44.304787],[3.434536,44.304038],[3.434611,44.303383],[3.434947,44.303009],[3.434854,44.302113],[3.435115,44.301231],[3.435358,44.30087],[3.435564,44.300161],[3.435676,44.299586],[3.437002,44.29619],[3.437544,44.295776],[3.438496,44.294679],[3.439075,44.293583],[3.440215,44.292259],[3.440981,44.291176],[3.440962,44.290855],[3.440869,44.290708],[3.440943,44.29028],[3.441149,44.289746],[3.441168,44.289492],[3.442681,44.286256],[3.443241,44.285453],[3.443801,44.285012],[3.444156,44.284477],[3.445165,44.284169],[3.445669,44.283929],[3.446043,44.283608],[3.444866,44.282645],[3.445445,44.281789],[3.446174,44.281334],[3.447799,44.280532],[3.448677,44.27989],[3.448677,44.279609],[3.44905,44.279181],[3.449237,44.278084],[3.450526,44.276092],[3.4526,44.275062],[3.453048,44.27442],[3.453104,44.274152],[3.453739,44.273604],[3.454262,44.272975],[3.454262,44.272708],[3.454785,44.271798],[3.45514,44.270702],[3.456597,44.268387],[3.457755,44.267036],[3.45826,44.266863],[3.459194,44.266234],[3.460725,44.264174],[3.461043,44.264187],[3.46123,44.263692],[3.461136,44.263371],[3.461342,44.26317],[3.461155,44.262555],[3.461136,44.261458],[3.46222,44.259585],[3.461884,44.257338],[3.462145,44.256923],[3.461996,44.255839],[3.461491,44.255103],[3.461529,44.254193],[3.462239,44.253043],[3.462986,44.25228],[3.462967,44.251932],[3.463453,44.251036],[3.463808,44.250019],[3.464536,44.249055],[3.465321,44.248333],[3.4659,44.247477],[3.467058,44.246807],[3.467674,44.246794],[3.46816,44.24654],[3.468534,44.24654],[3.469225,44.246152],[3.470327,44.244907],[3.471168,44.243837],[3.471504,44.243676],[3.472251,44.242806],[3.472307,44.242097],[3.472755,44.24096],[3.472811,44.239835],[3.472643,44.239046],[3.472998,44.238216],[3.473148,44.23756],[3.47311,44.236878],[3.473727,44.23558],[3.474231,44.234147],[3.47509,44.23309],[3.475875,44.232769],[3.476753,44.231819],[3.476921,44.230908],[3.477257,44.229891],[3.477145,44.229383],[3.476772,44.228847],[3.476865,44.228205],[3.477369,44.227227],[3.478266,44.226705],[3.478453,44.22621],[3.478826,44.225461],[3.47877,44.224443],[3.478864,44.223359],[3.47963,44.22273],[3.48019,44.221686],[3.481031,44.221204],[3.481853,44.220414],[3.482805,44.220039],[3.483907,44.219959],[3.484449,44.219758],[3.484991,44.219798],[3.485645,44.220092],[3.486056,44.220414],[3.486616,44.220454],[3.487064,44.220039],[3.487344,44.219945],[3.487419,44.219129],[3.488222,44.218432],[3.488652,44.218272],[3.489362,44.218392],[3.490912,44.218178],[3.492687,44.21787],[3.493658,44.217335],[3.494275,44.21712],[3.494611,44.216853],[3.49547,44.216598],[3.496442,44.216558],[3.498758,44.215942],[3.500514,44.215915],[3.501298,44.2155],[3.501971,44.215018],[3.50283,44.214603],[3.503447,44.214001],[3.504362,44.213626],[3.503802,44.213385],[3.505072,44.213372],[3.50552,44.212568],[3.506267,44.21206],[3.506977,44.211363],[3.507706,44.210172],[3.509181,44.208806],[3.510209,44.207387],[3.510489,44.206355],[3.511143,44.205873],[3.512749,44.205324],[3.513627,44.205137],[3.514169,44.204789],[3.51458,44.2044],[3.515066,44.204119],[3.515308,44.202927],[3.516074,44.201294],[3.516037,44.20045],[3.516485,44.198937],[3.517251,44.197222],[3.518746,44.19674],[3.519661,44.19591],[3.52009,44.194812],[3.520221,44.193446],[3.520726,44.19224],[3.521174,44.191745],[3.521193,44.191437],[3.521604,44.190847],[3.522799,44.189561],[3.523472,44.187994],[3.524424,44.185248],[3.524817,44.184686],[3.525975,44.183976],[3.528048,44.182944],[3.529132,44.182435],[3.530738,44.18135],[3.531317,44.181029],[3.532382,44.180037],[3.533316,44.179073],[3.533671,44.178577],[3.534418,44.178041],[3.535352,44.177773],[3.536193,44.1778],[3.537836,44.17705],[3.538939,44.176353],[3.539742,44.176152],[3.540414,44.176072],[3.540844,44.175697],[3.541124,44.175308],[3.541012,44.175],[3.541236,44.174612],[3.54118,44.174196],[3.542544,44.172307],[3.544748,44.169922],[3.545327,44.169145],[3.545589,44.168355],[3.545981,44.167979],[3.546784,44.167644],[3.547195,44.167095],[3.547363,44.166251],[3.547643,44.166023],[3.54798,44.165929],[3.548577,44.165366],[3.54953,44.164522],[3.54953,44.163102],[3.550203,44.162539],[3.550483,44.161494],[3.551435,44.160784],[3.552033,44.159577],[3.552239,44.158559],[3.552556,44.158211],[3.55265,44.157822],[3.552295,44.157675],[3.552108,44.157447],[3.551211,44.157085],[3.551267,44.156803],[3.552482,44.156281],[3.553303,44.155785],[3.554032,44.155195],[3.55435,44.154726],[3.554966,44.154498],[3.556367,44.154163],[3.557058,44.153681],[3.557955,44.151925],[3.558403,44.151161],[3.559076,44.149392],[3.55986,44.148226],[3.56029,44.147864],[3.560757,44.147609],[3.561747,44.146296],[3.56255,44.145599],[3.563297,44.144459],[3.563951,44.143682],[3.564474,44.143373],[3.56468,44.14273],[3.565427,44.14218],[3.565856,44.141577],[3.566118,44.140719],[3.566379,44.140491],[3.566454,44.139901],[3.566379,44.139097],[3.565894,44.138078],[3.565558,44.136992],[3.565259,44.136349],[3.565147,44.135906],[3.564325,44.134606],[3.564698,44.133936],[3.56481,44.132555],[3.565558,44.131791],[3.56651,44.131093],[3.567463,44.130798],[3.56892,44.130463],[3.569536,44.129726],[3.570153,44.128519],[3.570414,44.127648],[3.570377,44.126977],[3.570022,44.126173],[3.57019,44.125462],[3.570284,44.123169],[3.569929,44.122351],[3.567893,44.122673],[3.566249,44.123316],[3.564026,44.123451],[3.5627,44.122847],[3.561803,44.121761],[3.561149,44.120742],[3.561168,44.120407],[3.561242,44.119763],[3.561093,44.119575],[3.560663,44.119454],[3.56014,44.119951],[3.559954,44.119723],[3.559673,44.119146],[3.559337,44.119012],[3.55902,44.118744],[3.557955,44.118569],[3.55689,44.117979],[3.556572,44.117912],[3.556292,44.117711],[3.555788,44.117537],[3.555545,44.117282],[3.554462,44.117054],[3.553546,44.116665],[3.552949,44.116383],[3.551865,44.116598],[3.550016,44.116477],[3.549717,44.116303],[3.549399,44.116021],[3.548671,44.115632],[3.547606,44.114828],[3.546112,44.114452],[3.545645,44.113607],[3.54529,44.113232],[3.545551,44.112709],[3.545533,44.111837],[3.545252,44.110684],[3.543833,44.109758],[3.543478,44.109235],[3.54344,44.1089],[3.543216,44.108578],[3.543067,44.108028],[3.542824,44.107786],[3.542208,44.106351],[3.542002,44.105211],[3.541778,44.104809],[3.541087,44.103347],[3.541068,44.102998],[3.541105,44.10222],[3.541068,44.101643],[3.541423,44.100785],[3.541554,44.099872],[3.541049,44.098719],[3.540153,44.097525],[3.539779,44.096867],[3.539667,44.096103],[3.539873,44.095781],[3.541629,44.094815],[3.542152,44.094359],[3.542749,44.093768],[3.544169,44.093634],[3.544785,44.093487],[3.545066,44.093165],[3.545252,44.092655],[3.545757,44.092682],[3.547438,44.092252]]],"type":"MultiLineString"},"properties":{"geo_point":{"lon":3.343272895384102,"lat":44.37179545039765},"name":"GR60 Du signal de Mailhebiau (Lozère-Aveyron) à l'Espérou (Gard) (2019)","code_gr":"GR60"}}]}