{"type":"FeatureCollection","features":[{"type":"Feature","geometry":{"coordinates":[[[3.98724,44.055614],[3.98638,44.057722],[3.985671,44.058742],[3.98483,44.059387],[3.983915,44.059736],[3.983298,44.059789],[3.981916,44.060071],[3.981094,44.059924],[3.980832,44.060018],[3.980272,44.059937],[3.979973,44.059991],[3.979357,44.060407],[3.978927,44.061024],[3.978647,44.061816],[3.977769,44.062581],[3.977096,44.064112],[3.976723,44.0643],[3.976368,44.064622],[3.97592,44.065333],[3.972837,44.067132],[3.971773,44.068514],[3.970801,44.069588],[3.970017,44.070782],[3.969531,44.071104],[3.969027,44.071051],[3.96884,44.07144],[3.968746,44.072111],[3.968335,44.07305],[3.967868,44.073359],[3.966467,44.073534],[3.964637,44.07399],[3.963852,44.074688],[3.962433,44.074795],[3.962114,44.075263],[3.961342,44.074988],[3.960854,44.074462],[3.960431,44.074322],[3.959878,44.07434],[3.959138,44.074012],[3.958756,44.074036],[3.958295,44.073939],[3.956849,44.074001],[3.956622,44.074152],[3.956971,44.074227],[3.957197,44.074452],[3.956814,44.074978],[3.956221,44.075279],[3.95582,44.07608],[3.955977,44.076994],[3.95582,44.077307],[3.95521,44.077658],[3.955106,44.078083],[3.954827,44.078309],[3.9546,44.078296],[3.953781,44.078709],[3.951637,44.078371],[3.951149,44.078759],[3.951149,44.079273],[3.950905,44.079836],[3.951149,44.0805],[3.951132,44.080825],[3.950661,44.081314],[3.94986,44.081138],[3.949738,44.081677],[3.949389,44.08229],[3.949598,44.082828],[3.948918,44.084206],[3.94864,44.084469],[3.948483,44.084719],[3.948117,44.084857],[3.94789,44.085207],[3.947611,44.085495],[3.947367,44.086146],[3.947298,44.086835],[3.947001,44.08711],[3.946949,44.087285],[3.947158,44.087523],[3.947036,44.087811],[3.947176,44.087986],[3.946949,44.088324],[3.946757,44.088199],[3.946391,44.088425],[3.945781,44.088575],[3.94559,44.088913],[3.945224,44.089301],[3.944579,44.089451],[3.944335,44.089902],[3.943986,44.090315],[3.943254,44.090941],[3.942539,44.091179],[3.941546,44.091404],[3.941546,44.091742],[3.94179,44.092042],[3.9424,44.091967],[3.942975,44.091642],[3.943603,44.091642],[3.944056,44.091592],[3.945468,44.091679],[3.945171,44.09223],[3.944648,44.092831],[3.944247,44.093807],[3.94416,44.094346],[3.944509,44.095597],[3.944526,44.096086],[3.944596,44.096724],[3.944927,44.096824],[3.94599,44.096699],[3.946217,44.096887],[3.946304,44.0976],[3.946165,44.098188],[3.946862,44.098026],[3.947011,44.097877],[3.947109,44.097293],[3.947208,44.096514],[3.94775,44.095629],[3.948564,44.09485],[3.949808,44.094188],[3.950716,44.093924],[3.951924,44.093965],[3.952959,44.094188],[3.95412,44.094312],[3.955845,44.094188],[3.956903,44.093684],[3.95673,44.093932],[3.956282,44.094238],[3.957156,44.093833],[3.95719,44.094279],[3.956684,44.094403],[3.956811,44.094527],[3.956914,44.094494],[3.957064,44.09456],[3.956796,44.094821],[3.956866,44.095435],[3.957494,44.095647],[3.957145,44.096098],[3.956988,44.096436],[3.955855,44.097575],[3.955576,44.098001],[3.954775,44.098001],[3.954339,44.098201],[3.953467,44.098389],[3.953119,44.098576],[3.952735,44.098977],[3.951951,44.098777],[3.950452,44.099052],[3.950156,44.099002],[3.949633,44.099133],[3.9485,44.10051],[3.948221,44.101217],[3.948274,44.101668],[3.948073,44.10168],[3.948134,44.102463],[3.947844,44.102502],[3.948068,44.103347],[3.948647,44.104514],[3.948703,44.105198],[3.948535,44.106298],[3.947769,44.107733],[3.946499,44.109208],[3.945565,44.109517],[3.944911,44.110107],[3.944294,44.110335],[3.94379,44.110764],[3.943734,44.111046],[3.94336,44.111193],[3.942744,44.111193],[3.942296,44.111488],[3.941436,44.111649],[3.940895,44.111515],[3.940876,44.111314],[3.939961,44.111448],[3.939456,44.111757],[3.938149,44.111797],[3.9377,44.112467],[3.937177,44.113111],[3.936636,44.113326],[3.936169,44.113983],[3.935664,44.114452],[3.933964,44.115431],[3.933161,44.115378],[3.932918,44.115458],[3.932974,44.115941],[3.932395,44.116223],[3.931106,44.11633],[3.929164,44.11629],[3.928659,44.116129],[3.928248,44.116169],[3.9278,44.116088],[3.926791,44.116155],[3.926249,44.115807],[3.925484,44.116263],[3.924718,44.116571],[3.923317,44.116316],[3.922756,44.116786],[3.922271,44.117134],[3.921449,44.117416],[3.92001,44.117376],[3.919655,44.117443],[3.919207,44.117389],[3.918703,44.117564],[3.917264,44.117832],[3.915901,44.117081],[3.914574,44.116679],[3.913491,44.116504],[3.91237,44.116209],[3.911604,44.11582],[3.911343,44.115887],[3.910278,44.115887],[3.909512,44.116115],[3.908354,44.11578],[3.907999,44.115512],[3.90742,44.115404],[3.906393,44.115002],[3.90587,44.115284],[3.904562,44.114948],[3.903665,44.115391],[3.902937,44.11527],[3.902227,44.115002],[3.901517,44.114466],[3.901667,44.113916],[3.901125,44.113607],[3.900714,44.113178],[3.90021,44.113393],[3.899649,44.11354],[3.899593,44.113138],[3.898809,44.112709],[3.89836,44.11177],[3.897837,44.111716],[3.897706,44.111421],[3.8978,44.111073],[3.897389,44.11059],[3.897464,44.111113],[3.896903,44.110442],[3.897183,44.110053],[3.8961,44.10949],[3.894942,44.108967],[3.893896,44.108846],[3.893055,44.108605],[3.892663,44.108739],[3.892233,44.108739],[3.891916,44.108578],[3.891579,44.108511],[3.890272,44.108082],[3.888852,44.107921],[3.887825,44.107719],[3.887843,44.107478],[3.887582,44.107196],[3.886162,44.106633],[3.885583,44.106257],[3.884686,44.105225],[3.883229,44.102381],[3.880054,44.103762],[3.87983,44.103186],[3.880259,44.102233],[3.879755,44.101428],[3.879232,44.101281],[3.878317,44.100905],[3.877924,44.100208],[3.877532,44.099939],[3.877495,44.099671],[3.877719,44.099188],[3.877476,44.098383],[3.877065,44.097632],[3.876841,44.097377],[3.876374,44.097176],[3.875832,44.096894],[3.875459,44.096492],[3.875066,44.096411],[3.874767,44.096639],[3.874749,44.097055],[3.87445,44.097283],[3.873516,44.096747],[3.87232,44.096478],[3.872376,44.09621],[3.871498,44.096264],[3.871106,44.096505],[3.871162,44.096854],[3.870975,44.096934],[3.870508,44.096841],[3.870228,44.096492],[3.870508,44.096478],[3.869911,44.095834],[3.869948,44.095392],[3.86963,44.095137],[3.869369,44.094721],[3.868902,44.094533],[3.868603,44.094251],[3.86836,44.094198],[3.867856,44.094493],[3.867221,44.094573],[3.867351,44.095123],[3.866791,44.095097],[3.866343,44.09464],[3.866698,44.09464],[3.866455,44.094104],[3.865764,44.093903],[3.865969,44.093527],[3.865932,44.093272],[3.865614,44.093057],[3.865801,44.092226],[3.865614,44.091743],[3.865708,44.090669],[3.865409,44.09032],[3.865371,44.090012],[3.865129,44.089743],[3.865016,44.089529],[3.864381,44.089032],[3.863877,44.088925],[3.863447,44.088684],[3.863074,44.08812],[3.862812,44.087878],[3.862401,44.087704],[3.862196,44.087382],[3.861654,44.08753],[3.86128,44.087181],[3.860683,44.087047],[3.860216,44.086725],[3.859898,44.086805],[3.858777,44.086537],[3.858385,44.086121],[3.857918,44.086174],[3.857731,44.086362],[3.857059,44.086403],[3.856667,44.086577],[3.856162,44.086537],[3.855957,44.086148],[3.854967,44.085678],[3.853921,44.085155],[3.852931,44.085155],[3.85265,44.085423],[3.852183,44.085557],[3.851847,44.085732],[3.850857,44.086027],[3.849998,44.085852],[3.849549,44.085866],[3.849568,44.086242],[3.848802,44.086604],[3.849101,44.086805],[3.849195,44.087342],[3.849082,44.087798],[3.848709,44.087878],[3.848653,44.08808],[3.848933,44.088509],[3.848709,44.089475],[3.848018,44.089314],[3.847327,44.089354],[3.84671,44.089609],[3.846411,44.089596],[3.845869,44.089341],[3.845122,44.089167],[3.842713,44.088415],[3.841816,44.088013],[3.841554,44.087637],[3.840807,44.088335],[3.840434,44.087771],[3.840191,44.087114],[3.839425,44.08706],[3.83935,44.086751],[3.839481,44.086376],[3.839257,44.086107],[3.839388,44.085785],[3.839331,44.085047],[3.83879,44.084994],[3.838341,44.084739],[3.837818,44.084256],[3.837837,44.083397],[3.838155,44.082994],[3.838043,44.082565],[3.838043,44.082149],[3.837165,44.082243],[3.836324,44.082149],[3.835427,44.081076],[3.834713,44.080978],[3.834133,44.080713],[3.833394,44.080562],[3.832839,44.080341],[3.832075,44.080164],[3.831829,44.079854],[3.831582,44.079659],[3.829968,44.079819],[3.829758,44.079996],[3.828957,44.080332],[3.828624,44.080359],[3.828538,44.080474],[3.828279,44.080536],[3.828082,44.080492],[3.828033,44.080421],[3.827343,44.080306],[3.827183,44.080314],[3.826801,44.080199],[3.826345,44.080164],[3.826086,44.080244],[3.825753,44.080164],[3.825556,44.080075],[3.825309,44.080182],[3.825026,44.080164],[3.824792,44.079803],[3.824132,44.080002],[3.823775,44.080173],[3.823326,44.080154],[3.82285,44.080192],[3.822348,44.080068],[3.822454,44.0806],[3.821992,44.080628],[3.822375,44.080989],[3.821648,44.080884],[3.821014,44.080068],[3.820433,44.079708],[3.819958,44.079774],[3.81968,44.079594],[3.819746,44.079328],[3.820063,44.07911],[3.820156,44.078939],[3.819812,44.079044],[3.819416,44.079338],[3.819297,44.079262],[3.819463,44.079033],[3.818983,44.078573],[3.818743,44.078069],[3.817161,44.077638],[3.81612,44.077206],[3.81678,44.07817],[3.817341,44.078343],[3.817441,44.078573],[3.817281,44.078774],[3.81666,44.078702],[3.81596,44.078328],[3.815239,44.078113],[3.814338,44.077638],[3.813337,44.077336],[3.813197,44.077134],[3.812776,44.076933],[3.812756,44.076703],[3.812036,44.07653],[3.811815,44.076315],[3.811415,44.076214],[3.810995,44.075624],[3.810114,44.075653],[3.808872,44.074833],[3.808031,44.07479],[3.80641,44.075078],[3.80627,44.074905],[3.805749,44.075178],[3.804948,44.075092],[3.801745,44.075538],[3.800554,44.07558],[3.800105,44.0754],[3.799867,44.075362],[3.799629,44.0752],[3.799352,44.07521],[3.798467,44.074887],[3.798401,44.074764],[3.798137,44.074792],[3.798044,44.074641],[3.797767,44.07466],[3.797501,44.074589],[3.7967,44.074689],[3.795859,44.075035],[3.794938,44.075941],[3.791935,44.076415],[3.790433,44.077192],[3.788892,44.077206],[3.788031,44.077451],[3.78759,44.077336],[3.786509,44.077336],[3.785828,44.077134],[3.785488,44.077192],[3.785148,44.077767],[3.784307,44.078745],[3.783366,44.07945],[3.782445,44.079997],[3.782025,44.080486],[3.781724,44.080745],[3.781524,44.081104],[3.781003,44.081118],[3.780062,44.08142],[3.779582,44.081406],[3.779262,44.081464],[3.778421,44.081334],[3.7776,44.081334],[3.776919,44.081047],[3.776419,44.080371],[3.775898,44.079896],[3.775478,44.079421],[3.774757,44.079493],[3.774096,44.07899],[3.773816,44.078645],[3.773195,44.078213],[3.772094,44.076674],[3.771253,44.076171],[3.770392,44.075365],[3.770352,44.074474],[3.771313,44.074229],[3.771394,44.073567],[3.772234,44.072661],[3.771173,44.073337],[3.770833,44.073869],[3.769972,44.074056],[3.769612,44.074287],[3.769371,44.074718],[3.769171,44.075322],[3.76835,44.07548],[3.767349,44.075524],[3.766008,44.075265],[3.764767,44.07584],[3.764687,44.076142],[3.764206,44.076487],[3.763305,44.076358],[3.762905,44.076516],[3.762444,44.07653],[3.761643,44.076861],[3.760262,44.07653],[3.759381,44.076588],[3.75794,44.077235],[3.757319,44.07735],[3.755217,44.077235],[3.754496,44.077437],[3.752234,44.077724],[3.751173,44.078213],[3.750732,44.078256],[3.74865,44.078026],[3.747689,44.078731],[3.747409,44.078774],[3.747108,44.078645],[3.746868,44.07863],[3.746608,44.078573],[3.746127,44.078573],[3.745166,44.078242],[3.744366,44.077753],[3.744386,44.077451]]],"type":"MultiLineString"},"properties":{"geo_point":{"lon":3.8801621853221446,"lat":44.08910237558779},"name":"GR61 De Anduze au Col de l'Asclier (Gard-Cévennes) (2019)","code_gr":"GR61"}}]}