{"type":"FeatureCollection","features":[{"type":"Feature","geometry":{"coordinates":[[[2.815214,44.514526],[2.816008,44.514248],[2.816566,44.514088],[2.81662,44.513584],[2.816159,44.51223],[2.816116,44.511536],[2.816395,44.510784],[2.81707,44.510162],[2.818058,44.509735],[2.818422,44.508816],[2.818154,44.508129],[2.818787,44.508129],[2.818465,44.507664],[2.81898,44.507545],[2.81898,44.507339],[2.818208,44.506851],[2.819227,44.506752],[2.818615,44.506275],[2.819088,44.506115],[2.819785,44.505482],[2.820042,44.504974],[2.820504,44.504539],[2.821072,44.504257],[2.821158,44.503853],[2.821727,44.503597],[2.821877,44.503269],[2.821716,44.502789],[2.821695,44.501755],[2.821523,44.500965],[2.821598,44.500317],[2.822349,44.498955],[2.822424,44.498554],[2.822596,44.498119],[2.822596,44.497601],[2.822714,44.49712],[2.822542,44.496574],[2.822692,44.49506],[2.822156,44.494637],[2.821748,44.493896],[2.821298,44.493046],[2.821802,44.49329],[2.823379,44.493656],[2.823701,44.493549],[2.823744,44.493],[2.823529,44.492702],[2.822875,44.492527],[2.822188,44.492481],[2.821866,44.492119],[2.821544,44.491966],[2.819527,44.490566],[2.819002,44.490726],[2.818283,44.490505],[2.817221,44.490513],[2.816309,44.490276],[2.815729,44.489655],[2.815654,44.489304],[2.81426,44.489197],[2.81279,44.489037],[2.811642,44.489479],[2.810344,44.489685],[2.808938,44.489563],[2.808133,44.489334],[2.807425,44.489136],[2.806857,44.489052],[2.806385,44.488892],[2.805805,44.489044],[2.804968,44.488621],[2.803874,44.48864],[2.802984,44.488171],[2.802361,44.487282],[2.801664,44.487007],[2.801288,44.487053],[2.800441,44.486748],[2.7997,44.487053],[2.799218,44.487022],[2.798671,44.486855],[2.798434,44.486172],[2.797801,44.485233],[2.797308,44.484848],[2.796042,44.484505],[2.795784,44.484039],[2.794926,44.483631],[2.794926,44.48341],[2.795141,44.483196],[2.794883,44.482876],[2.794808,44.482559],[2.79351,44.481518],[2.793113,44.481449],[2.793145,44.481083],[2.792737,44.480991],[2.792233,44.480984],[2.791804,44.480808],[2.791536,44.480778],[2.790763,44.480438],[2.790141,44.480438],[2.790753,44.479759],[2.791665,44.4795],[2.79115,44.479076],[2.790087,44.477623],[2.78954,44.477478],[2.789379,44.476818],[2.789594,44.476315],[2.789154,44.476238],[2.788607,44.476513],[2.788274,44.476467],[2.787888,44.476276],[2.785817,44.475662],[2.784498,44.474613],[2.783371,44.474072],[2.782942,44.474323],[2.782255,44.474049],[2.782223,44.473305],[2.78085,44.473335],[2.779573,44.472885],[2.779799,44.472034],[2.780582,44.471268],[2.779723,44.470665],[2.77908,44.469753],[2.779058,44.468933],[2.779284,44.46843],[2.779766,44.467609],[2.780807,44.466068],[2.781258,44.465534],[2.781537,44.465443],[2.781633,44.465096],[2.781612,44.463833],[2.781494,44.463428],[2.781547,44.462914],[2.781107,44.462593],[2.780786,44.462051],[2.780657,44.461361],[2.779756,44.459476],[2.779444,44.458542],[2.780067,44.458023],[2.780818,44.457195],[2.78247,44.456215],[2.783307,44.455502],[2.783403,44.455143],[2.784133,44.454823],[2.784283,44.454453],[2.785066,44.454033],[2.787234,44.453671],[2.787673,44.452862],[2.788446,44.452332],[2.78821,44.452271],[2.786976,44.452446],[2.786332,44.452679],[2.784991,44.452785],[2.784809,44.452953],[2.784476,44.452984],[2.783929,44.452705],[2.781698,44.452553],[2.779466,44.453266],[2.778533,44.453442],[2.778661,44.452728],[2.778533,44.451897],[2.778318,44.451782],[2.7779,44.451763],[2.777052,44.450127],[2.776097,44.450264],[2.774488,44.449703],[2.774037,44.449299],[2.773318,44.449223],[2.772653,44.448738],[2.772213,44.449177],[2.771848,44.449238],[2.771451,44.449383],[2.770636,44.449215],[2.770207,44.448948],[2.76981,44.448662],[2.769027,44.448669],[2.768061,44.448174],[2.767707,44.448166],[2.767364,44.447922],[2.767149,44.447598],[2.766227,44.447575],[2.765272,44.447697],[2.764081,44.447262],[2.763115,44.447269],[2.762686,44.447086],[2.762525,44.446571],[2.763061,44.445412],[2.763469,44.444897],[2.763759,44.444801],[2.763877,44.444859],[2.764617,44.444649],[2.764381,44.444214],[2.764617,44.443932],[2.765186,44.443752],[2.764907,44.442989],[2.764134,44.442909],[2.763662,44.442741],[2.762976,44.442726],[2.762847,44.442192],[2.762589,44.442039],[2.761613,44.44223],[2.76068,44.442673],[2.760208,44.442757],[2.76024,44.442238],[2.759489,44.441959],[2.758716,44.441509],[2.756807,44.440826],[2.756463,44.440376],[2.756603,44.440056],[2.757107,44.439724],[2.75715,44.439449],[2.756517,44.439075],[2.755777,44.438367],[2.755369,44.437587],[2.754414,44.436333],[2.753942,44.435474],[2.753491,44.435089],[2.751689,44.433395],[2.75052,44.432362],[2.748342,44.431427],[2.747709,44.431473],[2.746958,44.431389],[2.74655,44.43148],[2.744318,44.433311],[2.74229,44.434345],[2.741261,44.435196],[2.739941,44.435841],[2.740027,44.436237],[2.739651,44.436516],[2.738031,44.437157],[2.736593,44.438046],[2.735778,44.438644],[2.73537,44.439091],[2.733836,44.439754],[2.733622,44.439754],[2.732484,44.439533],[2.73213,44.439404],[2.731926,44.439419],[2.7308,44.438576],[2.729663,44.43898],[2.728246,44.439869],[2.726852,44.440613],[2.726369,44.440872],[2.726176,44.441326],[2.72683,44.442368],[2.724985,44.442505],[2.724481,44.442719],[2.723386,44.443462],[2.722249,44.443142],[2.719781,44.44413],[2.717839,44.444466],[2.716509,44.444859],[2.712454,44.442657],[2.711864,44.442162],[2.71122,44.441784],[2.711338,44.441395],[2.71122,44.441017],[2.711273,44.440804],[2.710716,44.440796],[2.710243,44.440735],[2.709836,44.440765],[2.709192,44.439754],[2.709171,44.438332],[2.709074,44.437771],[2.7096,44.437244],[2.710125,44.437111],[2.710136,44.43644],[2.710319,44.436047],[2.709868,44.435497],[2.709675,44.434868],[2.708366,44.434162],[2.707261,44.433586],[2.706628,44.432907],[2.706424,44.432339],[2.706231,44.431511],[2.705802,44.43148],[2.705448,44.430477],[2.705373,44.429466],[2.70504,44.42926],[2.703785,44.427612],[2.703044,44.425106],[2.702905,44.424309],[2.702401,44.422871],[2.702004,44.422462],[2.701929,44.421413],[2.701414,44.420006],[2.701242,44.418823],[2.700673,44.417553],[2.700298,44.417267],[2.699847,44.416416],[2.699322,44.415695],[2.697197,44.4133],[2.696457,44.41217],[2.696296,44.4109],[2.69657,44.41036],[2.697058,44.410034],[2.697562,44.409718],[2.697948,44.409595],[2.699182,44.408806],[2.700802,44.4081],[2.70313,44.406532],[2.701617,44.405834],[2.699493,44.404526],[2.699364,44.404285],[2.699327,44.404274],[2.699327,44.404274],[2.698791,44.403998],[2.69804,44.403876],[2.697718,44.403707],[2.697439,44.403462],[2.697353,44.403155],[2.696666,44.402665],[2.695551,44.402097],[2.694499,44.401867],[2.693169,44.401898],[2.692182,44.401775],[2.690658,44.401837],[2.688276,44.402404],[2.687204,44.402312],[2.686629,44.401688],[2.685739,44.40168],[2.684784,44.401886],[2.683336,44.402069],[2.682134,44.402199],[2.681533,44.402592],[2.68031,44.402889],[2.679055,44.402905],[2.678089,44.403072],[2.677284,44.403206],[2.676845,44.403168],[2.673336,44.404118],[2.671287,44.404713],[2.66942,44.405365],[2.668616,44.405449],[2.666599,44.405872],[2.666202,44.405857],[2.663959,44.406284],[2.661245,44.406555],[2.660301,44.406502],[2.659507,44.406429],[2.659045,44.406487],[2.658842,44.406715],[2.658488,44.406693],[2.656589,44.406406],[2.65573,44.406025],[2.655344,44.405586],[2.655247,44.405052],[2.65484,44.404446],[2.653906,44.403877],[2.65278,44.403351],[2.652372,44.402828],[2.65204,44.402069],[2.651256,44.401756],[2.650634,44.401703],[2.650087,44.401848],[2.649304,44.401642],[2.64866,44.401402],[2.648478,44.401112],[2.64792,44.400822],[2.64733,44.400261],[2.646675,44.400009],[2.645946,44.399799],[2.645431,44.399441],[2.645216,44.398483],[2.644572,44.397739],[2.643832,44.396336],[2.64409,44.396063],[2.644476,44.396034],[2.644862,44.39576],[2.644776,44.395417],[2.644991,44.394707],[2.644369,44.39395],[2.644379,44.393096],[2.644948,44.393009],[2.645538,44.393063],[2.645656,44.392479],[2.646364,44.391331],[2.649475,44.390739],[2.650516,44.390388],[2.651364,44.389805],[2.651331,44.389458],[2.651095,44.389084],[2.651063,44.388531],[2.651653,44.388065],[2.652737,44.387436],[2.654743,44.386669],[2.655505,44.386284],[2.656803,44.385418],[2.657275,44.38525],[2.658284,44.384521],[2.658434,44.384148],[2.659174,44.383854],[2.659796,44.383762],[2.661277,44.382774],[2.6625,44.38311],[2.663605,44.383381],[2.663906,44.382565],[2.662017,44.381779],[2.660547,44.381401],[2.658638,44.380482],[2.65705,44.380135],[2.656041,44.379601],[2.655537,44.378857],[2.655205,44.378471],[2.654883,44.377636],[2.655451,44.377365],[2.655784,44.376907],[2.656481,44.376511],[2.656943,44.375671],[2.659904,44.374485],[2.660011,44.373779],[2.65985,44.373264],[2.658767,44.371807],[2.657501,44.37009],[2.656599,44.369453],[2.65587,44.369122],[2.657093,44.368923],[2.658863,44.369068],[2.659292,44.368649],[2.661459,44.367489],[2.662876,44.366199],[2.66338,44.365887],[2.663906,44.365765],[2.665762,44.366077],[2.665837,44.366318],[2.665408,44.368042],[2.66633,44.36834],[2.667146,44.367],[2.668128,44.364901],[2.669281,44.362926],[2.669871,44.362152],[2.670021,44.361286],[2.669935,44.360439],[2.669785,44.359886],[2.669742,44.359398],[2.669259,44.358822],[2.668927,44.358776],[2.668422,44.358162],[2.667779,44.357555],[2.667017,44.35619],[2.665966,44.355225],[2.665483,44.354958],[2.665451,44.354343],[2.666395,44.354374],[2.668701,44.354275],[2.666588,44.352863],[2.665579,44.352646],[2.664624,44.352783],[2.658445,44.354504],[2.657683,44.353897],[2.656696,44.354328],[2.656116,44.354214],[2.655945,44.354111],[2.655376,44.353989],[2.655076,44.353577],[2.654883,44.35313],[2.65366,44.352371],[2.653016,44.352264],[2.65058,44.351635],[2.650044,44.351604],[2.649336,44.351391],[2.649336,44.351391],[2.648945,44.350841],[2.648601,44.350687],[2.648258,44.348094],[2.647979,44.348278],[2.647593,44.348171],[2.648048,44.347782],[2.648585,44.347424],[2.649078,44.346748],[2.648853,44.346012],[2.648456,44.345467],[2.649475,44.344086],[2.64969,44.343048],[2.650473,44.342243],[2.65072,44.341705],[2.650441,44.341007],[2.65057,44.340492],[2.651331,44.339352],[2.651407,44.338875],[2.652007,44.338017],[2.651943,44.337585],[2.651589,44.337055],[2.650162,44.334515],[2.649797,44.333996],[2.649754,44.333717],[2.649347,44.333111],[2.648574,44.332359],[2.648413,44.33189],[2.648456,44.330486],[2.647952,44.328201],[2.64778,44.326565],[2.648016,44.326073],[2.648907,44.324978],[2.651181,44.324024],[2.651664,44.323742],[2.6516,44.323601],[2.651868,44.323425],[2.651803,44.323277],[2.65146,44.322943],[2.65352,44.32156],[2.654067,44.320953],[2.65469,44.320564],[2.657179,44.320057],[2.658563,44.319466],[2.659593,44.318836],[2.662929,44.318138],[2.664099,44.318123],[2.664474,44.31773],[2.666008,44.316517],[2.666363,44.316048],[2.666845,44.315819],[2.666448,44.315228],[2.665987,44.314613],[2.665386,44.314621],[2.665075,44.315228],[2.664571,44.315357],[2.663713,44.314583],[2.663627,44.314144],[2.663273,44.313831],[2.662843,44.313801],[2.662253,44.313408],[2.660612,44.312908],[2.660483,44.312634],[2.659743,44.311928],[2.657983,44.311905],[2.657297,44.311565],[2.656717,44.311443],[2.655666,44.31036],[2.655398,44.309662],[2.655323,44.30888],[2.655087,44.308708],[2.655258,44.30801]]],"type":"MultiLineString"},"properties":{"geo_point":{"lon":2.715513472844398,"lat":44.41445571838141},"name":"GR620 De St Côme-d'Olt à Inières (Aveyron) (2019)","code_gr":"GR620"}}]}