{"type":"FeatureCollection","features":[{"type":"Feature","geometry":{"coordinates":[[[4.79127,43.95455],[4.79127,43.95455],[4.79127,43.95455],[4.79094,43.95384],[4.7905,43.95261],[4.7905,43.95229],[4.7903,43.95203],[4.7902,43.95165],[4.78948,43.95062],[4.78727,43.95009],[4.78539,43.95025],[4.78406,43.94978],[4.78367,43.94979],[4.78344,43.95008],[4.78146,43.94971],[4.78006,43.94921],[4.77868,43.94851],[4.77703,43.94848],[4.7763,43.94877],[4.77379,43.94902],[4.7737,43.94938],[4.77312,43.94947],[4.77256,43.94968],[4.77176,43.94994],[4.77119,43.95002],[4.76958,43.95086],[4.76934,43.95113],[4.76917,43.95142],[4.76852,43.95188],[4.76826,43.95228],[4.76778,43.95227],[4.76769,43.95243],[4.76645,43.95239],[4.76602,43.9526],[4.76446,43.95372],[4.76399,43.95335],[4.76374,43.953],[4.7621,43.95245],[4.76168,43.9525],[4.76132,43.9524],[4.75987,43.95245],[4.75896,43.95277],[4.75775,43.95369],[4.75672,43.95523],[4.75643,43.95589],[4.75661,43.95661],[4.7564,43.95685],[4.75607,43.9568],[4.75497,43.95836],[4.7546,43.95854],[4.75392,43.95879],[4.75348,43.95967],[4.7531,43.96001],[4.75225,43.96013],[4.75116,43.95982],[4.75049,43.96035],[4.74757,43.96196],[4.74589,43.96046],[4.74439,43.96013],[4.74467,43.95933],[4.74452,43.95894],[4.74397,43.95857],[4.74253,43.95843],[4.74027,43.95813],[4.73945,43.95821],[4.73946,43.95892],[4.73908,43.95924],[4.73876,43.95989],[4.73817,43.96001],[4.73789,43.96159],[4.73794,43.96298],[4.73828,43.96355],[4.73799,43.96372],[4.73779,43.96357],[4.73656,43.96328],[4.73596,43.96396],[4.73231,43.96343],[4.72938,43.9635],[4.72765,43.96341],[4.72519,43.96291],[4.72206,43.96282],[4.71838,43.96303],[4.71269,43.96467],[4.71109,43.96288],[4.70909,43.96376],[4.70879,43.96353],[4.70463,43.96493],[4.70418,43.9662],[4.70127,43.96687],[4.69943,43.9677],[4.69799,43.96864],[4.69602,43.96969],[4.69265,43.97019],[4.69204,43.97039],[4.69147,43.9707],[4.68996,43.97058],[4.68795,43.97083],[4.68775,43.97103],[4.6874,43.9707],[4.68702,43.97012],[4.68673,43.96993],[4.68593,43.96973],[4.68534,43.96938],[4.68364,43.9688],[4.68254,43.96858],[4.68186,43.9682],[4.6809,43.96795],[4.68033,43.9679],[4.6796,43.96759],[4.67848,43.96753],[4.6784,43.96777],[4.67729,43.96773],[4.67694,43.9675],[4.67588,43.96745],[4.67568,43.96735],[4.67363,43.96763],[4.67297,43.96717],[4.67238,43.96726],[4.67199,43.96751],[4.66899,43.96712],[4.66845,43.96731],[4.66606,43.96705],[4.66589,43.96712],[4.66296,43.96695],[4.66246,43.968],[4.66116,43.96759],[4.65961,43.96786],[4.65868,43.96724],[4.65757,43.96719],[4.65666,43.96719],[4.65586,43.96689],[4.65507,43.96664],[4.65456,43.9661],[4.65414,43.96589],[4.65411,43.96619],[4.65358,43.9669],[4.65355,43.96743],[4.65326,43.96782],[4.65296,43.96849],[4.65279,43.96895],[4.65232,43.96889],[4.6518,43.96911],[4.65144,43.96902],[4.65126,43.96877],[4.65058,43.96861],[4.64935,43.96864],[4.64811,43.96858],[4.64768,43.96861],[4.64654,43.9683],[4.64509,43.96841],[4.64491,43.96803],[4.64449,43.96782],[4.64417,43.96785],[4.64297,43.96827],[4.6424,43.96824],[4.64107,43.96781],[4.64047,43.96791],[4.63995,43.96816],[4.63911,43.96815],[4.63782,43.96855],[4.63714,43.96876],[4.63716,43.96905],[4.63681,43.96934],[4.63594,43.97053],[4.63582,43.9711],[4.63584,43.97153],[4.63567,43.97183],[4.63534,43.97206],[4.63485,43.973],[4.63451,43.97335],[4.63448,43.97371],[4.6348,43.97439],[4.63479,43.9747],[4.63533,43.97529],[4.63534,43.97559],[4.63473,43.97592],[4.63446,43.97618],[4.63383,43.97636],[4.63324,43.97633],[4.63245,43.97671],[4.63046,43.97717],[4.63017,43.97629],[4.63017,43.9755],[4.62983,43.97516],[4.6298,43.97478],[4.62948,43.97475],[4.6293,43.97458],[4.62907,43.97454],[4.62854,43.97409],[4.62844,43.97392],[4.62783,43.97356],[4.62774,43.9733],[4.62744,43.97274],[4.62638,43.97245],[4.62595,43.97221],[4.62561,43.97212],[4.62494,43.97177],[4.62454,43.97176],[4.62332,43.97063],[4.62307,43.97055],[4.62291,43.97036],[4.62256,43.97019],[4.62214,43.96991],[4.62147,43.96989],[4.62078,43.9697],[4.61983,43.96921],[4.61891,43.96895],[4.61774,43.96874],[4.61642,43.96832],[4.61571,43.96772],[4.61535,43.96769],[4.6151,43.96774],[4.61481,43.96758],[4.6141,43.96734],[4.61345,43.96759],[4.61298,43.96777],[4.61271,43.96777],[4.61246,43.96796],[4.61191,43.96807],[4.61176,43.96819],[4.61158,43.96849],[4.61149,43.96853],[4.61042,43.96812],[4.6099,43.96748],[4.60947,43.96712],[4.60904,43.96729],[4.60856,43.96734],[4.60836,43.96713],[4.60845,43.9668],[4.60823,43.96674],[4.60785,43.96687],[4.60749,43.96735],[4.60726,43.96788],[4.60619,43.96847],[4.60565,43.96861],[4.60495,43.96858],[4.60443,43.96883],[4.60294,43.96916],[4.60068,43.96987],[4.59712,43.97025],[4.59618,43.97044],[4.59461,43.97058],[4.59347,43.97054],[4.59223,43.96977],[4.59173,43.97011],[4.59125,43.97019],[4.59071,43.96955],[4.59041,43.96975],[4.5904,43.96991],[4.58937,43.97006],[4.58705,43.96995],[4.58575,43.97097],[4.585,43.9714],[4.5839,43.97152],[4.58254,43.97179],[4.58121,43.97216],[4.5799,43.97268],[4.57852,43.97348],[4.57758,43.97377],[4.57727,43.97379],[4.57656,43.97406],[4.57598,43.97414],[4.57516,43.9742],[4.57367,43.97394],[4.57252,43.97409],[4.57213,43.97395],[4.5715,43.974],[4.57013,43.97371],[4.56932,43.97372],[4.56836,43.9735],[4.56691,43.97349],[4.56608,43.97339],[4.5651,43.97319],[4.56198,43.97313],[4.56113,43.97324],[4.56087,43.97297],[4.55944,43.973],[4.5575,43.97286],[4.5573,43.97271],[4.55697,43.97274],[4.55686,43.9728],[4.55557,43.9728],[4.55472,43.97276],[4.5546,43.97241],[4.55501,43.97208],[4.55529,43.9717],[4.55534,43.97139],[4.55549,43.97054],[4.55507,43.97043],[4.5545,43.97044],[4.55355,43.97085],[4.55318,43.97001],[4.55331,43.96973],[4.55304,43.96935],[4.55247,43.9691],[4.55223,43.96865],[4.55125,43.96795],[4.55128,43.96763],[4.55101,43.96753],[4.55085,43.96683],[4.55034,43.96644],[4.54987,43.96632],[4.54949,43.96617],[4.5493,43.96618],[4.54921,43.96618],[4.54895,43.96613],[4.54866,43.96621],[4.5485,43.9661],[4.54798,43.96599],[4.54776,43.96611],[4.54779,43.96625],[4.54754,43.96622],[4.54736,43.9663],[4.54727,43.96618],[4.54703,43.96602],[4.54727,43.96593],[4.5473,43.96583],[4.54744,43.9658],[4.54747,43.96563],[4.54757,43.96559],[4.54763,43.96546],[4.54775,43.96534],[4.54753,43.96514],[4.54723,43.96464],[4.54664,43.96422],[4.54596,43.96393],[4.54581,43.96365],[4.54529,43.96351],[4.54523,43.96338],[4.54525,43.96326],[4.54517,43.96309],[4.54523,43.96292],[4.54509,43.96286],[4.54507,43.9628],[4.5446,43.96208],[4.54459,43.96181],[4.54403,43.96173],[4.54314,43.96127],[4.54312,43.96098],[4.54288,43.96079],[4.54299,43.96057],[4.5427,43.96032],[4.54266,43.96005],[4.54273,43.95987],[4.54235,43.95974],[4.54229,43.95772],[4.54303,43.95771],[4.54315,43.95725],[4.54407,43.95693],[4.54459,43.95596],[4.54543,43.95565],[4.546,43.95506],[4.54574,43.95458],[4.54511,43.95447],[4.53923,43.95478],[4.53693,43.95246],[4.53643,43.95243],[4.53605,43.95315],[4.53645,43.95415],[4.5341,43.95399],[4.53292,43.95324],[4.53288,43.95304],[4.53116,43.95279],[4.53132,43.95189],[4.53162,43.95129],[4.53208,43.95092],[4.53242,43.95054],[4.53284,43.95046],[4.5331,43.95018],[4.53336,43.95008],[4.53358,43.94991],[4.53416,43.94981],[4.53448,43.94948],[4.53542,43.94925],[4.53552,43.94893],[4.53534,43.94848],[4.53454,43.94788],[4.53443,43.94804],[4.53387,43.94791],[4.53377,43.94821],[4.53323,43.94829],[4.53311,43.94824],[4.53262,43.94829],[4.53262,43.94836],[4.53206,43.94838],[4.53133,43.9486],[4.53094,43.94875],[4.53067,43.94869],[4.53068,43.94889],[4.52988,43.94928],[4.52939,43.94933],[4.52915,43.94988],[4.52896,43.95114],[4.52884,43.95119],[4.52861,43.95259],[4.52837,43.95302],[4.52827,43.95342],[4.52852,43.95367],[4.52843,43.95421],[4.52874,43.95445],[4.52902,43.95448],[4.52938,43.95464],[4.53011,43.95486],[4.53052,43.95515],[4.53105,43.95537],[4.53162,43.95553],[4.5317,43.95594],[4.53068,43.95616],[4.53083,43.95694],[4.53016,43.95776],[4.53028,43.95807],[4.53116,43.95731],[4.53199,43.95688],[4.5321,43.95794],[4.53203,43.95874],[4.53217,43.95925],[4.53203,43.95961],[4.53263,43.96035],[4.53268,43.96107],[4.53287,43.96156],[4.53313,43.96179],[4.53328,43.9621],[4.53357,43.96218],[4.53292,43.96319],[4.53245,43.96357],[4.53198,43.96417],[4.53115,43.96472],[4.53034,43.96518],[4.53016,43.96543],[4.52964,43.96524],[4.52915,43.96522],[4.52866,43.96515],[4.52822,43.96529],[4.52796,43.96549],[4.52739,43.96574],[4.52668,43.96575],[4.52591,43.96589],[4.5263,43.96655],[4.52591,43.96702],[4.52531,43.9671],[4.52487,43.96704],[4.52463,43.96683],[4.52398,43.96665],[4.52391,43.96684],[4.52344,43.96683],[4.52273,43.96693],[4.52282,43.96709],[4.52263,43.96721],[4.52245,43.968],[4.52227,43.9683],[4.52273,43.96945],[4.52294,43.96972],[4.52266,43.9702],[4.52217,43.97035],[4.52091,43.9705],[4.52027,43.97094],[4.51904,43.97139],[4.51812,43.97288],[4.51838,43.97343],[4.51825,43.97371],[4.51788,43.97414],[4.51786,43.97455],[4.51762,43.97496],[4.51762,43.97554],[4.51777,43.97586],[4.51625,43.97747],[4.51601,43.97791],[4.51699,43.98036],[4.51507,43.98056],[4.51427,43.98079],[4.51258,43.98104],[4.5117,43.98096],[4.51112,43.9808],[4.51063,43.98058],[4.50993,43.98053],[4.50957,43.98046],[4.50897,43.98041],[4.50827,43.98029],[4.50598,43.98009],[4.50377,43.98015],[4.50201,43.98012],[4.4995,43.97998],[4.49653,43.97914],[4.49516,43.97955],[4.49544,43.98111],[4.49481,43.98132],[4.49441,43.98122],[4.49246,43.98131],[4.49168,43.98137],[4.49053,43.98171],[4.48959,43.98181],[4.48769,43.98153],[4.48706,43.98154],[4.4857,43.98191],[4.48455,43.98205],[4.48378,43.98193],[4.48181,43.9822],[4.48073,43.98223],[4.48035,43.98238],[4.47979,43.98248],[4.47928,43.98277],[4.47852,43.98291],[4.47737,43.98287],[4.47679,43.98301],[4.47648,43.98364],[4.47582,43.9838],[4.47517,43.9836],[4.47416,43.98366],[4.4728,43.98427],[4.47139,43.98469],[4.47034,43.98487],[4.46965,43.98322],[4.46818,43.98358],[4.4655,43.98399],[4.46466,43.9842],[4.46297,43.98485],[4.4609,43.98539],[4.45964,43.98563],[4.4576,43.98709],[4.45663,43.98813],[4.45548,43.98884],[4.45485,43.98914],[4.45394,43.98939],[4.45406,43.9901],[4.4544,43.99017],[4.45495,43.99129],[4.4549,43.9918],[4.45462,43.99268],[4.45529,43.99318],[4.45548,43.99406],[4.4552,43.99425],[4.45473,43.9941],[4.45468,43.99354],[4.45419,43.99342],[4.45393,43.99356],[4.45366,43.99357],[4.45284,43.99402],[4.45284,43.99433],[4.4526,43.99477],[4.45241,43.99466],[4.45225,43.99471],[4.45201,43.99464],[4.4515,43.99469],[4.45149,43.99408],[4.45162,43.99398],[4.45152,43.99383],[4.45115,43.99368],[4.4506,43.99387],[4.45046,43.99349],[4.44999,43.99324],[4.44912,43.99349],[4.44868,43.99339],[4.4481,43.9927],[4.44741,43.99269],[4.44706,43.99235],[4.44666,43.99224],[4.44629,43.9916],[4.44558,43.99176],[4.44523,43.9916],[4.44331,43.99121],[4.44078,43.99123],[4.43972,43.99138],[4.43871,43.99184],[4.43929,43.99311],[4.44035,43.99411],[4.43951,43.99439],[4.43747,43.99539],[4.43585,43.99663],[4.43507,43.99698],[4.43261,43.99761],[4.4319,43.99761],[4.4316,43.99791],[4.43179,43.99831],[4.43162,43.99862],[4.43071,43.99943],[4.42982,43.99984],[4.429,44.00059],[4.42839,44.00075],[4.42822,44.00098],[4.42792,44.00093],[4.42743,44.00113],[4.42701,44.00104],[4.42602,44.00165],[4.42559,44.0015],[4.42433,44.00246],[4.42431,44.00291],[4.42327,44.00271],[4.42278,44.00213],[4.42286,44.0028],[4.42317,44.00311],[4.42329,44.00409],[4.42304,44.00337],[4.42292,44.0035],[4.42302,44.00401],[4.42277,44.00457],[4.42207,44.00522],[4.42159,44.0053],[4.42133,44.00556],[4.42106,44.00571],[4.42062,44.00647],[4.42021,44.0069],[4.41977,44.00766],[4.41956,44.0082],[4.41831,44.00846],[4.41816,44.00832],[4.41769,44.00868],[4.41594,44.00897],[4.41455,44.00867],[4.41455,44.00959],[4.41514,44.01036],[4.41527,44.01083],[4.41522,44.01151],[4.40922,44.01057],[4.40953,44.00808],[4.40787,44.00749],[4.4066,44.00718],[4.40663,44.00685],[4.40644,44.0065],[4.40642,44.00455],[4.40652,44.00411],[4.40645,44.00184],[4.4071,44.00186],[4.40741,44.00167],[4.40759,43.99979],[4.40802,43.99873],[4.40845,43.99804],[4.40868,43.99674],[4.40871,43.99485],[4.40862,43.99451],[4.40919,43.99343],[4.40998,43.99322],[4.41078,43.99313],[4.41015,43.9923],[4.41018,43.99148],[4.40971,43.99158],[4.40933,43.99134],[4.41021,43.99064],[4.41024,43.99028],[4.40915,43.9885],[4.4086,43.9874],[4.40862,43.98685],[4.40732,43.98642],[4.40528,43.98522],[4.40224,43.98341],[4.40198,43.98398],[4.40057,43.98596],[4.3998,43.98618],[4.39894,43.98615],[4.3984,43.9862],[4.39829,43.98601],[4.398,43.9859],[4.39801,43.98565],[4.39762,43.98539],[4.39762,43.98515],[4.39814,43.98506],[4.3981,43.98477],[4.39751,43.98456],[4.3966,43.98452],[4.39608,43.98439],[4.39572,43.98444],[4.3947,43.98432],[4.39375,43.9841],[4.39317,43.98426],[4.3924,43.98402],[4.39227,43.98443],[4.39179,43.98485],[4.39089,43.98436],[4.39042,43.98421],[4.39057,43.98381],[4.39078,43.98371],[4.39109,43.98295],[4.39037,43.9829],[4.38959,43.98269],[4.38998,43.98232],[4.39021,43.98157],[4.39005,43.98147],[4.38987,43.98119],[4.38946,43.98088],[4.38875,43.98057],[4.38806,43.98015],[4.38652,43.97982],[4.38569,43.97958],[4.38323,43.97917],[4.38244,43.97864],[4.38222,43.97782],[4.38237,43.97744],[4.38172,43.97697],[4.38055,43.97665],[4.37988,43.97651],[4.37868,43.97606],[4.37624,43.97518],[4.37486,43.97448],[4.37367,43.97374],[4.37375,43.97351],[4.37245,43.97227],[4.37227,43.97187],[4.37123,43.97152],[4.37013,43.97097],[4.36934,43.97041],[4.36871,43.97029],[4.36842,43.96972],[4.36835,43.9691],[4.3691,43.96826],[4.3696,43.9671],[4.36905,43.96698],[4.36734,43.96589],[4.36821,43.96498],[4.36874,43.96519],[4.36908,43.96465],[4.36977,43.96423],[4.37,43.96364],[4.37027,43.96315],[4.36939,43.96133],[4.36902,43.96141],[4.36848,43.9603],[4.36752,43.96043],[4.36676,43.96033],[4.36598,43.95993],[4.36487,43.95961],[4.36378,43.95893],[4.36331,43.95813],[4.36287,43.9568],[4.36221,43.95601],[4.36141,43.95491],[4.36136,43.95456],[4.36087,43.95397],[4.36076,43.95345],[4.35908,43.9522],[4.35864,43.95167],[4.35843,43.95032],[4.35838,43.94913],[4.35848,43.94864],[4.35843,43.94738],[4.35819,43.94675],[4.35741,43.94607],[4.35715,43.94572],[4.35666,43.94539],[4.35666,43.94466],[4.35577,43.94413],[4.35451,43.94309],[4.35432,43.94279],[4.35385,43.9427],[4.353,43.94221],[4.35204,43.94142],[4.35196,43.94105],[4.35172,43.94083],[4.3519,43.94057],[4.35178,43.94026],[4.35185,43.94012],[4.35149,43.9397],[4.35118,43.93975],[4.35068,43.93926],[4.35037,43.93923],[4.34955,43.93946],[4.34879,43.9394],[4.34884,43.93925],[4.34942,43.93892],[4.34957,43.93863],[4.35064,43.9384],[4.35118,43.93812],[4.35141,43.93776],[4.35183,43.93748],[4.35224,43.93703],[4.35178,43.93687],[4.35095,43.93679],[4.35025,43.93545],[4.35006,43.9355],[4.34959,43.93603],[4.34853,43.93604],[4.34785,43.93615],[4.34733,43.93637],[4.34695,43.93601],[4.34653,43.93482],[4.34687,43.934],[4.3472,43.93357],[4.34707,43.93275],[4.34477,43.93139],[4.34366,43.93145],[4.34218,43.93131],[4.34149,43.93093],[4.3414,43.93057],[4.33975,43.92879],[4.33881,43.92827],[4.33797,43.92762],[4.33767,43.92864],[4.3378,43.92929],[4.33795,43.9295],[4.33767,43.93003],[4.33681,43.93008],[4.33677,43.93045],[4.33634,43.93074],[4.3361,43.93074],[4.33589,43.93096],[4.33548,43.93088],[4.33524,43.93106],[4.33471,43.93114],[4.33387,43.93168],[4.33363,43.93168],[4.33346,43.93201],[4.3325,43.93196],[4.33237,43.93188],[4.33185,43.93196],[4.33151,43.93185],[4.3316,43.93154],[4.33142,43.93133],[4.33003,43.93147],[4.32949,43.93171],[4.329,43.93139],[4.32883,43.93091],[4.32816,43.9306],[4.32767,43.93063],[4.32621,43.9312],[4.32591,43.93145],[4.32552,43.93176],[4.3254,43.93215],[4.32518,43.93255],[4.32505,43.9329],[4.32374,43.93323],[4.32308,43.93369],[4.32306,43.93417],[4.32265,43.93431],[4.32267,43.93488],[4.32243,43.93497],[4.32155,43.93474],[4.31979,43.93035],[4.31917,43.9298],[4.31836,43.92765],[4.31786,43.92756],[4.31716,43.92793],[4.31645,43.92793],[4.31604,43.92802],[4.3155,43.92794],[4.31499,43.92811],[4.31497,43.92791],[4.31555,43.92765],[4.31578,43.92674],[4.31606,43.92652],[4.31542,43.92552],[4.31514,43.92479],[4.31456,43.92464],[4.31422,43.92377],[4.31357,43.92312],[4.31377,43.92222],[4.31387,43.92099],[4.31477,43.92105],[4.31574,43.92127],[4.31585,43.9211],[4.31528,43.92056],[4.31293,43.91793],[4.31224,43.91791],[4.31049,43.9181],[4.30969,43.91813],[4.30762,43.91853],[4.30642,43.91854],[4.30603,43.91889],[4.30564,43.91959],[4.30509,43.92015],[4.30514,43.92176],[4.30472,43.92278],[4.30419,43.92331],[4.30323,43.92371],[4.30233,43.92396],[4.30097,43.92502],[4.30054,43.92577],[4.3001,43.92618],[4.29978,43.92686],[4.29766,43.9264],[4.29566,43.92502],[4.29525,43.92437],[4.29479,43.92451],[4.29428,43.9237],[4.29405,43.92292],[4.29361,43.92293],[4.29263,43.92357],[4.29235,43.92397],[4.29239,43.9242],[4.2922,43.9245],[4.2922,43.92471],[4.29211,43.92481],[4.29149,43.9249],[4.29106,43.92519],[4.29033,43.92607],[4.2898,43.92623],[4.28988,43.92733],[4.29001,43.92785],[4.29005,43.92864],[4.28982,43.92913],[4.28922,43.92947],[4.28879,43.92941],[4.28804,43.9298],[4.28763,43.92964],[4.28726,43.92992],[4.28651,43.93018],[4.28576,43.93017],[4.28458,43.93046],[4.28471,43.93145],[4.28456,43.93174],[4.28467,43.93202],[4.2839,43.93188],[4.28257,43.93103],[4.28192,43.93103],[4.28085,43.93074],[4.2804,43.93023],[4.27928,43.92966],[4.27791,43.92827],[4.27656,43.92784],[4.27553,43.92759],[4.27373,43.92736],[4.2725,43.92703],[4.27156,43.92694],[4.27199,43.92655],[4.27207,43.92597],[4.27237,43.92555],[4.27106,43.92502],[4.27031,43.92484],[4.26978,43.92461],[4.26903,43.92442],[4.26862,43.92422],[4.26609,43.92425],[4.26579,43.92464],[4.26534,43.92493],[4.26471,43.92512],[4.26328,43.9249],[4.263,43.92512],[4.2622,43.92525],[4.25379,43.92379],[4.25431,43.92272],[4.25484,43.92213],[4.25527,43.92148],[4.25587,43.92111],[4.2571,43.92009],[4.2587,43.91855],[4.25774,43.91794],[4.2574,43.91751],[4.2557,43.91682],[4.25508,43.91635],[4.25426,43.9151],[4.2536,43.91324],[4.25411,43.91188],[4.2534,43.91215],[4.25248,43.9117],[4.25186,43.91167],[4.25119,43.91195],[4.25089,43.9113],[4.2507,43.91051],[4.25036,43.90992],[4.24986,43.9097],[4.24933,43.90978],[4.24931,43.90997],[4.24883,43.91015],[4.24834,43.91048],[4.24727,43.91023],[4.24669,43.91037],[4.24611,43.91009],[4.24587,43.91011],[4.24577,43.90892],[4.24557,43.90836],[4.24508,43.90771],[4.24482,43.90688],[4.24484,43.9047],[4.24493,43.90364],[4.24514,43.9031],[4.24476,43.90262],[4.24441,43.90168],[4.24422,43.9008],[4.24411,43.90017],[4.24454,43.89904],[4.24349,43.89885],[4.24201,43.89911],[4.24023,43.8991],[4.24006,43.89877],[4.23952,43.89845],[4.23924,43.89822],[4.23836,43.898],[4.23748,43.89809],[4.23699,43.89806],[4.23632,43.89799],[4.23519,43.89811],[4.23502,43.89775],[4.23349,43.89681],[4.23263,43.89666],[4.23072,43.89659],[4.22911,43.89667],[4.22838,43.89585],[4.22806,43.89509],[4.22738,43.89444],[4.22712,43.89465],[4.22684,43.89392],[4.22671,43.89313],[4.22658,43.89182],[4.22626,43.89206],[4.2251,43.89242],[4.22448,43.89273],[4.22321,43.89285],[4.22293,43.89322],[4.22203,43.89335],[4.22107,43.89346],[4.22049,43.89376],[4.22004,43.89441],[4.21974,43.89514],[4.21901,43.89562],[4.21849,43.89594],[4.218,43.89658],[4.21729,43.89689],[4.21637,43.89695],[4.21615,43.89667],[4.21538,43.89644],[4.2148,43.89656],[4.2139,43.89783],[4.21227,43.89851],[4.2121,43.8989],[4.2113,43.89881],[4.21077,43.89902],[4.20987,43.89924],[4.20899,43.89924],[4.20639,43.90105],[4.20491,43.90188],[4.20551,43.90284],[4.20382,43.90324],[4.20238,43.90332],[4.20045,43.90364],[4.19955,43.90374],[4.19794,43.90436],[4.19701,43.90454],[4.19513,43.90511],[4.19455,43.90539],[4.19343,43.90581],[4.19339,43.9059],[4.19229,43.9063],[4.19124,43.90615],[4.19013,43.90633],[4.18719,43.90621],[4.18476,43.90637],[4.18423,43.90616],[4.1838,43.90615],[4.1835,43.90604],[4.18292,43.90598],[4.18214,43.90643],[4.18101,43.90664],[4.17972,43.90658],[4.17749,43.90674],[4.17626,43.90689],[4.17586,43.90718],[4.17408,43.90723],[4.17358,43.90735],[4.17277,43.90737],[4.17195,43.90752],[4.17135,43.90776],[4.17092,43.90762],[4.16981,43.90647],[4.1688,43.90615],[4.16734,43.90538],[4.16601,43.90487],[4.16487,43.90473],[4.1644,43.90485],[4.16388,43.9044],[4.16309,43.90411],[4.16129,43.90378],[4.16026,43.90372],[4.15929,43.90389],[4.1582,43.90446],[4.15607,43.90499],[4.15479,43.90496],[4.15423,43.90576],[4.15376,43.90592],[4.15337,43.90624],[4.15238,43.90664],[4.1517,43.90689],[4.15122,43.90684],[4.14994,43.90836],[4.1494,43.90858],[4.14861,43.90858],[4.14818,43.90902],[4.14745,43.90938],[4.14693,43.90969],[4.14678,43.90994],[4.14642,43.91004],[4.14562,43.91089],[4.14502,43.91136],[4.14337,43.91205],[4.14298,43.91232],[4.14174,43.91366],[4.1421,43.91422],[4.14122,43.91493],[4.14099,43.91538],[4.14026,43.91609],[4.13966,43.91635],[4.13951,43.91665],[4.13858,43.9177],[4.13762,43.91811],[4.13704,43.91821],[4.13597,43.91861],[4.13522,43.91918],[4.13446,43.91955],[4.13434,43.91983],[4.13292,43.9213],[4.13172,43.92227],[4.13101,43.92266],[4.13017,43.92294],[4.12994,43.92337],[4.13019,43.92391],[4.13011,43.92431],[4.12964,43.92491],[4.12979,43.9253],[4.12953,43.92634],[4.1291,43.927],[4.1282,43.92767],[4.12638,43.92869],[4.1256,43.92924],[4.12515,43.92895],[4.12406,43.92855],[4.12367,43.92822],[4.12253,43.92763],[4.12172,43.92682],[4.12135,43.92697],[4.12092,43.92678],[4.12052,43.9268],[4.11953,43.92657],[4.11835,43.92688],[4.11655,43.92705],[4.11612,43.92723],[4.11524,43.92746],[4.11382,43.92797],[4.11333,43.92791],[4.11301,43.92768],[4.11269,43.92765],[4.11269,43.92717],[4.11101,43.92729],[4.11067,43.92745],[4.10983,43.92719],[4.1096,43.92753],[4.10897,43.92784],[4.10897,43.92808],[4.10872,43.92847],[4.10919,43.92943],[4.10902,43.92947],[4.10865,43.92944],[4.10775,43.92972],[4.10696,43.93026],[4.1059,43.93051],[4.105,43.93089],[4.10427,43.93088],[4.10327,43.93111],[4.10245,43.93113],[4.10123,43.9313],[4.10093,43.93117],[4.10065,43.93068],[4.10065,43.93025],[4.10018,43.92987],[4.09994,43.92918],[4.10035,43.92865],[4.10056,43.9277],[4.09951,43.92644],[4.09925,43.9261],[4.09698,43.92383],[4.09646,43.92323],[4.09548,43.92233],[4.09524,43.92178],[4.09344,43.92222],[4.09133,43.92258],[4.0903,43.9226],[4.09015,43.92312],[4.09015,43.92385],[4.09,43.92508],[4.08966,43.92505],[4.08919,43.92539],[4.08782,43.92513],[4.08696,43.92515],[4.08625,43.9249],[4.08524,43.92393],[4.08483,43.9238],[4.08413,43.9241],[4.08327,43.92405],[4.08279,43.92386],[4.08119,43.9227],[4.0797,43.92283],[4.07904,43.92301],[4.07844,43.92297],[4.0773,43.92255],[4.07672,43.92247],[4.07599,43.92269],[4.07539,43.92263],[4.07464,43.92275],[4.07301,43.92359],[4.07174,43.92442],[4.07134,43.92478],[4.07056,43.92496],[4.06938,43.92493],[4.06898,43.92479],[4.06844,43.92479],[4.06773,43.92462],[4.06632,43.92365],[4.06578,43.92345],[4.06522,43.92346],[4.06458,43.92314],[4.06368,43.92309],[4.06235,43.92239],[4.06205,43.92198],[4.06185,43.92198],[4.06138,43.92212],[4.06069,43.92192],[4.05999,43.92187],[4.05923,43.92171],[4.05793,43.92179],[4.0572,43.92165],[4.05623,43.92139],[4.05436,43.92066],[4.05359,43.92012],[4.0537,43.91977],[4.05293,43.91995],[4.05226,43.91969],[4.05194,43.91937],[4.05129,43.91967],[4.05003,43.92],[4.04876,43.92014],[4.04765,43.92034],[4.04666,43.91833],[4.04554,43.91869],[4.04559,43.91833],[4.0455,43.91785],[4.04527,43.91754],[4.04441,43.91686],[4.04363,43.91644],[4.04187,43.91524],[4.04042,43.91448],[4.03885,43.91396],[4.03793,43.91374],[4.03516,43.9128],[4.03576,43.91232],[4.0361,43.91181],[4.03597,43.91148],[4.03505,43.91083],[4.03514,43.91062],[4.03458,43.91043],[4.03364,43.9097],[4.03318,43.90969],[4.03282,43.90943],[4.03256,43.90899],[4.03235,43.90825],[4.0317,43.90695],[4.03121,43.90626],[4.0307,43.90592],[4.03007,43.90562],[4.03012,43.90525],[4.02906,43.90428],[4.02887,43.90456],[4.02857,43.90476],[4.0284,43.9051],[4.02731,43.90516],[4.02452,43.90562],[4.02336,43.90578],[4.02346,43.90692],[4.02334,43.90742],[4.02316,43.9087],[4.02267,43.9098],[4.02237,43.91066],[4.02188,43.91088],[4.02185,43.91105],[4.02132,43.91122],[4.0207,43.91198],[4.02031,43.91222],[4.01956,43.91232],[4.01874,43.91286],[4.01703,43.91338],[4.01625,43.91352],[4.01574,43.91351],[4.0151,43.91366],[4.01323,43.9138],[4.01166,43.91386],[4.01035,43.91368],[4.00879,43.91399],[4.00806,43.91385],[4.00707,43.91343],[4.00499,43.91238],[4.00321,43.91192],[4.00293,43.91142],[4.00177,43.91048],[4.00078,43.91099],[3.9978,43.91195],[3.99696,43.91244],[3.99653,43.91241],[3.99671,43.91215],[3.99445,43.91277],[3.99368,43.91294],[3.99246,43.91261],[3.99169,43.91224],[3.99143,43.9125],[3.98969,43.91241],[3.98928,43.91199],[3.98855,43.91192],[3.98696,43.91153],[3.98664,43.91238],[3.98587,43.91301],[3.9854,43.91309],[3.98418,43.91283],[3.98353,43.91321],[3.98239,43.91314],[3.98164,43.91357],[3.98113,43.91428],[3.98046,43.91442],[3.97945,43.91439],[3.97892,43.91422],[3.97821,43.91352],[3.97754,43.91323],[3.97703,43.91323],[3.97664,43.91348],[3.97649,43.91405],[3.97615,43.91481],[3.97624,43.91544],[3.97664,43.91621],[3.97774,43.91685],[3.97735,43.91816],[3.97628,43.91918],[3.97598,43.92014],[3.97628,43.92069],[3.97634,43.92226],[3.97495,43.9241],[3.97373,43.9249],[3.97312,43.92573],[3.97304,43.92635],[3.97308,43.92794],[3.97295,43.92827],[3.97308,43.92904],[3.9731,43.93028],[3.97338,43.93071],[3.97282,43.93154],[3.9701,43.93131],[3.96767,43.93161],[3.96463,43.93295],[3.96139,43.93417],[3.95995,43.93482],[3.95939,43.93542],[3.9589,43.93572],[3.95866,43.93593],[3.95684,43.9368],[3.95424,43.93796],[3.95364,43.93833],[3.95304,43.93891],[3.95265,43.93961],[3.95231,43.93973],[3.95186,43.94026],[3.9521,43.94044],[3.95158,43.94114],[3.95145,43.94194],[3.95173,43.94231],[3.95227,43.94255],[3.9534,43.94296],[3.95373,43.94333],[3.95377,43.94375],[3.95418,43.944],[3.95418,43.94465],[3.95435,43.94479],[3.95463,43.94587],[3.95538,43.94647],[3.95562,43.94715],[3.95566,43.94794],[3.95592,43.94848],[3.95634,43.94903],[3.95643,43.94956],[3.9568,43.95012],[3.95695,43.95061],[3.95727,43.95084],[3.95757,43.95161],[3.95725,43.95158],[3.95733,43.95172],[3.95791,43.95189],[3.9578,43.95256],[3.95791,43.95316],[3.95774,43.95402],[3.95817,43.95554],[3.95858,43.95634],[3.95896,43.95838],[3.95907,43.95957],[3.95864,43.96116],[3.95838,43.96167],[3.95823,43.96229],[3.95793,43.96297],[3.95744,43.96348],[3.95752,43.96409],[3.95722,43.96528],[3.95671,43.96598],[3.95637,43.96714],[3.95649,43.96831],[3.95622,43.96987],[3.95587,43.97069],[3.95581,43.97121],[3.95497,43.97347],[3.95471,43.97512],[3.95471,43.97744],[3.95815,43.98009],[3.95888,43.98077],[3.95973,43.98175],[3.95939,43.98187],[3.95935,43.9825],[3.95941,43.98276],[3.95881,43.98314],[3.95907,43.98369],[3.95881,43.98372],[3.95903,43.984],[3.95875,43.98466],[3.95791,43.98502],[3.95733,43.98542],[3.95643,43.98574],[3.95546,43.9865],[3.95555,43.98724],[3.95579,43.98769],[3.95546,43.98863],[3.95534,43.98954],[3.95448,43.98928],[3.9495,43.98879],[3.94643,43.98859],[3.94317,43.98798],[3.93984,43.9871],[3.93733,43.98667],[3.93622,43.98675],[3.93534,43.9872],[3.93407,43.98798],[3.93379,43.98826],[3.93313,43.98806],[3.93233,43.98712],[3.92798,43.98718],[3.92542,43.98672],[3.92347,43.98672],[3.9224,43.98707],[3.9204,43.98729],[3.91982,43.98707],[3.91912,43.98737],[3.918,43.98741],[3.91725,43.98732],[3.91699,43.98704],[3.91545,43.98639],[3.91403,43.98624],[3.91345,43.98636],[3.91296,43.9863],[3.91193,43.98579],[3.91066,43.98564],[3.91012,43.98542],[3.90845,43.98591],[3.90686,43.98525],[3.90502,43.98499],[3.90294,43.98511],[3.90216,43.98493],[3.90096,43.98527],[3.89933,43.98545],[3.8971,43.98642],[3.89551,43.98783],[3.89564,43.98838],[3.89392,43.98865],[3.89453,43.9894],[3.89249,43.99121],[3.89266,43.99184],[3.89032,43.99672],[3.88929,43.9965],[3.88993,43.99755],[3.88987,43.99811],[3.88923,43.99876],[3.8889,43.99888],[3.88811,43.99973],[3.88815,43.99995],[3.88759,44.00018],[3.88708,44.00016],[3.8868,44.0003],[3.88635,44.0003],[3.88609,44.00117],[3.88549,44.00194],[3.8835,44.003],[3.88292,44.00399],[3.88266,44.0051],[3.883,44.00575],[3.88307,44.00643],[3.88345,44.00723],[3.88425,44.0083],[3.88431,44.00847],[3.88461,44.00867],[3.88468,44.00904],[3.88236,44.00999],[3.88204,44.01026],[3.88088,44.01049],[3.8812,44.01066],[3.88133,44.01106],[3.88094,44.011],[3.88062,44.0108],[3.87963,44.01069],[3.8789,44.0107],[3.8786,44.01052],[3.8782,44.01073],[3.87717,44.01052],[3.87708,44.01019],[3.87646,44.00989],[3.87543,44.0097],[3.87474,44.00976],[3.87425,44.01019],[3.87371,44.01021],[3.87236,44.01083],[3.87109,44.01131],[3.8703,44.01143],[3.86976,44.01165],[3.86927,44.01163],[3.86869,44.01132],[3.86809,44.01111],[3.8671,44.01063],[3.86648,44.01044],[3.86637,44.0103],[3.86618,44.01033],[3.86545,44.01146],[3.86566,44.01144],[3.86487,44.01219],[3.86483,44.01239],[3.86498,44.01265],[3.86483,44.01322],[3.865,44.01382],[3.86517,44.01404],[3.86433,44.01481],[3.86414,44.01569],[3.86378,44.01607],[3.8638,44.01723],[3.86318,44.01746],[3.86268,44.01729],[3.86217,44.01746],[3.86191,44.01788],[3.86118,44.01769],[3.86084,44.01739],[3.86056,44.01743],[3.86054,44.01729],[3.86,44.01731],[3.85991,44.01763],[3.85944,44.01823],[3.85938,44.01861],[3.85863,44.01884],[3.85796,44.01881],[3.85751,44.01961],[3.85818,44.02086],[3.85805,44.02121],[3.85768,44.0211],[3.85738,44.0205],[3.85647,44.02039],[3.85616,44.02025],[3.85609,44.02037],[3.85694,44.02072],[3.85689,44.02084],[3.85658,44.0207],[3.85574,44.02054],[3.85498,44.02031],[3.85429,44.02033],[3.85405,44.02015],[3.85371,44.01961],[3.85349,44.01953],[3.85305,44.01953],[3.85254,44.01936],[3.85186,44.01939],[3.85132,44.01966],[3.85127,44.02007],[3.85077,44.02029],[3.85001,44.02015],[3.84919,44.02041],[3.84828,44.02066],[3.84789,44.02115],[3.847,44.02106],[3.84682,44.02075],[3.84657,44.02076],[3.84656,44.02103],[3.8461,44.02147],[3.84529,44.02163],[3.84521,44.0213],[3.84503,44.02103],[3.84493,44.0208],[3.84394,44.02008],[3.84361,44.02014],[3.84344,44.02076],[3.8429,44.0212],[3.8429,44.02146],[3.84318,44.02164],[3.84308,44.02196],[3.84266,44.02221],[3.84144,44.02375],[3.84118,44.02385],[3.84075,44.02373],[3.84044,44.02343],[3.84,44.02363],[3.83887,44.024],[3.83854,44.02361],[3.83843,44.02299],[3.83882,44.02239],[3.83867,44.02223],[3.83724,44.02234],[3.83638,44.02216],[3.83665,44.02255],[3.83682,44.02292],[3.83709,44.02336],[3.83667,44.02361],[3.83649,44.02407],[3.83649,44.02479],[3.83623,44.02493],[3.83555,44.02448],[3.83464,44.02475],[3.83389,44.02483],[3.83368,44.025],[3.83343,44.0255],[3.83308,44.02594],[3.83272,44.02617],[3.83212,44.02628],[3.83179,44.02688],[3.83135,44.02713],[3.83038,44.02717],[3.82989,44.02702],[3.82955,44.0272],[3.82909,44.02714],[3.82887,44.02726],[3.82851,44.02712],[3.82833,44.02643],[3.8281,44.02627],[3.8276,44.02644],[3.82686,44.02718],[3.82696,44.02738],[3.8263,44.02782],[3.82597,44.02794],[3.82626,44.02828],[3.82638,44.02903],[3.82708,44.02923],[3.82724,44.02965],[3.82756,44.02976],[3.82792,44.02957],[3.82836,44.02971],[3.82834,44.03006],[3.82857,44.03036],[3.82859,44.03076],[3.82887,44.03134],[3.8288,44.03151],[3.82922,44.03207],[3.82963,44.0323],[3.82973,44.03282],[3.82948,44.03349],[3.82986,44.03376],[3.83013,44.03453],[3.83091,44.0351],[3.83117,44.03566],[3.83025,44.03659],[3.83033,44.03697],[3.83074,44.03729],[3.83223,44.03767],[3.83256,44.03825],[3.83264,44.03759],[3.83223,44.03719],[3.83314,44.03737],[3.83353,44.0385],[3.83415,44.03916],[3.83422,44.0387],[3.83459,44.03927],[3.83571,44.03955],[3.83639,44.03992],[3.83739,44.04075],[3.83792,44.04067],[3.8381,44.04106],[3.83851,44.04149],[3.83942,44.04166],[3.84009,44.04175],[3.84051,44.04231],[3.84054,44.04255],[3.84074,44.04273],[3.84111,44.04355],[3.84168,44.04342],[3.84213,44.04377],[3.84288,44.04379],[3.84331,44.04357],[3.84409,44.04354],[3.84454,44.04364],[3.84496,44.04348],[3.84588,44.04396],[3.84601,44.04437],[3.84771,44.04484],[3.8481,44.04517],[3.84862,44.04531],[3.8488,44.0461],[3.84861,44.04669],[3.84931,44.04726],[3.84869,44.0477],[3.84742,44.04818],[3.84436,44.04856],[3.84326,44.04842],[3.84253,44.0488],[3.84239,44.04905],[3.84238,44.04963],[3.84213,44.04995],[3.8416,44.05042],[3.84152,44.0513],[3.84166,44.05213],[3.84215,44.05277],[3.84178,44.05322],[3.84155,44.05388],[3.84095,44.05418],[3.84069,44.05452],[3.84064,44.0547],[3.84,44.055],[3.83918,44.05578],[3.83773,44.05616],[3.83685,44.05719],[3.83774,44.05779],[3.83817,44.05837],[3.83794,44.05879],[3.83794,44.05917],[3.8377,44.06003],[3.83691,44.06083],[3.83703,44.06123],[3.8377,44.06159],[3.83727,44.06257],[3.83722,44.06213],[3.83674,44.06204],[3.83607,44.06158],[3.83677,44.06236],[3.83605,44.06339],[3.83586,44.06346],[3.83612,44.06282],[3.83613,44.06224],[3.83537,44.0632],[3.83483,44.06359],[3.83465,44.064],[3.8341,44.06415],[3.83322,44.06422],[3.83269,44.0638],[3.83176,44.06361],[3.8315,44.06382],[3.83153,44.06424],[3.83109,44.06432],[3.83054,44.06526],[3.83033,44.06458],[3.82991,44.06526],[3.82919,44.06496],[3.82781,44.06464],[3.82716,44.06436],[3.82657,44.06366],[3.82628,44.06381],[3.82613,44.06343],[3.82566,44.06298],[3.82521,44.06278],[3.82404,44.0626],[3.82288,44.06227],[3.82351,44.06173],[3.82184,44.06158],[3.82047,44.06197],[3.81917,44.06263],[3.81875,44.06296],[3.81857,44.06338],[3.81831,44.06364],[3.81802,44.06372],[3.81768,44.06424],[3.81761,44.0646],[3.8176,44.06532],[3.81721,44.06588],[3.81646,44.06623],[3.81525,44.06597],[3.81486,44.06579],[3.81425,44.06607],[3.81366,44.06592],[3.8129,44.06609],[3.81254,44.06582],[3.812,44.06579],[3.81168,44.066],[3.81098,44.06706],[3.81161,44.06678],[3.81155,44.06725],[3.81117,44.06772],[3.81119,44.06819],[3.81132,44.06845],[3.81088,44.06858],[3.81028,44.0693],[3.81028,44.06954],[3.81007,44.06974],[3.80942,44.0698],[3.80904,44.07024],[3.80899,44.07095],[3.80795,44.07212],[3.80701,44.07276],[3.80642,44.07302],[3.80546,44.07298],[3.8047,44.07379],[3.80447,44.07384],[3.80441,44.07401],[3.80312,44.07466],[3.80228,44.07475],[3.80171,44.07499]]],"type":"MultiLineString"},"properties":{"geo_point":{"lon":4.259492424815843,"lat":43.96257107962563},"name":"GR63 De Villeneuve-lez-Avignon au col de la Cabane-Vieille (Gard) (2019)","code_gr":"GR63"}}]}