{"type":"FeatureCollection","features":[{"type":"Feature","geometry":{"coordinates":[[[0.718846,45.182493],[0.717204,45.182298],[0.715184,45.181908],[0.715203,45.181634],[0.714212,45.181599],[0.714407,45.179994],[0.715187,45.17957],[0.714748,45.179123],[0.712715,45.179112],[0.711463,45.179009],[0.710878,45.179479],[0.709187,45.178401],[0.708146,45.178011],[0.704032,45.183021],[0.70343,45.183456],[0.70408,45.183674],[0.703365,45.184293],[0.702015,45.185141],[0.7013,45.185198],[0.700714,45.185496],[0.700308,45.186035],[0.700064,45.186895],[0.699706,45.188327],[0.698372,45.191892],[0.697901,45.192934],[0.697771,45.193542],[0.69686,45.195478],[0.696714,45.196063],[0.69621,45.196899],[0.695364,45.198412],[0.694161,45.199764],[0.693234,45.200223],[0.692469,45.200967],[0.692323,45.201575],[0.691396,45.201735],[0.689298,45.201941],[0.68764,45.201758],[0.685656,45.200922],[0.684664,45.200601],[0.685005,45.199718],[0.684745,45.19942],[0.685314,45.199157],[0.683346,45.196819],[0.682208,45.195822],[0.680712,45.194138],[0.679753,45.193336],[0.678435,45.192602],[0.676516,45.192579],[0.677037,45.19502],[0.67733,45.195398],[0.677395,45.196017],[0.677281,45.196728],[0.675134,45.196395],[0.673232,45.196017],[0.673557,45.197301],[0.673459,45.197702],[0.672549,45.200028],[0.670809,45.200245],[0.670353,45.200864],[0.669069,45.201769],[0.668255,45.202594],[0.667263,45.204474],[0.666954,45.205447],[0.666662,45.205619],[0.665231,45.205986],[0.664873,45.205482],[0.66445,45.205436],[0.664141,45.205321],[0.663995,45.205379],[0.663767,45.205379],[0.663848,45.205631],[0.663377,45.205917],[0.662548,45.206066],[0.661848,45.205986],[0.661182,45.205826],[0.659051,45.205791],[0.657327,45.205195],[0.656319,45.20476],[0.655213,45.204806],[0.65453,45.204749],[0.652628,45.204966],[0.651668,45.205299],[0.651343,45.205104],[0.650416,45.204909],[0.650075,45.204943],[0.649587,45.20484],[0.648725,45.203454],[0.648709,45.203007],[0.648383,45.202583],[0.647847,45.202847],[0.647359,45.203282],[0.646578,45.203557],[0.646025,45.203855],[0.645586,45.203591],[0.645408,45.203591],[0.645342,45.203374],[0.645131,45.203202],[0.645082,45.202835],[0.644204,45.202606],[0.644285,45.202193],[0.643733,45.201735],[0.642871,45.201185],[0.642789,45.2002],[0.642383,45.199375],[0.641505,45.198939],[0.640838,45.19887],[0.639651,45.198653],[0.639602,45.198126],[0.638968,45.198538],[0.638545,45.199008],[0.638106,45.199283],[0.637423,45.199501],[0.636984,45.199764],[0.636317,45.19989],[0.634642,45.200922],[0.634691,45.201689],[0.634837,45.202377],[0.634089,45.203282],[0.633748,45.203901],[0.633813,45.204325],[0.634317,45.204519],[0.633894,45.205459],[0.632837,45.206066],[0.632853,45.206341],[0.63204,45.206777],[0.632219,45.20743],[0.63274,45.207785],[0.632983,45.20814],[0.632788,45.208266],[0.632349,45.208174],[0.632024,45.208002],[0.631617,45.207991],[0.631439,45.208186],[0.631666,45.208552],[0.631666,45.208965],[0.63139,45.209125],[0.630691,45.209056],[0.629942,45.20877],[0.629471,45.208266],[0.628837,45.207911],[0.628999,45.206925],[0.628918,45.20649],[0.627373,45.205413],[0.627357,45.205734],[0.627145,45.206204],[0.62682,45.206353],[0.626365,45.206169],[0.62591,45.206055],[0.625308,45.206398],[0.624869,45.206719],[0.624137,45.206582],[0.623665,45.206387],[0.622999,45.206593],[0.622104,45.206387],[0.621909,45.206204],[0.621698,45.206433],[0.620576,45.206765],[0.620657,45.206295],[0.620494,45.205883],[0.619746,45.205631],[0.618982,45.204783],[0.617892,45.204749],[0.617372,45.204519],[0.616868,45.204611],[0.616234,45.204233],[0.616055,45.203947],[0.615665,45.203809],[0.614754,45.202984],[0.61438,45.202445],[0.614494,45.202044],[0.614689,45.201655],[0.614656,45.20099],[0.614998,45.200062],[0.61503,45.199707],[0.616022,45.19879],[0.617957,45.196693],[0.61812,45.196132],[0.618088,45.195398],[0.618445,45.194676],[0.617714,45.194734],[0.617648,45.194585],[0.616087,45.194241],[0.614949,45.193611],[0.613274,45.193015],[0.610884,45.191788],[0.60942,45.191445],[0.608395,45.19141],[0.607599,45.191273],[0.606477,45.190791],[0.605403,45.190138],[0.603468,45.189955],[0.602086,45.190161],[0.601224,45.190104],[0.60072,45.190012],[0.60046,45.189955],[0.598134,45.190023],[0.596752,45.190276],[0.596053,45.190493],[0.595419,45.190849],[0.593744,45.191204],[0.592426,45.191662],[0.591223,45.192224],[0.589532,45.192854],[0.58854,45.193255],[0.587304,45.193553],[0.585775,45.193542],[0.585271,45.193611],[0.584442,45.193588],[0.582653,45.193931],[0.579466,45.194298],[0.578213,45.194126],[0.577189,45.194149],[0.576051,45.194057],[0.575481,45.193966],[0.574246,45.193886],[0.573042,45.19392],[0.572001,45.19408],[0.569692,45.194057],[0.569058,45.194275],[0.568277,45.194287],[0.567594,45.194241],[0.567139,45.194619],[0.566733,45.194779],[0.565643,45.194791],[0.56483,45.194447],[0.564375,45.194069],[0.563968,45.194023],[0.563009,45.194333],[0.562374,45.194608],[0.560846,45.194642],[0.559724,45.194504],[0.559886,45.193668],[0.559886,45.193049],[0.559415,45.19227],[0.559171,45.191215],[0.559285,45.190597],[0.559187,45.19031],[0.558569,45.190127],[0.557496,45.189588],[0.556536,45.189359],[0.556097,45.18937],[0.554829,45.189531],[0.553967,45.189508],[0.553349,45.189554],[0.552682,45.189324],[0.551967,45.189668],[0.550373,45.190241],[0.548828,45.190654],[0.548292,45.190665],[0.5473,45.190826],[0.546421,45.190849],[0.545104,45.191777],[0.544226,45.192041],[0.543429,45.192247],[0.541901,45.193175],[0.541185,45.194115],[0.540535,45.193095],[0.540405,45.192304],[0.540437,45.191914],[0.540258,45.191502],[0.540226,45.190975],[0.54034,45.190642],[0.539624,45.190161],[0.539071,45.190241],[0.538892,45.189783],[0.538762,45.189473],[0.538746,45.189118],[0.538242,45.188144],[0.537347,45.187559],[0.536827,45.186929],[0.536583,45.185909],[0.536534,45.185313],[0.536746,45.183972],[0.537168,45.183571],[0.537949,45.182711],[0.538632,45.182115],[0.537803,45.181622],[0.537087,45.181519],[0.536485,45.181175],[0.535933,45.180636],[0.534615,45.180029],[0.533445,45.180063],[0.531087,45.179215],[0.530501,45.178883],[0.52959,45.178734],[0.528907,45.178516],[0.528468,45.178309],[0.527899,45.17847],[0.527379,45.178802],[0.526452,45.1791],[0.525964,45.179077],[0.525558,45.178974],[0.524972,45.178653],[0.523411,45.178241],[0.522321,45.177817],[0.52146,45.177404],[0.520159,45.176349],[0.520012,45.175948],[0.520224,45.175467],[0.520842,45.174985],[0.520711,45.174584],[0.520045,45.17432],[0.521606,45.174057],[0.52076,45.17377],[0.520744,45.173357],[0.520825,45.172555],[0.520614,45.172429],[0.5205,45.171982],[0.51985,45.171397],[0.519703,45.170652],[0.520305,45.169069],[0.520337,45.168152],[0.520191,45.167648],[0.518484,45.16602],[0.517394,45.165125],[0.516451,45.164094],[0.5158,45.163784],[0.515166,45.163119],[0.513816,45.161479],[0.512711,45.160562],[0.511589,45.159702],[0.511198,45.159278],[0.510271,45.15789],[0.509393,45.156835],[0.50871,45.156319],[0.50832,45.15586],[0.507637,45.155356],[0.507068,45.154725],[0.50632,45.153544],[0.506108,45.152833],[0.506141,45.151594],[0.506238,45.150023],[0.505588,45.149989],[0.505458,45.14961],[0.502888,45.150688],[0.502368,45.150711],[0.501766,45.150505],[0.501067,45.150608],[0.500579,45.150757],[0.497831,45.150333],[0.497246,45.150356],[0.496611,45.150551],[0.496449,45.150562],[0.496741,45.150035],[0.496595,45.14945],[0.496953,45.148991],[0.497067,45.148395],[0.496628,45.148188],[0.496628,45.147982],[0.497148,45.147431],[0.496449,45.147133],[0.495798,45.146651],[0.496221,45.14625],[0.496546,45.14578],[0.49788,45.145711],[0.498221,45.145401],[0.497246,45.144816],[0.49601,45.144403],[0.495197,45.144243],[0.493782,45.143715],[0.49344,45.143428],[0.493392,45.143141],[0.492822,45.143371],[0.491749,45.143646],[0.490887,45.145023],[0.490383,45.144541],[0.489993,45.144438],[0.489147,45.144575],[0.488529,45.144357],[0.488318,45.144587],[0.48835,45.144896],[0.488041,45.145045],[0.487586,45.144965],[0.487147,45.144598],[0.487098,45.143681],[0.487228,45.142671],[0.487505,45.141811],[0.487944,45.140698],[0.487749,45.140469],[0.486822,45.140239],[0.486366,45.140033],[0.484529,45.139482],[0.484545,45.139138],[0.484691,45.138771],[0.484334,45.138026],[0.48487,45.13759],[0.485065,45.136959],[0.48383,45.136936],[0.479764,45.137039],[0.47778,45.136787],[0.476821,45.136741],[0.475422,45.137154],[0.473341,45.137406],[0.47121,45.137429],[0.469877,45.137234],[0.469243,45.136982],[0.468706,45.136052],[0.468283,45.13572],[0.467812,45.134894],[0.467633,45.134286],[0.46721,45.133793],[0.467064,45.133345],[0.467031,45.132726],[0.466836,45.132347],[0.466901,45.131842],[0.467031,45.131578],[0.46682,45.130867],[0.466364,45.130293],[0.465746,45.129995],[0.465307,45.12964],[0.465128,45.12894],[0.464901,45.128492],[0.464884,45.127815],[0.464641,45.127494],[0.46451,45.126852],[0.464332,45.126484],[0.464315,45.12614],[0.464088,45.125853],[0.464023,45.125589],[0.463746,45.125119],[0.463291,45.124683],[0.462429,45.12505],[0.462657,45.124545],[0.463291,45.123857],[0.463567,45.122847],[0.463437,45.121918],[0.463209,45.121287],[0.463388,45.120701],[0.463063,45.120472],[0.46277,45.119818],[0.461909,45.118602],[0.46051,45.117557],[0.459664,45.116823],[0.45929,45.116375],[0.459095,45.115825],[0.458868,45.115423],[0.458851,45.114872],[0.457745,45.113242],[0.457355,45.112519],[0.457209,45.111521],[0.456786,45.110006],[0.456038,45.109054],[0.454721,45.108732],[0.453778,45.108755],[0.453208,45.10887],[0.452281,45.108904],[0.451631,45.10887],[0.450541,45.109054],[0.450298,45.10918],[0.449907,45.109019],[0.449306,45.109019],[0.44859,45.108893],[0.447566,45.108503],[0.446948,45.107929],[0.446834,45.107596],[0.446135,45.107642],[0.445077,45.10755],[0.444525,45.107493],[0.443874,45.107562],[0.440898,45.107584],[0.440199,45.10747],[0.439727,45.107504],[0.439305,45.107412],[0.437109,45.108319],[0.435239,45.108239],[0.433792,45.107711],[0.428946,45.107883],[0.427612,45.108089],[0.426002,45.10817],[0.425108,45.108124],[0.424799,45.107963],[0.423839,45.108204],[0.422929,45.108193],[0.418262,45.107963],[0.412082,45.107745],[0.410619,45.107263],[0.40974,45.106804],[0.408358,45.105989],[0.40857,45.105691],[0.408814,45.104818],[0.409334,45.103935],[0.410716,45.102821],[0.411464,45.100399],[0.411627,45.099079],[0.411578,45.098172],[0.411757,45.097713],[0.412651,45.096577],[0.409285,45.095061],[0.407822,45.09373],[0.406797,45.093351],[0.406781,45.092961],[0.406651,45.092708],[0.406878,45.092306],[0.407139,45.091376],[0.407822,45.090986],[0.408407,45.090297],[0.408765,45.089516],[0.409122,45.089034],[0.409984,45.088185],[0.411123,45.087392],[0.411871,45.086749],[0.412846,45.086244],[0.413464,45.08567],[0.414115,45.085245],[0.414408,45.08474],[0.414505,45.084166],[0.414115,45.083202],[0.413529,45.082306],[0.412928,45.082203],[0.412115,45.082386],[0.411464,45.082754],[0.410456,45.083661],[0.409675,45.084086],[0.409545,45.084373],[0.408342,45.085016],[0.407464,45.085739],[0.407269,45.085739],[0.406943,45.085463],[0.406683,45.085429],[0.406293,45.085257],[0.406732,45.084866],[0.406651,45.084465],[0.40613,45.084063],[0.405106,45.083822],[0.403431,45.084017],[0.402471,45.083959],[0.400471,45.083603],[0.400292,45.083087],[0.399983,45.082846],[0.399902,45.082203],[0.399642,45.081996],[0.3993,45.081881],[0.399056,45.08156],[0.399203,45.080675],[0.398666,45.080354],[0.397398,45.079757],[0.396406,45.079102],[0.396389,45.078884],[0.396763,45.078413],[0.396682,45.078046],[0.396048,45.077311],[0.395593,45.0756],[0.395381,45.075072],[0.395365,45.074256],[0.395105,45.073705],[0.394405,45.072993],[0.393983,45.072327],[0.394162,45.071718],[0.393885,45.070926],[0.392405,45.070087],[0.391592,45.069238],[0.391413,45.068881],[0.391706,45.068342],[0.391804,45.06779],[0.390763,45.066963],[0.389429,45.066561],[0.389494,45.065447],[0.389608,45.06462],[0.386892,45.063885],[0.386567,45.064264],[0.385348,45.064207],[0.384909,45.064448],[0.384746,45.064804],[0.384762,45.065849],[0.384388,45.066435],[0.383998,45.06686],[0.383754,45.067274],[0.383445,45.067285],[0.383169,45.067503],[0.382453,45.067963],[0.38229,45.068307],[0.381868,45.068399],[0.381396,45.068594],[0.380697,45.06879],[0.379965,45.069249],[0.379184,45.070673],[0.378322,45.070512],[0.377314,45.070616],[0.376713,45.07096],[0.375038,45.071155],[0.374159,45.071385],[0.372972,45.071603],[0.372696,45.07065],[0.372045,45.070731],[0.371997,45.070937],[0.372224,45.071753],[0.371769,45.071959],[0.370923,45.072625],[0.367866,45.073349],[0.366923,45.073418],[0.366272,45.073705],[0.365963,45.074004],[0.365476,45.075118],[0.365118,45.075301],[0.36437,45.075428],[0.362337,45.07614],[0.361573,45.0763],[0.360581,45.076783],[0.359833,45.077047],[0.359719,45.077253],[0.359573,45.077816],[0.358516,45.079229],[0.357751,45.079768],[0.357263,45.080917],[0.356727,45.081617],[0.355995,45.081847],[0.356174,45.082329],[0.356141,45.083179],[0.355995,45.083753],[0.356011,45.084281],[0.356385,45.084843],[0.357117,45.085418],[0.356971,45.086244],[0.3558,45.085934],[0.354499,45.086049],[0.35406,45.085728],[0.353604,45.08559],[0.352564,45.084556],[0.35219,45.083799],[0.351198,45.083018],[0.350368,45.08288],[0.350189,45.082547],[0.349344,45.081583],[0.348563,45.080905],[0.347669,45.080354],[0.345978,45.079676],[0.344189,45.079217],[0.34375,45.078953],[0.343994,45.078654],[0.347002,45.076668],[0.347994,45.076507],[0.345961,45.075542],[0.344644,45.075347],[0.343392,45.075106],[0.343002,45.075301],[0.342107,45.075003],[0.340985,45.074647],[0.33957,45.074027],[0.338757,45.073556],[0.337619,45.07297],[0.333391,45.070087],[0.332789,45.069731],[0.332139,45.069283],[0.331472,45.067917],[0.331163,45.06802],[0.330805,45.067515],[0.330691,45.066653],[0.330187,45.065769],[0.329992,45.065137],[0.329862,45.064207],[0.329456,45.063851],[0.327732,45.063288],[0.327211,45.063277],[0.326382,45.063426],[0.325715,45.063357],[0.32487,45.063231],[0.324447,45.063322],[0.323504,45.063874],[0.322983,45.063931],[0.322284,45.063839],[0.320154,45.064299],[0.319845,45.064758],[0.319113,45.065126],[0.317113,45.065585],[0.315698,45.065815],[0.31456,45.065849],[0.313893,45.065436],[0.312803,45.065275],[0.311535,45.064528],[0.310478,45.064081],[0.309388,45.064195],[0.308266,45.064115],[0.306591,45.064138],[0.306543,45.06462],[0.30625,45.064953],[0.305388,45.065482],[0.304981,45.065551],[0.30464,45.06547],[0.304412,45.064999],[0.303713,45.064517],[0.302656,45.064195],[0.302152,45.063908],[0.299891,45.06222],[0.29929,45.061898],[0.293712,45.059612],[0.291078,45.058107],[0.286687,45.055316],[0.285126,45.058257],[0.283922,45.057981],[0.282833,45.058085],[0.281434,45.057935],[0.280898,45.058349],[0.28093,45.058636],[0.281125,45.0589],[0.28106,45.059245],[0.281076,45.05952],[0.280865,45.059819],[0.279597,45.060083],[0.278149,45.060072],[0.277466,45.059785],[0.277076,45.059888],[0.276035,45.059796],[0.274555,45.060095],[0.274295,45.060256],[0.273108,45.060118],[0.273059,45.057246],[0.272815,45.056074],[0.272962,45.055293],[0.273547,45.055017],[0.273661,45.054684],[0.273352,45.053765],[0.273368,45.053191],[0.273531,45.052938],[0.273515,45.052547],[0.273645,45.051996],[0.273482,45.051192],[0.269693,45.051192],[0.269238,45.050939],[0.26862,45.050778],[0.268539,45.050456],[0.267791,45.050123],[0.266425,45.050479],[0.266067,45.050468],[0.265628,45.050606],[0.264701,45.050629],[0.26405,45.050456],[0.26353,45.05056],[0.263091,45.050192],[0.262099,45.049825],[0.261953,45.049193],[0.261969,45.048561],[0.261855,45.048193],[0.262148,45.047515],[0.261953,45.0467],[0.261123,45.046148],[0.26057,45.04593],[0.260505,45.045217],[0.260343,45.044551],[0.260326,45.043701],[0.260473,45.043138],[0.26044,45.04285],[0.259773,45.042081],[0.259139,45.041609],[0.258733,45.041035],[0.258472,45.040277],[0.258082,45.04015],[0.257399,45.040196],[0.256911,45.039989],[0.256342,45.039541],[0.254781,45.038978],[0.25374,45.037886],[0.253773,45.03676],[0.253204,45.036013],[0.250504,45.034542],[0.248976,45.034083],[0.249463,45.033244],[0.246195,45.029072],[0.247057,45.025946],[0.247496,45.025888],[0.248406,45.026072],[0.249024,45.025992],[0.251057,45.024819],[0.251285,45.024452],[0.251464,45.023796],[0.251252,45.023417],[0.253155,45.022095],[0.254261,45.021279],[0.254716,45.020681],[0.254326,45.020429],[0.254846,45.019118],[0.252976,45.018359],[0.252049,45.017681],[0.251203,45.016842],[0.250504,45.015876],[0.249935,45.015405],[0.248439,45.014566],[0.247008,45.013623],[0.246292,45.013543],[0.246325,45.013129],[0.238828,45.012301],[0.239365,45.006403],[0.240747,45.007438],[0.241398,45.003161],[0.242438,45.00331],[0.24265,45.002597],[0.247203,45.003023],[0.247252,45.002563],[0.246992,45.002218],[0.247122,45.001896],[0.246959,45.001091],[0.24639,45.001034],[0.246504,45.000171],[0.245674,44.999815],[0.245479,44.999849],[0.245268,44.999769],[0.244682,44.999734],[0.24439,44.999642],[0.244536,44.999355],[0.240812,44.997917],[0.240552,44.997687],[0.239511,44.997296],[0.239267,44.997112],[0.238991,44.997089],[0.238714,44.99748],[0.238373,44.99771],[0.236145,44.997906],[0.234112,44.998262],[0.233803,44.997526],[0.232421,44.99702],[0.232356,44.996767],[0.230827,44.99587],[0.231331,44.995353],[0.231022,44.994904],[0.228681,44.99441],[0.228372,44.994168],[0.227819,44.994099],[0.227071,44.994099],[0.225071,44.993812],[0.224599,44.994318],[0.224306,44.994226],[0.225575,44.992673],[0.224908,44.992512],[0.224111,44.99265],[0.220241,44.992581],[0.218273,44.992363],[0.21733,44.992363],[0.216777,44.992432],[0.216549,44.99234],[0.214761,44.992328],[0.211573,44.992018],[0.211573,44.991696],[0.211703,44.991408],[0.211589,44.99119],[0.210695,44.991293],[0.2105,44.990695],[0.210158,44.990603],[0.210191,44.990442],[0.210532,44.990362],[0.209915,44.988878],[0.209508,44.988211],[0.20915,44.987901],[0.208597,44.987613],[0.20837,44.986635],[0.208109,44.986796],[0.206857,44.987233],[0.20663,44.987187],[0.206434,44.987279],[0.206353,44.987509],[0.20567,44.988039],[0.204499,44.988326],[0.203963,44.988683],[0.204028,44.988901],[0.204369,44.989016],[0.204434,44.989154],[0.20476,44.989269],[0.204223,44.990339],[0.203995,44.990304],[0.20354,44.990051],[0.202011,44.989695],[0.201719,44.989764],[0.201198,44.990017],[0.199979,44.989706],[0.199686,44.989499],[0.198482,44.989028],[0.198238,44.988568],[0.197913,44.988418],[0.19736,44.989212],[0.196303,44.990626],[0.195458,44.993743],[0.195637,44.995054],[0.194319,44.994525],[0.194092,44.994916],[0.193799,44.995146],[0.193474,44.995652],[0.19284,44.995893],[0.192482,44.996215],[0.192482,44.996537],[0.191929,44.99717],[0.19123,44.997618],[0.19027,44.997791],[0.189441,44.99771],[0.189002,44.999803],[0.186806,45.001057],[0.185375,45.001712],[0.184627,45.002321],[0.182513,45.00308],[0.181424,45.003977],[0.180302,45.005541],[0.178155,45.005265],[0.176626,45.004184],[0.176854,45.003241],[0.176513,45.002678],[0.175781,45.003195],[0.174805,45.003621],[0.174171,45.003621],[0.173439,45.003322],[0.173,45.00331],[0.17235,45.003471],[0.172041,45.003471],[0.170935,45.003552],[0.169959,45.003506],[0.166447,45.006334],[0.166414,45.007311],[0.166121,45.007633],[0.165552,45.00784],[0.165861,45.009197],[0.164707,45.009277],[0.163162,45.009622],[0.163357,45.008484],[0.16321,45.007955],[0.162251,45.006127],[0.160478,45.005104],[0.159893,45.003862],[0.158576,45.002505],[0.158055,45.001677],[0.157763,45.000896],[0.157698,44.999366],[0.15721,44.998389],[0.156315,44.997032],[0.154218,44.993444],[0.153616,44.992639],[0.152445,44.991385],[0.151843,44.990488],[0.151469,44.989729],[0.151274,44.988913],[0.148022,44.988073],[0.145469,44.987141],[0.144298,44.986969],[0.142607,44.985589],[0.142086,44.98483],[0.140216,44.981805],[0.139875,44.981436],[0.139338,44.981229],[0.138102,44.981114],[0.135029,44.979423],[0.133484,44.978998],[0.129158,44.977364],[0.129402,44.976663],[0.129939,44.976041],[0.130264,44.974696],[0.130524,44.974419],[0.131565,44.97412],[0.132394,44.973476],[0.132703,44.97305],[0.132784,44.972544],[0.132475,44.9719],[0.132264,44.969737],[0.131858,44.969219],[0.131988,44.968633],[0.131744,44.966055],[0.132345,44.964882],[0.132817,44.96311],[0.133565,44.962235],[0.133923,44.960878],[0.134394,44.960532],[0.135744,44.959761],[0.135777,44.959416],[0.134378,44.957679],[0.13324,44.956712],[0.131727,44.955089],[0.131272,44.953536],[0.13137,44.953352],[0.131825,44.953087],[0.132443,44.953283],[0.133191,44.952983],[0.134394,44.952949],[0.13485,44.952788],[0.135077,44.952431],[0.134703,44.951326],[0.139745,44.94907],[0.139533,44.94884],[0.139419,44.948368],[0.138964,44.947781],[0.139549,44.946147],[0.141647,44.944478],[0.143127,44.943949],[0.14581,44.941416],[0.146135,44.940323],[0.146493,44.93786],[0.146396,44.937238],[0.146753,44.935373],[0.14903,44.936018],[0.149843,44.936041],[0.152965,44.935143],[0.153697,44.935028],[0.154705,44.934613],[0.155958,44.934705],[0.156966,44.934095],[0.157226,44.934061],[0.157568,44.934199],[0.160739,44.932702],[0.161828,44.930688],[0.162755,44.930296],[0.165406,44.929697],[0.16669,44.929225],[0.167634,44.928615],[0.168073,44.928109],[0.168192,44.927338],[0.167948,44.926499],[0.16746,44.926153],[0.167251,44.924895],[0.167304,44.924562],[0.16638,44.92445],[0.164376,44.924093],[0.163051,44.924105],[0.161918,44.923932],[0.161256,44.923611],[0.161081,44.92329],[0.160733,44.922279],[0.160105,44.921773],[0.159931,44.921859],[0.159478,44.922254],[0.158903,44.922501],[0.158101,44.923093],[0.157491,44.923759],[0.157055,44.924093],[0.156672,44.92445],[0.15526,44.925018],[0.153744,44.925154],[0.151861,44.925068],[0.150694,44.925092],[0.148899,44.924907],[0.148533,44.924796],[0.150136,44.924031],[0.150903,44.92355],[0.151199,44.923241],[0.151443,44.922427],[0.152105,44.921316],[0.153273,44.920181],[0.154493,44.919465],[0.155818,44.919156],[0.156846,44.919094],[0.15824,44.91907],[0.159792,44.918848],[0.160942,44.918514],[0.162092,44.9177],[0.167426,44.914861],[0.166049,44.913269],[0.165752,44.912689],[0.165718,44.911714],[0.165874,44.910035],[0.166572,44.910047],[0.16807,44.909924],[0.168541,44.909739],[0.172933,44.909517],[0.173665,44.909591],[0.177465,44.909097],[0.177848,44.90869],[0.17858,44.908887],[0.179086,44.908825],[0.179905,44.908319],[0.180567,44.908159],[0.1817,44.908171],[0.181822,44.908838],[0.182484,44.908899],[0.18292,44.908838],[0.183791,44.908455],[0.186162,44.907171],[0.189543,44.904283],[0.192297,44.902604],[0.191582,44.902209],[0.191216,44.901764],[0.191164,44.901172],[0.191408,44.900974],[0.192123,44.900591],[0.192192,44.900394],[0.191809,44.89969],[0.192123,44.899209],[0.192123,44.898554],[0.192053,44.89832],[0.192053,44.897678],[0.193656,44.897764],[0.194789,44.897406],[0.19458,44.897135],[0.194597,44.896912],[0.195295,44.896307],[0.195068,44.896135],[0.196515,44.894344],[0.197595,44.894665],[0.198292,44.894653],[0.199634,44.895493],[0.200576,44.893505],[0.201499,44.892714],[0.202092,44.89243],[0.202789,44.891566],[0.203347,44.891443],[0.203573,44.890023],[0.20387,44.89006],[0.204218,44.889912],[0.208105,44.888393],[0.208715,44.888282],[0.209517,44.887899],[0.209586,44.888677],[0.209499,44.889158],[0.210615,44.888973],[0.210719,44.889504],[0.210946,44.889936],[0.211138,44.889591],[0.212131,44.889319],[0.212985,44.88822],[0.213316,44.888059],[0.213595,44.887689],[0.214188,44.887133],[0.21363,44.885775],[0.21431,44.885701],[0.215599,44.885602],[0.217918,44.884812],[0.218615,44.884256],[0.219016,44.883527],[0.219469,44.88307],[0.219992,44.88228],[0.220636,44.881823],[0.222536,44.880946],[0.224209,44.882206],[0.224488,44.881922],[0.224802,44.881304],[0.225011,44.879983],[0.225046,44.879106],[0.224436,44.878711],[0.223687,44.878378],[0.22346,44.876574],[0.223913,44.87634],[0.223913,44.875883],[0.224,44.875438],[0.223861,44.874734],[0.22407,44.874252],[0.224628,44.873622],[0.224227,44.873363],[0.223861,44.873054],[0.222902,44.87261],[0.22217,44.871733],[0.22088,44.871189],[0.220358,44.871164],[0.217865,44.872017],[0.215826,44.872227],[0.214589,44.872116],[0.214606,44.87051],[0.214902,44.87046],[0.214676,44.869633],[0.215948,44.868682],[0.216349,44.868608],[0.217674,44.867125],[0.218911,44.866347],[0.218981,44.86568],[0.219172,44.864852],[0.220131,44.865149],[0.22088,44.865445],[0.221961,44.864667],[0.223059,44.864],[0.223146,44.863543],[0.223111,44.862962],[0.223355,44.861838],[0.223146,44.861776],[0.223111,44.861517],[0.22285,44.861356],[0.223094,44.860442],[0.223286,44.860257],[0.223477,44.859478],[0.222885,44.859503],[0.221229,44.859404],[0.219486,44.859058],[0.218684,44.85917],[0.217761,44.859083],[0.217203,44.858898],[0.215547,44.85849],[0.215408,44.857366],[0.216018,44.856155],[0.216366,44.854092],[0.216663,44.853264],[0.216732,44.852127],[0.217255,44.850929],[0.216924,44.850496],[0.216872,44.850162],[0.216628,44.849804],[0.216889,44.848816],[0.21736,44.847703],[0.217769,44.846122],[0.218257,44.846248],[0.218841,44.84496],[0.217464,44.844824],[0.216471,44.844589],[0.215199,44.844478],[0.214379,44.844157],[0.213613,44.844021],[0.211992,44.843453],[0.210789,44.842835],[0.212515,44.841055]]],"type":"MultiLineString"},"properties":{"geo_point":{"lon":0.3633509391028505,"lat":45.05773446719577},"name":"GR646 De Périgueux (Dordogne) à Ste-Foy-la-Grande (Gironde) (2019)","code_gr":"GR646"}}]}