{"type":"FeatureCollection","features":[{"type":"Feature","geometry":{"coordinates":[[[1.61611,44.796882],[1.614472,44.796239],[1.61381,44.796164],[1.61313,44.796362],[1.612206,44.796857],[1.610384,44.797237],[1.60997,44.797107],[1.608843,44.796242],[1.608314,44.795687],[1.607808,44.795091],[1.607072,44.794936],[1.606255,44.795099],[1.605094,44.795622],[1.604151,44.79576],[1.603737,44.795622],[1.602518,44.794969],[1.601449,44.794495],[1.601092,44.794267],[1.600264,44.794332],[1.599782,44.794528],[1.599517,44.794806],[1.59931,44.795173],[1.598724,44.795915],[1.598218,44.796176],[1.597528,44.79625],[1.597125,44.796144],[1.596642,44.795793],[1.596033,44.795197],[1.595734,44.794561],[1.596228,44.79412],[1.59563,44.793369],[1.595366,44.793133],[1.594228,44.792668],[1.593227,44.792553],[1.592514,44.792627],[1.591629,44.792855],[1.591353,44.792839],[1.590995,44.792763],[1.590211,44.792813],[1.589392,44.792751],[1.588346,44.792738],[1.586986,44.792553],[1.586289,44.792417],[1.585644,44.792194],[1.585104,44.791959],[1.584233,44.791749],[1.583326,44.791687],[1.582507,44.79191],[1.582228,44.791625],[1.580799,44.791427],[1.580015,44.791415],[1.579143,44.791328],[1.578481,44.791328],[1.578167,44.79144],[1.577941,44.791576],[1.576913,44.791749],[1.576058,44.792033],[1.574246,44.793221],[1.573462,44.793382],[1.573061,44.793617],[1.572538,44.793753],[1.57205,44.794099],[1.571893,44.794309],[1.57137,44.794755],[1.569819,44.795905],[1.569383,44.795917],[1.569035,44.796016],[1.568093,44.795744],[1.567693,44.795348],[1.566839,44.794693],[1.566366,44.794642],[1.565917,44.794863],[1.565365,44.79563],[1.56448,44.796119],[1.563825,44.796772],[1.562824,44.797311],[1.562203,44.797547],[1.561479,44.797996],[1.561168,44.798388],[1.560283,44.799032],[1.560179,44.799244],[1.560869,44.799677],[1.560616,44.79993],[1.560156,44.800085],[1.560076,44.800379],[1.559846,44.800525],[1.559623,44.801161],[1.557479,44.803956],[1.556433,44.804092],[1.556311,44.803746],[1.556381,44.802398],[1.556747,44.801346],[1.557287,44.800926],[1.557165,44.800407],[1.556904,44.799912],[1.556956,44.799615],[1.556329,44.799157],[1.555928,44.798477],[1.554987,44.7975],[1.554185,44.797067],[1.553087,44.797018],[1.55178,44.79724],[1.549915,44.797933],[1.549375,44.797871],[1.54866,44.797315],[1.54798,44.797006],[1.546987,44.797006],[1.546255,44.79708],[1.544791,44.796907],[1.54439,44.796758],[1.544006,44.796498],[1.544198,44.796202],[1.543222,44.793678],[1.542839,44.792367],[1.542142,44.791291],[1.541985,44.790599],[1.542246,44.789943],[1.542142,44.789572],[1.541566,44.789386],[1.540678,44.789349],[1.539614,44.789461],[1.538063,44.79024],[1.536826,44.790611],[1.534525,44.791613],[1.533375,44.791984],[1.532643,44.79233],[1.53212,44.792318],[1.531022,44.791798],[1.530412,44.791316],[1.529384,44.791291],[1.528634,44.791081],[1.52846,44.790747],[1.528338,44.789918],[1.528442,44.789176],[1.52907,44.788446],[1.529157,44.788001],[1.528965,44.787543],[1.527693,44.786418],[1.527257,44.786677],[1.525741,44.786368],[1.525096,44.786059],[1.524312,44.786009],[1.523388,44.785428],[1.52297,44.785292],[1.522377,44.784834],[1.521331,44.784352],[1.520495,44.783634],[1.519439,44.782874],[1.518312,44.782254],[1.517714,44.781683],[1.51569,44.780516],[1.515115,44.780287],[1.514322,44.779822],[1.513321,44.779585],[1.512758,44.779308],[1.512126,44.77925],[1.511424,44.779104],[1.510734,44.779104],[1.508768,44.779512],[1.507641,44.779495],[1.50679,44.77961],[1.506342,44.77983],[1.505031,44.780287],[1.504295,44.780646],[1.503559,44.780793],[1.502432,44.781275],[1.501662,44.781446],[1.500961,44.781276],[1.499026,44.780422],[1.498213,44.779857],[1.497627,44.779418],[1.496587,44.779199],[1.495741,44.779187],[1.495595,44.778668],[1.494847,44.778472],[1.494521,44.778241],[1.493855,44.778091],[1.493659,44.777883],[1.493383,44.77779],[1.493025,44.777352],[1.492456,44.776913],[1.491984,44.776197],[1.490358,44.774547],[1.489675,44.773889],[1.489009,44.772065],[1.4887,44.770968],[1.488618,44.770379],[1.488813,44.769675],[1.48935,44.769409],[1.489106,44.769075],[1.488862,44.768924],[1.488586,44.768936],[1.488244,44.769894],[1.487854,44.770056],[1.486374,44.769421],[1.485675,44.769432],[1.484748,44.769686],[1.483984,44.769294],[1.483154,44.769185],[1.48235,44.769147],[1.481888,44.768971],[1.481695,44.768697],[1.480933,44.768134],[1.480322,44.767699],[1.480064,44.767282],[1.479898,44.766926],[1.479458,44.766506],[1.481244,44.765343],[1.480944,44.765109],[1.480773,44.764782],[1.480914,44.764533],[1.481594,44.763965],[1.481644,44.763709],[1.481624,44.763474],[1.481864,44.76309],[1.482145,44.762856],[1.482345,44.762351],[1.482605,44.761925],[1.482625,44.761548],[1.482615,44.759927],[1.482425,44.75948],[1.481885,44.758527],[1.480373,44.75814],[1.480211,44.757979],[1.479967,44.757078],[1.479479,44.756593],[1.479495,44.756258],[1.480048,44.755207],[1.479495,44.755276],[1.478894,44.755738],[1.478194,44.756166],[1.477983,44.75672],[1.476503,44.757309],[1.475836,44.757078],[1.475609,44.757332],[1.474535,44.757378],[1.473885,44.757136],[1.471657,44.755669],[1.470974,44.75508],[1.471446,44.754815],[1.471901,44.754722],[1.471869,44.754179],[1.472145,44.75359],[1.472194,44.753013],[1.470877,44.752771],[1.47086,44.752378],[1.469933,44.751604],[1.469023,44.752158],[1.468388,44.752251],[1.467055,44.752055],[1.4659,44.752066],[1.465104,44.752216],[1.464811,44.751916],[1.463998,44.751466],[1.46338,44.750877],[1.462843,44.750276],[1.462599,44.749283],[1.462258,44.749029],[1.461461,44.748682],[1.461103,44.748278],[1.460969,44.747576],[1.460719,44.747107],[1.460165,44.746574],[1.459998,44.746272],[1.459854,44.745728],[1.459627,44.745324],[1.459187,44.745006],[1.456566,44.744444],[1.4552,44.744513],[1.45385,44.744397],[1.449167,44.743462],[1.448386,44.743381],[1.447394,44.742919],[1.446679,44.74278],[1.442711,44.742665],[1.442467,44.742526],[1.440938,44.742457],[1.440678,44.741937],[1.440516,44.741879],[1.440288,44.741591],[1.439979,44.741417],[1.439247,44.741371],[1.43858,44.741475],[1.438483,44.741094],[1.439166,44.740077],[1.437995,44.737929],[1.437296,44.738102],[1.43671,44.737987],[1.43606,44.737987],[1.435409,44.737848],[1.434775,44.737837],[1.433035,44.737525],[1.432921,44.738472],[1.432905,44.739523],[1.432742,44.739823],[1.431799,44.740759],[1.428531,44.74144],[1.42827,44.741683],[1.428205,44.742018],[1.42788,44.742018],[1.427555,44.741752],[1.426124,44.741302],[1.425132,44.741059],[1.42375,44.740563],[1.422758,44.739985],[1.422058,44.7398],[1.420936,44.739777],[1.420107,44.739558],[1.419326,44.739477],[1.417419,44.738808],[1.416764,44.73877],[1.415348,44.738808],[1.414773,44.739188],[1.413586,44.739742],[1.413131,44.739777],[1.412984,44.73913],[1.412952,44.738403],[1.412724,44.737629],[1.4117,44.738068],[1.410886,44.738091],[1.410025,44.737987],[1.408968,44.737964],[1.408285,44.738068],[1.407959,44.738195],[1.407211,44.738206],[1.406984,44.738356],[1.405341,44.740563],[1.404187,44.740366],[1.40352,44.740378],[1.402154,44.740574],[1.401991,44.740794],[1.400511,44.74084],[1.397926,44.740747],[1.397194,44.740459],[1.396739,44.740586],[1.396251,44.74032],[1.396218,44.740043],[1.396706,44.739454],[1.396641,44.739084],[1.396153,44.737987],[1.396316,44.737606],[1.397373,44.736855],[1.397731,44.736843],[1.398267,44.737016],[1.397877,44.735931],[1.397292,44.735203],[1.396771,44.734775],[1.396056,44.734336],[1.395064,44.733447],[1.394446,44.733031],[1.393291,44.732707],[1.392852,44.732627],[1.392506,44.732658],[1.392388,44.732886],[1.391895,44.732757],[1.391648,44.732909],[1.391326,44.733062],[1.391208,44.733443],[1.390673,44.733724],[1.39025,44.734082],[1.389079,44.734198],[1.387876,44.735087],[1.386542,44.735388],[1.385843,44.735422],[1.384884,44.736335],[1.383339,44.735596],[1.382526,44.735515],[1.37981,44.735457],[1.379436,44.73578],[1.378916,44.736081],[1.37768,44.736647],[1.377029,44.737167],[1.376558,44.737374],[1.375322,44.737421],[1.374834,44.737525],[1.373322,44.738865],[1.372639,44.739176],[1.372069,44.739558],[1.371582,44.7398],[1.370882,44.740643],[1.370297,44.740747],[1.369272,44.741267],[1.36924,44.741718],[1.36976,44.74211],[1.369695,44.74293],[1.3695,44.743704],[1.369093,44.744051],[1.368264,44.744628],[1.368264,44.745137],[1.368167,44.745668],[1.367955,44.746037],[1.367207,44.746557],[1.365987,44.747239],[1.365321,44.747701],[1.363776,44.746742],[1.363483,44.746523],[1.362963,44.746349],[1.362442,44.747643],[1.362182,44.748012],[1.361304,44.748844],[1.360588,44.749768],[1.359987,44.750299],[1.360052,44.752366],[1.360572,44.753717],[1.361011,44.754122],[1.361255,44.754387],[1.359629,44.754803],[1.358491,44.755357],[1.357564,44.755981],[1.356182,44.756812],[1.355027,44.757678],[1.354084,44.758625],[1.35345,44.759283],[1.353092,44.759815],[1.352669,44.760149],[1.350539,44.7609],[1.349368,44.75993],[1.348636,44.759468],[1.348051,44.75978],[1.347172,44.760796],[1.346522,44.761893],[1.346034,44.762355],[1.345563,44.76262],[1.344961,44.762828],[1.343823,44.763486],[1.342912,44.763971],[1.34244,44.764087],[1.342196,44.764376],[1.342099,44.764826],[1.340879,44.765934],[1.339432,44.766419],[1.338391,44.766835],[1.337741,44.767239],[1.337155,44.767354],[1.336553,44.767574],[1.335968,44.767689],[1.335318,44.7674],[1.334147,44.767285],[1.333366,44.767389],[1.332553,44.767585],[1.331073,44.767885],[1.330667,44.768047],[1.330163,44.768393],[1.329789,44.768809],[1.32904,44.769167],[1.328618,44.769571],[1.328292,44.769883],[1.328065,44.769906],[1.327479,44.769744],[1.326748,44.769767],[1.326243,44.769606],[1.325154,44.770183],[1.324471,44.771083],[1.324081,44.771291],[1.324243,44.772284],[1.324894,44.772746],[1.324991,44.773127],[1.324861,44.774639],[1.325495,44.774801],[1.325788,44.775043],[1.32556,44.77532],[1.325625,44.775436],[1.323755,44.777375],[1.321999,44.780053],[1.321316,44.779822],[1.320747,44.77906],[1.320438,44.77951],[1.319365,44.780041],[1.318047,44.780549],[1.317364,44.781023],[1.316698,44.781369],[1.316779,44.781796],[1.315283,44.782719],[1.314145,44.783169],[1.313429,44.78355],[1.31312,44.784024],[1.312437,44.78467],[1.311949,44.785028],[1.311559,44.785593],[1.311543,44.785951],[1.311591,44.786494],[1.311445,44.787682],[1.311331,44.787936],[1.312144,44.78819],[1.311819,44.789275],[1.312063,44.789737],[1.312551,44.791352],[1.312941,44.791629],[1.313071,44.792195],[1.312632,44.792264],[1.312421,44.792483],[1.31151,44.794249],[1.311266,44.795103],[1.310648,44.795645],[1.31003,44.797446],[1.309754,44.798011],[1.309038,44.798461],[1.307981,44.799096],[1.307445,44.799707],[1.307266,44.800169],[1.307266,44.800573],[1.306876,44.801357],[1.306762,44.802188],[1.306859,44.802615],[1.306599,44.802811],[1.304355,44.80348],[1.301054,44.804219],[1.300696,44.804115],[1.298549,44.805096],[1.297427,44.805811],[1.297183,44.806296],[1.297216,44.806711],[1.297444,44.807265],[1.295362,44.807034],[1.294468,44.807299],[1.293394,44.807346],[1.293134,44.807149],[1.29276,44.806619],[1.293541,44.806099],[1.293671,44.805523],[1.293346,44.804126],[1.292825,44.802477],[1.293199,44.800676],[1.292598,44.800953],[1.291541,44.801046],[1.291394,44.801438],[1.291524,44.801738],[1.29128,44.802015],[1.290874,44.802096],[1.290061,44.80183],[1.289573,44.801957],[1.289378,44.802211],[1.287443,44.803377],[1.286841,44.803238],[1.285768,44.803884],[1.284987,44.804023],[1.284402,44.804034],[1.283605,44.804207],[1.282564,44.80468],[1.281523,44.80423],[1.280808,44.803988],[1.280694,44.802996],[1.280434,44.802627],[1.280304,44.802234],[1.279328,44.801773],[1.278645,44.8016],[1.277848,44.80153],[1.277051,44.8013],[1.276628,44.801034],[1.275506,44.800573],[1.274352,44.800411],[1.273864,44.800446],[1.272579,44.80085],[1.272043,44.800942],[1.271246,44.801207],[1.270693,44.801553],[1.27001,44.802096],[1.269945,44.802327],[1.270221,44.802615],[1.270286,44.803007],[1.270026,44.803573],[1.269229,44.803688],[1.268498,44.803896],[1.267066,44.804173],[1.266383,44.804565],[1.264952,44.804934],[1.264481,44.805257],[1.264009,44.805384],[1.263717,44.805234],[1.263164,44.805188],[1.263619,44.804957],[1.264139,44.80498],[1.265408,44.804023],[1.265554,44.80378],[1.265213,44.803342],[1.264432,44.803111],[1.263131,44.802477],[1.262692,44.802603],[1.261521,44.80175],[1.260269,44.801069],[1.258057,44.800492],[1.255911,44.799361],[1.254626,44.798415],[1.252545,44.797619],[1.251114,44.797122],[1.250447,44.79673],[1.247048,44.795795],[1.245487,44.795611],[1.244202,44.795345],[1.244137,44.794376],[1.243926,44.793637],[1.24256,44.793741],[1.240706,44.794134],[1.239535,44.794503],[1.236364,44.79598],[1.234722,44.796534],[1.231144,44.797538],[1.230591,44.797849],[1.230575,44.798069],[1.229973,44.798173],[1.228542,44.798542],[1.227859,44.79883],[1.22677,44.799084],[1.226087,44.799419],[1.225176,44.80003],[1.224737,44.800596],[1.224412,44.800873],[1.22407,44.800965],[1.222037,44.801807],[1.221387,44.801807],[1.220671,44.801888],[1.22007,44.801877],[1.218655,44.802257],[1.218492,44.802177],[1.218086,44.802211],[1.217565,44.80205],[1.217159,44.802015],[1.216834,44.801807],[1.216297,44.801692],[1.216248,44.801577],[1.215012,44.801323],[1.214508,44.8013],[1.213939,44.801553],[1.213565,44.801069],[1.213321,44.800965],[1.213467,44.800596],[1.213402,44.800411],[1.213077,44.800711],[1.212589,44.80093],[1.211662,44.801265],[1.210979,44.801403],[1.209695,44.801403],[1.209158,44.801196],[1.207158,44.799984],[1.206231,44.799926],[1.205336,44.800076],[1.203889,44.80093],[1.203564,44.801277],[1.203401,44.802223],[1.203759,44.803261],[1.203174,44.803284],[1.203125,44.803711],[1.203043,44.80393],[1.199352,44.804265],[1.198604,44.804103],[1.198393,44.804346],[1.197726,44.80483],[1.196978,44.805707],[1.194311,44.806261],[1.194799,44.807334],[1.193921,44.807403],[1.191725,44.807819],[1.189579,44.808476],[1.187985,44.808903],[1.187383,44.808938],[1.186635,44.809226],[1.186066,44.809457],[1.18592,44.809711],[1.184245,44.810391],[1.183871,44.810737],[1.182602,44.81151],[1.181659,44.811187],[1.181025,44.810934],[1.180537,44.810887],[1.18013,44.811418],[1.17987,44.81136],[1.178764,44.810611],[1.17826,44.810934],[1.177756,44.810749],[1.177464,44.810276],[1.177203,44.810345],[1.176927,44.810784],[1.176829,44.811591],[1.177041,44.812006],[1.176927,44.812779],[1.176992,44.813449],[1.176959,44.813898],[1.176537,44.814118],[1.175284,44.814406],[1.174455,44.814729],[1.173886,44.815283],[1.173723,44.815836],[1.173772,44.816402],[1.174,44.816932],[1.173788,44.817405],[1.173626,44.817175],[1.173675,44.816852],[1.173073,44.81654],[1.172439,44.816517],[1.172325,44.817025],[1.171918,44.81744],[1.171251,44.817544],[1.169625,44.817313],[1.168341,44.816771],[1.167576,44.816356],[1.167186,44.815929],[1.167105,44.815733],[1.167121,44.815433],[1.166324,44.815237],[1.16195,44.813898],[1.161104,44.813806],[1.158453,44.814037],[1.157608,44.813968],[1.157169,44.813772],[1.157039,44.813506],[1.156957,44.812779],[1.156502,44.811545],[1.156502,44.809618],[1.157055,44.808672],[1.15777,44.807657],[1.157104,44.807369],[1.156437,44.807715],[1.154713,44.808534],[1.154307,44.808453],[1.153754,44.809653],[1.153461,44.809849],[1.153315,44.810241],[1.152209,44.812133],[1.151884,44.812883],[1.151461,44.813472],[1.150745,44.813841],[1.149867,44.813887],[1.150371,44.814164],[1.149802,44.814245],[1.149639,44.814591],[1.149347,44.814498],[1.149198,44.814785],[1.148973,44.814792],[1.148887,44.814883],[1.148522,44.814792],[1.1482,44.814838],[1.147839,44.81521],[1.147513,44.81536],[1.147217,44.815414],[1.14721,44.815559],[1.14727,44.815662],[1.147111,44.815732],[1.146714,44.816002],[1.146628,44.816116],[1.147111,44.816148],[1.146899,44.816327],[1.147168,44.816327],[1.147273,44.816442],[1.147111,44.816656],[1.147143,44.816898],[1.146916,44.817417],[1.146664,44.817509],[1.146338,44.818092],[1.146176,44.818565],[1.146086,44.819003],[1.145964,44.818928],[1.145728,44.818876],[1.145623,44.818743],[1.145574,44.818593],[1.145338,44.818484],[1.144598,44.818565],[1.144149,44.817743],[1.144874,44.817399],[1.145472,44.816643],[1.145322,44.816458],[1.14492,44.816369],[1.143983,44.81622],[1.143466,44.816369],[1.142849,44.816474],[1.142541,44.816272],[1.142172,44.816133],[1.141753,44.815704],[1.141469,44.815398],[1.141087,44.815197],[1.141013,44.814734],[1.140101,44.814393],[1.139289,44.815106],[1.138803,44.815583],[1.138467,44.815861],[1.137832,44.81602],[1.137533,44.816537],[1.137028,44.816537],[1.136599,44.817147],[1.135627,44.817862],[1.135291,44.817876],[1.134861,44.81777],[1.13445,44.817902],[1.133853,44.81777],[1.133124,44.817915],[1.131555,44.81822],[1.130229,44.818366],[1.129369,44.818247],[1.129033,44.818657],[1.12866,44.818763],[1.126922,44.818922],[1.126437,44.81928],[1.12554,44.819757],[1.124774,44.819717],[1.124401,44.820155],[1.123018,44.820486],[1.122514,44.820897],[1.122103,44.821466],[1.121692,44.822261],[1.121748,44.822659],[1.121954,44.823056],[1.121505,44.823891],[1.121487,44.824593],[1.12031,44.825017],[1.119413,44.82556],[1.118647,44.825812],[1.117975,44.825931],[1.117769,44.826249],[1.117508,44.826435],[1.117508,44.8267],[1.115789,44.825547],[1.115939,44.824686],[1.115827,44.824183],[1.115621,44.823865],[1.115247,44.824222],[1.114201,44.823785],[1.114145,44.823388],[1.113454,44.823056],[1.115322,44.820459],[1.115191,44.819267],[1.113846,44.817558],[1.113006,44.816617],[1.112016,44.815716],[1.11168,44.814947],[1.111511,44.814099],[1.1111,44.813463],[1.110914,44.812906],[1.109793,44.813171],[1.107252,44.813039],[1.105945,44.813238],[1.103965,44.813105],[1.103199,44.813211],[1.102638,44.813436],[1.102246,44.81345],[1.101835,44.81341],[1.101574,44.813569],[1.101555,44.813781],[1.101312,44.81398],[1.100939,44.813715],[1.100359,44.813609],[1.100061,44.813741],[1.097968,44.814072],[1.097203,44.814338],[1.096623,44.814669],[1.096437,44.815464],[1.094868,44.814616],[1.09498,44.814311],[1.094662,44.81398],[1.093784,44.81398],[1.093878,44.812429],[1.09214,44.812496],[1.091636,44.812496],[1.090963,44.812734],[1.09016,44.812986],[1.090552,44.813317],[1.090515,44.813516],[1.090198,44.813489],[1.089749,44.813264],[1.089226,44.813476],[1.088217,44.813768],[1.087396,44.81394],[1.086966,44.814271],[1.086406,44.814364],[1.085957,44.814894],[1.085378,44.815199],[1.084743,44.815345],[1.08323,44.81508],[1.082072,44.814735],[1.082109,44.81508],[1.081623,44.815888],[1.081306,44.817412],[1.081212,44.818631],[1.080596,44.819293],[1.079924,44.819797],[1.078224,44.820287],[1.078074,44.820499],[1.077906,44.82095],[1.077196,44.821692],[1.076879,44.822235],[1.076767,44.822858],[1.076318,44.823295],[1.076785,44.824077],[1.076057,44.824156],[1.075179,44.824487],[1.075478,44.824938],[1.075067,44.82507],[1.074488,44.825507],[1.073124,44.82613],[1.072526,44.826196],[1.07191,44.82617],[1.072153,44.82666],[1.072059,44.827415],[1.07219,44.82772],[1.072601,44.828157],[1.072769,44.828992],[1.071443,44.829217],[1.071088,44.829058],[1.070714,44.828568],[1.070285,44.829243],[1.070322,44.829641],[1.070173,44.829787],[1.070023,44.830542],[1.069836,44.830833],[1.069911,44.831549],[1.070415,44.832079],[1.072041,44.833138],[1.072713,44.833416],[1.07247,44.833933],[1.072265,44.834013],[1.072059,44.834331],[1.071349,44.834754],[1.070714,44.835019],[1.068865,44.836225],[1.067595,44.842384],[1.065391,44.842702],[1.064158,44.842768],[1.063168,44.842993],[1.061748,44.843007],[1.05874,44.845073],[1.055826,44.847285],[1.05379,44.848503],[1.05252,44.849165],[1.051381,44.849907],[1.048821,44.851416],[1.046262,44.852582],[1.044787,44.853231],[1.043273,44.853707],[1.042489,44.853893],[1.040266,44.854701],[1.039687,44.855005],[1.039351,44.854992],[1.03851,44.855363],[1.038043,44.855508],[1.038566,44.859097],[1.038958,44.860077],[1.039351,44.860606],[1.039836,44.861215],[1.03978,44.861427],[1.0395,44.861546],[1.039052,44.861692],[1.039463,44.864089],[1.040714,44.865055],[1.042713,44.866776],[1.042676,44.867081],[1.04247,44.86769],[1.042891,44.869192],[1.04301,44.869188],[1.043002,44.869315],[1.042823,44.869372],[1.042875,44.869508],[1.042982,44.869519],[1.043218,44.869603],[1.042982,44.869743],[1.042902,44.869842],[1.042972,44.869911],[1.042671,44.87007],[1.04228,44.870131],[1.04229,44.870181],[1.041974,44.870359],[1.04199,44.870412],[1.041722,44.870633],[1.042162,44.870895],[1.04243,44.870804],[1.042736,44.870648],[1.043363,44.870492],[1.043454,44.870625],[1.04317,44.870796],[1.042832,44.870922],[1.042639,44.871089],[1.042446,44.871431],[1.042452,44.871939],[1.04262,44.872403],[1.042825,44.872522],[1.043068,44.873078],[1.043759,44.873832],[1.044376,44.874124],[1.044824,44.875487],[1.044824,44.87599],[1.044413,44.876983],[1.044488,44.877724],[1.04473,44.878201],[1.046131,44.880067],[1.046468,44.880782],[1.046953,44.881338],[1.047084,44.881722],[1.046542,44.883522],[1.046636,44.884078],[1.047009,44.884488],[1.047364,44.884726],[1.047645,44.885269],[1.048504,44.886023],[1.049382,44.886976],[1.049849,44.887902],[1.050054,44.888657],[1.05011,44.889451],[1.049886,44.890457],[1.049232,44.892058],[1.049083,44.892442],[1.04841,44.893408],[1.048429,44.893765],[1.04828,44.89403],[1.04912,44.894321],[1.048224,44.89534],[1.048093,44.897272],[1.047047,44.897298],[1.044114,44.897126],[1.043853,44.897497],[1.042937,44.89788],[1.042041,44.898595],[1.041219,44.899482],[1.041368,44.900725],[1.041555,44.901334],[1.041349,44.901466],[1.041424,44.902062],[1.041891,44.902194],[1.041742,44.902459],[1.040677,44.903239],[1.040602,44.904271],[1.040714,44.904933],[1.040621,44.905237],[1.040154,44.905793],[1.039799,44.90611],[1.039257,44.906706],[1.038192,44.90705],[1.036997,44.90697],[1.034923,44.906375],[1.033784,44.906362],[1.03328,44.906296],[1.033541,44.907076],[1.032532,44.907208],[1.032476,44.907433],[1.033055,44.907751],[1.033597,44.908875],[1.033765,44.909021],[1.033765,44.909299],[1.034064,44.909815],[1.034102,44.910013],[1.034251,44.910331],[1.03285,44.910807],[1.031449,44.911693],[1.031225,44.912143],[1.031057,44.91336],[1.031897,44.914088],[1.031953,44.914445],[1.031244,44.916059],[1.03087,44.916244],[1.03031,44.91635],[1.029917,44.916323],[1.029786,44.916747],[1.029338,44.917527],[1.029824,44.918162],[1.029749,44.918797],[1.029861,44.919352],[1.029263,44.920212],[1.029245,44.920662],[1.028983,44.921046],[1.029077,44.921363],[1.030085,44.921495],[1.031038,44.921707],[1.03186,44.922249],[1.031729,44.922897],[1.03044,44.924114],[1.030029,44.924127],[1.029021,44.923797],[1.029319,44.924709],[1.028946,44.926733],[1.029226,44.927024],[1.029656,44.928505],[1.029151,44.928981],[1.028666,44.929801],[1.028516,44.930502],[1.027937,44.931388],[1.027059,44.932327],[1.026443,44.932816],[1.025882,44.933041],[1.025434,44.933028],[1.024948,44.932949],[1.024126,44.933028],[1.02394,44.933015],[1.023902,44.933398],[1.024855,44.933663],[1.024706,44.9348],[1.023099,44.934945],[1.022184,44.93513],[1.022664,44.9353],[1.022756,44.935426],[1.022978,44.935562],[1.022553,44.935514],[1.022282,44.935527],[1.02238,44.935706],[1.022023,44.936177]]],"type":"MultiLineString"},"properties":{"geo_point":{"lon":1.284387557767995,"lat":44.803604196270776},"name":"GR64 De Rocamadour (Lot) à Les Eyzies-de-Tayac-Sireuil (Dordogne) (2019)","code_gr":"GR64"}}]}