{"type":"FeatureCollection","features":[{"type":"Feature","geometry":{"coordinates":[[[1.949848,44.58062],[1.949408,44.581276],[1.948899,44.581518],[1.947887,44.581649],[1.946484,44.58201],[1.947799,44.582062],[1.948764,44.581978],[1.94855,44.583015],[1.949193,44.584026],[1.949494,44.584309],[1.94958,44.584515],[1.950138,44.58453],[1.95113,44.584909],[1.950814,44.585968],[1.950084,44.587563],[1.949655,44.587803],[1.949354,44.588184],[1.948689,44.588261],[1.946404,44.588894],[1.945288,44.589329],[1.943378,44.589687],[1.941973,44.590244],[1.940825,44.590546],[1.940331,44.591064],[1.940256,44.59166],[1.936963,44.592911],[1.935257,44.593716],[1.934677,44.59409],[1.934077,44.594067],[1.932521,44.594624],[1.931995,44.59454],[1.9306,44.594776],[1.929656,44.595119],[1.928937,44.595173],[1.928613,44.594699],[1.928247,44.594661],[1.923702,44.595348],[1.922597,44.595409],[1.921729,44.595307],[1.920596,44.59548],[1.919432,44.595409],[1.918209,44.595615],[1.917608,44.596073],[1.917075,44.596064],[1.91711,44.599042],[1.917468,44.599567],[1.917136,44.599758],[1.916374,44.600559],[1.915419,44.600422],[1.914432,44.600513],[1.913692,44.600742],[1.912984,44.601025],[1.911074,44.601429],[1.909046,44.602722],[1.907244,44.604744],[1.906804,44.606426],[1.906879,44.607243],[1.907254,44.608513],[1.90704,44.609222],[1.906557,44.609818],[1.905752,44.610046],[1.904347,44.610023],[1.903585,44.609726],[1.902201,44.609009],[1.900924,44.607632],[1.90057,44.607456],[1.89942,44.607208],[1.899193,44.606724],[1.897049,44.605706],[1.897234,44.604725],[1.897032,44.604428],[1.89202,44.604332],[1.891655,44.604164],[1.891805,44.603973],[1.892481,44.603706],[1.893685,44.602802],[1.894191,44.60212],[1.894112,44.601177],[1.893738,44.600531],[1.892985,44.600002],[1.88996,44.599178],[1.889015,44.598736],[1.887159,44.59816],[1.886376,44.597649],[1.88511,44.596977],[1.884037,44.596558],[1.883136,44.59639],[1.880486,44.5961],[1.878726,44.596027],[1.877643,44.595844],[1.876709,44.595356],[1.876312,44.594784],[1.875937,44.593746],[1.875969,44.593056],[1.875755,44.592079],[1.875411,44.591026],[1.875443,44.590374],[1.875325,44.589993],[1.874821,44.589924],[1.874467,44.590107],[1.874135,44.590652],[1.873749,44.590732],[1.872418,44.589725],[1.871409,44.589443],[1.870744,44.589443],[1.869264,44.589832],[1.867998,44.590443],[1.866839,44.591293],[1.865616,44.591888],[1.864575,44.591927],[1.862472,44.592209],[1.860863,44.592232],[1.85891,44.592529],[1.857548,44.592461],[1.85625,44.592674],[1.854469,44.593079],[1.853836,44.59333],[1.851894,44.593639],[1.849619,44.593369],[1.849083,44.593414],[1.846508,44.59314],[1.846261,44.593018],[1.843289,44.592773],[1.842817,44.592545],[1.842281,44.59272],[1.84183,44.593033],[1.841379,44.593079],[1.841025,44.592873],[1.840757,44.592476],[1.840703,44.592278],[1.84051,44.592285],[1.840124,44.592972],[1.838418,44.593224],[1.838654,44.593937],[1.839158,44.594371],[1.840693,44.595112],[1.84036,44.595417],[1.840296,44.595615],[1.839073,44.595166],[1.838547,44.594746],[1.838526,44.595264],[1.838906,44.59584],[1.838644,44.596151],[1.838104,44.596337],[1.837667,44.596504],[1.838032,44.596817],[1.838794,44.59716],[1.83668,44.596603],[1.836026,44.596687],[1.832507,44.597702],[1.831938,44.597702],[1.831477,44.597557],[1.831176,44.59758],[1.830661,44.597008],[1.830844,44.596268],[1.830592,44.595828],[1.829342,44.59499],[1.828923,44.59354],[1.828365,44.592896],[1.827893,44.592567],[1.827518,44.592552],[1.827132,44.592621],[1.827421,44.592026],[1.827593,44.591484],[1.827196,44.591209],[1.827625,44.590874],[1.828558,44.590752],[1.828666,44.59045],[1.828945,44.590221],[1.82888,44.589817],[1.829545,44.588863],[1.829996,44.58791],[1.830897,44.587372],[1.831477,44.587219],[1.831584,44.586945],[1.831112,44.586555],[1.830683,44.585541],[1.830822,44.584484],[1.831627,44.582905],[1.832142,44.58168],[1.83123,44.580479],[1.831938,44.580235],[1.831992,44.579769],[1.831659,44.579548],[1.830854,44.579266],[1.830651,44.578892],[1.830897,44.577995],[1.83109,44.577827],[1.830554,44.577675],[1.829921,44.577789],[1.829385,44.577667],[1.829363,44.577309],[1.828129,44.57737],[1.826005,44.576859],[1.825619,44.576447],[1.824353,44.575707],[1.823725,44.575222],[1.822923,44.57485],[1.822052,44.574713],[1.821402,44.574947],[1.82005,44.575176],[1.819578,44.575542],[1.819139,44.576202],[1.817819,44.577057],[1.817679,44.576569],[1.817658,44.576012],[1.8171,44.575764],[1.814826,44.575863],[1.814171,44.576759],[1.813624,44.576714],[1.811725,44.576912],[1.810566,44.577187],[1.809483,44.577637],[1.809129,44.577721],[1.808463,44.577934],[1.808152,44.578156],[1.80768,44.578033],[1.806331,44.577122],[1.80562,44.576958],[1.804815,44.576563],[1.802841,44.575817],[1.800052,44.57481],[1.799515,44.574467],[1.799204,44.574329],[1.798357,44.574215],[1.797512,44.573881],[1.796396,44.573683],[1.794988,44.573814],[1.794055,44.573959],[1.793572,44.574139],[1.793293,44.574039],[1.79319,44.573348],[1.793164,44.571831],[1.793239,44.570889],[1.792949,44.570805],[1.792445,44.57095],[1.792134,44.570988],[1.791362,44.571301],[1.790696,44.57143],[1.789967,44.571453],[1.789999,44.571331],[1.790407,44.571278],[1.789505,44.570835],[1.788872,44.570644],[1.789012,44.570538],[1.788186,44.570278],[1.787467,44.569828],[1.786373,44.569736],[1.786298,44.569534],[1.786298,44.569084],[1.78575,44.568268],[1.785665,44.567562],[1.785171,44.567226],[1.785128,44.566891],[1.785493,44.566517],[1.785622,44.566105],[1.785536,44.5658],[1.784956,44.565365],[1.784753,44.564995],[1.784495,44.564705],[1.783787,44.564682],[1.78309,44.564201],[1.781534,44.563408],[1.780504,44.562771],[1.780128,44.562351],[1.780558,44.561764],[1.780246,44.561543],[1.779485,44.561817],[1.778916,44.561932],[1.778412,44.563313],[1.77765,44.563652],[1.777382,44.564629],[1.777092,44.565163],[1.776416,44.566181],[1.775955,44.567444],[1.775966,44.568306],[1.775901,44.56884],[1.775912,44.57024],[1.775794,44.570606],[1.775773,44.571316],[1.775676,44.571484],[1.775558,44.572189],[1.775022,44.572853],[1.774549,44.573532],[1.773509,44.574139],[1.772157,44.574604],[1.771299,44.574734],[1.770194,44.57452],[1.769593,44.574306],[1.768789,44.574229],[1.767656,44.574229],[1.766715,44.575061],[1.765687,44.575707],[1.765183,44.575726],[1.761707,44.574055],[1.759926,44.571102],[1.758585,44.564682],[1.759132,44.563614],[1.758853,44.563553],[1.758757,44.563274],[1.758553,44.563213],[1.758649,44.562885],[1.757716,44.562313],[1.757705,44.561787],[1.758714,44.561111],[1.759422,44.56041],[1.759958,44.560196],[1.759937,44.560074],[1.760763,44.559563],[1.761138,44.559017],[1.761492,44.558994],[1.763692,44.557941],[1.764336,44.557835],[1.765838,44.557327],[1.766213,44.557137],[1.766767,44.557106],[1.766488,44.556448],[1.766558,44.556336],[1.767517,44.557118],[1.76783,44.557466],[1.767935,44.557429],[1.767883,44.55687],[1.767464,44.556212],[1.767482,44.556063],[1.768231,44.556348],[1.768702,44.556708],[1.768928,44.556696],[1.769033,44.556534],[1.769068,44.555777],[1.769835,44.554758],[1.769957,44.554349],[1.770148,44.554075],[1.769835,44.553752],[1.769713,44.553417],[1.768214,44.553603],[1.766785,44.553057],[1.765931,44.553119],[1.76349,44.552846],[1.761504,44.552312],[1.762166,44.552833],[1.761103,44.552312],[1.760737,44.55225],[1.760283,44.551939],[1.75998,44.551907],[1.759508,44.551601],[1.758059,44.551365],[1.757619,44.55109],[1.757179,44.551067],[1.756396,44.550808],[1.755785,44.550838],[1.755227,44.550716],[1.754712,44.550716],[1.754658,44.550724],[1.754175,44.55061],[1.753778,44.550602],[1.753124,44.550442],[1.752684,44.550556],[1.752427,44.550526],[1.751815,44.550678],[1.750989,44.550617],[1.75071,44.550777],[1.75027,44.550716],[1.749573,44.550747],[1.749326,44.550877],[1.749154,44.551182],[1.748747,44.550785],[1.748275,44.551548],[1.747792,44.550785],[1.748049,44.550152],[1.747985,44.549698],[1.74747,44.549706],[1.747084,44.549995],[1.747073,44.549347],[1.746483,44.549751],[1.74556,44.549751],[1.744906,44.549843],[1.745603,44.54911],[1.744605,44.548424],[1.744412,44.548069],[1.743661,44.548191],[1.743554,44.547665],[1.741687,44.546963],[1.74143,44.547245],[1.740968,44.547329],[1.7404,44.547131],[1.73967,44.5466],[1.739563,44.546249],[1.739005,44.545853],[1.738801,44.545189],[1.738662,44.544613],[1.738179,44.544399],[1.738189,44.543911],[1.7379,44.543751],[1.736484,44.543758],[1.736248,44.543652],[1.736902,44.543114],[1.737149,44.542122],[1.737471,44.541649],[1.738544,44.541443],[1.738356,44.540298],[1.736848,44.54047],[1.736172,44.540379],[1.735346,44.539944],[1.734681,44.53997],[1.73364,44.540142],[1.733555,44.540653],[1.73364,44.54108],[1.733522,44.541363],[1.733243,44.541279],[1.73245,44.540714],[1.731591,44.540592],[1.73157,44.539551],[1.731323,44.539154],[1.730765,44.538589],[1.731366,44.538013],[1.731645,44.537487],[1.73142,44.537151],[1.730433,44.536781],[1.72878,44.535759],[1.728673,44.535053],[1.72775,44.535675],[1.727428,44.535667],[1.726913,44.535271],[1.726484,44.534649],[1.725454,44.534702],[1.723877,44.534718],[1.723598,44.534435],[1.723051,44.534504],[1.722933,44.533688],[1.722579,44.532646],[1.722343,44.531208],[1.722515,44.530491],[1.722982,44.529965],[1.72287,44.529672],[1.723505,44.528287],[1.723337,44.527329],[1.723393,44.525771],[1.723599,44.525637],[1.72358,44.525238],[1.72386,44.524905],[1.723767,44.523347],[1.723935,44.522787],[1.723897,44.522374],[1.723991,44.521775],[1.723561,44.521256],[1.723767,44.520683],[1.72358,44.519617],[1.723132,44.518525],[1.722665,44.518086],[1.722272,44.517913],[1.721619,44.518046],[1.720871,44.519138],[1.720819,44.519215],[1.720272,44.519703],[1.719886,44.519924],[1.719457,44.520248],[1.717826,44.52047],[1.716474,44.520065],[1.715552,44.51955],[1.714962,44.519749],[1.714103,44.520554],[1.713427,44.521255],[1.71302,44.521309],[1.712354,44.522251],[1.712494,44.522678],[1.712708,44.522907],[1.71229,44.522755],[1.711968,44.522243],[1.711968,44.522945],[1.711915,44.523399],[1.711271,44.523499],[1.710327,44.523323],[1.709747,44.523582],[1.70802,44.524876],[1.707698,44.525501],[1.706872,44.526733],[1.705917,44.527306],[1.705874,44.527706],[1.705595,44.527897],[1.704823,44.527576],[1.704555,44.527714],[1.704308,44.528278],[1.703675,44.528652],[1.703203,44.529427],[1.702409,44.530045],[1.701926,44.530121],[1.700917,44.530037],[1.700445,44.530121],[1.69948,44.530956],[1.698847,44.531853],[1.69874,44.52993],[1.698482,44.529076],[1.698536,44.528439],[1.698257,44.527493],[1.697913,44.526962],[1.697366,44.526596],[1.696733,44.525936],[1.696411,44.525394],[1.695853,44.525463],[1.694448,44.525417],[1.691444,44.525745],[1.690328,44.525707],[1.68977,44.525768],[1.689395,44.525974],[1.689169,44.526321],[1.688086,44.526642],[1.687367,44.527008],[1.68668,44.527245],[1.686198,44.527374],[1.685382,44.5275],[1.684835,44.527744],[1.684138,44.527561],[1.683151,44.527515],[1.6827,44.527515],[1.682754,44.527821],[1.683097,44.528248],[1.682893,44.528561],[1.682281,44.528622],[1.681219,44.528454],[1.680844,44.528584],[1.680028,44.529259],[1.679074,44.529869],[1.679009,44.530167],[1.678666,44.530396],[1.678183,44.529991],[1.677872,44.528942],[1.677003,44.528324],[1.67666,44.527813],[1.675726,44.527267],[1.674814,44.527447],[1.673999,44.527683],[1.673323,44.527409],[1.672089,44.527409],[1.671091,44.526787],[1.670415,44.526932],[1.669289,44.526947],[1.668313,44.527176],[1.667454,44.527184],[1.666918,44.527084],[1.666585,44.526772],[1.664933,44.525738],[1.664332,44.525486],[1.663817,44.524952],[1.66224,44.524429],[1.662611,44.523596],[1.662873,44.522775],[1.662785,44.52262],[1.662254,44.522235],[1.661984,44.521738],[1.661544,44.521429],[1.661413,44.521056],[1.661768,44.520057],[1.661637,44.519617],[1.660853,44.518845],[1.660404,44.517859],[1.660348,44.516594],[1.66046,44.515475],[1.660909,44.514836],[1.661226,44.513557],[1.661525,44.512784],[1.661824,44.511839],[1.662291,44.511159],[1.662422,44.510187],[1.662777,44.50988],[1.663188,44.509721],[1.663412,44.509188],[1.663189,44.509028],[1.663719,44.508878],[1.663349,44.508746],[1.663017,44.508738],[1.663177,44.508623],[1.662154,44.508527],[1.66137,44.508613],[1.660979,44.508605],[1.660637,44.50873],[1.660379,44.508909],[1.660182,44.50892],[1.659878,44.508833],[1.659135,44.508746],[1.658384,44.508341],[1.65783,44.508],[1.657162,44.50734],[1.656894,44.507172],[1.656424,44.506463],[1.656023,44.506339],[1.655692,44.506302],[1.655239,44.506066],[1.655134,44.505631],[1.65482,44.505382],[1.654106,44.505109],[1.653949,44.505332],[1.652502,44.505059],[1.651997,44.505059],[1.65194,44.505093],[1.651661,44.505444],[1.650546,44.506348],[1.649988,44.506668],[1.649494,44.506828],[1.648872,44.507263],[1.647305,44.507641],[1.646715,44.507687],[1.646436,44.507626],[1.645288,44.507671],[1.64462,44.507523],[1.6445,44.507463],[1.64435,44.507444],[1.644301,44.507639],[1.644377,44.50788],[1.644258,44.508048],[1.644323,44.508213],[1.644269,44.508293],[1.644269,44.508472],[1.644012,44.508618],[1.643883,44.508633],[1.643679,44.508293],[1.643368,44.508117],[1.642343,44.507804],[1.641791,44.507591],[1.641694,44.506424],[1.643111,44.505833],[1.644473,44.50565],[1.645761,44.504986],[1.646147,44.504463],[1.645846,44.503384],[1.645921,44.502613],[1.646522,44.50164],[1.646394,44.501019],[1.645385,44.500614],[1.645213,44.500149],[1.644591,44.499275],[1.643776,44.498554],[1.643132,44.498196],[1.642703,44.498074],[1.642638,44.497601],[1.642231,44.497131],[1.642445,44.496124],[1.642907,44.495182],[1.643271,44.494816],[1.643497,44.494019],[1.643443,44.493351],[1.644055,44.493481],[1.64501,44.493942],[1.645836,44.494049],[1.647027,44.494469],[1.647434,44.494492],[1.647745,44.494316],[1.64811,44.492855],[1.647992,44.491882],[1.648464,44.490856],[1.648775,44.489441],[1.648453,44.488293],[1.648003,44.487652],[1.647906,44.486633],[1.647745,44.486042],[1.648024,44.485699],[1.648453,44.485546],[1.648421,44.48531],[1.648035,44.485142],[1.648582,44.48484],[1.64869,44.484337],[1.64899,44.483875],[1.647745,44.483997],[1.648636,44.48312],[1.649333,44.482216],[1.650127,44.480824],[1.65047,44.479919],[1.650867,44.479298],[1.650803,44.479023],[1.649977,44.478947],[1.649151,44.479404],[1.647391,44.483326],[1.646351,44.484657],[1.645278,44.485447],[1.643389,44.486164],[1.642603,44.485366]]],"type":"MultiLineString"},"properties":{"geo_point":{"lon":1.7773586304981537,"lat":44.556409832988},"name":"GR651 De Beduer à Bouziès (Lot) (2019)","code_gr":"GR651"}}]}