{"type":"FeatureCollection","features":[{"type":"Feature","geometry":{"coordinates":[[[3.429698,44.179448],[3.431566,44.178966],[3.433154,44.17926],[3.433471,44.179622],[3.435171,44.180734],[3.436348,44.180828],[3.436554,44.180654],[3.43689,44.180238],[3.437749,44.17981],[3.438067,44.17985],[3.439262,44.180292],[3.440644,44.18056],[3.440869,44.180868],[3.441275,44.180643],[3.44128,44.181122],[3.441578,44.181498],[3.441821,44.181578],[3.441915,44.180948],[3.442419,44.179823],[3.442625,44.17981],[3.443297,44.180479],[3.444418,44.181632],[3.44453,44.181873],[3.44481,44.182114],[3.444754,44.182435],[3.445445,44.183467],[3.445894,44.184538],[3.446099,44.185222],[3.447313,44.185838],[3.448733,44.187338],[3.449536,44.188383],[3.449779,44.189039],[3.450918,44.190003],[3.451442,44.190231],[3.452319,44.190325],[3.453534,44.190137],[3.454542,44.190178],[3.454169,44.189454],[3.454244,44.188785],[3.45458,44.188356],[3.454711,44.188584],[3.45542,44.188932],[3.456074,44.189052],[3.456672,44.189012],[3.457587,44.188517],[3.458316,44.188396],[3.45925,44.188396],[3.460539,44.189052],[3.460875,44.189052],[3.461622,44.188771],[3.46222,44.188101],[3.462911,44.187418],[3.463808,44.186856],[3.464163,44.186507],[3.464742,44.185945],[3.465713,44.185181],[3.466087,44.185034],[3.467376,44.184994],[3.468048,44.185047],[3.470383,44.184605],[3.47085,44.184485],[3.471579,44.184458],[3.472083,44.184431],[3.473316,44.184686],[3.474156,44.184686],[3.475202,44.18411],[3.475464,44.183694],[3.476398,44.1834],[3.47707,44.183252],[3.4775,44.183078],[3.477967,44.183038],[3.479648,44.183373],[3.48019,44.183534],[3.480806,44.183494],[3.482301,44.183668],[3.483048,44.183507],[3.483795,44.18273],[3.484038,44.182167],[3.484486,44.181806],[3.485122,44.181082],[3.48585,44.180386],[3.486354,44.179769],[3.486765,44.178925],[3.487232,44.177787],[3.487494,44.176782],[3.48811,44.176393],[3.48897,44.176474],[3.489978,44.176367],[3.490931,44.176996],[3.492033,44.177291],[3.493359,44.177304],[3.494835,44.17709],[3.495638,44.176996],[3.497077,44.176541],[3.498011,44.176099],[3.498552,44.176032],[3.498795,44.175844],[3.500047,44.175777],[3.500533,44.175335],[3.501224,44.174853],[3.501747,44.174357],[3.502307,44.174076],[3.502998,44.173486],[3.504082,44.172079],[3.504567,44.171637],[3.505894,44.170807],[3.507145,44.170297],[3.509219,44.169909],[3.510545,44.169534],[3.510919,44.169306],[3.513085,44.168757],[3.514337,44.168931],[3.515645,44.168716],[3.516616,44.168422],[3.517027,44.168341],[3.517438,44.16814],[3.519549,44.167658],[3.521137,44.167417],[3.521697,44.167363],[3.522425,44.167216],[3.523472,44.167162],[3.524256,44.167001],[3.524686,44.16684],[3.525284,44.16668],[3.525769,44.166425],[3.526031,44.166197],[3.526535,44.166144],[3.526946,44.166251],[3.527152,44.166546],[3.527731,44.166626],[3.528758,44.166224],[3.529449,44.165541],[3.529897,44.165487],[3.530477,44.16534],[3.531168,44.165313],[3.531878,44.16542],[3.53227,44.165259],[3.532793,44.164884],[3.533204,44.165045],[3.533727,44.165058],[3.534549,44.16467],[3.535147,44.163986],[3.535558,44.163906],[3.536043,44.164053],[3.536996,44.164187],[3.537351,44.164589],[3.538528,44.164911],[3.539144,44.164938],[3.53948,44.164817],[3.539891,44.164495],[3.540115,44.164201],[3.541105,44.164053],[3.541479,44.163745],[3.542432,44.163758],[3.543011,44.163638],[3.543291,44.163397],[3.542544,44.162472],[3.54245,44.162057],[3.5426,44.161306],[3.542861,44.16132],[3.543758,44.161815],[3.544524,44.16215],[3.545122,44.162378],[3.545607,44.162579],[3.546336,44.162459],[3.547083,44.162164],[3.547326,44.162137],[3.547793,44.162003],[3.547718,44.162499],[3.54783,44.163102],[3.547681,44.163705],[3.548017,44.164067],[3.549567,44.164549],[3.55024,44.164227],[3.550819,44.164],[3.551492,44.163678],[3.552164,44.163691],[3.552183,44.163879],[3.553005,44.163785],[3.553117,44.163504],[3.553714,44.163477],[3.554704,44.163102],[3.555003,44.162861],[3.556292,44.162619],[3.55717,44.162593],[3.558459,44.162338],[3.558814,44.162164],[3.559094,44.162338],[3.559449,44.162284],[3.559636,44.162418],[3.561579,44.162177],[3.562064,44.162378],[3.563634,44.162633],[3.564922,44.16266],[3.565165,44.163021],[3.565614,44.163102],[3.568378,44.162472],[3.569835,44.162284],[3.570228,44.16215],[3.570639,44.162124],[3.571815,44.161735],[3.572749,44.161735],[3.57359,44.161842],[3.574785,44.161387],[3.575271,44.161413],[3.575421,44.161923],[3.575981,44.161976],[3.576411,44.161226],[3.57699,44.160676],[3.577382,44.160288],[3.578335,44.159953],[3.579866,44.15947],[3.57968,44.159001],[3.579437,44.158706],[3.579568,44.15813],[3.579568,44.157675],[3.580483,44.157326],[3.580632,44.156937],[3.580987,44.156482],[3.581137,44.155745],[3.581828,44.155222],[3.582239,44.155061],[3.582762,44.154673],[3.583416,44.154337],[3.584088,44.153748],[3.584238,44.153332],[3.584649,44.15285],[3.585228,44.152421],[3.585751,44.15218],[3.586759,44.151322],[3.587096,44.15092],[3.587525,44.150705],[3.58915,44.149191],[3.589375,44.148842],[3.589804,44.148373],[3.589991,44.147663],[3.591317,44.146939],[3.592046,44.146604],[3.593447,44.146027],[3.593652,44.1458],[3.593671,44.145371],[3.593989,44.144928],[3.594063,44.14458],[3.593578,44.144365],[3.593634,44.144151],[3.593989,44.143507],[3.593914,44.142797],[3.593764,44.142341],[3.59382,44.141979],[3.594437,44.141068],[3.594885,44.140692],[3.594605,44.139204],[3.595427,44.138923],[3.596903,44.138615],[3.597351,44.138373],[3.599013,44.136751],[3.599406,44.136268],[3.599499,44.135732],[3.600022,44.134968],[3.600639,44.135035],[3.60105,44.134821],[3.601498,44.134298],[3.601965,44.133936],[3.60217,44.133681],[3.602432,44.133185],[3.602768,44.132957],[3.603142,44.132783],[3.603272,44.132568],[3.603889,44.132662],[3.604375,44.132662],[3.605533,44.132823],[3.6077,44.132796],[3.607177,44.131911],[3.606896,44.131697],[3.606373,44.130839],[3.606317,44.130356],[3.606541,44.130074],[3.607401,44.129739],[3.607177,44.129431],[3.607233,44.129069],[3.607924,44.128693],[3.608129,44.128479],[3.609362,44.128506],[3.610203,44.128626],[3.611099,44.128506],[3.612108,44.128626],[3.613584,44.128975],[3.615302,44.129645],[3.615807,44.128908],[3.616068,44.128734],[3.616797,44.128465],[3.617114,44.127594],[3.618441,44.126655],[3.61902,44.126213],[3.619636,44.125878],[3.619823,44.125663],[3.619879,44.125878],[3.619076,44.126977],[3.620253,44.12632],[3.620944,44.12577],[3.621541,44.125113],[3.621784,44.124872],[3.621915,44.124389],[3.622065,44.124054],[3.622027,44.123343],[3.622644,44.122579],[3.623036,44.122391],[3.624287,44.122351],[3.62468,44.122177],[3.625203,44.12152],[3.625371,44.12156],[3.62552,44.122029],[3.625894,44.122257],[3.626828,44.122552],[3.628901,44.123343],[3.630358,44.123518],[3.628883,44.123008],[3.627052,44.121828],[3.627015,44.12156],[3.627089,44.120795],[3.627108,44.120259],[3.626772,44.119723],[3.626361,44.119508],[3.625016,44.119736],[3.624698,44.119723],[3.624493,44.119924],[3.623914,44.120809],[3.622289,44.120568],[3.621579,44.120742],[3.621112,44.121023],[3.62085,44.121359],[3.620701,44.121962],[3.620365,44.122525],[3.619935,44.122606],[3.61902,44.121935],[3.618347,44.121238],[3.617787,44.120514],[3.616741,44.119736],[3.615695,44.119374],[3.613789,44.117979],[3.612612,44.117523],[3.611566,44.117228],[3.610035,44.116638],[3.609493,44.116518],[3.608241,44.116598],[3.607457,44.116746],[3.606934,44.116477],[3.604972,44.116544],[3.603553,44.116813],[3.602992,44.117202],[3.602226,44.11747],[3.60204,44.117912],[3.602282,44.118328],[3.602226,44.11873],[3.602843,44.118636],[3.603515,44.118958],[3.604935,44.118985],[3.605626,44.119817],[3.606467,44.120299],[3.605234,44.120447],[3.603982,44.120809],[3.603291,44.121184],[3.602301,44.121882],[3.602488,44.12105],[3.601348,44.120393],[3.600489,44.120527],[3.599088,44.1205],[3.598509,44.120045],[3.59821,44.118999],[3.597706,44.119468],[3.595576,44.119294],[3.595109,44.119173],[3.594568,44.1192],[3.594213,44.11979],[3.594007,44.120514],[3.593802,44.120755],[3.593932,44.121225],[3.593858,44.121627],[3.592998,44.122458],[3.592307,44.123303],[3.59199,44.123477],[3.592008,44.121949],[3.592233,44.121466],[3.592177,44.119951],[3.591803,44.120232],[3.591112,44.11983],[3.590962,44.119522],[3.590645,44.119227],[3.590962,44.118905],[3.591037,44.118449],[3.590981,44.118274],[3.591018,44.117993],[3.590196,44.117845],[3.589748,44.117671],[3.589076,44.117631],[3.588347,44.11814],[3.587768,44.118931],[3.587469,44.119361],[3.587096,44.119522],[3.586946,44.119924],[3.586255,44.120192],[3.586236,44.120648],[3.585956,44.121117],[3.584985,44.121573],[3.584387,44.121694],[3.584219,44.121399],[3.583771,44.121251],[3.583453,44.121453],[3.582239,44.121493],[3.581574,44.121689],[3.581081,44.121761],[3.580614,44.121439],[3.579512,44.121184],[3.578876,44.121171],[3.578465,44.12093],[3.578353,44.120675],[3.577569,44.120621],[3.577008,44.120675],[3.574879,44.120447],[3.574262,44.120192],[3.573721,44.119602],[3.57316,44.119267],[3.572301,44.119106],[3.57146,44.1192],[3.569835,44.119602],[3.569088,44.120179],[3.568957,44.120514],[3.568602,44.120594],[3.567799,44.120313],[3.565389,44.120433],[3.564978,44.121117],[3.564063,44.121037],[3.563241,44.120541],[3.563017,44.119884],[3.562681,44.11979],[3.562102,44.119776],[3.560757,44.118864],[3.560421,44.118824],[3.559804,44.118315],[3.559412,44.118382],[3.558964,44.118167],[3.557955,44.118006],[3.557749,44.117698],[3.556834,44.117523],[3.556572,44.117255],[3.556143,44.117108],[3.55562,44.117121],[3.555489,44.117269],[3.554574,44.117081],[3.553658,44.116719],[3.553061,44.116357],[3.551959,44.116611],[3.549997,44.116464],[3.549511,44.116102],[3.548746,44.115673],[3.547737,44.114881],[3.546037,44.114439],[3.545775,44.113916],[3.545626,44.113594],[3.545271,44.113218],[3.545551,44.112628],[3.545551,44.111703],[3.545159,44.11063],[3.543851,44.109785],[3.543459,44.109316],[3.543459,44.108859],[3.543235,44.108645],[3.543104,44.108135],[3.542768,44.1078],[3.54232,44.10678],[3.542133,44.106083],[3.541983,44.105211],[3.541685,44.104769],[3.541124,44.103373],[3.541049,44.103025],[3.541105,44.102247],[3.541087,44.10163],[3.541516,44.100543],[3.541498,44.099738],[3.541049,44.098893],[3.540134,44.097552],[3.539779,44.096934],[3.539648,44.096103],[3.539873,44.095781],[3.541591,44.094855],[3.542152,44.094399],[3.542675,44.093795],[3.544188,44.093634],[3.544841,44.093433],[3.545066,44.093165],[3.54529,44.092655],[3.545682,44.092695],[3.546224,44.092561],[3.546691,44.092373],[3.547494,44.092239],[3.54897,44.092293],[3.54981,44.092024],[3.550819,44.091327],[3.551716,44.090589],[3.552575,44.090267],[3.554536,44.089784],[3.557039,44.089381],[3.559206,44.08863],[3.561,44.087583],[3.561541,44.086966],[3.562176,44.085557],[3.563092,44.084014],[3.563428,44.082082],[3.562905,44.080874],[3.562531,44.079828],[3.562064,44.079049],[3.56227,44.078593],[3.563054,44.078016],[3.563148,44.077573],[3.56298,44.076889],[3.562737,44.076929],[3.562531,44.077157],[3.562139,44.077224],[3.561018,44.077815],[3.560962,44.07819],[3.560402,44.078351],[3.559729,44.078083],[3.559337,44.078083],[3.558497,44.077949],[3.55788,44.077627],[3.557394,44.077855],[3.55547,44.077721],[3.555115,44.077855],[3.55463,44.077882],[3.554219,44.078271],[3.554163,44.078633],[3.55364,44.079116],[3.552986,44.07913],[3.551809,44.078821],[3.551081,44.078472],[3.550184,44.078284],[3.549362,44.078284],[3.549157,44.076916],[3.548129,44.074339],[3.548391,44.074084],[3.547643,44.072889],[3.54712,44.072393],[3.546878,44.071856],[3.546186,44.071628],[3.544729,44.071614],[3.544561,44.071158],[3.544767,44.070098],[3.545196,44.069628],[3.545477,44.06936],[3.54529,44.068903],[3.544711,44.06838],[3.544561,44.067897],[3.544281,44.067816],[3.543851,44.06783],[3.543665,44.067548],[3.542955,44.067816],[3.541927,44.068085],[3.541031,44.068031],[3.540265,44.066971],[3.540228,44.066353],[3.53948,44.066313],[3.539275,44.066044],[3.539854,44.065709],[3.54019,44.065427],[3.540358,44.065038],[3.541274,44.0643],[3.541367,44.063883],[3.541946,44.06293],[3.54245,44.062514],[3.543646,44.062501],[3.543627,44.062863],[3.544281,44.062555],[3.544916,44.062555],[3.544991,44.062165],[3.544543,44.061615],[3.543571,44.061789],[3.543142,44.061722],[3.543011,44.061252],[3.542749,44.061226],[3.541423,44.061977],[3.540489,44.062031],[3.539648,44.061588],[3.539499,44.06136],[3.5392,44.061199],[3.538658,44.060192],[3.538976,44.060058],[3.539069,44.059615],[3.539237,44.059575],[3.53935,44.059776],[3.539592,44.059803],[3.539704,44.05897],[3.53935,44.058863],[3.538939,44.058957],[3.538528,44.058809],[3.538061,44.057977],[3.53765,44.057615],[3.537724,44.056863],[3.537332,44.056353],[3.536753,44.05599],[3.53623,44.055171],[3.535128,44.054138],[3.535072,44.053775],[3.535558,44.053507],[3.535726,44.052768],[3.535408,44.051976],[3.534624,44.051466],[3.53397,44.051466],[3.533428,44.051614],[3.53311,44.051466],[3.533727,44.050862],[3.534362,44.050473],[3.53481,44.049936],[3.534698,44.049331],[3.534848,44.049049],[3.535128,44.048861],[3.535483,44.048002],[3.535221,44.04764],[3.535315,44.04725],[3.535875,44.046096],[3.536025,44.045397],[3.536753,44.044753],[3.537313,44.044699],[3.537145,44.044229],[3.53651,44.043826],[3.53623,44.04345],[3.536211,44.043222],[3.536417,44.042698],[3.536155,44.042349],[3.536417,44.042242],[3.536902,44.04239],[3.536977,44.042927],[3.537426,44.043115],[3.53765,44.042349],[3.537482,44.041839],[3.537108,44.041517],[3.536716,44.04051],[3.536604,44.039771],[3.536099,44.039221],[3.535856,44.038563],[3.534904,44.038012],[3.53453,44.037717],[3.533615,44.03679],[3.533633,44.036347],[3.534007,44.035957],[3.533988,44.035179],[3.533092,44.034816],[3.532176,44.034386],[3.531224,44.034225],[3.529897,44.033419],[3.529804,44.03311],[3.529001,44.032318],[3.528646,44.031875],[3.528179,44.0317],[3.528795,44.031781],[3.529617,44.032264],[3.530103,44.032224],[3.530178,44.031888],[3.529673,44.031082],[3.529076,44.030653],[3.527394,44.028853],[3.526946,44.029095],[3.52618,44.029283],[3.524873,44.02986],[3.524424,44.029793],[3.524275,44.028772],[3.523584,44.028464],[3.522575,44.028678],[3.521921,44.028705],[3.520763,44.029041],[3.520034,44.028128],[3.519194,44.027886],[3.518353,44.028168],[3.518839,44.028584],[3.519605,44.03021],[3.519885,44.031512],[3.519904,44.033191],[3.519474,44.034655],[3.518372,44.035877],[3.517961,44.035957],[3.516821,44.035675],[3.516541,44.036239],[3.51613,44.036709],[3.516093,44.037623],[3.51585,44.038334],[3.515028,44.038979],[3.51501,44.039261],[3.516186,44.039852],[3.515887,44.040295],[3.515439,44.040537],[3.515794,44.041302],[3.515719,44.041826],[3.515383,44.042054],[3.513982,44.041759],[3.513534,44.041839],[3.513198,44.041691],[3.513179,44.041503],[3.512824,44.041423],[3.511927,44.041503],[3.511535,44.041087],[3.510321,44.041033],[3.509929,44.04055],[3.50948,44.040375],[3.50864,44.040429],[3.508247,44.040268],[3.507351,44.039529],[3.50722,44.039059],[3.506734,44.038751],[3.50623,44.038791],[3.505987,44.039462],[3.506286,44.039852],[3.506174,44.039946],[3.505501,44.039892],[3.505053,44.04008],[3.504493,44.039879],[3.504231,44.039583],[3.503858,44.039583],[3.503914,44.039946],[3.502699,44.039368],[3.501298,44.038912],[3.500794,44.038845],[3.50014,44.038052],[3.499692,44.037958],[3.497787,44.037032],[3.496647,44.036374],[3.496068,44.035796],[3.494816,44.035581],[3.493098,44.035058],[3.492108,44.034574],[3.491603,44.034252],[3.491062,44.033997],[3.490408,44.033178],[3.490034,44.032385],[3.489549,44.031848],[3.489026,44.031687],[3.489044,44.031217],[3.487494,44.029807],[3.487307,44.029431],[3.486504,44.02935],[3.485943,44.029672],[3.485682,44.029632],[3.485308,44.029175],[3.48486,44.029431],[3.48443,44.030089],[3.484598,44.031351],[3.484188,44.032063],[3.48273,44.031982],[3.482394,44.031539],[3.481666,44.031257],[3.479069,44.030706],[3.478584,44.03068],[3.476566,44.030223],[3.475427,44.030827],[3.474156,44.030908],[3.473559,44.031082],[3.473129,44.031324],[3.47283,44.031324],[3.471952,44.03076],[3.471504,44.030317],[3.470346,44.030505],[3.469767,44.030733],[3.469412,44.031002],[3.468814,44.031163],[3.46816,44.031176],[3.467562,44.031002],[3.467151,44.030599],[3.466703,44.030008],[3.466143,44.029753],[3.465844,44.029256],[3.465937,44.028638],[3.466516,44.027886],[3.466482,44.02754],[3.465698,44.026876],[3.465106,44.026738],[3.464095,44.027064],[3.463432,44.027891],[3.463032,44.028004],[3.46291,44.027841],[3.462927,44.027552],[3.46284,44.027139],[3.46284,44.026876],[3.462648,44.026399],[3.462352,44.025372],[3.461463,44.024432],[3.460626,44.024006],[3.459947,44.023868],[3.459215,44.023893],[3.458587,44.023793],[3.458413,44.023567],[3.458448,44.023166],[3.458117,44.022577],[3.457489,44.02264],[3.456565,44.022301],[3.4566,44.022577],[3.455694,44.023843],[3.455241,44.024018],[3.454456,44.024144],[3.454352,44.024507],[3.453602,44.02571],[3.453428,44.026262],[3.452992,44.026475],[3.453724,44.026913],[3.453533,44.027001],[3.452923,44.026938],[3.45233,44.026826],[3.452034,44.026938],[3.451633,44.02754],[3.451058,44.028116],[3.450761,44.028718],[3.450779,44.028931],[3.450971,44.029119],[3.450971,44.029357],[3.450709,44.02962],[3.450657,44.030272],[3.449907,44.03076],[3.449838,44.031024],[3.450099,44.031425],[3.451441,44.031299],[3.451581,44.031612],[3.452191,44.032039],[3.452243,44.033079],[3.451772,44.033404],[3.45104,44.033718],[3.450953,44.033931],[3.450622,44.034231],[3.450378,44.034357],[3.450291,44.034469],[3.449977,44.034545],[3.449768,44.034908],[3.448809,44.034946],[3.448478,44.035146],[3.448443,44.035409],[3.447624,44.03581],[3.447084,44.035973],[3.446997,44.036412],[3.447241,44.0369],[3.446457,44.036988],[3.446666,44.037614],[3.446544,44.038216],[3.446666,44.038692],[3.447311,44.038667],[3.44745,44.038943],[3.447345,44.039531],[3.447868,44.040346],[3.448252,44.041361],[3.448705,44.041361],[3.44867,44.042075],[3.448931,44.042538],[3.449158,44.043791],[3.448966,44.044242],[3.449001,44.04448],[3.449297,44.044605],[3.449437,44.045119],[3.449193,44.044981],[3.449332,44.045357],[3.449594,44.045457],[3.44989,44.045507],[3.449995,44.045658],[3.449925,44.045771],[3.449576,44.045908],[3.449158,44.046209],[3.449158,44.04656],[3.449193,44.046748],[3.448966,44.047073],[3.448914,44.047362],[3.448356,44.046885],[3.448321,44.047199],[3.448513,44.04765],[3.448025,44.047574],[3.447851,44.0478],[3.447154,44.048188],[3.446875,44.048539],[3.446648,44.048539],[3.446282,44.048389],[3.446579,44.048752],[3.446979,44.048777],[3.446997,44.049078],[3.446735,44.049341],[3.446369,44.049353],[3.445916,44.049266],[3.445568,44.049178],[3.445027,44.049416],[3.444818,44.049729],[3.444138,44.049992],[3.443267,44.05018],[3.442831,44.050155],[3.442221,44.050393],[3.441942,44.050355],[3.440984,44.050381],[3.440356,44.050355],[3.439816,44.050518],[3.439537,44.050531],[3.439241,44.050919],[3.439206,44.051207],[3.439171,44.05152],[3.43877,44.051859],[3.438666,44.052084],[3.437777,44.052836],[3.437777,44.053149],[3.437428,44.053324],[3.437341,44.053625],[3.436975,44.054113],[3.436487,44.054164],[3.436208,44.054452],[3.436348,44.054665],[3.435685,44.055854],[3.435842,44.056581],[3.436208,44.056857],[3.436226,44.057257],[3.436435,44.057383],[3.436714,44.057332],[3.437027,44.057733],[3.437515,44.058009],[3.437812,44.058272],[3.438265,44.058673],[3.438404,44.058961],[3.438544,44.059099],[3.438805,44.059612],[3.438648,44.059875],[3.43891,44.060126],[3.439345,44.060226],[3.440374,44.060764],[3.440409,44.060952],[3.440217,44.061165],[3.440688,44.06114],[3.440844,44.060752],[3.441576,44.060789],[3.441995,44.060977],[3.442256,44.061278],[3.442918,44.061641],[3.444487,44.061503],[3.444522,44.061854],[3.445202,44.061892],[3.445672,44.061879],[3.445969,44.062205],[3.446683,44.06243],[3.447136,44.062618],[3.447659,44.062731],[3.447502,44.062919],[3.447084,44.063019],[3.446996,44.063294],[3.446778,44.063368],[3.446663,44.063508],[3.446857,44.063545],[3.446613,44.06372],[3.446369,44.064246],[3.446433,44.06445],[3.446283,44.06502],[3.446352,44.065334],[3.446214,44.065681],[3.445996,44.065847],[3.445707,44.065974],[3.445289,44.066651],[3.445376,44.067502],[3.445132,44.068178],[3.444365,44.068103],[3.443772,44.069381],[3.443964,44.069644],[3.443877,44.069982],[3.444016,44.07027],[3.443894,44.070821],[3.44426,44.072198],[3.443877,44.07211],[3.443912,44.072636],[3.443738,44.073313],[3.44433,44.074114],[3.44433,44.074452],[3.444051,44.074352],[3.444016,44.07474],[3.443685,44.075391],[3.443703,44.075867],[3.443372,44.076556],[3.443372,44.076781],[3.44372,44.076994],[3.443807,44.077482],[3.44372,44.077783],[3.443877,44.078046],[3.44386,44.078584],[3.443947,44.07891],[3.443929,44.079335],[3.444016,44.079498],[3.44426,44.079611],[3.443947,44.079899],[3.443912,44.080174],[3.444069,44.080512],[3.443668,44.080362],[3.443598,44.080525],[3.443319,44.080349],[3.443406,44.080763],[3.443232,44.081163],[3.443598,44.081414],[3.443999,44.081602],[3.443494,44.081714],[3.444191,44.081952],[3.443267,44.082102],[3.442117,44.081977],[3.442465,44.082378],[3.441489,44.082278],[3.440688,44.082879],[3.440391,44.083492],[3.440321,44.084569],[3.440269,44.087348],[3.440478,44.08865],[3.441036,44.089864],[3.441298,44.090741],[3.441646,44.091354],[3.441524,44.092631],[3.441942,44.093357],[3.442326,44.093807],[3.442709,44.093895],[3.442936,44.094371],[3.442779,44.095397],[3.442674,44.096311],[3.440879,44.098038],[3.442535,44.097813],[3.444016,44.097713],[3.44487,44.097638],[3.445254,44.0978],[3.445759,44.097938],[3.44562,44.098839],[3.446683,44.099565],[3.447154,44.099628],[3.447677,44.099953],[3.447799,44.100191],[3.447711,44.100491],[3.44806,44.100854],[3.447694,44.101192],[3.446491,44.10113],[3.446091,44.100955],[3.445376,44.101042],[3.445062,44.101205],[3.444417,44.101205],[3.44386,44.101505],[3.443093,44.101705],[3.4425,44.102219],[3.442448,44.102769],[3.441995,44.103958],[3.441315,44.104809],[3.440705,44.105473],[3.440583,44.106073],[3.441524,44.107563],[3.442361,44.107888],[3.442483,44.108288],[3.442006,44.109522],[3.441914,44.110183],[3.442604,44.110348],[3.444007,44.111107],[3.445847,44.1119],[3.447111,44.112263],[3.447778,44.112841],[3.448468,44.113204],[3.449434,44.113287],[3.449411,44.113568],[3.450331,44.113617],[3.450423,44.113881],[3.449917,44.114063],[3.449871,44.114393],[3.449135,44.114641],[3.448698,44.115318],[3.448238,44.115731],[3.447916,44.115549],[3.447249,44.11545],[3.447479,44.115912],[3.447272,44.116985],[3.447548,44.11725],[3.44856,44.117332],[3.449848,44.118207],[3.450078,44.118884],[3.449802,44.120254],[3.449848,44.120832],[3.449664,44.121129],[3.449457,44.121245],[3.449043,44.120849],[3.448192,44.121014],[3.447525,44.121493],[3.447318,44.121905],[3.447525,44.122434],[3.447226,44.123342],[3.447479,44.123754],[3.44718,44.124233],[3.447088,44.12486],[3.44626,44.124877],[3.445456,44.12529],[3.44541,44.126165],[3.445134,44.126429],[3.44449,44.126429],[3.444122,44.126775],[3.443271,44.12699],[3.442604,44.127056],[3.442075,44.12694],[3.441546,44.127172],[3.440879,44.127139],[3.440212,44.127271],[3.439821,44.127865],[3.438211,44.12874],[3.436762,44.130952],[3.43598,44.131562],[3.434808,44.13318],[3.434371,44.134187],[3.434072,44.134352],[3.433221,44.134715],[3.432807,44.135095],[3.432922,44.135937],[3.432531,44.136712],[3.432531,44.137604],[3.432071,44.139204],[3.431427,44.139964],[3.430438,44.140657],[3.429633,44.141911],[3.429702,44.142472],[3.429955,44.142951],[3.429541,44.144007],[3.429587,44.14437],[3.42915,44.144816],[3.429012,44.145261],[3.427862,44.146994],[3.425264,44.149387],[3.424827,44.15069],[3.424436,44.150954],[3.423792,44.151845],[3.424114,44.152439],[3.423815,44.15272],[3.423608,44.153479],[3.424114,44.154238],[3.42393,44.154684],[3.423194,44.15541],[3.424275,44.154997],[3.424781,44.154634],[3.425424,44.154766],[3.425999,44.154519],[3.42622,44.154155],[3.426515,44.153529],[3.426629,44.153507],[3.42644,44.154046],[3.426387,44.154841],[3.426182,44.155173],[3.425598,44.155461],[3.426065,44.155612],[3.427232,44.155612],[3.427982,44.155899],[3.428522,44.156475],[3.429167,44.1588],[3.428836,44.159301],[3.428975,44.159501],[3.429411,44.159501],[3.430875,44.160476],[3.431206,44.160776],[3.431746,44.160889],[3.432688,44.161364],[3.433908,44.161889],[3.434396,44.161901],[3.434814,44.162251],[3.435807,44.162501],[3.436034,44.162889],[3.435825,44.163427],[3.436313,44.163402],[3.435982,44.164427],[3.435511,44.165277],[3.435006,44.165415],[3.434936,44.16599],[3.434204,44.166965],[3.433803,44.16744],[3.433677,44.167708],[3.433587,44.168244],[3.433416,44.168647],[3.432945,44.169032],[3.432426,44.169753],[3.432391,44.170715],[3.431781,44.172128],[3.431136,44.173253],[3.430248,44.175378],[3.429725,44.175853],[3.429045,44.176278],[3.428452,44.177128],[3.428295,44.177728],[3.429202,44.178816]]],"type":"MultiLineString"},"properties":{"geo_point":{"lon":3.511850839741814,"lat":44.106911461400195},"name":"GR66 Tour du Mont Aigoual (Lozère, Gard) (2019)","code_gr":"GR66"}}]}