{"type":"FeatureCollection","features":[{"type":"Feature","geometry":{"coordinates":[[[3.933105,44.437641],[3.933105,44.435373],[3.932612,44.435603],[3.932413,44.435559],[3.932795,44.435145],[3.932824,44.434963],[3.932668,44.434922],[3.93196,44.435165],[3.93179,44.435104],[3.931904,44.434983],[3.932311,44.434773],[3.932489,44.434527],[3.932442,44.434253],[3.932255,44.434047],[3.931984,44.433967],[3.931284,44.433927],[3.931106,44.43386],[3.931013,44.433713],[3.930882,44.433913],[3.931032,44.434333],[3.930891,44.43438],[3.930135,44.434847],[3.929995,44.434987],[3.929864,44.43508],[3.929901,44.435227],[3.930191,44.435427],[3.930275,44.435607],[3.930247,44.435821],[3.93007,44.435901],[3.929985,44.43564],[3.929612,44.435474],[3.929098,44.435374],[3.928911,44.435207],[3.928893,44.435007],[3.929061,44.434874],[3.929173,44.434733],[3.929117,44.434133],[3.929014,44.434127],[3.928967,44.434313],[3.928388,44.434727],[3.928332,44.434513],[3.928416,44.4343],[3.928267,44.434013],[3.928174,44.433666],[3.928061,44.43382],[3.927987,44.434173],[3.927875,44.433773],[3.927809,44.432759],[3.927641,44.432493],[3.92695,44.432159],[3.926679,44.431919],[3.926586,44.431546],[3.926623,44.431365],[3.926782,44.431072],[3.926726,44.430718],[3.926763,44.430565],[3.926978,44.430378],[3.927006,44.430205],[3.926838,44.429798],[3.92709,44.429244],[3.928024,44.428691],[3.928192,44.428411],[3.928061,44.428397],[3.927791,44.428564],[3.927006,44.428698],[3.926511,44.428898],[3.925652,44.429385],[3.925222,44.429765],[3.924503,44.431159],[3.924251,44.431472],[3.924036,44.431646],[3.924176,44.430305],[3.924101,44.429158],[3.923868,44.426643],[3.923728,44.42625],[3.923242,44.425476],[3.923158,44.425276],[3.922962,44.424322],[3.922355,44.423622],[3.922317,44.423075],[3.921794,44.422694],[3.92038,44.421163],[3.920111,44.420758],[3.919686,44.420465],[3.918893,44.419565],[3.918865,44.419181],[3.918936,44.418676],[3.918837,44.418039],[3.91837,44.417149],[3.91786,44.414408],[3.918044,44.413266],[3.918115,44.412376],[3.918554,44.411607],[3.919233,44.410434],[3.919531,44.409494],[3.919474,44.409028],[3.918993,44.408472],[3.918681,44.407987],[3.918214,44.407613],[3.918157,44.407319],[3.917846,44.406965],[3.917973,44.406743],[3.917775,44.406419],[3.91786,44.406106],[3.917648,44.405721],[3.917676,44.405448],[3.917379,44.405185],[3.917025,44.405104],[3.91643,44.404629],[3.915949,44.404528],[3.915354,44.404214],[3.915015,44.404174],[3.914562,44.404214],[3.914094,44.404022],[3.913655,44.404053],[3.913202,44.403881],[3.912948,44.403638],[3.912707,44.403689],[3.912353,44.403486],[3.911914,44.403446],[3.91156,44.403577],[3.910753,44.403446],[3.909904,44.403223],[3.909635,44.403061],[3.909479,44.4029],[3.908899,44.40293],[3.908064,44.402657],[3.907526,44.402303],[3.907002,44.401251],[3.906747,44.401039],[3.906945,44.400948],[3.907087,44.400614],[3.907214,44.399491],[3.9072,44.399218],[3.907469,44.398287],[3.907455,44.398014],[3.908191,44.397407],[3.908432,44.396983],[3.908602,44.396194],[3.909338,44.395627],[3.909777,44.394818],[3.909762,44.394494],[3.909522,44.39417],[3.909791,44.393887],[3.909663,44.393513],[3.909805,44.393392],[3.910314,44.393361],[3.910612,44.39323],[3.910654,44.392775],[3.910923,44.392754],[3.911419,44.392886],[3.912112,44.392916],[3.912792,44.393027],[3.913769,44.392906],[3.914462,44.392471],[3.914859,44.391965],[3.915963,44.391429],[3.916331,44.391409],[3.917322,44.391712],[3.917704,44.391652],[3.919346,44.391156],[3.919431,44.390974],[3.919233,44.390478],[3.918879,44.390074],[3.918639,44.389568],[3.918653,44.389153],[3.918851,44.388495],[3.918809,44.38804],[3.918511,44.387787],[3.918171,44.387433],[3.918087,44.38718],[3.918554,44.386856],[3.918724,44.386624],[3.918554,44.386401],[3.917945,44.386391],[3.91769,44.38627],[3.917308,44.385895],[3.917265,44.385622],[3.919007,44.384438],[3.91912,44.383943],[3.919375,44.38371],[3.919757,44.383619],[3.920734,44.383548],[3.921059,44.383447],[3.920989,44.383002],[3.920366,44.382496],[3.919856,44.381899],[3.919715,44.381555],[3.91963,44.38115],[3.9197,44.380422],[3.91987,44.38024],[3.919984,44.380057],[3.920479,44.379977],[3.921201,44.379966],[3.922008,44.380088],[3.922263,44.380047],[3.922546,44.380088],[3.922886,44.380037],[3.923211,44.380078],[3.923805,44.380031],[3.924016,44.379682],[3.924132,44.378692],[3.923931,44.378077],[3.924051,44.377619],[3.925273,44.37696],[3.925293,44.376345],[3.924892,44.376088],[3.924692,44.375601],[3.924852,44.375458],[3.926474,44.375086],[3.927535,44.374542],[3.928316,44.373955],[3.928636,44.373354],[3.928676,44.373011],[3.928516,44.372424],[3.927996,44.37188],[3.928056,44.371708],[3.929918,44.370821],[3.931199,44.37032],[3.931659,44.369905],[3.931779,44.369462],[3.9321,44.369047],[3.93224,44.368202],[3.9319,44.36773],[3.93186,44.367415],[3.93214,44.366957],[3.93228,44.366184],[3.9322,44.365898],[3.93218,44.365483],[3.93192,44.365282],[3.931579,44.365182],[3.931499,44.36491],[3.931099,44.364481],[3.929237,44.364223],[3.928556,44.36461],[3.927615,44.364925],[3.926234,44.364996],[3.925373,44.364882],[3.925113,44.364395],[3.925373,44.364152],[3.925813,44.363579],[3.925793,44.362921],[3.925653,44.362592],[3.925713,44.362191],[3.925012,44.361647],[3.925513,44.361046],[3.925733,44.360516],[3.925773,44.359686],[3.925693,44.359271],[3.925453,44.35907],[3.925133,44.358498],[3.925553,44.358269],[3.926054,44.357868],[3.926434,44.357081],[3.926995,44.356651],[3.927155,44.35615],[3.927075,44.355735],[3.927035,44.354704],[3.926734,44.354232],[3.926754,44.353702],[3.926414,44.35333],[3.926014,44.353258],[3.925933,44.352958],[3.926454,44.352815],[3.926654,44.352457],[3.926374,44.352485],[3.926594,44.351412],[3.926274,44.351183],[3.925633,44.351483],[3.925473,44.351841],[3.925293,44.3524],[3.924512,44.35187],[3.924252,44.351827],[3.924472,44.352328],[3.923931,44.351999],[3.923171,44.351813],[3.923751,44.352328],[3.92291,44.352213],[3.92241,44.352314],[3.92223,44.352457],[3.922814,44.352581],[3.922378,44.35277],[3.922695,44.35294],[3.922761,44.353129],[3.922339,44.3531],[3.921784,44.353233],[3.921599,44.353148],[3.921586,44.35327],[3.922101,44.353591],[3.921823,44.354205],[3.921599,44.354083],[3.919723,44.354942],[3.919763,44.35532],[3.919538,44.356245],[3.919129,44.356038],[3.918852,44.355414],[3.918389,44.355254],[3.91835,44.355528],[3.917953,44.355377],[3.916632,44.355027],[3.916765,44.354649],[3.917082,44.354281],[3.91547,44.354432],[3.91514,44.354621],[3.915127,44.354923],[3.915483,44.356189],[3.91543,44.356708],[3.915338,44.356736],[3.914955,44.35633],[3.914796,44.356255],[3.914717,44.35719],[3.914096,44.356831],[3.914083,44.357114],[3.913872,44.3577],[3.91333,44.357473],[3.913079,44.357464],[3.912749,44.357624],[3.912683,44.357804],[3.912221,44.358163],[3.911877,44.358191],[3.911573,44.358389],[3.911415,44.358748],[3.911362,44.359098],[3.911045,44.359655],[3.910358,44.36008],[3.909737,44.360675],[3.909579,44.361147],[3.909011,44.36161],[3.909011,44.361798],[3.908535,44.362271],[3.908364,44.362554],[3.908271,44.362771],[3.908073,44.362866],[3.907915,44.362828],[3.907835,44.362677],[3.907928,44.362365],[3.907849,44.36211],[3.907756,44.362223],[3.907756,44.362374],[3.907254,44.362724],[3.907149,44.362988],[3.906739,44.363224],[3.905392,44.363781],[3.905141,44.363725],[3.905141,44.363914],[3.90526,44.364093],[3.905273,44.364348],[3.905365,44.364509],[3.904771,44.365245],[3.904639,44.365151],[3.904626,44.364915],[3.904388,44.364716],[3.904005,44.364839],[3.90382,44.365066],[3.90378,44.365207],[3.903318,44.3655],[3.903093,44.36551],[3.902829,44.365727],[3.902367,44.365934],[3.901852,44.366001],[3.90094,44.365755],[3.900439,44.365547],[3.900293,44.365453],[3.899818,44.365245],[3.899355,44.36482],[3.898853,44.364537],[3.898219,44.364301],[3.897651,44.364424],[3.897242,44.364584],[3.896925,44.364631],[3.896516,44.364565],[3.896212,44.364565],[3.895895,44.36448],[3.8953,44.364433],[3.894983,44.364244],[3.894389,44.364046],[3.894178,44.363848],[3.89394,44.363791],[3.893715,44.363583],[3.893596,44.363309],[3.893345,44.36312],[3.893279,44.362856],[3.892764,44.362611],[3.892118,44.362892],[3.891798,44.362892],[3.891638,44.363035],[3.891338,44.362892],[3.891097,44.362592],[3.889596,44.363236],[3.888935,44.363622],[3.888835,44.363808],[3.888355,44.36398],[3.887754,44.363908],[3.887053,44.364066],[3.886192,44.363837],[3.885452,44.362763],[3.884771,44.362506],[3.88425,44.362062],[3.88369,44.361804],[3.88353,44.361246],[3.882569,44.360487],[3.881968,44.359629],[3.881648,44.359128],[3.881507,44.358369],[3.882128,44.357567],[3.882288,44.357023],[3.881047,44.357052],[3.880827,44.355706],[3.880426,44.355277],[3.880066,44.354046],[3.880006,44.353631],[3.879565,44.352772],[3.879005,44.352714],[3.878424,44.353044],[3.876662,44.354389],[3.87434,44.35605],[3.873539,44.357209],[3.873179,44.357295],[3.872138,44.357267],[3.871397,44.357124],[3.870036,44.356207],[3.868594,44.355091],[3.867993,44.354991],[3.867313,44.355019],[3.866892,44.355291],[3.866672,44.355205],[3.865811,44.355334],[3.865191,44.355506],[3.864029,44.355391],[3.862928,44.355162],[3.861787,44.354418],[3.861687,44.354103],[3.861707,44.353616],[3.861347,44.353244],[3.859985,44.3527],[3.858844,44.352657],[3.857863,44.352357],[3.857282,44.352342],[3.856101,44.352013],[3.855501,44.351641],[3.85508,44.351641],[3.854459,44.352099],[3.853539,44.352929],[3.852978,44.353173],[3.852457,44.353373],[3.851576,44.35396],[3.851416,44.354346],[3.851556,44.355449],[3.851136,44.356236],[3.850696,44.356394],[3.849775,44.356351],[3.848493,44.356164],[3.847552,44.356122],[3.846711,44.355678],[3.845831,44.355005],[3.844629,44.35522],[3.844069,44.355048],[3.843949,44.354833],[3.843889,44.353745],[3.843949,44.353144],[3.843328,44.352528],[3.842928,44.352586],[3.841866,44.353273],[3.840785,44.353573],[3.840405,44.35343],[3.840005,44.353216],[3.839244,44.352958],[3.838763,44.352657],[3.838283,44.352414],[3.838143,44.351584],[3.838243,44.351211],[3.838022,44.350896],[3.837662,44.350052],[3.837762,44.349594],[3.837382,44.349422],[3.837622,44.348849],[3.837402,44.348806],[3.837582,44.348448],[3.837362,44.34779],[3.837502,44.346945],[3.837782,44.345943],[3.838083,44.345356],[3.838223,44.344525],[3.838143,44.343838],[3.838323,44.342965],[3.838183,44.342621],[3.837822,44.340745],[3.837462,44.339829],[3.836581,44.338497],[3.834819,44.336865],[3.834519,44.336507],[3.834018,44.336306],[3.833258,44.335562],[3.832977,44.334989],[3.832757,44.334903],[3.832637,44.334602],[3.832257,44.334445],[3.832176,44.334115],[3.831756,44.334058],[3.831055,44.333514],[3.830455,44.331595],[3.829954,44.330635],[3.828873,44.329819],[3.828072,44.329676],[3.827652,44.329475],[3.826791,44.329318],[3.82587,44.328974],[3.825229,44.329132],[3.824589,44.32906],[3.824048,44.329246],[3.820564,44.329948],[3.820004,44.329991],[3.819383,44.329977],[3.818462,44.329991],[3.817721,44.329891],[3.817381,44.329719],[3.8167,44.329203],[3.8162,44.328301],[3.81614,44.327628],[3.81614,44.327041],[3.81672,44.326267],[3.8167,44.326024],[3.817001,44.325594],[3.817061,44.325035],[3.817481,44.324391],[3.817681,44.323718],[3.817561,44.322615],[3.817261,44.321569],[3.817241,44.320796],[3.817081,44.320624],[3.817161,44.320252],[3.816961,44.319664],[3.81666,44.317387],[3.81642,44.315983],[3.81628,44.315625],[3.81602,44.314235],[3.815579,44.313318],[3.815059,44.31276],[3.814798,44.312316],[3.814658,44.311857],[3.814038,44.31233],[3.812696,44.313175],[3.812416,44.31319],[3.811115,44.31402],[3.811115,44.31425],[3.810534,44.314966],[3.809753,44.315424],[3.809093,44.315668],[3.807311,44.317115],[3.80623,44.317372],[3.804728,44.317258],[3.803747,44.316943],[3.802586,44.316943],[3.801625,44.317301],[3.800824,44.317616],[3.799763,44.318303],[3.799122,44.318934],[3.798742,44.31902],[3.795999,44.318518],[3.794057,44.317874],[3.791414,44.317243],[3.789252,44.317587],[3.788071,44.318017],[3.786269,44.317072],[3.785728,44.316441],[3.785408,44.31594],[3.784867,44.315467],[3.784307,44.315295],[3.783746,44.315166],[3.783926,44.314909],[3.783706,44.314393],[3.783286,44.314178],[3.782525,44.313949],[3.781904,44.313605],[3.781184,44.312946],[3.780843,44.31286],[3.780523,44.313275],[3.780123,44.314035],[3.779442,44.314665],[3.779021,44.31478],[3.778501,44.314866],[3.77786,44.314995],[3.777039,44.314923],[3.775778,44.314995],[3.774477,44.315224],[3.773696,44.31551],[3.773215,44.315782],[3.772455,44.317029],[3.771293,44.317387],[3.769712,44.318074],[3.76835,44.318332],[3.767089,44.318819],[3.765948,44.319048],[3.765027,44.319063],[3.764066,44.318576],[3.763906,44.317988],[3.763706,44.317702],[3.763165,44.317372],[3.760502,44.317029],[3.759661,44.317086],[3.75838,44.31743],[3.757639,44.317573],[3.756598,44.317859],[3.756098,44.31816],[3.755457,44.318074],[3.754916,44.318103],[3.754016,44.317917],[3.752994,44.317888],[3.752194,44.318003],[3.750892,44.317888],[3.749451,44.31796],[3.74911,44.318003],[3.74849,44.317745],[3.747229,44.3171],[3.746508,44.316885],[3.745427,44.316785],[3.744346,44.31637],[3.743044,44.315997],[3.741883,44.315811],[3.741402,44.315396],[3.740982,44.315568],[3.736758,44.314937],[3.735977,44.315596],[3.734956,44.316341],[3.731632,44.316871],[3.72945,44.317129],[3.728009,44.317616],[3.726627,44.31753],[3.723244,44.316828],[3.722903,44.316671],[3.721402,44.316656],[3.720361,44.316756],[3.717878,44.318132],[3.716216,44.319951],[3.715756,44.319693],[3.715055,44.319163],[3.714274,44.319091],[3.713694,44.318891],[3.712312,44.318748],[3.711752,44.318633],[3.711552,44.318404],[3.708508,44.319693],[3.708388,44.320065],[3.707948,44.320481],[3.706907,44.32081],[3.706647,44.321097],[3.706026,44.321254],[3.705726,44.321526],[3.705265,44.321798],[3.704664,44.321927],[3.704124,44.322171],[3.703643,44.322171],[3.703043,44.322472],[3.701922,44.322744],[3.70078,44.322887],[3.70032,44.323131],[3.699839,44.323618],[3.699019,44.324133],[3.698358,44.324434],[3.697877,44.32442],[3.697677,44.324305],[3.697377,44.324506],[3.695735,44.32495],[3.692812,44.325193],[3.69083,44.325508],[3.689489,44.325078],[3.688668,44.324935],[3.687667,44.325035],[3.687246,44.325007],[3.686526,44.325236],[3.685925,44.325308],[3.683943,44.325809],[3.682602,44.32621],[3.679799,44.32621],[3.678918,44.326138],[3.677156,44.326539],[3.675574,44.326611],[3.674593,44.32641],[3.673452,44.325838],[3.672771,44.32525],[3.67165,44.324792],[3.670569,44.324964],[3.670169,44.324706],[3.669488,44.324591],[3.668147,44.324835],[3.667206,44.324849],[3.665844,44.325379],[3.664663,44.326024],[3.664103,44.326439],[3.663542,44.326697],[3.663222,44.32717],[3.663202,44.327828],[3.662881,44.328029],[3.662201,44.328158],[3.6616,44.328057],[3.660879,44.328086],[3.660239,44.328516],[3.659698,44.328688],[3.659057,44.32896],[3.658697,44.328988],[3.658176,44.328945],[3.657796,44.329189],[3.657376,44.329203],[3.657075,44.329346],[3.656535,44.329289],[3.655894,44.329003],[3.655434,44.328688],[3.653732,44.328315],[3.653311,44.328416],[3.652571,44.329246],[3.65191,44.329762],[3.651489,44.329905],[3.650569,44.329848],[3.650048,44.32926],[3.649287,44.328731],[3.648586,44.328602],[3.647686,44.328673],[3.647085,44.328859],[3.646284,44.329504],[3.645844,44.329762],[3.644742,44.329833],[3.643641,44.329661],[3.64202,44.329046],[3.639877,44.329103],[3.638776,44.329103],[3.637795,44.329246],[3.637255,44.329432],[3.636714,44.329704],[3.636374,44.32969],[3.636033,44.32916],[3.634892,44.328673],[3.63293,44.328917],[3.63229,44.329389],[3.631349,44.32969],[3.630468,44.329848],[3.630067,44.33012],[3.629787,44.330549],[3.629847,44.330922],[3.629567,44.331208],[3.629106,44.33128],[3.627645,44.330864],[3.626804,44.330764],[3.626444,44.33095],[3.625422,44.331108],[3.624922,44.331538],[3.624461,44.331752],[3.624341,44.33201],[3.624461,44.332497],[3.624742,44.333156],[3.624722,44.333628],[3.624441,44.334029],[3.624041,44.334459],[3.623821,44.334817],[3.623561,44.335032],[3.622139,44.334216],[3.620998,44.333156],[3.620377,44.332898],[3.619937,44.332626],[3.619757,44.332712],[3.619576,44.333056],[3.618455,44.333843],[3.617254,44.333829],[3.616573,44.334359],[3.616093,44.335017],[3.615452,44.335762],[3.615032,44.336822],[3.615052,44.337624],[3.615212,44.337867],[3.615112,44.338082],[3.614912,44.338068],[3.614551,44.337681],[3.613851,44.337266],[3.61309,44.336664],[3.61291,44.336006],[3.61291,44.334932],[3.61305,44.334201],[3.61307,44.332841],[3.61327,44.332153],[3.612189,44.331652],[3.611828,44.331366],[3.610867,44.331194],[3.609946,44.330907],[3.609666,44.330535],[3.609206,44.330234],[3.608565,44.329676],[3.607844,44.329447],[3.607324,44.329074],[3.606423,44.328831],[3.605322,44.328716],[3.60378,44.329031],[3.60326,44.329246],[3.602579,44.329805],[3.601938,44.329962],[3.601278,44.33002],[3.600817,44.330134],[3.600904,44.329975],[3.601353,44.329672],[3.601551,44.329465],[3.601445,44.329427],[3.601155,44.329531],[3.600096,44.329704],[3.599436,44.330363],[3.598855,44.33075],[3.598815,44.331108],[3.598288,44.331505],[3.598262,44.331373],[3.598117,44.331449],[3.598051,44.331354],[3.597509,44.331534],[3.597152,44.331874],[3.59636,44.332044],[3.595845,44.332082],[3.59525,44.332261],[3.594669,44.332337],[3.594022,44.3328],[3.593705,44.332715],[3.593533,44.332498],[3.593309,44.332469],[3.593163,44.3328],[3.592328,44.3335],[3.591007,44.333299],[3.590566,44.333156],[3.590406,44.332655],[3.590786,44.33194],[3.591235,44.331609],[3.590066,44.332196],[3.588344,44.332841],[3.587323,44.333342],[3.586422,44.334115],[3.586102,44.335046],[3.586202,44.33592],[3.586903,44.335948],[3.587443,44.33655],[3.587323,44.337266],[3.587123,44.337796],[3.588264,44.339184],[3.589665,44.340287],[3.589205,44.340688],[3.588745,44.341003],[3.587683,44.342206],[3.586202,44.343194],[3.585761,44.343695],[3.586462,44.34348],[3.586883,44.343566],[3.586943,44.343953],[3.587143,44.344439],[3.587183,44.345055],[3.587363,44.345341],[3.587223,44.346086],[3.587083,44.346558],[3.587163,44.346931],[3.587683,44.347374],[3.588444,44.348319],[3.588745,44.348778],[3.589005,44.349808],[3.589605,44.34988],[3.590006,44.350123],[3.590306,44.351011],[3.590839,44.35175],[3.591446,44.35191],[3.59101,44.352014],[3.590456,44.352024],[3.59035,44.352364],[3.590416,44.352845],[3.591275,44.353837],[3.591222,44.354215],[3.590495,44.355178],[3.590284,44.355207],[3.589637,44.355065],[3.58928,44.355254],[3.589016,44.355509],[3.588461,44.35583],[3.587972,44.356368],[3.587589,44.3565],[3.587193,44.35651],[3.586572,44.356973],[3.585661,44.357381],[3.585141,44.357854],[3.585121,44.35814],[3.586122,44.357925],[3.586082,44.358383],[3.586182,44.359142],[3.585281,44.360201],[3.585201,44.361103],[3.58452,44.362176],[3.58418,44.362964],[3.58424,44.363508],[3.58462,44.364109],[3.585741,44.365368],[3.585882,44.365898],[3.585621,44.367472],[3.585261,44.368517],[3.585481,44.369175],[3.585301,44.370077],[3.58484,44.371379],[3.585041,44.372839],[3.5847,44.373555],[3.5846,44.374242],[3.58424,44.374714],[3.58404,44.375601],[3.58474,44.376875],[3.585201,44.377461],[3.585401,44.378248],[3.585721,44.378692],[3.585902,44.379923],[3.586482,44.381325],[3.586282,44.38204],[3.586222,44.382698],[3.587063,44.383972],[3.587083,44.384773],[3.586102,44.385489],[3.585922,44.385789],[3.585001,44.386433],[3.58462,44.386876],[3.58414,44.387549],[3.583859,44.387749],[3.583219,44.388035],[3.582658,44.388507],[3.582318,44.389294],[3.582098,44.389638],[3.582218,44.390167],[3.582498,44.390424],[3.583079,44.390711],[3.58388,44.391297],[3.58424,44.39144],[3.585221,44.391626],[3.585461,44.391841],[3.584901,44.393214],[3.584762,44.393561],[3.584547,44.39373],[3.584268,44.394312],[3.583624,44.39488],[3.583453,44.39583],[3.583517,44.396397],[3.582509,44.396796],[3.581972,44.397225],[3.580792,44.397854],[3.580298,44.398023],[3.580148,44.39882],[3.580427,44.399188],[3.581007,44.399341],[3.581929,44.399387],[3.581607,44.399939],[3.581736,44.400889],[3.58238,44.401365],[3.583152,44.401717],[3.583324,44.401901],[3.583646,44.402055],[3.583581,44.402239],[3.583624,44.402484],[3.58356,44.40302],[3.581822,44.403051],[3.581564,44.402898],[3.581243,44.402974],[3.581007,44.402729],[3.580685,44.402576],[3.580663,44.402852],[3.580835,44.403266],[3.5812,44.403879],[3.581264,44.404615],[3.58341,44.406929],[3.58341,44.407359],[3.584268,44.407711],[3.584847,44.408156],[3.585684,44.408692],[3.586993,44.408953],[3.58783,44.409505],[3.588023,44.409735],[3.588517,44.410072],[3.589182,44.410777],[3.589547,44.411528],[3.59077,44.413045],[3.592572,44.414318],[3.593645,44.414931],[3.594396,44.415038],[3.594761,44.415084],[3.596156,44.416141],[3.596156,44.416571],[3.596413,44.416862],[3.596435,44.418333],[3.596735,44.418885],[3.596928,44.419498],[3.597035,44.419697],[3.596864,44.42028],[3.597078,44.420954],[3.597915,44.421598],[3.598602,44.422165],[3.59901,44.423145],[3.599117,44.42382],[3.599439,44.424249],[3.600705,44.42523],[3.601177,44.425521],[3.60182,44.425888],[3.602829,44.42618],[3.603022,44.426578],[3.603473,44.426808],[3.604202,44.427605],[3.604524,44.427865],[3.604546,44.42811],[3.605189,44.428877],[3.606219,44.429566],[3.606606,44.430072],[3.60755,44.430823],[3.607678,44.431098],[3.608344,44.431956],[3.608837,44.432401],[3.609009,44.432952],[3.609073,44.433856],[3.609095,44.434684],[3.609266,44.435098],[3.609567,44.435343],[3.609717,44.435618],[3.610404,44.436262],[3.611026,44.436645],[3.611176,44.436921],[3.611691,44.437426],[3.612013,44.437564],[3.612442,44.43807],[3.612549,44.438392],[3.612785,44.438698],[3.612957,44.438805],[3.613021,44.439081],[3.613493,44.439372],[3.613966,44.439908],[3.614824,44.440291],[3.615274,44.440582],[3.615575,44.440659],[3.61654,44.441211],[3.617227,44.441456],[3.61757,44.44164],[3.618042,44.441808],[3.618729,44.442099],[3.619008,44.44236],[3.619609,44.442681],[3.620167,44.442697],[3.621562,44.444014],[3.623428,44.445163],[3.623922,44.445224],[3.625295,44.44576],[3.626561,44.446618],[3.627634,44.447583],[3.627677,44.448548],[3.627162,44.449069],[3.627076,44.449437],[3.626754,44.449805],[3.626604,44.450555],[3.626239,44.451152],[3.625681,44.45175],[3.625681,44.452026],[3.626132,44.452608],[3.626175,44.453144],[3.626003,44.454185],[3.626282,44.45515],[3.626282,44.455977],[3.626733,44.456973],[3.627098,44.457095],[3.627462,44.45734],[3.627913,44.457693],[3.629436,44.458382],[3.629866,44.459408],[3.630016,44.461644],[3.629909,44.462624],[3.629608,44.463742],[3.629458,44.464339],[3.629436,44.465748],[3.629651,44.466958],[3.630145,44.467877],[3.630638,44.469898],[3.631153,44.470373],[3.633299,44.4712],[3.633707,44.471567],[3.633728,44.472057],[3.633192,44.472685],[3.632355,44.473527],[3.631818,44.474553],[3.631604,44.475824],[3.631368,44.47613],[3.630445,44.476421],[3.629651,44.477141],[3.629029,44.478029],[3.627806,44.478779],[3.627548,44.479544],[3.627441,44.481535],[3.627977,44.481672],[3.628986,44.482193],[3.629587,44.4823],[3.630466,44.482254],[3.630788,44.482331],[3.632162,44.482315],[3.632569,44.482392],[3.63317,44.482683],[3.634071,44.482377],[3.634758,44.482009],[3.635316,44.481841],[3.635445,44.482591],[3.636088,44.482928],[3.638577,44.483402],[3.637891,44.483571],[3.637977,44.483708],[3.638728,44.483923],[3.641753,44.484443],[3.642375,44.484214],[3.642912,44.483831],[3.643041,44.483969],[3.642654,44.484979],[3.643105,44.486035],[3.644028,44.486326],[3.64465,44.486801],[3.645315,44.486939],[3.645916,44.486862],[3.646367,44.486893],[3.647311,44.486479],[3.648126,44.48602],[3.64862,44.486081],[3.649457,44.486785],[3.649263,44.487398],[3.64995,44.487566],[3.650036,44.488377],[3.649702,44.488736],[3.649702,44.488918],[3.649915,44.488746],[3.650212,44.489231],[3.650651,44.489372],[3.652137,44.489332],[3.653369,44.489069],[3.653963,44.488817],[3.654516,44.488867],[3.655365,44.489211],[3.657474,44.48914],[3.658366,44.489433],[3.658947,44.489776],[3.660376,44.490291],[3.662061,44.491018],[3.663082,44.491301],[3.663576,44.492663],[3.66349,44.49323],[3.663661,44.493827],[3.665357,44.495403],[3.665442,44.49447],[3.665915,44.492985],[3.666387,44.492373],[3.667331,44.491975],[3.668146,44.491883],[3.667846,44.491316],[3.667052,44.490674],[3.667073,44.489985],[3.667245,44.489587],[3.668318,44.489495],[3.668919,44.489082],[3.66924,44.48873],[3.66982,44.488209],[3.66967,44.487306],[3.669929,44.486693],[3.669637,44.486104],[3.669069,44.48589],[3.669595,44.485186],[3.669466,44.484772],[3.669004,44.484038],[3.669165,44.483762],[3.669208,44.483563],[3.668607,44.483211],[3.668189,44.482752],[3.668067,44.482011],[3.667417,44.481222],[3.666815,44.480967],[3.666392,44.480909],[3.666734,44.480688],[3.66701,44.480502],[3.667531,44.48041],[3.668441,44.479157],[3.669287,44.478925],[3.669914,44.478576],[3.670305,44.478231],[3.6705,44.477969],[3.670489,44.477706],[3.67065,44.47737],[3.670857,44.477304],[3.670995,44.477321],[3.670983,44.47746],[3.671167,44.477813],[3.671282,44.477829],[3.671317,44.477632],[3.67142,44.477559],[3.671581,44.477961],[3.671754,44.47778],[3.672007,44.477706],[3.672604,44.477444],[3.672547,44.477641],[3.673513,44.477772],[3.673938,44.477739],[3.674191,44.477764],[3.675146,44.477665],[3.675468,44.477764],[3.675721,44.477952],[3.67656,44.477821],[3.677285,44.477526],[3.677675,44.477206],[3.678515,44.476951],[3.678848,44.476672],[3.679067,44.476681],[3.678865,44.477022],[3.678524,44.477497],[3.67815,44.477648],[3.677694,44.478112],[3.677499,44.478205],[3.676816,44.47875],[3.676344,44.479273],[3.676263,44.479725],[3.676588,44.480085],[3.677597,44.480688],[3.67828,44.482231],[3.679011,44.482266],[3.679613,44.482347],[3.680524,44.482127],[3.68189,44.482278],[3.68254,44.482742],[3.683093,44.482881],[3.68428,44.482684],[3.685272,44.482997],[3.685939,44.483009],[3.686411,44.483113],[3.687338,44.483658],[3.688004,44.483774],[3.689273,44.483136],[3.689923,44.483148],[3.690557,44.483229],[3.691696,44.483275],[3.692444,44.484204],[3.692444,44.484679],[3.692509,44.484969],[3.693663,44.484819],[3.694932,44.484737],[3.6962,44.484285],[3.697599,44.48374],[3.69929,44.483426],[3.700656,44.483252],[3.701274,44.483426],[3.701843,44.483856],[3.70251,44.484505],[3.703599,44.484157],[3.704738,44.483612],[3.705226,44.482266],[3.705226,44.48186],[3.705047,44.481547],[3.704608,44.481175],[3.705014,44.481025],[3.706022,44.481071],[3.707047,44.480526],[3.707958,44.479679],[3.70838,44.479597],[3.708478,44.479702],[3.709047,44.479806],[3.709015,44.480328],[3.710202,44.479853],[3.711096,44.479354],[3.71147,44.479284],[3.711259,44.479493],[3.711438,44.479992],[3.712234,44.479853],[3.714983,44.480502],[3.716332,44.481233],[3.716658,44.481686],[3.717731,44.481814],[3.718398,44.481779],[3.719048,44.481524],[3.719308,44.481059],[3.720008,44.481431],[3.72043,44.481744],[3.721097,44.481802],[3.722431,44.482196],[3.723797,44.482788],[3.723992,44.483148],[3.723862,44.483438],[3.724057,44.483937],[3.724398,44.484238],[3.72609,44.484598],[3.726951,44.484633],[3.727618,44.48461],[3.728204,44.484679],[3.728561,44.484668],[3.728854,44.484888],[3.729602,44.484865],[3.730578,44.484644],[3.73074,44.485027],[3.73091,44.485201],[3.731103,44.485316],[3.731629,44.485209],[3.732026,44.485079],[3.732412,44.48517],[3.732734,44.48504],[3.733326,44.485596],[3.734042,44.486072],[3.734529,44.486188],[3.734976,44.486326],[3.735255,44.486456],[3.735416,44.486625],[3.735652,44.486579],[3.735909,44.486602],[3.736285,44.486563],[3.736435,44.486678],[3.736553,44.486923],[3.736778,44.486602],[3.737133,44.486265],[3.737336,44.486173],[3.737554,44.486269],[3.737847,44.486013],[3.738156,44.485549],[3.73923,44.484384],[3.740188,44.483625],[3.740206,44.483302],[3.739108,44.482842],[3.738951,44.482568],[3.739073,44.482108],[3.739439,44.481499],[3.739613,44.481076],[3.739683,44.480728],[3.740031,44.479969],[3.740363,44.479348],[3.740485,44.478315],[3.740397,44.477532],[3.740066,44.476711],[3.739909,44.475654],[3.73963,44.475306],[3.738864,44.474696],[3.738463,44.47405],[3.739247,44.474274],[3.740066,44.473975],[3.740258,44.473751],[3.741129,44.473453],[3.741478,44.473154],[3.741896,44.47298],[3.742036,44.47252],[3.743238,44.472358],[3.743726,44.472172],[3.744772,44.472035],[3.74519,44.47155],[3.745173,44.471115],[3.746445,44.471289],[3.747073,44.471575],[3.747108,44.471761],[3.747787,44.472246],[3.748763,44.472333],[3.749251,44.472209],[3.749513,44.472284],[3.750541,44.472134],[3.751012,44.471923],[3.751151,44.471239],[3.751169,44.470816],[3.751413,44.470692],[3.752162,44.471139],[3.752301,44.471388],[3.752737,44.47155],[3.753365,44.471662],[3.753609,44.471799],[3.754393,44.471911],[3.755299,44.471463],[3.756432,44.472035],[3.757513,44.472072],[3.75875,44.471786],[3.759517,44.471264],[3.760894,44.470779],[3.761225,44.470169],[3.76248,44.470766],[3.764153,44.470555],[3.764972,44.470281],[3.765652,44.470455],[3.767134,44.470468],[3.768772,44.470331],[3.76912,44.470132],[3.769452,44.47104],[3.770288,44.472022],[3.772049,44.473129],[3.772223,44.47354],[3.772746,44.473751],[3.773025,44.473552],[3.773164,44.473129],[3.77299,44.472843],[3.773269,44.472035],[3.773513,44.471923],[3.774035,44.472085],[3.774645,44.472209],[3.775935,44.472968],[3.776441,44.473067],[3.776824,44.472906],[3.77712,44.472632],[3.777521,44.472595],[3.77841,44.472831],[3.779334,44.472744],[3.779926,44.47242],[3.780275,44.471811],[3.780746,44.471687],[3.781704,44.471898],[3.78221,44.472296],[3.783011,44.472296],[3.783587,44.472097],[3.784075,44.471637],[3.784388,44.47155],[3.785364,44.471575],[3.786027,44.471438],[3.786706,44.471003],[3.786968,44.470555],[3.787264,44.470468],[3.788136,44.470617],[3.789164,44.470418],[3.789756,44.470194],[3.790227,44.469261],[3.790767,44.469746],[3.791116,44.469013],[3.791778,44.468975],[3.792388,44.469236],[3.793364,44.469299],[3.794462,44.468702],[3.795438,44.467993],[3.795874,44.467309],[3.796519,44.467184],[3.796885,44.466562],[3.797913,44.466475],[3.798488,44.466239],[3.79875,44.466003],[3.79936,44.465878],[3.799865,44.46558],[3.800684,44.465356],[3.801364,44.465269],[3.8018,44.464846],[3.802236,44.464746],[3.802427,44.464547],[3.802375,44.464236],[3.802549,44.464112],[3.803212,44.464373],[3.803543,44.464622],[3.804397,44.464746],[3.806297,44.465418],[3.806506,44.465368],[3.806976,44.464833],[3.80736,44.464585],[3.807935,44.463938],[3.807935,44.463627],[3.807273,44.463117],[3.807464,44.462856],[3.807586,44.46242],[3.807795,44.46237],[3.808493,44.462731],[3.809434,44.462594],[3.810253,44.462433],[3.811107,44.462358],[3.812745,44.462619],[3.813477,44.462395],[3.814854,44.462545],[3.815517,44.462843],[3.816545,44.463067],[3.817172,44.46303],[3.817416,44.462856],[3.817521,44.462545],[3.817765,44.462482],[3.818218,44.462594],[3.81895,44.462619],[3.821216,44.463341],[3.822052,44.463826],[3.822436,44.464087],[3.82261,44.464012],[3.822331,44.463117],[3.822523,44.462992],[3.825321,44.462608],[3.825494,44.462583],[3.825701,44.462312],[3.826758,44.462887],[3.826669,44.463351],[3.826816,44.463653],[3.827515,44.464547],[3.827694,44.464036],[3.828523,44.463665],[3.828783,44.463131],[3.829222,44.463015],[3.830344,44.463107],[3.830849,44.463676],[3.831353,44.463757],[3.831971,44.463827],[3.832637,44.464489],[3.833207,44.464616],[3.833759,44.464639],[3.834312,44.465243],[3.83493,44.465336],[3.835386,44.46515],[3.83576,44.464744],[3.836004,44.464744],[3.836687,44.464941],[3.837565,44.465127],[3.838475,44.46558],[3.839012,44.465638],[3.839549,44.465463],[3.839923,44.46515],[3.83989,44.464535],[3.839516,44.464303],[3.839419,44.463943],[3.839988,44.463595],[3.840199,44.46327],[3.840102,44.462957],[3.840654,44.462249],[3.841191,44.461239],[3.841337,44.461413],[3.841175,44.462098],[3.841272,44.462191],[3.841451,44.462098],[3.84189,44.461541],[3.842216,44.461309],[3.842687,44.461146],[3.844281,44.461413],[3.845045,44.461541],[3.845744,44.461541],[3.846411,44.461471],[3.846866,44.461552],[3.847224,44.461819],[3.847728,44.461889],[3.848981,44.461692],[3.849696,44.46125],[3.850265,44.461239],[3.850769,44.461355],[3.851826,44.461367],[3.852363,44.46125],[3.853322,44.460508],[3.853794,44.460334],[3.854802,44.460809],[3.854997,44.460798],[3.855062,44.46045],[3.855843,44.459684],[3.856477,44.459219],[3.85677,44.45908],[3.857551,44.458372],[3.858282,44.458128],[3.859291,44.457652],[3.860217,44.45742],[3.860917,44.456979],[3.861714,44.45619],[3.862543,44.455505],[3.863681,44.45489],[3.864559,44.454692],[3.865486,44.454367],[3.864202,44.454344],[3.863161,44.454298],[3.862787,44.454042],[3.862462,44.453892],[3.862917,44.453462],[3.863567,44.45323],[3.864169,44.45316],[3.864413,44.452905],[3.864234,44.452545],[3.863584,44.451349],[3.863437,44.45085],[3.863389,44.449353],[3.863275,44.448563],[3.862201,44.448041],[3.862445,44.44782],[3.862771,44.447727],[3.864153,44.447797],[3.864511,44.447634],[3.865064,44.447785],[3.865812,44.448424],[3.866673,44.448552],[3.867031,44.448343],[3.867584,44.448343],[3.868023,44.44847],[3.868771,44.448354],[3.869471,44.448412],[3.870219,44.448261],[3.870885,44.448505],[3.871568,44.448691],[3.871942,44.448726],[3.872284,44.449016],[3.873129,44.449178],[3.874138,44.44912],[3.874886,44.449097],[3.874821,44.448679],[3.87552,44.448401],[3.876593,44.447669],[3.878024,44.447449],[3.879374,44.447867],[3.880155,44.448308],[3.880431,44.448285],[3.881033,44.44753],[3.880789,44.44717],[3.880171,44.44688],[3.880203,44.446706],[3.880854,44.446125],[3.880968,44.445452],[3.881407,44.44522],[3.881472,44.44479],[3.881667,44.44472],[3.88248,44.445011],[3.883261,44.444802],[3.883521,44.444477],[3.883423,44.444105],[3.883521,44.443792],[3.883944,44.443815],[3.884155,44.444152],[3.884464,44.444488],[3.884496,44.444941],[3.88474,44.445614],[3.885553,44.446207],[3.885814,44.44688],[3.88622,44.447019],[3.886659,44.446903],[3.886708,44.446555],[3.887066,44.446357],[3.887651,44.446346],[3.889066,44.446613],[3.889408,44.446543],[3.889619,44.446021],[3.890416,44.445162],[3.891131,44.445173],[3.891603,44.444895],[3.891879,44.444279],[3.891944,44.44385],[3.892253,44.443803],[3.893473,44.444279],[3.893815,44.444244],[3.894172,44.443699],[3.894432,44.4432],[3.894823,44.443142],[3.895278,44.443536],[3.896173,44.44349],[3.898579,44.443919],[3.898953,44.443339],[3.899002,44.443142],[3.899132,44.44284],[3.898726,44.442538],[3.898514,44.442248],[3.898644,44.44183],[3.898823,44.441632],[3.899311,44.441818],[3.900075,44.441772],[3.900417,44.441853],[3.901035,44.441922],[3.902092,44.442619],[3.903051,44.442921],[3.903572,44.442886],[3.904027,44.442631],[3.904287,44.441957],[3.904564,44.441702],[3.90497,44.44176],[3.905637,44.442085],[3.906401,44.442236],[3.907832,44.442375],[3.908629,44.442526],[3.90928,44.442549],[3.91006,44.44241],[3.910548,44.442503],[3.911329,44.442433],[3.911703,44.442294],[3.914044,44.441946],[3.915573,44.441841],[3.916305,44.441853],[3.917102,44.441516],[3.916158,44.441296],[3.917378,44.441052],[3.918451,44.440703],[3.918907,44.440622],[3.919037,44.44046],[3.918516,44.440262],[3.918549,44.440158],[3.918809,44.439914],[3.919313,44.439891],[3.919655,44.439844],[3.920338,44.440146],[3.921883,44.439914],[3.923181,44.439801],[3.923868,44.439832],[3.924651,44.439993],[3.925649,44.4401],[3.926303,44.440115],[3.929444,44.440947],[3.930453,44.441145],[3.931266,44.441168]]],"type":"MultiLineString"},"properties":{"geo_point":{"lon":3.760808821085579,"lat":44.4008462218145},"name":"GR68 Tour du Mont Lozère (Gard, Lozère) (2019)","code_gr":"GR68"}}]}