{"type":"FeatureCollection","features":[{"type":"Feature","geometry":{"coordinates":[[[5.890258,48.67374],[5.889035,48.673032],[5.887404,48.671657],[5.886203,48.671416],[5.885774,48.671657],[5.885623,48.672181],[5.884003,48.672862],[5.884014,48.672514],[5.883317,48.672826],[5.877459,48.672026],[5.872502,48.670991],[5.872309,48.671317],[5.872566,48.671657],[5.872159,48.671686],[5.871966,48.672536],[5.871386,48.67238],[5.869605,48.67204],[5.869283,48.672082],[5.868768,48.672904],[5.865593,48.672266],[5.865378,48.672635],[5.864799,48.672564],[5.86379,48.672592],[5.863554,48.672904],[5.861129,48.672791],[5.859799,48.672607],[5.858962,48.672663],[5.857782,48.672607],[5.85643,48.672592],[5.855336,48.672833],[5.854542,48.672791],[5.852911,48.672592],[5.851645,48.673003],[5.849929,48.673145],[5.847869,48.672734],[5.84538,48.672011],[5.844843,48.671969],[5.844028,48.671742],[5.843706,48.672082],[5.843234,48.672181],[5.842676,48.672635],[5.84171,48.673839],[5.841131,48.674647],[5.837719,48.674052],[5.835101,48.673301],[5.83523,48.672947],[5.834264,48.671955],[5.833342,48.67255],[5.832376,48.67289],[5.831775,48.672819],[5.829973,48.672252],[5.826926,48.671402],[5.821819,48.667491],[5.820381,48.667732],[5.820381,48.668015],[5.820145,48.668129],[5.819695,48.666768],[5.8186,48.665238],[5.816025,48.663211],[5.815618,48.663225],[5.814416,48.662687],[5.812742,48.661085],[5.812399,48.660249],[5.812034,48.65971],[5.811326,48.659101],[5.810489,48.658591],[5.808236,48.657995],[5.807507,48.657684],[5.803988,48.6556],[5.80182,48.655047],[5.799696,48.654367],[5.798022,48.653871],[5.796799,48.653502],[5.79637,48.653105],[5.79622,48.652411],[5.796606,48.650908],[5.796199,48.648144],[5.795726,48.647194],[5.794975,48.646244],[5.788903,48.641679],[5.772166,48.633511],[5.770492,48.632845],[5.767874,48.631923],[5.764119,48.630178],[5.760965,48.628278],[5.759871,48.626945],[5.75736,48.622023],[5.757081,48.621272],[5.757167,48.62069],[5.757682,48.619683],[5.757596,48.619186],[5.756974,48.618747],[5.753369,48.616541],[5.748906,48.61408],[5.747811,48.613654],[5.747811,48.613654],[5.746524,48.613299],[5.741524,48.612533],[5.729336,48.61059],[5.726397,48.610448],[5.72174,48.610859],[5.715904,48.611356],[5.715015,48.611675],[5.713384,48.611107],[5.702441,48.604366],[5.700746,48.604752],[5.698686,48.604767],[5.693772,48.603703],[5.683751,48.602894],[5.681241,48.602551],[5.677571,48.601658],[5.677228,48.600353],[5.677507,48.600113],[5.677421,48.599686],[5.66798,48.600056],[5.66798,48.600964],[5.668366,48.602367],[5.667508,48.602394],[5.667486,48.603546],[5.66725,48.603603],[5.667164,48.604355],[5.666846,48.605057],[5.666542,48.605546],[5.665233,48.605446],[5.665104,48.604767],[5.663946,48.603912],[5.663717,48.603494],[5.663646,48.602502],[5.663753,48.602154],[5.664182,48.601757],[5.663517,48.601887],[5.663495,48.601585],[5.661478,48.601402],[5.656178,48.601929],[5.654182,48.601845],[5.653453,48.600281],[5.652702,48.598282],[5.65223,48.596779],[5.650299,48.594861],[5.649183,48.594281],[5.647659,48.59354],[5.6462,48.591736],[5.646072,48.591101],[5.646265,48.589767],[5.646082,48.589362],[5.6456,48.589071],[5.642788,48.588559],[5.641093,48.588517],[5.63736,48.588005],[5.637231,48.587536],[5.636728,48.587269],[5.63427,48.586983],[5.633025,48.586147],[5.632145,48.585323],[5.631781,48.585152],[5.631609,48.585266],[5.631287,48.584713],[5.630472,48.584671],[5.630064,48.583237],[5.629399,48.582569],[5.628176,48.582188],[5.628154,48.581902],[5.628605,48.581406],[5.629013,48.579037],[5.62897,48.578297],[5.628712,48.577686],[5.628326,48.575756],[5.627639,48.574593],[5.626931,48.573795],[5.627403,48.571865],[5.627511,48.570587],[5.627961,48.570091],[5.62794,48.568501],[5.627425,48.566628],[5.626845,48.565804],[5.625858,48.56535],[5.624871,48.564964],[5.624356,48.56427],[5.623734,48.562862],[5.623412,48.562492],[5.619979,48.560207],[5.618563,48.558189],[5.617747,48.557652],[5.616868,48.557423],[5.617383,48.556927],[5.618606,48.556999],[5.620558,48.558132],[5.623155,48.558674],[5.638883,48.556896],[5.64002,48.555096],[5.639283,48.55486],[5.636308,48.554356],[5.63472,48.554382],[5.634034,48.554569],[5.63266,48.553844],[5.636308,48.550522],[5.637724,48.549286],[5.638368,48.548504],[5.63957,48.547653],[5.640342,48.545181],[5.641651,48.545238],[5.643733,48.543121],[5.647831,48.538616],[5.650277,48.539555],[5.651286,48.540165],[5.65547,48.541031],[5.656993,48.540661],[5.659804,48.540337],[5.661135,48.539116],[5.661092,48.537975],[5.661607,48.537041],[5.662401,48.536541],[5.665233,48.535263],[5.666263,48.534012],[5.668087,48.532864],[5.668752,48.533501],[5.668752,48.534382],[5.668409,48.535549],[5.666928,48.536797],[5.667143,48.537041],[5.667121,48.538433],[5.667808,48.53978],[5.67064,48.541458],[5.67255,48.541885],[5.676563,48.5438],[5.677528,48.544655],[5.684094,48.544243],[5.691969,48.543434],[5.691712,48.541485],[5.691744,48.540606],[5.696017,48.539814],[5.696868,48.53852],[5.697006,48.535459],[5.696477,48.534546],[5.696753,48.531881],[5.696316,48.531073],[5.694407,48.530662],[5.693855,48.530708],[5.691854,48.529215],[5.691175,48.528515],[5.690618,48.526653],[5.689008,48.524693],[5.686648,48.523354],[5.685875,48.522545],[5.685511,48.52158],[5.684652,48.518394],[5.683751,48.516548],[5.683236,48.515808],[5.683429,48.514797],[5.684052,48.513775],[5.683751,48.512794],[5.682678,48.511574],[5.680296,48.509754],[5.67888,48.509212],[5.674353,48.506271],[5.672936,48.50526],[5.670619,48.503029],[5.667851,48.501637],[5.66401,48.499447],[5.660577,48.497967],[5.660191,48.497654],[5.660791,48.4972],[5.662057,48.497101],[5.66401,48.494724],[5.665169,48.493374],[5.669525,48.491367],[5.670662,48.490372],[5.672872,48.489323],[5.681155,48.487301],[5.681713,48.487061],[5.683579,48.487274],[5.684202,48.487003],[5.684953,48.486504],[5.687268,48.485634],[5.687978,48.485052],[5.687156,48.484768],[5.685811,48.484871],[5.684717,48.484684],[5.684373,48.48436],[5.68403,48.483662],[5.683107,48.483406],[5.68285,48.483021],[5.683022,48.482239],[5.678773,48.472507],[5.678151,48.471825],[5.676734,48.468937],[5.675898,48.467785],[5.674996,48.46719],[5.675554,48.466064],[5.674782,48.465126],[5.67564,48.46154],[5.675683,48.457798],[5.676005,48.457298],[5.676219,48.456547],[5.676541,48.455761],[5.675447,48.454025],[5.67667,48.452274],[5.676692,48.449303],[5.675361,48.442982],[5.675318,48.442982],[5.67446,48.443024],[5.673237,48.44342],[5.669997,48.443951],[5.668516,48.444618],[5.667486,48.444603],[5.666842,48.444775],[5.664353,48.444889],[5.66313,48.445286],[5.6618,48.446129],[5.661263,48.446812],[5.661199,48.447563],[5.660942,48.448135],[5.660319,48.450195],[5.659568,48.450951],[5.658839,48.451279],[5.658281,48.451408],[5.656736,48.452374],[5.655427,48.453369],[5.654612,48.454166],[5.653582,48.454639],[5.652208,48.454838],[5.650105,48.454865],[5.649462,48.455036],[5.648797,48.455421],[5.647402,48.455605],[5.646029,48.456047],[5.644763,48.456715],[5.643926,48.457439],[5.64266,48.459305],[5.641265,48.461296],[5.639613,48.463005],[5.637231,48.464314],[5.636673,48.465397],[5.636265,48.466419],[5.635471,48.46706],[5.630536,48.469025],[5.618155,48.4744],[5.617683,48.474941],[5.618391,48.475895],[5.616825,48.476578],[5.615408,48.477715],[5.612404,48.481144],[5.610044,48.479904],[5.608478,48.479492],[5.606203,48.477688],[5.605688,48.477104],[5.600796,48.47295],[5.59938,48.47356],[5.595818,48.472652],[5.592921,48.471371],[5.574145,48.470119],[5.575733,48.47097],[5.578952,48.473377],[5.57951,48.474529],[5.579681,48.475937],[5.579467,48.476448],[5.577257,48.477699],[5.576785,48.478481],[5.575948,48.480431],[5.574703,48.4813],[5.571849,48.482906],[5.570819,48.483349],[5.568845,48.486248],[5.56788,48.487061],[5.567086,48.489292],[5.565712,48.489876],[5.56494,48.490814],[5.564017,48.493546],[5.563245,48.494667],[5.562472,48.496731],[5.560884,48.497002],[5.558438,48.497993],[5.557816,48.498707],[5.556529,48.499374],[5.554512,48.499886],[5.553739,48.501095],[5.552709,48.501694],[5.551529,48.50182],[5.550671,48.502064],[5.549147,48.503185],[5.547774,48.503357],[5.54404,48.503086],[5.542517,48.503326],[5.541015,48.504066],[5.538354,48.504066],[5.533183,48.505203],[5.531595,48.505192],[5.529277,48.505772],[5.523977,48.505787],[5.521038,48.50526],[5.519042,48.505161],[5.517669,48.505219],[5.516124,48.504932],[5.514064,48.50499],[5.512841,48.505302],[5.512497,48.505844],[5.512691,48.507065],[5.51239,48.509541],[5.511639,48.511074],[5.511382,48.512211],[5.511017,48.512398],[5.510545,48.512226],[5.509257,48.512821],[5.507777,48.513138],[5.506339,48.513577],[5.506382,48.513874],[5.504644,48.513905],[5.504966,48.513451],[5.504966,48.512852],[5.505137,48.512569],[5.502348,48.512638],[5.499408,48.512341],[5.497735,48.512299],[5.496533,48.5117],[5.494881,48.511829],[5.493765,48.511673],[5.492842,48.511246],[5.489774,48.509197],[5.488122,48.509014],[5.487092,48.50856],[5.48368,48.50816],[5.481749,48.508045],[5.478508,48.509754],[5.474989,48.50708],[5.470161,48.506157],[5.466256,48.504734],[5.463402,48.504662],[5.462265,48.504421],[5.460763,48.504494],[5.458446,48.50404],[5.457373,48.503895],[5.455291,48.503284],[5.451,48.501194],[5.448575,48.500355],[5.446687,48.497841],[5.445936,48.493389],[5.445421,48.491768],[5.444562,48.490627],[5.44379,48.490147],[5.44276,48.489677],[5.442996,48.489079],[5.442889,48.488667],[5.442052,48.488228],[5.442052,48.487942],[5.443189,48.487759],[5.444369,48.4874],[5.444756,48.487019],[5.44452,48.4846],[5.431817,48.475296],[5.432117,48.474415],[5.431795,48.473476],[5.432117,48.471981],[5.431559,48.470673],[5.431774,48.470261],[5.431066,48.469933],[5.431151,48.468468],[5.430658,48.467941],[5.430658,48.467941],[5.429079,48.467181],[5.430152,48.466555],[5.434014,48.462556],[5.433929,48.460337],[5.433607,48.459682],[5.43262,48.45917],[5.430603,48.458942],[5.42953,48.459127],[5.427513,48.458985],[5.425732,48.459284],[5.424337,48.459227],[5.42129,48.458202],[5.41774,48.458252],[5.415874,48.458168],[5.413921,48.458523],[5.412526,48.458366],[5.410531,48.457882],[5.410037,48.457954],[5.407763,48.458763],[5.398943,48.45797],[5.396755,48.457527],[5.394545,48.456814],[5.392914,48.456558],[5.390038,48.457329],[5.389245,48.456387],[5.387099,48.454212],[5.386369,48.454838],[5.386391,48.456345],[5.385876,48.457199],[5.385768,48.458122],[5.384481,48.459175],[5.380383,48.459961],[5.379503,48.45993],[5.378945,48.462009],[5.378194,48.462948],[5.377936,48.463818],[5.378323,48.464214],[5.378087,48.465168],[5.375233,48.467487],[5.374718,48.468639],[5.373988,48.469082],[5.373731,48.469921],[5.372336,48.471214],[5.372057,48.47187],[5.37165,48.473049],[5.370404,48.474158],[5.369965,48.475531],[5.369659,48.475933],[5.369439,48.476505],[5.368688,48.476265],[5.368023,48.475461],[5.367787,48.475453],[5.367315,48.474743],[5.365984,48.474129],[5.364118,48.472366],[5.36268,48.470943],[5.356414,48.473347],[5.355921,48.473392],[5.356071,48.473633],[5.350749,48.476734],[5.347488,48.475197],[5.345879,48.473873],[5.344098,48.473091],[5.344183,48.472637],[5.342016,48.472137],[5.339334,48.47097],[5.33839,48.471953],[5.334999,48.471071],[5.334442,48.471171],[5.334098,48.471626],[5.33309,48.471199],[5.332253,48.471256],[5.331137,48.4716],[5.328348,48.471413],[5.325966,48.471058],[5.322898,48.474187],[5.319486,48.472651],[5.317263,48.474672],[5.316866,48.473818],[5.316018,48.472686],[5.315053,48.472069],[5.314474,48.471371],[5.313347,48.47044],[5.31163,48.468639],[5.310633,48.468033],[5.309463,48.467506],[5.307908,48.466988],[5.30338,48.465721],[5.301513,48.467808],[5.298852,48.470203],[5.298144,48.471825],[5.295923,48.470375],[5.293424,48.471291],[5.292748,48.471783],[5.291171,48.47319],[5.290452,48.474094],[5.289615,48.474579],[5.289046,48.475227],[5.287705,48.474949],[5.287523,48.472446],[5.287051,48.471603],[5.28719,48.470879],[5.286246,48.470509],[5.285753,48.470566],[5.284356,48.471699],[5.282811,48.471668],[5.272297,48.467827],[5.270602,48.470104],[5.266804,48.468327],[5.25232,48.468353],[5.234896,48.468342],[5.230412,48.466732],[5.231098,48.466263],[5.233308,48.466164],[5.234639,48.465679],[5.234939,48.465096],[5.234596,48.463673],[5.234295,48.462906],[5.234467,48.462448],[5.235797,48.461624],[5.236892,48.461296],[5.23702,48.460827],[5.23657,48.459591],[5.23672,48.458652],[5.235883,48.458721],[5.235433,48.458382],[5.234446,48.45858],[5.233544,48.458508],[5.23275,48.458252],[5.231849,48.457421],[5.231077,48.456959],[5.229467,48.455078],[5.227558,48.453472],[5.227128,48.452759],[5.226184,48.451878],[5.226227,48.45142],[5.225176,48.451153],[5.223931,48.450069],[5.222687,48.449287],[5.221592,48.448944],[5.219897,48.448772],[5.218653,48.448875],[5.218824,48.448177],[5.21876,48.44762],[5.219886,48.447201],[5.223003,48.445625],[5.223274,48.445335],[5.224053,48.445062],[5.225258,48.444883],[5.225905,48.444618],[5.22583,48.443985],[5.226822,48.441746],[5.227469,48.441126],[5.227171,48.44059],[5.228137,48.440178],[5.228781,48.439381],[5.228716,48.439037],[5.228266,48.43874],[5.228652,48.438012],[5.22936,48.43777],[5.22966,48.437443],[5.230208,48.437273],[5.229575,48.436989],[5.22906,48.436405],[5.228802,48.435734],[5.229124,48.434826],[5.231399,48.432774],[5.231484,48.432163],[5.231055,48.430569],[5.229682,48.429298],[5.228437,48.428318],[5.227429,48.426524],[5.226592,48.425997],[5.224768,48.425686],[5.221292,48.424858],[5.221399,48.424145],[5.221678,48.42392],[5.220627,48.423702],[5.220219,48.423092],[5.22009,48.422565],[5.22009,48.422565],[5.219761,48.422653],[5.219225,48.423322],[5.219439,48.423906],[5.21941,48.424259],[5.2175,48.424332],[5.21753,48.42408],[5.21695,48.423981],[5.21588,48.424019],[5.21469,48.4235],[5.21124,48.424358],[5.20992,48.424301],[5.20871,48.424129],[5.20791,48.423882],[5.20698,48.423309],[5.20647,48.423141],[5.20467,48.421761],[5.20348,48.420399],[5.20265,48.41993],[5.20309,48.41946],[5.20297,48.419239],[5.20245,48.419029],[5.20039,48.41853],[5.1998,48.417999],[5.19925,48.416988],[5.19938,48.415859],[5.19909,48.41552],[5.19778,48.414909],[5.19745,48.414639],[5.19713,48.414211],[5.19657,48.413799],[5.19535,48.412788],[5.19434,48.411301],[5.19385,48.410352],[5.193198,48.410212],[5.189854,48.408407],[5.187621,48.406426],[5.185887,48.405304],[5.185553,48.404816],[5.184918,48.402875],[5.184061,48.401806],[5.1832,48.400928],[5.18307,48.400669],[5.18153,48.400841],[5.18033,48.400631],[5.17848,48.400471],[5.17662,48.400082],[5.175048,48.399997],[5.16462,48.401009],[5.15454,48.40078],[5.15512,48.401409],[5.15466,48.402931],[5.15488,48.40382],[5.15389,48.403858],[5.15188,48.403801]]],"type":"MultiLineString"},"properties":{"geo_point":{"lon":5.541535097788515,"lat":48.51725520781744},"name":"GR703 De Toul (Meurthe-et-Moselle) à Fronville (Haute-Marne) (2020)","code_gr":"GR703"}},{"type":"Feature","geometry":{"coordinates":[[[5.15188,48.403801],[5.14977,48.403481],[5.14748,48.403629],[5.1464,48.403049],[5.146,48.402451],[5.14456,48.402111],[5.14276,48.402012],[5.14067,48.401218],[5.1396,48.400101],[5.13911,48.39922],[5.13756,48.398048],[5.13533,48.397289],[5.13271,48.396919],[5.12977,48.396751],[5.12846,48.396568],[5.12625,48.39669],[5.12492,48.39658],[5.12366,48.39682],[5.12274,48.39674],[5.1211,48.396221],[5.11911,48.395329],[5.11832,48.395309],[5.11619,48.39399],[5.11493,48.394001],[5.11317,48.393822],[5.11138,48.393799],[5.10982,48.393459],[5.1084,48.392719],[5.10696,48.392311],[5.10643,48.391819],[5.10503,48.391289],[5.1031,48.38995],[5.10102,48.388721],[5.09924,48.38644],[5.0981,48.385712],[5.09454,48.38393],[5.0933,48.383202],[5.09218,48.382759],[5.09091,48.38232],[5.08881,48.381279],[5.08737,48.381062],[5.08536,48.38121],[5.08411,48.38113],[5.08362,48.380661],[5.08426,48.380211],[5.08467,48.37944],[5.08375,48.37904],[5.0848,48.378609],[5.08619,48.37751],[5.08572,48.3764],[5.0857,48.374619],[5.08587,48.373871],[5.08499,48.372299],[5.08463,48.371101],[5.08446,48.370338],[5.0839,48.369122],[5.08272,48.368031],[5.08169,48.367168],[5.08055,48.36668],[5.07937,48.366348],[5.07795,48.365471],[5.07639,48.364971],[5.07525,48.364471],[5.07538,48.363419],[5.07497,48.36232],[5.075166,48.360143],[5.074733,48.358867],[5.074623,48.356176],[5.073467,48.353551],[5.07321,48.351978],[5.07306,48.35107],[5.07321,48.349812],[5.07261,48.348919],[5.07175,48.346931],[5.070037,48.346063],[5.06931,48.345424],[5.06877,48.34462],[5.0666,48.342869],[5.06538,48.342201],[5.06467,48.342159],[5.06459,48.343521],[5.06218,48.34351],[5.05948,48.342831],[5.0578,48.342079],[5.05585,48.342129],[5.05482,48.342411],[5.05394,48.343899],[5.05433,48.345589],[5.05317,48.34581],[5.05083,48.345211],[5.04969,48.344639],[5.04916,48.343849],[5.04866,48.34354],[5.04789,48.34285],[5.04699,48.342281],[5.04682,48.341469],[5.04562,48.339901],[5.04446,48.339218],[5.04379,48.338589],[5.04246,48.338161],[5.03899,48.338058],[5.03839,48.337051],[5.03794,48.337059],[5.03744,48.336189],[5.03485,48.333149],[5.03418,48.332062],[5.03302,48.33083],[5.03173,48.329021],[5.03025,48.327591],[5.02843,48.326241],[5.02721,48.324219],[5.02568,48.323238],[5.02208,48.319969],[5.02094,48.318619],[5.02077,48.317928],[5.01995,48.317291],[5.0197,48.316429],[5.01811,48.313351],[5.01725,48.313011],[5.017233,48.312958],[5.016482,48.312328],[5.015731,48.312199],[5.014443,48.312443],[5.013027,48.31274],[5.011568,48.313396],[5.011246,48.31427],[5.009937,48.314384],[5.007019,48.314255],[5.00556,48.314552],[5.004745,48.31501],[5.003629,48.315056],[5.002341,48.314823],[5.000496,48.314926],[4.997985,48.314552],[4.996741,48.314327],[4.994853,48.314468],[4.993265,48.314812],[4.992449,48.314724],[4.989638,48.313984],[4.986398,48.313297],[4.983072,48.312256],[4.981098,48.312183],[4.977386,48.311543],[4.974725,48.311771],[4.971442,48.312454],[4.967451,48.311314],[4.966099,48.311459],[4.963245,48.312286],[4.956121,48.312073],[4.954877,48.312527],[4.953997,48.313114],[4.953203,48.314327],[4.952431,48.314426],[4.951336,48.314484],[4.950414,48.314369],[4.950027,48.31464],[4.947882,48.313667],[4.946036,48.313469],[4.94432,48.312927],[4.94374,48.312199],[4.942539,48.311401],[4.940135,48.310829],[4.938483,48.310886],[4.936595,48.311214],[4.934943,48.311359],[4.927776,48.310902],[4.925909,48.310574],[4.924557,48.310085],[4.920802,48.308331],[4.910588,48.302025],[4.909108,48.302467],[4.90767,48.302692],[4.905846,48.302551],[4.904709,48.301167],[4.903293,48.300095],[4.901984,48.300339],[4.900546,48.300323],[4.897649,48.300125],[4.89413,48.29911],[4.890397,48.296158],[4.890268,48.295029],[4.890289,48.294215],[4.890203,48.293402],[4.889388,48.291931],[4.888948,48.291609],[4.888165,48.291458],[4.886727,48.291473],[4.885912,48.291016],[4.885312,48.291115],[4.883616,48.289619],[4.882736,48.28912],[4.881191,48.287205],[4.88456,48.278736],[4.887264,48.278111],[4.886556,48.277065],[4.885665,48.276638],[4.884903,48.276382],[4.88368,48.27504],[4.883337,48.274269],[4.882629,48.273811],[4.8822,48.273041],[4.882135,48.272209],[4.881084,48.271652],[4.88059,48.270596],[4.880848,48.269653],[4.880247,48.268383],[4.88014,48.267197],[4.880741,48.265682],[4.880955,48.264954],[4.884088,48.265411],[4.884453,48.26384],[4.887736,48.257584],[4.880033,48.255314],[4.879646,48.255283],[4.877822,48.254898],[4.874539,48.253742],[4.875505,48.252754],[4.878616,48.25124],[4.881577,48.249714],[4.882157,48.249527],[4.882972,48.248726],[4.881363,48.247639],[4.880462,48.246738],[4.878488,48.245625],[4.877543,48.244667],[4.877286,48.243324],[4.877372,48.242367],[4.879496,48.24065],[4.880311,48.24028],[4.884882,48.237423],[4.885676,48.235664],[4.885933,48.234108],[4.885311,48.232922],[4.88368,48.230976],[4.88368,48.229092],[4.88456,48.22739],[4.885182,48.226616],[4.889517,48.224831],[4.893615,48.2229],[4.894474,48.221943],[4.894838,48.221027],[4.894495,48.220528],[4.894431,48.219913],[4.89516,48.218811],[4.897349,48.217152],[4.899366,48.215393],[4.902413,48.211349],[4.9034,48.210533],[4.903357,48.209618],[4.905696,48.204956],[4.911854,48.19207],[4.912047,48.191456],[4.912112,48.191051],[4.912476,48.189738],[4.912799,48.189238],[4.912133,48.188692],[4.911897,48.188076],[4.911876,48.187204],[4.911318,48.186664],[4.911061,48.185825],[4.911296,48.184347],[4.911307,48.183651],[4.911704,48.18327],[4.912176,48.183128],[4.912026,48.182541],[4.911468,48.182026],[4.911468,48.180695],[4.910159,48.180294],[4.909129,48.179066],[4.909537,48.177849],[4.909451,48.176533],[4.909773,48.175701],[4.909794,48.174702],[4.909279,48.173571],[4.909065,48.172611],[4.908357,48.171108],[4.908464,48.169777],[4.909043,48.168461],[4.909923,48.168304],[4.91003,48.168118],[4.90885,48.166859],[4.90679,48.167145],[4.905653,48.166931],[4.904044,48.167061],[4.901812,48.167503],[4.899709,48.167274],[4.899291,48.167049],[4.900696,48.166058],[4.901823,48.165306],[4.903314,48.164925],[4.904269,48.164711],[4.905353,48.164104],[4.904066,48.164082],[4.898797,48.162127],[4.897649,48.163495],[4.896308,48.162319],[4.898089,48.159752],[4.89397,48.159272],[4.89399,48.158729],[4.894742,48.157266],[4.895482,48.156139],[4.896673,48.154915],[4.897059,48.154457],[4.896866,48.15387],[4.896158,48.153374],[4.895943,48.153004],[4.895203,48.15258],[4.893808,48.15102],[4.892467,48.150276],[4.891791,48.149475],[4.890407,48.147556],[4.88898,48.146763],[4.888219,48.145988],[4.88691,48.144901],[4.88176,48.147041],[4.881535,48.146095],[4.879303,48.145515],[4.878616,48.145157],[4.878048,48.145092],[4.876857,48.144707],[4.875945,48.144203],[4.875323,48.143948],[4.874818,48.143181],[4.874722,48.14278],[4.873112,48.142094],[4.872233,48.141563],[4.872426,48.140949],[4.870602,48.138313],[4.870698,48.137489],[4.870505,48.136707],[4.869304,48.13641],[4.866825,48.134132],[4.86676,48.134129],[4.86443,48.13472],[4.86089,48.136002],[4.86153,48.13282],[4.86269,48.131489],[4.86325,48.130489],[4.8626,48.12962],[4.86042,48.128529],[4.85911,48.128201],[4.85743,48.127171],[4.85662,48.126362],[4.84492,48.125919],[4.844734,48.128801],[4.84444,48.129071],[4.84037,48.12851],[4.8387,48.12923],[4.83722,48.129459],[4.83617,48.129459],[4.83516,48.12965],[4.83746,48.131691],[4.83909,48.133282],[4.83789,48.133011],[4.83666,48.132481],[4.83503,48.132019],[4.8334,48.131001],[4.83181,48.130219],[4.83016,48.12989],[4.8293,48.129601],[4.828873,48.129299],[4.82334,48.12669],[4.82248,48.126179],[4.82096,48.125809],[4.81937,48.12648],[4.81744,48.127121],[4.81696,48.128109],[4.81527,48.129601],[4.81407,48.130199],[4.81102,48.130791],[4.80894,48.13229],[4.80686,48.13303],[4.80572,48.13599],[4.80566,48.136662],[4.80531,48.137119],[4.80467,48.138569],[4.8046,48.139221],[4.80411,48.1395],[4.80349,48.140831],[4.80385,48.143089],[4.80006,48.143711],[4.79583,48.144878],[4.79317,48.145931],[4.78961,48.145279],[4.78851,48.145451],[4.78898,48.144741],[4.78877,48.14431],[4.78167,48.14278],[4.7771,48.141651],[4.775485,48.141175],[4.774927,48.140934],[4.772309,48.140179],[4.771558,48.13986],[4.770249,48.139483],[4.769161,48.138764],[4.76819,48.138388],[4.768094,48.138002],[4.76315,48.136951],[4.7625,48.13665],[4.7621,48.138081],[4.75961,48.13784],[4.75697,48.13681],[4.75536,48.136559],[4.7536,48.13596],[4.75126,48.134628],[4.74961,48.134369],[4.74821,48.134338],[4.74705,48.133911],[4.745614,48.132582],[4.744931,48.132297],[4.74332,48.13192],[4.74274,48.13158],[4.74206,48.130821],[4.74017,48.130051],[4.73882,48.128609],[4.73759,48.127979],[4.73658,48.125851],[4.73439,48.12405],[4.73362,48.123199],[4.73298,48.12085],[4.73208,48.119659],[4.7313,48.119251],[4.72909,48.11549],[4.72886,48.113991],[4.7283,48.112598],[4.7283,48.111351],[4.72545,48.107079],[4.72452,48.1064],[4.72167,48.105019],[4.71963,48.104321],[4.71749,48.102249],[4.715942,48.101995],[4.713407,48.101542],[4.709743,48.100814],[4.706268,48.10025],[4.70405,48.100151],[4.70388,48.097439],[4.70446,48.09642],[4.70592,48.095661],[4.70729,48.095119],[4.70721,48.093399],[4.70695,48.092018],[4.70648,48.091351],[4.70635,48.08997],[4.70515,48.088711],[4.70725,48.087662],[4.70693,48.086878],[4.70695,48.086194],[4.707807,48.083933],[4.7071,48.08326],[4.712252,48.080904],[4.709334,48.077587],[4.703629,48.071772],[4.69901,48.06702],[4.69903,48.06675],[4.69676,48.06329],[4.69897,48.061069],[4.69968,48.060711],[4.70101,48.059219],[4.70242,48.05793],[4.70298,48.057652],[4.70238,48.057152],[4.70066,48.055981],[4.70011,48.055382],[4.6977,48.05529],[4.69133,48.052891],[4.69011,48.05162],[4.68918,48.050282],[4.68817,48.049709],[4.68674,48.049541],[4.68466,48.049011],[4.68395,48.048561],[4.6827,48.047169],[4.68172,48.04665],[4.68024,48.046139],[4.68004,48.04644],[4.67906,48.04607],[4.67661,48.044262],[4.674272,48.043217],[4.673521,48.043129],[4.670838,48.042656],[4.670281,48.042554],[4.6688,48.042513],[4.668371,48.041825],[4.668242,48.04145],[4.668328,48.041104],[4.668328,48.041104],[4.667548,48.040876],[4.66787,48.04013],[4.667805,48.038653],[4.668106,48.038064],[4.667848,48.037246],[4.668127,48.036414],[4.668063,48.036084],[4.666733,48.034635],[4.664973,48.033071],[4.664351,48.032411],[4.663471,48.031019],[4.661819,48.030617],[4.661647,48.030359],[4.660445,48.030374],[4.659909,48.03056],[4.658021,48.03023],[4.658793,48.028967],[4.659008,48.026341],[4.656712,48.024791],[4.655553,48.023729],[4.653643,48.024289],[4.652785,48.024346],[4.651905,48.024619],[4.650317,48.024763],[4.647528,48.02571],[4.64624,48.02581],[4.645103,48.025724],[4.643666,48.025767],[4.637958,48.025451],[4.637336,48.025078],[4.635576,48.024748],[4.63461,48.024346],[4.63446,48.024346],[4.633731,48.023916],[4.632829,48.024002],[4.631327,48.024533],[4.629675,48.024519],[4.628903,48.024748],[4.626821,48.024662],[4.624053,48.023873],[4.620792,48.022208],[4.617981,48.021289],[4.616178,48.020873],[4.612252,48.020156],[4.611157,48.019352],[4.609419,48.018907],[4.608368,48.018735],[4.607295,48.018448],[4.605964,48.017859],[4.605106,48.017673],[4.602896,48.016539],[4.601845,48.016209],[4.600214,48.015778],[4.595922,48.015118],[4.594013,48.014644],[4.592768,48.013955],[4.590601,48.012878],[4.589957,48.012433],[4.589185,48.011486],[4.588262,48.009649],[4.58824,48.009261],[4.587425,48.00873],[4.587425,48.00873],[4.586202,48.007825],[4.587125,48.007179],[4.585108,48.005672],[4.583756,48.005356],[4.581631,48.005026],[4.580151,48.004624],[4.577297,48.002944],[4.575623,48.002183],[4.574035,48.001523],[4.569916,48.000231],[4.567405,47.99891],[4.564508,47.997862],[4.56026,47.996584],[4.559315,47.996196],[4.553715,47.992664],[4.553243,47.992132],[4.551505,47.991429],[4.543909,47.989562],[4.542278,47.989203],[4.539982,47.98893],[4.530433,47.986603],[4.52979,47.986316],[4.522859,47.980973],[4.519812,47.979724],[4.519361,47.979436],[4.517409,47.978704],[4.515821,47.978244],[4.513761,47.977871],[4.511122,47.977598],[4.509641,47.977282],[4.50904,47.977066],[4.507045,47.975989],[4.505993,47.97563],[4.504126,47.975443],[4.503225,47.975486],[4.50241,47.975658],[4.502023,47.975816],[4.500929,47.975917],[4.499964,47.9754],[4.499534,47.977468],[4.498826,47.978804],[4.498461,47.978819],[4.497839,47.979106],[4.496638,47.97889],[4.496187,47.978661],[4.495307,47.978388],[4.493977,47.978804],[4.493934,47.978574],[4.496616,47.9755],[4.496638,47.975184],[4.494878,47.974911],[4.49196,47.973978],[4.490994,47.973604],[4.489363,47.972599],[4.488055,47.973748],[4.484664,47.972656],[4.484321,47.971981],[4.483935,47.971751],[4.482282,47.971737],[4.479901,47.971967],[4.477884,47.97178],[4.475845,47.971651],[4.475373,47.971751],[4.466854,47.970803],[4.466854,47.972412],[4.467498,47.973216],[4.468185,47.973877],[4.468313,47.974136],[4.458228,47.975429],[4.448208,47.976535],[4.447564,47.977253],[4.447306,47.977799],[4.446813,47.978488],[4.44662,47.979135],[4.446706,47.980844],[4.445997,47.981734],[4.445654,47.982596],[4.445268,47.982898],[4.437157,47.98037],[4.436449,47.981576],[4.435912,47.981806],[4.435054,47.982036],[4.434346,47.982424],[4.433552,47.9833],[4.433681,47.983659],[4.433981,47.984277],[4.433895,47.984521],[4.433123,47.985167],[4.432651,47.985785],[4.431599,47.986273],[4.429904,47.986589],[4.429153,47.986862],[4.428874,47.987221],[4.42926,47.98791],[4.429046,47.988355],[4.428595,47.988772],[4.427072,47.989576],[4.426514,47.989964],[4.426063,47.990782],[4.426063,47.991673],[4.42645,47.992506],[4.4269,47.993295],[4.426879,47.993898],[4.425076,47.994415],[4.423424,47.993568],[4.422008,47.99252],[4.421986,47.991285],[4.42145,47.99061],[4.419497,47.988772],[4.419283,47.988197],[4.418918,47.988126],[4.41866,47.987881],[4.417416,47.987652],[4.416751,47.987853],[4.415377,47.987939],[4.414412,47.987881],[4.413532,47.987752],[4.412266,47.987723],[4.408146,47.987106],[4.407116,47.986603],[4.406408,47.986417],[4.403683,47.986402],[4.402288,47.985885],[4.40158,47.986503],[4.401194,47.987221],[4.400464,47.987838],[4.399692,47.988327],[4.39849,47.988743],[4.397353,47.989389],[4.396645,47.98949],[4.395958,47.989475],[4.39495,47.98982],[4.39289,47.990509],[4.392439,47.990883],[4.391817,47.991385],[4.390551,47.991802],[4.388276,47.992491],[4.385852,47.99331],[4.384671,47.993827],[4.382826,47.994186],[4.381603,47.994502],[4.380573,47.994559],[4.379543,47.994602],[4.376496,47.994588],[4.373127,47.994961],[4.371904,47.99532],[4.369737,47.996024],[4.36787,47.996541],[4.367226,47.996153],[4.367441,47.995679],[4.367741,47.993913],[4.367548,47.992635],[4.367334,47.992261],[4.366947,47.991931],[4.366926,47.991838],[4.366593,47.991888],[4.366347,47.991665],[4.365971,47.99173],[4.365757,47.991867],[4.365456,47.991974],[4.365306,47.992139],[4.365016,47.992168],[4.363074,47.992168],[4.361873,47.991953],[4.362216,47.991508],[4.362195,47.991048],[4.360757,47.990646],[4.360006,47.990201],[4.358826,47.989655],[4.358611,47.98944],[4.357903,47.989483],[4.356852,47.989109],[4.354577,47.988793],[4.354985,47.987831],[4.354277,47.986797],[4.353805,47.986481],[4.353354,47.985921],[4.351487,47.984786],[4.350951,47.98437],[4.348741,47.983278],[4.34653,47.982675],[4.344342,47.982287],[4.343226,47.982158],[4.342325,47.981756],[4.341273,47.981641],[4.340243,47.981799],[4.338913,47.981828],[4.33799,47.982115],[4.337368,47.982172],[4.336617,47.9819],[4.335673,47.981914],[4.334729,47.982345],[4.33284,47.98312],[4.331338,47.982905],[4.330158,47.983221],[4.329429,47.983623],[4.328356,47.983637],[4.327347,47.983537],[4.325309,47.982589],[4.324515,47.981828],[4.322841,47.98111],[4.321382,47.980578],[4.320052,47.98098],[4.31915,47.981052],[4.317155,47.98144],[4.315417,47.982014],[4.314687,47.982187],[4.314322,47.982546],[4.313936,47.982761],[4.313207,47.983853],[4.311876,47.984298],[4.310675,47.984858],[4.310052,47.985303],[4.307005,47.986625],[4.305182,47.987759],[4.30383,47.98842],[4.302671,47.988779],[4.301405,47.989454],[4.298766,47.991077],[4.298251,47.991622],[4.297671,47.991967]]],"type":"MultiLineString"},"properties":{"geo_point":{"lon":4.759111933188242,"lat":48.147014479186836},"name":"GR703 De Fronville (Haute-Marne) à Bagneux-la-Fosse (Aube)","code_gr":"GR703"}}]}