{"type":"FeatureCollection","features":[{"type":"Feature","geometry":{"coordinates":[[[3.905544,44.591754],[3.904562,44.59198],[3.904451,44.592358],[3.904662,44.593316],[3.904432,44.593555],[3.904146,44.594409],[3.903731,44.593948],[3.90287,44.593971],[3.90249,44.594101],[3.90239,44.594021],[3.902807,44.593574],[3.90267,44.59314],[3.90204,44.592419],[3.90163,44.59166],[3.90059,44.590199],[3.89996,44.58952],[3.89965,44.58952],[3.89913,44.589989],[3.898614,44.59124],[3.89847,44.592209],[3.89774,44.59309],[3.89699,44.593761],[3.89535,44.592918],[3.89449,44.592682],[3.89267,44.592529],[3.89184,44.59259],[3.89147,44.592461],[3.89058,44.591949],[3.88994,44.591389],[3.88916,44.590279],[3.888462,44.589916],[3.887518,44.589856],[3.886338,44.589699],[3.885621,44.58942],[3.885569,44.589218],[3.88587,44.58894],[3.88617,44.588039],[3.88604,44.587761],[3.884817,44.586853],[3.884845,44.586678],[3.885022,44.586354],[3.88483,44.585899],[3.884489,44.585469],[3.884143,44.585381],[3.88354,44.585369],[3.8825,44.585232],[3.8821,44.585041],[3.88079,44.58363],[3.88038,44.583462],[3.87982,44.58345],[3.87961,44.584011],[3.87923,44.584579],[3.87824,44.58551],[3.87485,44.586109],[3.87416,44.586288],[3.87271,44.586342],[3.87106,44.586189],[3.87021,44.585941],[3.8691,44.58569],[3.86793,44.585239],[3.86641,44.58482],[3.86422,44.5854],[3.8632,44.585339],[3.86193,44.585381],[3.86043,44.584782],[3.85965,44.58437],[3.85865,44.58419],[3.857265,44.583572],[3.85643,44.58247],[3.85524,44.58186],[3.85357,44.581211],[3.85209,44.580521],[3.85001,44.58009],[3.84877,44.580009],[3.84847,44.579891],[3.84779,44.57935],[3.84815,44.578941],[3.84846,44.578369],[3.84898,44.576488],[3.84894,44.576111],[3.84969,44.574059],[3.84966,44.573158],[3.84931,44.572609],[3.847704,44.571205],[3.84742,44.569969],[3.84664,44.568661],[3.84646,44.56794],[3.84654,44.56744],[3.84684,44.566903],[3.8482,44.565929],[3.84852,44.565578],[3.84916,44.56525],[3.84979,44.565151],[3.85083,44.565498],[3.85199,44.565701],[3.85265,44.5657],[3.853317,44.565632],[3.85298,44.565472],[3.85203,44.565399],[3.85122,44.56506],[3.85071,44.564602],[3.85041,44.563862],[3.85044,44.56324],[3.849883,44.562904],[3.849588,44.562504],[3.849379,44.561951],[3.848826,44.561379],[3.84833,44.560711],[3.84773,44.560478],[3.8472,44.559872],[3.847063,44.559295],[3.84704,44.558681],[3.84686,44.55822],[3.84643,44.557709],[3.84578,44.557259],[3.84532,44.557091],[3.843746,44.556969],[3.84187,44.55666],[3.84034,44.556709],[3.84034,44.556709],[3.839169,44.556407],[3.83875,44.556239],[3.838391,44.555588],[3.839389,44.554496],[3.835137,44.552776],[3.834737,44.552033],[3.834358,44.55183],[3.833528,44.551811],[3.833052,44.551586],[3.83273,44.551151],[3.832556,44.550442],[3.83221,44.55006],[3.83173,44.549919],[3.82944,44.549759],[3.82619,44.550904],[3.825874,44.550877],[3.825644,44.550694],[3.825544,44.550872],[3.825563,44.551151],[3.82517,44.551109],[3.82498,44.55117],[3.824564,44.551224],[3.82416,44.551077],[3.82324,44.550991],[3.82137,44.550919],[3.82039,44.550999],[3.81948,44.550911],[3.81911,44.550751],[3.81911,44.550751],[3.817545,44.549549],[3.816429,44.549365],[3.816139,44.549479],[3.816032,44.549228],[3.815796,44.549174],[3.815608,44.549476],[3.815568,44.549811],[3.815399,44.549717],[3.81528,44.54912],[3.81454,44.548502],[3.814733,44.548103],[3.815141,44.547943],[3.81542,44.547454],[3.815098,44.546934],[3.815168,44.546424],[3.815063,44.545915],[3.814715,44.545691],[3.814244,44.545108],[3.813809,44.544797],[3.81315,44.54501],[3.81298,44.545109],[3.81243,44.545021],[3.81167,44.54454],[3.81134,44.543789],[3.81111,44.543709],[3.81083,44.543861],[3.80976,44.545071],[3.8094,44.545139],[3.80873,44.545139],[3.80705,44.545349],[3.80585,44.545349],[3.80499,44.545132],[3.80418,44.544659],[3.80378,44.544231],[3.80351,44.54364],[3.80332,44.543018],[3.80313,44.54282],[3.80286,44.54224],[3.80279,44.541801],[3.80282,44.541061],[3.80198,44.540421],[3.80149,44.540371],[3.80064,44.540031],[3.80011,44.539982],[3.79982,44.540112],[3.7999,44.540401],[3.80058,44.540901],[3.80054,44.54108],[3.79989,44.541451],[3.79927,44.54147],[3.79862,44.54126],[3.79792,44.540859],[3.797,44.540581],[3.79694,44.540291],[3.79764,44.53957],[3.79781,44.539249],[3.79717,44.5392],[3.79656,44.53886],[3.79656,44.53886],[3.79613,44.538308],[3.795186,44.537383],[3.794949,44.537245],[3.794349,44.535961],[3.794735,44.534423],[3.79482,44.53388],[3.794284,44.533574],[3.794499,44.533475],[3.795111,44.533567],[3.795926,44.534263],[3.796505,44.534507],[3.796172,44.534247],[3.795937,44.533712],[3.795637,44.533295],[3.794629,44.53257],[3.793774,44.532116],[3.79336,44.532082],[3.79287,44.53233],[3.79201,44.53252],[3.79122,44.53252],[3.78968,44.532452],[3.78898,44.532318],[3.7881,44.532341],[3.78738,44.532219],[3.78701,44.531979],[3.786405,44.531304],[3.7859,44.530689],[3.78517,44.53014],[3.78534,44.52993],[3.78596,44.52961],[3.7872,44.528629],[3.78806,44.52832],[3.78876,44.528118],[3.78931,44.527821],[3.78976,44.527431],[3.78996,44.52689],[3.790009,44.526147],[3.790309,44.52549],[3.79086,44.524818],[3.79139,44.52446],[3.79337,44.523739],[3.79395,44.523682],[3.79503,44.52343],[3.79595,44.523048],[3.79638,44.522709],[3.796227,44.521865],[3.795859,44.520853],[3.795809,44.520367],[3.796144,44.519561],[3.796842,44.518901],[3.79763,44.51778],[3.79763,44.51778],[3.798061,44.51706],[3.797782,44.516632],[3.797396,44.516838],[3.79684,44.517109],[3.79631,44.517479],[3.7952,44.51778],[3.7948,44.51804],[3.79424,44.518089],[3.7936,44.5182],[3.7935,44.518101],[3.794515,44.517178],[3.79331,44.517792],[3.79205,44.518291],[3.79111,44.518608],[3.790188,44.518814],[3.789455,44.518612],[3.78942,44.51873],[3.78958,44.5191],[3.78948,44.519321],[3.78887,44.519699],[3.78783,44.520222],[3.78673,44.520611],[3.786131,44.520744],[3.78541,44.521042],[3.78433,44.521389],[3.78393,44.521454],[3.78504,44.520721],[3.78593,44.519901],[3.78679,44.518799],[3.786924,44.518287],[3.7868,44.517761],[3.78648,44.517078],[3.78634,44.515991],[3.78592,44.514992],[3.78562,44.515209],[3.78497,44.51495],[3.78438,44.514912],[3.78438,44.514912],[3.782569,44.514444],[3.782225,44.513946],[3.781356,44.512631],[3.781153,44.512501],[3.779747,44.511422],[3.779565,44.510978],[3.77774,44.509914],[3.777601,44.510813],[3.777827,44.512263],[3.77773,44.512599],[3.777537,44.512676],[3.776603,44.512255],[3.775477,44.511353],[3.775027,44.510274],[3.774544,44.509868],[3.773545,44.509517],[3.772205,44.509386],[3.770853,44.50895],[3.769973,44.508369],[3.76919,44.507069],[3.76869,44.505611],[3.76853,44.50473],[3.76764,44.503559],[3.76741,44.502281],[3.76722,44.501961],[3.76657,44.501308],[3.766551,44.50092],[3.76636,44.500061],[3.76631,44.49939],[3.7664,44.498581],[3.76658,44.497898],[3.76657,44.497219],[3.76647,44.49699],[3.76634,44.496929],[3.76597,44.497341],[3.76526,44.497849],[3.76486,44.497921],[3.76441,44.498211],[3.76407,44.498508],[3.76361,44.498749],[3.76316,44.498878],[3.76316,44.498878],[3.762506,44.498942],[3.761583,44.498873],[3.76052,44.498941],[3.75978,44.498973],[3.759233,44.499194],[3.758675,44.499684],[3.758697,44.500052],[3.758525,44.500434],[3.758085,44.500625],[3.75668,44.500938],[3.756504,44.500702],[3.75601,44.500641],[3.7555,44.49995],[3.75503,44.49979],[3.75408,44.499828],[3.753309,44.500023],[3.75253,44.499451],[3.75238,44.499142],[3.7525,44.49831],[3.75205,44.49794],[3.75152,44.497662],[3.75124,44.497341],[3.75047,44.497238],[3.74991,44.49691],[3.74883,44.495781],[3.74791,44.495129],[3.747641,44.494991],[3.74715,44.494671],[3.746948,44.49432],[3.746484,44.494081],[3.744639,44.493468],[3.743644,44.492927],[3.743044,44.492406],[3.742765,44.492283],[3.741917,44.491702],[3.741305,44.491557],[3.741488,44.49143],[3.742271,44.491419],[3.741885,44.491243],[3.740951,44.491082],[3.739954,44.490271],[3.739524,44.490164],[3.739246,44.489222],[3.738366,44.488993],[3.737915,44.488755],[3.737496,44.488277],[3.736815,44.487942],[3.736198,44.487531],[3.736768,44.487615],[3.73658,44.487286],[3.736585,44.486804],[3.737303,44.486176],[3.737571,44.486321],[3.738065,44.485656],[3.740168,44.483551],[3.740154,44.483288],[3.73899,44.482792],[3.73891,44.482521],[3.73904,44.482052],[3.73939,44.481602],[3.7397,44.480621],[3.74038,44.47934],[3.74046,44.478642],[3.74044,44.4776],[3.74017,44.47707],[3.73999,44.47641],[3.73992,44.475811],[3.73975,44.475399],[3.73975,44.475399],[3.739363,44.475046],[3.738688,44.474563],[3.73828,44.473553],[3.738323,44.472971],[3.738076,44.472374],[3.738098,44.471846],[3.738532,44.470942],[3.739546,44.470513],[3.740192,44.470075],[3.74161,44.468811],[3.742356,44.468449],[3.74414,44.468651],[3.744494,44.468567],[3.74578,44.467512],[3.74639,44.466777],[3.746724,44.465758],[3.747228,44.465353],[3.747689,44.464833],[3.748247,44.46399],[3.74829,44.463125],[3.748107,44.462474],[3.747893,44.461471],[3.748268,44.460023],[3.748827,44.458224],[3.749524,44.45686],[3.749405,44.456394],[3.749287,44.454235],[3.749095,44.453598],[3.748547,44.452894],[3.747818,44.451638],[3.747657,44.451439],[3.747405,44.450411],[3.746772,44.448917],[3.746788,44.447571],[3.747561,44.445265],[3.748076,44.445113],[3.74829,44.444032],[3.748859,44.44342],[3.749384,44.442607],[3.749503,44.441742],[3.749362,44.439031],[3.749191,44.436694],[3.749299,44.435797],[3.748858,44.434005],[3.74887,44.433039],[3.749223,44.4314],[3.749996,44.429462],[3.751176,44.426888],[3.751412,44.426351],[3.746638,44.426696],[3.745812,44.42691],[3.745125,44.427401],[3.744417,44.427102],[3.742721,44.426604],[3.739997,44.426136],[3.73916,44.426067],[3.738709,44.424513],[3.738871,44.422722],[3.740252,44.422455],[3.74083,44.422241],[3.740348,44.421814],[3.739735,44.420609],[3.739299,44.419178],[3.74038,44.418954],[3.741426,44.418418],[3.741931,44.41802],[3.744615,44.41685],[3.741861,44.415891],[3.741339,44.415804],[3.741025,44.415493],[3.740153,44.415281],[3.739421,44.415331],[3.738916,44.415244],[3.738445,44.415231],[3.738323,44.414982],[3.73769,44.41486],[3.73692,44.415192],[3.73805,44.413059],[3.73876,44.412769],[3.738689,44.41264],[3.737789,44.412188],[3.736359,44.411614],[3.734994,44.410936],[3.73414,44.410401],[3.73296,44.408531],[3.73165,44.407589],[3.731468,44.407205],[3.731298,44.406166],[3.731395,44.405479],[3.729505,44.405449],[3.729038,44.404345],[3.728933,44.403632],[3.728764,44.403042],[3.728854,44.402351],[3.729093,44.401935],[3.730738,44.402076],[3.731972,44.401863],[3.733195,44.401436],[3.73441,44.401321],[3.73441,44.401321],[3.735619,44.401598],[3.737132,44.401467],[3.740318,44.402057],[3.740705,44.402287],[3.740919,44.402663],[3.741805,44.403085],[3.742282,44.403491],[3.742722,44.403713],[3.743065,44.404142],[3.743644,44.404326],[3.744159,44.404234],[3.744202,44.404058],[3.744642,44.4042],[3.745071,44.404073],[3.745328,44.403606],[3.744824,44.403077],[3.744835,44.402809],[3.74431,44.401942],[3.744277,44.400977],[3.743794,44.4008],[3.743622,44.400253],[3.744371,44.399966],[3.744615,44.398945],[3.744423,44.398485],[3.74448,44.397831],[3.74508,44.397511],[3.74508,44.397511],[3.74506,44.396841],[3.745157,44.396651],[3.74505,44.396331],[3.7452,44.395933],[3.745329,44.39499],[3.745574,44.394437],[3.746132,44.393914],[3.746184,44.393665],[3.7458,44.393541],[3.745365,44.393578],[3.744458,44.393914],[3.744145,44.393864],[3.743866,44.39359],[3.743465,44.393416],[3.743604,44.392158],[3.742994,44.391772],[3.742977,44.391286],[3.743482,44.390975],[3.743674,44.390477],[3.744301,44.389966],[3.74472,44.389381],[3.744772,44.388858],[3.744667,44.388447],[3.745033,44.387263],[3.745347,44.386977],[3.745434,44.386666],[3.745295,44.386055],[3.744598,44.38537],[3.744807,44.384436],[3.744528,44.384],[3.744598,44.383527],[3.744423,44.383153],[3.744877,44.382754],[3.744999,44.382456],[3.745225,44.382206],[3.744685,44.381011],[3.74465,44.380749],[3.744859,44.380612],[3.744458,44.380462],[3.744528,44.379728],[3.744389,44.379516],[3.744476,44.37893],[3.743953,44.378631],[3.743413,44.378469],[3.743203,44.378332],[3.743291,44.377884],[3.743831,44.377473],[3.743622,44.376813],[3.743639,44.376165],[3.742506,44.375691],[3.742837,44.375392],[3.742959,44.375056],[3.743657,44.374271],[3.743953,44.374259],[3.744877,44.373773],[3.745278,44.373274],[3.745243,44.372527],[3.745783,44.372191],[3.745975,44.371929],[3.746149,44.371854],[3.746027,44.371406],[3.746236,44.371319],[3.746097,44.371094],[3.746114,44.37082],[3.745661,44.371044],[3.745068,44.371107],[3.745051,44.370446],[3.744842,44.370098],[3.744807,44.369736],[3.745208,44.369686],[3.744999,44.369387],[3.745016,44.369138],[3.744563,44.368602],[3.744528,44.368067],[3.744389,44.367705],[3.743935,44.367469],[3.744371,44.366846],[3.744249,44.366297],[3.744441,44.365812],[3.74404,44.364889],[3.744145,44.36464],[3.743691,44.364304],[3.743875,44.364051],[3.743771,44.363862],[3.7433,44.363755],[3.743622,44.363286],[3.743415,44.362851],[3.74361,44.362744],[3.743541,44.362645],[3.743346,44.362587],[3.743564,44.362316],[3.743461,44.36225],[3.742817,44.362423],[3.743691,44.361716],[3.743794,44.361363],[3.743816,44.361325],[3.743816,44.360858],[3.743644,44.360704],[3.743633,44.360881],[3.743376,44.360996],[3.743226,44.360889],[3.742974,44.361054],[3.742923,44.360875],[3.742647,44.361057],[3.741005,44.361755],[3.741133,44.361456],[3.741487,44.360551],[3.741295,44.359738],[3.741295,44.359485],[3.741042,44.359262],[3.740597,44.358464],[3.740308,44.358196],[3.740308,44.357774],[3.740511,44.357375],[3.740587,44.356842],[3.74034,44.357045],[3.740554,44.355633],[3.740576,44.355189],[3.740414,44.354828],[3.740377,44.354004],[3.739811,44.352962],[3.738773,44.351476],[3.737894,44.350601],[3.737207,44.349474],[3.736778,44.348557],[3.736863,44.347955],[3.736767,44.347195],[3.7377,44.346236],[3.737679,44.345825],[3.737454,44.345528],[3.737529,44.344793],[3.737829,44.344264],[3.737882,44.343381],[3.737738,44.342956],[3.737797,44.34276],[3.737411,44.342407],[3.73784,44.341985],[3.738613,44.341939],[3.739857,44.34141],[3.740432,44.340849],[3.741217,44.340537],[3.742315,44.3404],[3.741827,44.340164],[3.741809,44.339889],[3.741356,44.33959],[3.742001,44.339241],[3.742559,44.339204],[3.74299,44.338992],[3.743055,44.338555],[3.743178,44.338333],[3.743151,44.33811],[3.744042,44.337995],[3.74461,44.337573],[3.744663,44.337988],[3.744459,44.338326],[3.744373,44.338847],[3.744191,44.339268],[3.744631,44.339522],[3.745565,44.339522],[3.746519,44.339292],[3.747099,44.339368],[3.747796,44.339238],[3.749084,44.339123],[3.749341,44.338962],[3.749626,44.338383],[3.749481,44.338049],[3.749791,44.337524],[3.749994,44.336776],[3.75165,44.3344],[3.75325,44.333061],[3.753545,44.332212],[3.753703,44.331979],[3.753733,44.331724],[3.754318,44.331006],[3.754277,44.330272],[3.75386,44.329521],[3.752832,44.329118],[3.752367,44.328477],[3.752193,44.327452],[3.75199,44.327259],[3.751132,44.326893],[3.750499,44.326487],[3.749094,44.325263],[3.747592,44.323728],[3.747228,44.323068],[3.747271,44.322615],[3.747857,44.3215],[3.748084,44.321463],[3.749331,44.320382],[3.749288,44.319752],[3.748043,44.318969],[3.746992,44.318055],[3.745962,44.316835],[3.745146,44.316697],[3.744309,44.316337],[3.743097,44.315998],[3.741705,44.315664],[3.741426,44.315352],[3.74092,44.315514],[3.736778,44.314901],[3.736033,44.31556],[3.734965,44.316341],[3.729858,44.31707],[3.72791,44.31765],[3.725052,44.317265],[3.722949,44.316712],[3.721682,44.316628],[3.720389,44.316732],[3.717884,44.318156],[3.716222,44.319974],[3.715009,44.319169],[3.71428,44.319107],[3.713845,44.318907],[3.71277,44.318746],[3.712157,44.318727],[3.711737,44.318585],[3.711535,44.318395],[3.708529,44.319699],[3.7084,44.320059],[3.707832,44.320512],[3.706919,44.320842],[3.706684,44.321049],[3.706061,44.321264],[3.705353,44.321756],[3.704924,44.321855],[3.7042,44.322139],[3.703636,44.3222],[3.702982,44.322523],[3.701662,44.322784],[3.700783,44.322892],[3.700306,44.32311],[3.699528,44.323836],[3.698272,44.324457],[3.697682,44.324304],[3.697532,44.324442],[3.696416,44.324737],[3.695761,44.324954],[3.692822,44.325201],[3.690879,44.325493],[3.68955,44.32511],[3.688712,44.324956],[3.687693,44.325025],[3.687308,44.324972],[3.684979,44.325548],[3.68279,44.326169],[3.6825,44.326221],[3.67984,44.326241],[3.67885,44.326118],[3.677158,44.32655],[3.675549,44.326618],[3.674487,44.32639],[3.673622,44.325939],[3.6728,44.325272],[3.671623,44.324798],[3.67056,44.324963],[3.67015,44.324699],[3.66953,44.324589],[3.66806,44.324829],[3.666934,44.324883],[3.664899,44.325886],[3.664117,44.326414],[3.663463,44.32678],[3.663227,44.327185],[3.663174,44.327851],[3.662858,44.328022],[3.66215,44.328162],[3.661689,44.328071],[3.660841,44.328095],[3.66027,44.328522],[3.65883,44.329021],[3.65812,44.328941],[3.65771,44.32922],[3.65727,44.329231],[3.65681,44.329391],[3.65598,44.329102],[3.6554,44.328701],[3.653727,44.328293],[3.653298,44.328438],[3.652549,44.329288],[3.65157,44.329941],[3.65051,44.329842],[3.649671,44.328976],[3.649174,44.328682],[3.648163,44.328582],[3.64735,44.328732],[3.646077,44.329681],[3.645198,44.329849],[3.643783,44.329685],[3.642678,44.329309],[3.641935,44.329031],[3.638727,44.329093],[3.637622,44.329285],[3.636699,44.329715],[3.636324,44.329684],[3.636023,44.329162],[3.634907,44.328648],[3.633105,44.328894],[3.632493,44.329269],[3.631764,44.329561],[3.630359,44.329891],[3.629961,44.330229],[3.629779,44.330647],[3.6298,44.331043],[3.629253,44.331296],[3.626861,44.330735],[3.626121,44.330989],[3.625327,44.331127],[3.62494,44.331526],[3.624372,44.331848],[3.624366,44.332224],[3.624704,44.333069],[3.624704,44.333614],[3.624018,44.334488],[3.623621,44.335033],[3.623765,44.335037],[3.624339,44.334588],[3.625005,44.334235],[3.625412,44.333759],[3.625552,44.333222],[3.625547,44.33275],[3.625369,44.332262],[3.626013,44.331817],[3.626668,44.331948],[3.627076,44.331795],[3.627408,44.331833],[3.627752,44.332285],[3.628588,44.332815],[3.629447,44.333345],[3.629661,44.333579],[3.630037,44.33359],[3.630734,44.333368],[3.63229,44.333037],[3.632418,44.332853],[3.632741,44.332071],[3.632912,44.332086],[3.633524,44.332615],[3.634392,44.333099],[3.636152,44.333514],[3.636217,44.333782],[3.635728,44.333889],[3.635433,44.33415],[3.634983,44.333951],[3.634854,44.334542],[3.633835,44.334657],[3.633137,44.335094],[3.632311,44.335854],[3.631453,44.336783],[3.630777,44.337274],[3.63038,44.338003],[3.630319,44.338346],[3.63035,44.338879],[3.62996,44.33905],[3.62977,44.339691],[3.62995,44.340641],[3.629673,44.342342],[3.629067,44.343361],[3.62796,44.34399],[3.627549,44.344846],[3.626918,44.345262],[3.626126,44.345242],[3.625364,44.345672],[3.624053,44.345711],[3.62341,44.345963],[3.622852,44.345817],[3.622173,44.34576],[3.620402,44.345292],[3.618396,44.344257],[3.617602,44.343896],[3.617076,44.344019],[3.616433,44.343873],[3.61565,44.343528],[3.613708,44.343259],[3.612581,44.343351],[3.611829,44.343374],[3.610708,44.343741],[3.610063,44.344065],[3.609157,44.344215],[3.608547,44.344215],[3.608599,44.343579],[3.608198,44.343018],[3.607414,44.342357],[3.607205,44.342096],[3.606595,44.341834],[3.605897,44.34131],[3.605218,44.340799],[3.605325,44.340675],[3.60447,44.340566],[3.604288,44.340653],[3.603924,44.34062],[3.603963,44.340874],[3.60412,44.341198],[3.603614,44.343404],[3.602656,44.34318],[3.602133,44.34323],[3.602098,44.343666],[3.60161,44.343753],[3.601279,44.344115],[3.601209,44.344975],[3.599414,44.344626],[3.59932,44.344617],[3.597893,44.344793],[3.596338,44.344633],[3.595876,44.344655],[3.594342,44.344977],[3.593323,44.345238],[3.592496,44.345546],[3.592035,44.345669],[3.591466,44.34629],[3.591424,44.346535],[3.590629,44.34642],[3.589922,44.34609],[3.589321,44.346006],[3.589267,44.345661],[3.588988,44.344924],[3.588988,44.344341],[3.588602,44.343796],[3.588548,44.34342],[3.588881,44.342771],[3.589214,44.341923],[3.589772,44.34111],[3.589825,44.340604],[3.589492,44.340075],[3.588355,44.339292],[3.587122,44.337819],[3.587368,44.33702],[3.587422,44.33656],[3.586928,44.335962],[3.586223,44.335869],[3.586162,44.334812],[3.586573,44.334003],[3.587176,44.333396],[3.5886,44.332706],[3.59026,44.332062],[3.591226,44.331551],[3.590569,44.331057],[3.590498,44.33067],[3.590956,44.329917],[3.596166,44.323315],[3.59661,44.321091],[3.59756,44.319698],[3.59804,44.31789],[3.598081,44.31637],[3.597708,44.315191],[3.597798,44.313564],[3.59824,44.312649],[3.59824,44.312649],[3.598655,44.312651],[3.598891,44.313051],[3.598837,44.314102],[3.599309,44.31497],[3.599974,44.315622],[3.601037,44.315561],[3.601305,44.315453],[3.603333,44.315101],[3.603826,44.315146],[3.605671,44.315684],[3.606144,44.315423],[3.606433,44.315568],[3.606197,44.316098],[3.607217,44.317242],[3.608118,44.317817],[3.609018,44.317902],[3.611015,44.316735],[3.611326,44.31606],[3.61139,44.315284],[3.61183,44.314417],[3.61243,44.31378],[3.613547,44.313235],[3.617302,44.312652],[3.617988,44.311968],[3.618492,44.311392],[3.618718,44.311431],[3.618922,44.312022],[3.618766,44.312502],[3.618846,44.312997],[3.619018,44.313012],[3.61948,44.312505],[3.619941,44.312428],[3.620346,44.312409],[3.621096,44.312422],[3.622943,44.313232],[3.624791,44.314255],[3.625418,44.31428],[3.625714,44.313968],[3.625871,44.313581],[3.626516,44.313008],[3.628032,44.31201],[3.628485,44.311798],[3.62927,44.311249],[3.630786,44.311287],[3.631432,44.311062],[3.631421,44.310287],[3.630891,44.309379],[3.63052,44.308605],[3.630649,44.308552],[3.631335,44.308951],[3.63229,44.309347],[3.633663,44.309512],[3.633641,44.30978],[3.635369,44.309051],[3.636549,44.308099],[3.637252,44.307707],[3.637758,44.307233],[3.639145,44.306824],[3.639896,44.306164],[3.641139,44.30656],[3.64157,44.306011],[3.643866,44.306394],[3.646012,44.305673],[3.646548,44.305028],[3.6479,44.305151],[3.64966,44.304521],[3.650261,44.303968],[3.650754,44.303339],[3.651612,44.302571],[3.654873,44.303891],[3.656023,44.304564],[3.657435,44.304564],[3.658272,44.304015],[3.659126,44.303766],[3.659701,44.303467],[3.660572,44.303205],[3.662158,44.302531],[3.66303,44.302045],[3.663003,44.302256],[3.662727,44.302635],[3.663325,44.302256],[3.663451,44.301894],[3.66329,44.301384],[3.663888,44.301129],[3.663896,44.301105],[3.663682,44.300582],[3.664798,44.298747],[3.665066,44.298302],[3.665656,44.297986],[3.666311,44.297802],[3.669336,44.297618],[3.670667,44.29791],[3.671332,44.29824],[3.672115,44.299146],[3.672931,44.299423],[3.674626,44.29933],[3.675827,44.29953],[3.677383,44.300283],[3.678285,44.300321],[3.680291,44.2992],[3.681835,44.298823],[3.68308,44.298332],[3.683616,44.297879],[3.683799,44.296835],[3.684046,44.296013],[3.68352,44.295145],[3.683456,44.29483],[3.683734,44.294501],[3.684464,44.293917],[3.684797,44.292864],[3.685268,44.292412],[3.685794,44.292296],[3.686781,44.292181],[3.687361,44.291828],[3.688144,44.290261],[3.68942,44.289585],[3.689689,44.289078],[3.689281,44.287942],[3.689346,44.287481],[3.690644,44.285845],[3.691106,44.285561],[3.692484,44.284989],[3.694839,44.282589],[3.69604,44.282228],[3.696443,44.281932],[3.696609,44.281529],[3.69662,44.280937],[3.696781,44.280607],[3.696888,44.280284],[3.697338,44.279954],[3.697907,44.279877],[3.698771,44.279943],[3.699796,44.279824],[3.70134,44.279877],[3.702693,44.27947],[3.704548,44.278825],[3.706544,44.278656],[3.707016,44.27841],[3.707542,44.277826],[3.708078,44.277565],[3.708786,44.277519],[3.709301,44.277719],[3.710009,44.278249],[3.710675,44.27848],[3.711877,44.278526],[3.712499,44.278318],[3.713453,44.277819],[3.714054,44.277742],[3.71517,44.278188],[3.715696,44.27818],[3.716619,44.277996],[3.718367,44.278018],[3.719569,44.277811],[3.720384,44.277811],[3.72253,44.278057],[3.723485,44.277895],[3.724032,44.277496],[3.724973,44.276281],[3.726001,44.275495],[3.727796,44.274871],[3.72879,44.274809],[3.729539,44.274509],[3.72987,44.274098],[3.729644,44.27295],[3.729801,44.272263],[3.730201,44.271652],[3.730655,44.271277],[3.730019,44.270774],[3.730062,44.270551],[3.730545,44.270321],[3.730797,44.270002],[3.730813,44.269745],[3.730673,44.26923],[3.730673,44.268938],[3.73106,44.268777],[3.731189,44.268954],[3.731585,44.269392],[3.731853,44.269845],[3.732121,44.269998],[3.733248,44.270022],[3.733999,44.269507],[3.734868,44.268646],[3.735587,44.268258],[3.736113,44.268178],[3.735652,44.267371],[3.735635,44.266998],[3.735351,44.266441],[3.735544,44.265735],[3.735834,44.265266],[3.735684,44.26512],[3.735168,44.265742],[3.734643,44.26618],[3.734665,44.267524],[3.734262,44.267766],[3.733495,44.267993],[3.732883,44.268286],[3.732444,44.267978],[3.732711,44.266665],[3.732594,44.265243],[3.73254,44.264682],[3.732224,44.264279],[3.731307,44.264029],[3.730695,44.263584],[3.72974,44.263107],[3.728967,44.26323],[3.727165,44.2628],[3.726864,44.262369],[3.726929,44.26177],[3.727615,44.261201],[3.727905,44.260333],[3.72767,44.259934],[3.727518,44.259258],[3.727015,44.259035],[3.726435,44.258773],[3.725792,44.25875],[3.724525,44.257198],[3.72444,44.256922],[3.724494,44.256284],[3.724011,44.255515],[3.723914,44.255154],[3.724005,44.254582],[3.724212,44.254403],[3.724354,44.253341],[3.724177,44.252668],[3.724107,44.251596],[3.723903,44.250936],[3.724333,44.250121],[3.723871,44.248991],[3.72386,44.248506],[3.724741,44.247699],[3.725084,44.247527],[3.725556,44.245855],[3.725609,44.245152],[3.725513,44.24471],[3.725609,44.24438],[3.726296,44.244088],[3.726457,44.243665],[3.7262,44.243403],[3.726693,44.243503],[3.727208,44.243818],[3.729858,44.243772],[3.730362,44.243557],[3.732915,44.242143],[3.734814,44.242612],[3.73534,44.242927],[3.73592,44.242681],[3.736316,44.242688],[3.736842,44.242904],[3.737507,44.24265],[3.737915,44.24285],[3.738666,44.242911],[3.739374,44.242681],[3.740887,44.242473],[3.741735,44.242481],[3.742303,44.242327],[3.742732,44.242581],[3.74329,44.242335],[3.743848,44.24205],[3.744374,44.242097],[3.744975,44.242404],[3.746412,44.242128],[3.747314,44.241759],[3.748107,44.241851],[3.748633,44.242443],[3.749352,44.242581],[3.749808,44.242597],[3.750264,44.24275],[3.751519,44.242789],[3.752281,44.242573],[3.753203,44.24192],[3.753815,44.241313],[3.754802,44.24089],[3.755178,44.24036],[3.755135,44.239868],[3.755253,44.239068],[3.755586,44.237539],[3.756154,44.236378],[3.756154,44.235855],[3.756347,44.235425],[3.757334,44.234833],[3.758472,44.234672],[3.758954,44.234779],[3.759314,44.234479],[3.759609,44.233949],[3.761143,44.233802],[3.762205,44.233995],[3.763321,44.234241],[3.763943,44.234579],[3.765209,44.234917],[3.765499,44.234879],[3.765746,44.235002],[3.765982,44.235486],[3.766046,44.235087],[3.766454,44.235671],[3.76654,44.236039],[3.76699,44.236163],[3.768718,44.235871],[3.769694,44.235978],[3.771132,44.236347],[3.771625,44.236393],[3.772119,44.236532],[3.772076,44.236132],[3.772376,44.23624],[3.772634,44.236563],[3.772912,44.236585],[3.773363,44.236305],[3.773481,44.236009],[3.773417,44.235648],[3.773546,44.235125],[3.77435,44.234595],[3.774951,44.234103],[3.775412,44.233841],[3.777473,44.232066],[3.778191,44.23215],[3.779607,44.231381],[3.780745,44.230997],[3.781614,44.230866],[3.783598,44.23009],[3.784183,44.229736],[3.784424,44.229383],[3.7845,44.228921],[3.784961,44.228306],[3.785294,44.227953],[3.785809,44.227261],[3.78642,44.226808],[3.786839,44.2264],[3.789714,44.225677],[3.789907,44.225293],[3.791795,44.224662],[3.792439,44.224232],[3.793029,44.223977],[3.793533,44.224047],[3.794575,44.224586],[3.7954,44.224708],[3.796762,44.224708],[3.796752,44.224823],[3.79568,44.225031],[3.797289,44.225377],[3.798329,44.225423],[3.798898,44.225178],[3.799156,44.223739],[3.798941,44.223685],[3.798147,44.223178],[3.798511,44.222494],[3.798576,44.222801],[3.799305,44.221348],[3.798512,44.220065],[3.79879,44.219795],[3.799187,44.219764],[3.79996,44.219296],[3.800893,44.219256],[3.80187,44.219326],[3.803286,44.219088],[3.804305,44.218949],[3.803983,44.219311],[3.80364,44.219503],[3.803372,44.220003],[3.803672,44.219957],[3.803361,44.220341],[3.803758,44.220387],[3.804434,44.220518],[3.805389,44.220157],[3.805045,44.220472],[3.804981,44.220695],[3.805636,44.220326],[3.806504,44.220103],[3.807094,44.220126],[3.808704,44.219288],[3.809262,44.218557],[3.808962,44.218434],[3.808962,44.218203],[3.808404,44.217573],[3.808307,44.217019],[3.807631,44.216005],[3.80732,44.215905],[3.806794,44.216105],[3.80659,44.215896],[3.807073,44.21522],[3.806998,44.214843],[3.807298,44.214282],[3.807942,44.213897],[3.807867,44.213444],[3.807759,44.212413],[3.807502,44.21179],[3.80762,44.211483],[3.807942,44.211282],[3.808403,44.211167],[3.809036,44.210594],[3.809198,44.209798],[3.808618,44.209256],[3.808661,44.20896],[3.809337,44.208376],[3.810377,44.207822],[3.812095,44.207207],[3.81277,44.207145],[3.813001,44.206915],[3.813028,44.206438],[3.814594,44.206184],[3.814884,44.206107],[3.815452,44.206015],[3.816322,44.205676],[3.816965,44.205246],[3.817137,44.204892],[3.817759,44.204573],[3.818832,44.204292],[3.819508,44.204235],[3.820023,44.203969],[3.82086,44.203962],[3.821385,44.203823],[3.821858,44.203238],[3.823145,44.202853],[3.823789,44.202469],[3.824893,44.202423],[3.825977,44.202631],[3.827265,44.202215],[3.827897,44.202323],[3.828542,44.202893],[3.82881,44.203023],[3.828703,44.202685],[3.828166,44.202016],[3.828359,44.201727],[3.828874,44.201423],[3.829207,44.200607],[3.829599,44.200392],[3.830044,44.200562],[3.830784,44.200477],[3.831889,44.199862],[3.832007,44.199577],[3.831798,44.199093],[3.831824,44.198792],[3.832211,44.198785],[3.833263,44.198378],[3.833338,44.198185],[3.833026,44.197727],[3.832436,44.197293],[3.832533,44.196954],[3.833294,44.19697],[3.833584,44.196554],[3.833424,44.196308],[3.83366,44.196154],[3.833906,44.195731],[3.834443,44.195615],[3.834957,44.195216],[3.835177,44.194889],[3.835494,44.194955],[3.836084,44.1954],[3.836513,44.195396],[3.836942,44.195139],[3.839099,44.194578],[3.839281,44.194424],[3.839377,44.193816],[3.839045,44.193477],[3.839506,44.193193],[3.839764,44.192215],[3.83941,44.191985],[3.83926,44.19175],[3.838895,44.191693],[3.837865,44.190884],[3.837457,44.190931],[3.837094,44.191414],[3.836658,44.191176],[3.83692,44.190454],[3.83632,44.189977],[3.835665,44.189708],[3.835193,44.189269],[3.834539,44.189046],[3.833981,44.188916],[3.833273,44.188454],[3.833423,44.187854],[3.834045,44.187238],[3.834002,44.186938],[3.833606,44.186785],[3.832501,44.187038],[3.832264,44.186577],[3.832715,44.186138],[3.833541,44.1858],[3.834668,44.184977],[3.835161,44.183992],[3.835118,44.183607],[3.835211,44.18284],[3.835183,44.181176],[3.83529,44.181014],[3.835676,44.181049],[3.836427,44.180784],[3.836524,44.180522],[3.836535,44.17956],[3.837382,44.17869],[3.837832,44.178513],[3.838069,44.178136],[3.838101,44.177706],[3.838455,44.177206],[3.838562,44.176875],[3.839179,44.17634],[3.839656,44.176244],[3.840279,44.175974],[3.842199,44.175497],[3.842714,44.175036],[3.842671,44.174428],[3.842167,44.173497],[3.842188,44.172758],[3.841449,44.172227],[3.841255,44.171973],[3.840837,44.172342],[3.839753,44.171511],[3.839099,44.171242],[3.838831,44.170419],[3.839699,44.169272],[3.841652,44.168041],[3.842199,44.167756],[3.842317,44.167479],[3.841985,44.163261],[3.841491,44.16333],[3.841116,44.163238],[3.841663,44.163108],[3.842328,44.1628],[3.841899,44.162838],[3.841084,44.162692],[3.841095,44.161745],[3.841255,44.160498],[3.841684,44.159867],[3.841534,44.15949],[3.841169,44.159197],[3.841105,44.15872],[3.840698,44.15852],[3.840494,44.15812],[3.840633,44.156842],[3.841212,44.156781],[3.84132,44.15655],[3.84147,44.15675],[3.842181,44.156757],[3.842649,44.156872],[3.842329,44.156563],[3.841885,44.156351],[3.841947,44.15628],[3.842304,44.156395],[3.842539,44.156359],[3.841996,44.156085],[3.841935,44.155855],[3.841663,44.155378],[3.841528,44.155316],[3.840998,44.154573],[3.840604,44.154538],[3.840234,44.154096],[3.839741,44.15414],[3.839445,44.154096],[3.839359,44.153919],[3.839026,44.153981],[3.838336,44.153972],[3.838398,44.15376],[3.838533,44.153424],[3.838903,44.152999],[3.838891,44.152628],[3.838706,44.152327],[3.838792,44.152301],[3.839186,44.152646],[3.83931,44.152973],[3.83979,44.15307],[3.839537,44.15285],[3.839238,44.151764],[3.839217,44.151723],[3.838584,44.150931],[3.838262,44.150038],[3.837951,44.149591],[3.837296,44.148167],[3.837468,44.147666],[3.836567,44.146458],[3.835162,44.145711],[3.835118,44.145565],[3.833959,44.144849],[3.834131,44.144826],[3.834582,44.144906],[3.835408,44.144872],[3.835483,44.144671],[3.835,44.144233],[3.835075,44.14364],[3.834957,44.143382],[3.834539,44.143078],[3.834496,44.142701],[3.834206,44.142239],[3.834577,44.141334],[3.834292,44.140514],[3.8341,44.139459],[3.833928,44.13909],[3.834131,44.138597],[3.83411,44.138135],[3.833885,44.137711],[3.833982,44.137411],[3.835301,44.136248],[3.83616,44.135902],[3.837329,44.135686],[3.838036,44.13544],[3.838691,44.135132],[3.839668,44.135008],[3.839903,44.134824],[3.839807,44.134747],[3.841046,44.134093],[3.840582,44.133889],[3.840548,44.133754],[3.840451,44.133588],[3.841352,44.132868],[3.841469,44.13256],[3.843218,44.131236],[3.843455,44.130896],[3.84427,44.130642],[3.845021,44.130196],[3.845536,44.129996],[3.846383,44.128971],[3.847081,44.127446],[3.847183,44.126453],[3.847706,44.125532],[3.847908,44.124705],[3.847735,44.123065],[3.847912,44.122306],[3.847853,44.122071],[3.848049,44.121698],[3.848116,44.120939],[3.848615,44.120146],[3.849184,44.118898],[3.848444,44.11899],[3.846899,44.11956],[3.845429,44.120308],[3.845053,44.121393],[3.844753,44.120238],[3.84545,44.119221],[3.845879,44.119098],[3.846233,44.118559],[3.846984,44.118174],[3.84752,44.117442],[3.847832,44.117219],[3.848454,44.116464],[3.849549,44.115586],[3.850365,44.115455],[3.850987,44.115139],[3.851877,44.115055],[3.853282,44.114723],[3.854377,44.114068],[3.855728,44.113675],[3.857649,44.112744],[3.860664,44.112374],[3.861919,44.112004],[3.86297,44.112243],[3.864869,44.113021],[3.86766,44.113815],[3.869642,44.114099],[3.871737,44.113937],[3.872615,44.113307],[3.873259,44.112366],[3.871833,44.112066],[3.872047,44.111565],[3.871843,44.110694],[3.871832,44.110024],[3.87224,44.109747],[3.872154,44.109054],[3.872852,44.107768],[3.873501,44.10707],[3.874536,44.106573],[3.875792,44.106188],[3.877036,44.105726],[3.878281,44.105032],[3.878624,44.105117],[3.880373,44.104362],[3.879965,44.103869],[3.883205,44.102421],[3.884782,44.10534],[3.885629,44.106296],[3.886456,44.106773],[3.887614,44.107212],[3.887829,44.107497],[3.887856,44.10769],[3.888827,44.107929],[3.890136,44.108022],[3.891413,44.108476],[3.891879,44.108557],[3.892249,44.108753],[3.89269,44.108723],[3.893022,44.108611],[3.893826,44.108838],[3.89491,44.108953],[3.896101,44.109523],[3.89652,44.109655],[3.897201,44.110101],[3.89698,44.110363],[3.896959,44.110579],[3.897421,44.111064],[3.897389,44.110571],[3.897581,44.110848],[3.897796,44.111122],[3.897732,44.111365],[3.897785,44.111704],[3.897994,44.111796],[3.898386,44.111757],[3.898826,44.112744],[3.899609,44.113144],[3.899604,44.113425],[3.899717,44.113575],[3.900768,44.113182],[3.901165,44.113614],[3.90168,44.113899],[3.901498,44.114369],[3.901895,44.114769],[3.902656,44.115178],[3.903643,44.115385],[3.904502,44.114977],[3.905843,44.115293],[3.906337,44.115023],[3.90698,44.11554],[3.907581,44.115832],[3.907967,44.116264],[3.908418,44.116456],[3.908461,44.116865],[3.908836,44.117049],[3.908831,44.117257],[3.908568,44.117558],[3.908568,44.117558],[3.908573,44.117807],[3.908428,44.118118],[3.908503,44.118509],[3.908266,44.118969],[3.908287,44.119244],[3.90775,44.119629],[3.907332,44.120114],[3.9073,44.120422],[3.907965,44.121031],[3.907793,44.121786],[3.908416,44.121909],[3.908587,44.122094],[3.909145,44.122109],[3.909488,44.12194],[3.909746,44.122232],[3.910154,44.122371],[3.910025,44.122648],[3.910261,44.122687],[3.910755,44.122348],[3.910604,44.121878],[3.910787,44.121701],[3.911548,44.121855],[3.91246,44.122394],[3.912922,44.122394],[3.913695,44.122703],[3.914607,44.123349],[3.914692,44.123619],[3.914424,44.123966],[3.91467,44.124266],[3.915228,44.124308],[3.915904,44.124227],[3.916253,44.124073],[3.916548,44.124181],[3.916902,44.125228],[3.917771,44.125359],[3.917519,44.12559],[3.917589,44.125863],[3.917716,44.126024],[3.917531,44.126174],[3.917654,44.126378],[3.917524,44.126441],[3.91763,44.126741],[3.917901,44.126926],[3.918037,44.127307],[3.918345,44.127546],[3.918456,44.127837],[3.918382,44.128059],[3.918468,44.128165],[3.917963,44.128297],[3.91747,44.128023],[3.917162,44.128147],[3.917149,44.128527],[3.916927,44.129041],[3.917137,44.12927],[3.91747,44.129147],[3.91811,44.129147],[3.918505,44.129456],[3.919737,44.129792],[3.91982,44.129834],[3.920121,44.130711],[3.921473,44.131297],[3.922567,44.13122],[3.923082,44.131428],[3.923479,44.131562],[3.923704,44.131866],[3.924509,44.131697],[3.925045,44.131966],[3.92512,44.132329],[3.926043,44.133661],[3.92659,44.134004],[3.927631,44.134123],[3.929766,44.134839],[3.92967,44.135055],[3.929208,44.134947],[3.928736,44.135039],[3.929176,44.135131],[3.928725,44.135224],[3.928467,44.135501],[3.928597,44.135955],[3.929401,44.137303],[3.929573,44.138796],[3.929508,44.139189],[3.929176,44.139613],[3.928666,44.140006],[3.928334,44.140206],[3.928184,44.140691],[3.928677,44.141554],[3.928902,44.141785],[3.928817,44.142108],[3.928559,44.142539],[3.928559,44.142539],[3.926826,44.143847],[3.927405,44.143886],[3.927985,44.143335],[3.928844,44.142775],[3.92952,44.142038],[3.929562,44.141692],[3.929176,44.141391],[3.928854,44.140783],[3.928908,44.140421],[3.92938,44.139963],[3.930796,44.138897],[3.931537,44.139197],[3.932229,44.139005],[3.933479,44.138234],[3.933928,44.138134],[3.935152,44.136495],[3.93557,44.136575],[3.936181,44.137141],[3.936514,44.137688],[3.936461,44.138697],[3.936632,44.139605],[3.936364,44.140283],[3.935839,44.140691],[3.93585,44.140837],[3.936305,44.140941],[3.936858,44.141183],[3.937266,44.140829],[3.937883,44.140529],[3.938285,44.140522],[3.93851,44.140329],[3.938757,44.139543],[3.939497,44.138712],[3.941461,44.137411],[3.941686,44.13748],[3.941664,44.137687],[3.9413,44.138134],[3.942019,44.139428],[3.94278,44.140159],[3.943467,44.14136],[3.94395,44.141869],[3.944432,44.142007],[3.945725,44.141364],[3.947093,44.141292],[3.947485,44.141153],[3.94812,44.141399],[3.949464,44.141622],[3.9497,44.141614],[3.950237,44.141715],[3.951406,44.142323],[3.951964,44.142377],[3.953531,44.142007],[3.95478,44.14198],[3.956534,44.142562],[3.957446,44.1427],[3.957951,44.142566],[3.958954,44.142791],[3.959595,44.142711],[3.959957,44.142816],[3.960622,44.143092],[3.962714,44.14287],[3.96427,44.142862],[3.965654,44.143023],[3.967092,44.143008],[3.968626,44.142769],[3.970042,44.142099],[3.97162,44.141814],[3.973561,44.142184],[3.975139,44.142154],[3.975814,44.142177],[3.97811,44.141522],[3.979044,44.14153],[3.979763,44.141915],[3.980717,44.1421],[3.981865,44.142168],[3.982723,44.14203],[3.98503,44.141945],[3.986383,44.141954],[3.988818,44.141314],[3.990899,44.140568],[3.992155,44.139883],[3.993721,44.138789],[3.995341,44.13838],[3.99562,44.138134],[3.995931,44.138019],[3.996317,44.137734],[3.998903,44.137819],[4.001327,44.137441],[4.002475,44.136864],[4.003253,44.13676],[4.005307,44.135986],[4.006424,44.136009],[4.006949,44.136063],[4.007668,44.135833],[4.00836,44.135289],[4.00888,44.135316],[4.008912,44.135239],[4.009519,44.135308],[4.010018,44.135532],[4.010554,44.135686],[4.01108,44.136016],[4.011477,44.136017],[4.011917,44.135802],[4.012218,44.135721],[4.012368,44.135378],[4.013365,44.134731],[4.013805,44.134362],[4.01388,44.134069],[4.014416,44.133461],[4.014943,44.133853],[4.0155,44.134439],[4.017185,44.134646],[4.018214,44.134362],[4.019234,44.134339],[4.020505,44.133988],[4.020901,44.133547],[4.0212,44.13344],[4.021461,44.13356],[4.022029,44.133272],[4.02227,44.133353],[4.022764,44.13385],[4.023964,44.134338],[4.024749,44.134217],[4.025365,44.134445],[4.026057,44.134512],[4.027327,44.134418],[4.028504,44.134633],[4.029475,44.134686],[4.029928,44.134949],[4.030667,44.135055],[4.031379,44.135316],[4.031883,44.135586],[4.032505,44.135643],[4.033157,44.135507],[4.033995,44.135613],[4.034562,44.135524],[4.03519,44.135622],[4.035807,44.135542],[4.036275,44.135577],[4.036645,44.135392],[4.037088,44.13502],[4.037668,44.134905],[4.037934,44.1347],[4.038789,44.134799],[4.039085,44.134604],[4.03927,44.134171],[4.039812,44.13372],[4.040563,44.13256],[4.040702,44.132198],[4.041539,44.131404],[4.041765,44.131705],[4.041894,44.132682],[4.041796,44.133068],[4.042086,44.134192],[4.042827,44.134593],[4.042965,44.134985],[4.043384,44.135101],[4.043845,44.135332],[4.044393,44.135301],[4.044779,44.135494],[4.045541,44.135177],[4.046679,44.134431],[4.048094,44.133353],[4.048615,44.132848],[4.049392,44.132636],[4.050165,44.132814],[4.050733,44.133275],[4.051034,44.133676],[4.051248,44.134161],[4.051844,44.134238],[4.052493,44.133953],[4.053641,44.13316],[4.054242,44.132544],[4.054724,44.132437],[4.054446,44.132799],[4.05481,44.133313],[4.054737,44.134047],[4.054886,44.134245],[4.055476,44.134304],[4.055661,44.134463],[4.055501,44.134622],[4.055572,44.1349],[4.05583,44.135039],[4.056742,44.135185],[4.057386,44.1354],[4.057694,44.135807],[4.058311,44.135692],[4.058606,44.135683],[4.059407,44.135542],[4.060067,44.135709],[4.060347,44.135193],[4.06054,44.135085],[4.060653,44.135072],[4.061157,44.134927],[4.061255,44.134763],[4.061466,44.1346],[4.06184,44.134069],[4.06261,44.133638],[4.062816,44.133287],[4.063247,44.133123],[4.06367,44.132896],[4.064524,44.132948],[4.064816,44.13268],[4.065142,44.132271],[4.065507,44.132085],[4.065938,44.131968],[4.066369,44.131483],[4.066971,44.131005],[4.067101,44.131133],[4.067449,44.131158],[4.067613,44.130987],[4.067589,44.130783],[4.067648,44.130561],[4.06798,44.130377],[4.068999,44.130415],[4.069185,44.130051],[4.069933,44.129498],[4.070282,44.128817],[4.070899,44.128043],[4.070727,44.126707],[4.071875,44.126645],[4.071604,44.125972],[4.071226,44.125329],[4.071038,44.124832],[4.071011,44.124243],[4.072457,44.124147]]],"type":"MultiLineString"},"properties":{"geo_point":{"lon":3.786105694757483,"lat":44.31502407405767},"name":"GR70 De La Bastide-Puylaurent (Lozère) à Alès (Gard) (2019)","code_gr":"GR70"}},{"type":"Feature","geometry":{"coordinates":[[[3.88261,45.043476],[3.88334,45.04332],[3.88386,45.04324],[3.884566,45.042934],[3.88543,45.042969],[3.8856,45.04213],[3.88698,45.042191],[3.88772,45.04134],[3.88853,45.041149],[3.889479,45.041076],[3.890689,45.04126],[3.89177,45.041519],[3.892576,45.04081],[3.893363,45.040444],[3.894384,45.040292],[3.89564,45.039951],[3.896012,45.039385],[3.896771,45.038774],[3.89703,45.038719],[3.89698,45.03764],[3.897086,45.037541],[3.897352,45.037472],[3.897675,45.037175],[3.897997,45.036731],[3.89862,45.03606],[3.89907,45.035671],[3.899344,45.035535],[3.899974,45.035411],[3.900214,45.035303],[3.900395,45.03529],[3.9007,45.034969],[3.901161,45.034829],[3.90157,45.033669],[3.902052,45.03307],[3.901858,45.032767],[3.901749,45.032642],[3.901778,45.03247],[3.901861,45.032333],[3.90212,45.032192],[3.902417,45.032169],[3.90257,45.032088],[3.902658,45.031654],[3.902817,45.031525],[3.903083,45.03152],[3.904682,45.031731],[3.90542,45.031712],[3.905533,45.030883],[3.90699,45.031151],[3.90737,45.030701],[3.907467,45.030322],[3.90769,45.030041],[3.908016,45.029843],[3.90826,45.029646],[3.908766,45.029376],[3.909028,45.029086],[3.909127,45.028835],[3.909424,45.028501],[3.909672,45.028068],[3.909908,45.027424],[3.910126,45.027225],[3.910161,45.027034],[3.910126,45.026707],[3.910141,45.026166],[3.910258,45.025647],[3.910477,45.025156],[3.91059,45.02504],[3.91051,45.024429],[3.91066,45.023911],[3.910905,45.023622],[3.910979,45.023428],[3.9113,45.022999],[3.91148,45.022591],[3.912041,45.021843],[3.91332,45.020939],[3.913325,45.020313],[3.9135,45.019878],[3.91387,45.018829],[3.913994,45.018078],[3.914099,45.017679],[3.91414,45.017281],[3.91429,45.016998],[3.914623,45.016654],[3.914838,45.016239],[3.91486,45.015949],[3.914577,45.015892],[3.913885,45.01565],[3.913654,45.015533],[3.913614,45.015359],[3.913821,45.015052],[3.91374,45.014629],[3.913432,45.014202],[3.913503,45.014086],[3.913789,45.013954],[3.91387,45.013649],[3.914082,45.013431],[3.913618,45.013321],[3.91283,45.013062],[3.91234,45.013],[3.91008,45.013432],[3.90938,45.013409],[3.908982,45.0135],[3.90881,45.013493],[3.908659,45.01336],[3.907574,45.012824],[3.907052,45.012493],[3.9067,45.012421],[3.906776,45.012276],[3.90785,45.011383],[3.90907,45.010867],[3.91014,45.010479],[3.91091,45.010052],[3.911083,45.009857],[3.911059,45.009674],[3.91095,45.00946],[3.910741,45.009055],[3.910623,45.008605],[3.91062,45.007702],[3.91075,45.007259],[3.911902,45.006096],[3.912213,45.006103],[3.91234,45.005991],[3.912386,45.005732],[3.912357,45.005528],[3.912655,45.005064],[3.913066,45.004696],[3.91302,45.004573],[3.91269,45.00437],[3.912967,45.004118],[3.913098,45.003839],[3.913012,45.003646],[3.913037,45.003471],[3.912959,45.003202],[3.913053,45.003071],[3.913373,45.003074],[3.914171,45.003141],[3.914372,45.002999],[3.915002,45.002151],[3.915399,45.001487],[3.91578,45.000748],[3.915901,45.000782],[3.91616,45.001],[3.916328,45.001082],[3.917009,45.001014],[3.917051,44.999686],[3.916985,44.999416],[3.917132,44.999193],[3.917483,44.998859],[3.91698,44.998741],[3.91736,44.997478],[3.918016,44.997158],[3.918308,44.996834],[3.91842,44.996361],[3.918208,44.995712],[3.917782,44.994914],[3.917767,44.99472],[3.917869,44.994617],[3.918228,44.994372],[3.91895,44.993649],[3.919973,44.993196],[3.920734,44.99273],[3.920534,44.991794],[3.92031,44.991596],[3.919544,44.991322],[3.91871,44.990662],[3.91831,44.990582],[3.916966,44.990761],[3.916708,44.990284],[3.916567,44.990288],[3.915754,44.990932],[3.915612,44.990905],[3.91535,44.990002],[3.91505,44.989689],[3.914293,44.989323],[3.913916,44.989075],[3.913536,44.988721],[3.913439,44.988388],[3.913429,44.988026],[3.913802,44.987018],[3.913782,44.986568],[3.913838,44.986068],[3.914424,44.985279],[3.914463,44.985098],[3.914251,44.98498],[3.913461,44.984264],[3.913801,44.98407],[3.914397,44.984032],[3.914897,44.98407],[3.915292,44.983939],[3.915799,44.983625],[3.91695,44.982681],[3.916985,44.982427],[3.916839,44.982121],[3.916867,44.981778],[3.917142,44.981567],[3.917744,44.981411],[3.918387,44.981456],[3.918633,44.98136],[3.92095,44.979927],[3.921615,44.979461],[3.92291,44.978858],[3.92503,44.977638],[3.92557,44.97707],[3.926351,44.976552],[3.927217,44.976049],[3.92752,44.975693],[3.92789,44.975021],[3.92801,44.97451],[3.92833,44.97403],[3.92913,44.97348],[3.92913,44.97348],[3.929769,44.973216],[3.930035,44.973046],[3.934314,44.97145],[3.934885,44.971104],[3.935467,44.97069],[3.935785,44.970588],[3.937534,44.969635],[3.938644,44.969192],[3.939252,44.968848],[3.940118,44.968171],[3.94102,44.967221],[3.941331,44.966834],[3.942195,44.966136],[3.942662,44.965654],[3.943686,44.964932],[3.94469,44.964373],[3.945451,44.96398],[3.946046,44.963574],[3.947468,44.962462],[3.948272,44.961995],[3.948718,44.961889],[3.949466,44.961906],[3.950622,44.962067],[3.955713,44.962337],[3.957218,44.962491],[3.958658,44.962576],[3.959334,44.962272],[3.960042,44.961817],[3.961458,44.961316],[3.961437,44.961187],[3.961812,44.960898],[3.961817,44.9605],[3.961946,44.960215],[3.962217,44.960056],[3.962853,44.959843],[3.963342,44.959304],[3.963881,44.959065],[3.964688,44.958887],[3.965857,44.958267],[3.96659,44.957432],[3.966898,44.957104],[3.967436,44.956723],[3.969167,44.955642],[3.969485,44.955517],[3.970095,44.955428],[3.970338,44.955347],[3.970577,44.954892],[3.970973,44.954444],[3.971237,44.953359],[3.97092,44.953397],[3.970788,44.952705],[3.970154,44.951359],[3.970392,44.950518],[3.970339,44.949452],[3.969969,44.948498],[3.970762,44.947732],[3.971343,44.947863],[3.971766,44.947358],[3.971686,44.946984],[3.971977,44.94633],[3.972426,44.946049],[3.973456,44.945843],[3.973826,44.945918],[3.974434,44.945956],[3.975464,44.946105],[3.97594,44.946012],[3.976283,44.946199],[3.977974,44.946367],[3.979453,44.946143],[3.981382,44.946143],[3.982438,44.946292],[3.982835,44.946647],[3.984235,44.946666],[3.984842,44.946778],[3.985846,44.946629],[3.98759,44.946909],[3.989201,44.946591],[3.989386,44.94646],[3.989464,44.946441],[3.990548,44.944866],[3.991021,44.944034],[3.991578,44.943521],[3.992231,44.943016],[3.993206,44.941463],[3.993257,44.940983],[3.993499,44.940682],[3.993997,44.940091],[3.99405,44.939694],[3.994221,44.939418],[3.994456,44.93924],[3.99485,44.938993],[3.995266,44.938865],[3.995478,44.938328],[3.995534,44.93768],[3.995687,44.937378],[3.995775,44.93681],[3.996088,44.93631],[3.996334,44.935681],[3.996393,44.935398],[3.996137,44.935301],[3.99573,44.935249],[3.995451,44.935299],[3.994764,44.935661],[3.993799,44.93598],[3.993381,44.936074],[3.993038,44.936211],[3.99246,44.936329],[3.99178,44.936378],[3.991145,44.936363],[3.99015,44.936481],[3.98951,44.936619],[3.989033,44.936851],[3.9881,44.93689],[3.987415,44.937179],[3.98707,44.937199],[3.98448,44.936588],[3.9841,44.936249],[3.9841,44.936249],[3.983688,44.935673],[3.983571,44.935035],[3.983211,44.934694],[3.983216,44.934458],[3.982991,44.934048],[3.982364,44.934269],[3.98194,44.934201],[3.981666,44.934224],[3.981412,44.934136],[3.980614,44.933912],[3.980349,44.933448],[3.979682,44.933326],[3.979211,44.933457],[3.97856,44.933501],[3.978131,44.933725],[3.977879,44.933735],[3.977176,44.933524],[3.976596,44.93316],[3.976221,44.933167],[3.975041,44.933596],[3.974503,44.933706],[3.974104,44.933732],[3.973467,44.933581],[3.972877,44.933506],[3.972197,44.933537],[3.971311,44.93359],[3.971123,44.93348],[3.971059,44.933143],[3.970963,44.932873],[3.970738,44.932637],[3.970124,44.93251],[3.968854,44.932637],[3.968497,44.932575],[3.96799,44.932362],[3.967341,44.932084],[3.966433,44.931427],[3.966306,44.931123],[3.965909,44.930641],[3.96574,44.93029],[3.965834,44.930039],[3.965428,44.929616],[3.96529,44.929352],[3.96537,44.929161],[3.965354,44.928911],[3.965182,44.928642],[3.963916,44.928089],[3.96345,44.927608],[3.963079,44.927414],[3.96285,44.92712],[3.962774,44.926895],[3.9622,44.92662],[3.962103,44.926463],[3.962032,44.926218],[3.961871,44.926105],[3.961161,44.926079],[3.96059,44.92585],[3.959916,44.925445],[3.959711,44.925425],[3.959528,44.925534],[3.959334,44.925255],[3.959149,44.925228],[3.958742,44.92532],[3.958487,44.925274],[3.957631,44.924921],[3.957245,44.924737],[3.95657,44.92453],[3.95657,44.92453],[3.956343,44.924268],[3.956169,44.923961],[3.955981,44.923904],[3.955637,44.923962],[3.954984,44.923908],[3.954304,44.923982],[3.953921,44.924278],[3.950022,44.923733],[3.949528,44.923611],[3.948756,44.923257],[3.948017,44.922828],[3.947516,44.9223],[3.946639,44.921024],[3.946639,44.92084],[3.946891,44.920623],[3.947057,44.920429],[3.947051,44.920204],[3.946882,44.9201],[3.946638,44.920064],[3.945081,44.920124],[3.943552,44.919658],[3.943087,44.91938],[3.94245,44.918911],[3.942423,44.918689],[3.942177,44.9186],[3.941822,44.918559],[3.941613,44.918504],[3.941356,44.918514],[3.941077,44.918421],[3.940857,44.918194],[3.94016,44.918531],[3.939846,44.918573],[3.939629,44.918455],[3.939538,44.9179],[3.939382,44.917789],[3.938891,44.917555],[3.938507,44.917271],[3.938672,44.916595],[3.938692,44.91623],[3.938778,44.915869],[3.938729,44.915392],[3.938552,44.914794],[3.938128,44.914105],[3.937852,44.913156],[3.93764,44.912899],[3.93764,44.912899],[3.937555,44.911725],[3.936932,44.911136],[3.93683,44.910643],[3.936246,44.909746],[3.935913,44.909036],[3.936009,44.908674],[3.935634,44.907975],[3.935687,44.907497],[3.93586,44.906904],[3.935784,44.905833],[3.935188,44.905699],[3.935182,44.90561],[3.935004,44.905483],[3.934602,44.905551],[3.934526,44.905272],[3.93432,44.905009],[3.934175,44.904963],[3.934036,44.904824],[3.93329,44.904571],[3.933005,44.904066],[3.932727,44.903766],[3.932115,44.903374],[3.93142,44.902641],[3.931522,44.90208],[3.931384,44.901614],[3.930994,44.900996],[3.93086,44.900511],[3.930969,44.899831],[3.931196,44.899044],[3.931099,44.898663],[3.931126,44.89786],[3.931418,44.896533],[3.93155,44.895625],[3.931458,44.895119],[3.931043,44.894706],[3.930698,44.89427],[3.930428,44.894113],[3.930157,44.894092],[3.929691,44.894266],[3.929111,44.893803],[3.928912,44.893513],[3.927982,44.893402],[3.9278,44.893413],[3.927234,44.89362],[3.926896,44.893536],[3.926596,44.893532],[3.926188,44.893381],[3.926035,44.893371],[3.925829,44.893324],[3.925141,44.893297],[3.924095,44.893468],[3.92398,44.893422],[3.924152,44.893175],[3.924379,44.892966],[3.9232,44.893327],[3.92306,44.893481],[3.923049,44.893719],[3.922907,44.893563],[3.922733,44.893453],[3.922684,44.893278],[3.922545,44.893407],[3.922427,44.893407],[3.922416,44.893205],[3.922668,44.892903],[3.923721,44.891973],[3.924994,44.891125],[3.925074,44.890996],[3.924938,44.890912],[3.924769,44.890737],[3.924469,44.890061],[3.924727,44.889798],[3.924586,44.889148],[3.924045,44.889259],[3.923513,44.889199],[3.923069,44.889313],[3.922484,44.888878],[3.922285,44.888917],[3.921958,44.889351],[3.92184,44.889656],[3.921086,44.889819],[3.920622,44.889834],[3.91904,44.890186],[3.916428,44.890476],[3.916358,44.890338],[3.915832,44.890223],[3.914588,44.890232],[3.91433,44.890272],[3.914083,44.890204],[3.914169,44.890038],[3.914083,44.889732],[3.91382,44.889683],[3.913858,44.889336],[3.913697,44.88921],[3.913659,44.888981],[3.913477,44.888364],[3.913268,44.887214],[3.913364,44.887051],[3.913739,44.886718],[3.913917,44.886379],[3.913965,44.885872],[3.913831,44.885721],[3.913654,44.885662],[3.913343,44.885635],[3.912973,44.885742],[3.912501,44.885758],[3.912039,44.885834],[3.911787,44.885742],[3.911525,44.885448],[3.911541,44.885742],[3.91146,44.886124],[3.911267,44.886204],[3.910312,44.886148],[3.909046,44.886173],[3.908617,44.886219],[3.908145,44.886127],[3.907924,44.886192],[3.907147,44.886219],[3.90661,44.886158],[3.906176,44.885921],[3.90572,44.885822],[3.905227,44.88588],[3.904904,44.885723],[3.90359,44.886108],[3.902764,44.886364],[3.902434,44.886389],[3.902168,44.886367],[3.901869,44.886292],[3.901608,44.886313],[3.901246,44.88641],[3.901088,44.886356],[3.90072,44.885968],[3.899932,44.885906],[3.898001,44.885585],[3.896348,44.885219],[3.895836,44.885225],[3.895399,44.885299],[3.89512,44.885261],[3.89512,44.885261],[3.893215,44.884614],[3.89257,44.884157],[3.891228,44.882947],[3.890598,44.882605],[3.890105,44.882757],[3.89004,44.883335],[3.889991,44.883886],[3.889729,44.883639],[3.889451,44.883589],[3.889067,44.88391],[3.888492,44.883935],[3.887603,44.884528],[3.886366,44.885071],[3.88586,44.885034],[3.885581,44.88538],[3.884309,44.885651],[3.883943,44.885664],[3.883612,44.886713],[3.882862,44.886627],[3.882409,44.886763],[3.882423,44.887486],[3.8812,44.887455],[3.880719,44.887158],[3.88044,44.886306],[3.880019,44.885722],[3.877015,44.885585],[3.87671,44.885627],[3.875699,44.884997],[3.875706,44.884445],[3.874634,44.884308],[3.874033,44.884095],[3.872423,44.884278],[3.871136,44.884597],[3.869462,44.884308],[3.86693,44.884126],[3.863304,44.883457],[3.861407,44.882515],[3.85942,44.881984],[3.856545,44.881527],[3.853734,44.880735],[3.852361,44.88069],[3.850723,44.88044],[3.849782,44.880131],[3.849102,44.880255],[3.848492,44.879946],[3.847656,44.879798],[3.847432,44.880356],[3.847287,44.880417],[3.846316,44.880386],[3.84618,44.880536],[3.846066,44.88101],[3.845558,44.881531],[3.845242,44.881626],[3.844721,44.881809],[3.84419,44.882072],[3.843461,44.882614],[3.84345,44.882626],[3.842785,44.882946],[3.842407,44.883244],[3.842007,44.883618],[3.840993,44.884335],[3.840532,44.884525],[3.839691,44.884565],[3.837355,44.885034],[3.835612,44.885232],[3.833928,44.885674],[3.833475,44.885714],[3.832818,44.88583],[3.832249,44.885853],[3.831487,44.885922],[3.831353,44.886006],[3.830822,44.886059],[3.830484,44.886048],[3.829527,44.886174],[3.828131,44.886186],[3.827546,44.886114],[3.827071,44.885964],[3.826661,44.885935],[3.826103,44.886133],[3.825609,44.886243],[3.825357,44.886389],[3.824869,44.886543],[3.824252,44.886581],[3.823153,44.886726],[3.822837,44.886954],[3.82237,44.887182],[3.822209,44.887456],[3.819923,44.888148],[3.81884,44.887934],[3.817971,44.888148],[3.817617,44.888338],[3.815493,44.888429],[3.81409,44.888397],[3.81372,44.888622],[3.8129,44.888996],[3.812347,44.889343],[3.811542,44.889423],[3.809595,44.889656],[3.809016,44.889828],[3.808018,44.889744],[3.807186,44.889778],[3.806548,44.889496],[3.805529,44.889309],[3.805014,44.889336],[3.804574,44.889256],[3.804118,44.889446],[3.802868,44.889843],[3.802042,44.890003],[3.801656,44.889987],[3.801152,44.889198],[3.799677,44.889491],[3.796302,44.889915],[3.796082,44.890018],[3.795798,44.890393],[3.795548,44.89044],[3.794571,44.89048],[3.794317,44.890557],[3.791871,44.890007],[3.790969,44.889691],[3.790032,44.888343],[3.790187,44.887936],[3.790401,44.886816],[3.790584,44.885589],[3.790828,44.88443],[3.79136,44.883293],[3.792208,44.881072],[3.792702,44.880245],[3.794012,44.878422],[3.79444,44.87812],[3.795814,44.876835],[3.796404,44.876106],[3.796538,44.875721],[3.797772,44.873608],[3.798679,44.872066],[3.799665,44.870762],[3.800068,44.870308],[3.800985,44.868988],[3.801259,44.868671],[3.801881,44.867409],[3.802257,44.866859],[3.803705,44.865249],[3.803893,44.864914],[3.804258,44.864594],[3.804922,44.864399],[3.807101,44.863427],[3.808104,44.862732],[3.808769,44.862221],[3.80938,44.861927],[3.809906,44.86121],[3.810191,44.860801],[3.810687,44.860272],[3.811001,44.860062],[3.811483,44.859844],[3.811768,44.859543],[3.811961,44.859005],[3.812009,44.858501],[3.812215,44.858002],[3.812336,44.857481],[3.812677,44.856852],[3.813377,44.855916],[3.813581,44.855316],[3.81401,44.854736],[3.814595,44.853676],[3.81496,44.853092],[3.815679,44.851731],[3.815984,44.851395],[3.815968,44.85104],[3.817126,44.850471],[3.817964,44.849934],[3.819476,44.849514],[3.820072,44.849194],[3.820517,44.849034],[3.821777,44.848876],[3.822563,44.848804],[3.823371,44.848324],[3.823698,44.848045],[3.825661,44.847237],[3.826203,44.846992],[3.826944,44.846474],[3.827255,44.846218],[3.827421,44.846129],[3.82763,44.846104],[3.82781,44.845791],[3.828161,44.845394],[3.82876,44.844804],[3.828898,44.844601],[3.829599,44.843895],[3.829795,44.843783],[3.830011,44.843738],[3.829926,44.843059],[3.829841,44.842984],[3.82998,44.842647],[3.829771,44.841938],[3.829798,44.841682],[3.829921,44.841373],[3.830208,44.841074],[3.830389,44.840829],[3.830624,44.840653],[3.830723,44.840407],[3.830897,44.84026],[3.831401,44.840084],[3.831876,44.839625],[3.832195,44.839436],[3.832646,44.838993],[3.832839,44.838542],[3.832785,44.838303],[3.832834,44.837536],[3.832955,44.836692],[3.833022,44.835262],[3.833204,44.834938],[3.83249,44.834389],[3.831964,44.833957],[3.831042,44.833015],[3.830575,44.832436],[3.829996,44.831913],[3.829709,44.83172],[3.829379,44.831444],[3.828601,44.831062],[3.827351,44.830627],[3.826938,44.830471],[3.826005,44.83025],[3.82498,44.829979],[3.823746,44.82914],[3.823457,44.828678],[3.823001,44.827694],[3.822298,44.827068],[3.821842,44.826839],[3.82019,44.825706],[3.819676,44.825138],[3.819361,44.82468],[3.818028,44.823326],[3.816934,44.82272],[3.815496,44.822139],[3.814978,44.822019],[3.814564,44.821917],[3.81409,44.821854],[3.813382,44.821533],[3.812776,44.821445],[3.811891,44.821121],[3.812039,44.820955],[3.812122,44.820507],[3.81195,44.820175],[3.81128,44.819458],[3.811258,44.819294],[3.811494,44.818839],[3.811881,44.818222],[3.812101,44.818233],[3.81253,44.818497],[3.813479,44.818863],[3.813919,44.818943],[3.814547,44.818923],[3.81511,44.818594],[3.815684,44.818294],[3.815713,44.81813],[3.815582,44.817921],[3.815271,44.817596],[3.815032,44.817256],[3.814688,44.816888],[3.814612,44.816673],[3.814391,44.816478],[3.814356,44.816186],[3.81445,44.815491],[3.814434,44.815075],[3.814536,44.814783],[3.814745,44.81443],[3.814702,44.814151],[3.816124,44.813243],[3.816384,44.812946],[3.816483,44.812542],[3.817503,44.811889],[3.817564,44.811767],[3.817277,44.81152],[3.81729,44.811412],[3.818434,44.810855],[3.818803,44.810638],[3.81948,44.810404],[3.820029,44.810074],[3.822138,44.809205],[3.822465,44.808972],[3.822808,44.809021],[3.823323,44.808991],[3.823441,44.808132],[3.823419,44.807472],[3.823784,44.806881],[3.824862,44.806847],[3.825335,44.806729],[3.825823,44.806732],[3.826075,44.806839],[3.826466,44.807217],[3.826735,44.80737],[3.82755,44.807521],[3.827829,44.807427],[3.82792,44.807278],[3.827659,44.806756],[3.827455,44.806498],[3.827445,44.805905],[3.827648,44.805463],[3.827863,44.804679],[3.828292,44.804207],[3.82871,44.804079],[3.829268,44.803461],[3.829695,44.803261],[3.830331,44.803313],[3.830194,44.804047],[3.830377,44.804974],[3.830854,44.806179],[3.830854,44.806179],[3.830877,44.806681],[3.831365,44.806563],[3.832454,44.806415],[3.833472,44.806129],[3.833987,44.805832],[3.83447,44.805484],[3.835328,44.804977],[3.835559,44.804771],[3.837222,44.803879],[3.837758,44.803734],[3.838069,44.803719],[3.839721,44.802967],[3.841041,44.802406],[3.842002,44.802131],[3.843085,44.801971],[3.843633,44.801689],[3.844536,44.801331],[3.84515,44.80117],[3.845606,44.800976],[3.846325,44.800915],[3.846958,44.800655],[3.848203,44.800686],[3.849716,44.800823],[3.850332,44.800762],[3.850531,44.80069],[3.850831,44.800751],[3.851588,44.800179],[3.8517,44.800034],[3.852999,44.799141],[3.854345,44.79768],[3.854796,44.797314],[3.855241,44.797058],[3.855493,44.796509],[3.856502,44.795254],[3.856893,44.794872],[3.858003,44.794236],[3.858589,44.793758],[3.858736,44.79355],[3.858669,44.79343],[3.858899,44.792774],[3.858728,44.792023],[3.858803,44.791428],[3.859044,44.790958],[3.859184,44.790428],[3.859372,44.790062],[3.859672,44.789688],[3.859988,44.789616],[3.860273,44.789646],[3.860718,44.789585],[3.860954,44.789451],[3.861059,44.789304],[3.860509,44.788845],[3.860364,44.788635],[3.860517,44.788525],[3.860691,44.788231],[3.86082,44.787956],[3.861375,44.78742],[3.861469,44.78725],[3.863454,44.786461],[3.865313,44.785514],[3.865798,44.785374],[3.867634,44.783939],[3.868023,44.783722],[3.869335,44.783147],[3.870617,44.782478],[3.870901,44.782405],[3.871206,44.782443],[3.872505,44.783039],[3.873772,44.783536],[3.874147,44.783958],[3.874842,44.784501],[3.875134,44.78499],[3.875273,44.78464],[3.875346,44.784255],[3.875515,44.783688],[3.876035,44.782995],[3.876261,44.782793],[3.876476,44.7825],[3.876861,44.781396],[3.876909,44.781038],[3.877349,44.780661],[3.877688,44.780102],[3.878428,44.779884],[3.878591,44.779722],[3.878615,44.779503],[3.878567,44.779088],[3.878836,44.778835],[3.879128,44.778719],[3.879849,44.778327],[3.881518,44.777207],[3.883037,44.776558],[3.883287,44.776341],[3.883181,44.776141],[3.882078,44.77563],[3.881625,44.775011],[3.882026,44.77469],[3.882758,44.773824],[3.882845,44.773044],[3.883034,44.772777],[3.883183,44.772786],[3.883664,44.771731],[3.883031,44.770627],[3.88299,44.770366],[3.883121,44.770059],[3.882878,44.769834],[3.882758,44.769856],[3.881747,44.769431],[3.882357,44.769196],[3.882235,44.768961],[3.882775,44.767823],[3.883246,44.767253],[3.883235,44.76662],[3.883106,44.766399],[3.882569,44.765576],[3.881943,44.76446],[3.881425,44.763284],[3.880164,44.761892],[3.879843,44.761681],[3.879404,44.761541],[3.878885,44.761313],[3.87848,44.761207],[3.877611,44.760805],[3.87657,44.760242],[3.875068,44.759861],[3.874676,44.75964],[3.873694,44.758503],[3.872361,44.756694],[3.871876,44.756283],[3.870331,44.755219],[3.869548,44.755001],[3.868732,44.754536],[3.867955,44.753971],[3.867225,44.753097],[3.865873,44.75214],[3.864789,44.751553],[3.863642,44.751076],[3.862054,44.749733],[3.861692,44.748753],[3.861362,44.748054],[3.86097,44.747509],[3.860509,44.747116],[3.85942,44.745728],[3.859353,44.745514],[3.859474,44.745292],[3.859978,44.744781],[3.860125,44.744495],[3.860133,44.744141],[3.859688,44.742714],[3.859415,44.742287],[3.859039,44.741997],[3.858459,44.741822],[3.857888,44.741801],[3.857564,44.741672],[3.857231,44.741367],[3.856982,44.740863],[3.856561,44.740397],[3.856523,44.740197],[3.856861,44.739574],[3.857387,44.739044],[3.857438,44.738819],[3.856974,44.737206],[3.85765,44.736966],[3.857612,44.736534],[3.858454,44.735497],[3.858363,44.735141],[3.857333,44.734654],[3.857119,44.734391],[3.857189,44.733883],[3.857521,44.733474],[3.858322,44.732917],[3.858462,44.732199],[3.85834,44.731617],[3.857904,44.73106],[3.856893,44.730329],[3.856701,44.729574],[3.855842,44.728592],[3.855477,44.727379],[3.855898,44.727102],[3.856201,44.726955],[3.856169,44.726761],[3.855971,44.726464],[3.855627,44.726258],[3.856327,44.725671],[3.85641,44.725461],[3.856525,44.725335],[3.85638,44.72519],[3.856563,44.724855],[3.856343,44.724759],[3.855994,44.724367],[3.856273,44.723002],[3.855972,44.722777],[3.855618,44.722453],[3.855497,44.722097],[3.855581,44.721512],[3.85586,44.720784],[3.855801,44.719801],[3.856144,44.718855],[3.85599,44.71726],[3.855976,44.716518],[3.856292,44.7155],[3.856431,44.714449],[3.85656,44.714061],[3.856673,44.712135],[3.856491,44.711463],[3.856389,44.710075],[3.856877,44.707985],[3.856963,44.707207],[3.85685,44.706623],[3.856453,44.706121],[3.856448,44.70591],[3.856628,44.705345],[3.856786,44.704564],[3.856754,44.704216],[3.856813,44.703529],[3.857746,44.701035],[3.857934,44.700047],[3.858181,44.699207],[3.857716,44.698806],[3.857114,44.69849],[3.856397,44.697963],[3.855863,44.697536],[3.854962,44.69725],[3.854066,44.696838],[3.853278,44.696304],[3.852714,44.696594],[3.852215,44.696812],[3.851566,44.697479],[3.851325,44.697929],[3.850848,44.698074],[3.850064,44.698196],[3.849077,44.698498],[3.847366,44.698792],[3.846518,44.698761],[3.845812,44.698611],[3.844814,44.698947],[3.844406,44.699],[3.843441,44.699366],[3.842915,44.699458],[3.842218,44.699344],[3.8418,44.699442],[3.841561,44.699621],[3.841504,44.699847],[3.841292,44.69958],[3.840932,44.699403],[3.840679,44.699214],[3.840646,44.698756],[3.840496,44.698474],[3.839011,44.697396],[3.837813,44.69714],[3.837519,44.696614],[3.837262,44.69649],[3.837026,44.696541],[3.836758,44.696758],[3.836546,44.696859],[3.836419,44.696769],[3.836221,44.696445],[3.835743,44.696205],[3.834407,44.695797],[3.834257,44.696537],[3.834375,44.69733],[3.83467,44.697723],[3.834573,44.697791],[3.833463,44.697536],[3.832197,44.697109],[3.831209,44.696512],[3.830173,44.696103],[3.829379,44.696125],[3.828553,44.695957],[3.827153,44.69585],[3.826209,44.695915],[3.825726,44.695819],[3.825162,44.69466],[3.824825,44.694267],[3.824541,44.69384],[3.823497,44.693172],[3.822802,44.692825],[3.822572,44.692611],[3.822384,44.690867],[3.82512,44.688983],[3.8258,44.688004],[3.82641,44.686567],[3.826253,44.68539],[3.825713,44.685216],[3.825347,44.685167],[3.825155,44.684944],[3.824911,44.68451],[3.824074,44.683965],[3.82322,44.683581],[3.822506,44.683481],[3.822035,44.682874],[3.821756,44.682292],[3.821303,44.682044],[3.820292,44.68192],[3.819212,44.68192],[3.818601,44.682106],[3.818636,44.68161],[3.818656,44.681579],[3.818636,44.681274],[3.816641,44.680522],[3.816362,44.680496],[3.816243,44.680405],[3.816013,44.680416],[3.815653,44.680351],[3.815198,44.680156],[3.813518,44.680145],[3.812585,44.679878],[3.812209,44.679838],[3.811651,44.679706],[3.811163,44.679547],[3.810838,44.679379],[3.810546,44.679334],[3.810385,44.679255],[3.810117,44.679214],[3.809645,44.679581],[3.80927,44.679764],[3.808626,44.679169],[3.808165,44.678635],[3.807531,44.678306],[3.80693,44.678144],[3.80613,44.678074],[3.805175,44.677719],[3.804682,44.67741],[3.804461,44.677139],[3.804257,44.676712],[3.80393,44.676659],[3.803651,44.676407],[3.802906,44.675964],[3.802136,44.675682],[3.801603,44.675354],[3.801173,44.674921],[3.800814,44.674751],[3.800282,44.674599],[3.799566,44.674118],[3.799344,44.673744],[3.799086,44.673016],[3.79848,44.671856],[3.797745,44.670864],[3.79704,44.670132],[3.795927,44.669224],[3.795578,44.669058],[3.793942,44.668045],[3.793466,44.6675],[3.793236,44.667162],[3.792777,44.666721],[3.792375,44.666481],[3.792,44.666161],[3.791733,44.666058],[3.791458,44.665911],[3.791097,44.665795],[3.79035,44.665249],[3.789847,44.665014],[3.789182,44.664581],[3.788804,44.664177],[3.788645,44.664124],[3.78818,44.663441],[3.787456,44.663141],[3.786915,44.662972],[3.784902,44.661892],[3.78431,44.661422],[3.783987,44.660969],[3.78324,44.660687],[3.782692,44.660724],[3.781716,44.660381],[3.780863,44.660011],[3.780509,44.659794],[3.779264,44.659461],[3.77977,44.658518],[3.780964,44.657516],[3.781433,44.657159],[3.782313,44.656747],[3.783059,44.656285],[3.783987,44.656022],[3.784712,44.655988],[3.785892,44.65585],[3.787898,44.655629],[3.789089,44.655377],[3.792013,44.655073],[3.792565,44.655202],[3.793284,44.655149],[3.793906,44.655014],[3.794882,44.654886],[3.795301,44.654869],[3.796449,44.655382],[3.798436,44.656287],[3.79814,44.654824],[3.798297,44.654254],[3.798921,44.653619],[3.79915,44.65322],[3.799383,44.653046],[3.799807,44.652958],[3.800799,44.652335],[3.801148,44.652309],[3.801556,44.65234],[3.801942,44.652294],[3.802264,44.65208],[3.802264,44.65208],[3.802808,44.651112],[3.803247,44.649951],[3.803289,44.648607],[3.803378,44.648125],[3.803252,44.647802],[3.803265,44.647125],[3.803388,44.646748],[3.803233,44.64629],[3.803303,44.646133],[3.803756,44.645805],[3.804005,44.645767],[3.804322,44.645828],[3.805169,44.645237],[3.805607,44.645031],[3.806044,44.645012],[3.806157,44.644932],[3.806704,44.644859],[3.807369,44.644913],[3.8075,44.644873],[3.807852,44.644546],[3.808753,44.644256],[3.809166,44.643914],[3.809665,44.643342],[3.809675,44.642765],[3.810137,44.64167],[3.810309,44.640918],[3.810545,44.640575],[3.810689,44.640186],[3.810732,44.63892],[3.810925,44.638355],[3.811598,44.637898],[3.81265,44.637623],[3.813465,44.63702],[3.814237,44.63671],[3.814806,44.636561],[3.815246,44.636554],[3.81553,44.6366],[3.815696,44.636752],[3.815401,44.637897],[3.815428,44.638096],[3.815809,44.638435],[3.816957,44.639348],[3.818127,44.64029],[3.81876,44.640526],[3.818937,44.640451],[3.818856,44.640092],[3.818808,44.639623],[3.818756,44.639382],[3.818392,44.639126],[3.82078,44.637786],[3.821704,44.637489],[3.822227,44.637191],[3.822506,44.638034],[3.821359,44.638371],[3.821199,44.638611],[3.821337,44.638763],[3.82189,44.639038],[3.822775,44.639663],[3.823092,44.639724],[3.823591,44.639732],[3.825141,44.639992],[3.825584,44.640183],[3.825914,44.640221],[3.826922,44.640148],[3.827619,44.640322],[3.82836,44.640442],[3.828658,44.640558],[3.828816,44.640781],[3.829191,44.642685],[3.829127,44.642981],[3.828945,44.64317],[3.828402,44.643543],[3.829309,44.643379],[3.829754,44.643229],[3.830028,44.643078],[3.83021,44.642729],[3.830404,44.642563],[3.830849,44.642528],[3.831463,44.642664],[3.831793,44.642632],[3.83233,44.642441],[3.832587,44.642538],[3.832855,44.642826],[3.833225,44.643032],[3.833365,44.643272],[3.833526,44.643379],[3.834191,44.644642],[3.834105,44.645176],[3.834126,44.645518],[3.833938,44.645931],[3.833741,44.646432],[3.833443,44.646975],[3.83336,44.647427],[3.83322,44.64785],[3.832861,44.648487],[3.832912,44.648829],[3.833252,44.649155],[3.833687,44.649403],[3.835285,44.650093],[3.835752,44.650856],[3.83631,44.651322],[3.836653,44.650429],[3.837034,44.649932],[3.837393,44.649202],[3.83779,44.648674],[3.839035,44.648231],[3.840485,44.648039],[3.841001,44.648022],[3.841734,44.647908],[3.842252,44.647886],[3.842899,44.647796],[3.843847,44.647728],[3.846245,44.646877],[3.84897,44.646572],[3.849839,44.646393],[3.852156,44.64616],[3.853685,44.646091],[3.855139,44.645435],[3.855579,44.645011],[3.855775,44.644583],[3.856051,44.644158],[3.856469,44.643406],[3.856663,44.643196],[3.85677,44.642622],[3.856941,44.642361],[3.858535,44.642693],[3.858535,44.642693],[3.859642,44.643256],[3.859583,44.643848],[3.859599,44.644432],[3.859908,44.64505],[3.860226,44.645313],[3.860479,44.645454],[3.860772,44.645759],[3.861335,44.647091],[3.861802,44.648178],[3.862461,44.648819],[3.863218,44.649206],[3.863846,44.649471],[3.864457,44.64954],[3.865734,44.6496],[3.867248,44.649591],[3.86812,44.649371],[3.869057,44.649234],[3.869976,44.649183],[3.870805,44.649218],[3.872259,44.649226],[3.87301,44.648981],[3.875671,44.649302],[3.875799,44.649508],[3.875595,44.649859],[3.876389,44.650248],[3.876614,44.650538],[3.877237,44.65095],[3.877677,44.651149],[3.877656,44.651706],[3.877237,44.652172],[3.878288,44.651989],[3.879061,44.651683],[3.879286,44.651493],[3.879705,44.651241],[3.881201,44.650936],[3.882516,44.651149],[3.883385,44.651172],[3.885133,44.650959],[3.886034,44.650752],[3.887118,44.650325],[3.887676,44.650996],[3.888138,44.651691],[3.888888,44.65179],[3.889446,44.651622],[3.88965,44.651622],[3.889758,44.650989],[3.889661,44.650508],[3.889924,44.65021],[3.889878,44.649917],[3.889951,44.649806],[3.889993,44.64994],[3.890079,44.649987],[3.890095,44.649728],[3.890229,44.649279],[3.890363,44.649245],[3.890722,44.649449],[3.890915,44.649823],[3.890936,44.650335],[3.890668,44.650854],[3.890732,44.651235],[3.890727,44.651494],[3.891027,44.651586],[3.891049,44.651891],[3.891564,44.652425],[3.891499,44.652731],[3.891735,44.652868],[3.891414,44.653372],[3.890877,44.654257],[3.889654,44.655112],[3.88916,44.65531],[3.888485,44.655478],[3.888013,44.656127],[3.887616,44.65634],[3.887165,44.656424],[3.886521,44.656806],[3.885695,44.656463],[3.885287,44.656455],[3.884794,44.656776],[3.884214,44.657447],[3.883914,44.65847],[3.883925,44.658958],[3.884193,44.659477],[3.884322,44.659179],[3.88452,44.659168],[3.884848,44.659386],[3.885191,44.659477],[3.885684,44.659309],[3.88635,44.658806],[3.886886,44.658668],[3.887422,44.65879],[3.888452,44.658874],[3.890051,44.658813],[3.891478,44.658691],[3.892143,44.658798],[3.893463,44.659408],[3.894203,44.659523],[3.894739,44.659401],[3.895319,44.659515],[3.89563,44.659805],[3.896086,44.660305],[3.897261,44.660767],[3.898323,44.661118],[3.899128,44.661259],[3.899997,44.661225],[3.901166,44.660935],[3.902239,44.660545],[3.902969,44.660309],[3.903344,44.66024],[3.903408,44.659889],[3.903602,44.659599],[3.903923,44.659317],[3.903988,44.658847],[3.903848,44.658407],[3.903741,44.657936],[3.90321,44.657409],[3.90284,44.657157],[3.902561,44.656745],[3.902239,44.655982],[3.902164,44.655158],[3.902185,44.654868],[3.901981,44.654081],[3.901778,44.653814],[3.901885,44.653387],[3.901542,44.652318],[3.901617,44.652013],[3.902325,44.650571],[3.902738,44.650353],[3.903097,44.650219],[3.903526,44.649769],[3.903371,44.649494],[3.903162,44.64938],[3.903156,44.649262],[3.903561,44.649019],[3.903752,44.648617],[3.903591,44.64838],[3.903285,44.64812],[3.902454,44.647746],[3.901896,44.64822],[3.900318,44.647304],[3.900372,44.646968],[3.899868,44.646777],[3.899643,44.64638],[3.899997,44.645831],[3.899889,44.645441],[3.899525,44.644987],[3.898956,44.643815],[3.898387,44.643571],[3.897328,44.643094],[3.896585,44.642518],[3.896478,44.642319],[3.896413,44.642121],[3.897411,44.640548],[3.898741,44.638243],[3.898484,44.638216],[3.897486,44.637975],[3.897427,44.637888],[3.897567,44.637548],[3.897398,44.63733],[3.896864,44.637212],[3.896714,44.637094],[3.896585,44.636538],[3.896188,44.636006],[3.895909,44.635311],[3.8957,44.634906],[3.895574,44.634819],[3.895437,44.634555],[3.895254,44.634494],[3.895222,44.634723],[3.894954,44.634738],[3.894713,44.63428],[3.894444,44.633532],[3.894423,44.632906],[3.89468,44.632009],[3.894922,44.631452],[3.894888,44.630642],[3.895185,44.630543],[3.895899,44.630121],[3.895411,44.630072],[3.89622,44.629814],[3.89651,44.629646],[3.897068,44.629402],[3.897422,44.629047],[3.897845,44.628858],[3.898436,44.628493],[3.898854,44.628092],[3.898953,44.627861],[3.89904,44.62752],[3.899444,44.627119],[3.899865,44.626794],[3.900183,44.626636],[3.900774,44.626118],[3.900989,44.625992],[3.901394,44.625968],[3.901977,44.625802],[3.902952,44.625698],[3.905087,44.625595],[3.905181,44.625219],[3.905602,44.624851],[3.90594,44.624393],[3.906509,44.623358],[3.906992,44.622833],[3.907378,44.62259],[3.908172,44.621831],[3.908612,44.621466],[3.909878,44.621117],[3.910527,44.620865],[3.911275,44.620662],[3.911541,44.620456],[3.912222,44.620521],[3.912987,44.62062],[3.913256,44.620597],[3.913649,44.620502],[3.91425,44.620532],[3.914499,44.620424],[3.914599,44.6203],[3.915001,44.620345],[3.915881,44.620238],[3.916422,44.619876],[3.917431,44.619765],[3.917206,44.619353],[3.917055,44.619265],[3.916659,44.619154],[3.916315,44.618959],[3.915704,44.618763],[3.915301,44.618505],[3.914974,44.618058],[3.914523,44.617684],[3.914092,44.617469],[3.913821,44.617285],[3.91378,44.617158],[3.913213,44.617068],[3.913176,44.616992],[3.913614,44.616966],[3.913629,44.616834],[3.913547,44.616741],[3.913263,44.616649],[3.912807,44.616367],[3.911643,44.615943],[3.910884,44.615731],[3.910756,44.61556],[3.910613,44.615542],[3.91024,44.615626],[3.909465,44.615492],[3.909194,44.615338],[3.909009,44.615362],[3.90881,44.615483],[3.907303,44.615782],[3.906531,44.615707],[3.905869,44.615409],[3.9074,44.615458],[3.907957,44.615225],[3.908097,44.615093],[3.908199,44.614736],[3.908121,44.6147],[3.907748,44.614816],[3.907418,44.614812],[3.906771,44.614654],[3.906123,44.614415],[3.906128,44.614341],[3.906496,44.614353],[3.907108,44.614268],[3.907228,44.614175],[3.907496,44.613869],[3.907796,44.6134],[3.908086,44.613241],[3.908172,44.613163],[3.908617,44.613073],[3.909355,44.613124],[3.909932,44.613037],[3.910393,44.612815],[3.911278,44.61212],[3.911777,44.611899],[3.912753,44.611677],[3.912839,44.611601],[3.913236,44.611567],[3.914089,44.611586],[3.914446,44.61146],[3.914958,44.610929],[3.915956,44.610211],[3.916868,44.609829],[3.917522,44.609611],[3.919067,44.609336],[3.919354,44.609292],[3.920349,44.608775],[3.921068,44.60855],[3.923225,44.608748],[3.92397,44.608658],[3.925692,44.608099],[3.926019,44.608107],[3.92643,44.608021],[3.927039,44.607797],[3.927825,44.607652],[3.928868,44.607602],[3.930016,44.607664],[3.930483,44.607944],[3.931132,44.608229],[3.931507,44.608307],[3.932065,44.608228],[3.932623,44.608191],[3.933041,44.608013],[3.934028,44.607484],[3.934592,44.607305],[3.935117,44.607305],[3.935522,44.607413],[3.936646,44.60787],[3.937446,44.60799],[3.938245,44.608026],[3.93861,44.608061],[3.939211,44.608479],[3.939672,44.608859],[3.940042,44.609187],[3.940208,44.609401],[3.940482,44.609405],[3.940688,44.60935],[3.940668,44.609249],[3.940879,44.609023],[3.940788,44.608783],[3.940353,44.608389],[3.941219,44.608299],[3.942333,44.608061],[3.942756,44.608091],[3.943475,44.607782],[3.943969,44.607675],[3.944323,44.60769],[3.945264,44.60745],[3.945948,44.607175],[3.946281,44.606875],[3.9462,44.606594],[3.946509,44.606203],[3.946624,44.605804],[3.946597,44.60496],[3.946662,44.604704],[3.946479,44.604559],[3.946184,44.604585],[3.945637,44.605139],[3.945267,44.605387],[3.944857,44.605569],[3.944022,44.6057],[3.943443,44.605689],[3.942239,44.605487],[3.941206,44.605223],[3.940707,44.605212],[3.939661,44.605204],[3.938637,44.605028],[3.93777,44.604763],[3.937391,44.604535],[3.937099,44.604272],[3.936856,44.604115],[3.93659,44.603795],[3.936259,44.60305],[3.936142,44.602343],[3.936239,44.601713],[3.936137,44.600919],[3.935842,44.600777],[3.934881,44.600147],[3.934307,44.599895],[3.933959,44.59978],[3.933275,44.599523],[3.932854,44.599544],[3.932183,44.599635],[3.930558,44.599437],[3.929804,44.599393],[3.929399,44.598749],[3.929077,44.598382],[3.928624,44.598182],[3.927823,44.598185],[3.927348,44.598236],[3.926617,44.598445],[3.926325,44.598409],[3.926116,44.598218],[3.925917,44.597767],[3.925472,44.597527],[3.924077,44.597263],[3.923289,44.596889],[3.922656,44.596644],[3.922232,44.596618],[3.921918,44.596841],[3.921765,44.597298],[3.921717,44.597475],[3.921578,44.597454],[3.921645,44.596274],[3.921503,44.595976],[3.920757,44.595838],[3.91963,44.596045],[3.919148,44.596226],[3.918944,44.596496],[3.918676,44.596637],[3.917951,44.59682],[3.917501,44.597068],[3.917152,44.597374],[3.917029,44.598274],[3.917112,44.599136],[3.916964,44.599284],[3.916735,44.599298],[3.916388,44.599244],[3.91611,44.599247],[3.915784,44.599123],[3.915301,44.598761],[3.914869,44.598592],[3.914325,44.598272],[3.91351,44.598054],[3.913225,44.597714],[3.913139,44.597389],[3.913118,44.597087],[3.912785,44.596748],[3.911766,44.595978],[3.9116,44.595776],[3.910956,44.595239],[3.909701,44.594356],[3.90924,44.593944],[3.908942,44.593732],[3.908279,44.593248],[3.907244,44.592929],[3.906713,44.592874],[3.906386,44.592677],[3.906083,44.592365],[3.905903,44.592244],[3.905806,44.591789],[3.905544,44.591754],[3.904562,44.59198]]],"type":"MultiLineString"},"properties":{"geo_point":{"lon":3.878261256144841,"lat":44.79153954194264},"name":"GR70 Du Puy-en-Velay (Haute-Loire) à La Bastide-Puylaurent (Lozère) (2019)","code_gr":"GR70"}}]}