{"type":"FeatureCollection","features":[{"type":"Feature","geometry":{"coordinates":[[[3.883826,45.045565],[3.882979,45.045489],[3.882539,45.045338],[3.882903,45.043943],[3.88241,45.043139],[3.882066,45.040183],[3.881702,45.036756],[3.881444,45.035755],[3.881015,45.035103],[3.87858,45.032116],[3.877657,45.031486],[3.87711,45.030963],[3.876605,45.030478],[3.876219,45.030015],[3.876346,45.029846],[3.875951,45.029325],[3.875515,45.028975],[3.87505,45.028719],[3.875489,45.028158],[3.875822,45.028203],[3.876047,45.027574],[3.876122,45.026599],[3.876028,45.02644],[3.876101,45.026292],[3.875854,45.0257],[3.875822,45.024836],[3.87535,45.023941],[3.875072,45.023426],[3.874953,45.022933],[3.874235,45.021583],[3.87314,45.020286],[3.872389,45.019831],[3.87247,45.019191],[3.872619,45.018663],[3.87247,45.01836],[3.872207,45.018033],[3.871745,45.01739],[3.870694,45.015672],[3.870651,45.01541],[3.870222,45.015106],[3.870079,45.01486],[3.870029,45.014583],[3.870088,45.014174],[3.870098,45.01379],[3.870232,45.013362],[3.869846,45.013096],[3.868215,45.010616],[3.867904,45.01032],[3.867475,45.009942],[3.866552,45.008197],[3.866145,45.007476],[3.865802,45.007029],[3.8646,45.005875],[3.863613,45.005011],[3.863248,45.004654],[3.862476,45.003641],[3.861635,45.00269],[3.860587,45.001771],[3.859429,45.000929],[3.859085,45.000489],[3.858367,45.000011],[3.857744,44.999791],[3.857731,44.999282],[3.857647,44.998946],[3.857197,44.997159],[3.85732,44.99701],[3.857143,44.995869],[3.856811,44.995012],[3.85661,44.994626],[3.856302,44.99423],[3.856424,44.993237],[3.85636,44.992114],[3.856113,44.990892],[3.856242,44.990823],[3.856143,44.989699],[3.8562,44.988734],[3.856153,44.988179],[3.855863,44.9874],[3.855583,44.986462],[3.855137,44.985132],[3.85518,44.984328],[3.855652,44.983281],[3.856049,44.982795],[3.856113,44.982507],[3.855952,44.981991],[3.855775,44.980518],[3.855383,44.979],[3.854869,44.978302],[3.854191,44.977721],[3.853592,44.977066],[3.853029,44.976625],[3.852697,44.976261],[3.852465,44.975874],[3.852552,44.975669],[3.853065,44.975943],[3.85336,44.975911],[3.854049,44.976051],[3.854366,44.976154],[3.854862,44.976214],[3.855093,44.976303],[3.85609,44.976163],[3.856427,44.975892],[3.856693,44.975783],[3.857153,44.975813],[3.857517,44.975957],[3.857894,44.976049],[3.858303,44.976055],[3.858807,44.97601],[3.858871,44.975707],[3.858999,44.975327],[3.859471,44.974955],[3.859761,44.974947],[3.860555,44.975282],[3.861274,44.975145],[3.86175,44.97514],[3.862347,44.975032],[3.86357,44.974584],[3.864063,44.974599],[3.865716,44.973885],[3.866459,44.973962],[3.867139,44.973962],[3.868011,44.973874],[3.868704,44.973645],[3.868838,44.973559],[3.868546,44.973565],[3.868151,44.97365],[3.867486,44.973628],[3.86564,44.973332],[3.86529,44.973229],[3.865147,44.973005],[3.865231,44.972715],[3.865468,44.972579],[3.86595,44.972509],[3.866783,44.972617],[3.867126,44.972607],[3.868167,44.97231],[3.868966,44.972208],[3.869319,44.971977],[3.869487,44.97151],[3.869417,44.97132],[3.868741,44.971368],[3.868291,44.971263],[3.868291,44.971099],[3.868806,44.970994],[3.868902,44.970834],[3.868537,44.970663],[3.868526,44.970356],[3.867787,44.969111],[3.867164,44.968595],[3.866571,44.968332],[3.866402,44.968177],[3.866426,44.967617],[3.86636,44.967482],[3.866231,44.967358],[3.866215,44.967187],[3.866452,44.966884],[3.866386,44.966543],[3.866433,44.966337],[3.866003,44.966108],[3.865349,44.964365],[3.864966,44.964309],[3.864478,44.96437],[3.86391,44.963435],[3.86284,44.961923],[3.865204,44.960328],[3.865051,44.959668],[3.865092,44.958771],[3.865039,44.957201],[3.864707,44.955986],[3.86463,44.953934],[3.864772,44.953291],[3.865201,44.952713],[3.86529,44.951868],[3.865475,44.95142],[3.865716,44.950215],[3.86566,44.949625],[3.865909,44.948864],[3.866023,44.94833],[3.866478,44.947641],[3.867196,44.945401],[3.867351,44.944806],[3.867432,44.943943],[3.86739,44.94335],[3.867905,44.943335],[3.868553,44.943118],[3.868718,44.942319],[3.868652,44.942179],[3.86887,44.94187],[3.868784,44.941758],[3.867808,44.941475],[3.868054,44.940184],[3.867764,44.93928],[3.867747,44.938518],[3.867647,44.937867],[3.868001,44.936903],[3.866822,44.936489],[3.86681,44.936007],[3.866882,44.935951],[3.866783,44.935475],[3.866842,44.934967],[3.866145,44.934811],[3.864922,44.934928],[3.862862,44.935338],[3.862411,44.935043],[3.861789,44.934298],[3.86136,44.93366],[3.860426,44.932506],[3.859986,44.932217],[3.858312,44.931624],[3.85754,44.931054],[3.857229,44.930144],[3.857154,44.929308],[3.855695,44.928092],[3.854268,44.927242],[3.854279,44.926376],[3.853753,44.92554],[3.853785,44.925229],[3.854665,44.92494],[3.854912,44.925229],[3.855652,44.925107],[3.855867,44.924834],[3.855738,44.924575],[3.855298,44.924271],[3.854853,44.923557],[3.854563,44.922661],[3.854126,44.921912],[3.853459,44.919698],[3.853321,44.916978],[3.854064,44.916371],[3.854697,44.915672],[3.85503,44.914867],[3.855427,44.913939],[3.856135,44.913028],[3.856221,44.912473],[3.85681,44.911562],[3.85679,44.910756],[3.856478,44.909236],[3.856167,44.908955],[3.855416,44.908545],[3.85488,44.908119],[3.854858,44.907648],[3.854922,44.90739],[3.855266,44.906957],[3.855545,44.906478],[3.856596,44.905946],[3.857648,44.905961],[3.856189,44.903461],[3.856349,44.903325],[3.856585,44.902298],[3.856403,44.901948],[3.856317,44.901569],[3.85636,44.901128],[3.856596,44.900459],[3.856586,44.900323],[3.855921,44.89989],[3.854633,44.899376],[3.853592,44.898627],[3.853206,44.898172],[3.850475,44.896793],[3.850169,44.89688],[3.849494,44.894212],[3.849086,44.893224],[3.848325,44.893543],[3.847928,44.893847],[3.847627,44.89371],[3.84678,44.893171],[3.846147,44.892844],[3.845642,44.89273],[3.844542,44.892054],[3.843646,44.891993],[3.843196,44.891864],[3.842499,44.891901],[3.842037,44.891742],[3.841897,44.891544],[3.841962,44.890731],[3.842327,44.890108],[3.842402,44.889241],[3.842804,44.888234],[3.843035,44.88744],[3.842906,44.886946],[3.842493,44.88652],[3.842252,44.886079],[3.841307,44.885167],[3.840764,44.885082],[3.839936,44.88461],[3.838901,44.884708],[3.836739,44.88518],[3.83536,44.885327],[3.833701,44.885669],[3.831491,44.885912],[3.831781,44.885296],[3.831802,44.88462],[3.83163,44.883137],[3.831716,44.882081],[3.831834,44.881199],[3.832049,44.880484],[3.831844,44.880454],[3.832622,44.878998],[3.833283,44.877967],[3.833636,44.876584],[3.833723,44.875482],[3.833818,44.875185],[3.834452,44.874561],[3.834355,44.873505],[3.834527,44.873155],[3.834194,44.871649],[3.833851,44.870896],[3.834248,44.870433],[3.834087,44.86981],[3.834323,44.869414],[3.834495,44.868373],[3.834838,44.867863],[3.834505,44.866525],[3.834323,44.866342],[3.834151,44.865673],[3.833915,44.865529],[3.834999,44.862844],[3.836222,44.861825],[3.835439,44.86105],[3.835187,44.860259],[3.835149,44.85892],[3.834731,44.857765],[3.834463,44.856897],[3.834034,44.856304],[3.83283,44.855468],[3.831151,44.854962],[3.829495,44.854881],[3.828782,44.854979],[3.828115,44.854881],[3.827839,44.85431],[3.827471,44.853903],[3.827287,44.853348],[3.826574,44.852484],[3.825977,44.851816],[3.825931,44.850886],[3.826207,44.850251],[3.826873,44.849533],[3.826436,44.849077],[3.826919,44.848636],[3.826459,44.846794],[3.827264,44.846191],[3.827655,44.846093],[3.829449,44.844006],[3.829886,44.843761],[3.831289,44.843826],[3.831519,44.843435],[3.831598,44.843373],[3.833706,44.843643],[3.834376,44.843944],[3.835031,44.844842],[3.835611,44.844849],[3.835868,44.845009],[3.836243,44.844978],[3.836877,44.845359],[3.837826,44.845587],[3.838497,44.845846],[3.839687,44.846157],[3.842992,44.847367],[3.844204,44.847458],[3.845277,44.847641],[3.847643,44.847439],[3.848646,44.847625],[3.849392,44.84761],[3.850277,44.84777],[3.850781,44.84809],[3.854855,44.844406],[3.855046,44.843856],[3.856714,44.841692],[3.857304,44.840559],[3.857025,44.840254],[3.856682,44.839296],[3.8568,44.838581],[3.856789,44.837805],[3.857164,44.837142],[3.857669,44.834921],[3.857272,44.833312],[3.857068,44.832875],[3.857213,44.832334],[3.85723,44.831855],[3.857433,44.830915],[3.85731,44.830384],[3.857293,44.829686],[3.857052,44.829154],[3.856886,44.828416],[3.857089,44.828073],[3.856714,44.827797],[3.856961,44.827696],[3.857004,44.826536],[3.856789,44.826019],[3.855782,44.824908],[3.854879,44.822899],[3.854965,44.822404],[3.854365,44.821548],[3.853367,44.819101],[3.858495,44.819753],[3.859024,44.819672],[3.859553,44.819443],[3.861117,44.819166],[3.863808,44.818709],[3.864636,44.818693],[3.865142,44.818383],[3.865464,44.818008],[3.866246,44.817633],[3.86735,44.817323],[3.86935,44.816458],[3.870086,44.815871],[3.87096,44.815773],[3.8705,44.815104],[3.868913,44.813228],[3.867579,44.811172],[3.867901,44.810879],[3.867878,44.810177],[3.867763,44.809753],[3.868177,44.80959],[3.868315,44.809296],[3.868729,44.809002],[3.868453,44.808464],[3.867511,44.808072],[3.867097,44.806718],[3.866338,44.805543],[3.866545,44.805315],[3.866453,44.805021],[3.866085,44.804629],[3.866292,44.804189],[3.866752,44.803944],[3.867051,44.802851],[3.867235,44.801741],[3.867671,44.800517],[3.866982,44.799293],[3.866867,44.798624],[3.867028,44.797564],[3.86797,44.795997],[3.868384,44.795719],[3.868476,44.795034],[3.868131,44.794381],[3.868131,44.79332],[3.868338,44.792961],[3.868522,44.792896],[3.868706,44.792406],[3.870155,44.791656],[3.870615,44.79115],[3.871236,44.790938],[3.871443,44.790562],[3.871972,44.790383],[3.872225,44.789991],[3.872823,44.788995],[3.873329,44.788767],[3.875031,44.788489],[3.877951,44.787461],[3.880274,44.786155],[3.881332,44.785437],[3.881033,44.785127],[3.881148,44.784001],[3.881033,44.783185],[3.881401,44.782156],[3.883287,44.780148],[3.884552,44.779675],[3.885932,44.778744],[3.886783,44.77881],[3.887082,44.777651],[3.887036,44.776949],[3.887289,44.776002],[3.887312,44.774794],[3.887197,44.774582],[3.887266,44.774239],[3.885403,44.773243],[3.884506,44.772541],[3.883908,44.771659],[3.88377,44.771692],[3.883643,44.771754],[3.882989,44.770542],[3.883064,44.770123],[3.882863,44.769836],[3.882737,44.76983],[3.881627,44.769377],[3.882142,44.76828],[3.882152,44.767884],[3.883129,44.766939],[3.883235,44.766604],[3.882131,44.764837],[3.881412,44.763268],[3.880028,44.761783],[3.879352,44.761516],[3.878097,44.761036],[3.876551,44.760236],[3.875104,44.75987],[3.874642,44.759588],[3.873741,44.758537],[3.873065,44.757653],[3.872271,44.756594],[3.870244,44.755161],[3.869664,44.75504],[3.868462,44.754347],[3.867979,44.754027],[3.867325,44.753189],[3.866048,44.752251],[3.864557,44.751451],[3.863656,44.751055],[3.862733,44.750324],[3.862025,44.749683],[3.861606,44.748502],[3.861016,44.747551],[3.860523,44.747138],[3.859429,44.745783],[3.85938,44.745451],[3.859868,44.744891],[3.860159,44.744396],[3.859772,44.743016],[3.859472,44.742346],[3.85872,44.74188],[3.857787,44.74179],[3.857208,44.741332],[3.856966,44.740863],[3.85651,44.740257],[3.856789,44.739671],[3.857433,44.738947],[3.856982,44.73721],[3.857605,44.73695],[3.857594,44.736531],[3.858292,44.735754],[3.858441,44.735342],[3.858312,44.735121],[3.857395,44.734687],[3.857111,44.734382],[3.855126,44.735487],[3.854793,44.734976],[3.854171,44.734412],[3.854632,44.733688],[3.855759,44.732964],[3.855853,44.73276],[3.855754,44.731764],[3.855899,44.731295],[3.856189,44.731143],[3.856296,44.730929],[3.85621,44.730357],[3.855941,44.729945],[3.855802,44.729359],[3.855813,44.728841],[3.855791,44.728352],[3.855459,44.727324],[3.85621,44.726958],[3.856092,44.7266],[3.855652,44.726265],[3.856274,44.725753],[3.85651,44.72535],[3.85636,44.725144],[3.856553,44.724854],[3.855984,44.724396],[3.856274,44.722979],[3.855727,44.722559],[3.855523,44.72211],[3.855556,44.721538],[3.855867,44.720692],[3.855781,44.719884],[3.856113,44.718878],[3.855985,44.716545],[3.856382,44.714776],[3.856575,44.713998],[3.856672,44.712031],[3.856489,44.711467],[3.856371,44.710079],[3.856972,44.707395],[3.856843,44.706625],[3.856446,44.706023],[3.856596,44.705382],[3.856789,44.704543],[3.856758,44.703895],[3.856886,44.703263],[3.85754,44.7016],[3.85812,44.699205],[3.859643,44.696818],[3.859707,44.696346],[3.859429,44.694629],[3.859128,44.693791],[3.859257,44.693424],[3.859257,44.693135],[3.858399,44.692844],[3.858377,44.692661],[3.859214,44.692311],[3.859713,44.692272],[3.859388,44.691809],[3.858965,44.691046],[3.858949,44.690526],[3.859128,44.690029],[3.859778,44.688445],[3.860413,44.686838],[3.860348,44.686456],[3.860966,44.685254],[3.861124,44.68392],[3.861167,44.682975],[3.861735,44.681708],[3.86188,44.681056],[3.861756,44.680403],[3.86129,44.680018],[3.860362,44.679244],[3.860201,44.678977],[3.859858,44.678542],[3.859535,44.678298],[3.859461,44.67752],[3.859235,44.677108],[3.859187,44.676546],[3.859372,44.675865],[3.858935,44.675613],[3.85872,44.675544],[3.858474,44.675094],[3.858012,44.674224],[3.857605,44.673957],[3.857004,44.673728],[3.856618,44.673499],[3.856199,44.672576],[3.855738,44.672141],[3.855222,44.671691],[3.855008,44.67118],[3.855061,44.670325],[3.854965,44.669844],[3.854665,44.66954],[3.85458,44.669188],[3.854794,44.668967],[3.855373,44.668517],[3.855727,44.667961],[3.855845,44.667205],[3.855717,44.667006],[3.854526,44.666465],[3.853566,44.666442],[3.852423,44.666221],[3.85209,44.666114],[3.851221,44.6659],[3.850459,44.665633],[3.849515,44.665595],[3.848678,44.665335],[3.847907,44.664855],[3.846468,44.663641],[3.846243,44.663199],[3.845481,44.662527],[3.844666,44.662176],[3.844323,44.661924],[3.844408,44.661504],[3.845664,44.660574],[3.846339,44.659383],[3.847595,44.658765],[3.849408,44.658483],[3.852626,44.657261],[3.852862,44.656468],[3.853002,44.65617],[3.853227,44.654697],[3.856596,44.650438],[3.85651,44.649775],[3.857046,44.649522],[3.857777,44.649133],[3.85827,44.648652],[3.856628,44.648752],[3.856103,44.648637],[3.855824,44.648255],[3.85532,44.647806],[3.855008,44.647416],[3.854429,44.647141],[3.853656,44.64711],[3.852798,44.647172],[3.853871,44.646622],[3.85371,44.646072],[3.854858,44.645576],[3.855512,44.645088],[3.856038,44.644149],[3.856682,44.643126],[3.856811,44.6425],[3.85709,44.642378],[3.858763,44.642851],[3.859643,44.643279],[3.859557,44.644179],[3.859777,44.644877],[3.860298,44.645362],[3.860722,44.645675],[3.860974,44.646279],[3.861574,44.647736],[3.861897,44.648279],[3.86254,44.648881],[3.863945,44.649492],[3.865651,44.649599],[3.867217,44.649605],[3.868162,44.649351],[3.869535,44.649195],[3.872271,44.649209],[3.873247,44.648942],[3.875607,44.649293],[3.875801,44.649492],[3.875586,44.649859],[3.876273,44.650187],[3.876627,44.650537],[3.877689,44.651164],[3.877657,44.651705],[3.877163,44.652171],[3.878386,44.651973],[3.879051,44.65169],[3.879631,44.651285],[3.88035,44.651079],[3.881326,44.650957],[3.88271,44.651164],[3.883429,44.651163],[3.885553,44.650881],[3.88664,44.650467],[3.88702,44.650181],[3.887667,44.650957],[3.888171,44.651713],[3.888944,44.651781],[3.889362,44.651629],[3.889641,44.651629],[3.889748,44.651011],[3.889673,44.650522],[3.889901,44.650219],[3.889903,44.649877],[3.890102,44.650004],[3.890115,44.649712],[3.890242,44.649267],[3.89035,44.64921],[3.89035,44.64921],[3.890752,44.649464],[3.890896,44.649793],[3.890942,44.650262],[3.890851,44.650565],[3.890752,44.650721],[3.890676,44.65091],[3.890737,44.651239],[3.890722,44.651493],[3.891048,44.651622],[3.891056,44.651849],[3.891313,44.652184],[3.891587,44.652454],[3.891567,44.6527],[3.891731,44.65288],[3.891298,44.653528],[3.890828,44.654321],[3.889349,44.655265],[3.888522,44.655443],[3.88812,44.656037],[3.88774,44.656291],[3.887171,44.656425],[3.886526,44.656803],[3.885601,44.656447],[3.885205,44.656494],[3.884601,44.65695],[3.884059,44.657704],[3.883911,44.658457],[3.88396,44.659019],[3.884194,44.659483],[3.884342,44.65915],[3.884552,44.659168],[3.884835,44.659369],[3.885143,44.659492],[3.885559,44.65934],[3.886252,44.658913],[3.886782,44.65865],[3.887633,44.658834],[3.88852,44.658913],[3.890184,44.658808],[3.891527,44.658668],[3.892291,44.658834],[3.893351,44.659378],[3.894128,44.659527],[3.894756,44.659395],[3.895187,44.659474],[3.89552,44.659685],[3.896112,44.660342],[3.898133,44.661019],[3.899313,44.661293],[3.900386,44.661186],[3.902789,44.660377],[3.903342,44.66018],[3.903464,44.65982],[3.903917,44.659324],[3.903952,44.658742],[3.903712,44.657813],[3.902617,44.656882],[3.90221,44.655844],[3.902191,44.654861],[3.902017,44.654179],[3.901755,44.653782],[3.90193,44.653361],[3.901759,44.652944],[3.901668,44.652567],[3.901494,44.652233],[3.902296,44.650563],[3.903047,44.650212],[3.903497,44.649845],[3.90354,44.64954],[3.903134,44.649358],[3.903638,44.64891],[3.903742,44.6485],[3.903364,44.648115],[3.90249,44.647739],[3.901938,44.64818],[3.900351,44.647297],[3.900328,44.646937],[3.899891,44.64674],[3.899656,44.64635],[3.90003,44.645723],[3.898925,44.643844],[3.897295,44.643084],[3.896628,44.642505],[3.896212,44.642372],[3.896177,44.642224],[3.89652,44.642025],[3.896771,44.641693],[3.89705,44.640986],[3.897786,44.640048],[3.898776,44.638197],[3.898526,44.6382],[3.897443,44.637949],[3.897561,44.637544],[3.897432,44.63733],[3.896885,44.637193],[3.896735,44.637078],[3.896585,44.636559],[3.896155,44.635956],[3.89593,44.635292],[3.895715,44.63491],[3.895592,44.634799],[3.895458,44.634589],[3.895276,44.634475],[3.8952,44.634738],[3.894948,44.634742],[3.894712,44.634276],[3.894482,44.633616],[3.894407,44.633001],[3.894626,44.632169],[3.894922,44.631482],[3.894863,44.630631],[3.895029,44.630592],[3.895394,44.630344],[3.895823,44.6301],[3.89542,44.630089],[3.895429,44.630015],[3.895754,44.629909],[3.896236,44.629808],[3.896526,44.629622],[3.896979,44.629476],[3.897198,44.629285],[3.897474,44.629023],[3.897871,44.628846],[3.898486,44.628463],[3.89889,44.62803],[3.899017,44.627597],[3.899227,44.627325],[3.899775,44.626851],[3.900214,44.626605],[3.900858,44.626055],[3.901056,44.625975],[3.901417,44.62596],[3.902125,44.625773],[3.90439,44.625607],[3.905084,44.625597],[3.905183,44.625204],[3.905522,44.624907],[3.905756,44.624675],[3.90657,44.62331],[3.906981,44.622841],[3.907391,44.622584],[3.908269,44.621748],[3.908665,44.621466],[3.909876,44.621108],[3.910591,44.620831],[3.911341,44.62063],[3.911567,44.620448],[3.913096,44.620625],[3.913613,44.620514],[3.914285,44.620539],[3.914477,44.620428],[3.91459,44.620312],[3.915015,44.620352],[3.915892,44.620247],[3.916487,44.619854],[3.917428,44.619768],[3.917173,44.61932],[3.91672,44.619168],[3.916338,44.618972],[3.915829,44.618811],[3.915392,44.618575],[3.915029,44.6181],[3.914562,44.617687],[3.914031,44.617445],[3.913818,44.617284],[3.913762,44.617148],[3.913202,44.617062],[3.913138,44.616987],[3.913627,44.616952],[3.913571,44.61674],[3.913273,44.616644],[3.912827,44.616357],[3.912537,44.616286],[3.911709,44.615959],[3.910845,44.615717],[3.91076,44.615576],[3.910633,44.615536],[3.910286,44.615616],[3.909522,44.61551],[3.909168,44.615329],[3.90904,44.615344],[3.908814,44.61548],[3.907497,44.615778],[3.906896,44.615773],[3.906457,44.615692],[3.905876,44.615435],[3.906202,44.615405],[3.906839,44.6155],[3.90737,44.615475],[3.908078,44.615148],[3.908191,44.614891],[3.908198,44.614704],[3.907617,44.614831],[3.906959,44.614689],[3.906159,44.614442],[3.906138,44.614352],[3.907122,44.614281],[3.907462,44.613918],[3.907787,44.613409],[3.908184,44.613152],[3.908623,44.613062],[3.909309,44.613127],[3.909961,44.613041],[3.9103,44.61287],[3.91127,44.612114],[3.911815,44.611883],[3.912749,44.611681],[3.912877,44.61158],[3.913365,44.611555],[3.914123,44.611575],[3.914484,44.611449],[3.914993,44.610885],[3.915821,44.6103],[3.916791,44.609852],[3.917669,44.609575],[3.919028,44.609328],[3.919283,44.609303],[3.920387,44.608763],[3.921067,44.608542],[3.919715,44.606632],[3.918115,44.605022],[3.917214,44.603739],[3.917044,44.60339],[3.916414,44.602798],[3.915763,44.601779],[3.914752,44.601209],[3.914412,44.600795],[3.914021,44.599826],[3.913941,44.598436],[3.913481,44.598023],[3.91316,44.597574],[3.91314,44.597061],[3.911699,44.595892],[3.910798,44.595122],[3.909797,44.594395],[3.909033,44.593764],[3.90839,44.59329],[3.907314,44.59294],[3.906754,44.592876],[3.906403,44.592691],[3.906113,44.59237],[3.905893,44.592235],[3.905793,44.591778],[3.905605,44.59176],[3.905423,44.59129],[3.905499,44.59082],[3.90597,44.58982],[3.906389,44.58878],[3.906625,44.587794],[3.907374,44.586974],[3.907472,44.586663],[3.906433,44.584678],[3.905257,44.583753],[3.904559,44.583058],[3.904613,44.582905],[3.904876,44.582797],[3.905289,44.582332],[3.905815,44.581973],[3.906555,44.581835],[3.906573,44.581598],[3.906078,44.581208],[3.90597,44.580107],[3.906271,44.579909],[3.907644,44.580406],[3.908266,44.580176],[3.90891,44.578786],[3.907794,44.577471],[3.90715,44.57731],[3.906442,44.577181],[3.905884,44.576844],[3.90582,44.576561],[3.906078,44.576424],[3.906614,44.57637],[3.907161,44.576103],[3.907773,44.575828],[3.907875,44.575537],[3.907675,44.575352],[3.907224,44.575095],[3.90685,44.574406],[3.907322,44.573382],[3.907729,44.573252],[3.908373,44.573764],[3.910247,44.573954],[3.910918,44.573947],[3.911249,44.573741],[3.911409,44.573405],[3.911066,44.573473],[3.909532,44.572794],[3.908663,44.571831],[3.908266,44.571104],[3.90758,44.57008],[3.906678,44.569102],[3.906593,44.568656],[3.906643,44.568014],[3.906561,44.567872],[3.906804,44.567179],[3.907154,44.566637],[3.907623,44.566343],[3.907772,44.565923],[3.907815,44.564776],[3.907429,44.563591],[3.907408,44.56236],[3.907183,44.560106],[3.907172,44.558974],[3.907258,44.558576],[3.907934,44.558057],[3.909167,44.557223],[3.909661,44.55678],[3.909929,44.556329],[3.910369,44.556092],[3.911442,44.554807],[3.911468,44.554598],[3.911378,44.55444],[3.910691,44.554364],[3.909736,44.554448],[3.908502,44.553546],[3.908459,44.55321],[3.910101,44.550889],[3.911367,44.548913],[3.91293,44.546951],[3.913942,44.545235],[3.914671,44.544478],[3.914842,44.544482],[3.915352,44.544218],[3.915845,44.543993],[3.916182,44.543698],[3.916576,44.543461],[3.917064,44.542818],[3.91731,44.542123],[3.917853,44.540553],[3.918276,44.539495],[3.919477,44.538085],[3.919435,44.537038],[3.919178,44.536318],[3.919263,44.53527],[3.919435,44.53459],[3.920197,44.533367],[3.920608,44.53293],[3.920698,44.532702],[3.921527,44.53259],[3.921667,44.532686],[3.921817,44.532923],[3.922246,44.533122],[3.922911,44.533122],[3.923711,44.531646],[3.923448,44.530827],[3.923491,44.530368],[3.923372,44.53004],[3.923426,44.529443],[3.923115,44.529068],[3.92286,44.528684],[3.92263,44.52842],[3.922568,44.52802],[3.921709,44.526636],[3.921669,44.526429],[3.921769,44.526044],[3.921624,44.525596],[3.921619,44.525287],[3.92113,44.524452],[3.920809,44.523599],[3.919777,44.523061],[3.919497,44.522554],[3.919123,44.522123],[3.918834,44.521488],[3.91849,44.521228],[3.918383,44.521014],[3.918582,44.520662],[3.918952,44.520471],[3.918823,44.520142],[3.918626,44.519635],[3.918015,44.5188],[3.917535,44.518293],[3.917117,44.518313],[3.916834,44.5185],[3.916464,44.518907],[3.916233,44.518907],[3.915959,44.518635],[3.915933,44.518164],[3.915202,44.516787],[3.915615,44.516431],[3.91583,44.51608],[3.916259,44.515804],[3.916624,44.515636],[3.916504,44.515438],[3.916774,44.515376],[3.917311,44.515575],[3.917632,44.515559],[3.918233,44.515284],[3.918512,44.515253],[3.918727,44.514978],[3.919201,44.514808],[3.919587,44.514563],[3.920445,44.514211],[3.92113,44.513524],[3.921602,44.512851],[3.921903,44.512025],[3.922289,44.511681],[3.922675,44.511122],[3.923555,44.510969],[3.924456,44.510908],[3.926559,44.510418],[3.927675,44.509883],[3.928059,44.509625],[3.928313,44.509567],[3.928952,44.509328],[3.929284,44.509339],[3.929713,44.509179],[3.929794,44.508747],[3.930411,44.50761],[3.930399,44.507289],[3.930507,44.506891],[3.930979,44.506287],[3.931215,44.505797],[3.931601,44.505261],[3.932073,44.504924],[3.932717,44.504817],[3.932717,44.504373],[3.932492,44.504053],[3.932298,44.50357],[3.932288,44.502997],[3.932438,44.502369],[3.932031,44.501879],[3.931752,44.501772],[3.931575,44.501565],[3.931998,44.501297],[3.931944,44.501129],[3.931623,44.501267],[3.932052,44.500578],[3.932374,44.500425],[3.932588,44.500088],[3.932567,44.49969],[3.932782,44.498925],[3.932321,44.49852],[3.93231,44.498344],[3.932846,44.498206],[3.932782,44.498068],[3.932503,44.497961],[3.932159,44.497609],[3.931982,44.497751],[3.931698,44.49777],[3.931236,44.497685],[3.930947,44.497976],[3.931043,44.498412],[3.931516,44.498818],[3.931537,44.49904],[3.930807,44.498833],[3.930536,44.498546],[3.930072,44.498282],[3.929906,44.49803],[3.929906,44.497819],[3.929557,44.497337],[3.929568,44.497058],[3.929703,44.496935],[3.930135,44.496974],[3.930427,44.496936],[3.930915,44.49666],[3.931103,44.49622],[3.931055,44.495688],[3.93128,44.495359],[3.931483,44.494735],[3.931334,44.49434],[3.931185,44.493835],[3.931188,44.493513],[3.931108,44.493297],[3.930931,44.493209],[3.930754,44.492898],[3.930807,44.492374],[3.931054,44.491846],[3.930427,44.490652],[3.930054,44.490191],[3.929547,44.489798],[3.929148,44.489225],[3.928836,44.48853],[3.928613,44.488184],[3.928469,44.487782],[3.928447,44.486974],[3.929048,44.485853],[3.930185,44.484047],[3.930831,44.483004],[3.933318,44.483205],[3.933592,44.482217],[3.93364,44.481536],[3.933983,44.480908],[3.933576,44.480464],[3.933511,44.479699],[3.934128,44.477873],[3.933055,44.477735],[3.93135,44.477908],[3.931001,44.477724],[3.931848,44.473436],[3.931923,44.472266],[3.932234,44.471561],[3.932717,44.471033],[3.932567,44.470436],[3.931955,44.469991],[3.931762,44.46856],[3.932128,44.467717],[3.932546,44.466799],[3.932599,44.466431],[3.932042,44.46614],[3.931709,44.465153],[3.931849,44.464655],[3.931741,44.464632],[3.931098,44.465719],[3.930958,44.465582],[3.930904,44.464134],[3.930807,44.463905],[3.930764,44.462794],[3.930936,44.462197],[3.931193,44.461761],[3.931173,44.461018],[3.931011,44.460436],[3.930807,44.460183],[3.930679,44.459639],[3.930206,44.459341],[3.93011,44.459054],[3.93026,44.458629],[3.929745,44.458919],[3.929392,44.459142],[3.929316,44.45946],[3.92945,44.45971],[3.929262,44.459839],[3.928962,44.459248],[3.92907,44.458835],[3.929842,44.457847],[3.929928,44.457495],[3.929863,44.456706],[3.930121,44.456239],[3.931174,44.455426],[3.932031,44.455106],[3.932116,44.45483],[3.931708,44.454256],[3.931676,44.453559],[3.93158,44.453023],[3.931773,44.452502],[3.932245,44.451859],[3.932224,44.45143],[3.931408,44.450449],[3.931022,44.449913],[3.9304,44.448765],[3.93055,44.44793],[3.930359,44.447063],[3.92993,44.446343],[3.929617,44.445739],[3.929713,44.445126],[3.929982,44.444743],[3.930636,44.444383],[3.932814,44.444169],[3.932374,44.44328],[3.932181,44.442798],[3.931848,44.442599],[3.931548,44.442484],[3.931806,44.442154],[3.93165,44.441913],[3.931519,44.441631],[3.931659,44.441248],[3.931881,44.441266],[3.932202,44.439343],[3.93261,44.439083],[3.933275,44.43847],[3.933017,44.438286],[3.933232,44.437934],[3.933136,44.437773],[3.933232,44.437496],[3.9332,44.436294],[3.93356,44.436159],[3.933951,44.435782],[3.934358,44.434264],[3.934315,44.432617],[3.934509,44.432019],[3.935142,44.431016],[3.935292,44.430373],[3.936129,44.43038],[3.937052,44.429989],[3.937695,44.429874],[3.937867,44.429598],[3.937889,44.429016],[3.938382,44.428296],[3.938876,44.427928],[3.939133,44.427453],[3.939498,44.427422],[3.939616,44.426702],[3.940377,44.425875],[3.941172,44.425682],[3.942276,44.425255],[3.942437,44.425074],[3.942782,44.424975],[3.942759,44.424598],[3.943173,44.423776],[3.944254,44.423021],[3.944921,44.422988],[3.94545,44.423152],[3.946002,44.422479],[3.946071,44.421904],[3.946784,44.421707],[3.947152,44.421116],[3.948371,44.420771],[3.949015,44.420376],[3.94936,44.419802],[3.949337,44.41944],[3.949544,44.41903],[3.949084,44.418389],[3.94867,44.418175],[3.948762,44.417683],[3.948735,44.41763],[3.949047,44.417162],[3.949004,44.416726],[3.948027,44.416534],[3.947888,44.416204],[3.947609,44.416266],[3.947373,44.415591],[3.94733,44.41468],[3.947341,44.413791],[3.947265,44.412955],[3.947405,44.411591],[3.945989,44.412173],[3.946649,44.411782],[3.947148,44.411123],[3.947544,44.41084],[3.947523,44.410671],[3.947439,44.41044],[3.948049,44.409927],[3.94822,44.409529],[3.948167,44.408456],[3.948081,44.408219],[3.948285,44.407414],[3.948147,44.406623],[3.94819,44.405887],[3.948038,44.405153],[3.947706,44.404402],[3.948017,44.404141],[3.948693,44.403198],[3.949293,44.402577],[3.949712,44.402087],[3.950356,44.40165],[3.950462,44.401328],[3.950248,44.400953],[3.950505,44.400784],[3.950527,44.400331],[3.950334,44.399933],[3.950292,44.399595],[3.950527,44.399726],[3.950645,44.399082],[3.951117,44.399519],[3.951278,44.398806],[3.951578,44.397971],[3.951407,44.397595],[3.951428,44.397173],[3.950452,44.395701],[3.950367,44.395418],[3.950012,44.39482],[3.9491,44.394429],[3.947663,44.394007],[3.945709,44.393332],[3.945506,44.393148],[3.945539,44.392458],[3.945388,44.391734],[3.945141,44.391264],[3.94461,44.390968],[3.94292,44.390441],[3.942414,44.389883],[3.941333,44.389948],[3.94039,44.38934],[3.940091,44.389455],[3.940068,44.389768],[3.939723,44.390129],[3.940183,44.390441],[3.940689,44.390195],[3.941011,44.390244],[3.941977,44.39077],[3.94177,44.391542],[3.941096,44.391676],[3.940024,44.391194],[3.939058,44.391124],[3.938865,44.391401],[3.938489,44.391508],[3.938382,44.39137],[3.93864,44.391078],[3.938812,44.390818],[3.938619,44.390657],[3.937406,44.390695],[3.93688,44.390642],[3.936596,44.390326],[3.936389,44.389751],[3.93641,44.38847],[3.937869,44.387888],[3.939176,44.3872],[3.939787,44.386624],[3.939917,44.386088],[3.939702,44.385903],[3.938822,44.385742],[3.938629,44.385612],[3.938447,44.385144],[3.938779,44.384938],[3.938597,44.383826],[3.93806,44.38286],[3.938017,44.381985],[3.937706,44.381686],[3.938285,44.380873],[3.938264,44.380651],[3.938726,44.379869],[3.938993,44.379263],[3.938822,44.378849],[3.939036,44.378205],[3.938784,44.377588],[3.938747,44.37733],[3.938253,44.377123],[3.937931,44.376211],[3.937728,44.376034],[3.937524,44.375367],[3.937791,44.374463],[3.938189,44.374232],[3.938607,44.373834],[3.938623,44.373539],[3.938285,44.373205],[3.938661,44.372714],[3.93894,44.372131],[3.938897,44.371571],[3.938887,44.370605],[3.939455,44.369907],[3.939745,44.369431],[3.939595,44.369156],[3.939208,44.368902],[3.938672,44.367936],[3.938339,44.367752],[3.937899,44.367575],[3.937706,44.367184],[3.937867,44.366295],[3.937738,44.365927],[3.937899,44.365643],[3.937942,44.364645],[3.938092,44.364086],[3.937985,44.363595],[3.938157,44.36302],[3.93879,44.362782],[3.939068,44.362068],[3.939326,44.361808],[3.939509,44.361409],[3.939552,44.361056],[3.940313,44.36078],[3.940646,44.360596],[3.941139,44.360649],[3.941675,44.360097],[3.942159,44.359852],[3.943414,44.359553],[3.944422,44.358893],[3.94527,44.358103],[3.945421,44.357658],[3.945055,44.357719],[3.944497,44.357995],[3.944466,44.357819],[3.944755,44.357044],[3.945206,44.356691],[3.945012,44.356246],[3.945313,44.35551],[3.945548,44.355188],[3.947051,44.35393],[3.94733,44.353876],[3.948019,44.35336],[3.948578,44.352319],[3.948509,44.352056],[3.949705,44.351348],[3.949647,44.351045],[3.950098,44.350347],[3.95042,44.349311],[3.950795,44.348674],[3.951465,44.348049],[3.952168,44.347922],[3.952115,44.347424],[3.953821,44.345513],[3.953306,44.344562],[3.953048,44.343703],[3.953188,44.343105],[3.953692,44.342091],[3.954218,44.341784],[3.954347,44.340964],[3.95469,44.340341],[3.954754,44.339644],[3.955441,44.338792],[3.955655,44.338171],[3.956234,44.337664],[3.956503,44.337257],[3.957661,44.336298],[3.958102,44.336229],[3.957887,44.335285],[3.95808,44.335093],[3.959778,44.334671],[3.961203,44.334144],[3.96116,44.333819],[3.96233,44.333108],[3.96325,44.332779],[3.963295,44.33258],[3.963541,44.332399],[3.96387,44.331946],[3.963834,44.331698],[3.963926,44.331476],[3.964096,44.331339],[3.964133,44.330848],[3.965099,44.330571],[3.965333,44.330159],[3.965977,44.329345],[3.966427,44.329007],[3.966599,44.328225],[3.966942,44.327749],[3.966685,44.327411],[3.966642,44.327012],[3.966148,44.326582],[3.966148,44.326214],[3.966341,44.325891],[3.96617,44.325369],[3.964818,44.324817],[3.963509,44.324433],[3.962329,44.324157],[3.961985,44.323788],[3.961921,44.323381],[3.962103,44.322699],[3.962152,44.322007],[3.962468,44.321209],[3.962576,44.320211],[3.963047,44.319183],[3.963723,44.318085],[3.964324,44.317279],[3.964292,44.316696],[3.964679,44.316227],[3.965869,44.315391],[3.96617,44.31513],[3.966728,44.314547],[3.967339,44.314116],[3.966674,44.313794],[3.966641,44.313487],[3.96676,44.313073],[3.966368,44.311913],[3.965741,44.311061],[3.965387,44.310493],[3.965531,44.309702],[3.965515,44.30904],[3.965365,44.309],[3.965563,44.308938],[3.965686,44.308573],[3.96577,44.30848],[3.96581,44.308378],[3.966073,44.308025],[3.966371,44.307787],[3.966583,44.30781],[3.96673,44.307817],[3.967082,44.307648],[3.967286,44.30748],[3.970448,44.305959],[3.973576,44.304626],[3.974417,44.304165],[3.975255,44.303803]]],"type":"MultiLineString"},"properties":{"geo_point":{"lon":3.8913521986504183,"lat":44.67160309052381},"name":"GR700 Voie Régordane. Du Puy-en-Velay (Haute-Loire) à Chamborigaud (Gard) (2020)","code_gr":"GR700"}},{"type":"Feature","geometry":{"coordinates":[[[3.975255,44.303803],[3.975255,44.303803],[3.977164,44.303425],[3.977555,44.302915],[3.977095,44.30196],[3.977095,44.300034],[3.977041,44.300006],[3.977147,44.298928],[3.977796,44.297787],[3.977716,44.296165],[3.97807,44.295822],[3.977834,44.29538],[3.977872,44.294682],[3.978344,44.294243],[3.978735,44.293346],[3.97866,44.292885],[3.979036,44.292316],[3.979245,44.292152],[3.979481,44.292103],[3.979867,44.292133],[3.979948,44.292072],[3.980194,44.291508],[3.980522,44.290962],[3.980961,44.29081],[3.981321,44.290592],[3.981648,44.290112],[3.982002,44.290016],[3.98263,44.289612],[3.982952,44.289085],[3.983247,44.288742],[3.983703,44.288452],[3.984212,44.288338],[3.984448,44.288139],[3.984765,44.287785],[3.985269,44.28759],[3.985575,44.287281],[3.985757,44.287033],[3.986331,44.286503],[3.987002,44.286304],[3.987479,44.286224],[3.988311,44.285824],[3.988504,44.285744],[3.988477,44.285522],[3.98948,44.285172],[3.98963,44.284962],[3.990124,44.284763],[3.990553,44.284496],[3.990886,44.284298],[3.990971,44.284145],[3.990896,44.283978],[3.991261,44.283936],[3.991728,44.283756],[3.992468,44.283646],[3.992747,44.283707],[3.992988,44.283698],[3.99353,44.283875],[3.993906,44.284107],[3.994346,44.284759],[3.994431,44.285143],[3.994271,44.285151],[3.993895,44.284936],[3.99382,44.28499],[3.994002,44.285397],[3.994571,44.285581],[3.995309,44.285548],[3.995999,44.285153],[3.996041,44.284626],[3.995976,44.284164],[3.996121,44.28392],[3.996132,44.283478],[3.996368,44.28231],[3.996781,44.281635],[3.997221,44.281338],[3.997521,44.280972],[3.997843,44.280216],[3.998117,44.279861],[3.998328,44.279396],[3.998555,44.279456],[3.998813,44.279423],[3.999405,44.279168],[4.000141,44.279141],[4.000657,44.279005],[4.001068,44.278954],[4.001405,44.278858],[4.002221,44.278923],[4.002762,44.278866],[4.003524,44.278592],[4.003691,44.278603],[4.004093,44.278299],[4.004731,44.277984],[4.005042,44.278082],[4.005187,44.278084],[4.005656,44.27796],[4.005956,44.277745],[4.006567,44.278006],[4.0075,44.277941],[4.007606,44.278093],[4.007818,44.278153],[4.007856,44.277984],[4.008023,44.277886],[4.008076,44.277712],[4.008239,44.277587],[4.008219,44.2772],[4.008038,44.27711],[4.007758,44.276878],[4.007938,44.276741],[4.008399,44.27682],[4.008869,44.276655],[4.0092,44.27667],[4.0096,44.276562],[4.00994,44.276394],[4.010096,44.276123],[4.01024,44.276093],[4.01068,44.276203],[4.011131,44.276123],[4.011474,44.275799],[4.012139,44.275349],[4.012241,44.274971],[4.012424,44.274574],[4.012606,44.274616],[4.012955,44.274727],[4.013245,44.274509],[4.013808,44.274361],[4.014639,44.274021],[4.015321,44.273815],[4.01553,44.273636],[4.015948,44.27359],[4.016651,44.273277],[4.017187,44.272598],[4.017558,44.271854],[4.017783,44.271286],[4.018191,44.270638],[4.018491,44.27047],[4.019011,44.270477],[4.019403,44.270424],[4.019912,44.270481],[4.020885,44.270518],[4.021715,44.270496],[4.022203,44.270409],[4.022434,44.270309],[4.022343,44.270088],[4.022949,44.269505],[4.024376,44.268726],[4.02496,44.268101],[4.025214,44.268152],[4.025995,44.268011],[4.026291,44.268147],[4.026496,44.268152],[4.026845,44.268033],[4.027133,44.26788],[4.027422,44.26787],[4.027851,44.267749],[4.028564,44.26737],[4.028992,44.266897],[4.029277,44.266744],[4.029714,44.266645],[4.029864,44.266392],[4.029902,44.266185],[4.03032,44.265963],[4.030427,44.265755],[4.03048,44.265274],[4.030781,44.264957],[4.031709,44.264378],[4.032857,44.263916],[4.033511,44.26358],[4.033833,44.263348],[4.034262,44.262932],[4.036124,44.262169],[4.036607,44.261612],[4.03702,44.261505],[4.037583,44.261581],[4.038366,44.261822],[4.038607,44.261772],[4.038785,44.261909],[4.038822,44.262466],[4.038983,44.262737],[4.039246,44.262787],[4.039809,44.262661],[4.040319,44.262314],[4.040796,44.261837],[4.041027,44.261669],[4.041536,44.261658],[4.042904,44.261253],[4.043296,44.261219],[4.043693,44.261105],[4.044203,44.26115],[4.044514,44.261044],[4.045077,44.260551],[4.04549,44.260284],[4.045935,44.2603],[4.046756,44.260441],[4.048558,44.26038],[4.050549,44.260406],[4.050763,44.260307],[4.051128,44.259609],[4.0516,44.2593],[4.052088,44.258839],[4.052083,44.258518],[4.051402,44.25745],[4.051112,44.256823],[4.050908,44.25628],[4.05101,44.255963],[4.051021,44.255751],[4.050983,44.255318],[4.051198,44.255089],[4.051552,44.254913],[4.051573,44.254513],[4.051777,44.254244],[4.051702,44.253814],[4.051927,44.253376],[4.051636,44.253194],[4.051327,44.252907],[4.05079,44.252915],[4.050527,44.252865],[4.050152,44.252831],[4.049851,44.252865],[4.049229,44.253143],[4.049041,44.253277],[4.048714,44.253342],[4.048285,44.253498],[4.047883,44.253494],[4.047266,44.253338],[4.047437,44.253044],[4.047829,44.252554],[4.04842,44.252354],[4.04861,44.251995],[4.048861,44.251873],[4.04892,44.25168],[4.049251,44.251264],[4.048891,44.251199],[4.04853,44.251267],[4.048798,44.250999],[4.049561,44.250626],[4.049391,44.250504],[4.049131,44.250525],[4.048821,44.250244],[4.049165,44.250099],[4.049742,44.24998],[4.049873,44.249851],[4.050582,44.249428],[4.050923,44.249464],[4.051533,44.249364],[4.051283,44.249242],[4.050773,44.249299],[4.050205,44.248844],[4.050294,44.24839],[4.05013,44.247987],[4.050319,44.24772],[4.050197,44.24744],[4.050195,44.247173],[4.050377,44.246674],[4.050511,44.246444],[4.051208,44.244031],[4.051156,44.243613],[4.051198,44.242962],[4.051697,44.243137],[4.052013,44.2425],[4.052072,44.242191],[4.052582,44.241272],[4.052909,44.241093],[4.054229,44.240562],[4.055538,44.239864],[4.055731,44.239639],[4.055823,44.239373],[4.055752,44.239256],[4.055371,44.239055],[4.055243,44.238889],[4.055307,44.238535],[4.055607,44.238135],[4.055683,44.237894],[4.055677,44.237477],[4.055645,44.23711],[4.055511,44.236747],[4.055549,44.236136],[4.055124,44.235633],[4.055195,44.234391],[4.055672,44.234553],[4.056176,44.234461],[4.056251,44.233892],[4.057292,44.231991],[4.057834,44.231579],[4.058493,44.232063],[4.059191,44.231575],[4.059019,44.231335],[4.060221,44.230469],[4.060071,44.230297],[4.061063,44.229549],[4.061998,44.228755],[4.063026,44.227113],[4.063858,44.226112],[4.064051,44.225689],[4.064577,44.22509],[4.065585,44.22449],[4.065318,44.22429],[4.065703,44.224267],[4.065843,44.224426],[4.066202,44.224297],[4.06632,44.223923],[4.067028,44.223145],[4.068632,44.22229],[4.069292,44.221863],[4.069828,44.221603],[4.0703,44.221512],[4.070215,44.221451],[4.069861,44.221409],[4.069185,44.221081],[4.068986,44.221027],[4.069405,44.220539],[4.069806,44.220037],[4.070321,44.219779],[4.07037,44.219093],[4.070252,44.218525],[4.070231,44.217541],[4.070263,44.216663],[4.070277,44.216402],[4.070373,44.21634],[4.070181,44.215921],[4.06967,44.215315],[4.069344,44.215122],[4.069083,44.215084],[4.068891,44.214953],[4.068534,44.214603],[4.068159,44.21436],[4.068011,44.21421],[4.067915,44.213929],[4.068377,44.213829],[4.068976,44.213817],[4.069789,44.213979],[4.070852,44.21441],[4.071227,44.21466],[4.071541,44.215028],[4.071752,44.215502],[4.072046,44.215709],[4.0725,44.215921],[4.074564,44.216152],[4.075134,44.21612],[4.076024,44.216019],[4.077188,44.21604],[4.077397,44.216171],[4.077963,44.216164],[4.078381,44.216309],[4.078634,44.216296],[4.079044,44.216048],[4.079539,44.215208],[4.079898,44.214572],[4.080159,44.21441],[4.08067,44.214165],[4.080777,44.213886],[4.080584,44.213596],[4.079458,44.213448],[4.079329,44.2131],[4.079415,44.212788],[4.078685,44.212242],[4.077451,44.211517],[4.07778,44.211112],[4.077666,44.21088],[4.076657,44.210609],[4.076744,44.209763],[4.076865,44.2095],[4.07731,44.209425],[4.078084,44.209435],[4.078288,44.209229],[4.078268,44.208944],[4.078303,44.208345],[4.078267,44.207291],[4.078405,44.206381],[4.078846,44.20565],[4.078861,44.205415],[4.079382,44.203873],[4.079522,44.203045],[4.078631,44.201889],[4.077569,44.201176],[4.077473,44.20092],[4.077548,44.200314],[4.077297,44.199707],[4.077365,44.199352],[4.077639,44.198906],[4.078159,44.198624],[4.078433,44.198273],[4.078658,44.197857],[4.078599,44.197659],[4.078336,44.19751],[4.077955,44.197372],[4.077446,44.196945],[4.076652,44.196156],[4.07655,44.195526],[4.0764,44.194862],[4.076196,44.194687],[4.075847,44.194599],[4.075413,44.194599],[4.074871,44.194778],[4.074007,44.194977],[4.073889,44.19492],[4.073975,44.194588],[4.073986,44.194294],[4.073761,44.193718],[4.073594,44.193356],[4.0736,44.192883],[4.073642,44.192104],[4.0736,44.191597],[4.073594,44.191265],[4.073133,44.190426],[4.072843,44.190369],[4.072049,44.190449],[4.071786,44.190399],[4.071288,44.190075],[4.071153,44.18964],[4.071266,44.189205],[4.071078,44.18874],[4.070944,44.188248],[4.07081,44.187511],[4.070821,44.187286],[4.070606,44.186596],[4.070311,44.185974],[4.070145,44.185532],[4.069394,44.184753],[4.068584,44.184097],[4.068002,44.183859],[4.066948,44.183258],[4.066756,44.182934],[4.06673,44.182434],[4.066792,44.182091],[4.067479,44.181461],[4.067956,44.181206],[4.06867,44.181095],[4.069045,44.181122],[4.06944,44.181353],[4.069798,44.181297],[4.070242,44.180984],[4.070294,44.180772],[4.070413,44.180598],[4.071064,44.180434],[4.071654,44.180047],[4.073524,44.179775],[4.073981,44.179603],[4.074312,44.179272],[4.074306,44.178851],[4.074556,44.178834],[4.07473,44.178972],[4.075601,44.178922],[4.076351,44.178566],[4.076656,44.178484],[4.07819,44.177797],[4.078355,44.177466],[4.078364,44.176909],[4.078251,44.176584],[4.077954,44.176372],[4.077693,44.176122],[4.077458,44.175641],[4.076797,44.174957],[4.076411,44.174389],[4.076137,44.174232],[4.075794,44.173714],[4.075676,44.173405],[4.075477,44.173195],[4.075311,44.172829],[4.075192,44.172809],[4.07507,44.172678],[4.074887,44.172592],[4.074871,44.172435],[4.074726,44.17237],[4.074758,44.172173],[4.074978,44.172112],[4.075273,44.171837],[4.075171,44.171551],[4.074914,44.171185],[4.074855,44.170979],[4.074479,44.170589],[4.073975,44.169743],[4.073889,44.169106],[4.073696,44.168453],[4.073369,44.167881],[4.073326,44.167629],[4.073085,44.167339],[4.072897,44.167206],[4.072677,44.16692],[4.072672,44.166512],[4.072849,44.166187],[4.072811,44.165756],[4.07295,44.16526],[4.072881,44.164955],[4.072924,44.164604],[4.073047,44.164394],[4.07309,44.163578],[4.072934,44.163105],[4.072977,44.16265],[4.072674,44.162191],[4.071625,44.161334],[4.071486,44.161134],[4.070673,44.160607],[4.070521,44.16027],[4.070791,44.159932],[4.070425,44.159451],[4.069132,44.159254],[4.068421,44.158475],[4.067499,44.158082],[4.067108,44.157554],[4.066608,44.157075],[4.066704,44.156625],[4.066599,44.155743],[4.066142,44.155492],[4.065876,44.154455],[4.06559,44.154106],[4.065567,44.153644],[4.065061,44.153001],[4.06513,44.152852],[4.065015,44.152555],[4.065109,44.152329],[4.065521,44.152027],[4.066199,44.151923],[4.06651,44.151829],[4.066809,44.151944],[4.06697,44.151713],[4.067105,44.151198],[4.067062,44.150971],[4.067201,44.150535],[4.067148,44.150291],[4.067392,44.150172],[4.067331,44.150041],[4.067522,44.149684],[4.067976,44.149578],[4.068229,44.149359],[4.068517,44.148928],[4.068691,44.14854],[4.068994,44.148545],[4.069214,44.148959],[4.069661,44.149684],[4.069702,44.149178],[4.069928,44.14889],[4.069954,44.148603],[4.070268,44.148159],[4.070268,44.147902],[4.070241,44.147408],[4.069587,44.146954],[4.06919,44.146446],[4.068665,44.146001],[4.068856,44.145914],[4.069388,44.14592],[4.071636,44.146226],[4.072795,44.14622],[4.073893,44.146033],[4.075148,44.145557],[4.076813,44.144644],[4.077562,44.14395],[4.078251,44.143069],[4.078591,44.142593],[4.078808,44.141962],[4.079253,44.14093],[4.079506,44.140161],[4.079811,44.139316],[4.079987,44.138544],[4.080046,44.137715],[4.079918,44.137075],[4.079828,44.136514],[4.079819,44.135927],[4.078312,44.133819],[4.077493,44.133018],[4.076606,44.132454],[4.074303,44.130885],[4.073536,44.130028],[4.073196,44.129328],[4.073013,44.128465],[4.073257,44.126638],[4.073196,44.126207],[4.07226,44.124712],[4.072551,44.123723],[4.072859,44.12313],[4.073562,44.122522],[4.074201,44.122114],[4.075852,44.121206],[4.076848,44.120908],[4.078588,44.121052],[4.0795,44.121235],[4.089822,44.121406],[4.091549,44.121098],[4.092889,44.120621],[4.093866,44.119542],[4.095197,44.117775],[4.095558,44.116967],[4.095819,44.115512],[4.095337,44.110961],[4.095604,44.109944],[4.096141,44.10797],[4.096614,44.106538],[4.097599,44.10503],[4.099048,44.103603],[4.102224,44.105484],[4.104394,44.100516],[4.104839,44.098814],[4.104987,44.097024],[4.104918,44.095863],[4.105057,44.094761],[4.105314,44.093773],[4.103565,44.093773],[4.102997,44.093624],[4.102643,44.093185],[4.102685,44.092812],[4.102878,44.092593],[4.102954,44.092056],[4.102921,44.091568],[4.102836,44.09103],[4.104316,44.089634],[4.104649,44.089066],[4.1057,44.088264],[4.106859,44.087124],[4.107627,44.086691],[4.108202,44.085476],[4.108829,44.084772],[4.109194,44.083906],[4.111601,44.084595],[4.112073,44.083515],[4.113833,44.0835],[4.114627,44.083309],[4.115513,44.0833],[4.117675,44.082716],[4.118586,44.08219],[4.119952,44.081758],[4.121214,44.081196],[4.123746,44.080357],[4.124733,44.080196],[4.125114,44.080327],[4.125613,44.080257],[4.125752,44.080078],[4.126031,44.079563],[4.127179,44.078636],[4.128156,44.0784],[4.129486,44.077629],[4.13057,44.077244],[4.131964,44.076603],[4.132501,44.076157],[4.133188,44.075794],[4.133638,44.075386],[4.134014,44.07526],[4.133917,44.074917],[4.134357,44.074299],[4.134668,44.07399],[4.135226,44.073067],[4.136041,44.072048],[4.137511,44.070591],[4.139153,44.068531],[4.140054,44.067569],[4.139099,44.067646],[4.136782,44.067932],[4.135526,44.068008],[4.135548,44.067608],[4.135473,44.067116],[4.135644,44.065659],[4.135355,44.065304],[4.135065,44.064278],[4.135816,44.063805],[4.135859,44.063431],[4.136385,44.063072],[4.136599,44.062511],[4.137243,44.062065],[4.137565,44.061047],[4.137779,44.060585],[4.138037,44.059326],[4.137983,44.058708],[4.137737,44.057907],[4.137415,44.057175],[4.137168,44.056198],[4.136857,44.055595],[4.136481,44.055679],[4.135488,44.054491],[4.13543,44.054192],[4.135591,44.054008],[4.135336,44.053746],[4.135541,44.05348],[4.13595,44.053247],[4.13599,44.053124],[4.136657,44.052934],[4.137324,44.052905],[4.13794,44.052975],[4.137734,44.052839],[4.137793,44.052568],[4.137978,44.052535],[4.13949,44.052791],[4.141108,44.052592],[4.142725,44.052493],[4.143277,44.052344],[4.143438,44.052625],[4.143412,44.053005],[4.144206,44.053013],[4.14515,44.053188],[4.145536,44.053188],[4.146084,44.053421],[4.146856,44.053535],[4.148691,44.053089],[4.150021,44.052998],[4.150558,44.052811],[4.151491,44.052197],[4.152886,44.051579],[4.154259,44.050732],[4.154785,44.050114],[4.155364,44.049667],[4.156018,44.04958],[4.156619,44.049683],[4.157274,44.049088],[4.1581,44.048626],[4.158496,44.048501],[4.159258,44.048023],[4.159452,44.047215],[4.159463,44.046951],[4.159902,44.046184],[4.160095,44.045617],[4.162198,44.043198],[4.162606,44.042873],[4.16296,44.042008],[4.163786,44.041008],[4.164151,44.039493],[4.164258,44.037983],[4.164355,44.037502],[4.164446,44.037249],[4.164408,44.036594],[4.164687,44.035885],[4.16546,44.034981],[4.165492,44.034302],[4.165127,44.033524],[4.16517,44.0331],[4.164784,44.032345],[4.164044,44.031796],[4.163765,44.031364],[4.162831,44.030815],[4.162145,44.0303],[4.161254,44.029839],[4.16046,44.028851],[4.161029,44.028702],[4.162037,44.028996],[4.163089,44.028973],[4.163926,44.028835],[4.165438,44.028095],[4.167541,44.027367],[4.168528,44.027176],[4.170084,44.027245],[4.170685,44.027485],[4.172348,44.027306],[4.174676,44.027668],[4.175234,44.028023],[4.176049,44.028126],[4.177144,44.027939],[4.177755,44.028095],[4.178613,44.02702],[4.179043,44.026157],[4.179246,44.026081],[4.179515,44.025623],[4.179879,44.025417],[4.180115,44.02517],[4.180931,44.024861],[4.181135,44.024668],[4.182336,44.024275],[4.182572,44.02409],[4.184364,44.023434],[4.18489,44.023048],[4.186853,44.0219],[4.187636,44.020897],[4.18843,44.020626],[4.189053,44.019909],[4.19004,44.019268],[4.190968,44.0189],[4.191617,44.018551],[4.191906,44.017193],[4.191943,44.016152],[4.192743,44.015373],[4.192786,44.015025],[4.192486,44.014947],[4.192722,44.013821],[4.19313,44.013497],[4.193172,44.013173],[4.192786,44.012864],[4.192786,44.012447],[4.192271,44.012355],[4.192872,44.011583],[4.194031,44.011151],[4.194696,44.009693],[4.195801,44.009029],[4.197282,44.009014],[4.198397,44.008057],[4.198945,44.00721],[4.199352,44.006821],[4.201144,44.005997],[4.202882,44.005478],[4.20329,44.00544],[4.203783,44.004028],[4.203633,44.003868],[4.203783,44.003506],[4.204073,44.003589],[4.204202,44.003419],[4.204502,44.003388],[4.205103,44.002894],[4.204749,44.00267],[4.2055,44.001857],[4.205553,44.00169],[4.20587,44.001475],[4.20606,44.001506],[4.206358,44.001183],[4.206294,44.000957],[4.205221,44.000385],[4.205296,44.000061],[4.205639,43.999798],[4.206347,43.999599],[4.206594,43.998913],[4.206616,43.998409],[4.207066,43.997841],[4.208118,43.997082],[4.208654,43.996967],[4.208783,43.996174],[4.209137,43.995541],[4.209352,43.994961],[4.209834,43.994366],[4.210221,43.993393],[4.210564,43.993172],[4.210392,43.992661],[4.210478,43.992245],[4.210306,43.99184],[4.210446,43.991589],[4.211658,43.991055],[4.213257,43.990028],[4.213536,43.98962],[4.213257,43.988754],[4.213514,43.988361],[4.214265,43.988656],[4.214061,43.989162],[4.215885,43.989532],[4.216604,43.989635],[4.216797,43.990437],[4.217516,43.991554],[4.218181,43.992382],[4.21948,43.992352],[4.22125,43.990761],[4.222494,43.989819],[4.223245,43.988663],[4.222956,43.987572],[4.223042,43.986362],[4.223363,43.985558],[4.223975,43.984207],[4.223803,43.983589],[4.223127,43.982841],[4.223084,43.982086],[4.223288,43.981754],[4.224296,43.981384],[4.224307,43.980198],[4.224538,43.980168],[4.224512,43.980015],[4.224994,43.979698],[4.225552,43.979683],[4.226152,43.979569],[4.227408,43.979953],[4.229071,43.979977],[4.229704,43.980148],[4.229994,43.980116],[4.230192,43.979815],[4.230541,43.979313],[4.23126,43.978806],[4.232976,43.978363],[4.234425,43.978249],[4.235798,43.978394],[4.237547,43.978325],[4.238942,43.977947],[4.239918,43.977222],[4.241688,43.976856],[4.243791,43.976547],[4.245282,43.97607],[4.246559,43.97533],[4.247407,43.97414],[4.250164,43.973546],[4.250851,43.973237],[4.252653,43.973005],[4.252846,43.972557],[4.255475,43.972172],[4.257041,43.971832],[4.257621,43.971779],[4.257535,43.971485],[4.257685,43.971199],[4.258693,43.971004],[4.259691,43.969925],[4.261129,43.968674],[4.262642,43.967632],[4.263082,43.967438],[4.263489,43.967331],[4.264101,43.966618],[4.265367,43.966007],[4.266365,43.965755],[4.267105,43.966827],[4.267813,43.966736],[4.270098,43.966921],[4.272448,43.966843],[4.273513,43.967096],[4.274261,43.967132],[4.274476,43.967545],[4.275538,43.968117],[4.27616,43.968281],[4.27646,43.968849],[4.276954,43.969284],[4.277877,43.969391],[4.279507,43.969238],[4.279562,43.968864],[4.280441,43.968618],[4.280278,43.968044],[4.283649,43.966946],[4.285194,43.966827],[4.286578,43.966389],[4.286975,43.966087],[4.288305,43.965725],[4.288681,43.965214],[4.289249,43.964745],[4.290419,43.964798],[4.291309,43.964603],[4.292082,43.964687],[4.292747,43.964672],[4.294313,43.964733],[4.295826,43.964581],[4.297339,43.964943],[4.298712,43.965092],[4.299957,43.965153],[4.301405,43.96553],[4.303454,43.966026],[4.303969,43.963879],[4.304388,43.963139],[4.304978,43.96228],[4.306029,43.961166],[4.306126,43.960819],[4.306115,43.960419],[4.306684,43.959614],[4.307402,43.958317],[4.307488,43.957615],[4.307671,43.957191],[4.308175,43.956657],[4.308454,43.955822],[4.309591,43.954865],[4.31002,43.95435],[4.312187,43.953335],[4.313217,43.95295],[4.313872,43.952766],[4.314526,43.952263],[4.314569,43.951939],[4.314526,43.951275],[4.316533,43.950569],[4.316897,43.950596],[4.316951,43.950817],[4.316157,43.952438],[4.315932,43.9534],[4.316779,43.953529],[4.318088,43.953983],[4.319097,43.954201],[4.319741,43.954525],[4.320288,43.954697],[4.321039,43.955082],[4.321876,43.95528],[4.322348,43.955475],[4.322927,43.955528],[4.324536,43.954727],[4.324654,43.954117],[4.325041,43.954006],[4.325421,43.953576],[4.328077,43.952123],[4.328635,43.951691],[4.330739,43.950462],[4.331371,43.949791],[4.332088,43.948765],[4.332969,43.946957],[4.33195,43.946098],[4.332551,43.945305],[4.33254,43.944424],[4.332948,43.943821],[4.333581,43.943619],[4.333956,43.943665],[4.334621,43.942947],[4.335415,43.942654],[4.336413,43.942814],[4.336778,43.942699],[4.337722,43.94194],[4.339814,43.941803],[4.340393,43.941479],[4.340608,43.941124],[4.341123,43.939331],[4.341037,43.938528],[4.341187,43.937879],[4.340522,43.937956],[4.339353,43.937817],[4.338495,43.937847],[4.338012,43.937634],[4.337239,43.937817],[4.336402,43.937824],[4.336177,43.937462],[4.335501,43.937244],[4.334611,43.937099],[4.334171,43.936729],[4.333946,43.936401],[4.334128,43.936142],[4.329389,43.935229],[4.327959,43.935127],[4.327508,43.935509],[4.325202,43.935398],[4.324107,43.935638],[4.323024,43.935623],[4.323125,43.935295],[4.322932,43.934944],[4.322675,43.934902],[4.322428,43.934963],[4.322058,43.934834],[4.321581,43.934807],[4.319816,43.930447],[4.319193,43.929867],[4.319247,43.929688],[4.31915,43.929573],[4.318399,43.92775],[4.318142,43.927547],[4.317906,43.92754],[4.317123,43.927895],[4.316511,43.927914],[4.316007,43.928051],[4.315631,43.927959],[4.314923,43.928104],[4.314966,43.927921],[4.315577,43.927644],[4.315782,43.927077],[4.315867,43.926768],[4.316007,43.926392],[4.315567,43.925797],[4.315073,43.92482],[4.314762,43.924728],[4.314548,43.92458],[4.314473,43.92429],[4.313926,43.923447],[4.313561,43.92313],[4.313765,43.921909],[4.313786,43.921249],[4.314044,43.920998],[4.314687,43.921043],[4.315728,43.921272],[4.315792,43.921112],[4.314902,43.920185],[4.312971,43.917973],[4.311994,43.91795],[4.310803,43.918098],[4.30958,43.918159],[4.308153,43.918461],[4.307113,43.91856],[4.30648,43.918545],[4.306008,43.918896],[4.30575,43.919464],[4.305117,43.920116],[4.305096,43.92173],[4.304656,43.922844],[4.303969,43.923416],[4.303186,43.923725],[4.302435,43.923901],[4.300965,43.925053],[4.300472,43.925865],[4.299999,43.92625],[4.299774,43.926853],[4.299288,43.926726],[4.2978,43.926491],[4.296287,43.925514],[4.295558,43.924931],[4.295247,43.924397],[4.294764,43.924534],[4.294367,43.923931],[4.294013,43.922943],[4.293519,43.922936],[4.29279,43.923416],[4.292318,43.924004],[4.292318,43.924225],[4.29221,43.92448],[4.292146,43.924759],[4.291921,43.924843],[4.29147,43.924908],[4.290923,43.925224],[4.290236,43.926079],[4.289807,43.926258],[4.289914,43.926861],[4.289882,43.927357],[4.290043,43.927864],[4.289989,43.928829],[4.289571,43.929317],[4.289507,43.92934],[4.289163,43.929489],[4.288681,43.929447],[4.288069,43.929798],[4.287629,43.929672],[4.287189,43.929928],[4.286546,43.93013],[4.285719,43.930176],[4.284539,43.930454],[4.284582,43.93108],[4.284732,43.931419],[4.28455,43.93169],[4.284668,43.932037],[4.283853,43.931835],[4.282662,43.931026],[4.281878,43.931095],[4.280827,43.930763],[4.28043,43.93029],[4.279443,43.929758],[4.27792,43.928276],[4.275774,43.927633],[4.273838,43.92736],[4.272534,43.927048],[4.271536,43.92696],[4.271976,43.926559],[4.272083,43.925972],[4.272383,43.925587],[4.271268,43.925098],[4.270602,43.924946],[4.268564,43.924232],[4.267341,43.924194],[4.266064,43.924271],[4.265624,43.924835],[4.264745,43.925083],[4.263436,43.924908],[4.262953,43.925115],[4.262159,43.925223],[4.253769,43.923816],[4.254305,43.922688],[4.254799,43.922163],[4.255292,43.921421],[4.256322,43.920741],[4.258747,43.918561],[4.257846,43.917974],[4.257739,43.917965],[4.257299,43.917465],[4.255732,43.91687],[4.254992,43.916336],[4.254134,43.914776],[4.253629,43.913455],[4.253613,43.913068],[4.254069,43.911955],[4.254831,43.91111],[4.255775,43.910347],[4.255915,43.90992],[4.256408,43.909428],[4.257964,43.906815],[4.25791,43.906513],[4.258329,43.905529],[4.258651,43.905289],[4.259262,43.903992],[4.259734,43.903503],[4.259691,43.900993],[4.259992,43.899918],[4.260592,43.899494],[4.261075,43.898884],[4.261622,43.898621],[4.262213,43.898163],[4.263275,43.897537],[4.263554,43.897087],[4.264079,43.897049],[4.265528,43.897446],[4.26556,43.898139],[4.266096,43.898891],[4.266332,43.899406],[4.266794,43.898842],[4.267502,43.897636],[4.26836,43.896988],[4.268714,43.896339],[4.269154,43.896107],[4.269766,43.895412],[4.270763,43.895149],[4.271665,43.894768],[4.272244,43.894684],[4.273399,43.893946],[4.274229,43.893056],[4.274863,43.892763],[4.275448,43.891743],[4.275763,43.89061],[4.276654,43.889942],[4.277222,43.889397],[4.277416,43.889038],[4.278038,43.888638],[4.278703,43.88792],[4.279593,43.886078],[4.280001,43.884987],[4.280355,43.884563],[4.281235,43.88385],[4.282072,43.883304],[4.282597,43.882683],[4.283332,43.882276],[4.28401,43.881709],[4.284646,43.881421],[4.285033,43.880341],[4.285945,43.879513],[4.286857,43.878513],[4.28794,43.877712],[4.28852,43.877472],[4.289056,43.877022],[4.289303,43.876568],[4.289367,43.875793],[4.290011,43.875397],[4.290563,43.875278],[4.291242,43.875076],[4.291642,43.87458],[4.292232,43.874317],[4.292704,43.873936],[4.293219,43.873333],[4.293315,43.873009],[4.293573,43.872578],[4.293683,43.872282],[4.294008,43.872063],[4.294571,43.872058],[4.29545,43.872005],[4.296727,43.871803],[4.297199,43.871471],[4.297628,43.87133],[4.298556,43.871524],[4.299667,43.871571],[4.300632,43.871029],[4.301083,43.870525],[4.300933,43.870163],[4.301029,43.869789],[4.301534,43.869335],[4.301223,43.867565],[4.301062,43.867325],[4.30119,43.867008],[4.304162,43.866753],[4.308357,43.865692],[4.309192,43.865229],[4.309666,43.864338],[4.310653,43.86385],[4.313271,43.862984],[4.314215,43.862411],[4.315138,43.861552],[4.316211,43.860934],[4.31664,43.8605],[4.317388,43.860023],[4.318024,43.858868],[4.318711,43.858055],[4.319258,43.856911],[4.319719,43.856518],[4.319923,43.856068],[4.320749,43.855564],[4.321779,43.854877],[4.322948,43.853237],[4.323399,43.852982],[4.324086,43.852757],[4.324515,43.851952],[4.325084,43.851925],[4.325572,43.852043],[4.326223,43.852068],[4.327176,43.852216],[4.327809,43.851868],[4.328678,43.851837],[4.329075,43.8517],[4.332218,43.851463],[4.333152,43.851234],[4.3346,43.851288],[4.33549,43.851086],[4.336488,43.850746],[4.336724,43.850288],[4.337389,43.85001],[4.338441,43.849834],[4.339288,43.849445],[4.340415,43.849174],[4.34093,43.849174],[4.3424,43.848911],[4.343269,43.848618],[4.343859,43.848618],[4.343784,43.848431],[4.344803,43.848217],[4.345489,43.847924],[4.346343,43.847911],[4.346799,43.847759],[4.346927,43.847481],[4.348569,43.846893],[4.349223,43.846165],[4.348698,43.845142],[4.349105,43.84362],[4.349728,43.843147],[4.349953,43.842815],[4.350661,43.842175],[4.350862,43.841709],[4.351257,43.841278],[4.35122,43.840838],[4.351361,43.840798],[4.351873,43.84122],[4.352132,43.841091],[4.352421,43.841122],[4.352649,43.840931],[4.352347,43.840847],[4.352603,43.83999],[4.352273,43.839895],[4.352528,43.839076],[4.354846,43.839443],[4.355714,43.839774],[4.355832,43.839188],[4.356058,43.838474],[4.355468,43.838333],[4.355714,43.837631],[4.358579,43.835137],[4.358709,43.834491],[4.359425,43.834198],[4.360059,43.833834],[4.358,43.832172],[4.360124,43.828033],[4.362087,43.825184],[4.36184,43.824844],[4.362259,43.822792],[4.36242,43.820789],[4.362731,43.819324],[4.362731,43.817677],[4.362334,43.8176],[4.361261,43.817909],[4.35992,43.817669],[4.356476,43.817204],[4.353021,43.816879],[4.353472,43.814301],[4.354287,43.813465],[4.354695,43.809929],[4.354395,43.809261],[4.354287,43.808125],[4.354351,43.806255],[4.354649,43.803996],[4.353476,43.801622],[4.353545,43.800693],[4.353568,43.799448],[4.353456,43.798726],[4.352453,43.796879],[4.352281,43.795895],[4.352174,43.794472],[4.351605,43.793457],[4.350985,43.792857],[4.349771,43.792294],[4.349921,43.791264],[4.350264,43.790272],[4.352775,43.787518],[4.355371,43.782699],[4.358783,43.777229],[4.362463,43.772568],[4.363686,43.771767],[4.363434,43.771439],[4.363986,43.770094],[4.363963,43.769064],[4.364308,43.768649],[4.364975,43.768599],[4.369414,43.770575],[4.370012,43.770409],[4.370449,43.769529],[4.370288,43.769263],[4.369713,43.76923],[4.368586,43.768765],[4.368172,43.768433],[4.364768,43.767154],[4.36463,43.766589],[4.365506,43.765559],[4.367068,43.761358],[4.367643,43.761075],[4.368287,43.761125],[4.368448,43.761607],[4.368793,43.761956],[4.375968,43.763932],[4.378498,43.76541],[4.379007,43.764793],[4.380712,43.761743],[4.38023,43.759396],[4.37817,43.756664],[4.37759,43.755451],[4.37759,43.754768],[4.377687,43.754372],[4.374136,43.753815],[4.37288,43.753777],[4.372655,43.752792],[4.368224,43.751778],[4.368846,43.75008],[4.369195,43.748347],[4.370359,43.744598],[4.370799,43.743702],[4.370821,43.743259],[4.370434,43.74184],[4.370574,43.741646],[4.370102,43.741268],[4.36904,43.740879],[4.368106,43.740646],[4.367366,43.740299],[4.365509,43.738872],[4.361862,43.738205],[4.357733,43.737684],[4.35624,43.73695],[4.354309,43.734871],[4.35256,43.733181],[4.351315,43.732361],[4.350318,43.730251],[4.349781,43.729599],[4.348816,43.729157],[4.348462,43.728336],[4.348118,43.728311],[4.347893,43.727322],[4.348526,43.726082],[4.349149,43.725358],[4.350092,43.725151],[4.350768,43.724873],[4.351348,43.72483],[4.35123,43.725159],[4.351659,43.725368],[4.35256,43.725227],[4.352399,43.724854],[4.35315,43.724574],[4.353054,43.723907],[4.353343,43.723419],[4.354212,43.723125],[4.355082,43.723019],[4.355135,43.722397],[4.355993,43.721615],[4.356004,43.72076],[4.356143,43.720085],[4.359813,43.720573],[4.362323,43.720715],[4.364104,43.721157],[4.366207,43.721428],[4.368696,43.721809],[4.370661,43.721949],[4.37219,43.722302],[4.373063,43.722389],[4.375885,43.722343],[4.377022,43.722389],[4.379328,43.722771],[4.383448,43.72353],[4.385167,43.724006],[4.387161,43.722984],[4.388684,43.721249],[4.390057,43.720844],[4.390615,43.72014],[4.390599,43.719552],[4.395184,43.710184],[4.390862,43.709015],[4.3929,43.700924],[4.392675,43.700534],[4.391033,43.698592],[4.391291,43.698308],[4.392342,43.697904],[4.393802,43.699169],[4.396291,43.697687],[4.396612,43.697237],[4.397889,43.696136],[4.399391,43.695724],[4.400679,43.695587],[4.405582,43.694599],[4.405346,43.693367],[4.405646,43.693096],[4.407309,43.692337],[4.407277,43.691887],[4.409487,43.690807],[4.409842,43.690201],[4.410217,43.689877],[4.411065,43.689597],[4.412856,43.688519],[4.414133,43.686947],[4.41498,43.68697],[4.415689,43.686455],[4.416053,43.685627],[4.416536,43.684856],[4.416944,43.684654],[4.418478,43.684307],[4.420098,43.683563],[4.420398,43.683167],[4.422598,43.683113],[4.423563,43.683769],[4.424025,43.683731],[4.423993,43.68322],[4.424175,43.682785],[4.424647,43.682499],[4.425505,43.682274],[4.425763,43.681973],[4.425859,43.681499],[4.42661,43.680325],[4.427404,43.679916],[4.428155,43.679752],[4.429603,43.679798],[4.429561,43.678333],[4.429689,43.677116]]],"type":"MultiLineString"},"properties":{"geo_point":{"lon":4.223166300628625,"lat":43.98192758790943},"name":"GR700 Voie Régordane. De Chamborigaud à St Gilles (Gard) (2020)","code_gr":"GR700"}}]}