{"type":"FeatureCollection","features":[{"type":"Feature","geometry":{"coordinates":[[[5.675374,48.442948],[5.675374,48.442948],[5.675192,48.442243],[5.675277,48.442008],[5.674998,48.441709],[5.67473,48.441667],[5.674288,48.4417],[5.673623,48.441101],[5.673237,48.440304],[5.673151,48.437859],[5.671778,48.437],[5.67122,48.434566],[5.671177,48.431164],[5.670447,48.428959],[5.670705,48.427834],[5.67004,48.42712],[5.669224,48.423946],[5.66783,48.416611],[5.66699,48.416908],[5.66652,48.418758],[5.66525,48.420132],[5.6628,48.420399],[5.65982,48.421551],[5.65862,48.421848],[5.65652,48.422771],[5.6527,48.423561],[5.65162,48.423512],[5.65002,48.423321],[5.64615,48.423729],[5.64326,48.423611],[5.64167,48.42297],[5.64025,48.42268],[5.63931,48.422691],[5.6386,48.423],[5.63781,48.423611],[5.63388,48.42485],[5.63309,48.42458],[5.63195,48.422932],[5.63152,48.421509],[5.630061,48.421025],[5.630144,48.42079],[5.630822,48.420366],[5.630771,48.419657],[5.63002,48.41811],[5.62279,48.418201],[5.62064,48.416809],[5.62124,48.414211],[5.62126,48.413059],[5.62257,48.41238],[5.62326,48.41037],[5.63371,48.408329],[5.63871,48.407082],[5.63903,48.406448],[5.63671,48.4034],[5.63678,48.402618],[5.63602,48.40189],[5.63551,48.400951],[5.6353,48.399502],[5.63577,48.398491],[5.6362,48.398048],[5.63583,48.397018],[5.63635,48.396111],[5.63736,48.395481],[5.63869,48.394272],[5.63954,48.39389],[5.6406,48.39296],[5.6412,48.391319],[5.64055,48.39048],[5.64139,48.389359],[5.64212,48.388802],[5.643748,48.3879],[5.644653,48.386576],[5.646172,48.384695],[5.647675,48.383699],[5.64935,48.382389],[5.65014,48.38229],[5.65098,48.381699],[5.65167,48.380852],[5.65375,48.380241],[5.65553,48.380161],[5.65757,48.380219],[5.65924,48.379581],[5.66085,48.379478],[5.66265,48.379711],[5.66351,48.37759],[5.6633,48.375759],[5.6628,48.374981],[5.66137,48.37468],[5.66064,48.374359],[5.6598,48.374279],[5.65883,48.373772],[5.65504,48.37254],[5.65429,48.372028],[5.65396,48.371231],[5.65403,48.370251],[5.6545,48.369629],[5.65465,48.368382],[5.65368,48.367321],[5.65188,48.366192],[5.65025,48.36557],[5.64944,48.36554],[5.64789,48.36478],[5.64527,48.362621],[5.64392,48.36219],[5.64386,48.36166],[5.64283,48.36124],[5.64019,48.360451],[5.63806,48.360481],[5.63583,48.359791],[5.63396,48.358898],[5.633,48.359291],[5.62929,48.35701],[5.63105,48.35368],[5.63012,48.351841],[5.62905,48.350731],[5.62718,48.34964],[5.62555,48.348412],[5.62386,48.345852],[5.621,48.344219],[5.61978,48.342941],[5.61905,48.3424],[5.61864,48.340801],[5.61819,48.34029],[5.61588,48.339531],[5.61279,48.33873],[5.61034,48.338249],[5.60882,48.33709],[5.60796,48.335491],[5.60776,48.33432],[5.60832,48.333229],[5.60817,48.33247],[5.60744,48.331371],[5.60875,48.329121],[5.60961,48.32843],[5.6103,48.32888],[5.61148,48.329029],[5.61221,48.3293],[5.61347,48.32962],[5.61491,48.330631],[5.61682,48.3316],[5.62038,48.33107],[5.6218,48.330631],[5.6257,48.330891],[5.62939,48.3307],[5.63057,48.33086],[5.633,48.331001],[5.63478,48.331371],[5.63744,48.33313],[5.64055,48.331772],[5.64182,48.330971],[5.64225,48.3311],[5.64433,48.328831],[5.6459,48.325291],[5.64731,48.326691],[5.65038,48.32719],[5.65117,48.32766],[5.65227,48.3288],[5.65315,48.329201],[5.65619,48.328529],[5.6625,48.328049],[5.66407,48.328049],[5.66197,48.32531],[5.65995,48.321861],[5.65965,48.320438],[5.65903,48.319401],[5.65849,48.317719],[5.65901,48.317181],[5.65982,48.315022],[5.66012,48.314079],[5.661,48.312351],[5.66231,48.312019],[5.66261,48.31147],[5.6627,48.30983],[5.66218,48.309052],[5.66124,48.308201],[5.66055,48.306889],[5.66162,48.306301],[5.65971,48.304729],[5.65909,48.30447],[5.65804,48.303329],[5.65911,48.303001],[5.65986,48.30315],[5.6613,48.30407],[5.66512,48.302528],[5.66574,48.301601],[5.66825,48.300209],[5.67119,48.29826],[5.67418,48.301651],[5.67514,48.301361],[5.67714,48.301529],[5.67755,48.301289],[5.67694,48.300209],[5.6763,48.300381],[5.67216,48.294621],[5.67235,48.294338],[5.67467,48.293541],[5.67506,48.29314],[5.67727,48.292912],[5.67896,48.292061],[5.68156,48.300949],[5.687353,48.299967],[5.68782,48.301311],[5.69106,48.300919],[5.69338,48.300259],[5.69467,48.299831],[5.69817,48.299019],[5.7013,48.298512],[5.70269,48.29847],[5.704,48.29808],[5.70538,48.297821],[5.70615,48.297508],[5.70643,48.29715],[5.70598,48.296982],[5.7052,48.296951],[5.70563,48.29678],[5.706295,48.296819],[5.707024,48.297044],[5.708013,48.297796],[5.70967,48.297951],[5.71076,48.297749],[5.71147,48.29752],[5.71128,48.296871],[5.71246,48.29575],[5.7142,48.293221],[5.71531,48.29258],[5.71694,48.290581],[5.71894,48.289909],[5.72003,48.289452],[5.72205,48.289799],[5.72183,48.286098],[5.72913,48.28656],[5.7316,48.286442],[5.73222,48.2859],[5.73246,48.285019],[5.73273,48.285042],[5.73319,48.286091],[5.73394,48.286461],[5.73452,48.286461],[5.73499,48.286259],[5.73658,48.28643],[5.73769,48.286339],[5.73857,48.286541],[5.73926,48.286598],[5.73967,48.286831],[5.73982,48.287231],[5.74091,48.287731],[5.7443,48.288681],[5.744326,48.288719],[5.746472,48.290176],[5.746686,48.290489],[5.74836,48.290718],[5.749412,48.290119],[5.751665,48.289917],[5.752716,48.289906],[5.75439,48.290119],[5.755892,48.290489],[5.757093,48.290733],[5.757973,48.291302],[5.758252,48.29229],[5.759046,48.293343],[5.760248,48.294258],[5.761235,48.294899],[5.764496,48.298939],[5.76544,48.300552],[5.767436,48.302151],[5.767844,48.302963],[5.76926,48.303967],[5.769989,48.304592],[5.770569,48.304909],[5.771277,48.305664],[5.773101,48.306774],[5.774839,48.308018],[5.775654,48.307732],[5.776234,48.307133],[5.776126,48.306164],[5.776534,48.30592],[5.778723,48.305435],[5.780611,48.305279],[5.783787,48.304691],[5.784645,48.304264],[5.790009,48.303322],[5.791812,48.303608],[5.793829,48.303024],[5.795395,48.301983],[5.795288,48.301139],[5.796704,48.299455],[5.796984,48.298826],[5.797584,48.29847],[5.79812,48.296829],[5.800459,48.292744],[5.80061,48.292103],[5.800116,48.29126],[5.800588,48.289974],[5.802391,48.287361],[5.803506,48.286434],[5.805202,48.285492],[5.805867,48.284878],[5.806296,48.284164],[5.808141,48.283936],[5.813184,48.282509],[5.814128,48.281937],[5.815802,48.280464],[5.816638,48.280182],[5.817604,48.280407],[5.818441,48.281296],[5.819213,48.281796],[5.820715,48.280807],[5.821359,48.280624],[5.823677,48.278965],[5.822453,48.278522],[5.821445,48.277981],[5.824106,48.276398],[5.827281,48.274895],[5.832045,48.273438],[5.833375,48.273556],[5.834534,48.272968],[5.837195,48.27224],[5.841272,48.269369],[5.843782,48.268284],[5.846529,48.266628],[5.845735,48.264984],[5.846572,48.2645],[5.847774,48.264114],[5.849168,48.263783],[5.851507,48.262772],[5.853524,48.261242],[5.855691,48.260571],[5.859468,48.259743],[5.860412,48.259598],[5.862386,48.258957],[5.863953,48.258629],[5.86406,48.258411],[5.864704,48.25827],[5.864596,48.254856],[5.864017,48.252068],[5.863266,48.251511],[5.861635,48.248981],[5.85994,48.247555],[5.858374,48.247009],[5.85758,48.246197],[5.859146,48.243881],[5.858374,48.243298],[5.856421,48.24221],[5.851271,48.24028],[5.848117,48.23848],[5.843976,48.236622],[5.846465,48.23568],[5.849833,48.235165],[5.852709,48.234951],[5.853353,48.234707],[5.853331,48.233208],[5.853674,48.232834],[5.85567,48.231993],[5.859919,48.229446],[5.861678,48.227745],[5.862944,48.227001],[5.863931,48.226044],[5.867364,48.224815],[5.866935,48.223801],[5.862408,48.222301],[5.861206,48.220299],[5.860777,48.218868],[5.860906,48.218109],[5.860605,48.217869],[5.860015,48.210454],[5.859892,48.209864],[5.859683,48.206699],[5.860498,48.205872],[5.859919,48.205284],[5.85994,48.204826],[5.867579,48.204582],[5.867429,48.203697],[5.868394,48.203484],[5.870755,48.202282],[5.867622,48.201164],[5.869017,48.199223],[5.870476,48.19902],[5.87127,48.198505],[5.874403,48.198849],[5.875733,48.198521],[5.877171,48.197433],[5.878243,48.197205],[5.879037,48.197147],[5.879638,48.197392],[5.881784,48.199478],[5.884402,48.197605],[5.884187,48.19732],[5.885195,48.197132],[5.886398,48.196403],[5.887084,48.196432],[5.887642,48.19643],[5.888328,48.196646],[5.889101,48.196574],[5.889831,48.196102],[5.892727,48.195301],[5.894144,48.195316],[5.895345,48.195045],[5.896375,48.195202],[5.897427,48.196018],[5.897877,48.195732],[5.898736,48.195831],[5.899487,48.195488],[5.899744,48.195187],[5.899165,48.194599],[5.898843,48.193802],[5.899208,48.193626],[5.902877,48.193428],[5.903821,48.193455],[5.905516,48.193241],[5.906847,48.193199],[5.907962,48.193027],[5.913928,48.192699],[5.915902,48.192326],[5.916803,48.191883],[5.91764,48.191025],[5.920622,48.19154],[5.922146,48.192013],[5.923841,48.192928],[5.924549,48.1936],[5.92485,48.194157],[5.925343,48.194042],[5.924871,48.193199],[5.925236,48.192299],[5.923455,48.191555],[5.923691,48.190968],[5.922961,48.190338],[5.923498,48.18885],[5.923154,48.187748],[5.922253,48.186302],[5.92309,48.186062],[5.926008,48.186646],[5.927231,48.187119],[5.928733,48.187962],[5.930493,48.188522],[5.93163,48.190437],[5.932488,48.190697],[5.932982,48.191525],[5.933669,48.192127],[5.934741,48.19231],[5.93487,48.19091],[5.936437,48.190708],[5.940771,48.190838],[5.942295,48.192383],[5.945191,48.19453],[5.947616,48.1954],[5.949826,48.195545],[5.951242,48.195759],[5.952272,48.195545],[5.953431,48.195103],[5.953689,48.195229],[5.953989,48.195087],[5.955684,48.196217],[5.957358,48.195217],[5.960448,48.192955],[5.962079,48.192112],[5.964868,48.190338],[5.967829,48.187763],[5.968237,48.186703],[5.968645,48.186275],[5.969439,48.185787],[5.971348,48.184231],[5.973365,48.182983],[5.974696,48.181683],[5.96622,48.173527],[5.957465,48.169376],[5.951092,48.168232],[5.950921,48.16544],[5.950663,48.165255],[5.950513,48.164841],[5.948539,48.164337],[5.948431,48.163124],[5.948539,48.161575],[5.947359,48.158615],[5.943196,48.152786],[5.927939,48.140087]]],"type":"MultiLineString"},"properties":{"geo_point":{"lon":5.765322903763902,"lat":48.28961205244325},"name":"GR714 De Domrémy-la-Pucelle à Dombrot-le-Sec (Vosges) (2017)","code_gr":"GR714"}},{"type":"Feature","geometry":{"coordinates":[[[5.151215,48.77879],[5.150871,48.778721],[5.150957,48.777744],[5.150807,48.775963],[5.148962,48.775551],[5.147266,48.774715],[5.145829,48.774208],[5.144649,48.773983],[5.143683,48.773289],[5.143082,48.772991],[5.143147,48.772667],[5.142889,48.770321],[5.144091,48.769115],[5.144756,48.769146],[5.145679,48.768749],[5.147052,48.767391],[5.145807,48.766655],[5.145249,48.765327],[5.146537,48.764915],[5.146901,48.764577],[5.146752,48.764052],[5.14673,48.763741],[5.145228,48.762695],[5.142868,48.760403],[5.142095,48.759922],[5.139048,48.758904],[5.13849,48.75814],[5.139349,48.75432],[5.140443,48.751507],[5.14628,48.748112],[5.146569,48.747694],[5.147974,48.745804],[5.143619,48.717228],[5.142846,48.712542],[5.152438,48.711922],[5.151236,48.711212],[5.15954,48.70491],[5.160098,48.704231],[5.159476,48.701553],[5.157867,48.699516],[5.15733,48.698918],[5.156472,48.697789],[5.159176,48.696868],[5.161772,48.696634],[5.162813,48.696814],[5.164363,48.697244],[5.165999,48.697193],[5.167522,48.696583],[5.168831,48.695873],[5.169454,48.695831],[5.169947,48.695889],[5.169218,48.695492],[5.169411,48.695183],[5.17087,48.694786],[5.171342,48.694019],[5.171299,48.692959],[5.171707,48.691952],[5.171621,48.691242],[5.173016,48.691284],[5.174475,48.691044],[5.175934,48.691284],[5.177071,48.691669],[5.180011,48.692432],[5.181684,48.692719],[5.182457,48.692719],[5.184023,48.693497],[5.184753,48.694359],[5.185182,48.694389],[5.185461,48.694145],[5.185354,48.693581],[5.186598,48.692818],[5.189173,48.692051],[5.189817,48.691879],[5.190439,48.691414],[5.191298,48.690025],[5.191748,48.68882],[5.19325,48.687347],[5.194194,48.686825],[5.196276,48.686146],[5.197906,48.68552],[5.200717,48.684883],[5.203228,48.684032],[5.204837,48.684162],[5.20973,48.683735],[5.211661,48.68327],[5.213377,48.683155],[5.214622,48.682858],[5.215523,48.682774],[5.217733,48.681824],[5.220931,48.680847],[5.22166,48.680363],[5.221832,48.679756],[5.221446,48.679016],[5.221703,48.676697],[5.222175,48.676212],[5.223162,48.675873],[5.223613,48.675449],[5.224643,48.675606],[5.225394,48.675549],[5.225909,48.677006],[5.22711,48.676426],[5.227883,48.676098],[5.228398,48.675476],[5.228333,48.674583],[5.227432,48.673691],[5.227282,48.672417],[5.229385,48.671974],[5.231659,48.670147],[5.23211,48.669411],[5.232732,48.668533],[5.238204,48.665188],[5.237753,48.664948],[5.238161,48.662865],[5.239041,48.661064],[5.241165,48.661644],[5.24404,48.662792],[5.247173,48.664181],[5.250156,48.667511],[5.251958,48.66798],[5.252903,48.668434],[5.25552,48.66679],[5.255005,48.663872],[5.255113,48.662792],[5.254169,48.662395],[5.253675,48.662041],[5.253718,48.66074],[5.253031,48.658726],[5.252903,48.657494],[5.25228,48.656033],[5.252967,48.652603],[5.265863,48.651142],[5.267065,48.650532],[5.26655,48.649624],[5.266035,48.647823],[5.266292,48.646278],[5.265906,48.645119],[5.266228,48.643768],[5.265906,48.642254],[5.26552,48.641701],[5.26552,48.641205],[5.266249,48.640182],[5.266786,48.637814],[5.269167,48.636341],[5.271292,48.636639],[5.272236,48.636482],[5.263889,48.606327],[5.266678,48.607292],[5.270905,48.608524],[5.273759,48.605305],[5.274489,48.605289],[5.273631,48.603661],[5.273609,48.602962],[5.274596,48.602596],[5.277729,48.600792],[5.279531,48.599487],[5.279403,48.598068],[5.279746,48.5975],[5.281913,48.595058],[5.282965,48.592621],[5.284102,48.59079],[5.285969,48.589851],[5.283415,48.587734],[5.283415,48.587734],[5.287081,48.585938],[5.284614,48.583795],[5.28485,48.583156],[5.285493,48.583028],[5.286334,48.582741],[5.288887,48.583096],[5.289745,48.58284],[5.290926,48.582146],[5.291677,48.581547],[5.293007,48.581051],[5.294917,48.581703],[5.296397,48.582397],[5.297899,48.582272],[5.299122,48.581474],[5.300903,48.581291],[5.302448,48.581421],[5.302942,48.581192],[5.301762,48.580326],[5.303006,48.579277],[5.303435,48.578751],[5.303757,48.577602],[5.304122,48.576977],[5.304272,48.576283],[5.305324,48.575699],[5.306246,48.574818],[5.307512,48.572803],[5.307577,48.572136],[5.30807,48.571098],[5.307577,48.568642],[5.314293,48.561047],[5.315645,48.559055],[5.321739,48.560379],[5.322661,48.559555],[5.32515,48.560719],[5.327318,48.561016],[5.32738,48.561008],[5.32811,48.560909],[5.33263,48.561241],[5.33362,48.561649],[5.33622,48.561878],[5.34128,48.56255],[5.34216,48.562599],[5.34373,48.562531],[5.34506,48.562592],[5.34643,48.562389],[5.34699,48.56205],[5.34832,48.562222],[5.34879,48.562599],[5.34948,48.562698],[5.34999,48.56094],[5.34984,48.559811],[5.3492,48.558601],[5.34924,48.557461],[5.35004,48.55608],[5.35147,48.554878],[5.35193,48.553581],[5.35293,48.549221],[5.35317,48.54755],[5.35399,48.546181],[5.35429,48.545189],[5.35577,48.542728],[5.35626,48.54245],[5.35731,48.54221],[5.35787,48.541538],[5.35873,48.541199],[5.36053,48.540249],[5.36276,48.54023],[5.36682,48.540058],[5.37486,48.54015],[5.37579,48.539982],[5.37583,48.53936],[5.37725,48.538897],[5.378471,48.53898],[5.37907,48.538738],[5.37971,48.537922],[5.38053,48.537399],[5.38179,48.53685],[5.38317,48.53672],[5.3848,48.536209],[5.38677,48.53587],[5.38956,48.534801],[5.39231,48.534451],[5.39297,48.534721],[5.3933,48.534592],[5.39347,48.534039],[5.39559,48.532349],[5.39559,48.532349],[5.396751,48.531829],[5.397588,48.531247],[5.39864,48.53075],[5.399519,48.53021],[5.399906,48.530139],[5.401236,48.53048],[5.402824,48.530508],[5.403446,48.530821],[5.404433,48.531645],[5.406386,48.532341],[5.412566,48.534103],[5.413209,48.533947],[5.414905,48.532625],[5.415098,48.532298],[5.416965,48.531474],[5.424582,48.525961],[5.42705,48.527271],[5.42922,48.52562],[5.43063,48.525269],[5.43222,48.524052],[5.43306,48.52335],[5.43464,48.523251],[5.43555,48.522572],[5.43617,48.522369],[5.43716,48.52253],[5.43739,48.522171],[5.43975,48.52356],[5.44316,48.52422],[5.44627,48.525082],[5.44801,48.525059],[5.44924,48.525398],[5.45136,48.526211],[5.45181,48.526119],[5.45273,48.52562],[5.45486,48.525539],[5.45647,48.525768],[5.45932,48.525532],[5.46097,48.525669],[5.46561,48.526508],[5.46711,48.52602],[5.47138,48.52824],[5.47479,48.530369],[5.4758,48.530571],[5.47758,48.53051],[5.47971,48.530602],[5.48166,48.530399],[5.48368,48.529751],[5.48501,48.529789],[5.487,48.52879],[5.48883,48.528671],[5.49093,48.528919],[5.49138,48.529228],[5.49168,48.529671],[5.49213,48.529869],[5.49256,48.530231],[5.49269,48.529961],[5.49267,48.52935],[5.49335,48.527161],[5.49415,48.525478],[5.49455,48.523209],[5.49638,48.521179],[5.495824,48.520308],[5.495924,48.520055],[5.495455,48.519732],[5.496166,48.519775],[5.49655,48.518761],[5.49689,48.518661],[5.49679,48.51836],[5.49546,48.51804],[5.49477,48.517399],[5.49393,48.51582],[5.49387,48.514889],[5.49425,48.51366],[5.49543,48.512859],[5.49775,48.51228],[5.49964,48.512348],[5.50123,48.512589],[5.50327,48.51263],[5.50526,48.51252],[5.50496,48.512859],[5.50485,48.513641],[5.50578,48.513691],[5.50698,48.513439],[5.50814,48.513],[5.5093,48.512791],[5.51033,48.512341],[5.51045,48.512169],[5.5111,48.512409],[5.51155,48.511681],[5.51178,48.510731],[5.5123,48.50948],[5.51266,48.507198],[5.51251,48.505798],[5.51286,48.50526],[5.51427,48.504971],[5.51627,48.50491],[5.51764,48.505199],[5.51921,48.505192],[5.52159,48.50531],[5.52393,48.50573],[5.52897,48.505741],[5.52974,48.505669],[5.53142,48.505138],[5.53337,48.505161],[5.53837,48.504028],[5.54107,48.504089],[5.54288,48.503239],[5.54436,48.503101],[5.54801,48.503368],[5.5491,48.503151],[5.55088,48.501942],[5.5518,48.501759],[5.55301,48.501629],[5.55376,48.501099],[5.5544,48.499901],[5.55571,48.499531],[5.5565,48.499378],[5.55794,48.498619],[5.55854,48.49802],[5.56052,48.497101],[5.56245,48.496712],[5.5635,48.494251],[5.56406,48.493309],[5.56459,48.491409],[5.56524,48.490379],[5.56582,48.48983],[5.56715,48.489262],[5.56788,48.487],[5.56886,48.486221],[5.56978,48.48502],[5.57081,48.483341],[5.57397,48.48172],[5.57584,48.48056],[5.57629,48.47987],[5.57702,48.478111],[5.57768,48.477402],[5.57966,48.476269],[5.57953,48.47464],[5.57888,48.47332],[5.57571,48.470901],[5.57414,48.470112],[5.593,48.471272],[5.59583,48.472649],[5.5994,48.473572],[5.60079,48.472969],[5.60568,48.477032],[5.6065,48.477871],[5.60849,48.479519],[5.61013,48.479889],[5.61126,48.480598],[5.61244,48.481121],[5.6154,48.477699],[5.61693,48.47649],[5.61832,48.47599],[5.61802,48.475342],[5.61764,48.474979],[5.61819,48.47438],[5.62939,48.469501],[5.63583,48.4669],[5.63645,48.46616],[5.6372,48.464272],[5.63967,48.463009],[5.64147,48.46088],[5.64399,48.457378],[5.64529,48.45636],[5.64675,48.455769],[5.64899,48.45536],[5.64971,48.45488],[5.65231,48.4548],[5.65388,48.454529],[5.65486,48.453941],[5.65639,48.452629],[5.65841,48.451351],[5.65937,48.451061],[5.66034,48.450249],[5.66096,48.448002],[5.66124,48.447521],[5.66126,48.446812],[5.66216,48.445782],[5.66358,48.44511],[5.66529,48.444832],[5.66703,48.44471],[5.66772,48.444611],[5.66858,48.444599],[5.67008,48.443932],[5.67321,48.443401],[5.67321,48.443401],[5.67429,48.443083],[5.67487,48.442962],[5.675374,48.442948],[5.675374,48.442948]]],"type":"MultiLineString"},"properties":{"geo_point":{"lon":5.366702595862101,"lat":48.584082068325216},"name":"GR714 De Bar-le-Duc (Meuse) à Domrémy-la-Pucelle (Vosges) (2017)","code_gr":"GR714"}}]}