{"type":"FeatureCollection","features":[{"type":"Feature","geometry":{"coordinates":[[[3.51863,43.846509],[3.518979,43.846421],[3.519258,43.84627],[3.519497,43.845974],[3.519876,43.845617],[3.520141,43.845542],[3.521181,43.844696],[3.521705,43.844286],[3.521969,43.844203],[3.522418,43.844199],[3.522832,43.844273],[3.523343,43.844282],[3.523332,43.844161],[3.523182,43.843933],[3.523182,43.843846],[3.523654,43.843747],[3.523987,43.843647],[3.524183,43.843461],[3.524211,43.843224],[3.524154,43.843086],[3.524632,43.843194],[3.524873,43.843074],[3.525088,43.84283],[3.525742,43.842722],[3.526107,43.84259],[3.526525,43.842567],[3.526842,43.842498],[3.52718,43.842351],[3.528237,43.841952],[3.52858,43.841902],[3.528972,43.841697],[3.52917,43.841639],[3.52939,43.841658],[3.529621,43.84165],[3.529755,43.841554],[3.529953,43.841058],[3.530146,43.841],[3.530442,43.841132],[3.530661,43.841174],[3.530946,43.841105],[3.531225,43.841093],[3.531514,43.841321],[3.531477,43.841453],[3.531525,43.841604],[3.531697,43.841755],[3.53218,43.841968],[3.532807,43.841882],[3.533108,43.842149],[3.533649,43.842308],[3.534025,43.842312],[3.534551,43.842045],[3.534792,43.842316],[3.534942,43.842393],[3.535216,43.842343],[3.53535,43.842362],[3.535382,43.842467],[3.53528,43.84295],[3.535345,43.843132],[3.535548,43.843287],[3.535945,43.843376],[3.536181,43.843507],[3.536686,43.843585],[3.537185,43.843581],[3.538166,43.843399],[3.538558,43.843086],[3.538638,43.84273],[3.538864,43.84201],[3.538885,43.841581],[3.539057,43.84148],[3.539464,43.841488],[3.540704,43.842146],[3.541181,43.842045],[3.541385,43.841929],[3.541809,43.841925],[3.542431,43.841728],[3.542855,43.841507],[3.543005,43.841348],[3.54322,43.841321],[3.543584,43.841379],[3.543729,43.841352],[3.543912,43.841201],[3.544732,43.841047],[3.544984,43.841074],[3.545151,43.841306],[3.545381,43.841422],[3.545548,43.841546],[3.546095,43.841596],[3.547082,43.841766],[3.547431,43.842076],[3.547746,43.842332],[3.547981,43.842678],[3.548534,43.843083],[3.548876,43.843241],[3.549177,43.843535],[3.549469,43.843558],[3.549973,43.843482],[3.550104,43.843699],[3.5506,43.844186],[3.550746,43.844291],[3.551364,43.844467],[3.551762,43.844743],[3.552104,43.84486],[3.553193,43.845089],[3.554015,43.8453],[3.5546,43.845546],[3.55486,43.84571],[3.55512,43.845781],[3.555543,43.845751],[3.55582,43.845816],[3.556039,43.845851],[3.55634,43.84581],[3.557015,43.845446],[3.557543,43.845059],[3.557755,43.845012],[3.558064,43.845054],[3.558291,43.845059],[3.558641,43.845007],[3.559357,43.845036],[3.559975,43.844919],[3.560601,43.845012],[3.560853,43.845212],[3.561048,43.845294],[3.561454,43.845552],[3.561675,43.845567],[3.561847,43.845484],[3.561985,43.845202],[3.562388,43.844381],[3.562641,43.844232],[3.563147,43.844282],[3.563319,43.844249],[3.564032,43.844506],[3.564354,43.844754],[3.564802,43.844837],[3.565354,43.844846],[3.56578,43.844647],[3.566803,43.84463],[3.567562,43.844796],[3.56839,43.845078],[3.568517,43.845028],[3.568896,43.844987],[3.570115,43.844821],[3.569988,43.844978],[3.570517,43.844871],[3.570264,43.845186],[3.57092,43.844987],[3.572254,43.844721],[3.572702,43.844688],[3.573116,43.844605],[3.573353,43.8445],[3.573797,43.844375],[3.574044,43.844251],[3.574302,43.844189],[3.57466,43.844046],[3.575202,43.843949],[3.575695,43.843966],[3.576977,43.84386],[3.577223,43.843762],[3.577605,43.843718],[3.578098,43.843566],[3.578283,43.843371],[3.578148,43.842962],[3.577895,43.842525],[3.577756,43.841944],[3.577455,43.84143],[3.577391,43.840954],[3.577305,43.840883],[3.577,43.840431],[3.576808,43.839966],[3.576547,43.839595],[3.57605,43.839211],[3.575684,43.838872],[3.575179,43.83852],[3.574717,43.838287],[3.574394,43.83808],[3.57375,43.837728],[3.573342,43.837213],[3.573114,43.837089],[3.572903,43.836872],[3.572447,43.836503],[3.572187,43.836386],[3.571854,43.836163],[3.571407,43.835963],[3.571122,43.835787],[3.570724,43.835688],[3.569967,43.835653],[3.569276,43.83557],[3.568821,43.835477],[3.568374,43.835482],[3.566943,43.834978],[3.566309,43.834585],[3.565869,43.834333],[3.565406,43.834175],[3.565195,43.834051],[3.564926,43.833764],[3.564471,43.833518],[3.563983,43.833406],[3.563707,43.833283],[3.563365,43.833037],[3.563235,43.832732],[3.563121,43.832608],[3.563007,43.832409],[3.562528,43.83194],[3.562365,43.831729],[3.562056,43.8315],[3.561983,43.831183],[3.561552,43.830069],[3.561243,43.829394],[3.561292,43.828925],[3.561227,43.828714],[3.561134,43.828622],[3.561663,43.82834],[3.562767,43.828058],[3.563365,43.827958],[3.563722,43.827842],[3.56463,43.828025],[3.564871,43.828016],[3.56517,43.828033],[3.565814,43.827967],[3.566171,43.827983],[3.566734,43.827801],[3.567148,43.827801],[3.567539,43.827643],[3.567873,43.827585],[3.568965,43.82766],[3.569092,43.827544],[3.569379,43.827444],[3.569643,43.827436],[3.570747,43.827112],[3.571092,43.826971],[3.571426,43.826971],[3.571656,43.826822],[3.572081,43.826614],[3.572162,43.826523],[3.572323,43.826449],[3.572518,43.826001],[3.572725,43.825951],[3.57322,43.825436],[3.574358,43.82381],[3.574416,43.823279],[3.574312,43.82313],[3.573967,43.822508],[3.573852,43.822168],[3.573293,43.822144],[3.57296,43.822085],[3.572651,43.821979],[3.572618,43.821886],[3.572447,43.821809],[3.572415,43.82144],[3.572106,43.821064],[3.571968,43.820806],[3.57148,43.820519],[3.571325,43.820525],[3.571114,43.820483],[3.570854,43.820331],[3.570846,43.820155],[3.571285,43.819733],[3.571277,43.819662],[3.571447,43.819474],[3.571472,43.819175],[3.57126,43.81897],[3.571366,43.81877],[3.571415,43.818589],[3.571504,43.818424],[3.571561,43.818084],[3.571659,43.818031],[3.571707,43.817908],[3.571797,43.817826],[3.571789,43.817662],[3.571992,43.817028],[3.571976,43.816711],[3.572008,43.816582],[3.571911,43.816488],[3.571642,43.81586],[3.571854,43.815708],[3.571772,43.815473],[3.571894,43.81528],[3.571846,43.814382],[3.571683,43.814282],[3.571545,43.814147],[3.570683,43.813654],[3.570439,43.813244],[3.570016,43.812874],[3.569585,43.812651],[3.568951,43.81227],[3.56887,43.812053],[3.56861,43.811806],[3.568203,43.811214],[3.567943,43.811061],[3.567894,43.810826],[3.567764,43.810697],[3.56765,43.810263],[3.567276,43.81004],[3.566967,43.809911],[3.56687,43.8097],[3.566398,43.809254],[3.565341,43.809348],[3.564739,43.809219],[3.564544,43.809066],[3.563959,43.808925],[3.56365,43.808761],[3.563406,43.808726],[3.563194,43.808644],[3.562934,43.808315],[3.562788,43.807928],[3.562853,43.807799],[3.562544,43.807435],[3.56269,43.807153],[3.562658,43.807001],[3.562837,43.80693],[3.562869,43.806426],[3.562658,43.806085],[3.562365,43.805968],[3.562072,43.805944],[3.56191,43.806062],[3.561438,43.806203],[3.561487,43.80605],[3.561763,43.805897],[3.561649,43.80544],[3.561536,43.805311],[3.561097,43.803832],[3.560739,43.803433],[3.560641,43.80328],[3.560723,43.803057],[3.560332,43.802776],[3.56004,43.80233],[3.559487,43.801989],[3.558852,43.801778],[3.558283,43.801414],[3.558039,43.800815],[3.557958,43.800675],[3.557714,43.800639],[3.557421,43.800898],[3.557096,43.800992],[3.556917,43.800874],[3.556641,43.801038],[3.556413,43.801038],[3.556137,43.800769],[3.555551,43.800405],[3.554836,43.800041],[3.554364,43.799877],[3.553714,43.799548],[3.552795,43.799021],[3.552409,43.798587],[3.55183,43.798293],[3.551186,43.797441],[3.550242,43.79724],[3.55007,43.795923],[3.549727,43.795892],[3.549169,43.795613],[3.548418,43.795381],[3.548053,43.794839],[3.547195,43.794452],[3.546637,43.793693],[3.545929,43.793244],[3.544169,43.792423],[3.543247,43.791757],[3.543147,43.791439],[3.543208,43.790682],[3.543171,43.790122],[3.543233,43.789152],[3.542814,43.788271],[3.542851,43.78788],[3.54274,43.787542],[3.542863,43.787302],[3.542432,43.786972],[3.541434,43.786706],[3.541237,43.786421],[3.540928,43.786198],[3.540953,43.785033],[3.540756,43.784837],[3.540682,43.784641],[3.540041,43.784232],[3.540004,43.783965],[3.539573,43.783769],[3.539154,43.7832],[3.538414,43.782897],[3.538624,43.782835],[3.538599,43.782782],[3.538895,43.782711],[3.538562,43.782613],[3.538969,43.782515],[3.538809,43.782381],[3.538883,43.78231],[3.538846,43.781589],[3.538932,43.781198],[3.538735,43.780842],[3.538673,43.780477],[3.538722,43.78021],[3.538648,43.779979],[3.538648,43.779819],[3.538476,43.779596],[3.538328,43.77957],[3.538217,43.779401],[3.538094,43.779365],[3.537958,43.779071],[3.538069,43.778965],[3.53818,43.778742],[3.538427,43.778618],[3.538242,43.778466],[3.538131,43.778128],[3.537786,43.777852],[3.537823,43.777674],[3.537736,43.777514],[3.537798,43.777212],[3.537712,43.776891],[3.537736,43.77682],[3.53749,43.77666],[3.537157,43.776375],[3.537034,43.776188],[3.536603,43.775921],[3.536566,43.775734],[3.536208,43.775565],[3.536171,43.775414],[3.535863,43.775298],[3.535555,43.775049],[3.535567,43.774845],[3.535407,43.774382],[3.535395,43.77399],[3.53505,43.773697],[3.534791,43.773269],[3.533768,43.7727],[3.533201,43.772477],[3.532807,43.772495],[3.532474,43.772531],[3.532153,43.772547],[3.532153,43.772547],[3.531853,43.772338],[3.531874,43.771764],[3.531531,43.771563],[3.531359,43.770912],[3.531552,43.770354],[3.531144,43.770246],[3.530587,43.769595],[3.531123,43.769549],[3.53123,43.769099],[3.531638,43.768588],[3.531745,43.768138],[3.532131,43.768138],[3.532131,43.767751],[3.531981,43.76724],[3.53344,43.765706],[3.533955,43.764745],[3.534299,43.764652],[3.534427,43.764512],[3.534685,43.76445],[3.535007,43.764156],[3.535157,43.763412],[3.535329,43.763056],[3.535801,43.762622],[3.535243,43.762823],[3.534256,43.76256],[3.534256,43.761583],[3.534621,43.76101],[3.535672,43.76008],[3.536123,43.759925],[3.536895,43.759042],[3.536895,43.759042],[3.536939,43.758848],[3.537175,43.758662],[3.537164,43.758352],[3.53739,43.758088],[3.536714,43.757864],[3.537637,43.757732],[3.537443,43.757538],[3.537819,43.757523],[3.537454,43.757383],[3.537336,43.757127],[3.537647,43.757275],[3.537658,43.757151],[3.53783,43.757089],[3.537958,43.757228],[3.538431,43.757104],[3.538591,43.756554],[3.538913,43.756383],[3.539128,43.756012],[3.539364,43.755919],[3.53946,43.755787],[3.54049,43.755275],[3.540405,43.755089],[3.540941,43.754849],[3.541542,43.754849],[3.541542,43.754849],[3.540914,43.755099],[3.540871,43.755331],[3.540528,43.755734],[3.540399,43.75606],[3.540442,43.75623],[3.5413,43.756013],[3.541622,43.755843],[3.541815,43.755874],[3.542094,43.755703],[3.542352,43.75575],[3.543167,43.755533],[3.543339,43.7553],[3.543103,43.755192],[3.543232,43.754649],[3.543103,43.75437],[3.543253,43.753967],[3.543232,43.753688],[3.543468,43.753409],[3.543854,43.753037],[3.544069,43.752634],[3.544755,43.75189],[3.544197,43.751177],[3.544326,43.750805],[3.544841,43.750325],[3.545506,43.750232],[3.546686,43.749627],[3.546128,43.749147],[3.545399,43.748728],[3.545828,43.747287],[3.545528,43.747008],[3.54439,43.747473],[3.543081,43.747519],[3.542566,43.747643],[3.54218,43.747519],[3.541429,43.747659],[3.541215,43.747302],[3.541236,43.747054],[3.541193,43.746868],[3.541258,43.746574],[3.541107,43.746341],[3.541494,43.745644],[3.541386,43.74552],[3.541536,43.74521],[3.541515,43.744853],[3.541773,43.744466],[3.541665,43.744233],[3.54197,43.743844],[3.541884,43.743488],[3.542335,43.743209],[3.542528,43.742837],[3.543475,43.742346],[3.543798,43.742283],[3.544416,43.741906],[3.543989,43.741981],[3.542935,43.741844],[3.543528,43.741522],[3.543153,43.741433],[3.543423,43.741282],[3.543162,43.741251],[3.543162,43.741182],[3.54363,43.741089],[3.543866,43.740872],[3.544403,43.740764],[3.544639,43.740283],[3.545776,43.740159],[3.546377,43.739818],[3.547278,43.739074],[3.547535,43.739028],[3.548158,43.7385],[3.548721,43.73826],[3.549114,43.737945],[3.548782,43.737851],[3.549183,43.737649],[3.548694,43.737756],[3.548007,43.737973],[3.547471,43.737725],[3.548093,43.737756],[3.548408,43.737385],[3.548599,43.737278],[3.548364,43.737278],[3.548758,43.737183],[3.54904,43.736523],[3.54897,43.736236],[3.548758,43.736082],[3.548713,43.735914],[3.548863,43.735635],[3.548394,43.735958],[3.548501,43.735679],[3.548294,43.735298],[3.548042,43.735175],[3.54809,43.73543],[3.548005,43.735678],[3.548005,43.736515],[3.547661,43.736732],[3.54691,43.736763],[3.546331,43.736856],[3.546546,43.736623],[3.546224,43.736391],[3.545151,43.73636],[3.544035,43.736499],[3.544659,43.736203],[3.543611,43.736142],[3.542564,43.736398],[3.542224,43.736428],[3.541332,43.736132],[3.542578,43.735999],[3.54136,43.735589],[3.541233,43.735385],[3.540412,43.735242],[3.539931,43.735017],[3.539732,43.735671],[3.539138,43.736132],[3.538557,43.736408],[3.537449,43.736266],[3.537251,43.73618],[3.536102,43.736066],[3.535904,43.736094],[3.535705,43.735989],[3.534781,43.735989],[3.534464,43.736075],[3.534186,43.736018],[3.533262,43.736151],[3.532588,43.7364],[3.53169,43.736476],[3.531214,43.736629],[3.531056,43.736781],[3.530752,43.736953],[3.530673,43.737106],[3.530501,43.737297],[3.530409,43.737554],[3.530039,43.737822],[3.530105,43.738051],[3.530475,43.73848],[3.530448,43.739158],[3.530277,43.739377],[3.529933,43.739454],[3.529246,43.739463],[3.528414,43.739578],[3.528124,43.739539],[3.527873,43.739711],[3.52712,43.739663],[3.526631,43.739568],[3.526525,43.739482],[3.526142,43.739511],[3.52572,43.739139],[3.525508,43.739415],[3.52527,43.739425],[3.524993,43.739301],[3.524663,43.739349],[3.524214,43.73931],[3.524042,43.739234],[3.523342,43.739215],[3.522883,43.739463],[3.522491,43.739746],[3.522203,43.739815],[3.521201,43.739897],[3.520774,43.739992],[3.520547,43.740136],[3.520251,43.740225],[3.520251,43.740445],[3.51992,43.740703],[3.519266,43.741005],[3.518813,43.741005],[3.518438,43.740772],[3.518099,43.740747],[3.517497,43.741276],[3.516922,43.741433],[3.516652,43.741616],[3.516277,43.741799],[3.515571,43.741943],[3.515258,43.741849],[3.515034,43.741858],[3.514809,43.741925],[3.514664,43.742078],[3.514386,43.742135],[3.5137,43.742078],[3.51333,43.742116],[3.512762,43.742431],[3.51255,43.742479],[3.512352,43.742727],[3.51222,43.742813],[3.512096,43.742831],[3.511554,43.743094],[3.51135,43.743143],[3.511141,43.743268],[3.511005,43.743285],[3.510506,43.743129],[3.51026,43.743152],[3.510167,43.743067],[3.510461,43.742952],[3.510778,43.74277],[3.511507,43.742594],[3.51161,43.74248],[3.511843,43.742109],[3.512011,43.74198],[3.511899,43.741764],[3.511805,43.74133],[3.511495,43.741106],[3.511455,43.740817],[3.511535,43.740643],[3.511515,43.740542],[3.511104,43.740361],[3.510974,43.740195],[3.510974,43.740065],[3.511304,43.739913],[3.511174,43.739739],[3.511054,43.739385],[3.510764,43.739095],[3.510504,43.739001],[3.510173,43.739095],[3.509803,43.739406],[3.509633,43.739681],[3.509292,43.739754],[3.509062,43.739833],[3.508752,43.740115],[3.508231,43.740289],[3.507651,43.740499],[3.50733,43.740549],[3.50712,43.740542],[3.506856,43.740663],[3.50656,43.740756],[3.505999,43.740981],[3.505354,43.740959],[3.504481,43.740871],[3.503798,43.741118],[3.502797,43.741195],[3.502372,43.741304],[3.502069,43.74131],[3.501884,43.741282],[3.501757,43.74122],[3.501601,43.741026],[3.501304,43.740878],[3.501035,43.740816],[3.500858,43.740576],[3.500872,43.740474],[3.501169,43.740279],[3.50129,43.740029],[3.501474,43.73988],[3.501474,43.739783],[3.50119,43.739701],[3.500936,43.739706],[3.500688,43.739875],[3.500313,43.739942],[3.500228,43.739896],[3.500164,43.739543],[3.500051,43.739466],[3.499463,43.739328],[3.4994,43.7392],[3.499506,43.73895],[3.498897,43.738566],[3.498646,43.738559],[3.498235,43.738667],[3.49802,43.738647],[3.497768,43.738431],[3.497226,43.738242],[3.496965,43.737986],[3.495919,43.737378],[3.494835,43.736366],[3.494256,43.736258],[3.49377,43.735961],[3.493471,43.73588],[3.49321,43.735556],[3.492612,43.735124],[3.492208,43.734885],[3.491981,43.734892],[3.490944,43.734577],[3.490805,43.734476],[3.490291,43.734388],[3.489951,43.734356],[3.489898,43.734476],[3.49023,43.734633],[3.490639,43.734772],[3.491275,43.735175],[3.491737,43.73554],[3.492408,43.736],[3.492905,43.73644],[3.493567,43.736787],[3.493925,43.737429],[3.493855,43.737492],[3.493062,43.736969],[3.490979,43.736497],[3.490552,43.736321],[3.489489,43.736359],[3.490064,43.736636],[3.490857,43.737114],[3.48989,43.736982],[3.489262,43.737026],[3.488888,43.737215],[3.488129,43.73787],[3.48799,43.737857],[3.487537,43.737725],[3.487267,43.73753],[3.486665,43.737246],[3.486134,43.737234],[3.485846,43.737309],[3.486465,43.737649],[3.486709,43.737895],[3.486752,43.738084],[3.486186,43.737832],[3.485541,43.737775],[3.484983,43.737649],[3.484522,43.737605],[3.483258,43.737196],[3.482875,43.736938],[3.482692,43.736699],[3.481916,43.736447],[3.48121,43.736233],[3.481027,43.736277],[3.481306,43.736579],[3.48162,43.736988],[3.481846,43.737448],[3.482604,43.738323],[3.48331,43.738915],[3.484103,43.739545],[3.484949,43.740571],[3.484896,43.740596],[3.483842,43.740086],[3.483241,43.739948],[3.482648,43.739903],[3.482325,43.739992],[3.482073,43.740168],[3.482151,43.740288],[3.482482,43.740332],[3.482761,43.740319],[3.483415,43.740804],[3.48345,43.740923],[3.483537,43.741037],[3.483711,43.741131],[3.483746,43.741245],[3.483851,43.741314],[3.483903,43.741427],[3.484077,43.741522],[3.484356,43.74183],[3.484522,43.741943],[3.484522,43.742132],[3.4844,43.742353],[3.484748,43.742497],[3.485123,43.742573],[3.485315,43.742768],[3.485498,43.743051],[3.485698,43.74324],[3.485742,43.743341],[3.485977,43.743442],[3.485701,43.743897],[3.485757,43.744369],[3.485327,43.744639],[3.485271,43.744841],[3.48557,43.745327],[3.48565,43.745603],[3.485292,43.74542],[3.485202,43.745667],[3.485276,43.745879],[3.485438,43.746166],[3.485471,43.746595],[3.48508,43.746384],[3.485007,43.746707],[3.484617,43.746578],[3.484739,43.747224],[3.484666,43.747253],[3.484292,43.746971],[3.484056,43.747611],[3.484121,43.747899],[3.483934,43.748199],[3.483885,43.748357],[3.483495,43.748651],[3.482909,43.749274],[3.482129,43.749802],[3.481796,43.750166],[3.48169,43.750331],[3.480779,43.750995],[3.480308,43.751323],[3.480283,43.751441],[3.480308,43.75167],[3.480169,43.751881],[3.479917,43.752128],[3.479812,43.75241],[3.479844,43.752651],[3.47973,43.752804],[3.479494,43.753062],[3.479417,43.753189],[3.479285,43.753156],[3.478929,43.752928],[3.478797,43.752919],[3.478417,43.753011],[3.477819,43.752874],[3.476968,43.752774],[3.476468,43.752683],[3.476106,43.752674],[3.475381,43.752703],[3.474392,43.752612],[3.473553,43.752583],[3.473105,43.752641],[3.472771,43.752604],[3.472328,43.752608],[3.471345,43.752679],[3.470103,43.752915],[3.469632,43.752974],[3.469315,43.753191],[3.468802,43.753473],[3.46842,43.753602],[3.468225,43.753761],[3.467924,43.754078],[3.467534,43.754207],[3.467249,43.754248],[3.467135,43.754548],[3.467046,43.754583],[3.466843,43.754507],[3.466477,43.754548],[3.466078,43.754812],[3.465883,43.755041],[3.465688,43.755141],[3.465615,43.755963],[3.465778,43.756492],[3.466046,43.756838],[3.466046,43.75722],[3.465038,43.757649],[3.465005,43.757884],[3.464704,43.758054],[3.46455,43.758254],[3.464168,43.758395],[3.464054,43.758518],[3.46381,43.758641],[3.463509,43.758929],[3.463355,43.75897],[3.463037,43.758806],[3.46294,43.758618],[3.462607,43.758442],[3.462517,43.758224],[3.461802,43.757866],[3.461452,43.757913],[3.460964,43.758119],[3.460436,43.75853],[3.460281,43.758735],[3.459696,43.75924],[3.459606,43.759458],[3.459118,43.759499],[3.458948,43.759158],[3.458761,43.759111],[3.458492,43.759287],[3.458387,43.759452],[3.458086,43.759469],[3.457752,43.75944],[3.457395,43.759663],[3.457118,43.759687],[3.456516,43.760027],[3.455907,43.760708],[3.455728,43.760979],[3.455638,43.761272],[3.455362,43.76166],[3.45537,43.762083],[3.455451,43.762429],[3.455391,43.76262],[3.455575,43.763035],[3.455828,43.763268],[3.455851,43.763957],[3.455989,43.764214],[3.455977,43.764422],[3.456046,43.764704],[3.456012,43.765103],[3.456161,43.76541],[3.456173,43.766017],[3.455954,43.766374],[3.456012,43.766664],[3.455977,43.766814],[3.456264,43.767345],[3.456287,43.767652],[3.45623,43.767852],[3.456276,43.768026],[3.456092,43.768292],[3.455943,43.768441],[3.455874,43.768724],[3.456058,43.768873],[3.45615,43.769031],[3.456414,43.769139],[3.456448,43.769288],[3.456414,43.769454],[3.456529,43.769571],[3.456529,43.769687],[3.456732,43.769979],[3.456649,43.770155],[3.456626,43.770308],[3.456543,43.770434],[3.456262,43.770626],[3.456019,43.770631],[3.45589,43.770867],[3.455875,43.771163],[3.455913,43.77147],[3.455829,43.77176],[3.455632,43.771919],[3.45526,43.772121],[3.454828,43.772669],[3.454578,43.772784],[3.454525,43.772932],[3.454358,43.77314],[3.453971,43.773349],[3.453493,43.77354],[3.453273,43.773743],[3.453151,43.773765],[3.452954,43.773738],[3.452696,43.773918],[3.452446,43.773935],[3.451885,43.773907],[3.451346,43.774088],[3.451103,43.774115],[3.450876,43.774203],[3.450511,43.774384],[3.450147,43.774428],[3.44951,43.774636],[3.448949,43.774724],[3.4481,43.774561],[3.447525,43.774744],[3.446479,43.775018],[3.445973,43.775092],[3.445605,43.775101],[3.445019,43.775225],[3.444559,43.775184],[3.444018,43.775358],[3.443685,43.775424],[3.443363,43.775549],[3.442512,43.775599],[3.442212,43.775708]]],"type":"MultiLineString"},"properties":{"geo_point":{"lon":3.5264213579348,"lat":43.77879328380918},"name":"GR74 De Saint Maurice-Navacelles au Jouquet (Hérault) (2020)","code_gr":"GR74"}}]}