{"type":"FeatureCollection","features":[{"type":"Feature","geometry":{"coordinates":[[[2.789329,43.551745],[2.7898,43.551183],[2.790541,43.551183],[2.791273,43.551556],[2.792074,43.55141],[2.792301,43.551764],[2.79251,43.551341],[2.79224,43.551126],[2.792013,43.551139],[2.791718,43.550953],[2.79234,43.550922],[2.792555,43.550782],[2.792255,43.550689],[2.79234,43.550549],[2.793599,43.550292],[2.794044,43.550122],[2.793869,43.549958],[2.793904,43.549819],[2.793317,43.54981],[2.793233,43.549648],[2.792673,43.549483],[2.792973,43.549374],[2.793167,43.54953],[2.793216,43.549219],[2.793875,43.549281],[2.793896,43.54897],[2.794111,43.548597],[2.793853,43.548115],[2.793059,43.548068],[2.792029,43.547602],[2.792029,43.547337],[2.792244,43.547135],[2.792051,43.547073],[2.792179,43.546699],[2.792437,43.546513],[2.79233,43.546311],[2.793553,43.546031],[2.794261,43.546077],[2.795505,43.546015],[2.797351,43.545517],[2.798467,43.544584],[2.79851,43.544351],[2.798617,43.544102],[2.798316,43.544102],[2.798035,43.543875],[2.79763,43.543884],[2.797673,43.543729],[2.797544,43.543589],[2.797651,43.543402],[2.797437,43.543402],[2.797522,43.543107],[2.797029,43.543247],[2.797115,43.542811],[2.796986,43.542609],[2.797093,43.542282],[2.797565,43.542049],[2.79763,43.541769],[2.797909,43.541489],[2.798273,43.54124],[2.798231,43.540976],[2.798381,43.540914],[2.798488,43.540587],[2.79866,43.540322],[2.799454,43.540307],[2.799904,43.540089],[2.800527,43.539903],[2.801299,43.53998],[2.801664,43.53956],[2.802415,43.539374],[2.802586,43.539094],[2.803359,43.538985],[2.802415,43.53844],[2.802222,43.538036],[2.801127,43.537313],[2.802243,43.537562],[2.802865,43.537624],[2.803788,43.538044],[2.804625,43.538277],[2.804625,43.539413],[2.80499,43.538806],[2.805247,43.538759],[2.80544,43.538479],[2.806148,43.53851],[2.806492,43.537873],[2.806857,43.537608],[2.806899,43.537048],[2.806706,43.536535],[2.806148,43.536068],[2.806106,43.535835],[2.806642,43.535742],[2.807565,43.535928],[2.809882,43.53613],[2.809904,43.536317],[2.811084,43.536566],[2.813122,43.536582],[2.813229,43.536675],[2.813895,43.536457],[2.814324,43.536193],[2.816062,43.535835],[2.817628,43.535337],[2.818165,43.534699],[2.818444,43.533906],[2.818122,43.532988],[2.818615,43.533221],[2.818401,43.532475],[2.818079,43.53193],[2.817607,43.531604],[2.818401,43.531681],[2.818916,43.531744],[2.81853,43.531432],[2.818079,43.531106],[2.818959,43.531152],[2.818379,43.530732],[2.817886,43.530546],[2.818723,43.530359],[2.820289,43.530624],[2.819452,43.530001],[2.819238,43.529426],[2.819238,43.529426],[2.819551,43.529436],[2.819207,43.529155],[2.819594,43.52914],[2.819315,43.528953],[2.819744,43.528953],[2.819851,43.52872],[2.819293,43.528704],[2.819937,43.528362],[2.820731,43.528331],[2.820581,43.528113],[2.821246,43.527958],[2.821117,43.527429],[2.820645,43.527584],[2.820731,43.526931],[2.820388,43.527071],[2.820645,43.526511],[2.821975,43.526231],[2.822405,43.525982],[2.823756,43.525531],[2.8241,43.524908],[2.824615,43.525531],[2.825537,43.525904],[2.825752,43.525266],[2.825988,43.524908],[2.826267,43.524908],[2.826396,43.525375],[2.827662,43.524721],[2.828434,43.524473],[2.828713,43.524192],[2.830172,43.523804],[2.829743,43.52357],[2.829486,43.522605],[2.829593,43.521905],[2.830108,43.521936],[2.830301,43.521781],[2.831803,43.521936],[2.832812,43.522372],[2.83294,43.52231],[2.833713,43.522559],[2.833756,43.522668],[2.834356,43.522808],[2.834635,43.522605],[2.835065,43.52245],[2.835215,43.522248],[2.835708,43.522528],[2.836374,43.522465],[2.837446,43.521828],[2.838047,43.521345],[2.83927,43.520847],[2.839657,43.520863],[2.840214,43.520458],[2.841159,43.520816],[2.842403,43.520583],[2.843455,43.520629],[2.843197,43.520474],[2.843562,43.520303],[2.843133,43.519805],[2.843111,43.519167],[2.843219,43.518731],[2.843111,43.518404],[2.843369,43.517673],[2.843219,43.517128],[2.842661,43.516631],[2.841738,43.51607],[2.841266,43.515697],[2.841137,43.515277],[2.842317,43.515028],[2.842982,43.514592],[2.843497,43.513876],[2.842553,43.51218],[2.842403,43.511402],[2.843106,43.511161],[2.84272,43.511083],[2.842956,43.510912],[2.842934,43.510725],[2.843578,43.510367],[2.843685,43.510196],[2.844222,43.509776],[2.844629,43.509698],[2.844908,43.509449],[2.844694,43.509309],[2.845938,43.508453],[2.846646,43.508468],[2.847097,43.508593],[2.85008,43.507441],[2.85023,43.506445],[2.849629,43.505916],[2.850337,43.504687],[2.851796,43.504204],[2.852225,43.50341],[2.85244,43.502648],[2.853255,43.502181],[2.853792,43.501729],[2.857053,43.500967],[2.857204,43.500749],[2.85862,43.500702],[2.859371,43.500609],[2.860143,43.500671],[2.862268,43.499955],[2.862139,43.49913],[2.862718,43.499426],[2.863619,43.499177],[2.863362,43.499068],[2.863641,43.498601],[2.864478,43.498336],[2.86598,43.498274],[2.866581,43.49815],[2.867546,43.497418],[2.867997,43.497651],[2.869306,43.497558],[2.8701,43.496998],[2.870228,43.496235],[2.870743,43.495706],[2.870078,43.495021],[2.8701,43.494772],[2.870894,43.493807],[2.872331,43.493044],[2.872202,43.492639],[2.872138,43.492001],[2.872138,43.491534],[2.872138,43.491534],[2.871559,43.490927],[2.871602,43.489354],[2.872868,43.487689],[2.872717,43.486926],[2.872503,43.486583],[2.87261,43.485992],[2.871022,43.484559],[2.870443,43.484326],[2.869113,43.484373],[2.868362,43.484279],[2.866087,43.484451],[2.86525,43.484419],[2.864671,43.484279],[2.863276,43.484248],[2.861795,43.483734],[2.860637,43.483563],[2.859929,43.483034],[2.859092,43.482971],[2.858384,43.482613],[2.856109,43.482629],[2.855337,43.483174],[2.854006,43.483407],[2.851217,43.483034],[2.850144,43.482224],[2.849436,43.481928],[2.848685,43.481243],[2.848513,43.479842],[2.848277,43.479515],[2.848277,43.479172],[2.84802,43.478814],[2.848256,43.47788],[2.848041,43.477397],[2.847569,43.477102],[2.846496,43.477039],[2.845466,43.47732],[2.845423,43.476666],[2.84508,43.47623],[2.845852,43.476121],[2.846217,43.476463],[2.846861,43.476167],[2.847354,43.476043],[2.84847,43.475513],[2.849028,43.474937],[2.850423,43.474501],[2.850509,43.474221],[2.850852,43.474143],[2.850831,43.473551],[2.850273,43.471932],[2.850359,43.471698],[2.849779,43.471589],[2.849608,43.47106],[2.849736,43.468381],[2.850273,43.46793],[2.850273,43.466357],[2.848384,43.464535],[2.846968,43.462868],[2.847269,43.462775],[2.84817,43.463226],[2.848792,43.463663],[2.849264,43.463974],[2.84935,43.463834],[2.848942,43.463398],[2.84862,43.462868],[2.848213,43.462292],[2.847998,43.46184],[2.84817,43.461202],[2.847269,43.460002],[2.846818,43.459099],[2.846196,43.456404],[2.845788,43.455657],[2.845209,43.453632],[2.845252,43.451965],[2.844994,43.452012],[2.844071,43.452557],[2.84287,43.45304],[2.842677,43.453242],[2.841861,43.452962],[2.840853,43.453211],[2.840467,43.453523],[2.839286,43.45357],[2.838879,43.452993],[2.83787,43.453024],[2.837377,43.452962],[2.836905,43.452775],[2.837226,43.452619],[2.837484,43.451981],[2.837613,43.451482],[2.838299,43.450625],[2.838042,43.449582],[2.836583,43.448896],[2.83536,43.447806],[2.834501,43.44737],[2.833643,43.44631],[2.831755,43.446497],[2.830081,43.44631],[2.829545,43.446388],[2.828493,43.446793],[2.828236,43.44751],[2.827506,43.447261],[2.827034,43.447229],[2.826219,43.446902],[2.825511,43.446933],[2.824717,43.446638],[2.824416,43.446653],[2.823086,43.446326],[2.822635,43.445672],[2.821519,43.445298],[2.820726,43.445048],[2.820211,43.445142],[2.820017,43.445578],[2.819524,43.445859],[2.818537,43.445983],[2.818151,43.446248],[2.8174,43.446482],[2.817206,43.445921],[2.817421,43.44536],[2.817206,43.444379],[2.815104,43.443522],[2.814331,43.443459],[2.813859,43.443537],[2.813644,43.44307],[2.813323,43.443008],[2.812936,43.443381],[2.81122,43.442852],[2.810984,43.44254],[2.810469,43.442244],[2.810211,43.442213],[2.809675,43.441933],[2.810211,43.441169],[2.809439,43.440281],[2.80813,43.439081],[2.807636,43.438785],[2.807121,43.438006],[2.806413,43.437773],[2.804053,43.437835],[2.802723,43.437477],[2.801907,43.437477],[2.801457,43.437679],[2.801156,43.438006],[2.799225,43.438069],[2.798774,43.438411],[2.798131,43.438069],[2.797422,43.43796],[2.79635,43.437227],[2.796092,43.437196],[2.795513,43.436791],[2.795491,43.436292],[2.794569,43.435747],[2.794182,43.435077],[2.793517,43.434921],[2.792444,43.434781],[2.793002,43.434501],[2.793002,43.434158],[2.792595,43.43394],[2.792208,43.433457],[2.792251,43.432958],[2.792873,43.432631],[2.79238,43.43235],[2.79208,43.432023],[2.791479,43.432039],[2.790706,43.431774],[2.789998,43.431649],[2.789161,43.431369],[2.788453,43.430932],[2.78723,43.430589],[2.786007,43.43034],[2.784569,43.430293],[2.783153,43.430667],[2.781887,43.430621],[2.781394,43.430901],[2.781093,43.430901],[2.780385,43.43048],[2.779591,43.429514],[2.778626,43.429218],[2.778089,43.429374],[2.77751,43.429452],[2.776952,43.429686],[2.776973,43.429093],[2.777209,43.427784],[2.777145,43.42713],[2.776737,43.426772],[2.776566,43.425743],[2.776437,43.425494],[2.776287,43.425073],[2.775836,43.424605],[2.775557,43.4242],[2.7753,43.424107],[2.775128,43.423514],[2.774828,43.423172],[2.773881,43.422815],[2.773261,43.422742],[2.77286,43.42248],[2.772059,43.422204],[2.770818,43.42168],[2.770258,43.42123],[2.769957,43.420866],[2.769442,43.420522],[2.76912,43.419961],[2.769399,43.418543],[2.769764,43.4182],[2.769978,43.417779],[2.770407,43.417265],[2.770515,43.416891],[2.771244,43.416049],[2.772467,43.415316],[2.772703,43.414833],[2.77266,43.414444],[2.773197,43.413025],[2.773326,43.412791],[2.773111,43.412526],[2.772811,43.412433],[2.772896,43.412168],[2.773368,43.411965],[2.773755,43.411685],[2.774119,43.4117],[2.775064,43.411965],[2.775514,43.411872],[2.775943,43.411763],[2.776287,43.411809],[2.776158,43.411342],[2.77663,43.410516],[2.776287,43.409705],[2.776415,43.409409],[2.776201,43.409191],[2.775965,43.409113],[2.7753,43.409736],[2.775042,43.409752],[2.77457,43.409081],[2.774034,43.408754],[2.773025,43.408661],[2.772381,43.409081],[2.771523,43.410562],[2.770665,43.41011],[2.7703,43.409611],[2.769742,43.409409],[2.769141,43.409268],[2.767832,43.408427],[2.767815,43.409246],[2.766717,43.409705],[2.766481,43.410079],[2.766223,43.409705],[2.766137,43.408551],[2.76603,43.40746],[2.766309,43.407289],[2.766588,43.406244],[2.767232,43.405434],[2.768262,43.404405],[2.767553,43.404498],[2.766845,43.404654],[2.766094,43.404529],[2.765343,43.404093],[2.76485,43.404233],[2.764721,43.40375],[2.76427,43.403329],[2.764142,43.402737],[2.763884,43.402253],[2.764227,43.40202],[2.763519,43.401786],[2.76324,43.401708],[2.763369,43.401412],[2.763777,43.401256],[2.763219,43.400726],[2.762704,43.400648],[2.76176,43.400726],[2.761073,43.400601],[2.760644,43.400398],[2.759678,43.40018],[2.757833,43.399354],[2.756975,43.398636],[2.755365,43.398091],[2.754829,43.398028],[2.754572,43.397779],[2.754936,43.397093],[2.754614,43.39661],[2.75367,43.395877],[2.751975,43.396001],[2.751138,43.395736],[2.749937,43.394614],[2.748563,43.394333],[2.747963,43.393538],[2.747898,43.392712],[2.74586,43.391527],[2.745195,43.390856],[2.745195,43.390872],[2.744272,43.390575],[2.744272,43.390575],[2.742705,43.389312],[2.742405,43.388969],[2.741096,43.38872],[2.74086,43.388548],[2.740002,43.388283],[2.738221,43.388486],[2.736375,43.38819],[2.735689,43.387769],[2.73483,43.387893],[2.733972,43.387722],[2.7335,43.387316],[2.733071,43.387238],[2.732878,43.386505],[2.733264,43.386318],[2.733393,43.385913],[2.733672,43.385726],[2.733693,43.385055],[2.733307,43.384743],[2.73396,43.383657],[2.73402,43.383264],[2.734208,43.38309],[2.734079,43.38281],[2.734873,43.382825],[2.735324,43.382638],[2.735818,43.382825],[2.735732,43.382466],[2.735453,43.382139],[2.735367,43.381718],[2.734852,43.381468],[2.734058,43.380533],[2.733972,43.379425],[2.734766,43.378131],[2.735217,43.378193],[2.735195,43.377554],[2.73468,43.377679],[2.734766,43.377008],[2.734337,43.376852],[2.734015,43.37693],[2.733908,43.377164],[2.73354,43.377589],[2.733436,43.377055],[2.733092,43.376322],[2.733897,43.376033],[2.733618,43.375924],[2.734004,43.375768],[2.73482,43.375612],[2.734712,43.375362],[2.735378,43.375175],[2.735592,43.375222],[2.735549,43.375004],[2.736021,43.375316],[2.7363,43.375706],[2.736236,43.374988],[2.73585,43.374629],[2.735764,43.374473],[2.735399,43.374317],[2.735978,43.374193],[2.736322,43.374177],[2.736665,43.374286],[2.737051,43.374177],[2.737116,43.373959],[2.737352,43.373756],[2.737695,43.373865],[2.73836,43.373709],[2.739004,43.373631],[2.739347,43.372976],[2.739176,43.372196],[2.739798,43.371385],[2.740163,43.370574],[2.741278,43.370278],[2.740656,43.369513],[2.740635,43.368702],[2.741042,43.368687],[2.741879,43.367641],[2.741901,43.367236],[2.742115,43.36694],[2.742223,43.365614],[2.742269,43.365117],[2.742729,43.364739],[2.742889,43.364127],[2.742609,43.363618],[2.74351,43.363545],[2.74371,43.363865],[2.744151,43.364215],[2.744271,43.365263],[2.744511,43.365365],[2.744491,43.365539],[2.744831,43.365525],[2.745012,43.365714],[2.745492,43.365394],[2.745912,43.365437],[2.746073,43.365059],[2.746293,43.363705],[2.745752,43.363036],[2.745732,43.362832],[2.746013,43.362512],[2.745712,43.362293],[2.745412,43.36193],[2.744791,43.361362],[2.744531,43.360852],[2.744491,43.359499],[2.744271,43.35912],[2.744891,43.357767],[2.745512,43.357184],[2.745452,43.356879],[2.746253,43.356165],[2.746653,43.355918],[2.747234,43.355787],[2.747454,43.355336],[2.748035,43.355234],[2.747894,43.354768],[2.748335,43.354564],[2.748795,43.354011],[2.749436,43.354156],[2.748953,43.353579],[2.748715,43.353368],[2.748438,43.352907],[2.74824,43.35284],[2.748226,43.353387],[2.748292,43.353435],[2.7478,43.353777],[2.747702,43.353535],[2.747532,43.353444],[2.747515,43.35346],[2.747617,43.353651],[2.747526,43.35376],[2.747494,43.353671],[2.74736,43.353686],[2.747118,43.353573],[2.74685,43.353768],[2.746357,43.35371],[2.745898,43.354207],[2.745785,43.354155],[2.744712,43.353952],[2.744347,43.35364],[2.744283,43.353156],[2.744454,43.352423],[2.74527,43.351767],[2.745463,43.351159],[2.745377,43.350597],[2.745441,43.35027],[2.745394,43.349724],[2.745549,43.349146],[2.745637,43.348678],[2.745917,43.348284],[2.745898,43.347605],[2.746123,43.347143],[2.746643,43.346774],[2.747222,43.345042],[2.747372,43.344309],[2.747802,43.343435],[2.748016,43.342655],[2.748381,43.34214],[2.748767,43.342171],[2.749454,43.341812],[2.750999,43.341469],[2.751353,43.341573],[2.751647,43.3414],[2.751251,43.341169],[2.75071,43.340689],[2.749111,43.339651],[2.749098,43.339257],[2.749719,43.338057],[2.749904,43.337749],[2.750155,43.337106],[2.750577,43.336714],[2.750858,43.336044],[2.750838,43.33552],[2.75318,43.332243],[2.75312,43.331937],[2.754862,43.331195],[2.754661,43.331078],[2.750257,43.329782],[2.749116,43.329607],[2.749396,43.32901],[2.749296,43.328559],[2.749416,43.328442],[2.749236,43.327933],[2.750938,43.327539],[2.751678,43.327568],[2.751578,43.327437],[2.752099,43.327204],[2.752259,43.326869],[2.751859,43.326578],[2.750797,43.326913],[2.750297,43.326316],[2.750377,43.325996],[2.749776,43.325937],[2.749376,43.325544],[2.748916,43.325529],[2.749016,43.32534],[2.749396,43.32518],[2.748896,43.325078],[2.747474,43.324291],[2.747915,43.324029],[2.748015,43.323651],[2.747915,43.323287],[2.746633,43.322544],[2.744231,43.322209],[2.74385,43.322034],[2.74315,43.322354],[2.742349,43.322573],[2.741988,43.323068],[2.741007,43.323505],[2.740347,43.324102],[2.739786,43.324306],[2.739466,43.324335],[2.738985,43.32451],[2.738665,43.324554],[2.738545,43.324699],[2.738224,43.324626],[2.738184,43.324668],[2.737896,43.324604],[2.737757,43.324471],[2.737286,43.324687],[2.737077,43.324649],[2.73699,43.32456],[2.736885,43.324192],[2.736676,43.324103],[2.736432,43.324154],[2.73631,43.323926],[2.735595,43.323888],[2.735195,43.323431],[2.73502,43.322417],[2.735003,43.321935],[2.73455,43.321377],[2.734654,43.320578],[2.734515,43.320147],[2.734515,43.319704],[2.734619,43.319374],[2.734567,43.31874],[2.734619,43.318436],[2.734532,43.318042],[2.73455,43.317878],[2.733975,43.317205],[2.733818,43.31685],[2.733748,43.31647],[2.733295,43.315925],[2.733016,43.314974],[2.732667,43.31434],[2.732301,43.313135],[2.73204,43.311727],[2.731901,43.311347],[2.731901,43.310827],[2.731761,43.310256],[2.731465,43.308519],[2.731273,43.30777],[2.730855,43.307149],[2.730436,43.305906],[2.730192,43.305576],[2.729826,43.304676],[2.729269,43.304054],[2.728746,43.303179],[2.728728,43.302101],[2.72885,43.301682],[2.728537,43.301441],[2.728328,43.301061],[2.727683,43.300439],[2.726306,43.300617],[2.725103,43.300972],[2.723866,43.30153],[2.723674,43.301035],[2.723901,43.300883],[2.723604,43.300262],[2.723639,43.299906],[2.723447,43.299399],[2.723622,43.299247],[2.723691,43.298181],[2.723935,43.297801],[2.723848,43.29756],[2.723953,43.297078],[2.724162,43.296837],[2.724406,43.296824],[2.724458,43.296634],[2.724911,43.296317],[2.725138,43.295974],[2.725208,43.295517],[2.725086,43.295226],[2.725225,43.294604],[2.725173,43.293805],[2.725225,43.293437],[2.725051,43.293006],[2.725173,43.292067],[2.725609,43.291902],[2.725661,43.291052],[2.726184,43.290316],[2.726323,43.289961],[2.72662,43.289936],[2.726515,43.289162],[2.726794,43.28821],[2.727317,43.287677],[2.72831,43.286789],[2.728415,43.285406],[2.728502,43.285368],[2.729147,43.284404],[2.730262,43.284138],[2.730855,43.284328],[2.731744,43.284226],[2.730646,43.281029],[2.73075,43.280572],[2.731046,43.280268],[2.731308,43.279773],[2.732894,43.278111],[2.73319,43.277629],[2.733347,43.276931],[2.733312,43.275941],[2.733469,43.275598],[2.734219,43.274697],[2.733521,43.274037],[2.732702,43.272857],[2.731691,43.271956],[2.730698,43.271296],[2.729896,43.270827],[2.73014,43.270015],[2.730698,43.270027],[2.730733,43.269824],[2.730262,43.269799],[2.727247,43.269634],[2.724092,43.26971],[2.723413,43.26957],[2.72024,43.268758],[2.72031,43.268593],[2.719944,43.268606],[2.719055,43.268441],[2.718742,43.268454],[2.715569,43.267768],[2.711421,43.266842],[2.709731,43.266639],[2.70736,43.266677],[2.705495,43.266791],[2.703543,43.266423],[2.703665,43.265535],[2.703073,43.265382],[2.702672,43.265116],[2.701679,43.265078],[2.701522,43.265928],[2.698001,43.264634],[2.696188,43.264088],[2.69591,43.263796],[2.693347,43.262933],[2.687404,43.261917],[2.687056,43.261943],[2.685801,43.261714],[2.685539,43.261575],[2.683326,43.261156],[2.682001,43.260775],[2.679613,43.259595],[2.678498,43.259379],[2.676964,43.259227],[2.676372,43.258859],[2.674176,43.256967],[2.672555,43.255838],[2.669731,43.254124],[2.669714,43.254289],[2.669487,43.254479],[2.668406,43.253895],[2.667413,43.253578],[2.666088,43.252474],[2.665078,43.251687],[2.665078,43.251255],[2.665304,43.251001],[2.665827,43.250836],[2.666681,43.250328],[2.668389,43.249808],[2.668581,43.249287],[2.668912,43.249325],[2.668912,43.248805],[2.668511,43.248208],[2.667762,43.247777],[2.667361,43.247535],[2.66635,43.247205],[2.665722,43.247167],[2.664102,43.247523],[2.662289,43.247865],[2.661034,43.24817],[2.660197,43.248246],[2.659794,43.248064],[2.659599,43.247813],[2.659702,43.24752],[2.659884,43.247383],[2.661278,43.245314],[2.661696,43.244006],[2.662986,43.243511],[2.665792,43.243041],[2.668406,43.242216],[2.66811,43.238864],[2.66825,43.238204],[2.669104,43.236007],[2.669173,43.235524],[2.669383,43.234801],[2.6694,43.233963],[2.670027,43.232197],[2.67062,43.231601],[2.671648,43.230902],[2.672171,43.230216],[2.672851,43.229582],[2.673321,43.229353],[2.673827,43.228781],[2.673844,43.2284],[2.673356,43.227639],[2.67252,43.227169],[2.671857,43.226991],[2.670132,43.22581],[2.669679,43.225086],[2.66872,43.224349],[2.66764,43.22379],[2.666681,43.2236],[2.666507,43.223397],[2.665914,43.22313],[2.664154,43.221911],[2.663561,43.221758],[2.663422,43.221542],[2.662202,43.221187],[2.661975,43.220933],[2.66133,43.220539],[2.660476,43.219929],[2.659779,43.21965],[2.659012,43.219117],[2.658611,43.219015],[2.658123,43.218634],[2.657897,43.218736],[2.657252,43.218329],[2.655073,43.218558],[2.65347,43.218837],[2.651082,43.219841],[2.651587,43.218812],[2.651988,43.217046],[2.652825,43.215713],[2.653749,43.214849],[2.654986,43.213985],[2.657356,43.207138],[2.657496,43.205779],[2.656677,43.204674],[2.656363,43.203949],[2.656311,43.202641],[2.656311,43.201904],[2.656415,43.201281],[2.65652,43.200265],[2.656346,43.199414],[2.656537,43.199096],[2.656485,43.198651],[2.656555,43.198308],[2.656502,43.19808],[2.65659,43.197597],[2.65638,43.197203],[2.656921,43.197381],[2.657496,43.197368],[2.657234,43.197076],[2.657008,43.196555],[2.656607,43.196187],[2.655997,43.19592],[2.654394,43.194395],[2.6534,43.193556],[2.652912,43.19334],[2.652424,43.192451],[2.651779,43.191574],[2.651849,43.19099],[2.652075,43.190316],[2.651988,43.189007],[2.651831,43.187482],[2.654812,43.186326],[2.656555,43.185779],[2.657409,43.185627],[2.6572,43.184991],[2.655004,43.182068],[2.654306,43.181789],[2.653383,43.181509],[2.652825,43.181026],[2.652232,43.18081],[2.652058,43.180226],[2.650821,43.178967],[2.648747,43.176718],[2.648067,43.176235],[2.647805,43.175701],[2.647335,43.17551],[2.645174,43.175104],[2.643413,43.175396],[2.642908,43.175142],[2.642455,43.173858],[2.642734,43.171608],[2.642507,43.171456],[2.642019,43.169549],[2.64167,43.169231],[2.641113,43.1681],[2.641165,43.167858],[2.641025,43.16693],[2.63998,43.166562],[2.639439,43.166994],[2.639195,43.16618],[2.63937,43.16585],[2.63937,43.165659],[2.639161,43.165557],[2.639091,43.165265],[2.63876,43.164896],[2.638185,43.164515],[2.637993,43.164019],[2.638132,43.163828],[2.637609,43.162862],[2.637226,43.162366],[2.637017,43.162277],[2.636651,43.161832],[2.635605,43.161578],[2.634908,43.160981],[2.633548,43.160663],[2.632747,43.160637],[2.631631,43.160154],[2.63062,43.160014],[2.629679,43.159519],[2.629644,43.159353],[2.630115,43.159048],[2.630673,43.158349],[2.630185,43.158527],[2.629296,43.158591],[2.628477,43.158133],[2.628477,43.157866],[2.62818,43.157701],[2.627727,43.156989],[2.625914,43.155399],[2.62562,43.154939],[2.625723,43.154562],[2.625965,43.154125],[2.62593,43.153941],[2.625229,43.153656],[2.625275,43.153429],[2.624711,43.153178],[2.624746,43.152884],[2.625769,43.152708],[2.626597,43.152162],[2.627839,43.151609],[2.627333,43.151055],[2.628598,43.150367],[2.628828,43.150116],[2.628897,43.149965],[2.628851,43.14983],[2.629322,43.149394],[2.629219,43.149209],[2.629207,43.148597],[2.629069,43.148228],[2.628234,43.147902],[2.628608,43.147748],[2.628565,43.147403],[2.628222,43.147247]]],"type":"MultiLineString"},"properties":{"geo_point":{"lon":2.7546294162515896,"lat":43.367855344390755},"name":"GR77 Du Saut de Vézoles (Hérault) au Signal de l'Alaric (Aude) (2019)","code_gr":"GR77"}}]}