{"type":"FeatureCollection","features":[{"type":"Feature","geometry":{"coordinates":[[[-0.048383,43.098092],[-0.049284,43.098264],[-0.050057,43.097841],[-0.050658,43.098154],[-0.050336,43.098248],[-0.050486,43.098656],[-0.051237,43.098797],[-0.052031,43.099079],[-0.053469,43.098985],[-0.053512,43.099235],[-0.053726,43.099267],[-0.053683,43.099533],[-0.052643,43.099756],[-0.052063,43.099701],[-0.052031,43.099886],[-0.052594,43.100042],[-0.053281,43.100042],[-0.056907,43.100794],[-0.058238,43.101186],[-0.05886,43.10164],[-0.059504,43.102847],[-0.061242,43.10468],[-0.061757,43.105338],[-0.062722,43.105917],[-0.067851,43.108142],[-0.068516,43.108032],[-0.070039,43.107531],[-0.071069,43.107609],[-0.071799,43.107531],[-0.074545,43.107656],[-0.075275,43.107876],[-0.075726,43.108361],[-0.076305,43.108455],[-0.077013,43.109144],[-0.076305,43.109708],[-0.076949,43.110633],[-0.076927,43.110915],[-0.077442,43.110977],[-0.07755,43.111698],[-0.078537,43.111995],[-0.079931,43.112168],[-0.08036,43.112497],[-0.081133,43.112779],[-0.081283,43.113076],[-0.080961,43.113938],[-0.081219,43.114141],[-0.08227,43.114361],[-0.082871,43.114564],[-0.083622,43.114658],[-0.084244,43.115144],[-0.084845,43.115191],[-0.085811,43.11552],[-0.086218,43.115927],[-0.087141,43.117713],[-0.086927,43.118057],[-0.086755,43.119342],[-0.087227,43.119999],[-0.088643,43.120657],[-0.089094,43.120845],[-0.089716,43.121221],[-0.091626,43.122317],[-0.092849,43.123476],[-0.09345,43.124275],[-0.096025,43.126515],[-0.096411,43.127689],[-0.097419,43.128676],[-0.106174,43.134689],[-0.10714,43.135221],[-0.107526,43.135676],[-0.107547,43.136145],[-0.10729,43.136208],[-0.106582,43.137069],[-0.105423,43.13757],[-0.105251,43.138024],[-0.105294,43.13851],[-0.10508,43.138995],[-0.105316,43.139089],[-0.106389,43.138901],[-0.106796,43.13829],[-0.107998,43.138494],[-0.109092,43.138416],[-0.109629,43.138071],[-0.109994,43.138009],[-0.111667,43.138792],[-0.111946,43.139199],[-0.111839,43.139668],[-0.111903,43.139997],[-0.110809,43.141015],[-0.110852,43.141312],[-0.112332,43.142941],[-0.113942,43.14424],[-0.115294,43.145195],[-0.120637,43.146291],[-0.122546,43.147058],[-0.123533,43.147669],[-0.125979,43.149876],[-0.127138,43.150377],[-0.128705,43.150565],[-0.129777,43.150534],[-0.130979,43.150393],[-0.133683,43.150878],[-0.134369,43.151238],[-0.134756,43.151786],[-0.134734,43.152083],[-0.136751,43.154792],[-0.136644,43.155715],[-0.137438,43.156388],[-0.138382,43.157453],[-0.140399,43.158783],[-0.141429,43.159174],[-0.14351,43.159628],[-0.145377,43.159894],[-0.148832,43.160865],[-0.148789,43.16254],[-0.149926,43.165576],[-0.150956,43.167407],[-0.151085,43.167986],[-0.152115,43.17013],[-0.152716,43.170678],[-0.15454,43.171945],[-0.156879,43.172837],[-0.158037,43.173463],[-0.158574,43.174074],[-0.159475,43.175858],[-0.162651,43.179676],[-0.164603,43.181725],[-0.165354,43.182977],[-0.166642,43.18437],[-0.168444,43.185934],[-0.170676,43.187827],[-0.171169,43.188797],[-0.171427,43.189955],[-0.172414,43.192051],[-0.174367,43.194199],[-0.17692,43.198485],[-0.177778,43.199392],[-0.179924,43.200393],[-0.180933,43.201566],[-0.181855,43.205836],[-0.182993,43.208902],[-0.1834,43.209856],[-0.185439,43.211654],[-0.188014,43.213343],[-0.189709,43.214735],[-0.190352,43.214923],[-0.191082,43.215282],[-0.192541,43.215689],[-0.194301,43.216017],[-0.196232,43.218207],[-0.199236,43.221303],[-0.19988,43.221709],[-0.201317,43.222178],[-0.202455,43.222882],[-0.203828,43.224023],[-0.20445,43.225212],[-0.204579,43.225649],[-0.205673,43.226634],[-0.207905,43.228073],[-0.208634,43.228964],[-0.209149,43.230418],[-0.210716,43.232247],[-0.212132,43.233514],[-0.214578,43.234623],[-0.215029,43.235327],[-0.217303,43.23664],[-0.218741,43.237219],[-0.220157,43.238016],[-0.220822,43.23875],[-0.22256,43.239344],[-0.223891,43.239391],[-0.225908,43.239876],[-0.227174,43.240235],[-0.22771,43.240736],[-0.228311,43.241017],[-0.228719,43.241517],[-0.229448,43.241939],[-0.229577,43.242533],[-0.23035,43.243456],[-0.232002,43.244659],[-0.23301,43.244769],[-0.233504,43.245347],[-0.233976,43.245519],[-0.234491,43.245941],[-0.235135,43.246175],[-0.235821,43.246925],[-0.236422,43.247035],[-0.237023,43.247254],[-0.237388,43.247895],[-0.238933,43.249317],[-0.241121,43.25077],[-0.24434,43.252536],[-0.244941,43.253146],[-0.247301,43.254311],[-0.248159,43.254937],[-0.249232,43.256187],[-0.24964,43.257234],[-0.250541,43.257843],[-0.252022,43.258375],[-0.253288,43.260484],[-0.254919,43.262641],[-0.255927,43.263031],[-0.257064,43.263172],[-0.258502,43.263],[-0.259511,43.263172],[-0.260283,43.26375],[-0.26112,43.265656],[-0.261957,43.266297],[-0.264725,43.267641],[-0.265047,43.267656],[-0.266806,43.26825],[-0.268458,43.268875],[-0.269403,43.269359],[-0.271055,43.270141],[-0.272192,43.271344],[-0.27245,43.27139],[-0.273329,43.271828],[-0.274509,43.272203],[-0.275454,43.27225],[-0.277192,43.272922],[-0.277385,43.273515],[-0.277149,43.27364],[-0.278093,43.274187],[-0.279702,43.274531],[-0.279895,43.27489],[-0.28408,43.276015],[-0.286032,43.276437],[-0.300237,43.280561],[-0.300559,43.280467],[-0.301439,43.280889],[-0.303027,43.281498],[-0.305494,43.282357],[-0.307361,43.282779],[-0.30734,43.283029],[-0.307683,43.283045],[-0.307941,43.282982],[-0.310151,43.283013],[-0.311545,43.283326],[-0.315107,43.283638],[-0.315579,43.283638],[-0.315944,43.283872],[-0.316695,43.28406],[-0.31824,43.284669],[-0.31942,43.284935],[-0.320064,43.284935],[-0.3203,43.28481],[-0.320665,43.284903],[-0.320794,43.284497],[-0.320365,43.284263],[-0.320686,43.283607],[-0.322897,43.284404],[-0.324334,43.2847],[-0.324742,43.285153],[-0.326737,43.28531],[-0.331415,43.286106],[-0.332896,43.286137],[-0.333325,43.286356],[-0.335878,43.28659],[-0.337273,43.286934],[-0.339698,43.28684],[-0.342187,43.286622],[-0.344783,43.286887],[-0.349762,43.286731],[-0.350555,43.286856],[-0.357744,43.291151],[-0.357873,43.291557],[-0.357679,43.29251],[-0.358323,43.293853],[-0.35901,43.294275],[-0.359761,43.294337],[-0.361821,43.293713],[-0.362615,43.293697],[-0.363409,43.293978],[-0.368151,43.293322],[-0.372056,43.293385],[-0.373022,43.293634],[-0.375017,43.294384],[-0.376315,43.294704],[-0.376519,43.295024],[-0.377077,43.295166],[-0.377367,43.294971],[-0.378268,43.295159],[-0.379255,43.295159],[-0.37874,43.294925],[-0.379899,43.29469],[-0.381529,43.294878],[-0.382495,43.295081],[-0.385435,43.295815],[-0.386572,43.295674],[-0.387838,43.295815],[-0.387366,43.295487],[-0.387301,43.295018],[-0.389104,43.2943],[-0.389147,43.293753],[-0.389555,43.293441],[-0.390542,43.293144],[-0.391357,43.293004],[-0.392194,43.292769],[-0.393996,43.292926],[-0.394855,43.293191],[-0.395627,43.293535],[-0.396056,43.293847],[-0.397944,43.294643],[-0.398202,43.295081],[-0.398953,43.295143],[-0.399747,43.295096],[-0.401249,43.294831],[-0.402064,43.2948],[-0.402451,43.294909],[-0.402837,43.294675],[-0.403481,43.294565],[-0.404553,43.294331],[-0.405605,43.293597],[-0.406206,43.293644],[-0.406463,43.293503],[-0.406807,43.293519],[-0.407643,43.293363],[-0.408888,43.293738],[-0.409703,43.294019],[-0.410197,43.294394],[-0.410562,43.294878],[-0.411331,43.295284],[-0.411374,43.295502],[-0.411288,43.295752],[-0.411417,43.296361],[-0.41146,43.296736],[-0.411739,43.297017],[-0.41249,43.297033],[-0.412855,43.297345],[-0.413756,43.296783],[-0.413971,43.296939],[-0.414636,43.29708],[-0.415494,43.29772],[-0.415902,43.29772],[-0.416417,43.29797],[-0.416996,43.297939],[-0.417704,43.298126],[-0.418047,43.298157],[-0.418477,43.29847],[-0.419142,43.298641],[-0.420837,43.299688],[-0.421502,43.299891],[-0.42279,43.299969],[-0.423326,43.300141],[-0.423626,43.300141],[-0.424978,43.300656],[-0.425365,43.300828],[-0.426759,43.301343],[-0.428347,43.301749],[-0.429077,43.301858],[-0.429999,43.302233],[-0.431459,43.302546],[-0.432446,43.302749],[-0.433604,43.303326],[-0.434849,43.303826],[-0.435192,43.303685],[-0.437123,43.304404],[-0.437789,43.304825],[-0.438207,43.304825],[-0.439183,43.305356],[-0.439827,43.30545],[-0.441973,43.306793],[-0.443282,43.307292],[-0.444827,43.307636],[-0.44635,43.308401],[-0.44738,43.308994],[-0.447723,43.309447],[-0.448539,43.309947],[-0.450363,43.312258],[-0.451221,43.313694],[-0.451393,43.314303],[-0.451607,43.314662],[-0.451672,43.315115],[-0.451972,43.315802],[-0.4518,43.31666],[-0.451908,43.317347],[-0.45238,43.318034],[-0.453045,43.318112],[-0.453431,43.318362],[-0.453474,43.318565],[-0.454247,43.319127],[-0.455247,43.320784],[-0.455698,43.321861],[-0.456728,43.323235],[-0.457543,43.324484],[-0.45911,43.325842],[-0.45999,43.326778],[-0.460912,43.327418],[-0.461492,43.327684],[-0.461814,43.327965],[-0.463037,43.328745],[-0.464195,43.329822],[-0.464646,43.33054],[-0.465547,43.331071]]],"type":"MultiLineString"},"properties":{"geo_point":{"lon":-0.24662295888469024,"lat":43.22709567258167},"name":"GR782 Randonnée de Lourdes (Hautes-Pyrénées) à Artiguelouve (Pyrénées-Atlantiques)","code_gr":"GR782"}}]}