{"type":"FeatureCollection","features":[{"type":"Feature","geometry":{"coordinates":[[[-1.289027,43.493103],[-1.28849,43.492994],[-1.287138,43.493492],[-1.287031,43.493881],[-1.286688,43.494255],[-1.286645,43.4948],[-1.287503,43.494893],[-1.2907,43.495749],[-1.292782,43.496527],[-1.294241,43.497181],[-1.295829,43.498177],[-1.296408,43.498068],[-1.296966,43.498691],[-1.298168,43.498987],[-1.298189,43.499329],[-1.298296,43.499532],[-1.29806,43.50003],[-1.299369,43.500683],[-1.303961,43.501041],[-1.307266,43.501119],[-1.308725,43.50101],[-1.310678,43.501041],[-1.310678,43.500434],[-1.314926,43.500185],[-1.315634,43.500341],[-1.3166,43.499843],[-1.317265,43.499174],[-1.317952,43.498831],[-1.31866,43.498535],[-1.319046,43.498349],[-1.321321,43.498084],[-1.323445,43.498022],[-1.32441,43.497866],[-1.324883,43.497166],[-1.324582,43.496901],[-1.323702,43.496792],[-1.323295,43.496636],[-1.323144,43.496356],[-1.323144,43.49606],[-1.322479,43.495516],[-1.321878,43.495313],[-1.321149,43.495235],[-1.320763,43.494986],[-1.320698,43.494379],[-1.320312,43.493881],[-1.320119,43.493399],[-1.319368,43.492667],[-1.31896,43.492449],[-1.318402,43.492356],[-1.318252,43.491764],[-1.317844,43.491017],[-1.317179,43.490939],[-1.316664,43.490752],[-1.316106,43.489663],[-1.315806,43.489211],[-1.316772,43.488215],[-1.318252,43.487281],[-1.318445,43.486954],[-1.318767,43.486923],[-1.319411,43.486409],[-1.319861,43.48644],[-1.319947,43.485957],[-1.32072,43.485895],[-1.320913,43.485506],[-1.321256,43.485288],[-1.321127,43.485163],[-1.320376,43.485195],[-1.320162,43.484899],[-1.321406,43.484852],[-1.321385,43.48412],[-1.321449,43.483669],[-1.321213,43.48342],[-1.320934,43.483311],[-1.320977,43.483093],[-1.321149,43.482844],[-1.321578,43.482828],[-1.3222,43.482548],[-1.322672,43.482875],[-1.324518,43.482735],[-1.324947,43.482766],[-1.325655,43.482672],[-1.326127,43.48275],[-1.326706,43.482127],[-1.327415,43.482408],[-1.327801,43.482299],[-1.327608,43.481629],[-1.328316,43.481411],[-1.329195,43.48138],[-1.330032,43.481598],[-1.329968,43.481271],[-1.330204,43.480944],[-1.329732,43.480648],[-1.330011,43.480026],[-1.33059,43.479356],[-1.332092,43.479154],[-1.332307,43.478577],[-1.332693,43.478328],[-1.333337,43.478266],[-1.333659,43.47783],[-1.333959,43.477674],[-1.33426,43.477207],[-1.334753,43.476725],[-1.335096,43.47593],[-1.335075,43.475292],[-1.335869,43.475167],[-1.336877,43.475346],[-1.339538,43.475314],[-1.340268,43.475392],[-1.340718,43.475174],[-1.340804,43.474801],[-1.340654,43.474256],[-1.341147,43.474038],[-1.342049,43.473493],[-1.343143,43.47329],[-1.343744,43.472901],[-1.344323,43.472714],[-1.34443,43.4722],[-1.345074,43.471764],[-1.34516,43.472044],[-1.345739,43.472044],[-1.346233,43.472558],[-1.347027,43.472325],[-1.346962,43.471842],[-1.347177,43.471686],[-1.347306,43.471842],[-1.34737,43.472153],[-1.348357,43.472683],[-1.348743,43.472589],[-1.348679,43.471873],[-1.349537,43.4722],[-1.350031,43.471702],[-1.35016,43.471032],[-1.34973,43.470767],[-1.350653,43.470503],[-1.351554,43.470939],[-1.352477,43.470113],[-1.352692,43.4703],[-1.352735,43.470736],[-1.353271,43.470456],[-1.353829,43.47044],[-1.353743,43.470908],[-1.353722,43.471499],[-1.353164,43.47178],[-1.353378,43.472792],[-1.354043,43.472854],[-1.356082,43.473633],[-1.357477,43.473711],[-1.358807,43.473461],[-1.360202,43.473757],[-1.36533,43.472885],[-1.36724,43.471577],[-1.372046,43.475003],[-1.37342,43.474987],[-1.375887,43.475065],[-1.376595,43.47533],[-1.379278,43.476887],[-1.38093,43.478039],[-1.381617,43.478802],[-1.382282,43.47916],[-1.384192,43.47941],[-1.387131,43.480141],[-1.385951,43.481527],[-1.385093,43.481854],[-1.384771,43.482508],[-1.384192,43.483053],[-1.383741,43.483971],[-1.383634,43.484641],[-1.382368,43.48612],[-1.383312,43.486976],[-1.383719,43.486929],[-1.38417,43.48668],[-1.384556,43.487007],[-1.384749,43.48763],[-1.385307,43.487334],[-1.386273,43.487412],[-1.386809,43.487085],[-1.386874,43.486494],[-1.387453,43.48626],[-1.388226,43.485606],[-1.388805,43.485809],[-1.389835,43.485653],[-1.3908,43.485201],[-1.392238,43.48531],[-1.393375,43.485559],[-1.393955,43.485918],[-1.393933,43.486509],[-1.393611,43.486929],[-1.394105,43.487755],[-1.394877,43.488066],[-1.395586,43.488486],[-1.397002,43.489093],[-1.398075,43.489903],[-1.39859,43.489405],[-1.402903,43.486929],[-1.404662,43.486182],[-1.407173,43.485466],[-1.412559,43.484112],[-1.413352,43.484034],[-1.41331,43.483551],[-1.415541,43.482975],[-1.415069,43.482181],[-1.415734,43.481262],[-1.416099,43.480873],[-1.416378,43.480406],[-1.417022,43.479659],[-1.417751,43.477743],[-1.41891,43.477946],[-1.419146,43.478117],[-1.420133,43.478133],[-1.420927,43.478351],[-1.422558,43.478413],[-1.42421,43.47807],[-1.425219,43.478148],[-1.425927,43.478148],[-1.426978,43.478911],[-1.427193,43.478724],[-1.427085,43.47846],[-1.427493,43.478148],[-1.42803,43.478662],[-1.428502,43.478771],[-1.429982,43.478818],[-1.430905,43.47916],[-1.431956,43.479363],[-1.432643,43.479301],[-1.433287,43.479425],[-1.433866,43.479425],[-1.433287,43.478615],[-1.432557,43.477432],[-1.43245,43.477027],[-1.432214,43.476669],[-1.431935,43.476358],[-1.431313,43.475314],[-1.430991,43.473897],[-1.430497,43.472948],[-1.429682,43.472418],[-1.428974,43.47178],[-1.428072,43.471266],[-1.427343,43.470129],[-1.426764,43.469864],[-1.423416,43.468494],[-1.421592,43.468214],[-1.419232,43.467482],[-1.416314,43.46717],[-1.414747,43.46636],[-1.413867,43.466158],[-1.412773,43.464928],[-1.412237,43.464647],[-1.411271,43.464663],[-1.409898,43.464055],[-1.408117,43.463137],[-1.40801,43.462685],[-1.408525,43.461377],[-1.409833,43.46038],[-1.41052,43.459227],[-1.411378,43.458698],[-1.412172,43.458495],[-1.412709,43.457888],[-1.414704,43.45753],[-1.415284,43.457093],[-1.415927,43.455614],[-1.416142,43.454103],[-1.416335,43.453744],[-1.417,43.453869],[-1.417494,43.454103],[-1.419811,43.454305],[-1.420412,43.454103],[-1.421893,43.454663],[-1.422966,43.454726],[-1.422794,43.454492],[-1.423137,43.454399],[-1.422515,43.454072],[-1.422923,43.45376],[-1.423008,43.452872],[-1.422665,43.452467],[-1.422837,43.450956],[-1.42318,43.450536],[-1.422257,43.449959],[-1.42024,43.449648],[-1.419747,43.448822],[-1.419854,43.448059],[-1.420112,43.446921],[-1.421571,43.445441],[-1.42303,43.443354],[-1.423416,43.443292],[-1.424017,43.442949],[-1.425304,43.442824],[-1.426528,43.442201],[-1.428223,43.44231],[-1.42951,43.441718],[-1.427622,43.441064],[-1.427643,43.440768],[-1.427107,43.43988],[-1.427429,43.439646],[-1.427407,43.439459],[-1.428266,43.439474],[-1.428931,43.439038],[-1.429768,43.438119],[-1.43054,43.43762],[-1.432364,43.43667],[-1.432428,43.435938],[-1.433673,43.435423],[-1.435304,43.435548],[-1.436548,43.435548],[-1.43657,43.435205],[-1.437299,43.43519],[-1.438758,43.435283],[-1.439595,43.43519],[-1.44026,43.43519],[-1.441376,43.434894],[-1.441419,43.434691],[-1.440883,43.434395],[-1.440432,43.433772],[-1.439166,43.433024],[-1.43775,43.432525],[-1.437342,43.432073],[-1.436741,43.430889],[-1.435754,43.429642],[-1.434982,43.429346],[-1.434381,43.428598],[-1.434317,43.42824],[-1.433372,43.428209],[-1.432579,43.427959],[-1.4323,43.42743],[-1.430604,43.425591],[-1.42936,43.424282],[-1.427171,43.422053],[-1.427193,43.421087],[-1.424038,43.420292],[-1.423073,43.420183],[-1.422601,43.420011],[-1.422257,43.418874],[-1.421506,43.41839],[-1.420755,43.41811],[-1.42024,43.418141],[-1.419425,43.417783],[-1.418545,43.417658],[-1.41773,43.417003],[-1.417301,43.416084],[-1.417344,43.414852],[-1.417022,43.413777],[-1.416185,43.412748],[-1.415327,43.412062],[-1.415069,43.411626],[-1.415477,43.410878],[-1.41567,43.410161],[-1.416464,43.409381],[-1.417344,43.40921],[-1.418202,43.408914],[-1.421657,43.409334],[-1.422322,43.408742],[-1.42303,43.408508],[-1.423438,43.408087],[-1.423953,43.4079],[-1.424747,43.40737],[-1.425047,43.406949],[-1.42597,43.406373],[-1.426291,43.405593],[-1.426914,43.405032],[-1.427042,43.404408],[-1.427429,43.403769],[-1.427772,43.403504],[-1.427879,43.402865],[-1.427794,43.402335],[-1.428351,43.401571],[-1.428351,43.401789],[-1.428587,43.401672],[-1.429296,43.40193],[-1.430004,43.401711],[-1.430476,43.401376],[-1.429188,43.400261],[-1.42877,43.400074],[-1.428523,43.400105],[-1.428072,43.399076],[-1.427429,43.398609],[-1.426313,43.397938],[-1.426356,43.396613],[-1.427364,43.395943],[-1.428587,43.394992],[-1.428459,43.394571],[-1.427665,43.394181],[-1.427836,43.393807],[-1.427836,43.393089],[-1.427515,43.392637],[-1.42833,43.391171],[-1.427343,43.39061],[-1.428823,43.38994],[-1.42936,43.389472],[-1.42921,43.388988],[-1.428695,43.388193],[-1.427643,43.388162],[-1.425734,43.387585],[-1.425776,43.387351],[-1.427128,43.386509],[-1.427279,43.386026],[-1.427193,43.385589],[-1.427493,43.384887],[-1.425841,43.384435],[-1.425197,43.383671],[-1.425025,43.383047],[-1.425755,43.382408],[-1.426206,43.382267],[-1.426957,43.382345],[-1.427386,43.382111],[-1.427386,43.381659],[-1.426849,43.380848],[-1.42642,43.380801],[-1.425476,43.381285],[-1.424854,43.381441],[-1.424704,43.381191],[-1.425412,43.380708],[-1.426206,43.379304],[-1.42627,43.378353],[-1.425519,43.377183],[-1.424682,43.376232],[-1.423867,43.375655],[-1.423588,43.374578],[-1.421828,43.374173],[-1.419876,43.374095],[-1.418953,43.373892],[-1.417794,43.373783],[-1.417215,43.373611],[-1.416228,43.373565],[-1.415691,43.373674],[-1.413352,43.373642],[-1.412494,43.373798],[-1.410885,43.373861],[-1.409812,43.373424],[-1.407623,43.372504],[-1.406336,43.372535],[-1.404855,43.372317],[-1.404297,43.372036],[-1.402366,43.371178],[-1.400585,43.370351],[-1.400993,43.369915],[-1.401443,43.369072],[-1.4011,43.368558],[-1.400478,43.368121],[-1.400671,43.367762],[-1.40007,43.366966],[-1.399405,43.365173],[-1.398439,43.364315],[-1.397967,43.363737],[-1.397753,43.363675],[-1.397517,43.362801],[-1.398075,43.362677],[-1.398654,43.362411],[-1.39962,43.362099],[-1.399899,43.361491],[-1.399169,43.360071],[-1.398911,43.359775],[-1.398783,43.358542],[-1.399019,43.357357],[-1.400993,43.357575],[-1.403847,43.357216],[-1.404748,43.35536],[-1.405649,43.354892],[-1.405263,43.354486],[-1.40552,43.354002],[-1.406014,43.353846],[-1.406744,43.354002],[-1.407516,43.354111],[-1.408525,43.35355],[-1.410112,43.353004],[-1.410563,43.352645],[-1.410306,43.352426],[-1.409426,43.352364],[-1.408052,43.351802],[-1.408246,43.351428],[-1.407838,43.350882],[-1.407924,43.350351],[-1.408653,43.350148],[-1.409748,43.349883],[-1.409276,43.349353],[-1.407945,43.34904],[-1.406829,43.348713],[-1.406379,43.348728],[-1.405928,43.348619],[-1.405671,43.348416],[-1.406271,43.347855],[-1.406357,43.347371],[-1.406336,43.346965],[-1.406786,43.346981],[-1.40816,43.346435],[-1.40801,43.345935],[-1.408546,43.345717],[-1.40964,43.344968],[-1.410456,43.345015],[-1.410499,43.344562],[-1.410778,43.344094],[-1.410863,43.343548],[-1.411293,43.343204],[-1.411486,43.34283],[-1.411335,43.341675],[-1.412258,43.342799],[-1.413245,43.343407],[-1.413932,43.343594],[-1.415348,43.343891],[-1.416829,43.34439],[-1.417623,43.343907],[-1.417365,43.343454],[-1.417665,43.342705],[-1.418824,43.342065],[-1.419554,43.341847],[-1.419146,43.341675],[-1.41876,43.340864],[-1.418931,43.339662],[-1.41891,43.33807],[-1.419404,43.337758],[-1.420541,43.337461],[-1.421356,43.337149],[-1.422429,43.33718],[-1.424317,43.337071],[-1.42554,43.336806],[-1.426871,43.336665],[-1.428201,43.337149],[-1.428823,43.33615],[-1.427407,43.335682],[-1.426678,43.335167],[-1.426249,43.335089],[-1.426528,43.334231],[-1.427128,43.334106],[-1.427557,43.333825],[-1.427751,43.333591],[-1.428201,43.333372],[-1.428716,43.332904],[-1.429124,43.332842],[-1.431162,43.333388],[-1.432879,43.333653],[-1.433651,43.333653],[-1.433823,43.333325],[-1.435239,43.332842],[-1.434639,43.332342],[-1.434574,43.331968],[-1.436656,43.330984],[-1.437857,43.330719],[-1.439745,43.329845],[-1.440389,43.329876],[-1.441183,43.329548],[-1.443908,43.328877],[-1.445389,43.328737],[-1.446719,43.327878],[-1.44644,43.32766],[-1.44599,43.327519],[-1.445775,43.327238],[-1.445968,43.327082],[-1.445668,43.326364],[-1.445239,43.325989],[-1.444402,43.325677],[-1.444058,43.325271],[-1.443672,43.324912],[-1.444016,43.324944],[-1.44453,43.324694],[-1.446376,43.324163],[-1.447299,43.324413],[-1.447535,43.323788],[-1.448028,43.32371],[-1.448565,43.323336],[-1.448522,43.322945],[-1.449766,43.323023],[-1.449423,43.323492],[-1.449144,43.324538],[-1.450281,43.324241],[-1.450496,43.324491],[-1.450067,43.325303],[-1.450195,43.325818],[-1.45129,43.325443],[-1.452084,43.32549],[-1.45335,43.326067],[-1.456118,43.325818],[-1.457255,43.325677],[-1.458006,43.325381],[-1.460302,43.324054],[-1.461396,43.324163],[-1.463199,43.324491],[-1.463306,43.324194],[-1.463263,43.32396],[-1.463885,43.324007],[-1.464679,43.324366],[-1.465023,43.324694],[-1.465795,43.324787],[-1.46601,43.324522],[-1.466889,43.324585],[-1.467426,43.324944],[-1.468284,43.324803],[-1.469121,43.324756],[-1.469829,43.324319],[-1.470537,43.323757],[-1.471653,43.322914],[-1.470816,43.323898],[-1.470666,43.324366],[-1.470795,43.324725],[-1.471353,43.325225],[-1.471825,43.325568],[-1.472468,43.326676],[-1.474228,43.327675],[-1.47646,43.327582],[-1.476953,43.327784],[-1.477618,43.327628],[-1.478992,43.326801],[-1.480172,43.326598],[-1.48118,43.326629],[-1.481974,43.326536],[-1.483305,43.326536],[-1.484334,43.326645],[-1.485944,43.326411],[-1.48751,43.32574],[-1.490622,43.325427],[-1.495943,43.324491],[-1.496608,43.324631],[-1.497252,43.324834],[-1.497939,43.324787],[-1.498668,43.324538],[-1.499398,43.324491],[-1.500664,43.324834],[-1.501844,43.324725],[-1.502981,43.324975],[-1.503904,43.325521],[-1.507466,43.326707],[-1.508517,43.326598],[-1.509719,43.326067],[-1.510921,43.32485],[-1.512229,43.324787],[-1.513216,43.324475],[-1.522958,43.325287],[-1.524632,43.324912],[-1.526155,43.325037],[-1.528087,43.325162],[-1.529009,43.325412],[-1.529589,43.325802],[-1.530576,43.32574],[-1.531498,43.326286],[-1.532571,43.326676],[-1.534288,43.327066],[-1.537743,43.328456],[-1.538215,43.327925],[-1.53888,43.327535],[-1.539738,43.326317],[-1.540833,43.325381],[-1.54197,43.324928],[-1.543472,43.324944],[-1.544008,43.325209],[-1.544695,43.325396],[-1.544652,43.326161],[-1.544931,43.326707],[-1.544845,43.327347],[-1.544437,43.327925],[-1.54403,43.328393],[-1.544909,43.328924],[-1.544588,43.329439],[-1.543922,43.329923],[-1.544373,43.33036],[-1.544652,43.330735],[-1.545532,43.330719],[-1.546133,43.330297],[-1.547313,43.329658],[-1.547742,43.329142],[-1.547678,43.328643],[-1.547227,43.328815],[-1.547227,43.328666],[-1.547774,43.328222],[-1.548772,43.327753],[-1.549673,43.327628],[-1.550295,43.327738],[-1.551304,43.327597],[-1.551905,43.327113],[-1.552548,43.327004],[-1.552999,43.327191],[-1.553836,43.327066],[-1.554608,43.326739],[-1.556218,43.32702],[-1.557162,43.327613],[-1.558814,43.328097],[-1.560402,43.328253],[-1.560917,43.328097],[-1.563363,43.32702],[-1.563985,43.32691],[-1.566861,43.325896],[-1.568577,43.326442],[-1.569178,43.326583],[-1.569865,43.327051],[-1.570981,43.327223],[-1.571324,43.326895],[-1.571259,43.326645],[-1.571903,43.327066],[-1.572912,43.327223],[-1.573577,43.327613],[-1.574478,43.328331],[-1.575251,43.328612],[-1.575422,43.328908],[-1.575508,43.329845],[-1.576109,43.330469],[-1.576517,43.33061],[-1.577075,43.330937],[-1.578791,43.331359],[-1.57922,43.331281],[-1.580422,43.330891],[-1.58083,43.330766],[-1.58113,43.330844],[-1.581752,43.331172],[-1.582267,43.33164],[-1.583126,43.33178],[-1.584263,43.331312],[-1.585958,43.331281],[-1.585851,43.330922],[-1.586237,43.330563],[-1.586623,43.330407],[-1.587803,43.330438],[-1.589069,43.329923],[-1.590657,43.329564],[-1.59025,43.329142],[-1.590378,43.328534],[-1.590078,43.32805],[-1.589198,43.327176],[-1.589305,43.32652],[-1.58879,43.325989],[-1.588833,43.325287],[-1.589305,43.325115],[-1.589971,43.324772],[-1.590056,43.324038],[-1.589692,43.323367],[-1.588233,43.324007],[-1.58746,43.324179],[-1.586087,43.324741],[-1.585979,43.324631],[-1.586194,43.324382],[-1.58613,43.323539],[-1.586516,43.323023],[-1.586409,43.321275],[-1.586087,43.32101],[-1.585529,43.320791],[-1.585014,43.320385],[-1.584177,43.320011],[-1.584156,43.319652],[-1.583147,43.319605],[-1.581774,43.319136],[-1.581645,43.318528],[-1.580851,43.318231],[-1.579864,43.318153],[-1.579778,43.317138],[-1.580164,43.315905],[-1.580594,43.314906],[-1.580679,43.313735],[-1.580465,43.313329],[-1.580143,43.313094],[-1.580229,43.312626],[-1.580765,43.312813]]],"type":"MultiLineString"},"properties":{"geo_point":{"lon":-1.430215951695254,"lat":43.403740516143635},"name":"GR8 De Urt à Sare (Pyrénées-Atlantiques) (2019)","code_gr":"GR8"}},{"type":"Feature","geometry":{"coordinates":[[[-2.161493,47.267075],[-2.162652,47.267046],[-2.162523,47.267919],[-2.166214,47.268152],[-2.166128,47.268545],[-2.166836,47.26872],[-2.166944,47.268895],[-2.16718,47.268764],[-2.168274,47.268953],[-2.169046,47.26856],[-2.169626,47.268531],[-2.170141,47.268647],[-2.170377,47.268342],[-2.17027,47.267148],[-2.171085,47.263449],[-2.171021,47.261323],[-2.170634,47.259007],[-2.170291,47.256357],[-2.170527,47.25608],[-2.170398,47.254245],[-2.170098,47.254231],[-2.170184,47.254012],[-2.169755,47.25241],[-2.169583,47.250691],[-2.169304,47.249395],[-2.169347,47.248914],[-2.169626,47.248332],[-2.170034,47.246394],[-2.170549,47.242825],[-2.170806,47.240975],[-2.171321,47.239489],[-2.171707,47.239052],[-2.172544,47.238805],[-2.173209,47.238863],[-2.173617,47.238717],[-2.174025,47.237202],[-2.174518,47.236605],[-2.175334,47.236051],[-2.176428,47.236124],[-2.1772,47.236226],[-2.178252,47.23592],[-2.178402,47.235614],[-2.179346,47.235541],[-2.179797,47.235818],[-2.180462,47.235833],[-2.180891,47.235949],[-2.181578,47.235512],[-2.180634,47.234143],[-2.179668,47.232409],[-2.179453,47.231636],[-2.178853,47.230908],[-2.177823,47.230092],[-2.177243,47.229436],[-2.1766,47.229101],[-2.175806,47.228475],[-2.174969,47.227353],[-2.174475,47.227163],[-2.174089,47.226653],[-2.173767,47.226784],[-2.173295,47.226609],[-2.173102,47.226172],[-2.172029,47.225575],[-2.170827,47.224496],[-2.170355,47.223812],[-2.16984,47.223389],[-2.169218,47.223083],[-2.168961,47.222704],[-2.168081,47.222048],[-2.167502,47.221451],[-2.167008,47.221174],[-2.165849,47.220052],[-2.165527,47.219629],[-2.165034,47.219338],[-2.16497,47.218871],[-2.164712,47.218478],[-2.164068,47.218274],[-2.164326,47.218099],[-2.164154,47.217764],[-2.164025,47.217487],[-2.163704,47.217195],[-2.163639,47.21667],[-2.162781,47.216845],[-2.16248,47.216146],[-2.16115,47.214732],[-2.160571,47.213551],[-2.158597,47.210986],[-2.15864,47.210738],[-2.158039,47.209966],[-2.157588,47.208843],[-2.158167,47.208712],[-2.158661,47.208391],[-2.158682,47.207808],[-2.15879,47.207648],[-2.158446,47.207094],[-2.158361,47.206555],[-2.15806,47.205855],[-2.158361,47.204616],[-2.158232,47.204514],[-2.157202,47.204528],[-2.157223,47.204339],[-2.157889,47.203829],[-2.158275,47.203683],[-2.158382,47.203041],[-2.158082,47.202954],[-2.157652,47.201175],[-2.157374,47.200636],[-2.157052,47.200578],[-2.156859,47.200228],[-2.156837,47.199907],[-2.156537,47.199863],[-2.156215,47.199309],[-2.156236,47.198974],[-2.156386,47.198784],[-2.156794,47.198755],[-2.157202,47.198682],[-2.157288,47.198259],[-2.157095,47.197749],[-2.157459,47.197414],[-2.157695,47.19632],[-2.158339,47.195212],[-2.159305,47.194644],[-2.159562,47.194104],[-2.159712,47.193769],[-2.160163,47.193535],[-2.160592,47.193492],[-2.160935,47.193273],[-2.160828,47.191844],[-2.160292,47.189248],[-2.160142,47.188957],[-2.160099,47.188621],[-2.159433,47.188213],[-2.159541,47.187732],[-2.159991,47.186303],[-2.160657,47.185297],[-2.161322,47.184524],[-2.161708,47.183765],[-2.161772,47.183371],[-2.162201,47.182701],[-2.161837,47.181957],[-2.162588,47.180571],[-2.163253,47.179682],[-2.163339,47.178281],[-2.163618,47.177217],[-2.163661,47.176619],[-2.164176,47.17446],[-2.164455,47.174154],[-2.165978,47.169252],[-2.16718,47.165562],[-2.171772,47.161214],[-2.173359,47.159755],[-2.175098,47.157931],[-2.175183,47.15761],[-2.174411,47.157041],[-2.175248,47.156997],[-2.1766,47.15672],[-2.178016,47.156166],[-2.178037,47.155626],[-2.180719,47.15567],[-2.181835,47.156122],[-2.183037,47.156239],[-2.184153,47.156487],[-2.18499,47.15656],[-2.185934,47.156399],[-2.189045,47.156487],[-2.191577,47.157216],[-2.193401,47.157464],[-2.193809,47.157362],[-2.194109,47.156983],[-2.194401,47.15698],[-2.194444,47.157133],[-2.194626,47.15709],[-2.194916,47.156338],[-2.194884,47.156068],[-2.19527,47.15574],[-2.197083,47.155733],[-2.197373,47.1559],[-2.197427,47.15706],[-2.197727,47.157352],[-2.197907,47.158807],[-2.199495,47.158486],[-2.200053,47.158281],[-2.20119,47.158004],[-2.201662,47.157464],[-2.203636,47.15672],[-2.20561,47.156385],[-2.206147,47.156545],[-2.206919,47.15656],[-2.207713,47.156793],[-2.208228,47.156866],[-2.20943,47.156078],[-2.210224,47.155859],[-2.211447,47.155261],[-2.213206,47.155174],[-2.214,47.154998],[-2.214387,47.154955],[-2.215266,47.154094],[-2.215824,47.153816],[-2.216446,47.153729],[-2.21797,47.153262],[-2.218614,47.153247],[-2.219515,47.15335],[-2.220481,47.153379],[-2.221854,47.153758],[-2.22563,47.152226],[-2.225759,47.151336],[-2.226038,47.150708],[-2.226617,47.149643],[-2.226768,47.148709],[-2.227132,47.147936],[-2.227776,47.147498],[-2.228313,47.146856],[-2.228742,47.146287],[-2.228849,47.144754],[-2.22945,47.144083],[-2.229407,47.143864],[-2.229836,47.143762],[-2.230287,47.143484],[-2.230373,47.143222],[-2.230823,47.142828],[-2.23136,47.14255],[-2.232175,47.142244],[-2.232454,47.141967],[-2.235501,47.140522],[-2.23608,47.139704],[-2.236123,47.139237],[-2.236424,47.139179],[-2.236853,47.138741],[-2.237303,47.138755],[-2.237947,47.138493],[-2.238505,47.137938],[-2.239299,47.137325],[-2.239792,47.137106],[-2.240586,47.136537],[-2.241573,47.13607],[-2.242131,47.135865],[-2.242518,47.135515],[-2.24282,47.135564],[-2.242885,47.13571],[-2.244987,47.135848],[-2.245245,47.136016],[-2.247839,47.133851],[-2.246916,47.132815],[-2.246702,47.132231],[-2.245715,47.131515],[-2.244728,47.131063],[-2.244427,47.131326],[-2.244341,47.131705],[-2.243912,47.131939],[-2.243419,47.131997],[-2.243161,47.132523],[-2.24256,47.132552],[-2.241509,47.132873],[-2.240887,47.132844],[-2.240415,47.132902],[-2.239213,47.132391],[-2.238526,47.131807],[-2.23769,47.131515],[-2.23711,47.130946],[-2.23578,47.130858],[-2.234364,47.13188],[-2.233505,47.131924],[-2.233012,47.131749],[-2.230995,47.131603],[-2.230437,47.131618],[-2.229192,47.131238],[-2.227025,47.131267],[-2.225823,47.13061],[-2.225051,47.130041],[-2.223613,47.129603],[-2.223227,47.129107],[-2.222476,47.128581],[-2.221725,47.127983],[-2.221296,47.127968],[-2.220953,47.128041],[-2.220609,47.127807],[-2.220759,47.127618],[-2.220781,47.126012],[-2.220438,47.125661],[-2.219665,47.125413],[-2.218614,47.125282],[-2.218142,47.125004],[-2.216854,47.124785],[-2.215932,47.124858],[-2.215309,47.124391],[-2.215116,47.124041],[-2.214322,47.123924],[-2.212906,47.12442],[-2.212048,47.124508],[-2.209044,47.12499],[-2.208228,47.125048],[-2.20737,47.125223],[-2.206082,47.125063],[-2.205267,47.12515],[-2.204216,47.124946],[-2.203379,47.125209],[-2.203121,47.124698],[-2.20252,47.124493],[-2.201555,47.123982],[-2.20089,47.123909],[-2.200482,47.123749],[-2.1978,47.123588],[-2.19722,47.123661],[-2.196791,47.123851],[-2.196233,47.123792],[-2.19589,47.124157],[-2.195461,47.12407],[-2.194753,47.123413],[-2.194045,47.123077],[-2.193401,47.123092],[-2.192843,47.122727],[-2.192221,47.122537],[-2.191813,47.122522],[-2.191212,47.122376],[-2.190225,47.122405],[-2.190225,47.122405],[-2.189807,47.122504],[-2.18927,47.122519],[-2.188798,47.122621],[-2.188283,47.122563],[-2.187554,47.122577],[-2.186803,47.122388],[-2.186331,47.122344],[-2.185515,47.122183],[-2.184957,47.122256],[-2.184378,47.122227],[-2.18397,47.122285],[-2.183434,47.122475],[-2.182683,47.122373],[-2.181996,47.122431],[-2.181653,47.122358],[-2.181009,47.122388],[-2.180108,47.122256],[-2.179443,47.122358],[-2.179057,47.122037],[-2.178477,47.12192],[-2.177683,47.122169],[-2.177125,47.122023],[-2.177233,47.12176],[-2.177125,47.12119],[-2.176288,47.120679],[-2.175945,47.120241],[-2.175452,47.119978],[-2.175022,47.120227],[-2.174057,47.120008],[-2.173714,47.119993],[-2.173413,47.119789],[-2.172512,47.11973],[-2.17234,47.119993],[-2.17189,47.119745],[-2.171375,47.119686],[-2.170752,47.119292],[-2.170237,47.119146],[-2.169916,47.118956],[-2.169379,47.119],[-2.168864,47.118752],[-2.168456,47.118679],[-2.16792,47.118358],[-2.167577,47.118358],[-2.16719,47.118285],[-2.166847,47.118431],[-2.166311,47.118343],[-2.165753,47.118372],[-2.165538,47.118562],[-2.165216,47.118577],[-2.164701,47.119073],[-2.164658,47.119351],[-2.163779,47.118883],[-2.164079,47.118416],[-2.164058,47.117993],[-2.163693,47.117744],[-2.163628,47.117525],[-2.163135,47.117365],[-2.162727,47.116883],[-2.162126,47.116401],[-2.161869,47.116138],[-2.161054,47.115686],[-2.160517,47.115554],[-2.159959,47.115642],[-2.15968,47.115233],[-2.159251,47.115291],[-2.158843,47.115247],[-2.15865,47.11497],[-2.158843,47.114722],[-2.158779,47.114634],[-2.158092,47.11459],[-2.157835,47.114342],[-2.157706,47.114123],[-2.155389,47.113889],[-2.154895,47.113962],[-2.154766,47.113627],[-2.152921,47.113349],[-2.151634,47.113305],[-2.149917,47.113115],[-2.148887,47.113042],[-2.1479,47.113188],[-2.147192,47.113787],[-2.146913,47.114225],[-2.146741,47.114751],[-2.146441,47.113977],[-2.146419,47.113261],[-2.146312,47.113057],[-2.145475,47.112663],[-2.144917,47.112561],[-2.144359,47.112283],[-2.143244,47.112108],[-2.1423,47.112064],[-2.141527,47.112166],[-2.140926,47.112079],[-2.139789,47.11221],[-2.139338,47.111903],[-2.138544,47.111889],[-2.138008,47.111801],[-2.137858,47.111903],[-2.136892,47.111845],[-2.13657,47.111159],[-2.135905,47.111086],[-2.13554,47.11148],[-2.133566,47.111159],[-2.13288,47.111305],[-2.132493,47.111115],[-2.132,47.111232],[-2.131699,47.111144],[-2.131034,47.111202],[-2.130391,47.111568],[-2.130176,47.111933],[-2.129704,47.112035],[-2.129768,47.112385],[-2.127,47.112327],[-2.12464,47.111451],[-2.123653,47.111597],[-2.123438,47.111465],[-2.123309,47.111202],[-2.122558,47.110545],[-2.120756,47.110385],[-2.119404,47.110545],[-2.116658,47.110662],[-2.116357,47.110545],[-2.116014,47.110136],[-2.115456,47.110253],[-2.114233,47.110282],[-2.113825,47.110399],[-2.113267,47.110516],[-2.112752,47.110428],[-2.112066,47.110647],[-2.111143,47.110764],[-2.110757,47.110896],[-2.110821,47.111071],[-2.110671,47.111261],[-2.110349,47.111202],[-2.110092,47.11129],[-2.109534,47.111246],[-2.108954,47.111407],[-2.108804,47.111684],[-2.108675,47.111743],[-2.108268,47.111655],[-2.107774,47.111903],[-2.107002,47.111947],[-2.106358,47.112415],[-2.106894,47.113145],[-2.106637,47.113393],[-2.106572,47.113685],[-2.106122,47.113583],[-2.105907,47.113422],[-2.105521,47.113481],[-2.104877,47.114444],[-2.103118,47.11478],[-2.101809,47.114926],[-2.10065,47.114941],[-2.099942,47.115116],[-2.099792,47.11532],[-2.098848,47.115335],[-2.098569,47.114547],[-2.099964,47.114284],[-2.100993,47.114254],[-2.101959,47.114079],[-2.102431,47.113948],[-2.103268,47.113335],[-2.103633,47.112955],[-2.103869,47.112327],[-2.104384,47.11202],[-2.104491,47.111728],[-2.104448,47.111509],[-2.104126,47.111188],[-2.104234,47.11094],[-2.105221,47.110574],[-2.105779,47.110005],[-2.106272,47.109742],[-2.106637,47.10983],[-2.107023,47.109742],[-2.107173,47.109538],[-2.107452,47.10945],[-2.107431,47.109304],[-2.107173,47.108983],[-2.107366,47.108559],[-2.106766,47.108106],[-2.106401,47.10796],[-2.106272,47.107654],[-2.105843,47.107362],[-2.105929,47.107128],[-2.105736,47.106938],[-2.105328,47.106734],[-2.104856,47.106748],[-2.104513,47.106602],[-2.103826,47.106792],[-2.102367,47.107084],[-2.101659,47.106894],[-2.101079,47.106996],[-2.100221,47.106617],[-2.099406,47.106631],[-2.098419,47.106982],[-2.098054,47.107055],[-2.097775,47.106894],[-2.097174,47.10688],[-2.096552,47.106704],[-2.096466,47.106427],[-2.09623,47.106398],[-2.096144,47.106529],[-2.095951,47.106485],[-2.095693,47.106558],[-2.095286,47.106471],[-2.095071,47.106193],[-2.094749,47.106106],[-2.09447,47.105813],[-2.093741,47.105638],[-2.093591,47.105404],[-2.093097,47.105434],[-2.092432,47.105171],[-2.091788,47.105273],[-2.090887,47.104864],[-2.090951,47.104587],[-2.090544,47.103988],[-2.089707,47.103812],[-2.088934,47.104002],[-2.088591,47.103842],[-2.088398,47.103929],[-2.088033,47.103973],[-2.087797,47.104221],[-2.087518,47.104192],[-2.087046,47.103929],[-2.086767,47.104046],[-2.086488,47.103959],[-2.086252,47.104178],[-2.086123,47.103856],[-2.085909,47.103944],[-2.085759,47.103886],[-2.085651,47.103652],[-2.085458,47.103579],[-2.085394,47.10371],[-2.08505,47.103739],[-2.084857,47.103477],[-2.084063,47.103593],[-2.082969,47.103579],[-2.083076,47.103214],[-2.08254,47.102746],[-2.081961,47.102454],[-2.081574,47.102001],[-2.080973,47.101709],[-2.080158,47.10149],[-2.079836,47.101549],[-2.0796,47.101446],[-2.079343,47.101549],[-2.079128,47.101446],[-2.078871,47.101607],[-2.078377,47.101651],[-2.078077,47.101563],[-2.077798,47.101563],[-2.07754,47.101402],[-2.077068,47.101329],[-2.076746,47.101432],[-2.07621,47.101329],[-2.075502,47.101388],[-2.075309,47.101534],[-2.074536,47.101636],[-2.0743,47.10149],[-2.074086,47.101563],[-2.073699,47.101446],[-2.073099,47.101432],[-2.072712,47.101052],[-2.072004,47.10076],[-2.072133,47.100555],[-2.071575,47.099927],[-2.070974,47.099504],[-2.070588,47.09908],[-2.06915,47.098788],[-2.068163,47.09851],[-2.067627,47.098189],[-2.066747,47.098028],[-2.066082,47.09778],[-2.064344,47.097473],[-2.063378,47.09721],[-2.063164,47.097006],[-2.062456,47.096845],[-2.062348,47.096772],[-2.062048,47.096684],[-2.061683,47.096845],[-2.060975,47.096553],[-2.060503,47.096246],[-2.059795,47.095998],[-2.059323,47.095998],[-2.058743,47.095852],[-2.057628,47.095808],[-2.057198,47.095939],[-2.056555,47.096012],[-2.056168,47.096129],[-2.055439,47.095808],[-2.054902,47.09575],[-2.054151,47.095516],[-2.053744,47.095297],[-2.053207,47.094932],[-2.052907,47.094858],[-2.052864,47.094581],[-2.052606,47.094376],[-2.052606,47.094157],[-2.052156,47.093982],[-2.05192,47.093558],[-2.051727,47.093266],[-2.051898,47.093076],[-2.051727,47.092726],[-2.051469,47.092375],[-2.051534,47.09201],[-2.051362,47.091747],[-2.051083,47.09182],[-2.050825,47.091425],[-2.05016,47.090417],[-2.049388,47.09071],[-2.048293,47.089818],[-2.048057,47.089263],[-2.0475,47.088635],[-2.04574,47.087013],[-2.047306,47.086531],[-2.047199,47.086297],[-2.046555,47.085786],[-2.045826,47.085508],[-2.045611,47.085231],[-2.044689,47.085976],[-2.043809,47.085377],[-2.043208,47.085026],[-2.043508,47.08488],[-2.043744,47.084442],[-2.042736,47.083916],[-2.042157,47.083755],[-2.041577,47.08415],[-2.037307,47.080219],[-2.039646,47.079445],[-2.039238,47.079123],[-2.038208,47.07886],[-2.037457,47.078407],[-2.036427,47.077384],[-2.035912,47.077063],[-2.035698,47.07718],[-2.03514,47.077297],[-2.034496,47.076624],[-2.031857,47.07566],[-2.031664,47.075222],[-2.030526,47.074316],[-2.030269,47.073936],[-2.03087,47.073497],[-2.031299,47.073044],[-2.030548,47.072883],[-2.029539,47.072153],[-2.028359,47.071393],[-2.027501,47.071173],[-2.027029,47.07075],[-2.026793,47.070735],[-2.026214,47.070487],[-2.025334,47.070443],[-2.024647,47.070136],[-2.023681,47.070092],[-2.02233,47.069844],[-2.021643,47.069639],[-2.019948,47.06844],[-2.018596,47.067768],[-2.017394,47.067315],[-2.015334,47.066146],[-2.01409,47.065137],[-2.013875,47.064816],[-2.013403,47.064845],[-2.010957,47.063705],[-2.009648,47.063515],[-2.008768,47.063544],[-2.007288,47.063179],[-2.006708,47.062623],[-2.006623,47.062389],[-2.00555,47.061819],[-2.005056,47.061688],[-2.004091,47.060942],[-2.00291,47.059714],[-2.002095,47.058764],[-2.00173,47.058048],[-2.000979,47.056542],[-2.000421,47.056659],[-1.999348,47.056279],[-1.998834,47.055694],[-1.996452,47.052215],[-1.994242,47.048589],[-1.993748,47.047756],[-1.993834,47.047376],[-1.993405,47.04663],[-1.993297,47.046206],[-1.992031,47.044685],[-1.991774,47.044086],[-1.99128,47.043516],[-1.990873,47.043267],[-1.990036,47.042214],[-1.989414,47.041103],[-1.988555,47.040372],[-1.988126,47.040225],[-1.987568,47.039421],[-1.987504,47.038865],[-1.986989,47.0379],[-1.986173,47.036584],[-1.985079,47.034361],[-1.983963,47.032562],[-1.982783,47.030178],[-1.98274,47.029564],[-1.982375,47.029389],[-1.981453,47.029432],[-1.978299,47.029184],[-1.977698,47.029242],[-1.975509,47.029081],[-1.975788,47.025673],[-1.979822,47.023596],[-1.982569,47.026054],[-1.997117,47.018359],[-1.99804,47.018228],[-1.99819,47.018052],[-1.998125,47.017584],[-1.998125,47.017584],[-1.99694,47.013848],[-2.000845,47.014448],[-2.002991,47.013936],[-2.00357,47.014111],[-2.00415,47.014374],[-2.005459,47.014652],[-2.005652,47.014857],[-2.006381,47.015018],[-2.006853,47.015252],[-2.007325,47.015662],[-2.007948,47.015779],[-2.009149,47.015896],[-2.009643,47.01654],[-2.009943,47.016584],[-2.010651,47.016057],[-2.011231,47.016042],[-2.01166,47.015486],[-2.012904,47.014726],[-2.01299,47.014111],[-2.013977,47.013541],[-2.01475,47.013204],[-2.015007,47.013131],[-2.015844,47.012663],[-2.017067,47.012151],[-2.017239,47.011873],[-2.018741,47.011843],[-2.019556,47.01158],[-2.019964,47.011053],[-2.02226,47.010336],[-2.0255,47.009268],[-2.026594,47.009063],[-2.027281,47.009093],[-2.027281,47.0082],[-2.027066,47.007644],[-2.027131,47.007293],[-2.026938,47.007132],[-2.025929,47.006971],[-2.025715,47.006766],[-2.025951,47.006415],[-2.026787,47.003913],[-2.027496,47.002713],[-2.028053,47.001484],[-2.028268,47.000079],[-2.028247,46.999142],[-2.028998,46.998659],[-2.029083,46.998001],[-2.026852,46.997562],[-2.026551,46.99743],[-2.02668,46.997152],[-2.030972,46.998001],[-2.032345,46.997928],[-2.034534,46.99765],[-2.038031,46.997386],[-2.037667,46.996113],[-2.037194,46.995586],[-2.035928,46.99503],[-2.034298,46.99364],[-2.032667,46.991854],[-2.031873,46.991839],[-2.031294,46.991137],[-2.031379,46.990551],[-2.02977,46.990581],[-2.030328,46.989966],[-2.030478,46.989717],[-2.030478,46.98938],[-2.031444,46.989044],[-2.031615,46.988663],[-2.030929,46.987595],[-2.029277,46.986716],[-2.029234,46.985853],[-2.029491,46.985794],[-2.030521,46.985296],[-2.031444,46.984974],[-2.031594,46.98474],[-2.031058,46.983613],[-2.0311,46.982574],[-2.030543,46.982398],[-2.030628,46.982076],[-2.030886,46.981695],[-2.032281,46.981578],[-2.032388,46.981022],[-2.03256,46.980729],[-2.032495,46.979675],[-2.033933,46.979499],[-2.034577,46.978226],[-2.034877,46.977845],[-2.034834,46.97641],[-2.034276,46.97559],[-2.033911,46.974522],[-2.033718,46.973687],[-2.033804,46.973394],[-2.033911,46.973072],[-2.034019,46.972443],[-2.033933,46.972003],[-2.03389,46.971286],[-2.033504,46.970905],[-2.033375,46.970349],[-2.033482,46.968753],[-2.036014,46.968753],[-2.037409,46.968665],[-2.038997,46.968504],[-2.039147,46.968328],[-2.041958,46.968079],[-2.042258,46.967933],[-2.043374,46.967786],[-2.043482,46.967303],[-2.043954,46.966498],[-2.04316,46.961621],[-2.03846,46.961621],[-2.038954,46.959454],[-2.038933,46.958268],[-2.03846,46.95695],[-2.038847,46.955426],[-2.039362,46.954035],[-2.039448,46.953317],[-2.040005,46.952805],[-2.04258,46.949714],[-2.043503,46.948249],[-2.043288,46.948029],[-2.044297,46.947004],[-2.045155,46.945949],[-2.045906,46.945539],[-2.047086,46.945173],[-2.047945,46.944748],[-2.048696,46.944162],[-2.049661,46.943561],[-2.0517,46.941847],[-2.051442,46.941569],[-2.052708,46.940632],[-2.055004,46.940353],[-2.057472,46.940089],[-2.05788,46.939738],[-2.058545,46.939489],[-2.060605,46.938141],[-2.06333,46.937672],[-2.064617,46.937584],[-2.067557,46.936544],[-2.070325,46.936368],[-2.071098,46.936031],[-2.07069,46.935049],[-2.071183,46.934918],[-2.074252,46.92847],[-2.075217,46.926111],[-2.076033,46.926008],[-2.076569,46.925642],[-2.077621,46.925598],[-2.078543,46.92573],[-2.07893,46.926023],[-2.079294,46.925994],[-2.080239,46.92447],[-2.080732,46.923913],[-2.081333,46.922858],[-2.081354,46.922491],[-2.081547,46.922066],[-2.081676,46.92148],[-2.081934,46.920733],[-2.081719,46.920146],[-2.08099,46.919868],[-2.080861,46.919267],[-2.081802,46.918892],[-2.081523,46.91857],[-2.081995,46.918072],[-2.082596,46.917925],[-2.082918,46.917529],[-2.083411,46.916474],[-2.082124,46.915917],[-2.082982,46.91514],[-2.082875,46.914876],[-2.081652,46.914832],[-2.080686,46.914656],[-2.080708,46.914319],[-2.080343,46.913645],[-2.080472,46.91344],[-2.081094,46.913249],[-2.080944,46.912018],[-2.081716,46.910274],[-2.082274,46.909746],[-2.082725,46.909394],[-2.083004,46.908984],[-2.083046,46.90787],[-2.083261,46.906873],[-2.083883,46.906374],[-2.083929,46.90587],[-2.082899,46.902908],[-2.082298,46.902952],[-2.080088,46.902674],[-2.078093,46.901926],[-2.076076,46.901457],[-2.074488,46.901281],[-2.072607,46.900448],[-2.072039,46.900514],[-2.071604,46.900393],[-2.071312,46.900474],[-2.071098,46.900753],[-2.070904,46.901222],[-2.070711,46.901369],[-2.070089,46.901413],[-2.069982,46.900826],[-2.069338,46.900548],[-2.067128,46.897689],[-2.064124,46.896662],[-2.064596,46.895489],[-2.065776,46.895621],[-2.068458,46.896208],[-2.069145,46.896208],[-2.06996,46.896398],[-2.070647,46.896325],[-2.071398,46.896516],[-2.071763,46.896149],[-2.071999,46.895665],[-2.073136,46.89439],[-2.073436,46.893671],[-2.074252,46.893407],[-2.075453,46.892615],[-2.076183,46.891794],[-2.07717,46.891281],[-2.077535,46.890885],[-2.078436,46.89131],[-2.079917,46.892278],[-2.080625,46.892923],[-2.081183,46.893143],[-2.082406,46.893187],[-2.082813,46.893481],[-2.083371,46.893202],[-2.084358,46.893349],[-2.085603,46.893085],[-2.086998,46.892894],[-2.087169,46.892703],[-2.088457,46.892439],[-2.088822,46.892821],[-2.093178,46.892498],[-2.094036,46.894727],[-2.094615,46.895269],[-2.09483,46.895621],[-2.095366,46.895797],[-2.095924,46.895563],[-2.096804,46.895533],[-2.098517,46.895818],[-2.100255,46.895672],[-2.101564,46.896141],[-2.101972,46.896537],[-2.102766,46.897035],[-2.103152,46.897636],[-2.10326,46.898076],[-2.103581,46.898384],[-2.103882,46.898824],[-2.104869,46.89944],[-2.105963,46.899777],[-2.107401,46.899513],[-2.108796,46.89922],[-2.110577,46.899103],[-2.112122,46.896962],[-2.111735,46.896214],[-2.111628,46.895686],[-2.11122,46.894924],[-2.11122,46.894029],[-2.109954,46.890803],[-2.109611,46.890232],[-2.109654,46.889733],[-2.109504,46.889264],[-2.11004,46.889146],[-2.109826,46.888618],[-2.10989,46.888296],[-2.109675,46.887988],[-2.109826,46.887181],[-2.108366,46.886771],[-2.108173,46.886976],[-2.107272,46.886683],[-2.107272,46.886023],[-2.106714,46.885598],[-2.106457,46.88482],[-2.106006,46.884351],[-2.106264,46.883955],[-2.10592,46.883515],[-2.106221,46.883031],[-2.106907,46.882371],[-2.107337,46.880714],[-2.107186,46.880347]]],"type":"MultiLineString"},"properties":{"geo_point":{"lon":-2.104984644675841,"lat":47.068753095202844},"name":"GR8 De Saint-Brevin-les-Pins (Loire-Atlantique) à La Barre-de-Monts (Vendée) (2019)","code_gr":"GR8"}},{"type":"Feature","geometry":{"coordinates":[[[-2.107208,46.880362],[-2.108495,46.880083],[-2.108881,46.880112],[-2.109525,46.879848],[-2.110341,46.879922],[-2.111392,46.879584],[-2.112079,46.879584],[-2.113409,46.879628],[-2.114632,46.879496],[-2.116027,46.879071],[-2.116992,46.877707],[-2.117593,46.877458],[-2.119524,46.87712],[-2.120383,46.876651],[-2.119932,46.877648],[-2.119803,46.878484],[-2.120748,46.879042],[-2.120876,46.879643],[-2.121069,46.880112],[-2.121992,46.87976],[-2.122464,46.879335],[-2.122636,46.879012],[-2.124481,46.878338],[-2.125232,46.877912],[-2.126155,46.877956],[-2.126391,46.877531],[-2.126262,46.877223],[-2.125747,46.87715],[-2.125361,46.876695],[-2.124653,46.876152],[-2.124524,46.875683],[-2.124825,46.875272],[-2.124331,46.874817],[-2.125018,46.874568],[-2.125876,46.873923],[-2.12652,46.873849],[-2.126756,46.873409],[-2.127142,46.87313],[-2.12667,46.871796],[-2.125533,46.870329],[-2.125275,46.870299],[-2.126026,46.86983],[-2.125983,46.8687],[-2.124953,46.866837],[-2.12476,46.866206],[-2.125146,46.865458],[-2.125146,46.864945],[-2.124567,46.864152],[-2.123623,46.863668],[-2.123408,46.863301],[-2.123494,46.863096],[-2.123322,46.862817],[-2.122829,46.862744],[-2.122142,46.862348],[-2.122164,46.861893],[-2.122056,46.861453],[-2.122164,46.860866],[-2.12182,46.860587],[-2.120898,46.860147],[-2.12049,46.859501],[-2.119761,46.859179],[-2.119439,46.858826],[-2.11961,46.858694],[-2.12034,46.858621],[-2.120533,46.85843],[-2.120619,46.858108],[-2.121499,46.857726],[-2.122529,46.857521],[-2.123022,46.857168],[-2.123473,46.857198],[-2.124159,46.857036],[-2.124245,46.856581],[-2.123859,46.856083],[-2.124267,46.855408],[-2.124653,46.855041],[-2.125168,46.855041],[-2.126069,46.855246],[-2.126412,46.854674],[-2.126713,46.853896],[-2.126606,46.853603],[-2.127271,46.853647],[-2.129095,46.853192],[-2.129889,46.852766],[-2.129202,46.851842],[-2.129524,46.851387],[-2.129803,46.8508],[-2.130189,46.850521],[-2.130811,46.850301],[-2.130919,46.850066],[-2.131348,46.849963],[-2.131348,46.849582],[-2.131197,46.849376],[-2.131691,46.84923],[-2.130961,46.848217],[-2.131283,46.847703],[-2.133687,46.847439],[-2.134137,46.847028],[-2.134266,46.846471],[-2.134738,46.846397],[-2.134781,46.843902],[-2.135618,46.843697],[-2.135661,46.842904],[-2.135875,46.842141],[-2.136326,46.841627],[-2.137034,46.841627],[-2.139051,46.841803],[-2.139244,46.841569],[-2.139072,46.840394],[-2.138557,46.839161],[-2.138236,46.838692],[-2.138171,46.838281],[-2.137785,46.837488],[-2.137463,46.837121],[-2.137828,46.836006],[-2.138171,46.835389],[-2.138085,46.834303],[-2.139888,46.831396],[-2.140296,46.83122],[-2.14021,46.830721],[-2.139587,46.82868],[-2.139351,46.828768],[-2.139051,46.828137],[-2.138686,46.827697],[-2.138922,46.827609],[-2.138922,46.82683],[-2.138579,46.826273],[-2.138278,46.825773],[-2.138321,46.824834],[-2.138,46.824467],[-2.137892,46.823835],[-2.138042,46.823468],[-2.137871,46.823013],[-2.137592,46.822852],[-2.137613,46.822206],[-2.136776,46.822235],[-2.135854,46.821163],[-2.135167,46.821148],[-2.134738,46.820194],[-2.134759,46.819783],[-2.134266,46.819533],[-2.133708,46.819548],[-2.133172,46.819298],[-2.132034,46.819151],[-2.131519,46.818858],[-2.131133,46.818094],[-2.131176,46.817654],[-2.130854,46.817199],[-2.130425,46.817052],[-2.129781,46.816523],[-2.12903,46.8162],[-2.128215,46.815539],[-2.127485,46.815304],[-2.126906,46.815231],[-2.12712,46.814952],[-2.127163,46.814511],[-2.126799,46.814291],[-2.126627,46.813777],[-2.125876,46.813704],[-2.125211,46.813322],[-2.125146,46.812705],[-2.125275,46.812573],[-2.125018,46.812206],[-2.125146,46.811941],[-2.124867,46.811912],[-2.124846,46.811369],[-2.125211,46.811104],[-2.125425,46.810517],[-2.124932,46.810106],[-2.124846,46.8099],[-2.124138,46.809606],[-2.122014,46.809371],[-2.121069,46.808637],[-2.119524,46.807961],[-2.118473,46.80733],[-2.117851,46.807227],[-2.117271,46.806948],[-2.117465,46.806302],[-2.11416,46.805303],[-2.1118,46.803555],[-2.110598,46.803922],[-2.109225,46.803967],[-2.108281,46.804451],[-2.108023,46.805068],[-2.107337,46.8052],[-2.107079,46.805347],[-2.105727,46.805435],[-2.104912,46.805685],[-2.103989,46.805097],[-2.103796,46.804554],[-2.103045,46.804525],[-2.102809,46.804231],[-2.102573,46.804143],[-2.102616,46.804011],[-2.101715,46.803673],[-2.101135,46.803012],[-2.100577,46.80285],[-2.100234,46.803056],[-2.098882,46.80332],[-2.097809,46.803335],[-2.097101,46.803129],[-2.096822,46.803159],[-2.096457,46.802968],[-2.096114,46.803041],[-2.095878,46.802601],[-2.094827,46.802527],[-2.094376,46.802571],[-2.093496,46.802454],[-2.093303,46.802086],[-2.09296,46.801851],[-2.09281,46.801543],[-2.092295,46.801528],[-2.091672,46.801631],[-2.090728,46.801264],[-2.090342,46.800735],[-2.09002,46.800809],[-2.089763,46.800559],[-2.089419,46.800383],[-2.089226,46.799795],[-2.089291,46.79956],[-2.08884,46.799736],[-2.088368,46.799692],[-2.088089,46.799751],[-2.087746,46.799722],[-2.087445,46.799736],[-2.086887,46.799472],[-2.086308,46.799736],[-2.085364,46.79931],[-2.085192,46.799472],[-2.084548,46.79931],[-2.084141,46.799428],[-2.083004,46.799046],[-2.081823,46.798135],[-2.081759,46.797445],[-2.080901,46.797577],[-2.079999,46.797122],[-2.079892,46.796578],[-2.07839,46.796152],[-2.076781,46.796152],[-2.076244,46.79602],[-2.075536,46.79555],[-2.075408,46.795197],[-2.07515,46.795271],[-2.074871,46.79505],[-2.074721,46.794815],[-2.074184,46.79483],[-2.073691,46.794477],[-2.073798,46.794272],[-2.073498,46.793699],[-2.073004,46.793273],[-2.073069,46.793067],[-2.072768,46.792803],[-2.072704,46.79245],[-2.071888,46.792142],[-2.071073,46.791231],[-2.069507,46.791275],[-2.069442,46.790966],[-2.069185,46.790761],[-2.069142,46.790379],[-2.068305,46.789967],[-2.067468,46.789938],[-2.06646,46.789953],[-2.064722,46.790878],[-2.063863,46.790276],[-2.06264,46.789982],[-2.062597,46.788557],[-2.061138,46.787235],[-2.060301,46.786764],[-2.059336,46.786853],[-2.058992,46.7865],[-2.058477,46.786338],[-2.057855,46.7865],[-2.056804,46.786353],[-2.055774,46.78672],[-2.054915,46.786779],[-2.053349,46.786691],[-2.05204,46.787044],[-2.050688,46.786823],[-2.049572,46.787029],[-2.049079,46.78722],[-2.048693,46.788013],[-2.045496,46.78625],[-2.044637,46.785986],[-2.044315,46.785574],[-2.043993,46.785104],[-2.043436,46.784722],[-2.043114,46.784825],[-2.042084,46.78409],[-2.039874,46.783473],[-2.039359,46.782988],[-2.037878,46.782092],[-2.035582,46.781137],[-2.03511,46.779932],[-2.034488,46.77908],[-2.034123,46.778169],[-2.033329,46.777169],[-2.0329,46.776332],[-2.032342,46.776009],[-2.032063,46.775744],[-2.031527,46.775656],[-2.031097,46.775391],[-2.030175,46.775318],[-2.028801,46.774921],[-2.027256,46.776758],[-2.026055,46.776949],[-2.02569,46.776787],[-2.024961,46.776787],[-2.024424,46.776567],[-2.024124,46.776067],[-2.018952,46.773804],[-2.018931,46.773525],[-2.018094,46.773202],[-2.01745,46.773143],[-2.016914,46.772952],[-2.016935,46.772658],[-2.016828,46.772467],[-2.016957,46.772129],[-2.016335,46.772173],[-2.015197,46.771379],[-2.015519,46.770644],[-2.015455,46.770439],[-2.015519,46.770262],[-2.016206,46.770086],[-2.016978,46.769498],[-2.01715,46.769101],[-2.017064,46.768337],[-2.018416,46.767176],[-2.018073,46.766412],[-2.018158,46.766029],[-2.016077,46.763766],[-2.014918,46.763266],[-2.013845,46.76309],[-2.013309,46.762708],[-2.012751,46.762061],[-2.012215,46.761782],[-2.011421,46.761782],[-2.011507,46.761458],[-2.011378,46.760473],[-2.011786,46.758151],[-2.012579,46.75596],[-2.014318,46.753741],[-2.015283,46.751962],[-2.016056,46.751138],[-2.013481,46.749315],[-2.015004,46.748639],[-2.015047,46.748257],[-2.015562,46.747933],[-2.016249,46.74683],[-2.011528,46.743007],[-2.010283,46.742743],[-2.008717,46.741081],[-2.008138,46.74089],[-2.007923,46.740478],[-2.006764,46.739566],[-2.005928,46.738699],[-2.005455,46.738596],[-2.004147,46.73814],[-1.997795,46.733537],[-1.99183,46.728669],[-1.986938,46.733846],[-1.987152,46.734287],[-1.986251,46.734125],[-1.986015,46.734331],[-1.985865,46.734802],[-1.984963,46.735669],[-1.983719,46.735155],[-1.983161,46.734625],[-1.982689,46.734169],[-1.982324,46.733155],[-1.981852,46.73239],[-1.981745,46.732066],[-1.981037,46.731949],[-1.979985,46.73136],[-1.979835,46.730507],[-1.977925,46.72886],[-1.975887,46.727257],[-1.975179,46.726433],[-1.974063,46.724815],[-1.969128,46.722476],[-1.968141,46.721829],[-1.968484,46.721491],[-1.969085,46.721138],[-1.969707,46.721035],[-1.970243,46.720814],[-1.970479,46.720505],[-1.970887,46.720402],[-1.971037,46.719784],[-1.972818,46.718475],[-1.974986,46.717519],[-1.975822,46.717269],[-1.976895,46.716636],[-1.97726,46.71618],[-1.977668,46.71593],[-1.97726,46.714694],[-1.977432,46.7144],[-1.977968,46.714429],[-1.978054,46.713753],[-1.978483,46.713164],[-1.978033,46.712649],[-1.978741,46.71237],[-1.979213,46.711958],[-1.979663,46.711605],[-1.98005,46.711693],[-1.980329,46.711354],[-1.980479,46.710869],[-1.980522,46.710177],[-1.980693,46.709736],[-1.97902,46.70775],[-1.978912,46.706778],[-1.979063,46.706146],[-1.979288,46.705925],[-1.979363,46.705351],[-1.979191,46.705189],[-1.979063,46.704866],[-1.979116,46.704726],[-1.978912,46.704395],[-1.978397,46.704145],[-1.978043,46.703652],[-1.978033,46.703468],[-1.976928,46.702533],[-1.975511,46.701422],[-1.975179,46.701076],[-1.974964,46.700937],[-1.974986,46.700583],[-1.974342,46.700304],[-1.973677,46.699509],[-1.972969,46.699215],[-1.972325,46.698214],[-1.97166,46.697773],[-1.97226,46.697522],[-1.971273,46.696787],[-1.970866,46.697022],[-1.970694,46.696492],[-1.97005,46.695874],[-1.9696,46.695668],[-1.969299,46.695315],[-1.969278,46.694976],[-1.968827,46.694903],[-1.968355,46.694358],[-1.968312,46.693931],[-1.968012,46.693696],[-1.967604,46.693681],[-1.967261,46.693328],[-1.966295,46.693093],[-1.966188,46.692563],[-1.965415,46.692298],[-1.965072,46.692489],[-1.964085,46.692504],[-1.9643,46.692842],[-1.964772,46.693254],[-1.962969,46.693299],[-1.96136,46.693313],[-1.960351,46.694285],[-1.959558,46.694505],[-1.95739,46.694756],[-1.95591,46.695079],[-1.954558,46.695565],[-1.952605,46.695256],[-1.952004,46.695889],[-1.949794,46.696816],[-1.94885,46.697596],[-1.947069,46.698199],[-1.945288,46.697802],[-1.944773,46.697596],[-1.944687,46.697213],[-1.943464,46.696595],[-1.942863,46.696168],[-1.940793,46.695425],[-1.940707,46.695543],[-1.939527,46.694998],[-1.939827,46.694778],[-1.939355,46.694711],[-1.937842,46.693902],[-1.937478,46.693946],[-1.937199,46.694373],[-1.936233,46.694182],[-1.935933,46.694402],[-1.935782,46.695094],[-1.935611,46.695595],[-1.935289,46.696051],[-1.934195,46.696242],[-1.933959,46.695256],[-1.934087,46.693578],[-1.933315,46.691783],[-1.93398,46.691577],[-1.933808,46.691047],[-1.932778,46.690532],[-1.932456,46.689501],[-1.932735,46.687956],[-1.932564,46.686749],[-1.932027,46.685924],[-1.930676,46.684511],[-1.929946,46.68351],[-1.929388,46.682715],[-1.927972,46.682097],[-1.927028,46.68117],[-1.926041,46.681759],[-1.925311,46.681022],[-1.923702,46.680492],[-1.922328,46.679226],[-1.921921,46.678476],[-1.920376,46.678093],[-1.918573,46.676989],[-1.914024,46.674721],[-1.912394,46.673779],[-1.911342,46.67344],[-1.909776,46.672616],[-1.907973,46.671423],[-1.90866,46.670996],[-1.908188,46.669642],[-1.908295,46.669038],[-1.909089,46.668302],[-1.909068,46.667816],[-1.910634,46.66733],[-1.911042,46.666873],[-1.911042,46.666373],[-1.910141,46.665504],[-1.908681,46.664223],[-1.907651,46.663766],[-1.907287,46.663207],[-1.906085,46.662367],[-1.906042,46.661543],[-1.905742,46.661278],[-1.906557,46.660026],[-1.906965,46.658214],[-1.907115,46.657522],[-1.90763,46.656697],[-1.906793,46.655166],[-1.9066,46.654164],[-1.9069,46.653413],[-1.907265,46.652883],[-1.906965,46.652235],[-1.906943,46.651587],[-1.906643,46.65116],[-1.905978,46.650659],[-1.904948,46.649716],[-1.903832,46.64842],[-1.902266,46.647595],[-1.900935,46.646858],[-1.900742,46.646534],[-1.89997,46.646092],[-1.899304,46.6454],[-1.899583,46.64456],[-1.89924,46.644384],[-1.897931,46.644487],[-1.895249,46.643367],[-1.894734,46.642734],[-1.894069,46.64073],[-1.89424,46.640052],[-1.894562,46.639846],[-1.894519,46.63936],[-1.894197,46.638741],[-1.892502,46.637739],[-1.891451,46.636104],[-1.890571,46.635205],[-1.889498,46.634793],[-1.88864,46.634292],[-1.887481,46.633938],[-1.887417,46.633467],[-1.886322,46.632759],[-1.885829,46.632671],[-1.885464,46.632185],[-1.884198,46.631522],[-1.883619,46.631595],[-1.88319,46.631492],[-1.882761,46.631669],[-1.882203,46.631551],[-1.882042,46.631352],[-1.881613,46.631374],[-1.880851,46.631161],[-1.880658,46.630682],[-1.879671,46.630255],[-1.879241,46.630004],[-1.87819,46.629886],[-1.87746,46.629488],[-1.877117,46.629135],[-1.876516,46.628648],[-1.876023,46.628973],[-1.875165,46.628472],[-1.874735,46.627956],[-1.874242,46.62716],[-1.873684,46.626733],[-1.873534,46.626143],[-1.873705,46.625701],[-1.873555,46.624935],[-1.873662,46.624419],[-1.873469,46.623668],[-1.873019,46.622828],[-1.872182,46.621649],[-1.872032,46.621221],[-1.872225,46.620956],[-1.872911,46.620558],[-1.871431,46.618465],[-1.871023,46.618333],[-1.871045,46.617876],[-1.870401,46.61733],[-1.870122,46.617271],[-1.869435,46.616726],[-1.868448,46.616417],[-1.866946,46.616136],[-1.866324,46.615974],[-1.865509,46.616078],[-1.864865,46.616004],[-1.864693,46.616136],[-1.863835,46.615665],[-1.863341,46.615974],[-1.862826,46.616033],[-1.862741,46.61565],[-1.861968,46.614294],[-1.861303,46.613852],[-1.860874,46.613808],[-1.860509,46.613012],[-1.859393,46.612525],[-1.859415,46.612304],[-1.859071,46.612172],[-1.858814,46.611906],[-1.857505,46.611626],[-1.856647,46.611656],[-1.856003,46.611213],[-1.856003,46.610992],[-1.854544,46.610698],[-1.854436,46.611022],[-1.852634,46.611287],[-1.849608,46.611258],[-1.848278,46.611066],[-1.84757,46.610757],[-1.845102,46.610285],[-1.843772,46.609813],[-1.842549,46.610535],[-1.841819,46.610152],[-1.841133,46.610152],[-1.841176,46.609002],[-1.841712,46.60887],[-1.842527,46.609032],[-1.842592,46.608413],[-1.842849,46.607985],[-1.842785,46.607705],[-1.843193,46.607027],[-1.843321,46.605966],[-1.843021,46.605479],[-1.843622,46.603769],[-1.844544,46.60371],[-1.844716,46.603474],[-1.845574,46.603548],[-1.846583,46.603238],[-1.846712,46.602693],[-1.847377,46.602428],[-1.847034,46.599715],[-1.84654,46.599125],[-1.84742,46.596545],[-1.848149,46.595601],[-1.848128,46.595085],[-1.8489,46.594569],[-1.848578,46.593684],[-1.848493,46.593198],[-1.848578,46.592903],[-1.84684,46.589497],[-1.847098,46.589054],[-1.847548,46.588966],[-1.847484,46.588464],[-1.846519,46.5864],[-1.847034,46.585604],[-1.846282,46.585087],[-1.845961,46.585382],[-1.846132,46.584675],[-1.845896,46.583716],[-1.846111,46.582772],[-1.844974,46.58199],[-1.843815,46.580958],[-1.843557,46.581754],[-1.842484,46.583052],[-1.841884,46.583185],[-1.841476,46.583568],[-1.840854,46.583834],[-1.839974,46.584734],[-1.840017,46.585087],[-1.839845,46.585323],[-1.83815,46.585176],[-1.837249,46.584734],[-1.837614,46.584335],[-1.837485,46.583893],[-1.837699,46.583598],[-1.837614,46.583141],[-1.837871,46.582654],[-1.837764,46.5823],[-1.837978,46.582035],[-1.837785,46.581754],[-1.837099,46.581607],[-1.837378,46.581091],[-1.836798,46.580707],[-1.834717,46.580073],[-1.833537,46.579454],[-1.832335,46.579114],[-1.831563,46.57851],[-1.831112,46.578347],[-1.832228,46.577669],[-1.833043,46.577463],[-1.833858,46.577094],[-1.834331,46.576607],[-1.834395,46.576047],[-1.834631,46.575988],[-1.834996,46.575294],[-1.833043,46.575811],[-1.832614,46.575604],[-1.8327,46.574498],[-1.832228,46.573923],[-1.832228,46.573554],[-1.831262,46.57227],[-1.830168,46.572123],[-1.829503,46.571798],[-1.829567,46.571017],[-1.829116,46.570943],[-1.828301,46.571105],[-1.8277,46.571341],[-1.827164,46.570604],[-1.82725,46.570235],[-1.827679,46.569999],[-1.828022,46.569187],[-1.82785,46.568229],[-1.828043,46.567904],[-1.828773,46.567343],[-1.829159,46.566798],[-1.829932,46.566444],[-1.830511,46.566326],[-1.830275,46.565898],[-1.828988,46.565765],[-1.827722,46.564954],[-1.826069,46.564998],[-1.824739,46.564629],[-1.823688,46.564732],[-1.822422,46.564629],[-1.821563,46.563906],[-1.821113,46.563345],[-1.820726,46.563109],[-1.821606,46.562682],[-1.822228,46.562062],[-1.823688,46.561693],[-1.823924,46.561236],[-1.824954,46.560837],[-1.825361,46.560336],[-1.825941,46.559465],[-1.825855,46.558978],[-1.82534,46.558137],[-1.824331,46.55765],[-1.823859,46.556883],[-1.822937,46.556249],[-1.822379,46.555186],[-1.822593,46.55439],[-1.822078,46.553917],[-1.822057,46.553298],[-1.820362,46.552353],[-1.820104,46.55197],[-1.819031,46.551468],[-1.818151,46.551763],[-1.817143,46.552766],[-1.816177,46.553593],[-1.816628,46.554168],[-1.816199,46.555083],[-1.815019,46.555909],[-1.813538,46.556352],[-1.812615,46.555836],[-1.811285,46.556485],[-1.810985,46.556367],[-1.808624,46.557724],[-1.80871,46.558624],[-1.809161,46.559096],[-1.809483,46.559923],[-1.809933,46.560454],[-1.810834,46.561265],[-1.810684,46.56159],[-1.810105,46.561767],[-1.809933,46.562416],[-1.809955,46.563449],[-1.810641,46.563582],[-1.812057,46.564334],[-1.811821,46.564909],[-1.811135,46.565485],[-1.809354,46.566429],[-1.809289,46.566827],[-1.809483,46.567196],[-1.808109,46.568214],[-1.809504,46.56932],[-1.808603,46.57081],[-1.808968,46.571076],[-1.810384,46.571459],[-1.810577,46.57112],[-1.811221,46.571356],[-1.81253,46.572536],[-1.813281,46.572079],[-1.813538,46.572197],[-1.813452,46.573303],[-1.812637,46.574291],[-1.811156,46.575619],[-1.810513,46.575722],[-1.810877,46.575929],[-1.810298,46.576858],[-1.809912,46.576991],[-1.809998,46.577389],[-1.807187,46.580929],[-1.806178,46.581754],[-1.805513,46.581548],[-1.803603,46.581445],[-1.801221,46.581032],[-1.800728,46.581607],[-1.79929,46.581223],[-1.798947,46.580811],[-1.797616,46.58053],[-1.796865,46.580221],[-1.796243,46.580191],[-1.795063,46.579616],[-1.794376,46.579601],[-1.793797,46.579837],[-1.792982,46.579749],[-1.79311,46.579085],[-1.792059,46.577669],[-1.791651,46.577168],[-1.79178,46.576386],[-1.791995,46.576061],[-1.791008,46.57528],[-1.7906,46.574631],[-1.791286,46.573672],[-1.791844,46.573244],[-1.791823,46.572816],[-1.792617,46.572802],[-1.793368,46.572698],[-1.794484,46.573052],[-1.79502,46.572934],[-1.795514,46.572993],[-1.795921,46.571872],[-1.796286,46.571503],[-1.796565,46.570515],[-1.797037,46.569851],[-1.798046,46.569217],[-1.798818,46.569453],[-1.799526,46.568597],[-1.799011,46.568302],[-1.796136,46.567653],[-1.796243,46.567343],[-1.796029,46.566768],[-1.795235,46.56668],[-1.795492,46.566281],[-1.795514,46.56429],[-1.795728,46.564083],[-1.795621,46.56249],[-1.793733,46.563213],[-1.793218,46.5628],[-1.792338,46.562401],[-1.791158,46.562165],[-1.7906,46.562136],[-1.790407,46.561752],[-1.789527,46.561324],[-1.789033,46.560483]]],"type":"MultiLineString"},"properties":{"geo_point":{"lon":-1.9601859850157797,"lat":46.70102836442924},"name":"GR8 De La Barre-de-Monts à L'Île-d'Olonne (Vendée) (2019)","code_gr":"GR8"}},{"type":"Feature","geometry":{"coordinates":[[[-1.129081,45.215103],[-1.129526,45.214907],[-1.130004,45.214372],[-1.130208,45.213577],[-1.129982,45.212899],[-1.129961,45.21237],[-1.130026,45.212053],[-1.130025,45.211479],[-1.130256,45.210929],[-1.130626,45.210432],[-1.130648,45.209954],[-1.130766,45.209431],[-1.131334,45.208302],[-1.131324,45.20803],[-1.131603,45.207515],[-1.131608,45.207283],[-1.131523,45.207211],[-1.131452,45.206692],[-1.132091,45.206111],[-1.131216,45.20322],[-1.131195,45.202967],[-1.130975,45.202212],[-1.130882,45.20205],[-1.130661,45.20136],[-1.13032,45.200538],[-1.130205,45.200278],[-1.128803,45.198619],[-1.128808,45.198457],[-1.129027,45.198205],[-1.12936,45.197928],[-1.129383,45.197676],[-1.129143,45.19719],[-1.128967,45.196456],[-1.128706,45.195655],[-1.128534,45.195451],[-1.128094,45.195099],[-1.128137,45.194987],[-1.128443,45.194618],[-1.128443,45.194618],[-1.12909,45.194245],[-1.128875,45.193095],[-1.129111,45.192748],[-1.130205,45.192475],[-1.131343,45.19237],[-1.131986,45.192233],[-1.133124,45.192475],[-1.133939,45.192203],[-1.134883,45.191341],[-1.135613,45.190041],[-1.135677,45.188952],[-1.136128,45.188045],[-1.13602,45.187485],[-1.135935,45.187183],[-1.135977,45.186653],[-1.136471,45.185973],[-1.137286,45.185474],[-1.137587,45.185111],[-1.137866,45.184415],[-1.13778,45.183341],[-1.137565,45.183008],[-1.136578,45.1826],[-1.136199,45.182534],[-1.135878,45.182433],[-1.135725,45.182276],[-1.135304,45.181492],[-1.134832,45.181442],[-1.134606,45.181244],[-1.133844,45.181022],[-1.133169,45.180576],[-1.132756,45.180375],[-1.132531,45.180161],[-1.131978,45.179984],[-1.131876,45.179854],[-1.131945,45.179551],[-1.131908,45.179207],[-1.132053,45.178829],[-1.132168,45.178794],[-1.132552,45.178562],[-1.13312,45.178321],[-1.133518,45.178062],[-1.133957,45.177997],[-1.134126,45.177883],[-1.134424,45.177341],[-1.132762,45.175163],[-1.132933,45.175133],[-1.133807,45.175148],[-1.134016,45.175064],[-1.13437,45.175015],[-1.135046,45.174724],[-1.135406,45.174347],[-1.135741,45.174161],[-1.136065,45.173946],[-1.136414,45.173851],[-1.136892,45.173141],[-1.137096,45.173145],[-1.137472,45.17292],[-1.137702,45.172615],[-1.137949,45.172516],[-1.13775,45.172363],[-1.137611,45.172081],[-1.137074,45.171741],[-1.136946,45.171367],[-1.136522,45.171028],[-1.136345,45.170782],[-1.136286,45.170619],[-1.135889,45.170342],[-1.13562,45.169929],[-1.135524,45.169573],[-1.135475,45.16927],[-1.135309,45.16885],[-1.135519,45.168148],[-1.135395,45.167914],[-1.135497,45.167621],[-1.135781,45.167362],[-1.136238,45.166573],[-1.136752,45.166346],[-1.137214,45.165974],[-1.138008,45.165596],[-1.138391,45.165608],[-1.138824,45.165586],[-1.139289,45.165433],[-1.139477,45.165132],[-1.140137,45.164982],[-1.140684,45.165039],[-1.142009,45.16436],[-1.142246,45.163929],[-1.142374,45.16338],[-1.142868,45.162567],[-1.14393,45.161289],[-1.145647,45.160866],[-1.146559,45.16048],[-1.147095,45.160042],[-1.147567,45.159395],[-1.147545,45.158375],[-1.147915,45.157765],[-1.147899,45.157275],[-1.147438,45.156841],[-1.146735,45.156402],[-1.145668,45.155814],[-1.145561,45.155579],[-1.145732,45.154678],[-1.146038,45.154079],[-1.145979,45.153867],[-1.145748,45.153642],[-1.145703,45.153404],[-1.145797,45.153203],[-1.146338,45.152878],[-1.147323,45.151966],[-1.148227,45.151039],[-1.148227,45.151039],[-1.148895,45.150648],[-1.149088,45.150285],[-1.14868,45.149665],[-1.14838,45.148333],[-1.147994,45.147833],[-1.147436,45.147576],[-1.147114,45.147243],[-1.1472,45.146835],[-1.149024,45.145246],[-1.148916,45.144958],[-1.147929,45.143354],[-1.147371,45.142779],[-1.147779,45.142052],[-1.147672,45.141659],[-1.14705,45.141401],[-1.146213,45.141371],[-1.144711,45.141492],[-1.143831,45.141462],[-1.143402,45.14122],[-1.142887,45.141083],[-1.142804,45.140667],[-1.142642,45.140099],[-1.142696,45.13982],[-1.142621,45.139083],[-1.142782,45.138763],[-1.142825,45.138506],[-1.143061,45.13792],[-1.14363,45.137189],[-1.143651,45.137005],[-1.14357,45.136452],[-1.143587,45.13607],[-1.143262,45.135583],[-1.143002,45.13536],[-1.142729,45.135188],[-1.14201,45.134589],[-1.141731,45.134069],[-1.141613,45.13361],[-1.141372,45.132977],[-1.141165,45.13257],[-1.141103,45.132185],[-1.140543,45.131108],[-1.140229,45.130378],[-1.140138,45.129398],[-1.14043,45.127882],[-1.140517,45.127245],[-1.140636,45.12677],[-1.140701,45.126143],[-1.140835,45.125701],[-1.140915,45.12518],[-1.141215,45.123887],[-1.141245,45.123639],[-1.141425,45.122968],[-1.141634,45.122581],[-1.1418,45.121899],[-1.142232,45.121534],[-1.143126,45.120634],[-1.143686,45.119997],[-1.14385,45.119762],[-1.144289,45.119294],[-1.144778,45.119232],[-1.145051,45.119064],[-1.145142,45.11889],[-1.145067,45.118553],[-1.145067,45.118553],[-1.145676,45.118179],[-1.14662,45.118027],[-1.147886,45.117997],[-1.14823,45.1178],[-1.148144,45.117255],[-1.147972,45.116862],[-1.148273,45.116513],[-1.148058,45.114787],[-1.147608,45.112834],[-1.148788,45.112576],[-1.149217,45.11241],[-1.150504,45.11247],[-1.150504,45.11247],[-1.150504,45.11247],[-1.15074,45.112198],[-1.150818,45.111989],[-1.150861,45.111725],[-1.150689,45.11137],[-1.150592,45.111089],[-1.150313,45.110759],[-1.150335,45.110619],[-1.156365,45.112248],[-1.15702,45.107453],[-1.157684,45.107468],[-1.158156,45.107803],[-1.159273,45.108704],[-1.161107,45.109257],[-1.163789,45.109158],[-1.164991,45.109074],[-1.169808,45.110347],[-1.170795,45.110481],[-1.169582,45.109309],[-1.169143,45.108703],[-1.169089,45.108363],[-1.169229,45.108007],[-1.170345,45.106485],[-1.170419,45.105184],[-1.170194,45.104727],[-1.1694,45.103782],[-1.169239,45.103282],[-1.169143,45.10183],[-1.169239,45.10153],[-1.170376,45.100034],[-1.170774,45.099232],[-1.171738,45.09949],[-1.172557,45.099751],[-1.173054,45.099869],[-1.173359,45.09961],[-1.173973,45.099379],[-1.174051,45.099259],[-1.173949,45.098946],[-1.174014,45.098846],[-1.174478,45.098795],[-1.174909,45.098819],[-1.175591,45.09869],[-1.175704,45.098583],[-1.175773,45.098305],[-1.176006,45.098108],[-1.176068,45.097935],[-1.175821,45.09734],[-1.176041,45.097061],[-1.17603,45.096957],[-1.175687,45.096665],[-1.175685,45.096536],[-1.175757,45.096302],[-1.17537,45.095573],[-1.175363,45.095406],[-1.175796,45.094052],[-1.175918,45.093792],[-1.176466,45.093174],[-1.176846,45.092232],[-1.176942,45.09172],[-1.177063,45.091415],[-1.177441,45.0908],[-1.177779,45.090042],[-1.177785,45.089682],[-1.177866,45.088978],[-1.178306,45.088292],[-1.178772,45.088001],[-1.178928,45.087619],[-1.179357,45.087299],[-1.18176,45.086899],[-1.182157,45.086807],[-1.183369,45.086583],[-1.184002,45.08606],[-1.184388,45.086151],[-1.18663,45.086792],[-1.187382,45.086739],[-1.187811,45.086559],[-1.18795,45.085392],[-1.187607,45.084816],[-1.188122,45.084531],[-1.188862,45.084499],[-1.189002,45.083355],[-1.189238,45.083233],[-1.190043,45.083035],[-1.1903,45.082709],[-1.190343,45.081996],[-1.189549,45.081425],[-1.188422,45.081096],[-1.18854,45.080006],[-1.189618,45.080086],[-1.19074,45.079925],[-1.191362,45.079612],[-1.191223,45.077724],[-1.191019,45.076444],[-1.190868,45.076004],[-1.190407,45.07584],[-1.189377,45.07521],[-1.189286,45.075009],[-1.189323,45.073597],[-1.190172,45.072792],[-1.190128,45.072551],[-1.189871,45.072059],[-1.189785,45.071729],[-1.189914,45.070862],[-1.190203,45.070534],[-1.190719,45.069294],[-1.190643,45.068268],[-1.190772,45.067767],[-1.191405,45.067051],[-1.191384,45.06674],[-1.191233,45.065767],[-1.191255,45.065231],[-1.191738,45.064602],[-1.191845,45.062942],[-1.192038,45.061191],[-1.192027,45.060698],[-1.191705,45.059555],[-1.192263,45.058419],[-1.19221,45.057926],[-1.191952,45.057608],[-1.191062,45.056827],[-1.191115,45.055431],[-1.190922,45.054111],[-1.19089,45.052839],[-1.191716,45.049831],[-1.191791,45.049416],[-1.189689,45.047261],[-1.189828,45.046131],[-1.190128,45.045875],[-1.191265,45.045215],[-1.191856,45.044758],[-1.192221,45.043773],[-1.191223,45.041592],[-1.191856,45.039242],[-1.19148,45.038772],[-1.191008,45.038643],[-1.189292,45.03717],[-1.188664,45.036777],[-1.188415,45.036709],[-1.187999,45.036797],[-1.187551,45.03698],[-1.18701,45.037246],[-1.186094,45.037663],[-1.186899,45.036794],[-1.18809,45.034281],[-1.188605,45.032935],[-1.188529,45.031987],[-1.188659,45.029807],[-1.188819,45.028866],[-1.18633,45.025041],[-1.185922,45.024212],[-1.186137,45.023054],[-1.186051,45.019829],[-1.185923,45.019115],[-1.18618,45.016689],[-1.186523,45.015808],[-1.187564,45.013981],[-1.188369,45.012959],[-1.190107,45.011509],[-1.191254,45.010131],[-1.191483,45.010066],[-1.191539,45.009865],[-1.192081,45.009143],[-1.193293,45.008195],[-1.193969,45.007534],[-1.194152,45.007203],[-1.193197,45.006708],[-1.192811,45.006756],[-1.191459,45.00648],[-1.190863,45.006242],[-1.190032,45.005616],[-1.189131,45.004016],[-1.188605,45.003523],[-1.188122,45.003273],[-1.187447,45.00303],[-1.186974,45.002701],[-1.185536,45.002651],[-1.184496,45.002731],[-1.183412,45.002991],[-1.182468,45.003429],[-1.181942,45.003151],[-1.181438,45.002918],[-1.180966,45.002178],[-1.179292,44.999283],[-1.17882,44.99794],[-1.178922,44.997675],[-1.179539,44.996772],[-1.180655,44.995266],[-1.18103,44.994943],[-1.18249,44.994205],[-1.1828,44.993995],[-1.183048,44.993236],[-1.183026,44.9925],[-1.182564,44.990669],[-1.181459,44.989734],[-1.179979,44.988037],[-1.178992,44.986545],[-1.178209,44.985564],[-1.176771,44.984463],[-1.176621,44.984448],[-1.174808,44.985313],[-1.174132,44.985421],[-1.173487,44.985154],[-1.172147,44.984303],[-1.171761,44.984177],[-1.165785,44.98381],[-1.164519,44.983735],[-1.163896,44.983865],[-1.162115,44.985031],[-1.161563,44.985111],[-1.160892,44.985047],[-1.160356,44.984879],[-1.159122,44.984008],[-1.158221,44.983741],[-1.157158,44.983658],[-1.156365,44.983425],[-1.155774,44.983514],[-1.154595,44.984177],[-1.155389,44.983318],[-1.156064,44.982635],[-1.157545,44.981746],[-1.158521,44.9812],[-1.161311,44.980084],[-1.162469,44.979454],[-1.16322,44.978892],[-1.163971,44.978018],[-1.164336,44.977661],[-1.165366,44.977049],[-1.165178,44.97668],[-1.164196,44.976303],[-1.163768,44.97609],[-1.163467,44.976079],[-1.162823,44.975689],[-1.162598,44.975326],[-1.162576,44.973937],[-1.162727,44.973357],[-1.162791,44.972596],[-1.163091,44.971879],[-1.163113,44.971569],[-1.162126,44.970184],[-1.162105,44.970096],[-1.161311,44.968488],[-1.160495,44.966159],[-1.159701,44.965503],[-1.159345,44.965054],[-1.15873,44.964088],[-1.15857,44.963974],[-1.158183,44.963764],[-1.157614,44.9636],[-1.156694,44.963457],[-1.156166,44.96333],[-1.155823,44.963056],[-1.155367,44.962794],[-1.154944,44.962417],[-1.154702,44.962331],[-1.154219,44.962074],[-1.153301,44.96191],[-1.152942,44.961723],[-1.152696,44.96142],[-1.150711,44.960595],[-1.14752,44.960232],[-1.14389,44.959671],[-1.141944,44.959004],[-1.1406,44.9585],[-1.139922,44.958359],[-1.137761,44.958208],[-1.137448,44.958352],[-1.137017,44.95817],[-1.13506,44.957943],[-1.13442,44.957928],[-1.133626,44.958152],[-1.133601,44.957621],[-1.133704,44.957105],[-1.134064,44.956507],[-1.13413,44.956004],[-1.133971,44.955469],[-1.133634,44.95496],[-1.13197,44.954281],[-1.128844,44.952719],[-1.12813,44.952696],[-1.127148,44.95223],[-1.126837,44.952114],[-1.12646,44.951868],[-1.126324,44.951665],[-1.126605,44.951657],[-1.127457,44.95175],[-1.128114,44.951668],[-1.129521,44.951028],[-1.130841,44.950699],[-1.131656,44.950348],[-1.132107,44.949946],[-1.132292,44.949707],[-1.132386,44.94933],[-1.1317,44.948649],[-1.13153,44.948317],[-1.131561,44.948137],[-1.131704,44.948006],[-1.131925,44.947227],[-1.13204,44.947201],[-1.132213,44.94677],[-1.132122,44.945083],[-1.132225,44.944854],[-1.132756,44.944656],[-1.133973,44.944611],[-1.134413,44.944454],[-1.134745,44.944275],[-1.134572,44.944054],[-1.134121,44.943582],[-1.134065,44.943383],[-1.134251,44.943261],[-1.133911,44.942777],[-1.133722,44.94237],[-1.133633,44.942102],[-1.133343,44.941585],[-1.133327,44.94103],[-1.133444,44.940921],[-1.133684,44.940892],[-1.133991,44.940983],[-1.134529,44.941032],[-1.135085,44.940917],[-1.135379,44.940674],[-1.135404,44.940507],[-1.1353,44.940303],[-1.135348,44.940025],[-1.134948,44.939136],[-1.133523,44.937855],[-1.13335,44.937398],[-1.132887,44.93682],[-1.132445,44.936081],[-1.131807,44.935898],[-1.130901,44.935472],[-1.130633,44.935257],[-1.130616,44.934528],[-1.130673,44.934363],[-1.130671,44.934141],[-1.130774,44.933826],[-1.130664,44.933437],[-1.13076,44.933022],[-1.131488,44.931955],[-1.131873,44.931449],[-1.131898,44.931215],[-1.132024,44.930938],[-1.132117,44.930458],[-1.132436,44.930095],[-1.132413,44.929764],[-1.132326,44.929554],[-1.131802,44.92923],[-1.130802,44.928863],[-1.128824,44.927498],[-1.128009,44.926746],[-1.127944,44.926513],[-1.128042,44.925808],[-1.127789,44.925453],[-1.127048,44.92516],[-1.124019,44.924564],[-1.123142,44.924198],[-1.122705,44.923925],[-1.122492,44.923645],[-1.122423,44.923282],[-1.122714,44.922855],[-1.121548,44.92292],[-1.121201,44.920887],[-1.121239,44.920039],[-1.121512,44.919471],[-1.122105,44.918704],[-1.122612,44.917983],[-1.12954,44.908829],[-1.129813,44.90824],[-1.129849,44.907635],[-1.129304,44.905482],[-1.128802,44.903282],[-1.12973,44.90313],[-1.133912,44.903072],[-1.133988,44.90292],[-1.134391,44.902691],[-1.135513,44.902263],[-1.136409,44.901733],[-1.138566,44.901343],[-1.140724,44.901005],[-1.141218,44.900722],[-1.141459,44.900185],[-1.141707,44.899902],[-1.142121,44.899707],[-1.142643,44.899543],[-1.147236,44.897299],[-1.147796,44.897053],[-1.149136,44.896206],[-1.15135,44.895611],[-1.151877,44.895409],[-1.152018,44.895306],[-1.15207,44.89495],[-1.152127,44.894829],[-1.152127,44.894829],[-1.149292,44.89315],[-1.148498,44.893272],[-1.147854,44.893028],[-1.147575,44.892588],[-1.147575,44.892329],[-1.147339,44.891964],[-1.147017,44.891812],[-1.151202,44.88862],[-1.151953,44.887647],[-1.152403,44.887404],[-1.153047,44.886796],[-1.153884,44.886431],[-1.153884,44.886431],[-1.154237,44.886143],[-1.154227,44.885975],[-1.153868,44.885689],[-1.153471,44.885421],[-1.153351,44.885262],[-1.152963,44.884381],[-1.152685,44.884105],[-1.152576,44.883626],[-1.152241,44.88276],[-1.1518,44.881898],[-1.148183,44.874323],[-1.148543,44.872864],[-1.150457,44.870933],[-1.16095,44.865528],[-1.160295,44.862499],[-1.159162,44.862068],[-1.158647,44.861644],[-1.157982,44.860673],[-1.157458,44.859542],[-1.156985,44.859149],[-1.156814,44.858928],[-1.156691,44.858433],[-1.156692,44.858025],[-1.157243,44.857176],[-1.157483,44.856715],[-1.158134,44.855655],[-1.158267,44.855293],[-1.158271,44.854916],[-1.158182,44.854263],[-1.158486,44.853584],[-1.158521,44.853282],[-1.158438,44.852432],[-1.15864,44.851628],[-1.158564,44.851157],[-1.158321,44.850693],[-1.157919,44.850353],[-1.157277,44.849705],[-1.157073,44.849365],[-1.157074,44.848491],[-1.156836,44.848013],[-1.155998,44.845969],[-1.155114,44.843598],[-1.154949,44.842694],[-1.154721,44.842406],[-1.154681,44.842232],[-1.153957,44.840978],[-1.153488,44.840502],[-1.15319,44.840497],[-1.153047,44.840443],[-1.15457,44.839787],[-1.15605,44.839371],[-1.156056,44.838669],[-1.155929,44.838073],[-1.155719,44.837497],[-1.155744,44.837086],[-1.155651,44.836287],[-1.155587,44.836059],[-1.155778,44.834365],[-1.15568,44.83337],[-1.155676,44.83228],[-1.155739,44.832012],[-1.155775,44.831497],[-1.15597,44.831123],[-1.155825,44.830399],[-1.155531,44.830043],[-1.155465,44.829672],[-1.155556,44.829257],[-1.155905,44.828574],[-1.156168,44.828194],[-1.156367,44.827852],[-1.156753,44.827275],[-1.156694,44.826648],[-1.156758,44.826239],[-1.156965,44.825734],[-1.157408,44.824894],[-1.157422,44.824264],[-1.1575,44.823649],[-1.157503,44.823133],[-1.15756,44.822891],[-1.157872,44.822086],[-1.15795,44.821582],[-1.158043,44.821307],[-1.157964,44.821054],[-1.158259,44.820289],[-1.158339,44.819874],[-1.158567,44.819464],[-1.158581,44.819267],[-1.158401,44.818707],[-1.15847,44.818458],[-1.158775,44.818027],[-1.158991,44.816787],[-1.158971,44.815711],[-1.158852,44.814705],[-1.161632,44.80814],[-1.160231,44.80751],[-1.15961,44.807257],[-1.159398,44.80711],[-1.159544,44.80702],[-1.159432,44.806809],[-1.159158,44.806644],[-1.158993,44.80598],[-1.159116,44.805419],[-1.159154,44.805083],[-1.159283,44.804637],[-1.15941,44.802837],[-1.159643,44.801881],[-1.159704,44.801313],[-1.159562,44.801018],[-1.159554,44.800549],[-1.160193,44.799903],[-1.160165,44.799571],[-1.159684,44.799099],[-1.159743,44.798746],[-1.159944,44.798326],[-1.16036,44.798119],[-1.160486,44.797684],[-1.160226,44.797005],[-1.160365,44.796443],[-1.160504,44.796276],[-1.160545,44.795791],[-1.160883,44.795055],[-1.16064,44.794239],[-1.16079,44.793598],[-1.160942,44.792995],[-1.161063,44.792102],[-1.16134,44.790901],[-1.16135,44.78997],[-1.161996,44.789945],[-1.16277,44.789799],[-1.165656,44.791211],[-1.166344,44.791388],[-1.167784,44.791504],[-1.168027,44.791377],[-1.168345,44.791592],[-1.169428,44.79213],[-1.171047,44.787959],[-1.172918,44.787826],[-1.174272,44.787814],[-1.176902,44.78801],[-1.180548,44.788185],[-1.184032,44.788254],[-1.185909,44.788235],[-1.187367,44.788285],[-1.189428,44.787975],[-1.190528,44.787452],[-1.191838,44.787094],[-1.19239,44.786764],[-1.193104,44.786129],[-1.197217,44.783981],[-1.198597,44.78378],[-1.200094,44.78386],[-1.201087,44.783699],[-1.202036,44.783371],[-1.202934,44.782944],[-1.203994,44.781963],[-1.204233,44.781512],[-1.204465,44.780388],[-1.20404,44.779027],[-1.204001,44.778588],[-1.204186,44.778145],[-1.204931,44.777512],[-1.208632,44.776256],[-1.209135,44.776189],[-1.209382,44.776042],[-1.20966,44.776066],[-1.210195,44.775934],[-1.210599,44.775792],[-1.210934,44.775582],[-1.21113,44.775211],[-1.211198,44.774819],[-1.211523,44.774311],[-1.21187,44.773933],[-1.212104,44.773102],[-1.212116,44.772696],[-1.212052,44.772335],[-1.212189,44.77153],[-1.212366,44.770699],[-1.212302,44.77039],[-1.212063,44.769894],[-1.212002,44.769563],[-1.212121,44.769275],[-1.212558,44.769039],[-1.21289,44.768947],[-1.21305,44.768879],[-1.213381,44.768505],[-1.213695,44.768301],[-1.213795,44.76812],[-1.213377,44.76717],[-1.214745,44.767162],[-1.21543,44.766773],[-1.215715,44.7662],[-1.216037,44.765818],[-1.216692,44.765454],[-1.217025,44.76535],[-1.217733,44.764931],[-1.218333,44.764717],[-1.219272,44.764096],[-1.219652,44.763886],[-1.220158,44.76375],[-1.221028,44.76347],[-1.22131,44.763313],[-1.222145,44.763145],[-1.222547,44.762997],[-1.222724,44.762865],[-1.224226,44.762337],[-1.224977,44.762238],[-1.225654,44.762092],[-1.226198,44.761863],[-1.226799,44.761764],[-1.226891,44.760811],[-1.227888,44.760067],[-1.22817,44.759624],[-1.228321,44.75864],[-1.228789,44.752978],[-1.22916,44.75029],[-1.228364,44.748832],[-1.227634,44.74799],[-1.226947,44.747475],[-1.226583,44.746769],[-1.226871,44.746212],[-1.227416,44.746021],[-1.227887,44.745346],[-1.228289,44.739898],[-1.228347,44.738665],[-1.228491,44.738095],[-1.229254,44.736988],[-1.22938,44.733669],[-1.230247,44.731021],[-1.23103,44.729729],[-1.231716,44.728878],[-1.232044,44.728123],[-1.232554,44.728068],[-1.23295,44.728092],[-1.23347,44.72807],[-1.233928,44.727886],[-1.234229,44.727553],[-1.234198,44.727182],[-1.234378,44.726597],[-1.234789,44.726017],[-1.234985,44.72559],[-1.235387,44.725019],[-1.235574,44.724707],[-1.236313,44.724251],[-1.236483,44.724082],[-1.236849,44.723243],[-1.237224,44.723034],[-1.238233,44.722931],[-1.238824,44.722763],[-1.239945,44.722008],[-1.240871,44.721015],[-1.241318,44.720716],[-1.241841,44.720158],[-1.241679,44.71915],[-1.241831,44.718189],[-1.242334,44.717442],[-1.242714,44.717243],[-1.242645,44.716858],[-1.243126,44.716507],[-1.24364,44.715881],[-1.243302,44.715068],[-1.24293,44.714676],[-1.242337,44.714319],[-1.241893,44.713886],[-1.241768,44.713489],[-1.241872,44.71318],[-1.242595,44.712432],[-1.242901,44.711869],[-1.24388,44.711208],[-1.24393,44.710884],[-1.243599,44.710361],[-1.2438,44.709865],[-1.24453,44.70961],[-1.245076,44.709514],[-1.245352,44.709232],[-1.244901,44.705021],[-1.24547,44.702225],[-1.245875,44.699944],[-1.246161,44.698761],[-1.245675,44.697152],[-1.246711,44.695236],[-1.247392,44.694603],[-1.247356,44.693645],[-1.247185,44.693173],[-1.24669,44.691166],[-1.246487,44.690853],[-1.244287,44.688939],[-1.244288,44.688591],[-1.244481,44.688167],[-1.245489,44.686985],[-1.245479,44.686359],[-1.246819,44.686214],[-1.247812,44.685787],[-1.248075,44.685574],[-1.248236,44.684665],[-1.248279,44.683086],[-1.248461,44.68201],[-1.248364,44.681522],[-1.248129,44.676972],[-1.248429,44.675441],[-1.249073,44.671215],[-1.246647,44.66444],[-1.246831,44.662243],[-1.247205,44.66187],[-1.249062,44.659481],[-1.246476,44.659458],[-1.246423,44.658886],[-1.245167,44.658863],[-1.241938,44.656498],[-1.239288,44.656651]]],"type":"MultiLineString"},"properties":{"geo_point":{"lon":-1.1725692328996415,"lat":44.941809386561495},"name":"GR8 De Contaud à Bélisaire (Gironde) (2019)","code_gr":"GR8"}},{"type":"Feature","geometry":{"coordinates":[[[-1.789076,46.560483],[-1.789248,46.559967],[-1.789656,46.559657],[-1.789527,46.559229],[-1.788969,46.558609],[-1.790986,46.556957],[-1.79148,46.556913],[-1.79208,46.556411],[-1.792059,46.556086],[-1.79178,46.555791],[-1.791952,46.555555],[-1.791565,46.555172],[-1.790836,46.554803],[-1.791158,46.554508],[-1.788497,46.552899],[-1.788905,46.552397],[-1.788819,46.55135],[-1.787982,46.548074],[-1.788068,46.547351],[-1.788647,46.546539],[-1.795964,46.54313],[-1.79723,46.542613],[-1.801736,46.540296],[-1.802187,46.540163],[-1.803195,46.539396],[-1.804161,46.538052],[-1.804805,46.536266],[-1.806371,46.534348],[-1.805899,46.53417],[-1.808968,46.53017],[-1.808689,46.528989],[-1.808023,46.528856],[-1.807702,46.528458],[-1.807616,46.528088],[-1.806843,46.527985],[-1.806629,46.527897],[-1.806049,46.527911],[-1.806865,46.526745],[-1.806843,46.525785],[-1.807036,46.525121],[-1.807745,46.525018],[-1.807616,46.524368],[-1.810019,46.524206],[-1.810834,46.524324],[-1.813066,46.525461],[-1.814525,46.525712],[-1.817572,46.525697],[-1.820834,46.526494],[-1.820619,46.525992],[-1.819997,46.524929],[-1.819696,46.522685],[-1.81989,46.521962],[-1.819739,46.521179],[-1.81946,46.520913],[-1.819289,46.520278],[-1.818752,46.519437],[-1.818302,46.518167],[-1.818345,46.517133],[-1.818581,46.516528],[-1.818366,46.514682],[-1.818323,46.513457],[-1.817572,46.512674],[-1.817508,46.511537],[-1.818602,46.510237],[-1.817937,46.50882],[-1.817336,46.508037],[-1.816885,46.506028],[-1.81474,46.504182],[-1.813774,46.503547],[-1.814332,46.503444],[-1.814396,46.502853],[-1.814182,46.50241],[-1.814568,46.501893],[-1.814761,46.500372],[-1.815062,46.500253],[-1.815083,46.499855],[-1.814568,46.498333],[-1.814032,46.496753],[-1.813302,46.496767],[-1.812959,46.495689],[-1.811564,46.494094],[-1.809418,46.492469],[-1.809568,46.492218],[-1.808689,46.491996],[-1.807916,46.492144],[-1.807101,46.49204],[-1.806135,46.491213],[-1.805491,46.490932],[-1.80517,46.49043],[-1.804912,46.490415],[-1.804161,46.489514],[-1.802466,46.489204],[-1.801543,46.489396],[-1.800964,46.48916],[-1.799376,46.489041],[-1.798539,46.489455],[-1.79781,46.489559],[-1.797037,46.489293],[-1.796222,46.489485],[-1.795728,46.490253],[-1.794763,46.490873],[-1.795342,46.491952],[-1.794913,46.492676],[-1.796157,46.495216],[-1.796415,46.496945],[-1.79487,46.496132],[-1.795192,46.495807],[-1.793604,46.492661],[-1.79208,46.493828],[-1.789999,46.494581],[-1.784055,46.49467],[-1.783926,46.49467],[-1.783926,46.49467],[-1.780837,46.494138],[-1.77721,46.492897],[-1.774592,46.491036],[-1.769979,46.489086],[-1.769872,46.488643],[-1.769507,46.488465],[-1.769292,46.488096],[-1.769056,46.487919],[-1.768949,46.487579],[-1.768477,46.487475],[-1.768434,46.487165],[-1.768134,46.487121],[-1.767704,46.486722],[-1.767726,46.486412],[-1.767147,46.486397],[-1.764657,46.483856],[-1.761417,46.481167],[-1.76116,46.480605],[-1.760817,46.48028],[-1.760173,46.47864],[-1.760302,46.47833],[-1.759679,46.477635],[-1.759422,46.477532],[-1.757984,46.476704],[-1.757705,46.476128],[-1.756825,46.475389],[-1.756546,46.475419],[-1.755624,46.47499],[-1.755431,46.474739],[-1.754959,46.474621],[-1.754293,46.474783],[-1.753521,46.474606],[-1.753092,46.474325],[-1.751761,46.474266],[-1.750968,46.473793],[-1.750495,46.473704],[-1.750238,46.473734],[-1.749873,46.473438],[-1.748972,46.473276],[-1.748199,46.473409],[-1.747534,46.473025],[-1.747363,46.47264],[-1.746118,46.471975],[-1.745989,46.471783],[-1.74541,46.471429],[-1.744938,46.471355],[-1.74408,46.470838],[-1.743865,46.470601],[-1.743007,46.470276],[-1.742041,46.469611],[-1.741805,46.469108],[-1.741183,46.468606],[-1.740303,46.468355],[-1.740003,46.468118],[-1.739402,46.468266],[-1.738565,46.468148],[-1.737599,46.468384],[-1.736999,46.468074],[-1.736913,46.467483],[-1.735239,46.466566],[-1.734273,46.466389],[-1.734209,46.466167],[-1.732771,46.465931],[-1.732192,46.465709],[-1.731527,46.465872],[-1.730475,46.467719],[-1.72951,46.46766],[-1.727471,46.467084],[-1.726162,46.466079],[-1.724832,46.465414],[-1.725368,46.46463],[-1.725347,46.464246],[-1.724532,46.463891],[-1.72333,46.463773],[-1.723738,46.463093],[-1.724167,46.46299],[-1.72451,46.462561],[-1.724682,46.461999],[-1.725047,46.461541],[-1.725004,46.461231],[-1.725454,46.461068],[-1.725991,46.461009],[-1.725197,46.46058],[-1.725068,46.459974],[-1.725004,46.459368],[-1.723137,46.45854],[-1.722836,46.458186],[-1.721528,46.458023],[-1.721613,46.4586],[-1.721292,46.459102],[-1.720326,46.459294],[-1.719511,46.459383],[-1.719317,46.459782],[-1.71803,46.460994],[-1.716914,46.460344],[-1.716228,46.459826],[-1.715326,46.459427],[-1.714811,46.459102],[-1.713953,46.45888],[-1.713674,46.458363],[-1.713867,46.45823],[-1.713073,46.457269],[-1.712751,46.457107],[-1.712279,46.456412],[-1.712108,46.455717],[-1.711829,46.454963],[-1.712215,46.454239],[-1.711764,46.454283],[-1.711528,46.453988],[-1.711185,46.453884],[-1.710906,46.453958],[-1.710413,46.453574],[-1.710563,46.453337],[-1.71037,46.453071],[-1.710927,46.45242],[-1.710756,46.451874],[-1.710863,46.451667],[-1.710305,46.451208],[-1.70979,46.451208],[-1.709254,46.451046],[-1.708803,46.451031],[-1.70758,46.451046],[-1.706314,46.450499],[-1.706057,46.450203],[-1.706228,46.450026],[-1.705263,46.449745],[-1.705112,46.449301],[-1.704555,46.449005],[-1.702988,46.448739],[-1.702366,46.448325],[-1.701701,46.448325],[-1.70095,46.447882],[-1.700456,46.447926],[-1.698868,46.447527],[-1.698482,46.447216],[-1.697924,46.447246],[-1.697366,46.447645],[-1.696358,46.447335],[-1.695414,46.446581],[-1.694577,46.44559],[-1.694663,46.44528],[-1.694362,46.445087],[-1.694019,46.445043],[-1.69374,46.444866],[-1.693332,46.444895],[-1.693182,46.444718],[-1.692109,46.444407],[-1.691658,46.443845],[-1.690092,46.443402],[-1.689641,46.443047],[-1.688933,46.442751],[-1.688032,46.442899],[-1.68668,46.443077],[-1.686358,46.442944],[-1.685951,46.443003],[-1.685178,46.442293],[-1.68447,46.44216],[-1.682947,46.44216],[-1.682754,46.441849],[-1.68226,46.441701],[-1.680651,46.441539],[-1.680179,46.441287],[-1.677861,46.441273],[-1.677282,46.441273],[-1.676123,46.440785],[-1.674235,46.439617],[-1.67417,46.439099],[-1.67387,46.439025],[-1.673527,46.439129],[-1.673183,46.43901],[-1.673162,46.438833],[-1.67269,46.438581],[-1.672068,46.438079],[-1.67093,46.438227],[-1.669879,46.438049],[-1.668763,46.437975],[-1.667647,46.438212],[-1.665201,46.436881],[-1.664042,46.436038],[-1.663077,46.434958],[-1.662562,46.434929],[-1.660695,46.43447],[-1.660137,46.434574],[-1.660159,46.435254],[-1.658506,46.435609],[-1.658592,46.436112],[-1.658528,46.437206],[-1.659794,46.438581],[-1.662347,46.439971],[-1.660266,46.44043],[-1.659751,46.440356],[-1.659086,46.440178],[-1.655674,46.44006],[-1.652606,46.440326],[-1.652348,46.440977],[-1.651661,46.441598],[-1.651146,46.442249],[-1.650653,46.442589],[-1.650202,46.442603],[-1.648808,46.443062],[-1.648099,46.443091],[-1.648657,46.445087],[-1.64855,46.446522],[-1.648207,46.446669],[-1.647134,46.445915],[-1.646276,46.445871],[-1.645567,46.446004],[-1.644731,46.446063],[-1.644387,46.44627],[-1.644495,46.446743],[-1.641834,46.446714],[-1.641641,46.446936],[-1.635654,46.448207],[-1.6325,46.447335],[-1.632392,46.445501],[-1.631727,46.445427],[-1.630654,46.444481],[-1.629667,46.444052],[-1.629624,46.442796],[-1.629303,46.4425],[-1.629367,46.441997],[-1.629109,46.441716],[-1.628036,46.441494],[-1.627393,46.442071],[-1.626105,46.441968],[-1.625226,46.441746],[-1.624818,46.441628],[-1.623487,46.441761],[-1.621835,46.441406],[-1.620033,46.440859],[-1.615462,46.441657],[-1.614883,46.441598],[-1.613381,46.441184],[-1.61248,46.441287],[-1.611965,46.441879],[-1.611385,46.441938],[-1.609046,46.441628],[-1.606665,46.441923],[-1.605055,46.44148],[-1.604369,46.441051],[-1.603596,46.440977],[-1.602244,46.440992],[-1.602094,46.440622],[-1.602051,46.439203],[-1.60351,46.43799],[-1.603897,46.437428],[-1.603725,46.437191],[-1.60291,46.437206],[-1.603017,46.435609],[-1.601729,46.434899],[-1.601579,46.434589],[-1.60042,46.434456],[-1.599348,46.434101],[-1.598554,46.433938],[-1.597631,46.433657],[-1.59703,46.433583],[-1.5957,46.432932],[-1.594326,46.431853],[-1.593297,46.431394],[-1.592181,46.4303],[-1.591773,46.430123],[-1.591065,46.430004],[-1.59055,46.42959],[-1.589885,46.429457],[-1.58937,46.429161],[-1.588855,46.428437],[-1.588469,46.427431],[-1.591623,46.426395],[-1.593189,46.425405],[-1.594369,46.424458],[-1.595592,46.423349],[-1.596408,46.423082],[-1.596816,46.423319],[-1.598039,46.422831],[-1.599541,46.422639],[-1.601472,46.422224],[-1.602287,46.421855],[-1.602888,46.42184],[-1.603167,46.421662],[-1.604497,46.421219],[-1.603596,46.420997],[-1.603725,46.420656],[-1.603618,46.420124],[-1.604133,46.42002],[-1.604347,46.419577],[-1.604927,46.419488],[-1.605141,46.41866],[-1.605484,46.418157],[-1.605828,46.417979],[-1.606042,46.416944],[-1.605549,46.416544],[-1.606278,46.416381],[-1.607759,46.416367],[-1.608489,46.415627],[-1.611106,46.413911],[-1.610634,46.413837],[-1.609926,46.413896],[-1.609604,46.413659],[-1.60939,46.413334],[-1.608338,46.413053],[-1.606064,46.41289],[-1.605742,46.412698],[-1.605742,46.412535],[-1.604605,46.412505],[-1.60454,46.412653],[-1.603703,46.412505],[-1.603425,46.413112],[-1.602352,46.413127],[-1.601472,46.413245],[-1.599691,46.413304],[-1.598146,46.412905],[-1.596816,46.413364],[-1.593876,46.413275],[-1.59261,46.4136],[-1.590614,46.413793],[-1.589756,46.414636],[-1.588297,46.414621],[-1.587718,46.414961],[-1.586967,46.415168],[-1.586323,46.415509],[-1.583748,46.415834],[-1.581709,46.415612],[-1.58098,46.4161],[-1.579993,46.414813],[-1.580057,46.414281],[-1.580572,46.413497],[-1.580272,46.413437],[-1.580358,46.413156],[-1.581473,46.412047],[-1.582096,46.410996],[-1.582289,46.410242],[-1.582074,46.409724],[-1.58143,46.409561],[-1.580422,46.409591],[-1.57892,46.409384],[-1.577954,46.409339],[-1.57774,46.409591],[-1.575787,46.409251],[-1.572461,46.408866],[-1.571538,46.408378],[-1.568813,46.408393],[-1.56847,46.407949],[-1.567547,46.407564],[-1.566947,46.407579],[-1.566238,46.407268],[-1.565681,46.407224],[-1.564929,46.406972],[-1.564157,46.406957],[-1.563621,46.406647],[-1.563063,46.406676],[-1.560895,46.406513],[-1.559758,46.406706],[-1.559179,46.407002],[-1.558535,46.406987],[-1.555982,46.406439],[-1.555059,46.406439],[-1.553943,46.406129],[-1.553364,46.406262],[-1.551754,46.405848],[-1.551175,46.405818],[-1.55021,46.40567],[-1.548707,46.405833],[-1.548386,46.405759],[-1.548343,46.406218],[-1.546798,46.40715],[-1.54712,46.408466],[-1.546454,46.410331],[-1.545274,46.409502],[-1.544588,46.409295],[-1.543686,46.409325],[-1.54242,46.409872],[-1.538386,46.41076],[-1.534224,46.41144],[-1.531606,46.41039],[-1.531584,46.410153],[-1.529868,46.408733],[-1.528451,46.4082],[-1.525276,46.407312],[-1.523795,46.406587],[-1.522722,46.405877],[-1.521907,46.405581],[-1.521327,46.405655],[-1.519804,46.405641],[-1.518517,46.405256],[-1.517422,46.405123],[-1.516778,46.405345],[-1.516092,46.405345],[-1.515684,46.405078],[-1.515083,46.405034],[-1.514268,46.404605],[-1.513152,46.404353],[-1.513023,46.404116],[-1.510963,46.403214],[-1.509376,46.403036],[-1.508603,46.402785],[-1.508131,46.402948],[-1.507981,46.402711],[-1.508195,46.40243],[-1.507831,46.401586],[-1.506414,46.401024],[-1.505084,46.40024],[-1.504462,46.399973],[-1.504269,46.399663],[-1.503689,46.399441],[-1.502123,46.399781],[-1.501265,46.399529],[-1.498947,46.399396],[-1.49708,46.399115],[-1.495965,46.399559],[-1.493797,46.399115],[-1.492896,46.398819],[-1.49148,46.398834],[-1.489806,46.39805],[-1.489313,46.397576],[-1.488798,46.397428],[-1.488647,46.397606],[-1.488004,46.397798],[-1.485708,46.394942],[-1.48545,46.394927],[-1.485622,46.394365],[-1.48545,46.393743],[-1.48515,46.392944],[-1.48515,46.392544],[-1.485472,46.392604],[-1.485493,46.391627],[-1.486695,46.390872],[-1.491501,46.389185],[-1.489763,46.388534],[-1.48824,46.388504],[-1.485407,46.388223],[-1.484656,46.387527],[-1.484013,46.387231],[-1.483219,46.387053],[-1.481867,46.385647],[-1.481373,46.384463],[-1.48118,46.383679],[-1.481631,46.383486],[-1.480172,46.381917],[-1.475194,46.376736],[-1.475301,46.376174],[-1.474786,46.375419],[-1.474206,46.374841],[-1.474228,46.374382],[-1.473176,46.373509],[-1.472876,46.372828],[-1.473413,46.372087],[-1.473134,46.371791],[-1.473048,46.371318],[-1.472812,46.371021],[-1.471846,46.370918],[-1.473348,46.369408],[-1.47073,46.369023],[-1.470129,46.368786],[-1.46955,46.368741],[-1.46955,46.367231],[-1.470044,46.366891],[-1.470602,46.366017],[-1.470258,46.365484],[-1.470194,46.364551],[-1.46955,46.363855],[-1.469486,46.363204],[-1.468263,46.362789],[-1.467984,46.362019],[-1.468992,46.361575],[-1.468349,46.361116],[-1.46822,46.360775],[-1.467683,46.360627],[-1.466568,46.360731],[-1.466117,46.361056],[-1.463649,46.360938],[-1.465023,46.360049],[-1.466053,46.35965],[-1.46661,46.359516],[-1.466031,46.358524],[-1.466224,46.358465],[-1.466374,46.35771],[-1.466503,46.357162],[-1.46616,46.355681],[-1.467426,46.35454],[-1.46749,46.354081],[-1.467898,46.353667],[-1.467769,46.353326],[-1.467512,46.353104],[-1.46837,46.352985],[-1.468327,46.352748],[-1.467683,46.352808],[-1.466396,46.352734],[-1.46528,46.352408],[-1.463628,46.351875],[-1.462855,46.350779],[-1.463349,46.350453],[-1.464872,46.349949],[-1.465065,46.349534],[-1.463478,46.348735],[-1.462855,46.349623],[-1.46189,46.349579],[-1.461396,46.349179],[-1.461225,46.347624],[-1.461804,46.347209],[-1.459229,46.347165],[-1.458886,46.346542],[-1.457598,46.346335],[-1.456697,46.34632],[-1.453435,46.346691],[-1.452062,46.34635],[-1.451719,46.346424],[-1.450582,46.346306],[-1.44908,46.345787],[-1.449101,46.345269],[-1.447942,46.345091],[-1.446934,46.345032],[-1.446247,46.345269],[-1.445196,46.345283],[-1.444423,46.344884],[-1.443522,46.344721],[-1.443779,46.343387],[-1.443629,46.342573],[-1.443093,46.341788],[-1.442513,46.341239],[-1.440797,46.34118],[-1.439316,46.342276],[-1.438415,46.34241],[-1.436999,46.34238],[-1.436462,46.342306],[-1.435411,46.34238],[-1.433909,46.343254],[-1.433566,46.343269],[-1.431463,46.344647],[-1.431098,46.344113],[-1.429961,46.343269],[-1.429532,46.343328],[-1.428394,46.344809],[-1.426849,46.346276],[-1.425304,46.347209],[-1.425648,46.347802],[-1.424725,46.347964],[-1.423373,46.34792],[-1.421893,46.34755],[-1.421335,46.347683],[-1.421185,46.348231],[-1.41921,46.347964],[-1.415069,46.347016],[-1.411893,46.346098],[-1.412001,46.345728],[-1.408417,46.344898],[-1.406572,46.348809],[-1.404748,46.348157],[-1.403997,46.348009],[-1.401873,46.348201],[-1.399105,46.347713],[-1.396079,46.347653],[-1.393912,46.347328],[-1.391981,46.347165],[-1.385522,46.347609],[-1.382539,46.347727],[-1.380415,46.347802],[-1.378891,46.348098],[-1.376295,46.348794],[-1.37136,46.349505],[-1.369836,46.349446],[-1.36709,46.349505],[-1.366296,46.349031],[-1.36342,46.348942],[-1.360009,46.348824],[-1.358356,46.348587],[-1.352649,46.346987],[-1.34722,46.344173],[-1.344044,46.343447],[-1.343272,46.343062],[-1.344409,46.341965],[-1.343422,46.341328],[-1.341856,46.340721],[-1.340718,46.339551],[-1.340525,46.339062],[-1.3375,46.337492],[-1.334839,46.335669],[-1.329839,46.332188],[-1.328745,46.33238],[-1.325548,46.33238],[-1.322479,46.332588],[-1.321192,46.332928],[-1.319475,46.333417],[-1.319153,46.333269],[-1.315355,46.335299],[-1.313016,46.334366],[-1.31263,46.333743],[-1.31145,46.332825],[-1.308403,46.331743],[-1.308081,46.331343],[-1.307781,46.331521],[-1.307502,46.331388],[-1.307137,46.331802],[-1.305485,46.330884],[-1.303897,46.329684],[-1.303511,46.329921],[-1.303146,46.329699],[-1.301579,46.328958],[-1.299284,46.327372],[-1.298962,46.327357],[-1.297395,46.325876],[-1.295958,46.324379],[-1.294134,46.322897],[-1.293511,46.322186],[-1.292439,46.320378],[-1.292095,46.320037],[-1.292138,46.319696],[-1.291881,46.319385],[-1.288018,46.316747],[-1.286516,46.315547],[-1.286345,46.31528],[-1.285722,46.314954],[-1.285229,46.314406],[-1.285143,46.314198],[-1.284885,46.313828],[-1.284864,46.31362],[-1.284413,46.312879],[-1.284521,46.312627],[-1.284478,46.312034],[-1.286001,46.312331],[-1.286237,46.312168],[-1.285465,46.311842],[-1.283276,46.311367],[-1.281924,46.310582],[-1.280401,46.309929],[-1.279714,46.309455],[-1.276238,46.308003],[-1.274951,46.306268],[-1.260488,46.297567],[-1.258106,46.297655],[-1.257784,46.298767],[-1.254416,46.303022],[-1.254802,46.303467],[-1.25433,46.304089],[-1.253686,46.304371],[-1.252742,46.304074],[-1.249158,46.304994],[-1.246626,46.305068],[-1.2433,46.305779],[-1.242571,46.305794],[-1.240039,46.305794],[-1.238215,46.306105],[-1.238387,46.306669],[-1.239181,46.307499],[-1.240211,46.308314],[-1.243107,46.309692],[-1.244695,46.315532],[-1.245811,46.326172],[-1.243172,46.328647],[-1.242228,46.329106],[-1.242721,46.329713],[-1.247871,46.344098],[-1.247249,46.344306],[-1.245575,46.344543],[-1.243579,46.345046],[-1.241734,46.345432],[-1.233108,46.347876],[-1.231048,46.348305],[-1.232893,46.354822],[-1.230683,46.35537],[-1.222486,46.35771],[-1.220148,46.358569],[-1.219139,46.35888],[-1.218624,46.359205],[-1.217079,46.358287],[-1.216671,46.357873],[-1.216285,46.35805],[-1.216993,46.359605],[-1.21665,46.359768],[-1.206393,46.359146],[-1.196373,46.360064],[-1.189163,46.360864],[-1.184978,46.361441],[-1.180837,46.360982],[-1.177275,46.360923],[-1.172404,46.361071],[-1.168735,46.358332],[-1.168048,46.358124],[-1.166546,46.358302],[-1.16616,46.355725],[-1.165752,46.35577],[-1.165559,46.355059],[-1.164315,46.354703],[-1.162641,46.354526],[-1.153994,46.350438],[-1.151891,46.349416],[-1.150689,46.34789],[-1.150603,46.347224],[-1.150882,46.346157],[-1.140175,46.340751],[-1.122966,46.329639],[-1.117258,46.329047],[-1.114919,46.329254],[-1.114447,46.32918],[-1.111121,46.329506],[-1.106122,46.332173],[-1.10213,46.33161],[-1.101015,46.329432],[-1.098912,46.327461],[-1.092904,46.322675],[-1.091659,46.321326],[-1.088548,46.318674],[-1.086423,46.318318],[-1.084278,46.317503],[-1.082754,46.317696]]],"type":"MultiLineString"},"properties":{"geo_point":{"lon":-1.4883389588466636,"lat":46.39942184422048},"name":"GR8 De l'Île-d'Olonne au fleuve de la Sèvre niortaise (Vendée) (2019)","code_gr":"GR8"}}]}