{"type":"FeatureCollection","features":[{"type":"Feature","geometry":{"coordinates":[[[6.357523,43.139485],[6.35791,43.140612],[6.357824,43.141082],[6.356708,43.141661],[6.356129,43.141536],[6.355678,43.141536],[6.3557,43.141928],[6.354176,43.142851],[6.353339,43.143321],[6.353189,43.143556],[6.352438,43.143979],[6.352438,43.144433],[6.352073,43.144558],[6.352052,43.144667],[6.351558,43.144918],[6.351515,43.14509],[6.350571,43.145763],[6.349799,43.146029],[6.348962,43.146718],[6.348511,43.146891],[6.347932,43.147532],[6.347546,43.147642],[6.347159,43.148159],[6.347009,43.149145],[6.346559,43.149254],[6.346644,43.149395],[6.345657,43.149646],[6.34437,43.149802],[6.344263,43.149975],[6.343726,43.150116],[6.343705,43.150288],[6.343984,43.150632],[6.343898,43.151509],[6.343404,43.151884],[6.342353,43.15201],[6.341774,43.151869],[6.341602,43.152088],[6.340894,43.152464],[6.340851,43.153152],[6.341323,43.153466],[6.341645,43.153888],[6.342546,43.154326],[6.342203,43.154546],[6.34231,43.154702],[6.342117,43.154843],[6.342374,43.155047],[6.342503,43.155579],[6.34201,43.15525],[6.341838,43.156001],[6.34143,43.156221],[6.340744,43.156158],[6.341087,43.157081],[6.340593,43.157128],[6.339671,43.156346],[6.339735,43.156862],[6.339392,43.157269],[6.33952,43.157582],[6.339113,43.157567],[6.338684,43.157269],[6.338641,43.157692],[6.339756,43.158208],[6.340336,43.158318],[6.340593,43.158506],[6.341452,43.158803],[6.341924,43.159242],[6.342868,43.159476],[6.343082,43.159695],[6.342696,43.160885],[6.342482,43.160415],[6.34201,43.160807],[6.342031,43.161558],[6.342181,43.162075],[6.34216,43.162325],[6.342482,43.162748],[6.34201,43.162841],[6.341795,43.162685],[6.341301,43.162638],[6.340851,43.162372],[6.340314,43.162372],[6.340379,43.162012],[6.339842,43.161855],[6.339284,43.161981],[6.338576,43.161981],[6.338276,43.162262],[6.338083,43.1622],[6.337868,43.162247],[6.337353,43.162012],[6.336988,43.161605],[6.337804,43.161668],[6.337482,43.161448],[6.336881,43.160885],[6.336431,43.160854],[6.335465,43.160118],[6.334349,43.159664],[6.333233,43.159711],[6.32965,43.158459],[6.329113,43.157989],[6.328534,43.157708],[6.328362,43.157551],[6.327976,43.157348],[6.32686,43.15824],[6.326882,43.158991],[6.327783,43.159116],[6.329714,43.160822],[6.330358,43.162153],[6.330766,43.162701],[6.331045,43.162935],[6.331195,43.163092],[6.331667,43.163342],[6.331688,43.163921],[6.331281,43.164015],[6.331066,43.164407],[6.330444,43.164751],[6.329392,43.164391],[6.329006,43.164438],[6.329843,43.16533],[6.330937,43.16569],[6.331495,43.165377],[6.331259,43.165847],[6.33186,43.166535],[6.331817,43.167005],[6.332246,43.167224],[6.332976,43.167161],[6.333255,43.167865],[6.333684,43.1681],[6.333856,43.168476],[6.332847,43.16929],[6.332847,43.16929],[6.332482,43.170276],[6.332804,43.170244],[6.333276,43.169759],[6.333491,43.169728],[6.333555,43.169321],[6.334499,43.169008],[6.335465,43.168867],[6.337139,43.168507],[6.337847,43.16821],[6.338533,43.168131],[6.340336,43.167286],[6.34113,43.167365],[6.341774,43.168053],[6.342911,43.168006],[6.344177,43.167474],[6.344177,43.167474],[6.345164,43.167333],[6.345486,43.167208],[6.346087,43.167599],[6.347138,43.16774],[6.34746,43.167662],[6.347889,43.167803],[6.349198,43.167709],[6.349734,43.167427],[6.350914,43.16713],[6.351279,43.167192],[6.351537,43.167177],[6.352073,43.167271],[6.353361,43.167161],[6.354305,43.167474],[6.35424,43.167772],[6.355034,43.168444],[6.355249,43.168554],[6.355421,43.168836],[6.356215,43.169305],[6.358124,43.170135],[6.358789,43.169869],[6.359369,43.169947],[6.36012,43.169618],[6.360549,43.16954],[6.361107,43.169305],[6.361407,43.169477],[6.361858,43.170354],[6.362566,43.170823],[6.363296,43.170948],[6.363746,43.170745],[6.364132,43.170886],[6.364411,43.170823],[6.364712,43.170948],[6.365184,43.170933],[6.3666,43.171324],[6.368553,43.172185],[6.369111,43.171903],[6.369325,43.171887],[6.369583,43.171559],[6.369583,43.171089],[6.369926,43.170855],[6.369926,43.170604],[6.370183,43.170416],[6.370226,43.17015],[6.370527,43.169681],[6.371085,43.169571],[6.371085,43.169571],[6.371085,43.169571],[6.371278,43.169321],[6.371686,43.169321],[6.371707,43.16979],[6.371492,43.170056],[6.371707,43.169978],[6.3716,43.170307],[6.371879,43.170056],[6.371879,43.170401],[6.372286,43.170197],[6.372179,43.170557],[6.373016,43.170322],[6.372694,43.170557],[6.373037,43.170557],[6.37293,43.170933],[6.373295,43.171074],[6.373381,43.171261],[6.373638,43.171293],[6.374089,43.171434],[6.374175,43.171637],[6.374518,43.171778],[6.374861,43.172373],[6.375162,43.172592],[6.375376,43.172811],[6.375526,43.172826],[6.37572,43.173124],[6.376814,43.173875],[6.376857,43.173734],[6.376556,43.173452],[6.376492,43.173218],[6.377265,43.173546],[6.378917,43.173671],[6.379839,43.174],[6.380462,43.174767],[6.381384,43.174767],[6.381728,43.175001],[6.3822,43.1758],[6.382479,43.176144],[6.382736,43.176738],[6.383015,43.176973],[6.383015,43.17727],[6.382715,43.177709],[6.382951,43.178178],[6.382672,43.178851],[6.382908,43.17968],[6.383702,43.180431],[6.385118,43.181339],[6.38559,43.181495],[6.386169,43.181245],[6.38662,43.181699],[6.387414,43.182278],[6.387092,43.182888],[6.386234,43.18295],[6.387393,43.183717],[6.387607,43.183967],[6.388229,43.184312],[6.388616,43.184421],[6.388809,43.184844],[6.389538,43.18536],[6.390289,43.185657],[6.390976,43.185767],[6.391148,43.187034],[6.391534,43.187441],[6.392521,43.187894],[6.392778,43.188223],[6.393959,43.189068],[6.394345,43.189506],[6.39368,43.189881],[6.392693,43.189928],[6.392392,43.189647],[6.391577,43.189568],[6.391362,43.189271],[6.390761,43.189256],[6.390246,43.189553],[6.389495,43.189381],[6.389302,43.189928],[6.388744,43.190429],[6.388508,43.190038],[6.387972,43.189991],[6.387607,43.189584],[6.387242,43.189631],[6.386191,43.18913],[6.385569,43.190241],[6.385719,43.190491],[6.385483,43.190648],[6.385762,43.190789],[6.385204,43.190883],[6.385612,43.191008],[6.385912,43.191305],[6.385032,43.191164],[6.385418,43.191399],[6.385869,43.191978],[6.38574,43.192447],[6.385376,43.19215],[6.384903,43.191978],[6.384346,43.191712],[6.384195,43.191774],[6.384324,43.192025],[6.382007,43.192197],[6.381406,43.191993],[6.380762,43.19215],[6.380891,43.192369],[6.381814,43.192635],[6.382414,43.193354],[6.382994,43.193292],[6.38308,43.193839],[6.383616,43.194387],[6.382243,43.194371],[6.381427,43.195419],[6.380333,43.195513],[6.379732,43.195795],[6.379432,43.196514],[6.379625,43.196577],[6.379603,43.1975],[6.379646,43.198078],[6.379754,43.199095],[6.379603,43.199471],[6.379754,43.199862],[6.380075,43.20019],[6.38014,43.200534],[6.379839,43.200738],[6.380097,43.200863],[6.380548,43.200738],[6.380719,43.200472],[6.380826,43.200816],[6.380548,43.200988],[6.380161,43.201035],[6.379925,43.20116],[6.380161,43.201645],[6.379775,43.201848],[6.380054,43.201864],[6.380698,43.201817],[6.379925,43.202161],[6.379324,43.202271],[6.378809,43.202458],[6.377994,43.203272],[6.377222,43.203803],[6.376492,43.203991],[6.376127,43.204179],[6.376213,43.204789],[6.376406,43.205086],[6.376428,43.204492],[6.377071,43.205571],[6.377543,43.205305],[6.377973,43.205289],[6.378981,43.205852],[6.379324,43.20629],[6.379925,43.206587],[6.379582,43.206759],[6.380011,43.206916],[6.379925,43.207072],[6.379346,43.20715],[6.379067,43.20837],[6.378638,43.208933],[6.378209,43.209074],[6.37823,43.20959],[6.377393,43.209715],[6.377436,43.209309],[6.377243,43.208652],[6.3772,43.208449],[6.376964,43.208151],[6.376428,43.208183],[6.375934,43.207792],[6.375655,43.20776],[6.375162,43.207463],[6.373853,43.206838],[6.373402,43.206666],[6.373059,43.206447],[6.370377,43.206728],[6.369261,43.207135],[6.368402,43.207604],[6.367845,43.20776],[6.367544,43.208089],[6.367136,43.207901],[6.367201,43.207573],[6.36675,43.206994],[6.367051,43.206681],[6.367437,43.205852],[6.368124,43.205008],[6.368209,43.204194],[6.367866,43.203975],[6.367201,43.203866],[6.367222,43.204022],[6.366922,43.204413],[6.366321,43.204773],[6.363939,43.20446],[6.363853,43.203772],[6.363617,43.204038],[6.36366,43.203569],[6.363489,43.203569],[6.363253,43.203803],[6.363017,43.203772],[6.362673,43.204163],[6.362652,43.204445],[6.362158,43.205539],[6.362158,43.205915],[6.362008,43.206149],[6.362072,43.20701],[6.361858,43.207307],[6.362051,43.207432],[6.361579,43.208042],[6.361729,43.208245],[6.361493,43.208417],[6.361429,43.20898],[6.361021,43.20995],[6.360098,43.209887],[6.359905,43.210091],[6.359111,43.210388],[6.356408,43.210388],[6.355571,43.210169],[6.354863,43.210388],[6.354369,43.210138],[6.354004,43.209731],[6.353125,43.209512],[6.352352,43.20945],[6.351301,43.208589],[6.350786,43.208495],[6.3504,43.208261],[6.350593,43.207807],[6.34967,43.207369],[6.349434,43.207104],[6.348619,43.206744],[6.348361,43.206415],[6.347524,43.20568],[6.347052,43.205696],[6.346387,43.205524],[6.346323,43.204883],[6.345893,43.204585],[6.345099,43.204351],[6.343833,43.204773],[6.342889,43.204304],[6.341924,43.204726],[6.34055,43.204976],[6.339778,43.204679],[6.338791,43.204726],[6.337997,43.205164],[6.337611,43.205618],[6.337182,43.205524],[6.336538,43.204757],[6.33598,43.204976],[6.335079,43.205227],[6.334993,43.205665],[6.335594,43.205493],[6.334821,43.207088],[6.334993,43.207651],[6.333491,43.209762],[6.333212,43.210044],[6.333212,43.210341],[6.333641,43.210669],[6.333469,43.211076],[6.333469,43.211076],[6.334049,43.211404],[6.334971,43.211436],[6.335229,43.211686],[6.335079,43.211967],[6.335551,43.212546],[6.335958,43.212702],[6.33628,43.21314],[6.337868,43.213672],[6.338104,43.214032],[6.337976,43.21461],[6.336795,43.215549],[6.336345,43.216377],[6.335057,43.216456],[6.335057,43.216456],[6.334607,43.216612],[6.334521,43.216878],[6.334285,43.217065],[6.333941,43.217644],[6.333598,43.217832],[6.333319,43.218332],[6.332096,43.218786],[6.332096,43.219442],[6.332783,43.220334],[6.332761,43.220959],[6.332225,43.221538],[6.332053,43.222241],[6.331796,43.222726],[6.331216,43.222914],[6.330594,43.223539],[6.329671,43.223555],[6.328813,43.223336],[6.328277,43.223007],[6.328126,43.223195],[6.328212,43.224086],[6.327955,43.224884],[6.327847,43.225431],[6.327011,43.226197],[6.325466,43.226604],[6.325101,43.226948],[6.324157,43.227339],[6.323599,43.22737],[6.323191,43.227573],[6.322054,43.227604],[6.321303,43.227339],[6.321002,43.227073],[6.319865,43.227589],[6.319458,43.228136],[6.318878,43.22812],[6.317548,43.228277],[6.317376,43.228777],[6.31714,43.228996],[6.315981,43.22923],[6.315917,43.229746],[6.315252,43.230465],[6.315252,43.231013],[6.315338,43.231419],[6.315187,43.231763],[6.314651,43.23206],[6.314222,43.232513],[6.314415,43.232717],[6.314243,43.233201],[6.313771,43.23392],[6.313964,43.234077],[6.31375,43.234327],[6.313063,43.234858],[6.312613,43.235343],[6.312248,43.235484],[6.311862,43.236172],[6.311604,43.237203],[6.310724,43.237235],[6.310038,43.237938],[6.309759,43.237797],[6.309029,43.238423],[6.309029,43.238423],[6.309254,43.23861],[6.311014,43.239189],[6.311765,43.239533],[6.311958,43.239845],[6.312237,43.240002],[6.312516,43.240392],[6.312902,43.240314],[6.313653,43.240658],[6.313825,43.24108],[6.314962,43.241268],[6.316164,43.241674],[6.317151,43.242549],[6.31743,43.243425],[6.31728,43.243909],[6.317795,43.2443],[6.318009,43.244769],[6.316936,43.245175],[6.314447,43.246566],[6.313567,43.246957],[6.31243,43.247614],[6.312258,43.248333],[6.311636,43.249036],[6.311722,43.249364],[6.31155,43.249786],[6.310799,43.25013],[6.31037,43.250552],[6.31022,43.251771],[6.308503,43.253396],[6.307473,43.254131],[6.30728,43.255194],[6.306615,43.255913],[6.306572,43.256413],[6.30595,43.257288],[6.305478,43.2576],[6.30477,43.2586],[6.304405,43.259897],[6.304405,43.260616],[6.304577,43.261085],[6.303869,43.261726],[6.303761,43.261554],[6.303375,43.261757],[6.303182,43.26196],[6.302152,43.262273],[6.301465,43.262241],[6.300886,43.262413],[6.299792,43.263257],[6.298654,43.263163],[6.297002,43.26346],[6.296358,43.26382],[6.296401,43.264445],[6.296165,43.264773],[6.296745,43.265398],[6.297646,43.266038],[6.297453,43.266445],[6.297388,43.267195],[6.297217,43.267507],[6.29756,43.267976],[6.297968,43.268991],[6.298332,43.269554],[6.299813,43.270413],[6.300178,43.270413],[6.3005,43.270757],[6.301229,43.270866],[6.30213,43.271538],[6.301744,43.272788],[6.301465,43.273225],[6.30153,43.273944],[6.301723,43.274366],[6.301959,43.275506],[6.301401,43.276241],[6.301465,43.276631],[6.301294,43.276881],[6.299834,43.277553],[6.299255,43.277662],[6.298783,43.277897],[6.298225,43.278459],[6.296509,43.279537],[6.296122,43.280068],[6.295672,43.280443],[6.295371,43.280584],[6.295114,43.281005],[6.294449,43.281349]]],"type":"MultiLineString"},"properties":{"geo_point":{"lon":6.346001436180288,"lat":43.199184498277184},"name":"GR90 Du Lavandou à Notre Dame des Anges (Var) (2019)","code_gr":"GR90"}}]}