{"type":"FeatureCollection","features":[{"type":"Feature","geometry":{"coordinates":[[[5.400772,43.874912],[5.401244,43.874417],[5.404721,43.873891],[5.405236,43.873257],[5.405729,43.873149],[5.406823,43.873489],[5.40736,43.873536],[5.407918,43.873366],[5.408454,43.872871],[5.409763,43.870891],[5.41133,43.870071],[5.411973,43.869808],[5.412295,43.869514],[5.413733,43.869375],[5.414119,43.869158],[5.414591,43.869065],[5.41502,43.869266],[5.416115,43.869483],[5.416115,43.869483],[5.417702,43.86922],[5.418711,43.869297],[5.419677,43.868864],[5.42105,43.868941],[5.421157,43.868462],[5.421672,43.868122],[5.421865,43.867936],[5.422423,43.867859],[5.422745,43.867889],[5.423174,43.867596],[5.423796,43.867441],[5.423839,43.867271],[5.424526,43.867317],[5.425148,43.867178],[5.425899,43.866343],[5.426243,43.866265],[5.426157,43.865987],[5.426243,43.865476],[5.426178,43.865151],[5.426667,43.864702],[5.426989,43.864176],[5.42768,43.863604],[5.429354,43.86263],[5.429998,43.861856],[5.430491,43.860417],[5.432873,43.859876],[5.433967,43.858808],[5.434568,43.857617],[5.434439,43.856859],[5.434456,43.85627],[5.434284,43.855342],[5.434585,43.854676],[5.434504,43.85347],[5.43519,43.852062],[5.435641,43.851582],[5.434547,43.847017],[5.434375,43.846646],[5.433152,43.845965],[5.433216,43.845021],[5.433581,43.843814],[5.434675,43.843427],[5.435469,43.842963],[5.435555,43.842653],[5.435169,43.842545],[5.435469,43.842251],[5.435555,43.841864],[5.43504,43.841941],[5.434439,43.842251],[5.434053,43.842065],[5.433667,43.841461],[5.433388,43.840007],[5.433023,43.83962],[5.432616,43.839589],[5.431822,43.838474],[5.433238,43.837453],[5.434139,43.837004],[5.434654,43.836818],[5.434096,43.836524],[5.434075,43.836277],[5.432937,43.836524],[5.432465,43.836493],[5.431822,43.836679],[5.430491,43.836849],[5.430126,43.836787],[5.42974,43.836369],[5.428753,43.835967],[5.429182,43.835812],[5.429697,43.835332],[5.42974,43.835131],[5.430663,43.834435],[5.431071,43.833723],[5.431457,43.833506],[5.431564,43.832995],[5.431843,43.832964],[5.432852,43.832159],[5.433281,43.831494],[5.433946,43.83106],[5.434525,43.830147],[5.435426,43.829296],[5.43622,43.828754],[5.436886,43.82846],[5.437722,43.828382],[5.438431,43.827902],[5.438817,43.827097],[5.438452,43.826664],[5.438431,43.825565],[5.438688,43.824559],[5.439439,43.823692],[5.439413,43.822112],[5.439713,43.821647],[5.43982,43.820657],[5.441499,43.819852],[5.442701,43.819759],[5.444138,43.819759],[5.445276,43.819651],[5.445898,43.819063],[5.445855,43.818459],[5.445748,43.818103],[5.448403,43.818489],[5.449889,43.818165],[5.450275,43.818242],[5.450812,43.818738],[5.451799,43.819063],[5.452957,43.819171],[5.454159,43.819481],[5.456879,43.819666],[5.458531,43.819403],[5.459862,43.81948],[5.460704,43.819434],[5.461862,43.819527],[5.463236,43.819945],[5.465038,43.81945],[5.465532,43.819496],[5.46639,43.819806],[5.466883,43.819759],[5.467441,43.819372],[5.46787,43.81849],[5.467935,43.817747],[5.468214,43.817003],[5.469415,43.815718],[5.469737,43.815099],[5.470295,43.81482],[5.471862,43.815285],[5.473063,43.815331],[5.473922,43.815548],[5.474587,43.816059],[5.47529,43.816755],[5.476599,43.816198],[5.477629,43.81643],[5.478916,43.816925],[5.480616,43.817499],[5.480724,43.817127],[5.480659,43.816818],[5.481282,43.816601],[5.480445,43.815718],[5.481775,43.815486],[5.480595,43.814666],[5.480359,43.814186],[5.481963,43.81403],[5.483449,43.813706],[5.482247,43.813241],[5.481947,43.813009],[5.48199,43.812807],[5.481475,43.812606],[5.481539,43.812266],[5.48126,43.811894],[5.481003,43.811213],[5.48244,43.811275],[5.482934,43.810609],[5.484114,43.809958],[5.485358,43.808363],[5.486024,43.807744],[5.486045,43.807403],[5.486238,43.807063],[5.486882,43.80714],[5.48789,43.806908],[5.488405,43.806211],[5.488405,43.806211],[5.489264,43.806033],[5.489049,43.805909],[5.4895,43.805568],[5.489693,43.805011],[5.490122,43.804593],[5.490122,43.804593],[5.490229,43.804144],[5.49068,43.803524],[5.491152,43.803493],[5.492203,43.803199],[5.493448,43.803199],[5.493834,43.803075],[5.493984,43.802719],[5.493384,43.801944],[5.493448,43.801495],[5.493191,43.801031],[5.493169,43.799823],[5.492826,43.799389],[5.492718,43.798754],[5.492504,43.79846],[5.492096,43.798367],[5.491731,43.797995],[5.491216,43.797732],[5.49068,43.797174],[5.490358,43.796958],[5.489478,43.79482],[5.489393,43.794015],[5.489071,43.793736],[5.489135,43.792822],[5.488942,43.79008],[5.489736,43.788903],[5.490165,43.788082],[5.494821,43.786595],[5.495014,43.78627],[5.495529,43.786053],[5.49583,43.785588],[5.496162,43.785271],[5.497214,43.785069],[5.497343,43.785302],[5.498137,43.785673],[5.498544,43.785627],[5.498523,43.78493],[5.49893,43.784093],[5.499252,43.783954],[5.499403,43.78321],[5.500003,43.782575],[5.500111,43.782327],[5.50039,43.782265],[5.500862,43.782451],[5.501291,43.782234],[5.501484,43.781599],[5.502514,43.781088],[5.502986,43.779833],[5.503136,43.777571],[5.502922,43.777029],[5.502492,43.776579],[5.502407,43.775572],[5.502514,43.774906],[5.502299,43.773806],[5.502192,43.772768],[5.502256,43.772288],[5.501548,43.771575],[5.501226,43.771172],[5.500711,43.770862],[5.499767,43.770335],[5.499456,43.770306],[5.499173,43.770572],[5.49896,43.770603],[5.499145,43.76891],[5.498866,43.767841],[5.498888,43.767407],[5.499188,43.766663],[5.499209,43.765408],[5.499896,43.763393],[5.501248,43.761781],[5.501699,43.759782],[5.502278,43.757892]]],"type":"MultiLineString"},"properties":{"geo_point":{"lon":5.459298593109786,"lat":43.821364848089104},"name":"GR92 De Apt à Sannes (Vaucluse) (2019)","code_gr":"GR92"}}]}