{"type":"FeatureCollection","features":[{"type":"Feature","geometry":{"coordinates":[[[5.654526,44.635284],[5.654333,44.6362],[5.654544,44.636755],[5.655025,44.636906],[5.655294,44.636684],[5.655747,44.636825],[5.656299,44.636412],[5.656667,44.636271],[5.657035,44.635788],[5.657927,44.635596],[5.658388,44.63536],[5.65901,44.635406],[5.659612,44.635939],[5.659527,44.63618],[5.659612,44.636281],[5.659626,44.636452],[5.659824,44.636704],[5.660065,44.636765],[5.659937,44.636966],[5.660164,44.637319],[5.660334,44.637752],[5.659895,44.63888],[5.659611,44.639254],[5.658689,44.639956],[5.659399,44.640341],[5.659804,44.640704],[5.659997,44.642414],[5.659697,44.642995],[5.659525,44.64388],[5.659375,44.644307],[5.65959,44.645101],[5.659268,44.645865],[5.659354,44.646674],[5.659182,44.64962],[5.662508,44.650414],[5.66519,44.649941],[5.666027,44.649315],[5.666993,44.649086],[5.666928,44.649925],[5.667379,44.650185],[5.667379,44.650444],[5.66813,44.650582],[5.668709,44.65078],[5.668774,44.651223],[5.668967,44.651437],[5.669417,44.651437],[5.669761,44.65165],[5.670125,44.651757],[5.670555,44.65194],[5.671563,44.651956],[5.671949,44.65223],[5.672336,44.652215],[5.672829,44.652383],[5.673301,44.652459],[5.673473,44.652658],[5.674095,44.652902],[5.674396,44.652902],[5.674567,44.65307],[5.675018,44.653192],[5.675211,44.653406],[5.675769,44.653421],[5.676091,44.653681],[5.676498,44.653772],[5.676756,44.654001],[5.677249,44.6542],[5.677185,44.654612],[5.677507,44.654673],[5.677507,44.654825],[5.677764,44.654871],[5.677936,44.65507],[5.678537,44.655299],[5.678859,44.655787],[5.679352,44.656092],[5.679352,44.656275],[5.679696,44.656596],[5.680168,44.656855],[5.680425,44.657206],[5.680962,44.657588],[5.681155,44.657954],[5.681498,44.658183],[5.68152,44.658565],[5.681713,44.658901],[5.682142,44.659069],[5.6827,44.659221],[5.683043,44.659633],[5.683172,44.659984],[5.683708,44.660076],[5.684502,44.659755],[5.685618,44.659755],[5.686069,44.659908],[5.68697,44.659816],[5.68727,44.66],[5.688064,44.659954],[5.688429,44.659847],[5.688622,44.659603],[5.68918,44.659816],[5.689437,44.660061],[5.689931,44.660015],[5.690296,44.660122],[5.690703,44.659954],[5.692055,44.659694],[5.692248,44.659847],[5.692978,44.660076],[5.693665,44.659954],[5.694244,44.659786],[5.69463,44.659771],[5.694566,44.65942],[5.695102,44.659572],[5.695982,44.659389],[5.696261,44.660366],[5.696218,44.660793],[5.696518,44.661343],[5.697355,44.661953],[5.698042,44.661999],[5.69787,44.661602],[5.697999,44.661343],[5.697999,44.661175],[5.698085,44.661053],[5.698428,44.661083],[5.699737,44.660839],[5.700059,44.660885],[5.700467,44.661419],[5.700917,44.661419],[5.701733,44.66235],[5.702548,44.662304],[5.702934,44.662487],[5.703363,44.66235],[5.704007,44.662289],[5.704265,44.662594],[5.704372,44.663022],[5.704179,44.663525],[5.704372,44.663815],[5.70493,44.663495],[5.705187,44.663067],[5.705574,44.661923],[5.70596,44.661266],[5.706239,44.66058],[5.706861,44.660259],[5.707054,44.659832],[5.707033,44.659374],[5.707419,44.659175],[5.707805,44.658534],[5.707998,44.658122],[5.710208,44.657237],[5.711088,44.657496],[5.711818,44.657573],[5.711989,44.657786],[5.712161,44.657817],[5.712569,44.657573],[5.713685,44.657924],[5.714285,44.657909],[5.7145,44.658046],[5.714843,44.658122],[5.714972,44.658275],[5.715573,44.658412],[5.716002,44.658412],[5.716753,44.658412],[5.717182,44.658519],[5.717354,44.658763],[5.719199,44.659236],[5.719628,44.659496],[5.7198,44.660122],[5.719478,44.660534],[5.720165,44.660198],[5.720851,44.659114],[5.721431,44.65858],[5.722053,44.65855],[5.722675,44.65887],[5.723298,44.659084],[5.723941,44.65913],[5.725207,44.659832],[5.726237,44.660076],[5.727482,44.660564],[5.728061,44.660717],[5.728147,44.660488],[5.728855,44.66032],[5.729113,44.660427],[5.729735,44.660457],[5.730615,44.660732],[5.730679,44.66116],[5.730507,44.661541],[5.731623,44.661526],[5.732117,44.661755],[5.73246,44.662228],[5.73246,44.66325],[5.733361,44.664319],[5.733962,44.665234],[5.73422,44.66583],[5.73482,44.665982],[5.736237,44.665982],[5.738747,44.666242],[5.743597,44.667203],[5.744841,44.667753],[5.747867,44.670316],[5.748618,44.670759],[5.748875,44.671171],[5.749369,44.671323],[5.749562,44.671629],[5.75057,44.6723],[5.751343,44.672269],[5.751922,44.672147],[5.753274,44.671964],[5.75351,44.672193],[5.753295,44.672437],[5.752759,44.672712],[5.752566,44.673002],[5.752952,44.673261],[5.75351,44.673673],[5.754218,44.673795],[5.75484,44.674162],[5.755506,44.674329],[5.756428,44.675138],[5.756986,44.675352],[5.757823,44.674909],[5.75763,44.674452],[5.75808,44.674665],[5.758982,44.674116],[5.759733,44.673948],[5.760784,44.673399],[5.761042,44.673017],[5.762093,44.67288],[5.762715,44.672071],[5.76278,44.671812],[5.763273,44.671461],[5.763896,44.670789],[5.765655,44.67027],[5.766063,44.670316],[5.766706,44.670118],[5.767028,44.670331],[5.768015,44.670545],[5.768809,44.670606],[5.770805,44.670408],[5.771556,44.670209],[5.7722,44.670179],[5.772779,44.67027],[5.77323,44.67027],[5.77383,44.670438],[5.774131,44.670438],[5.774989,44.670606],[5.775418,44.670591],[5.775611,44.670774],[5.775504,44.67111],[5.775826,44.671445],[5.776212,44.671186],[5.776877,44.671186],[5.777564,44.671384],[5.777757,44.671506],[5.778315,44.671506],[5.779152,44.671659],[5.779989,44.671735],[5.78074,44.671583],[5.782049,44.671476],[5.782521,44.671308],[5.782886,44.671247],[5.783079,44.67114],[5.783014,44.67085],[5.783379,44.670545],[5.787134,44.66966],[5.788078,44.669675],[5.788743,44.669797],[5.789602,44.669767],[5.790739,44.669599],[5.791147,44.669446],[5.792155,44.669523],[5.79237,44.669691],[5.792713,44.669477],[5.792928,44.669614],[5.793207,44.669507],[5.79355,44.669736],[5.793808,44.669736],[5.793958,44.669889],[5.794258,44.669797],[5.794816,44.669919],[5.795352,44.669355],[5.795546,44.669401],[5.795674,44.669172],[5.795889,44.669279],[5.796125,44.66908],[5.796275,44.669141],[5.796382,44.668943],[5.796533,44.669141],[5.796704,44.66905],[5.796897,44.669248],[5.797069,44.669172],[5.797262,44.669218],[5.797754,44.669112],[5.79798,44.669162],[5.798122,44.669011],[5.798235,44.669092],[5.798745,44.669173],[5.798886,44.669032],[5.799396,44.669162],[5.799651,44.669112],[5.800571,44.669072],[5.801264,44.669092],[5.801774,44.669152],[5.802057,44.669112],[5.802312,44.669183],[5.803303,44.669334],[5.803898,44.669384],[5.803968,44.669475],[5.804705,44.669495],[5.804931,44.669444],[5.805441,44.669525],[5.805667,44.669454],[5.805964,44.669454],[5.807026,44.669485],[5.807819,44.669686],[5.808527,44.669857],[5.808668,44.670008],[5.809263,44.670089],[5.809985,44.670441],[5.810296,44.670562],[5.810438,44.670753],[5.810792,44.670934],[5.811401,44.671116],[5.812222,44.671116],[5.813312,44.670995],[5.81351,44.671015],[5.814487,44.670793],[5.815294,44.670693],[5.815917,44.670723],[5.816271,44.670814],[5.817899,44.670975],[5.818791,44.670844],[5.819753,44.670975],[5.821339,44.671337],[5.821664,44.671448],[5.822188,44.671468],[5.822655,44.671559],[5.823646,44.671297],[5.824566,44.670743],[5.824751,44.670512],[5.825175,44.670381],[5.825543,44.67022],[5.825869,44.67023],[5.826676,44.670139],[5.827568,44.669867],[5.828176,44.669787],[5.828799,44.669867],[5.829068,44.669958],[5.829705,44.669928],[5.830328,44.669666],[5.831319,44.669777],[5.832027,44.669706],[5.832622,44.669535],[5.833018,44.669525],[5.833344,44.669475],[5.83408,44.669404],[5.834547,44.669162],[5.835227,44.668548],[5.835524,44.668337],[5.835736,44.667894],[5.835637,44.667652],[5.835864,44.66737],[5.837789,44.666766],[5.838412,44.666847],[5.839049,44.666837],[5.839261,44.666998],[5.83953,44.666968],[5.8397,44.666958],[5.840054,44.666696],[5.840139,44.666535],[5.840167,44.666303],[5.841158,44.666474],[5.841739,44.666484],[5.842064,44.666625],[5.842036,44.667098],[5.842503,44.667411],[5.842645,44.667642],[5.843466,44.667813],[5.843607,44.668417],[5.843763,44.668699],[5.843848,44.669223],[5.843862,44.669706],[5.844046,44.669918],[5.844499,44.669787],[5.845802,44.669465],[5.846506,44.669045],[5.847421,44.668965],[5.847925,44.668752],[5.848233,44.668699],[5.84871,44.668739],[5.849298,44.668646],[5.850027,44.668593],[5.850802,44.66838],[5.85139,44.667988],[5.851876,44.667616],[5.85239,44.667318],[5.853025,44.667145],[5.853828,44.667045],[5.855276,44.666906],[5.855743,44.666687],[5.856051,44.666706],[5.856537,44.666952],[5.857667,44.667185],[5.858274,44.66727],[5.858585,44.667109],[5.858663,44.667001],[5.858964,44.667336],[5.859214,44.6673],[5.859594,44.666524],[5.859674,44.665791],[5.859774,44.66562],[5.860085,44.665321],[5.860265,44.665207],[5.860665,44.664986],[5.861026,44.664652],[5.861296,44.664061],[5.861336,44.663705],[5.861326,44.663505],[5.861366,44.663278],[5.861076,44.662836],[5.860313,44.66184],[5.859485,44.661006],[5.858795,44.659976],[5.858588,44.65942],[5.858657,44.658814],[5.858981,44.658181],[5.858851,44.657071],[5.858298,44.656365],[5.858021,44.65574],[5.858444,44.654919],[5.85916,44.654005],[5.859371,44.65345],[5.859387,44.653207],[5.858737,44.652594],[5.858737,44.652027],[5.858964,44.65153],[5.859127,44.650731],[5.859046,44.650442],[5.858964,44.649736],[5.859078,44.649598],[5.858834,44.648938],[5.858997,44.648637],[5.858964,44.648209],[5.859062,44.647874],[5.859111,44.64674],[5.860022,44.646555],[5.860639,44.646277],[5.860965,44.646046],[5.860883,44.645525],[5.860412,44.645213],[5.859387,44.644727],[5.859013,44.644322],[5.858818,44.643905],[5.858867,44.643524],[5.859371,44.643096],[5.860265,44.642702],[5.860233,44.642448],[5.860265,44.642216],[5.860152,44.642019],[5.860233,44.641719],[5.860103,44.641487],[5.860233,44.641256],[5.859615,44.640793],[5.858314,44.640538],[5.857794,44.640295],[5.857582,44.639925],[5.858086,44.639485],[5.858704,44.639231],[5.860103,44.638514],[5.860802,44.637958],[5.861144,44.637553],[5.860379,44.637206],[5.860184,44.636685],[5.859826,44.636489],[5.859355,44.636361],[5.859046,44.635887],[5.859127,44.635482],[5.858851,44.635088],[5.858525,44.635077],[5.858265,44.635158],[5.85794,44.63547],[5.857533,44.635771],[5.857176,44.636107],[5.856493,44.636408],[5.85607,44.636801],[5.85594,44.637032],[5.855436,44.637032],[5.855517,44.637426],[5.855257,44.63768],[5.854834,44.638004],[5.854704,44.638328],[5.854249,44.638595],[5.854053,44.6393],[5.852525,44.639971],[5.852037,44.640238],[5.851663,44.640365],[5.85137,44.640596],[5.851077,44.640654],[5.850574,44.640559],[5.850842,44.640827],[5.850756,44.640918],[5.850295,44.640666],[5.850059,44.640277],[5.849726,44.640361],[5.849383,44.640132],[5.8492,44.639918],[5.848457,44.63968],[5.847802,44.639246],[5.847468,44.639263],[5.847273,44.639394],[5.847181,44.639623],[5.846963,44.639614],[5.84679,44.639688],[5.84556,44.639844],[5.845268,44.639808],[5.844711,44.639522],[5.844083,44.63951],[5.843316,44.639212],[5.842497,44.639113],[5.842149,44.639237],[5.841835,44.639039],[5.841277,44.638853],[5.84004,44.639138],[5.839203,44.639436],[5.838279,44.639609],[5.83753,44.640105],[5.836902,44.639907],[5.836711,44.639907],[5.836188,44.639609],[5.835832,44.639623],[5.835245,44.63959],[5.834854,44.639287],[5.834774,44.639549],[5.834613,44.63941],[5.834314,44.639361],[5.834371,44.639107],[5.834107,44.638894],[5.833831,44.638886],[5.833509,44.638731],[5.83352,44.638559],[5.833233,44.638215],[5.833302,44.637847],[5.832704,44.637782],[5.832485,44.637814],[5.831795,44.637561],[5.831011,44.637551],[5.830645,44.637439],[5.830157,44.637055],[5.829739,44.63667],[5.829373,44.63662],[5.82899,44.636608],[5.828833,44.636695],[5.828554,44.636744],[5.828083,44.63693],[5.827055,44.636844],[5.826706,44.636707],[5.827038,44.636496],[5.827543,44.636434],[5.82763,44.636335],[5.827543,44.636124],[5.826828,44.636006],[5.826644,44.636309],[5.826058,44.636464],[5.825506,44.636661],[5.824816,44.63689],[5.823712,44.636972],[5.822585,44.636931],[5.821906,44.637004],[5.820803,44.6368],[5.820067,44.636833],[5.819607,44.636759],[5.819319,44.6368],[5.819043,44.636677],[5.818549,44.636603],[5.818181,44.636358],[5.816996,44.636006],[5.816651,44.635769],[5.816134,44.635777],[5.816123,44.635417],[5.815927,44.635458],[5.815375,44.635343],[5.814835,44.635368],[5.814179,44.635352],[5.81342,44.635572],[5.813129,44.635591],[5.812589,44.635467],[5.811665,44.635727],[5.811317,44.636124],[5.810776,44.63626],[5.809959,44.636014],[5.809718,44.635744],[5.808625,44.635728],[5.808246,44.635892],[5.80797,44.635892],[5.807878,44.635752],[5.807889,44.635597],[5.807636,44.635491],[5.807027,44.635368],[5.806843,44.63509],[5.806475,44.634893],[5.806164,44.634558],[5.80598,44.634517],[5.805682,44.634247],[5.805521,44.634239],[5.805509,44.634402],[5.805337,44.634435],[5.805072,44.634304],[5.804727,44.633625],[5.804371,44.633306],[5.804463,44.633069],[5.804474,44.632766],[5.804348,44.632553],[5.804371,44.632365],[5.804428,44.632177],[5.804348,44.631857],[5.804175,44.631702],[5.80316,44.631498],[5.80302,44.631362],[5.802829,44.631002],[5.802497,44.630779],[5.802166,44.630543],[5.8018,44.630394],[5.801661,44.630072],[5.801033,44.629625],[5.799465,44.628633],[5.799116,44.628459],[5.799116,44.628298],[5.798837,44.628199],[5.798698,44.627951],[5.798367,44.627851],[5.798384,44.627616],[5.798088,44.62712],[5.797826,44.62702],[5.797826,44.626561],[5.797478,44.625867],[5.79706,44.625209],[5.79645,44.624614],[5.796728,44.624341],[5.796763,44.623894],[5.797007,44.623522],[5.796903,44.623125],[5.796781,44.622964],[5.797251,44.622666],[5.798437,44.62155],[5.798646,44.620917],[5.798227,44.621302],[5.797478,44.621761],[5.796763,44.621997],[5.795944,44.62186],[5.794707,44.622195],[5.795038,44.621637],[5.795369,44.621227],[5.795857,44.621153],[5.796432,44.62057],[5.796572,44.620235],[5.79685,44.619999],[5.796136,44.620148],[5.79516,44.620235],[5.794585,44.620595],[5.794062,44.620768],[5.794567,44.620049],[5.794585,44.619677],[5.794323,44.619255],[5.794776,44.619044],[5.795596,44.619118],[5.795962,44.619019],[5.796572,44.618535],[5.796868,44.618225],[5.796763,44.618114],[5.796432,44.61825],[5.795909,44.618337],[5.79523,44.618225],[5.794306,44.618213],[5.794463,44.618126],[5.795108,44.618064],[5.795735,44.617779],[5.796415,44.61753],[5.796572,44.617295],[5.796624,44.617022],[5.797251,44.616091],[5.79746,44.615533],[5.797652,44.615471],[5.79807,44.615732],[5.798454,44.615856],[5.799604,44.616079],[5.800877,44.616277],[5.801452,44.616501],[5.801556,44.616674],[5.801521,44.616972],[5.80187,44.617456],[5.802149,44.617878],[5.802341,44.61789],[5.80248,44.617729],[5.802585,44.617121],[5.802759,44.616774],[5.802428,44.616401],[5.802428,44.61588],[5.802271,44.615471],[5.801678,44.614491],[5.801365,44.614454],[5.800981,44.613995],[5.801417,44.613263],[5.80194,44.612853],[5.802707,44.612952],[5.804345,44.613238],[5.805199,44.61325],[5.805582,44.613089],[5.805112,44.612878],[5.80309,44.611538],[5.802759,44.611191],[5.802881,44.611029],[5.803264,44.611004],[5.803752,44.611191],[5.804397,44.611253],[5.80506,44.611116],[5.804798,44.610818],[5.805007,44.610409],[5.804746,44.60995],[5.804066,44.609267],[5.80377,44.608498],[5.804136,44.608051],[5.804868,44.607692],[5.806715,44.607307],[5.807099,44.607034],[5.807726,44.606773],[5.80865,44.606128],[5.809086,44.605805],[5.809713,44.605421],[5.809243,44.604949],[5.809121,44.604689],[5.809068,44.604292],[5.809225,44.60387],[5.809225,44.603572],[5.810253,44.602691],[5.810375,44.602318],[5.811125,44.601884],[5.811282,44.601748],[5.811752,44.601636],[5.812205,44.601152],[5.812641,44.60104],[5.812554,44.600656],[5.813077,44.600147],[5.813652,44.600085],[5.814158,44.599899],[5.81482,44.599328],[5.81475,44.599042],[5.814558,44.598869],[5.814524,44.598521],[5.814419,44.598409],[5.81468,44.59764],[5.814576,44.597193],[5.814558,44.596784],[5.814262,44.596002],[5.814611,44.595592],[5.81529,44.595332],[5.815412,44.595083],[5.815709,44.594996],[5.816162,44.59445],[5.816632,44.594078],[5.816737,44.593855],[5.816911,44.593731],[5.817016,44.593532],[5.81841,44.592961],[5.818706,44.592961],[5.819003,44.592824],[5.819125,44.592576],[5.8197,44.592353],[5.820659,44.591807],[5.821094,44.591856],[5.821443,44.591534],[5.821495,44.591298],[5.821338,44.590888],[5.821042,44.590739],[5.82092,44.590466],[5.820781,44.590367],[5.820693,44.590168],[5.820327,44.589933],[5.820397,44.589709],[5.820885,44.589237],[5.82146,44.588282],[5.821861,44.587785],[5.822332,44.587475],[5.822227,44.58709],[5.822837,44.586159],[5.823709,44.585563],[5.824301,44.584881],[5.824615,44.584248],[5.824685,44.583689],[5.825068,44.583354],[5.826044,44.581976],[5.826445,44.581206],[5.826741,44.580945],[5.827038,44.580797],[5.826811,44.580573],[5.826741,44.580213],[5.826375,44.579543],[5.82648,44.578885],[5.826271,44.578401],[5.82648,44.577991],[5.826114,44.577122],[5.825208,44.576725],[5.825173,44.575918],[5.825016,44.575334],[5.824615,44.574912],[5.824597,44.574651],[5.823656,44.574664],[5.823099,44.574962],[5.822872,44.574937],[5.822698,44.574688],[5.821687,44.574837],[5.821147,44.574527],[5.820153,44.574217],[5.8197,44.574266],[5.819107,44.574415],[5.818393,44.57444],[5.818114,44.574391],[5.817835,44.57454],[5.817399,44.574701],[5.817016,44.575011],[5.816842,44.575384],[5.816388,44.575495],[5.816144,44.575384],[5.815866,44.57562],[5.815866,44.575793],[5.815639,44.575942],[5.815012,44.575942],[5.814785,44.576104],[5.814471,44.576104],[5.814192,44.575967],[5.813652,44.576067],[5.813303,44.576091],[5.812868,44.576203],[5.812502,44.576451],[5.812275,44.576886],[5.811787,44.577296],[5.811334,44.577507],[5.810985,44.577755],[5.809765,44.578351],[5.809399,44.578363],[5.809051,44.578239],[5.808598,44.577929],[5.807709,44.577842],[5.807639,44.577147],[5.807778,44.576874],[5.807726,44.576439],[5.808354,44.575371],[5.808406,44.574962],[5.808371,44.574316],[5.808371,44.573062],[5.80851,44.572404],[5.809103,44.571796],[5.809277,44.571386],[5.809086,44.570914],[5.809208,44.569884],[5.809033,44.569399],[5.808075,44.567822],[5.807744,44.566755],[5.807622,44.565823],[5.806994,44.565786],[5.804955,44.566618],[5.804415,44.567053],[5.803369,44.567251],[5.802375,44.567214],[5.801975,44.567053],[5.801609,44.566966],[5.801312,44.566668],[5.801521,44.566332],[5.801487,44.565848],[5.801765,44.565153],[5.801626,44.56478],[5.801748,44.564147],[5.801626,44.563787],[5.801643,44.563129],[5.801818,44.562694],[5.802009,44.562396],[5.801975,44.56216],[5.802027,44.561663],[5.801975,44.561254],[5.80187,44.561167],[5.802009,44.560769],[5.80194,44.560384],[5.801853,44.559925],[5.801469,44.559267],[5.801661,44.559068],[5.802236,44.558894],[5.802881,44.558435],[5.803055,44.558199],[5.80377,44.558174],[5.804467,44.557838],[5.80499,44.557329],[5.805199,44.55682],[5.805495,44.556721],[5.806192,44.556522],[5.806611,44.556162],[5.80689,44.555628],[5.806959,44.555106],[5.807918,44.555193],[5.808528,44.555044],[5.80872,44.554783],[5.80926,44.55446],[5.809504,44.553156],[5.810654,44.552573],[5.810724,44.5522],[5.811073,44.551952],[5.811508,44.55184],[5.812345,44.551331],[5.812798,44.551268],[5.812972,44.550946],[5.814576,44.550026],[5.814959,44.549989],[5.815221,44.549728],[5.815552,44.548859],[5.815866,44.548673],[5.816127,44.548213],[5.816179,44.547629],[5.81651,44.547257],[5.816685,44.546834],[5.817033,44.546387],[5.817103,44.546126],[5.817051,44.545903],[5.817452,44.545741],[5.817835,44.544201],[5.817103,44.543754],[5.817155,44.54317],[5.817242,44.54281],[5.81726,44.542387],[5.817208,44.54189],[5.817347,44.540561],[5.817521,44.539977],[5.817382,44.539418],[5.817486,44.538934],[5.817608,44.538772],[5.817626,44.538449],[5.817818,44.53825],[5.818009,44.537853],[5.818428,44.537642],[5.818776,44.537642],[5.819369,44.537443],[5.820118,44.537095],[5.820763,44.537058],[5.820937,44.536896],[5.821251,44.536722],[5.821286,44.536524],[5.821582,44.536424],[5.821515,44.536209],[5.821734,44.535988],[5.821757,44.535644],[5.822067,44.535193],[5.821711,44.534972],[5.82207,44.534486],[5.822286,44.534406],[5.822746,44.534398],[5.822941,44.534464],[5.823176,44.534082],[5.823186,44.533902],[5.823918,44.531827],[5.824109,44.531057],[5.824144,44.530361],[5.824946,44.528174],[5.825138,44.528274],[5.825434,44.528001],[5.825295,44.527653],[5.825608,44.527715],[5.826323,44.527665],[5.826689,44.527479],[5.82709,44.527131],[5.827351,44.527056],[5.827665,44.526572],[5.827857,44.525838],[5.8277,44.525441],[5.827752,44.525254],[5.827595,44.524994],[5.827682,44.524509],[5.827351,44.524111],[5.827299,44.523801],[5.827508,44.52354],[5.827351,44.523279],[5.827473,44.523055],[5.828205,44.522831],[5.82838,44.522633],[5.827595,44.522446],[5.826863,44.522421],[5.825992,44.522707],[5.825591,44.524211],[5.825208,44.523664],[5.824998,44.522931],[5.825086,44.522235],[5.825626,44.521154],[5.826619,44.519998],[5.826985,44.51975],[5.827282,44.519339],[5.82777,44.518967],[5.829077,44.518432],[5.829303,44.518606],[5.829687,44.518581],[5.829879,44.51847],[5.830001,44.518233],[5.830593,44.51801],[5.830942,44.517562],[5.831186,44.517587],[5.831935,44.517363],[5.832231,44.517413],[5.832528,44.517649],[5.833033,44.517413],[5.833591,44.517413],[5.83387,44.517189],[5.834096,44.516866],[5.834671,44.516605],[5.835247,44.516792],[5.835613,44.516692],[5.835822,44.516494],[5.836118,44.516456],[5.836345,44.51632],[5.836606,44.516282],[5.837756,44.515586],[5.838175,44.515251],[5.83807,44.515077],[5.838175,44.514903],[5.838053,44.514754],[5.838262,44.514418],[5.838366,44.51417],[5.838889,44.513859],[5.838436,44.513523],[5.838558,44.513014],[5.83875,44.512778],[5.838732,44.512392],[5.838924,44.512218],[5.839011,44.51192],[5.838924,44.511808],[5.838959,44.511497],[5.83875,44.511286],[5.838332,44.511075],[5.838419,44.510317],[5.838227,44.509795],[5.838262,44.509583],[5.838401,44.509484],[5.838088,44.50926],[5.838401,44.508639],[5.838192,44.508539],[5.838262,44.508415],[5.838593,44.508253],[5.839133,44.507769],[5.8399,44.506899],[5.839952,44.506687],[5.840441,44.506352],[5.840772,44.505979],[5.84119,44.50578],[5.84187,44.505183],[5.843037,44.503704],[5.842915,44.50261],[5.843055,44.502274],[5.843194,44.50082],[5.843421,44.500422],[5.843334,44.499776],[5.842881,44.499863],[5.843247,44.499366],[5.843961,44.499627],[5.843961,44.49954],[5.843717,44.499291],[5.843508,44.498756],[5.843857,44.498993],[5.844414,44.499229],[5.84478,44.499726],[5.845111,44.499913],[5.845042,44.499639],[5.844955,44.499005],[5.84539,44.499179],[5.84607,44.499341],[5.846105,44.498694],[5.84539,44.498209],[5.845286,44.4977],[5.844937,44.497352],[5.843857,44.496618],[5.84478,44.496258],[5.845286,44.495549],[5.846767,44.495835],[5.846837,44.495474],[5.847133,44.495101],[5.847848,44.495077],[5.848336,44.495126],[5.848963,44.494903],[5.849172,44.494728],[5.849486,44.494542],[5.849817,44.494169],[5.850375,44.493983],[5.850758,44.493709],[5.850846,44.493523],[5.851351,44.493025],[5.851926,44.492826],[5.852101,44.493],[5.852048,44.493249],[5.852397,44.493063],[5.852536,44.492777],[5.852815,44.492764],[5.85285,44.492913],[5.852536,44.493572],[5.854018,44.492478],[5.853948,44.492205],[5.85407,44.491844],[5.854262,44.491608],[5.854175,44.491396],[5.854227,44.490936],[5.854645,44.490327],[5.855569,44.489594],[5.85583,44.48937],[5.856423,44.48896],[5.856806,44.488873],[5.856806,44.488649],[5.856963,44.488114],[5.857172,44.488164],[5.857172,44.487617],[5.857138,44.487318],[5.857225,44.486833],[5.857399,44.486547],[5.857695,44.486423],[5.85848,44.485565],[5.858602,44.484993],[5.858602,44.484421],[5.858532,44.484048],[5.858724,44.4836],[5.858636,44.483377],[5.85888,44.483004],[5.858898,44.482693],[5.859142,44.48263],[5.85902,44.481971],[5.858689,44.481101],[5.858218,44.481051],[5.858636,44.480865],[5.858671,44.480715],[5.85888,44.480504],[5.85888,44.480417],[5.859787,44.479596],[5.860135,44.479397],[5.859316,44.479261],[5.85956,44.478925],[5.859438,44.4789],[5.859508,44.478701],[5.859421,44.478514],[5.859334,44.478042],[5.859682,44.478092],[5.859734,44.477868],[5.859473,44.477718],[5.859595,44.477619],[5.859508,44.477171],[5.858985,44.477122],[5.858584,44.476935],[5.858079,44.476562],[5.857382,44.476972],[5.856946,44.476674],[5.856196,44.476549],[5.855935,44.476425],[5.856318,44.476313],[5.85651,44.476338],[5.856789,44.476102],[5.857085,44.476052],[5.856719,44.475878],[5.856231,44.475791],[5.856005,44.475666],[5.85597,44.475542],[5.855673,44.475517],[5.855848,44.475343],[5.855429,44.475231],[5.854959,44.475331],[5.854523,44.475256],[5.854453,44.474982],[5.853826,44.474833],[5.853477,44.474361],[5.853007,44.474211],[5.852937,44.474037],[5.852449,44.473988],[5.852362,44.473838],[5.852501,44.47354],[5.852345,44.473353],[5.85231,44.473117],[5.852658,44.472993],[5.852728,44.472843],[5.85339,44.472682],[5.854175,44.472246],[5.854331,44.471712],[5.854628,44.471438],[5.854697,44.470779],[5.855011,44.470256],[5.85536,44.470182],[5.856388,44.470331],[5.857451,44.470095],[5.858183,44.469697],[5.858898,44.46961],[5.858671,44.469498],[5.857887,44.469473],[5.858009,44.469324],[5.859072,44.469162],[5.859665,44.468876],[5.8601,44.4691],[5.86071,44.469025],[5.861059,44.468938],[5.861739,44.469112],[5.861704,44.468938],[5.861338,44.468826],[5.861059,44.468577],[5.860571,44.468565],[5.860344,44.468391],[5.860397,44.46757],[5.860153,44.467644],[5.859769,44.467607],[5.859351,44.467694],[5.858201,44.467296],[5.857852,44.467072],[5.857469,44.46711],[5.857085,44.467122],[5.856928,44.46747],[5.85658,44.467495],[5.856458,44.467147],[5.856841,44.466848],[5.857138,44.466774],[5.857312,44.4666],[5.858375,44.466314],[5.858201,44.466264],[5.857939,44.466301],[5.856806,44.466102],[5.856667,44.466326],[5.856196,44.466264],[5.855865,44.465965],[5.855342,44.465741],[5.85461,44.465617],[5.854105,44.465368],[5.853861,44.465007],[5.85339,44.464846],[5.85285,44.464423],[5.852536,44.464075],[5.851717,44.463838],[5.851107,44.463764],[5.850758,44.463963],[5.850567,44.464448],[5.850654,44.465132],[5.850619,44.466264],[5.850148,44.465256],[5.849835,44.464746],[5.849364,44.464149],[5.849399,44.463341],[5.849713,44.462333],[5.850096,44.462196],[5.850392,44.462035],[5.849591,44.461985],[5.848928,44.462333],[5.84851,44.462719],[5.848754,44.46196],[5.849085,44.461462],[5.850218,44.461064],[5.851525,44.460728],[5.854453,44.460952],[5.856005,44.460567],[5.856388,44.460579],[5.857016,44.460343],[5.857451,44.460368],[5.857399,44.460032],[5.857242,44.459932],[5.85665,44.459223],[5.85644,44.458862],[5.855691,44.458315],[5.855342,44.457917],[5.854854,44.457905],[5.854663,44.457494],[5.854262,44.45737],[5.85407,44.457071],[5.853495,44.456685],[5.853199,44.456524],[5.852989,44.456287],[5.852345,44.456063],[5.852327,44.455815],[5.852048,44.455777],[5.851944,44.455653],[5.851804,44.45564],[5.85156,44.455479],[5.851473,44.455367],[5.851264,44.455354],[5.850758,44.454894],[5.85048,44.45416],[5.850201,44.453849],[5.850009,44.453476],[5.850079,44.45309],[5.849608,44.452816],[5.849835,44.452779],[5.849329,44.452132],[5.849782,44.451846],[5.84966,44.451609],[5.850915,44.4509],[5.851438,44.450788],[5.851996,44.450726],[5.852589,44.450589],[5.853146,44.450739],[5.854035,44.450826],[5.854628,44.450627],[5.854994,44.450415],[5.855778,44.45034],[5.856162,44.450104],[5.856318,44.449843],[5.856684,44.44978],[5.856946,44.449532],[5.857643,44.449096],[5.858811,44.448822],[5.859177,44.448822],[5.859752,44.448623],[5.86017,44.448325],[5.860031,44.448263],[5.85902,44.448387],[5.858445,44.448337],[5.858201,44.448238],[5.858044,44.447516],[5.858218,44.447242],[5.859403,44.446035],[5.859473,44.445562],[5.859856,44.445139],[5.860048,44.444443],[5.86031,44.444169],[5.859926,44.443908],[5.859978,44.443634],[5.860432,44.443236],[5.861216,44.442862],[5.862087,44.442763],[5.862628,44.442501],[5.863395,44.442327],[5.863673,44.442153],[5.865155,44.441755],[5.865068,44.441294],[5.865713,44.44112],[5.867473,44.440199],[5.867804,44.439801],[5.868432,44.439378],[5.869076,44.439104],[5.869111,44.438731],[5.868484,44.438831],[5.867944,44.438781],[5.867368,44.43888],[5.866427,44.439303],[5.866044,44.439279],[5.86519,44.439627],[5.864771,44.439639],[5.864562,44.43954],[5.864109,44.438793],[5.864214,44.438383],[5.864179,44.438034],[5.864702,44.437698],[5.8639,44.43725],[5.863883,44.437014],[5.863551,44.43659],[5.863185,44.436404],[5.86207,44.436006],[5.861024,44.435433],[5.860257,44.434898],[5.859874,44.4345],[5.85949,44.434325],[5.859281,44.434101],[5.858933,44.434014],[5.858358,44.434002],[5.857852,44.433554],[5.85773,44.43328],[5.857835,44.432981],[5.858061,44.432732],[5.857643,44.432546],[5.85705,44.432546],[5.856162,44.432782],[5.855325,44.432645],[5.854645,44.432795],[5.853965,44.433293],[5.853321,44.433355],[5.852763,44.433305],[5.85224,44.433106],[5.851804,44.433367],[5.851508,44.433442],[5.850985,44.433442],[5.850863,44.433728],[5.850079,44.433828],[5.849399,44.433915],[5.849016,44.434139],[5.848528,44.434176],[5.847987,44.434313],[5.847046,44.434039],[5.846454,44.43379],[5.846018,44.433429],[5.845251,44.433417],[5.844223,44.433629],[5.843944,44.434973],[5.8437,44.435134],[5.84234,44.435558],[5.840685,44.435508],[5.839081,44.435918],[5.838349,44.43608],[5.837931,44.436379],[5.837251,44.436167],[5.834584,44.435918],[5.834114,44.435806],[5.833033,44.435707],[5.833033,44.435396],[5.832807,44.435421],[5.832231,44.435694],[5.831412,44.435906],[5.831343,44.436167],[5.831011,44.436329],[5.830924,44.436454],[5.830314,44.43659],[5.829687,44.43664],[5.828815,44.43725],[5.828327,44.437263],[5.828083,44.437437],[5.827351,44.437474],[5.82702,44.437823],[5.826672,44.437872],[5.824789,44.438134],[5.823639,44.438208],[5.822907,44.438096],[5.822384,44.43786],[5.821582,44.437885],[5.821547,44.438059],[5.820223,44.438246],[5.819822,44.438096],[5.818741,44.437785],[5.818445,44.437748],[5.818096,44.437648],[5.817591,44.437549],[5.81726,44.437337],[5.817103,44.436765],[5.81672,44.436702],[5.816371,44.436503],[5.815918,44.436441],[5.8155,44.436466],[5.815221,44.436454],[5.815238,44.43623],[5.815691,44.436192],[5.816162,44.436105],[5.816179,44.435956],[5.816998,44.435284],[5.816964,44.43496],[5.816493,44.435022],[5.816214,44.434923],[5.815813,44.434898],[5.815587,44.434537],[5.815046,44.434512],[5.81421,44.434077],[5.81353,44.433504],[5.813635,44.433205],[5.813879,44.433181],[5.814471,44.433205],[5.814646,44.433106],[5.815029,44.433205],[5.815081,44.433031],[5.815325,44.433106],[5.815395,44.432957],[5.816022,44.432882],[5.816075,44.432683],[5.816336,44.432658],[5.816354,44.432421],[5.816528,44.432409],[5.816754,44.432185],[5.816964,44.432048],[5.816632,44.431413],[5.816493,44.430965],[5.816232,44.430791],[5.816057,44.429957],[5.815447,44.429571],[5.81482,44.428936],[5.814558,44.428501],[5.813722,44.428264],[5.813652,44.427804],[5.813513,44.427468],[5.813216,44.427331],[5.812502,44.427306],[5.8117,44.427045],[5.80994,44.426982],[5.809417,44.426746],[5.80851,44.426609],[5.807221,44.426248],[5.806123,44.426236],[5.805286,44.426136],[5.804554,44.425962],[5.803648,44.425638],[5.803212,44.425464],[5.802759,44.425464],[5.802341,44.425103],[5.801748,44.425078],[5.800615,44.424443],[5.800249,44.424119],[5.799866,44.423534],[5.799273,44.422949],[5.798541,44.422526],[5.798192,44.422115],[5.797356,44.422115],[5.796659,44.420945],[5.794637,44.421954],[5.79401,44.421182],[5.793434,44.420896],[5.792092,44.420572],[5.791291,44.420261],[5.790193,44.420111],[5.789495,44.419788],[5.788345,44.419875],[5.787369,44.420012],[5.787038,44.419925],[5.786498,44.419588],[5.785609,44.419364],[5.785452,44.419489],[5.785382,44.419788],[5.785103,44.419825],[5.784458,44.419813],[5.783831,44.420074],[5.783029,44.420111],[5.782315,44.420049],[5.782384,44.419539],[5.781914,44.419476],[5.781286,44.419091],[5.780502,44.418605],[5.779892,44.417983],[5.779125,44.41731],[5.778445,44.417236],[5.778045,44.417086],[5.777783,44.416738],[5.77726,44.416327],[5.776912,44.416277],[5.776877,44.415866],[5.776058,44.415418],[5.775761,44.415082],[5.774855,44.414621],[5.773705,44.413737],[5.773374,44.413202],[5.77292,44.412866],[5.772258,44.412542],[5.772415,44.412144],[5.772432,44.411733],[5.772624,44.411335],[5.772572,44.410874],[5.772851,44.410177],[5.773217,44.409778],[5.773217,44.409168],[5.772746,44.409243],[5.771578,44.409069],[5.770602,44.408795],[5.770132,44.408546],[5.769469,44.409666],[5.768981,44.409977],[5.768633,44.410388],[5.76811,44.410687],[5.767517,44.411559],[5.767099,44.411683],[5.766681,44.412019],[5.766733,44.412181],[5.766977,44.41243],[5.767291,44.413053],[5.767343,44.413464],[5.76682,44.413439],[5.766594,44.413376],[5.76635,44.413376],[5.765774,44.413078],[5.765339,44.413003],[5.764973,44.413028],[5.764276,44.412704],[5.763962,44.412853],[5.763387,44.412891],[5.762324,44.413289],[5.76126,44.414186],[5.760668,44.413999],[5.758751,44.413912],[5.757199,44.413663],[5.756223,44.413999],[5.755683,44.413812],[5.755143,44.413389],[5.754655,44.412567],[5.754271,44.412306],[5.753365,44.412032],[5.752877,44.412082],[5.751901,44.412144],[5.750873,44.412393],[5.750611,44.412144],[5.74967,44.411795],[5.748868,44.411559],[5.748136,44.411484],[5.747526,44.411584],[5.745696,44.411247],[5.745069,44.411322],[5.744494,44.411658],[5.744128,44.411198],[5.743692,44.411036],[5.743413,44.411235],[5.743047,44.411833],[5.742245,44.412642],[5.741635,44.412405],[5.741339,44.412468],[5.740799,44.412766],[5.739927,44.413028],[5.739648,44.413302],[5.739648,44.4137],[5.738934,44.413986],[5.738637,44.413924],[5.738306,44.414123],[5.737888,44.413775],[5.737156,44.413476],[5.736929,44.413551],[5.736738,44.41375],[5.736441,44.413899],[5.736093,44.414198],[5.735465,44.414621],[5.735117,44.414634],[5.734803,44.414858],[5.734402,44.41502],[5.734001,44.415356],[5.733269,44.415655],[5.732014,44.41624],[5.731997,44.416738],[5.731945,44.417049],[5.731736,44.417136],[5.731178,44.417734],[5.730725,44.418045],[5.730481,44.418381],[5.730289,44.418406],[5.729749,44.418941],[5.729243,44.419252],[5.728807,44.419427],[5.728441,44.419738],[5.727814,44.420024],[5.727413,44.420161],[5.727152,44.420348],[5.726315,44.420597],[5.725043,44.420485],[5.724468,44.42046],[5.724258,44.420734],[5.724991,44.420833],[5.725008,44.42092],[5.724694,44.42092],[5.723509,44.421144],[5.721522,44.421082],[5.721348,44.421493],[5.721156,44.42158],[5.721052,44.42219],[5.720912,44.422352],[5.719343,44.423871],[5.719065,44.424991],[5.718437,44.425115],[5.718472,44.426372],[5.718106,44.426883],[5.718211,44.427468],[5.717984,44.428513],[5.717723,44.428812],[5.717165,44.429198],[5.716084,44.42865],[5.715718,44.428476],[5.715283,44.428463],[5.714324,44.428376],[5.713261,44.428227],[5.712198,44.427928],[5.711256,44.427505],[5.710838,44.427605],[5.709583,44.42758],[5.708869,44.427692],[5.70852,44.427854],[5.70798,44.427878],[5.707178,44.428053],[5.705662,44.428177],[5.705017,44.428264],[5.704477,44.428476],[5.703518,44.428277],[5.703256,44.428302],[5.702995,44.428239],[5.702734,44.428065],[5.702124,44.428003],[5.701444,44.428277],[5.701914,44.428302],[5.702437,44.428563],[5.70235,44.428625],[5.702019,44.428576],[5.701514,44.42865],[5.701008,44.428874],[5.700381,44.429322],[5.699178,44.429882],[5.69862,44.430467],[5.698516,44.430816],[5.697557,44.431849],[5.69693,44.432123],[5.695326,44.432932],[5.694873,44.433529],[5.694716,44.433902],[5.694612,44.434388],[5.695135,44.434487],[5.69496,44.434612],[5.694838,44.434985],[5.69449,44.435159],[5.694106,44.435682],[5.693409,44.436105],[5.692729,44.436528],[5.692485,44.436678],[5.69184,44.437001],[5.691335,44.437661],[5.6913,44.437785],[5.691074,44.437984],[5.69198,44.438034],[5.69266,44.437723],[5.693949,44.437835],[5.693618,44.438482],[5.693671,44.438831],[5.693444,44.439254],[5.692834,44.440734],[5.692485,44.441245],[5.692172,44.441431],[5.692206,44.44168],[5.692067,44.441879],[5.69184,44.442066],[5.691544,44.442414],[5.690917,44.442688],[5.690725,44.442925],[5.690272,44.443049],[5.69015,44.443397],[5.689644,44.443932],[5.688668,44.444604],[5.687623,44.445227],[5.686995,44.445326],[5.68574,44.445351],[5.685496,44.445824],[5.685479,44.446309],[5.685217,44.44672],[5.684921,44.447242],[5.684538,44.447566],[5.684137,44.447802],[5.684119,44.448238],[5.683597,44.448561],[5.683666,44.449034],[5.684207,44.449133],[5.684538,44.449805],[5.685444,44.450067],[5.685862,44.450079],[5.686612,44.450204],[5.687797,44.449669],[5.688268,44.449557],[5.688703,44.449569],[5.689278,44.449308],[5.689888,44.449245],[5.689941,44.449569],[5.690411,44.449793],[5.691143,44.449569],[5.691562,44.449333],[5.694559,44.448375],[5.694838,44.448039],[5.695309,44.447927],[5.695483,44.448151],[5.695117,44.448399],[5.69435,44.449233],[5.693845,44.450378],[5.692973,44.45192],[5.692851,44.452692],[5.692398,44.453339],[5.691474,44.454147],[5.691997,44.454035],[5.69266,44.453737],[5.693182,44.45304],[5.69327,44.454135],[5.692921,44.454135],[5.692729,44.454409],[5.692137,44.454533],[5.691509,44.454956],[5.69076,44.45518],[5.690411,44.455392],[5.689313,44.455628],[5.688512,44.455615],[5.687849,44.45569],[5.687065,44.455516],[5.686559,44.455727],[5.686071,44.455715],[5.685444,44.455454],[5.685078,44.455528],[5.684311,44.455914],[5.684067,44.455989],[5.68337,44.456437],[5.683004,44.456561],[5.682673,44.45676],[5.681888,44.456897],[5.681104,44.457059],[5.680686,44.457034],[5.67917,44.456623],[5.678629,44.456623],[5.678403,44.456922],[5.677235,44.457295],[5.677008,44.457419],[5.675335,44.457793],[5.674777,44.457743],[5.674185,44.457855],[5.673889,44.457793],[5.673,44.457394],[5.672146,44.457569],[5.671414,44.45737],[5.670699,44.457506],[5.669915,44.457071],[5.669322,44.456872],[5.668625,44.456934],[5.667945,44.457108],[5.667823,44.456847],[5.666934,44.456437],[5.66676,44.45615],[5.66676,44.455765],[5.666603,44.455752],[5.666185,44.456225],[5.665923,44.456188],[5.666045,44.455815],[5.666324,44.45574],[5.666289,44.455578],[5.665976,44.455466],[5.665401,44.455827],[5.664111,44.455902],[5.66317,44.456051],[5.663187,44.455939],[5.663954,44.455703],[5.664477,44.455628],[5.664442,44.455242],[5.664215,44.455118],[5.663431,44.455217],[5.662926,44.455404],[5.661287,44.455379],[5.661261,44.455262],[5.662313,44.45493],[5.662428,44.454733],[5.662428,44.454454],[5.663176,44.454121],[5.663504,44.453859],[5.663481,44.453744],[5.663377,44.453719],[5.662204,44.453908],[5.661698,44.45376],[5.661382,44.453854],[5.661123,44.454043],[5.661072,44.45417],[5.661175,44.454413],[5.66106,44.454536],[5.660819,44.45454],[5.660456,44.454429],[5.659812,44.454084],[5.659456,44.453965],[5.658743,44.453809],[5.658318,44.453772],[5.65711,44.453116],[5.656478,44.452869],[5.656213,44.452861],[5.655822,44.453021],[5.655374,44.453103],[5.654621,44.45291],[5.654178,44.452726],[5.653988,44.452738],[5.653632,44.452947],[5.65289,44.453185],[5.65247,44.453243],[5.652258,44.453177],[5.651878,44.453185],[5.651711,44.453136],[5.651217,44.453079],[5.650855,44.453107],[5.649716,44.453009],[5.649412,44.453058],[5.649061,44.45319],[5.648814,44.453231],[5.64867,44.45344],[5.648492,44.453538],[5.648325,44.453538],[5.648181,44.45346],[5.648147,44.453268],[5.647951,44.453181],[5.647307,44.453243],[5.646945,44.453382],[5.646543,44.453411],[5.645945,44.453526],[5.645594,44.453588],[5.645542,44.453703],[5.645278,44.453859],[5.645077,44.453916],[5.644824,44.453908],[5.643099,44.453982],[5.642679,44.454105],[5.642175,44.454398],[5.641689,44.454744],[5.641241,44.454878],[5.640157,44.454944],[5.638588,44.455131],[5.637934,44.455344],[5.637299,44.455238],[5.63545,44.454384],[5.635188,44.454398],[5.634759,44.454198],[5.633563,44.454131],[5.632797,44.454251],[5.632087,44.454491],[5.631527,44.454758],[5.630761,44.454758],[5.63007,44.454358],[5.628843,44.454228],[5.627477,44.45381],[5.627119,44.453654],[5.626639,44.453671],[5.626379,44.453596],[5.626038,44.453625],[5.625672,44.453514],[5.625208,44.453514],[5.624981,44.453445],[5.624688,44.453143],[5.625026,44.452897],[5.624747,44.45253],[5.624608,44.452536],[5.624381,44.45225],[5.624373,44.451952],[5.623885,44.451298],[5.623702,44.450882],[5.623458,44.45072],[5.622795,44.450589],[5.622534,44.450633],[5.622124,44.450801],[5.620826,44.451174],[5.620434,44.451149],[5.620007,44.451305],[5.619597,44.451398],[5.619286,44.451725],[5.618204,44.452082],[5.617644,44.452411],[5.616823,44.452639],[5.616523,44.452839],[5.616423,44.45334],[5.616142,44.453383],[5.616102,44.453697],[5.616323,44.453797],[5.616122,44.45404],[5.615942,44.454497],[5.615642,44.454997],[5.615181,44.455155],[5.614781,44.455598],[5.61418,44.455783],[5.61396,44.455941],[5.613219,44.456055],[5.612639,44.455983],[5.611918,44.456098],[5.611417,44.456941],[5.610877,44.457155],[5.610617,44.457227],[5.610376,44.457613],[5.610216,44.458313],[5.609796,44.458284],[5.609115,44.457956],[5.607153,44.456984],[5.607113,44.456827],[5.606232,44.456541],[5.605531,44.456412],[5.60467,44.456784],[5.60413,44.457241],[5.60403,44.457641],[5.603169,44.458156],[5.602608,44.458384],[5.602488,44.458627],[5.602008,44.458656],[5.601307,44.458999],[5.600766,44.458956],[5.599946,44.459285],[5.599525,44.459613],[5.598905,44.459585],[5.598004,44.459842],[5.597703,44.46007],[5.597763,44.460556],[5.597183,44.460685],[5.596602,44.460999],[5.596482,44.461342],[5.595401,44.461385],[5.59454,44.461714],[5.593259,44.4624],[5.590376,44.463714],[5.589895,44.464071],[5.589695,44.464671],[5.589335,44.464671],[5.588374,44.464257],[5.587152,44.465014],[5.585611,44.465786],[5.585391,44.466172],[5.58499,44.466586],[5.58441,44.466729],[5.583929,44.467015],[5.582928,44.467415],[5.581226,44.467915],[5.579424,44.468172],[5.577562,44.468858],[5.576762,44.469186],[5.57506,44.469787],[5.574419,44.470087],[5.572457,44.471187],[5.570275,44.472801],[5.569094,44.473701],[5.568173,44.474501],[5.568773,44.471787],[5.569014,44.47143],[5.569034,44.471015]]],"type":"MultiLineString"},"properties":{"geo_point":{"lon":5.772763156155694,"lat":44.537229370715714},"name":"GR94 De Vaunières au Col des Praux (Hautes-Alpes) (2019)","code_gr":"GR94"}}]}