{"type":"FeatureCollection","features":[{"type":"Feature","geometry":{"coordinates":[[[5.197187,44.695786],[5.197134,44.695191],[5.197622,44.695017],[5.199174,44.695067],[5.200017,44.694901],[5.199724,44.69474],[5.199188,44.694699],[5.198954,44.694526],[5.198525,44.693636],[5.198282,44.691153],[5.198301,44.690489],[5.198095,44.689998],[5.198095,44.689347],[5.197311,44.687049],[5.197105,44.686106],[5.196806,44.68531],[5.196171,44.683012],[5.195779,44.681604],[5.195274,44.68086],[5.194901,44.680063],[5.194322,44.679399],[5.195181,44.676862],[5.195162,44.676105],[5.195312,44.675627],[5.195947,44.675428],[5.196339,44.67483],[5.196265,44.674232],[5.196582,44.67386],[5.196974,44.673807],[5.197572,44.673581],[5.198207,44.673448],[5.198786,44.672797],[5.199104,44.672253],[5.199515,44.671841],[5.199608,44.671575],[5.200355,44.670898],[5.200991,44.670632],[5.201364,44.669968],[5.202205,44.669636],[5.202466,44.669277],[5.203083,44.668772],[5.203811,44.668307],[5.204222,44.667882],[5.205231,44.666248],[5.2068,44.665757],[5.207846,44.665624],[5.20878,44.665265],[5.209677,44.665066],[5.211601,44.664162],[5.211937,44.663764],[5.212255,44.663511],[5.211638,44.663325],[5.211713,44.663192],[5.212068,44.662966],[5.212385,44.662515],[5.213506,44.661983],[5.214664,44.661943],[5.215355,44.66185],[5.215692,44.661571],[5.216233,44.661718],[5.218568,44.661465],[5.219521,44.661266],[5.219876,44.660788],[5.22053,44.660349],[5.221576,44.659871],[5.222248,44.659353],[5.222846,44.659167],[5.223313,44.658622],[5.223874,44.657452],[5.224621,44.656775],[5.225555,44.65716],[5.226209,44.657187],[5.226545,44.656443],[5.227535,44.655805],[5.227124,44.656536],[5.228039,44.655964],[5.228469,44.656031],[5.228842,44.655845],[5.230468,44.655978],[5.230991,44.655539],[5.231327,44.654914],[5.232298,44.654782],[5.232915,44.654795],[5.232691,44.655114],[5.232765,44.655247],[5.233363,44.655047],[5.23327,44.655473],[5.233905,44.65526],[5.234857,44.655419],[5.234092,44.655672],[5.233867,44.655938],[5.234745,44.656177],[5.23596,44.656084],[5.237211,44.656124],[5.237884,44.655951],[5.238052,44.655685],[5.238425,44.655459],[5.238668,44.655008],[5.239285,44.654795],[5.241209,44.653466],[5.241993,44.653107],[5.243002,44.652868],[5.24388,44.652695],[5.244253,44.651978],[5.244216,44.651632],[5.244403,44.651327],[5.245356,44.651154],[5.245953,44.650915],[5.24586,44.650489],[5.246121,44.650317],[5.246981,44.65041],[5.247336,44.650104],[5.247915,44.649958],[5.248326,44.6494],[5.248793,44.649347],[5.248643,44.649506],[5.248456,44.650343],[5.248251,44.650622],[5.249559,44.651273],[5.249951,44.651353],[5.250175,44.651592],[5.250679,44.651725],[5.251034,44.652695],[5.251352,44.652762],[5.251352,44.653001],[5.251744,44.653772],[5.25223,44.653825],[5.252342,44.654184],[5.252734,44.654436],[5.252846,44.654662],[5.252846,44.654941],[5.252286,44.655233],[5.252043,44.655619],[5.251875,44.656137],[5.251576,44.656841],[5.251819,44.657771],[5.251781,44.658688],[5.25223,44.658276],[5.252603,44.65813],[5.252771,44.657798],[5.252865,44.657187],[5.253388,44.656642],[5.253556,44.656403],[5.253799,44.656921],[5.254154,44.657452],[5.254135,44.657798],[5.25393,44.658157],[5.253948,44.658794],[5.254359,44.658263],[5.255013,44.658011],[5.255237,44.657532],[5.255517,44.657187],[5.25563,44.656708],[5.256115,44.656443],[5.25604,44.656801],[5.256395,44.657386],[5.256414,44.65805],[5.256003,44.658622],[5.257348,44.657745],[5.257666,44.657399],[5.257927,44.656921],[5.258581,44.656828],[5.258394,44.656296],[5.258338,44.655978],[5.258226,44.655685],[5.25873,44.656137],[5.260393,44.656283],[5.260094,44.656084],[5.261476,44.656217],[5.260094,44.655632],[5.260841,44.655765],[5.261514,44.655818],[5.26355,44.656363],[5.264297,44.65627],[5.265437,44.656748],[5.266427,44.657054],[5.267547,44.65732],[5.267809,44.657545],[5.267511,44.658159],[5.267462,44.65844],[5.267302,44.658633],[5.267413,44.658668],[5.267684,44.658457],[5.267795,44.658308],[5.268066,44.658273],[5.268128,44.65837],[5.268004,44.658571],[5.268078,44.658791],[5.268029,44.65901],[5.268128,44.659527],[5.268649,44.66011],[5.268724,44.660455],[5.26906,44.660867],[5.269789,44.661346],[5.26921,44.66116],[5.26964,44.661638],[5.270256,44.66197],[5.270928,44.662342],[5.271657,44.662302],[5.271825,44.663551],[5.272217,44.663232],[5.273525,44.662873],[5.274291,44.66282],[5.274833,44.662966],[5.275561,44.662913],[5.276015,44.663051],[5.275596,44.663042],[5.276693,44.663472],[5.276828,44.663998],[5.276367,44.664149],[5.274967,44.664149],[5.274384,44.664056],[5.274011,44.664096],[5.273861,44.664362],[5.273936,44.665331],[5.273712,44.665597],[5.273338,44.66577],[5.273843,44.665703],[5.274328,44.665624],[5.274459,44.665398],[5.274366,44.664827],[5.274702,44.664601],[5.275468,44.664773],[5.276308,44.664667],[5.275524,44.665145],[5.2753,44.665464],[5.275356,44.665982],[5.275094,44.666235],[5.274272,44.666341],[5.274048,44.666487],[5.27444,44.666434],[5.275019,44.666501],[5.275935,44.666381],[5.275244,44.667444],[5.275356,44.667789],[5.275262,44.668467],[5.275057,44.668825],[5.27472,44.668972],[5.274384,44.669543],[5.275206,44.669543],[5.275711,44.668972],[5.276252,44.668573],[5.276738,44.66836],[5.276999,44.668015],[5.276981,44.6686],[5.276757,44.669264],[5.276738,44.669782],[5.276925,44.669994],[5.276943,44.669729],[5.277224,44.669277],[5.277541,44.669011],[5.278139,44.668918],[5.278793,44.668653],[5.279073,44.66836],[5.279764,44.668121],[5.280642,44.668706],[5.281669,44.669104],[5.282099,44.668998],[5.282043,44.668586],[5.282249,44.667749],[5.28223,44.666966],[5.282454,44.666793],[5.283257,44.667032],[5.284453,44.667019],[5.284584,44.666527],[5.285387,44.665929],[5.285985,44.665836],[5.286844,44.665571],[5.287087,44.665677],[5.287329,44.665703],[5.28733,44.665436],[5.288095,44.665238],[5.288525,44.664946],[5.288924,44.664878],[5.289334,44.664748],[5.289343,44.664946],[5.289543,44.665045],[5.289543,44.665287],[5.289431,44.665361],[5.28951,44.665436],[5.290791,44.664957],[5.290989,44.664421],[5.291201,44.66428],[5.291306,44.663961],[5.29194,44.66367],[5.292178,44.66397],[5.292469,44.664036],[5.292469,44.664205],[5.293156,44.664036],[5.293222,44.66382],[5.293618,44.66366],[5.293974,44.663191],[5.294241,44.663079],[5.294559,44.662834],[5.294587,44.662734],[5.295175,44.662501],[5.295166,44.662594],[5.295437,44.662501],[5.295782,44.662495],[5.295922,44.662229],[5.296146,44.662169],[5.296202,44.661884],[5.296856,44.661558],[5.296763,44.661412],[5.297015,44.661199],[5.297351,44.661173],[5.297781,44.66108],[5.297921,44.660854],[5.298369,44.660754],[5.298547,44.66092],[5.298967,44.660814],[5.299612,44.660708],[5.299873,44.660522],[5.300788,44.660429],[5.301825,44.660415],[5.302526,44.659937],[5.302834,44.659838],[5.303908,44.659997],[5.304459,44.66019],[5.304973,44.660236],[5.30543,44.660362],[5.305972,44.660389],[5.306697,44.660259],[5.307641,44.660412],[5.307856,44.660915],[5.308036,44.6611],[5.308298,44.661106],[5.308214,44.661425],[5.308457,44.661492],[5.308541,44.66191],[5.30897,44.66201],[5.308998,44.662621],[5.309232,44.662986],[5.3094,44.663],[5.309129,44.663166],[5.30855,44.663232],[5.309353,44.663936],[5.310231,44.663923],[5.311221,44.663684],[5.312267,44.663339],[5.313276,44.663232],[5.314976,44.66468],[5.318432,44.667085],[5.319235,44.668108],[5.320318,44.668732],[5.320785,44.669158],[5.321178,44.669928],[5.321551,44.671562],[5.321645,44.672333],[5.321831,44.672665],[5.322261,44.673037],[5.322541,44.673395],[5.323363,44.673634],[5.32383,44.67394],[5.324391,44.674524],[5.324932,44.675016],[5.325381,44.675893],[5.325922,44.676318],[5.32609,44.676623],[5.326315,44.67734],[5.327155,44.67734],[5.327828,44.677566],[5.328743,44.677619],[5.330443,44.678111],[5.331433,44.678802],[5.333039,44.679625],[5.333488,44.679931],[5.334478,44.680409],[5.33515,44.680701],[5.336215,44.681405],[5.336645,44.681763],[5.338569,44.683278],[5.339428,44.683796],[5.342211,44.685974],[5.342734,44.686492],[5.344677,44.68774],[5.34464,44.689294],[5.344696,44.689958],[5.343949,44.691113],[5.343911,44.691737],[5.344696,44.692242],[5.345648,44.692587],[5.345742,44.693052],[5.346171,44.69349],[5.347105,44.693955],[5.347498,44.694035],[5.347834,44.694406],[5.348955,44.695323],[5.348506,44.695588],[5.347647,44.695787],[5.34718,44.695774],[5.346227,44.695602],[5.345985,44.695708],[5.346302,44.696053],[5.347105,44.696504],[5.34789,44.69673],[5.349403,44.696783],[5.350897,44.697036],[5.351458,44.696916],[5.351701,44.697022],[5.351869,44.697726],[5.351626,44.698071],[5.350991,44.698456],[5.350823,44.698682],[5.350823,44.699333],[5.350449,44.699718],[5.350393,44.700222],[5.350729,44.70074],[5.351159,44.700992],[5.352317,44.701271],[5.352093,44.701975],[5.351439,44.702333],[5.35114,44.702772],[5.351719,44.703701],[5.351682,44.704391],[5.35129,44.70471],[5.350711,44.70475],[5.349851,44.704604],[5.349515,44.704657],[5.348917,44.705347],[5.348805,44.706715],[5.348394,44.707843],[5.347255,44.708587],[5.346844,44.709078],[5.346769,44.709569],[5.346881,44.709928],[5.346788,44.711003],[5.346396,44.711906],[5.345163,44.713206],[5.345252,44.713256],[5.345203,44.713387],[5.34598,44.713291],[5.345696,44.713519],[5.346546,44.71344],[5.346029,44.71386],[5.345141,44.714342],[5.344602,44.715078],[5.342286,44.71691],[5.342137,44.716844],[5.341931,44.717268],[5.342118,44.717454],[5.342174,44.717839],[5.342417,44.718184],[5.342585,44.718596],[5.34294,44.718821],[5.342305,44.719166],[5.342006,44.719525],[5.342043,44.719936],[5.341445,44.720587],[5.341595,44.721184],[5.34223,44.721808],[5.342828,44.72206],[5.343706,44.722272],[5.344173,44.722525],[5.344883,44.72283],[5.344976,44.723308],[5.346097,44.723865],[5.346657,44.723998],[5.346458,44.724206],[5.345177,44.724107],[5.344567,44.72428],[5.343922,44.724361],[5.343721,44.724497],[5.343155,44.72555],[5.342491,44.725285],[5.341894,44.725697],[5.341128,44.725604],[5.34096,44.725776],[5.341034,44.726042],[5.341427,44.726307],[5.340866,44.727395],[5.340584,44.727537],[5.341473,44.727952],[5.342475,44.72776],[5.342754,44.727475],[5.342894,44.727488],[5.34319,44.727766],[5.343791,44.727748],[5.343904,44.727822],[5.34387,44.728051],[5.344375,44.728763],[5.345063,44.729141],[5.345917,44.729165],[5.346527,44.728955],[5.346719,44.728974],[5.346928,44.729178],[5.346789,44.72976],[5.346597,44.730119],[5.34685,44.730726],[5.347181,44.730967],[5.347538,44.730998],[5.348044,44.73127],[5.348009,44.731407],[5.347464,44.731823],[5.347324,44.732178],[5.348045,44.732662],[5.348196,44.733205],[5.348461,44.733242],[5.34817,44.733571],[5.348196,44.733899],[5.347893,44.734256],[5.347615,44.734368],[5.347443,44.734612],[5.347523,44.734828],[5.347681,44.735325],[5.347853,44.735466],[5.347893,44.735719],[5.348249,44.736132],[5.349777,44.73837],[5.350057,44.739179],[5.350991,44.741024],[5.35058,44.741607],[5.350561,44.741846],[5.351906,44.740599],[5.35228,44.740493],[5.35327,44.740413],[5.352186,44.74097],[5.35185,44.741674],[5.351626,44.743173],[5.351981,44.74377],[5.352112,44.744805],[5.351477,44.745428],[5.350169,44.746132],[5.349515,44.746556],[5.349142,44.747259],[5.349086,44.747803],[5.349272,44.748812],[5.348955,44.749289],[5.348264,44.74978],[5.347965,44.750443],[5.347591,44.750735],[5.346713,44.750868],[5.346956,44.751067],[5.347535,44.751054],[5.348002,44.750695],[5.348544,44.750536],[5.348899,44.750059],[5.349384,44.749992],[5.350281,44.749462],[5.350487,44.749143],[5.350823,44.748918],[5.35114,44.748201],[5.351738,44.748042],[5.353139,44.747472],[5.353457,44.74718],[5.354241,44.746941],[5.35482,44.746782],[5.355586,44.746848],[5.35581,44.746423],[5.355736,44.746039],[5.355418,44.745826],[5.355717,44.745654],[5.35581,44.745229],[5.355717,44.74507],[5.356053,44.744805],[5.356445,44.744553],[5.356744,44.74454],[5.357006,44.744818],[5.359341,44.745389],[5.358743,44.745508],[5.359957,44.745667],[5.361022,44.745707],[5.361396,44.745468],[5.362236,44.74507],[5.362479,44.744871],[5.362722,44.744977],[5.36289,44.745229],[5.362778,44.745574],[5.362909,44.745773],[5.362703,44.745986],[5.36289,44.746079],[5.36289,44.746251],[5.36332,44.746304],[5.363637,44.746437],[5.364048,44.746503],[5.364515,44.746888],[5.364833,44.747273],[5.3653,44.747538],[5.365879,44.74771],[5.366178,44.748241],[5.366196,44.748652],[5.366832,44.748414],[5.367,44.748559],[5.367018,44.749103],[5.367317,44.749568],[5.366757,44.750098],[5.366346,44.750788],[5.366234,44.751319],[5.366607,44.751372],[5.366607,44.751823],[5.366832,44.752486],[5.367411,44.753123],[5.367704,44.753578],[5.367826,44.753925],[5.367605,44.754646],[5.369227,44.755314],[5.371249,44.754077],[5.37225,44.753651],[5.372991,44.753437],[5.373691,44.753318],[5.374372,44.752741],[5.375013,44.752272],[5.377596,44.754461],[5.378717,44.754816],[5.379017,44.755087],[5.379878,44.754973],[5.381319,44.754532],[5.383161,44.753693],[5.385023,44.754362],[5.385784,44.754575],[5.386385,44.754987],[5.386985,44.755001],[5.387266,44.754674],[5.387846,44.755016],[5.390048,44.755996],[5.390549,44.755741],[5.389948,44.755087],[5.390289,44.754816],[5.391029,44.754674],[5.39157,44.754689],[5.39183,44.754475],[5.392251,44.754248],[5.392511,44.753921],[5.392731,44.754347],[5.393452,44.75429],[5.394613,44.754433],[5.396055,44.75466],[5.397236,44.755158],[5.398557,44.755343],[5.400059,44.75557],[5.40128,44.75594],[5.40144,44.755513],[5.4014,44.754802],[5.40168,44.753935],[5.402221,44.753366],[5.402441,44.753054],[5.402982,44.752869],[5.404223,44.753409],[5.404343,44.753821],[5.404704,44.754091],[5.405024,44.754234],[5.405244,44.754518],[5.406165,44.754035],[5.406425,44.753679],[5.406606,44.753153],[5.407627,44.751817],[5.408127,44.751646],[5.408988,44.751646],[5.409849,44.751504],[5.41137,44.75085],[5.413873,44.749542],[5.415194,44.748632],[5.415695,44.748106],[5.415975,44.74802],[5.415254,44.747323],[5.415395,44.746812],[5.415254,44.746342],[5.415675,44.746499],[5.415815,44.747096],[5.417096,44.747238],[5.417697,44.747181],[5.418278,44.747437],[5.419058,44.747736],[5.419539,44.747978],[5.4203,44.748319],[5.42056,44.748546],[5.420924,44.749159],[5.420924,44.749304],[5.421135,44.7496],[5.421195,44.749895],[5.421162,44.750074],[5.421472,44.750585],[5.421835,44.750843],[5.422218,44.750932],[5.422951,44.750772],[5.423585,44.750777],[5.424004,44.750686],[5.424184,44.750587],[5.424084,44.750388],[5.424324,44.750032],[5.424654,44.74984],[5.424874,44.749833],[5.425105,44.749527],[5.425145,44.748845],[5.425465,44.748184],[5.42577,44.747851],[5.42594,44.747217],[5.425869,44.746694],[5.425968,44.74583],[5.425699,44.745076],[5.425841,44.744784],[5.425756,44.744281],[5.425402,44.743487],[5.424751,44.742602],[5.424736,44.742049],[5.424821,44.741707],[5.425015,44.742005],[5.425305,44.742076],[5.425475,44.742027],[5.425575,44.741913],[5.426126,44.741863],[5.426907,44.741671],[5.428468,44.741181],[5.429139,44.740782],[5.429479,44.74043],[5.429621,44.740108],[5.429422,44.739767],[5.429606,44.739405],[5.430456,44.738741],[5.430668,44.738389],[5.430711,44.737906],[5.43088,44.737564],[5.430923,44.737072],[5.430909,44.736689],[5.431107,44.736237],[5.431659,44.735664],[5.43214,44.73506],[5.432126,44.73495],[5.432339,44.734769],[5.432324,44.734487],[5.432494,44.734105],[5.432539,44.733978],[5.432391,44.73386],[5.432101,44.733794],[5.432286,44.733414],[5.432822,44.733037],[5.433629,44.732796],[5.433993,44.732547],[5.434135,44.732328],[5.434578,44.732267],[5.434923,44.732236],[5.435059,44.732157],[5.435133,44.731851],[5.435238,44.731706],[5.435589,44.731658],[5.435958,44.731496],[5.436186,44.731426],[5.436209,44.731343],[5.437787,44.730468],[5.437857,44.730188],[5.437679,44.730042],[5.437659,44.729827],[5.437679,44.729545],[5.437758,44.729339],[5.437738,44.729217],[5.437785,44.729029],[5.438075,44.728855],[5.438353,44.728823],[5.43863,44.728687],[5.439092,44.728611],[5.439594,44.728386],[5.439845,44.728203],[5.439991,44.727776],[5.440142,44.727556],[5.440294,44.727429],[5.440314,44.727316],[5.440658,44.726894],[5.44071,44.726683],[5.440902,44.726523],[5.441001,44.726401],[5.441186,44.726279],[5.441404,44.726082],[5.441437,44.725974],[5.441807,44.725618],[5.441893,44.725374],[5.44217,44.724966],[5.442236,44.724679],[5.442243,44.724506],[5.442269,44.724341],[5.442243,44.724135],[5.442289,44.724032],[5.44254,44.723788],[5.442698,44.723455],[5.442923,44.72316],[5.443153,44.723032],[5.443314,44.722968],[5.443354,44.72279],[5.443243,44.72257],[5.443053,44.722364],[5.443033,44.722157],[5.443223,44.721745],[5.443263,44.721254],[5.443143,44.721119],[5.442813,44.720991],[5.442923,44.7206],[5.443163,44.72055],[5.443414,44.720386],[5.443754,44.720322],[5.444305,44.720287],[5.444685,44.720358],[5.445005,44.720642],[5.445466,44.72087],[5.445866,44.721439],[5.446537,44.721548],[5.448055,44.721531],[5.448124,44.721335],[5.447986,44.720845],[5.448308,44.720616],[5.44909,44.720322],[5.448906,44.720763],[5.449435,44.721188],[5.450194,44.721302],[5.451114,44.7206],[5.451504,44.720371],[5.45178,44.720306],[5.451872,44.719995],[5.451688,44.71957],[5.45224,44.719325],[5.452746,44.719178],[5.453091,44.719325],[5.45339,44.719292],[5.453639,44.719463],[5.454379,44.719692],[5.454572,44.719394],[5.455366,44.719661],[5.456225,44.720057],[5.457104,44.720393],[5.45836,44.720721],[5.459175,44.721026],[5.459664,44.72133],[5.460302,44.721929],[5.460658,44.721848],[5.460628,44.720463],[5.460165,44.719924],[5.45993,44.718959],[5.459346,44.718517],[5.459194,44.718166],[5.459262,44.717854],[5.459588,44.717282],[5.459649,44.716872],[5.459907,44.71642],[5.460286,44.716215],[5.460484,44.715228],[5.460408,44.714948],[5.460248,44.714759],[5.459968,44.714123],[5.459968,44.713541],[5.460286,44.712797],[5.460415,44.712279],[5.460742,44.711692],[5.461068,44.711368],[5.461364,44.710629],[5.461348,44.710365],[5.461242,44.709999],[5.461227,44.708915],[5.460863,44.708263],[5.460908,44.708149],[5.46103,44.707578],[5.46125,44.707152],[5.461515,44.706694],[5.461667,44.706348],[5.461986,44.706122],[5.462403,44.705993],[5.462714,44.705707],[5.46304,44.705259],[5.463192,44.704941],[5.463237,44.704537],[5.463146,44.704488],[5.462198,44.704494],[5.461568,44.704407],[5.460924,44.704397],[5.459239,44.70417],[5.458496,44.703981],[5.457813,44.703615],[5.457972,44.703604],[5.458708,44.70375],[5.45952,44.703723],[5.460886,44.703431],[5.462008,44.703135],[5.4626,44.70293],[5.461705,44.702898],[5.461326,44.702828],[5.460984,44.702871],[5.460552,44.702709],[5.459604,44.702725],[5.46062,44.702175],[5.460901,44.702137],[5.46106,44.702062],[5.461295,44.702013],[5.463366,44.701334],[5.463913,44.700956],[5.464542,44.700396],[5.464929,44.700115],[5.465187,44.699851],[5.465498,44.699576],[5.465824,44.699134],[5.466712,44.698767],[5.467407,44.698672],[5.468371,44.698468],[5.469533,44.69882],[5.470159,44.698878],[5.470476,44.698843],[5.471818,44.699074],[5.472525,44.699098],[5.473322,44.698942],[5.474217,44.698612],[5.474908,44.698161],[5.475884,44.69793],[5.476835,44.697497],[5.478266,44.69719],[5.478022,44.697774],[5.478038,44.698167],[5.47912,44.699641],[5.479193,44.699369],[5.47938,44.699467],[5.479461,44.700109],[5.479575,44.700386],[5.480349,44.700812],[5.480252,44.700656],[5.480372,44.700333],[5.480372,44.700088],[5.480694,44.699083],[5.481527,44.697992],[5.482124,44.697686],[5.483208,44.697447],[5.483507,44.697208],[5.483712,44.696611],[5.484721,44.696106],[5.484945,44.695827],[5.485244,44.694473],[5.485076,44.694234],[5.485412,44.694221],[5.485281,44.694021],[5.485449,44.693278],[5.485281,44.693251],[5.4853,44.692986],[5.48565,44.692741],[5.48565,44.692662],[5.485181,44.692557],[5.48496,44.692391],[5.485292,44.692435],[5.48687,44.692321],[5.487289,44.692391],[5.488681,44.692417],[5.489372,44.692032],[5.489791,44.691883],[5.490012,44.691681],[5.490507,44.690898],[5.491591,44.690391],[5.493176,44.69011],[5.494021,44.689603],[5.495051,44.689264],[5.495844,44.688382],[5.49727,44.687687],[5.497772,44.68733],[5.498116,44.687161],[5.498459,44.686785],[5.499067,44.68671],[5.498987,44.68641],[5.499225,44.685959],[5.498987,44.685658],[5.498565,44.684531],[5.498644,44.684156],[5.498829,44.684006],[5.49867,44.683348],[5.498738,44.683007],[5.498701,44.682586],[5.498935,44.682122],[5.498812,44.681833],[5.49891,44.681403],[5.498908,44.680812],[5.499278,44.680061],[5.499146,44.679854],[5.500123,44.67854],[5.500071,44.67807],[5.499569,44.677844],[5.499965,44.677168],[5.500335,44.676943],[5.500388,44.676492],[5.500784,44.676379],[5.502025,44.675816],[5.502131,44.675365],[5.502501,44.675158],[5.50295,44.675139],[5.503637,44.674576],[5.504112,44.673768],[5.505671,44.673204],[5.504562,44.673261],[5.505565,44.67266],[5.507203,44.672322],[5.5076,44.672059],[5.505513,44.672171],[5.507917,44.67142],[5.508894,44.6708],[5.509158,44.670931],[5.51003,44.670762],[5.510902,44.67037],[5.511518,44.669967],[5.511641,44.669712],[5.511839,44.669607],[5.512025,44.669297],[5.512347,44.669198],[5.512931,44.669322],[5.513376,44.669216],[5.513916,44.668907],[5.514482,44.668448],[5.514735,44.668107],[5.514709,44.667915],[5.515005,44.667692],[5.515023,44.667958],[5.515215,44.667878],[5.515241,44.668039],[5.516408,44.666483],[5.516469,44.66631],[5.517018,44.665956],[5.517167,44.665504],[5.517411,44.665423],[5.517611,44.665206],[5.517585,44.665417],[5.517393,44.66556],[5.517628,44.66556],[5.51748,44.665715],[5.517754,44.665654],[5.517853,44.665829],[5.518444,44.665619],[5.520786,44.666776],[5.521846,44.666881],[5.523325,44.667267],[5.524089,44.667179],[5.525025,44.665917],[5.52505,44.665531],[5.52542,44.665409],[5.525297,44.665023],[5.525839,44.664585],[5.525937,44.663796],[5.525765,44.66341],[5.527244,44.663007],[5.527934,44.662691],[5.528501,44.662674],[5.529659,44.662516],[5.529857,44.662323],[5.530177,44.662341],[5.530547,44.662201],[5.529857,44.662025],[5.529339,44.661517],[5.529402,44.661109],[5.529158,44.660762],[5.529071,44.660428],[5.52867,44.659808],[5.528635,44.659374],[5.528443,44.659002],[5.528391,44.65827],[5.528565,44.658047],[5.528635,44.657713],[5.528861,44.657502],[5.529053,44.657427],[5.529367,44.657167],[5.529942,44.657031],[5.530726,44.656622],[5.53118,44.655803],[5.53118,44.655357],[5.532103,44.654774],[5.5328,44.654675],[5.533428,44.654725],[5.534613,44.654402],[5.53477,44.653968],[5.535728,44.653733],[5.536844,44.653014],[5.537611,44.652915],[5.538273,44.652679],[5.538535,44.651997],[5.539023,44.652307],[5.539267,44.652034],[5.539702,44.651923],[5.540086,44.65222],[5.540365,44.652009],[5.540539,44.65222],[5.541079,44.652257],[5.541654,44.651712],[5.541776,44.652047],[5.542195,44.6516],[5.542421,44.65191],[5.542421,44.652245],[5.543031,44.651675],[5.543432,44.651538],[5.544007,44.651972],[5.544687,44.651972],[5.545454,44.652133],[5.545646,44.652468],[5.545872,44.652642],[5.546866,44.652567],[5.547667,44.652183],[5.547981,44.651749],[5.547842,44.651352],[5.548208,44.651154],[5.548347,44.650757],[5.548887,44.650472],[5.549288,44.650026],[5.54955,44.649592],[5.550264,44.649306],[5.551293,44.649306],[5.551938,44.649604],[5.552635,44.64953],[5.553489,44.649269],[5.554116,44.649306],[5.554552,44.649517],[5.554866,44.649778],[5.555127,44.649356],[5.555911,44.649616],[5.556696,44.649604],[5.55741,44.649306],[5.557619,44.648897],[5.558351,44.648674],[5.558927,44.648624],[5.559223,44.648116],[5.55999,44.647112],[5.560338,44.64705],[5.560617,44.646578],[5.561088,44.646281],[5.56114,44.646516],[5.56175,44.646727],[5.564818,44.646913],[5.56548,44.647198],[5.566107,44.647285],[5.566456,44.647583],[5.56548,44.648166],[5.565462,44.648476],[5.565567,44.648637],[5.56555,44.648959],[5.565776,44.649207],[5.565898,44.649666],[5.566491,44.649616],[5.566421,44.649926],[5.566822,44.650435],[5.567048,44.650918],[5.567484,44.651018],[5.568896,44.650956],[5.571179,44.651179],[5.571266,44.651464],[5.573933,44.651476],[5.574752,44.651365],[5.575101,44.650968],[5.576024,44.650621],[5.578726,44.649988],[5.579946,44.649951],[5.583083,44.650236],[5.583223,44.649889],[5.583467,44.65015],[5.584129,44.650646],[5.584809,44.650732],[5.585454,44.650695],[5.586133,44.650274],[5.586395,44.650398],[5.587022,44.65036],[5.588783,44.650038],[5.589985,44.650038],[5.590525,44.649951],[5.591414,44.649951],[5.59192,44.650311],[5.592634,44.650596],[5.593018,44.650881],[5.594151,44.651179],[5.595144,44.651885],[5.595371,44.652456],[5.596364,44.652791],[5.597201,44.653534],[5.597846,44.653274],[5.598107,44.653039],[5.598612,44.653212],[5.599135,44.653497],[5.59978,44.653634],[5.600774,44.653646],[5.60114,44.65382],[5.601976,44.654601],[5.602377,44.654663],[5.60344,44.65465],[5.604155,44.654712],[5.606508,44.654514],[5.607031,44.654588],[5.607641,44.654502],[5.608042,44.65434],[5.608704,44.65439],[5.609384,44.654167],[5.60968,44.653844],[5.610795,44.653646],[5.611353,44.653386],[5.610917,44.652877],[5.611109,44.652307],[5.610987,44.652096],[5.610255,44.651774],[5.610273,44.651625],[5.610429,44.651327],[5.61097,44.651129],[5.611144,44.650894],[5.611161,44.650608],[5.611545,44.650261],[5.611719,44.649889],[5.612259,44.649815],[5.613079,44.649468],[5.61517,44.64824],[5.616111,44.648116],[5.616652,44.64788],[5.617157,44.647905],[5.617994,44.648091],[5.619179,44.648042],[5.619754,44.647806],[5.620347,44.647769],[5.621201,44.647583],[5.621898,44.647657],[5.623292,44.647496],[5.624129,44.647335],[5.624634,44.647161],[5.625157,44.647124],[5.625924,44.646851],[5.626882,44.646802],[5.628207,44.646578],[5.629619,44.646454],[5.630246,44.646306],[5.630839,44.646206],[5.631606,44.645834],[5.632477,44.645772],[5.633488,44.645785],[5.634011,44.645624],[5.634272,44.646033],[5.634847,44.646479],[5.635405,44.646628],[5.635858,44.646405],[5.635963,44.645921],[5.636503,44.645549],[5.636695,44.645053],[5.637218,44.644731],[5.63727,44.644433],[5.637497,44.644086],[5.637566,44.64385],[5.638176,44.643652],[5.637915,44.643503],[5.638473,44.643342],[5.638821,44.643119],[5.639379,44.642958],[5.639571,44.642548],[5.640233,44.6424],[5.640512,44.642102],[5.640494,44.641705],[5.640756,44.641333],[5.640965,44.641296],[5.641192,44.640887],[5.641558,44.640688],[5.642342,44.640738],[5.643161,44.640651],[5.643876,44.640043],[5.644346,44.63977],[5.644712,44.639708],[5.644503,44.639163],[5.645706,44.638034],[5.645671,44.638878],[5.645897,44.639101],[5.646211,44.639076],[5.64656,44.63894],[5.647466,44.639138],[5.648599,44.639163],[5.649226,44.639448],[5.65022,44.639659],[5.65083,44.639002],[5.652085,44.638295],[5.652503,44.638096],[5.652573,44.637861],[5.652311,44.637526],[5.652643,44.637005],[5.653514,44.636162],[5.653845,44.635665],[5.654473,44.635281],[5.654351,44.636199],[5.654577,44.636769],[5.654995,44.636906],[5.655327,44.63672],[5.655693,44.636794],[5.656303,44.636397],[5.656651,44.636286],[5.657052,44.635777],[5.657884,44.63563],[5.658221,44.635404],[5.659005,44.635431],[5.659584,44.635909],[5.659547,44.636308],[5.659752,44.636694],[5.660051,44.636734],[5.659958,44.636973],[5.66035,44.637571],[5.660182,44.638236],[5.65979,44.639193],[5.658706,44.639924],[5.65964,44.640522],[5.659827,44.640894],[5.659958,44.642329],[5.659603,44.643273],[5.659584,44.643924],[5.659397,44.644416],[5.659566,44.64512],[5.659211,44.645838],[5.659379,44.646649],[5.659192,44.649586],[5.660219,44.649931],[5.662573,44.650396],[5.663825,44.650224],[5.665394,44.649798],[5.666085,44.649347],[5.667019,44.649107],[5.666963,44.649958],[5.667336,44.650184],[5.66743,44.650476],[5.667972,44.650529],[5.668719,44.650808],[5.668719,44.651194],[5.668962,44.651446],[5.66941,44.651433],[5.669709,44.651632],[5.670568,44.651951],[5.671483,44.651951],[5.671969,44.65223],[5.672324,44.652204],[5.67281,44.652376],[5.673295,44.652443],[5.67352,44.652709],[5.673987,44.652868],[5.67436,44.652921],[5.674958,44.653187],[5.675219,44.653426],[5.675836,44.653426],[5.676041,44.653692],[5.676546,44.653798],[5.676695,44.653998],[5.677237,44.654157],[5.677218,44.654556],[5.677498,44.654635],[5.677554,44.654848],[5.67776,44.654861],[5.677928,44.655034],[5.678563,44.655353],[5.678881,44.655818],[5.679236,44.656017],[5.679553,44.656482],[5.68017,44.656841],[5.680412,44.657213],[5.680973,44.657545],[5.681141,44.657984],[5.681459,44.658157],[5.681552,44.658688],[5.68187,44.658994],[5.682729,44.659246],[5.683028,44.659578],[5.683177,44.65999],[5.683644,44.66007],[5.684466,44.659751],[5.685606,44.659751],[5.686129,44.659911],[5.68695,44.659818],[5.687305,44.65999],[5.687978,44.659977],[5.688464,44.659857],[5.688613,44.659592],[5.689136,44.659791],[5.689435,44.660057],[5.689883,44.660017],[5.690201,44.660123],[5.69205,44.659698],[5.6922,44.659857],[5.692947,44.66007],[5.694142,44.659804],[5.694647,44.659791],[5.694609,44.659406],[5.695058,44.659565],[5.695936,44.659472],[5.696253,44.660362],[5.696197,44.660841],[5.696589,44.661478],[5.697262,44.66189],[5.698121,44.66201],[5.69786,44.661611],[5.698084,44.661027],[5.698383,44.661093],[5.700026,44.660827],[5.700475,44.661399],[5.70096,44.661439],[5.701782,44.662369],[5.70253,44.662329],[5.702884,44.662488],[5.703314,44.662355],[5.703949,44.662302],[5.704267,44.662581],[5.704379,44.663033],[5.704136,44.663525],[5.70436,44.663817]]],"type":"MultiLineString"},"properties":{"geo_point":{"lon":5.425069183588758,"lat":44.68598965770011},"name":"GR95 De Saillans à Lus-la-Croix-Haute (Drôme) (2019)","code_gr":"GR95"}}]}