{"type":"FeatureCollection","features":[{"type":"Feature","geometry":{"coordinates":[[[5.381484,43.932714],[5.381484,43.932714],[5.383329,43.933116],[5.384746,43.932993],[5.385475,43.932792],[5.386226,43.932962],[5.386977,43.932962],[5.388758,43.933147],[5.389702,43.932931],[5.390024,43.933178],[5.390331,43.933633],[5.390496,43.934306],[5.391333,43.935403],[5.391784,43.936176],[5.392084,43.936191],[5.39247,43.936717],[5.393028,43.936856],[5.394788,43.936068],[5.396097,43.935573],[5.397599,43.934229],[5.398371,43.933781],[5.398672,43.933472],[5.400946,43.932807],[5.402663,43.93222],[5.403843,43.932204],[5.404572,43.932266],[5.406209,43.931616],[5.407877,43.931818],[5.408757,43.931834],[5.410449,43.932288],[5.411234,43.931575],[5.41307,43.930814],[5.413027,43.930474],[5.414207,43.929964],[5.415902,43.929438],[5.419228,43.929098],[5.421331,43.928681],[5.425794,43.928001],[5.427811,43.927507],[5.430343,43.926425],[5.433412,43.92559],[5.434849,43.925467],[5.437767,43.925374],[5.438969,43.925528],[5.44045,43.926116],[5.440943,43.926007],[5.44208,43.925621],[5.443132,43.926641],[5.443604,43.926811],[5.443625,43.927167],[5.444612,43.928078],[5.445157,43.928938],[5.447895,43.930056],[5.448226,43.93046],[5.448723,43.930284],[5.449036,43.930384],[5.449033,43.930984],[5.449324,43.931125],[5.449368,43.930993],[5.452766,43.929222],[5.452871,43.928979],[5.45342,43.929255],[5.45396,43.929324],[5.454832,43.929788],[5.455956,43.929926],[5.456479,43.93024],[5.456592,43.930893],[5.457167,43.931458],[5.457089,43.931809],[5.457246,43.931828],[5.457463,43.931615],[5.457917,43.931684],[5.458588,43.931407],[5.45952,43.930774],[5.459659,43.930504],[5.460139,43.930177],[5.460444,43.929926],[5.461306,43.929757],[5.461638,43.929506],[5.462021,43.929456],[5.462866,43.929242],[5.463154,43.929073],[5.46535,43.928407],[5.466736,43.928288],[5.467781,43.927874],[5.468635,43.927686],[5.469786,43.927755],[5.47118,43.928225],[5.472057,43.927862],[5.473323,43.927955],[5.474203,43.927847],[5.475361,43.927507],[5.475984,43.927491],[5.477335,43.92712],[5.477657,43.926966],[5.478108,43.927089],[5.478687,43.92695],[5.479331,43.926935],[5.480382,43.926595],[5.481627,43.926533],[5.483515,43.926255],[5.48373,43.925915],[5.48338,43.925081],[5.483708,43.924725],[5.485367,43.924077],[5.486091,43.924252],[5.486483,43.924221],[5.487635,43.924369],[5.488,43.924246],[5.488409,43.924234],[5.490274,43.923844],[5.491284,43.92348],[5.491583,43.921896],[5.491455,43.920799],[5.491326,43.920675],[5.491276,43.920198],[5.491581,43.920047],[5.493686,43.917615],[5.494047,43.91682],[5.495738,43.917385],[5.49684,43.917646],[5.497977,43.918044],[5.499058,43.918195],[5.49972,43.918358],[5.500112,43.918653],[5.50066,43.918898],[5.501132,43.918722],[5.501263,43.91854],[5.502064,43.918076],[5.50287,43.917986],[5.50331,43.917662],[5.503598,43.917549],[5.504069,43.917492],[5.504565,43.917136],[5.505733,43.916557],[5.506988,43.915998],[5.507668,43.915766],[5.508385,43.915451],[5.50847,43.915188],[5.508921,43.915018],[5.509506,43.914529],[5.509698,43.91429],[5.510047,43.914259],[5.51043,43.914353],[5.510596,43.914228],[5.510552,43.914064],[5.510761,43.91355],[5.511241,43.913619],[5.511389,43.913531],[5.511267,43.913286],[5.512069,43.912552],[5.51328,43.911277],[5.513449,43.910659],[5.513298,43.910334],[5.513489,43.910153],[5.513907,43.909808],[5.514212,43.910178],[5.514908,43.910149],[5.515165,43.910242],[5.515423,43.910242],[5.516013,43.910512],[5.516163,43.91062],[5.516528,43.91059],[5.516657,43.910729],[5.51715,43.910729],[5.517858,43.910883],[5.518137,43.911038],[5.519124,43.910991],[5.519596,43.911177],[5.520025,43.911183],[5.52054,43.911316],[5.520884,43.911162],[5.521175,43.91129],[5.521463,43.911296],[5.522038,43.911428],[5.523587,43.911084],[5.524017,43.91127],[5.52436,43.911192],[5.524783,43.910674],[5.525175,43.910636],[5.525669,43.910976],[5.526038,43.911308],[5.526404,43.911315],[5.52657,43.911409],[5.526639,43.911647],[5.527664,43.911919],[5.527965,43.911904],[5.528835,43.912413],[5.530089,43.912816],[5.530578,43.912878],[5.530835,43.912982],[5.530936,43.913317],[5.531044,43.913349],[5.531004,43.913069],[5.530878,43.912882],[5.530726,43.912369],[5.530055,43.912056],[5.529149,43.911459],[5.528652,43.910781],[5.527471,43.910265],[5.52677,43.909601],[5.525883,43.909183],[5.526465,43.909337],[5.527493,43.909755],[5.528051,43.910079],[5.528931,43.910342],[5.529933,43.910247],[5.530203,43.910298],[5.530718,43.910524],[5.531249,43.910605],[5.532225,43.91085],[5.535249,43.911359],[5.535659,43.911183],[5.535763,43.911064],[5.536208,43.911139],[5.53728,43.911421],[5.537428,43.911115],[5.537463,43.910543],[5.537776,43.910235],[5.538169,43.910084],[5.53904,43.909996],[5.539484,43.909764],[5.539406,43.909438],[5.539633,43.909105],[5.540417,43.908829],[5.542191,43.908642],[5.543071,43.90875],[5.544182,43.908502],[5.544509,43.908008],[5.544938,43.907838],[5.545236,43.907811],[5.546869,43.906617],[5.547171,43.906292],[5.548243,43.905708],[5.548435,43.905349],[5.548975,43.904722],[5.549044,43.90439],[5.549294,43.904174],[5.549454,43.903875],[5.550151,43.903372],[5.55116,43.903107],[5.551675,43.902844],[5.551869,43.902829],[5.552169,43.90252],[5.55277,43.902319],[5.553349,43.902133],[5.553672,43.901909],[5.554125,43.901853],[5.554622,43.901608],[5.55513,43.901499],[5.555495,43.90136],[5.555924,43.901314],[5.556589,43.901066],[5.557497,43.900999],[5.557619,43.900867],[5.557829,43.900924],[5.558757,43.9002],[5.558928,43.899845],[5.559658,43.899474],[5.560344,43.89901],[5.560626,43.898902],[5.561074,43.898608],[5.561759,43.898462],[5.562099,43.898085],[5.562941,43.897557],[5.564025,43.897282],[5.564852,43.896924],[5.565123,43.896861],[5.565262,43.896685],[5.565349,43.896321],[5.565724,43.895743],[5.566046,43.895467],[5.566095,43.895129],[5.567533,43.89451],[5.567859,43.894669],[5.567937,43.894902],[5.56852,43.895206],[5.568927,43.89516],[5.569044,43.895417],[5.568966,43.896371],[5.568574,43.897112],[5.567619,43.897495],[5.56717,43.897684],[5.56697,43.89796],[5.567153,43.897997],[5.567083,43.898293],[5.567189,43.898592],[5.568016,43.89936],[5.56812,43.899737],[5.568173,43.90039],[5.56833,43.900723],[5.568799,43.901004],[5.569645,43.901263],[5.569994,43.901194],[5.570408,43.901314],[5.572361,43.902226],[5.573391,43.90221],[5.574227,43.90204],[5.57427,43.902458],[5.574133,43.902776],[5.574914,43.903107],[5.575279,43.903726],[5.5753,43.904298],[5.575408,43.904684],[5.575043,43.905318],[5.575319,43.905532],[5.575632,43.90606],[5.576887,43.907322],[5.577009,43.907661],[5.576878,43.908182],[5.577009,43.909029],[5.576966,43.909984],[5.577081,43.910945],[5.577785,43.912439],[5.57843,43.913625],[5.578796,43.91397],[5.579463,43.914191],[5.579972,43.914592],[5.580922,43.914871],[5.581419,43.914881],[5.581968,43.9151],[5.583025,43.91617],[5.583101,43.916538],[5.58297,43.917002],[5.584129,43.918603],[5.585793,43.919277],[5.585793,43.919277],[5.585793,43.919508],[5.585385,43.919586],[5.585064,43.919648],[5.584978,43.919478],[5.58472,43.919354],[5.584398,43.919416],[5.584443,43.919633],[5.584277,43.919746],[5.584268,43.919884],[5.584112,43.919984],[5.584207,43.920091],[5.58399,43.920273],[5.583819,43.920699],[5.583937,43.921101],[5.584295,43.921403],[5.584626,43.921365],[5.585297,43.92161],[5.585314,43.921987],[5.585663,43.921974],[5.586238,43.922338],[5.586544,43.923002],[5.587092,43.923003],[5.587693,43.923254],[5.587963,43.923562],[5.587955,43.924127],[5.588046,43.924315],[5.587875,43.924532],[5.587639,43.925011],[5.587703,43.925474],[5.588754,43.926742],[5.588913,43.927221],[5.588754,43.927731],[5.588411,43.927762],[5.588282,43.928071],[5.588111,43.92838],[5.588239,43.929122],[5.588111,43.929415],[5.587832,43.929461],[5.587338,43.929647],[5.587016,43.929662],[5.586823,43.930265],[5.586866,43.930945],[5.586238,43.930974],[5.586029,43.931239],[5.586491,43.931589],[5.58636,43.931753],[5.586094,43.93181],[5.586072,43.931919],[5.586222,43.932104],[5.586094,43.932336],[5.586839,43.932663],[5.587301,43.932901],[5.58744,43.933165],[5.588068,43.933378],[5.588268,43.93366],[5.588669,43.933974],[5.589593,43.933905],[5.589785,43.934006],[5.590072,43.934194],[5.590351,43.934815],[5.590471,43.934777],[5.590621,43.934589],[5.5906,43.93436],[5.59043,43.933874],[5.590796,43.93378],[5.591353,43.933817],[5.591587,43.933387],[5.591946,43.933334],[5.59246,43.933466],[5.592792,43.933707],[5.593404,43.933823],[5.593967,43.933699],[5.594712,43.933239],[5.594509,43.9331],[5.594337,43.932872],[5.594112,43.932722],[5.594192,43.932579],[5.594482,43.932359],[5.594755,43.93198],[5.59549,43.93152],[5.596896,43.93103],[5.597175,43.930751],[5.59732,43.930381],[5.597749,43.929867],[5.598773,43.929303],[5.600299,43.928272],[5.601715,43.926989],[5.601479,43.925397],[5.601607,43.924671],[5.6012,43.923898],[5.602187,43.924454],[5.602337,43.924825],[5.602637,43.92515],[5.602959,43.925165],[5.603474,43.924547],[5.604333,43.924176],[5.605341,43.923975],[5.606049,43.923774],[5.60635,43.923187],[5.607058,43.922831],[5.607723,43.922012],[5.607959,43.921827],[5.608474,43.9211],[5.60871,43.920266],[5.608603,43.919972],[5.608817,43.918457],[5.609161,43.917886],[5.609869,43.917375],[5.609504,43.915907],[5.609482,43.914176],[5.609718,43.91365],[5.60974,43.913032],[5.609933,43.912104],[5.609804,43.911718],[5.609976,43.911177],[5.610534,43.910435],[5.611349,43.909538],[5.61165,43.908997],[5.611929,43.908781],[5.612465,43.908271],[5.613066,43.907977],[5.613774,43.907822],[5.614976,43.906818],[5.615727,43.90739],[5.61592,43.907714],[5.616714,43.905519],[5.617422,43.904761],[5.618108,43.903385],[5.617765,43.902953],[5.616585,43.902118],[5.616177,43.901917],[5.615812,43.901561],[5.616134,43.901236],[5.617572,43.900139],[5.616907,43.898515],[5.616091,43.897015],[5.615748,43.895856],[5.614847,43.894974],[5.614461,43.894835],[5.614031,43.89499],[5.613967,43.894402],[5.61386,43.894108],[5.613967,43.893428],[5.613195,43.891758],[5.612851,43.890954],[5.612208,43.890722],[5.611607,43.889949],[5.610706,43.889593],[5.610427,43.888882],[5.609847,43.888402],[5.609847,43.888201],[5.610877,43.887753],[5.610877,43.887753],[5.611285,43.887212],[5.611628,43.88633],[5.611843,43.886021],[5.611671,43.885773],[5.61195,43.885294],[5.611757,43.88449],[5.61195,43.884119],[5.612379,43.884088],[5.612272,43.883778],[5.61268,43.883732],[5.612272,43.883113],[5.612529,43.882541],[5.613044,43.881861],[5.613216,43.880314],[5.613023,43.879896],[5.613259,43.87835],[5.613195,43.877978],[5.613452,43.877746],[5.613903,43.877592],[5.613967,43.877174],[5.614246,43.876927],[5.614246,43.876927],[5.614611,43.875736],[5.61519,43.875117],[5.615855,43.874869],[5.616091,43.87323],[5.616478,43.872658],[5.617915,43.871343],[5.617565,43.871313],[5.616736,43.871003],[5.616492,43.871032],[5.615728,43.870721],[5.615297,43.870686],[5.614192,43.87094],[5.61372,43.87091],[5.612798,43.871405],[5.61136,43.871296],[5.610952,43.871111],[5.610051,43.871033],[5.608935,43.87077],[5.608163,43.870708],[5.607347,43.870353],[5.607347,43.869595],[5.60709,43.869038],[5.607133,43.868342],[5.606983,43.868094],[5.607326,43.867398],[5.607562,43.866129],[5.606747,43.865031],[5.606468,43.864814],[5.606232,43.864381],[5.605416,43.86367],[5.604944,43.862896],[5.604944,43.862401],[5.604772,43.862076],[5.604579,43.861101],[5.604494,43.860699],[5.604322,43.86039],[5.6043,43.85957],[5.603914,43.859276],[5.603077,43.858966],[5.597799,43.859214],[5.597477,43.859508],[5.597219,43.859539],[5.596318,43.859338],[5.595846,43.859353],[5.595374,43.859431],[5.594773,43.859106],[5.594859,43.858719],[5.594301,43.858131],[5.594022,43.857582],[5.594022,43.85735],[5.593336,43.85704],[5.594087,43.856994],[5.595117,43.856591],[5.595395,43.856081],[5.596468,43.855384],[5.596876,43.854518],[5.598185,43.853713],[5.598893,43.853218],[5.598893,43.853218],[5.599859,43.853156],[5.600223,43.853002],[5.600953,43.853048],[5.601768,43.852909],[5.602884,43.853404],[5.606489,43.852646],[5.607133,43.852336],[5.608613,43.851918],[5.609214,43.851686],[5.610266,43.851501],[5.611489,43.85116],[5.612969,43.85099],[5.6143,43.850603],[5.614514,43.849984],[5.614901,43.849799],[5.61548,43.849675],[5.616102,43.84952],[5.616596,43.849443],[5.617111,43.84904],[5.618248,43.848808],[5.621252,43.84853],[5.622368,43.848421],[5.623462,43.848468],[5.625994,43.848313],[5.627689,43.848236],[5.630243,43.848328],[5.631573,43.84839],[5.635242,43.848127],[5.635843,43.84805],[5.635843,43.84805],[5.635972,43.847926],[5.636337,43.847911],[5.638161,43.847276],[5.640027,43.846812],[5.642474,43.846363],[5.644669,43.845931],[5.642517,43.844816],[5.643268,43.844181],[5.64335,43.84346],[5.643654,43.843361],[5.643589,43.842989],[5.644684,43.843005],[5.643868,43.842401],[5.643847,43.842138],[5.643461,43.841736],[5.643568,43.841132],[5.643825,43.840977],[5.644126,43.840683],[5.643997,43.840498],[5.645478,43.839476],[5.645757,43.839213],[5.648246,43.838362],[5.648396,43.838176],[5.648074,43.838161],[5.647259,43.837928],[5.647495,43.837371],[5.647452,43.836179],[5.64713,43.835622],[5.64698,43.835081],[5.647602,43.834632],[5.647945,43.834245],[5.648761,43.833889],[5.649018,43.833455],[5.649254,43.833239],[5.649619,43.83265],[5.650113,43.832217],[5.650134,43.832031],[5.650842,43.831381],[5.650327,43.831087],[5.650113,43.830669],[5.64964,43.83039],[5.649126,43.830375],[5.648675,43.830127],[5.648224,43.829756],[5.647945,43.829771],[5.647967,43.829616],[5.647473,43.829508],[5.646658,43.829059],[5.646293,43.82875],[5.646036,43.828672],[5.6461,43.828425],[5.645649,43.828038],[5.645907,43.827682],[5.645628,43.827217],[5.645993,43.826969],[5.646293,43.826273],[5.646121,43.826025],[5.645821,43.825808],[5.645306,43.825189],[5.645499,43.82488],[5.644641,43.82344],[5.644448,43.823161],[5.644405,43.822882],[5.643825,43.822619],[5.643203,43.822712],[5.642302,43.822712],[5.640993,43.822495],[5.640006,43.822557],[5.639362,43.822759],[5.638568,43.822821],[5.637603,43.823378],[5.637302,43.823734],[5.636508,43.824106],[5.636122,43.824415],[5.63565,43.824477],[5.635371,43.824059],[5.634749,43.824013],[5.634749,43.824013],[5.634277,43.823424],[5.633569,43.822991],[5.631959,43.823099],[5.631659,43.82296],[5.631337,43.822403],[5.630929,43.822248],[5.629728,43.822434],[5.629041,43.822372],[5.628526,43.822124],[5.627732,43.822341],[5.627196,43.822139],[5.626423,43.822279],[5.625801,43.822279],[5.625415,43.822108],[5.624943,43.821551],[5.623569,43.820808],[5.623312,43.821613],[5.623505,43.822031],[5.623784,43.822248],[5.62372,43.822511],[5.622561,43.823471],[5.621896,43.825112],[5.621488,43.824756],[5.621016,43.824136],[5.62063,43.823935],[5.620522,43.823657],[5.62078,43.823548],[5.620565,43.822929],[5.620158,43.822573],[5.6196,43.822263],[5.618935,43.821567],[5.618484,43.821427],[5.618012,43.821768],[5.617561,43.821923],[5.617518,43.822108],[5.616832,43.821969],[5.615458,43.821443],[5.614986,43.821458],[5.615094,43.821319],[5.615008,43.821149],[5.614686,43.821009],[5.614428,43.820792],[5.613699,43.820885],[5.613377,43.8207],[5.612969,43.820452],[5.612969,43.82008],[5.612454,43.819848],[5.611403,43.819987],[5.610888,43.819755],[5.610309,43.819167],[5.609386,43.818919],[5.609021,43.818656],[5.608141,43.818594],[5.60739,43.817681],[5.607004,43.817433],[5.606446,43.817557],[5.60591,43.817448],[5.605545,43.817247],[5.605051,43.817201],[5.603743,43.816488],[5.603743,43.816488],[5.602219,43.816225],[5.601768,43.816364],[5.601082,43.816148],[5.600717,43.816101],[5.60003,43.816364],[5.599751,43.81638],[5.599215,43.816488],[5.600245,43.815869],[5.600824,43.815714],[5.600803,43.815451],[5.599215,43.815451],[5.598078,43.815838],[5.597155,43.815389],[5.594859,43.815668],[5.594473,43.815466],[5.594752,43.814414],[5.594752,43.814414],[5.594566,43.813775],[5.59418,43.813868],[5.594309,43.814348],[5.594244,43.815587],[5.593665,43.817027],[5.592914,43.8176],[5.592914,43.818234],[5.592313,43.818498],[5.592141,43.81907],[5.591841,43.819287],[5.591197,43.819055],[5.591197,43.819055],[5.590081,43.81969],[5.588858,43.819876],[5.588515,43.819984],[5.587313,43.820139],[5.586498,43.820928],[5.58594,43.821331],[5.585511,43.82195],[5.585554,43.822616],[5.585811,43.823591],[5.585811,43.823591],[5.585523,43.823784],[5.585458,43.824511],[5.5849,43.824867],[5.584042,43.825626],[5.582862,43.826261],[5.581682,43.827097],[5.580287,43.828211],[5.578549,43.829109],[5.578549,43.829109],[5.578635,43.829341],[5.580137,43.829063],[5.579343,43.829542],[5.578098,43.829976],[5.576682,43.830208],[5.574794,43.83027],[5.573571,43.830022],[5.571382,43.829481],[5.56973,43.828707],[5.569279,43.828428],[5.568721,43.828149],[5.567348,43.827282],[5.567262,43.826632],[5.567391,43.825254],[5.567391,43.825254],[5.567069,43.82479],[5.566812,43.82414],[5.566382,43.823552],[5.566103,43.823319],[5.565996,43.822514],[5.566103,43.821972],[5.56546,43.821384],[5.56546,43.821384],[5.564773,43.821136],[5.563014,43.820904],[5.560975,43.821214],[5.559859,43.821601],[5.558808,43.821214],[5.558228,43.820951],[5.557821,43.821136],[5.556812,43.821044],[5.555718,43.820734],[5.553379,43.820811],[5.553744,43.821462],[5.55398,43.82191],[5.553572,43.821756],[5.552928,43.821647],[5.552692,43.821353],[5.552113,43.821136],[5.551941,43.820997],[5.55119,43.820749],[5.549645,43.81965],[5.548916,43.819015],[5.547864,43.818628],[5.546191,43.818443],[5.545633,43.818164],[5.544817,43.817591],[5.544238,43.817653],[5.543573,43.81787],[5.542028,43.817637],[5.54162,43.817761],[5.54117,43.818102],[5.539303,43.818551],[5.539045,43.818768],[5.538681,43.818783],[5.538144,43.818706],[5.53793,43.81852],[5.537479,43.818458],[5.536964,43.818226],[5.536406,43.817699],[5.535805,43.817606],[5.535376,43.817823],[5.534239,43.817924],[5.533745,43.818233],[5.533102,43.818574],[5.532522,43.819147],[5.530591,43.819813],[5.528553,43.819673],[5.526471,43.82006],[5.524862,43.820587],[5.524025,43.820447],[5.522695,43.819921],[5.522695,43.819921],[5.521526,43.820047],[5.520454,43.819969],[5.519467,43.820434],[5.518587,43.820248],[5.518265,43.820233],[5.517492,43.818901],[5.515411,43.819195],[5.514188,43.818886],[5.513179,43.819164],[5.513179,43.819164],[5.512042,43.819118],[5.511871,43.818948],[5.511463,43.818762],[5.510132,43.819319],[5.509017,43.81949],[5.508287,43.819288],[5.508094,43.818839],[5.505841,43.818514],[5.505047,43.81853],[5.503867,43.818917],[5.502751,43.818375],[5.502064,43.818359],[5.499103,43.818096],[5.496528,43.818019],[5.495842,43.818313],[5.494404,43.81853],[5.492258,43.81853],[5.489168,43.818266],[5.488095,43.818235],[5.48713,43.818081],[5.485735,43.818297],[5.484555,43.818189],[5.483611,43.817817],[5.482474,43.817755],[5.481336,43.817554],[5.480607,43.817554],[5.480607,43.817554],[5.480693,43.817183],[5.480693,43.816842],[5.481272,43.81661],[5.480499,43.815743],[5.481744,43.815526],[5.480564,43.814643],[5.480328,43.81421],[5.481851,43.814024],[5.483439,43.81373],[5.482237,43.813343],[5.482237,43.813157],[5.48198,43.813049],[5.481916,43.812785],[5.481486,43.8126],[5.481508,43.812228],[5.48095,43.811252],[5.482452,43.811283],[5.482645,43.810958],[5.483353,43.810308],[5.483782,43.810138],[5.484319,43.809735],[5.485456,43.808248],[5.48595,43.807784],[5.486164,43.807041],[5.486894,43.807118],[5.487881,43.80687],[5.488396,43.806251],[5.489168,43.806018],[5.489018,43.805848],[5.489469,43.805523],[5.489726,43.804965],[5.490155,43.804609],[5.489576,43.804439],[5.489125,43.804129],[5.488739,43.80416],[5.488246,43.803788],[5.488224,43.803556],[5.48713,43.803649],[5.486615,43.803618],[5.485885,43.803727],[5.484941,43.804501],[5.484255,43.805043],[5.483997,43.805569],[5.483589,43.805445],[5.483589,43.805445],[5.48271,43.806437],[5.481808,43.806715],[5.481808,43.807056],[5.4811,43.807474],[5.480092,43.808372],[5.479684,43.808202],[5.478997,43.808094],[5.478504,43.807722],[5.478268,43.807706],[5.477259,43.807071],[5.477238,43.806545],[5.476852,43.806235],[5.47595,43.806251],[5.475564,43.805895],[5.475285,43.805693],[5.474942,43.80526],[5.474684,43.805105],[5.474599,43.804671],[5.474706,43.804315],[5.474641,43.803881],[5.475092,43.803401],[5.474513,43.803618],[5.474019,43.804005],[5.473848,43.804656],[5.47344,43.805027],[5.47241,43.804532],[5.471852,43.804485],[5.471058,43.805089],[5.471037,43.805848],[5.471702,43.806189],[5.471938,43.80687],[5.471723,43.807397],[5.472088,43.807737],[5.472217,43.808496],[5.472024,43.808914],[5.471702,43.809038],[5.471444,43.808914],[5.470994,43.809007],[5.470264,43.808914],[5.469341,43.808512],[5.468547,43.808217],[5.468097,43.807985],[5.467475,43.807908],[5.46726,43.808047],[5.466681,43.808001],[5.465522,43.80749],[5.465415,43.807582],[5.464771,43.807536],[5.464063,43.806948],[5.463054,43.806932],[5.462346,43.806545],[5.461831,43.806018],[5.459922,43.80574],[5.459449,43.8056],[5.45917,43.805678],[5.457754,43.805678],[5.457025,43.80526],[5.456402,43.80478],[5.455802,43.804516],[5.453763,43.803742],[5.453806,43.803386],[5.453034,43.803401],[5.45239,43.803184],[5.451982,43.802813],[5.451424,43.802488],[5.451145,43.802488],[5.450652,43.802286],[5.449665,43.802224],[5.449236,43.802348],[5.448721,43.801791],[5.447991,43.80193],[5.447648,43.802178],[5.447219,43.802116],[5.447369,43.801202],[5.44754,43.800877],[5.447583,43.800412],[5.44812,43.799948],[5.448227,43.799576],[5.447991,43.799359],[5.447884,43.798895],[5.447283,43.798879],[5.446832,43.798585],[5.44621,43.798105],[5.44533,43.79781],[5.444901,43.797361],[5.444901,43.797361],[5.444644,43.796726],[5.444944,43.796602],[5.446382,43.795301],[5.447347,43.795363],[5.447991,43.794992],[5.448442,43.794883],[5.448764,43.794697],[5.449171,43.794589],[5.450008,43.794155],[5.451317,43.793752],[5.451896,43.793536],[5.451789,43.79321],[5.452068,43.792839],[5.452347,43.791754],[5.452948,43.791259],[5.453935,43.790871],[5.455587,43.789741],[5.456166,43.789152],[5.457025,43.788594],[5.457336,43.787929],[5.457392,43.787039],[5.457304,43.786131],[5.457304,43.786131],[5.457086,43.78579],[5.455713,43.784551],[5.454125,43.783528],[5.452752,43.782785],[5.451894,43.782521],[5.451293,43.78215],[5.450692,43.781298],[5.449855,43.780352],[5.448697,43.779485],[5.448139,43.778788],[5.447709,43.77854],[5.447023,43.778447],[5.445135,43.777982],[5.445285,43.777037],[5.445135,43.776572],[5.443311,43.775131],[5.439427,43.773938],[5.439212,43.773985],[5.438719,43.774775],[5.437238,43.774512],[5.436509,43.774512],[5.436273,43.774883],[5.435264,43.775317],[5.434191,43.775674],[5.432732,43.776479],[5.432045,43.776696],[5.43138,43.776696],[5.430629,43.777053],[5.429213,43.776898],[5.426016,43.776975],[5.424449,43.776479],[5.422899,43.776563],[5.421569,43.776904],[5.421998,43.776617],[5.420222,43.776807],[5.419235,43.77707],[5.417562,43.776977],[5.41606,43.776606],[5.415158,43.776528],[5.412884,43.776218],[5.411704,43.776389],[5.410009,43.776497],[5.408657,43.7769],[5.408056,43.776869],[5.405889,43.778031],[5.404752,43.778449],[5.402477,43.778914],[5.400202,43.779534],[5.398786,43.780324],[5.3984,43.780308],[5.3981,43.780076],[5.396426,43.780122],[5.395997,43.7802],[5.394302,43.779999],[5.394302,43.779999],[5.394345,43.779611],[5.394001,43.779673],[5.393336,43.779611],[5.393164,43.779642],[5.391619,43.779565],[5.391083,43.779673],[5.390589,43.779518],[5.389881,43.779518],[5.389495,43.779658],[5.388465,43.778992],[5.388122,43.779007],[5.38765,43.778821],[5.387113,43.778868],[5.386641,43.778666],[5.386019,43.778651],[5.385547,43.778542],[5.38559,43.778728],[5.385998,43.779177],[5.385483,43.779208],[5.384345,43.779549],[5.383444,43.779921],[5.382521,43.778992],[5.381921,43.779053],[5.381127,43.778899],[5.380182,43.777783],[5.378831,43.776544],[5.376299,43.774653],[5.37484,43.774065],[5.372715,43.773274],[5.370505,43.771895],[5.369389,43.771322],[5.368617,43.770485],[5.367372,43.770067],[5.366407,43.769416],[5.36542,43.767541],[5.364497,43.766472],[5.363853,43.766193],[5.363853,43.766193],[5.363638,43.76585],[5.362158,43.766113],[5.361428,43.766439],[5.361149,43.766284],[5.360811,43.766521],[5.358902,43.766212],[5.358258,43.766273],[5.355983,43.76667],[5.351692,43.768234],[5.349965,43.768661],[5.348269,43.769211],[5.347046,43.769257],[5.346092,43.769879],[5.346434,43.770219],[5.346153,43.77047],[5.345761,43.770652],[5.345682,43.771307],[5.345543,43.771697],[5.346493,43.771565],[5.346771,43.771728],[5.34692,43.772131],[5.347701,43.772071],[5.348076,43.772217],[5.348237,43.772984],[5.348602,43.773315],[5.347883,43.773876],[5.346177,43.77454],[5.345748,43.774796],[5.343978,43.775043],[5.343098,43.774952],[5.342315,43.77499],[5.341285,43.775471],[5.340856,43.775635],[5.340352,43.776417],[5.340094,43.777386],[5.339719,43.777657],[5.339375,43.778011],[5.338281,43.7785],[5.33797,43.778824],[5.337154,43.779243],[5.336596,43.779335],[5.335899,43.779671],[5.335309,43.780228],[5.33517,43.780731],[5.334408,43.780731],[5.334247,43.780601],[5.333689,43.780752],[5.333668,43.78101],[5.333507,43.781078],[5.333195,43.781544],[5.333303,43.781979],[5.333271,43.782295],[5.333335,43.782574],[5.333249,43.782753],[5.333292,43.78289],[5.333378,43.783421],[5.333485,43.783875],[5.333056,43.784473],[5.333088,43.78492],[5.332562,43.785076],[5.332294,43.785084],[5.331575,43.785221],[5.331039,43.785145],[5.330663,43.785023],[5.330299,43.784969],[5.329902,43.784805],[5.32929,43.784744],[5.328335,43.784256],[5.328024,43.783978],[5.327466,43.78397],[5.327219,43.783859],[5.326232,43.783829],[5.325546,43.783852],[5.325117,43.783913],[5.324677,43.783752],[5.324312,43.783489],[5.323636,43.783348],[5.323347,43.783015],[5.323089,43.783015],[5.323036,43.783263],[5.322934,43.783411],[5.322849,43.783613],[5.32256,43.783856],[5.322373,43.784159],[5.322467,43.784657],[5.322681,43.784843],[5.322467,43.785633],[5.322628,43.786068],[5.323057,43.786255],[5.325202,43.786446],[5.324258,43.786858],[5.323078,43.787483],[5.322569,43.787726],[5.321206,43.787477],[5.320701,43.787106],[5.319945,43.786934],[5.319452,43.786942],[5.318499,43.786346],[5.317965,43.786155],[5.317105,43.786027],[5.316396,43.78569],[5.315957,43.785609],[5.315386,43.785034],[5.314871,43.783374],[5.314541,43.783184],[5.314184,43.782821],[5.313563,43.782573],[5.3128,43.78157],[5.312029,43.78101],[5.311096,43.780537],[5.310967,43.780151],[5.309604,43.779469],[5.308843,43.77919],[5.308156,43.778831],[5.307308,43.778656],[5.306364,43.77832],[5.306075,43.77774],[5.305978,43.776634],[5.30497,43.775356],[5.304029,43.774878],[5.303307,43.774643],[5.302278,43.774791],[5.300396,43.773924],[5.299925,43.773208],[5.300165,43.772767],[5.300576,43.772406],[5.300736,43.772073],[5.300726,43.771719],[5.299815,43.771625],[5.299144,43.771683],[5.297277,43.772186],[5.294734,43.773262],[5.294399,43.773693],[5.29452,43.773989],[5.29469,43.774228],[5.29536,43.774481],[5.2954,43.774878],[5.295771,43.775138],[5.296341,43.77641],[5.296532,43.776649],[5.297567,43.776695],[5.297913,43.776837],[5.298113,43.777451],[5.298018,43.778801],[5.297693,43.779229],[5.297331,43.779553],[5.296802,43.779836],[5.296365,43.780174],[5.296111,43.780761],[5.296161,43.781051],[5.296752,43.781397],[5.297503,43.782142],[5.296269,43.783567],[5.296333,43.783983],[5.297142,43.784288],[5.297883,43.784324],[5.297983,43.784541],[5.298203,43.784729],[5.297792,43.784968],[5.297463,43.785452],[5.296805,43.785759],[5.296582,43.786348],[5.296279,43.786564],[5.296321,43.787721],[5.29614,43.787918],[5.295722,43.788182],[5.295471,43.788458],[5.294788,43.788822],[5.29453,43.789217],[5.293865,43.789445],[5.293554,43.789768],[5.293458,43.790062],[5.292507,43.790178],[5.291617,43.790149],[5.290826,43.790366],[5.290245,43.790503],[5.289896,43.790474],[5.288533,43.789903],[5.288033,43.789911],[5.287514,43.789825],[5.287432,43.789737],[5.286902,43.789752],[5.286021,43.789665],[5.284199,43.789791],[5.282836,43.789707],[5.2823,43.789833],[5.282031,43.790211],[5.281484,43.790367],[5.280894,43.790707],[5.280775,43.790604],[5.280969,43.790081],[5.280976,43.789687],[5.280776,43.789692],[5.28039,43.790134],[5.279628,43.790375],[5.278923,43.790344],[5.278303,43.790706],[5.278073,43.790973],[5.277602,43.79119],[5.277352,43.791089],[5.277382,43.790648],[5.276688,43.790302],[5.27568,43.789482],[5.274714,43.789009],[5.274843,43.788502],[5.27451,43.787647],[5.273631,43.786465],[5.273985,43.785805],[5.273781,43.785435],[5.273051,43.785137],[5.272547,43.784821],[5.272375,43.783955],[5.272139,43.783909],[5.271399,43.784092],[5.270991,43.784084],[5.270766,43.784008],[5.270348,43.784008],[5.270144,43.784077],[5.268588,43.784069],[5.268062,43.783955],[5.267644,43.784077],[5.266935,43.783604],[5.266109,43.783372],[5.266153,43.783068],[5.265466,43.782612],[5.264844,43.781822],[5.264168,43.781319],[5.263524,43.781044],[5.262966,43.780521],[5.262033,43.780121],[5.261958,43.779724],[5.261966,43.779034],[5.261249,43.778578],[5.260456,43.778568],[5.259383,43.778237],[5.258771,43.777947],[5.258246,43.777501],[5.257331,43.777126],[5.256357,43.77682],[5.255692,43.77651],[5.255649,43.776243],[5.254258,43.775276],[5.25272,43.775054],[5.252388,43.774788],[5.252012,43.774459],[5.251959,43.77416],[5.252066,43.77379],[5.252055,43.773535],[5.252286,43.7731],[5.251883,43.772092],[5.251635,43.771828],[5.251515,43.771329],[5.251057,43.77097],[5.250904,43.770606],[5.250894,43.770194],[5.251115,43.769883],[5.250896,43.769321],[5.250489,43.768909],[5.249941,43.768879],[5.247785,43.769573],[5.24684,43.770021],[5.246401,43.769699],[5.245529,43.768669],[5.245018,43.768394],[5.244648,43.768372],[5.244062,43.768513],[5.243579,43.768288],[5.243161,43.768196],[5.242388,43.767738],[5.242528,43.767506],[5.242227,43.767345],[5.242175,43.766717],[5.241573,43.766453],[5.241304,43.766392],[5.240954,43.766074],[5.240479,43.76601],[5.240307,43.765514],[5.240114,43.765251],[5.239277,43.765347],[5.239019,43.765499],[5.239082,43.765792],[5.238782,43.766276],[5.238129,43.766529],[5.23756,43.766609],[5.237356,43.766808],[5.236917,43.766956],[5.237024,43.76667],[5.236419,43.766457],[5.235929,43.766529],[5.235457,43.766762],[5.235148,43.766746],[5.234621,43.766972],[5.234087,43.766782],[5.233344,43.76709],[5.232829,43.767074],[5.232325,43.767143],[5.231895,43.767324],[5.231624,43.767642],[5.230254,43.768158],[5.230114,43.767979],[5.229599,43.768082],[5.22902,43.768318],[5.228205,43.768436],[5.227411,43.768608],[5.226595,43.768753],[5.226316,43.769196],[5.225866,43.769413],[5.224965,43.769135],[5.224589,43.768738],[5.224246,43.76873],[5.223688,43.768639],[5.223466,43.768459],[5.223136,43.768582],[5.222594,43.768856],[5.22195,43.768978],[5.222186,43.768636],[5.222445,43.768004],[5.222145,43.768127],[5.220523,43.768142],[5.219852,43.768344],[5.21916,43.76814],[5.218827,43.768343],[5.218271,43.76843],[5.217701,43.768204],[5.217122,43.768476],[5.215877,43.768646],[5.215202,43.768498],[5.213909,43.768959],[5.212297,43.769143],[5.212714,43.769917],[5.21303,43.770134],[5.213002,43.77066],[5.210406,43.770782],[5.209732,43.770953],[5.208099,43.771187],[5.20766,43.77109],[5.206972,43.771366],[5.205996,43.771481],[5.20429,43.771839],[5.204108,43.772038],[5.203421,43.772247],[5.203056,43.772495],[5.20238,43.772495],[5.200793,43.772797],[5.199784,43.772713],[5.19914,43.772797],[5.198615,43.773067],[5.198014,43.77354],[5.197241,43.773502],[5.196973,43.773628],[5.195407,43.773077],[5.194226,43.773108],[5.194108,43.773434],[5.193229,43.774612],[5.192842,43.774982],[5.192896,43.77562],[5.192684,43.776042],[5.192102,43.775913],[5.191448,43.775139],[5.191405,43.774796],[5.191083,43.774597],[5.190171,43.774494],[5.189323,43.774323],[5.189201,43.774538],[5.188701,43.77478],[5.188347,43.775139],[5.188165,43.775486],[5.186791,43.77586],[5.18633,43.775772],[5.184109,43.775833],[5.182135,43.776176],[5.180601,43.776276],[5.180111,43.776114],[5.179238,43.776083],[5.176868,43.776972],[5.176342,43.776695],[5.176327,43.776468],[5.175897,43.776194],[5.175116,43.776056],[5.174839,43.775951],[5.174195,43.776092],[5.173104,43.776136],[5.172033,43.776049],[5.171412,43.775904],[5.170661,43.775861],[5.170231,43.775933],[5.16952,43.776266],[5.16893,43.776425],[5.168917,43.776634],[5.16933,43.777032],[5.16933,43.777357],[5.16924,43.777545],[5.169,43.777581],[5.168778,43.777206],[5.168559,43.77688],[5.167728,43.776649],[5.167038,43.776071],[5.166868,43.775749],[5.166492,43.775517],[5.165276,43.775818],[5.164925,43.776396],[5.164665,43.776425],[5.164505,43.776121],[5.163884,43.775717],[5.162791,43.775997],[5.161718,43.776066],[5.161246,43.775936],[5.160471,43.776006],[5.160201,43.776215],[5.15999,43.776671],[5.16003,43.776996],[5.160741,43.777487],[5.160701,43.777993],[5.160451,43.77808],[5.160281,43.777697],[5.15929,43.777285],[5.159089,43.777321],[5.158982,43.777462],[5.159004,43.777779],[5.158628,43.777981],[5.158414,43.778191],[5.158113,43.778702],[5.157866,43.778919],[5.158306,43.779831],[5.157802,43.780334],[5.157768,43.780986],[5.157223,43.781864],[5.156053,43.781971],[5.155776,43.782315],[5.155686,43.78272],[5.155456,43.782749],[5.155065,43.782626],[5.154925,43.782453],[5.154625,43.78238],[5.154264,43.782402],[5.154094,43.782576],[5.154365,43.783305],[5.154345,43.783688],[5.154044,43.78392],[5.153644,43.784072],[5.153504,43.784267],[5.153484,43.784621],[5.153614,43.784903],[5.153524,43.785025],[5.153353,43.78517],[5.153554,43.785611],[5.153133,43.785922],[5.152713,43.787591],[5.152042,43.787873],[5.151832,43.788227],[5.151331,43.788458],[5.151281,43.788841],[5.151461,43.788864],[5.151805,43.788523],[5.152009,43.788507],[5.152448,43.788189],[5.152931,43.788082],[5.153178,43.787849],[5.153639,43.787594],[5.15379,43.787247],[5.153897,43.786812],[5.154186,43.78661],[5.154412,43.786966],[5.154465,43.787593],[5.15424,43.78812],[5.153843,43.788624],[5.153757,43.788918],[5.154015,43.789368],[5.153875,43.790854],[5.154434,43.79176],[5.155463,43.791963],[5.156235,43.792251],[5.157245,43.792372],[5.158038,43.792659],[5.157555,43.792845],[5.15674,43.792937],[5.157212,43.793392],[5.156557,43.793681],[5.157008,43.794147],[5.157491,43.794456],[5.157641,43.794339],[5.15762,43.794161],[5.157877,43.794184],[5.158199,43.794455],[5.158575,43.794634],[5.158864,43.79468],[5.159143,43.795021],[5.159154,43.795616],[5.159851,43.795765],[5.160409,43.795989],[5.160677,43.796616],[5.161253,43.797211],[5.162112,43.797955],[5.163013,43.798264],[5.163657,43.798405],[5.164,43.798744],[5.163971,43.799419],[5.164057,43.799783],[5.163778,43.800395],[5.16473,43.801178],[5.165373,43.801517],[5.165695,43.802742],[5.166811,43.803967],[5.167862,43.804554],[5.168163,43.805065],[5.168206,43.806644],[5.16827,43.807636],[5.167519,43.808578],[5.166535,43.80923],[5.166275,43.810253],[5.165824,43.810795],[5.16518,43.811089],[5.164236,43.812126],[5.164408,43.813133],[5.164,43.814323],[5.164322,43.81646],[5.164172,43.816723],[5.164258,43.817547],[5.164172,43.817932],[5.164923,43.819668],[5.165352,43.820114],[5.165802,43.820377],[5.165974,43.82058],[5.166857,43.820742],[5.166511,43.820934],[5.166875,43.82106],[5.16636,43.821152],[5.167176,43.821617],[5.167133,43.821896],[5.166511,43.822346],[5.166468,43.822746],[5.16694,43.823166],[5.165953,43.823814],[5.164794,43.82468],[5.163549,43.825256],[5.162927,43.825829],[5.162734,43.82634],[5.162691,43.827393],[5.162297,43.827801],[5.161876,43.827915],[5.161137,43.828228],[5.160688,43.828622],[5.160388,43.82866],[5.160034,43.82897],[5.159496,43.829243],[5.158596,43.828722],[5.157448,43.829086],[5.156804,43.829109],[5.156547,43.828931],[5.15644,43.828536],[5.156515,43.828149],[5.155742,43.828002],[5.15529,43.828377],[5.154476,43.82808],[5.153187,43.828365],[5.152683,43.828575],[5.152125,43.828484],[5.150848,43.828732],[5.150161,43.829185],[5.148788,43.830292],[5.147898,43.830456],[5.147361,43.830471],[5.146235,43.830875],[5.14587,43.831215],[5.145398,43.831352],[5.144937,43.831299],[5.143939,43.831718],[5.143161,43.832453],[5.142771,43.832638],[5.142384,43.832971],[5.142587,43.8339],[5.142201,43.834126],[5.141654,43.834908],[5.141966,43.835332],[5.141677,43.835448],[5.140774,43.835625],[5.13998,43.835903],[5.138821,43.836594],[5.138276,43.836818],[5.137224,43.83746],[5.13643,43.83753],[5.135334,43.838482],[5.134744,43.838753],[5.133961,43.839256],[5.133092,43.839722],[5.132792,43.840084],[5.132352,43.839951],[5.132149,43.839712],[5.131386,43.839725],[5.130431,43.839973],[5.130088,43.840588],[5.1285,43.841778],[5.128242,43.842041],[5.127331,43.842567],[5.126719,43.843048],[5.125914,43.843517],[5.125721,43.844307],[5.1257,43.845089],[5.125828,43.845184],[5.125659,43.845446],[5.123942,43.845453],[5.123287,43.845585],[5.122215,43.845972],[5.120121,43.846684],[5.11864,43.847309],[5.116035,43.847922],[5.114552,43.848179],[5.115368,43.848984],[5.115679,43.850513],[5.11628,43.852837],[5.116548,43.854103],[5.117138,43.855419],[5.118458,43.856956],[5.118833,43.857616],[5.118715,43.861095],[5.118823,43.862072],[5.119466,43.863689],[5.119756,43.864067],[5.120743,43.865269],[5.121719,43.866142],[5.122139,43.866651],[5.122492,43.867542],[5.122708,43.869219],[5.123897,43.869244],[5.126365,43.87093],[5.126966,43.871548],[5.128521,43.872498],[5.128983,43.872986],[5.13056,43.873898],[5.130978,43.874565],[5.133253,43.875923],[5.134658,43.876621],[5.135173,43.876789],[5.136332,43.877518],[5.140377,43.88028],[5.141063,43.880596],[5.140913,43.881611],[5.141085,43.882736],[5.140667,43.883178],[5.140484,43.883657],[5.14013,43.884229],[5.139669,43.884816],[5.139712,43.885251],[5.139089,43.88533],[5.138349,43.885359],[5.137864,43.885514],[5.137378,43.885359],[5.136901,43.885839],[5.136697,43.886265],[5.135935,43.886364],[5.135613,43.886086],[5.134916,43.885845],[5.134583,43.885941],[5.134133,43.885941],[5.134004,43.886009],[5.13409,43.886402],[5.134294,43.886738],[5.133939,43.887047],[5.133489,43.886806],[5.13306,43.886665],[5.132555,43.887276],[5.131933,43.887344],[5.131161,43.887291],[5.130474,43.887394],[5.130045,43.887569],[5.130238,43.887794],[5.130217,43.888035],[5.130378,43.888699],[5.131107,43.889698],[5.131526,43.889889],[5.132137,43.890015],[5.132384,43.890182],[5.131987,43.890631],[5.131354,43.891397],[5.131021,43.891808],[5.131772,43.891866],[5.132588,43.892033],[5.132668,43.892303],[5.133178,43.892387],[5.133339,43.892792],[5.133264,43.893402],[5.1335,43.893681],[5.134283,43.894329],[5.13483,43.894592],[5.136611,43.894684],[5.137244,43.894444],[5.137888,43.893902],[5.138328,43.893726],[5.139744,43.895805],[5.138789,43.89793],[5.139079,43.90131],[5.139486,43.901828],[5.139894,43.902166],[5.140903,43.902885],[5.140731,43.903172],[5.140237,43.90366],[5.139647,43.903938],[5.139304,43.903969],[5.139132,43.904194],[5.138843,43.904293],[5.138542,43.904316],[5.137587,43.904648],[5.136879,43.905029],[5.136064,43.905128],[5.135774,43.905052],[5.135442,43.904678],[5.134851,43.904442],[5.134476,43.90448],[5.134186,43.904385],[5.133285,43.90464],[5.132888,43.904919],[5.132598,43.905266],[5.132223,43.905296],[5.131483,43.905724],[5.131021,43.905949],[5.129637,43.906742],[5.128564,43.906769],[5.128157,43.907387],[5.127706,43.907555],[5.127191,43.908321],[5.12717,43.909119],[5.127298,43.909649],[5.127266,43.910084],[5.127577,43.911751],[5.127953,43.912624],[5.127942,43.913483],[5.127717,43.913799],[5.128296,43.913786],[5.129133,43.91428],[5.130625,43.914858],[5.13129,43.914883],[5.131853,43.915025],[5.132328,43.915081],[5.132801,43.915217],[5.133811,43.915384],[5.133897,43.915848],[5.134669,43.916084],[5.134562,43.915593],[5.134948,43.916028],[5.135307,43.916185],[5.135938,43.916718],[5.136077,43.917146],[5.136388,43.917312],[5.136691,43.917255],[5.137233,43.917346],[5.137748,43.917213],[5.137695,43.917046],[5.13784,43.916889],[5.138395,43.916689],[5.138587,43.916437],[5.138785,43.916423],[5.13926,43.916656],[5.139307,43.916794],[5.139809,43.91688],[5.140469,43.917255],[5.14074,43.917279],[5.142001,43.917075],[5.142305,43.917232],[5.142285,43.917427],[5.141943,43.917759],[5.141915,43.918107],[5.142047,43.918331],[5.142979,43.918697],[5.143289,43.918968],[5.144068,43.920038],[5.143996,43.920243],[5.143659,43.920338],[5.143448,43.920281],[5.143124,43.920281],[5.142999,43.920457],[5.143415,43.92088],[5.143441,43.921408],[5.143626,43.921936],[5.143533,43.922255],[5.143692,43.923145],[5.143638,43.923492],[5.143821,43.924301],[5.143595,43.924896],[5.14358,43.925704],[5.143145,43.926754],[5.143166,43.927441],[5.143012,43.928158],[5.142827,43.928372],[5.14253,43.928539],[5.142622,43.929086],[5.142589,43.929638],[5.142512,43.929935],[5.142721,43.930532],[5.142919,43.930722],[5.14352,43.930846],[5.143692,43.931202],[5.144009,43.931426],[5.14411,43.931736],[5.144711,43.932022],[5.145087,43.932308],[5.145773,43.932678],[5.145849,43.933189],[5.146492,43.9338],[5.147286,43.934395],[5.147844,43.934605],[5.14808,43.934872],[5.14896,43.935223],[5.149345,43.935773],[5.15029,43.935955],[5.150591,43.936226],[5.15066,43.936634],[5.150451,43.93771],[5.150805,43.938305],[5.151288,43.93869],[5.152844,43.939392],[5.153402,43.939533],[5.153552,43.939697],[5.153559,43.940034],[5.153831,43.940651],[5.154206,43.9408],[5.153895,43.941349],[5.152457,43.942768],[5.152028,43.943611],[5.151846,43.94416],[5.152168,43.944206],[5.153466,43.944778],[5.153745,43.944809],[5.154904,43.945488],[5.15558,43.946014],[5.156137,43.946316],[5.156245,43.946678],[5.15665,43.946768],[5.157082,43.947212],[5.15737,43.9478],[5.157297,43.949221],[5.156207,43.949397],[5.155963,43.949516],[5.155791,43.949683],[5.156545,43.94976],[5.157049,43.950077],[5.158294,43.950363],[5.159131,43.950123],[5.159592,43.949738],[5.160021,43.949272],[5.160386,43.949226],[5.160751,43.949497],[5.161126,43.949497],[5.162103,43.949219],[5.162929,43.949097],[5.163261,43.948818],[5.163637,43.948864],[5.164141,43.949189],[5.165171,43.949226],[5.166019,43.949226],[5.166426,43.949398],[5.16721,43.949543],[5.167821,43.949535],[5.168409,43.949809],[5.168787,43.950619],[5.168722,43.950871],[5.168626,43.951187],[5.169216,43.951199],[5.169806,43.950974],[5.169935,43.9501],[5.170246,43.948956],[5.170761,43.94817],[5.171501,43.947388],[5.172284,43.946934],[5.173411,43.946655],[5.17546,43.945946],[5.176426,43.945286],[5.177134,43.944939],[5.177531,43.944653],[5.178893,43.944462],[5.179913,43.944092],[5.180749,43.944328],[5.181082,43.94471],[5.181533,43.94429],[5.181908,43.943039],[5.182251,43.942413],[5.182301,43.942173],[5.182516,43.942032],[5.182827,43.94104],[5.182849,43.940678],[5.183439,43.940002],[5.183861,43.939571],[5.184075,43.939156],[5.184472,43.938805],[5.185019,43.938553],[5.185245,43.937801],[5.185599,43.937485],[5.186243,43.937386],[5.186897,43.937122],[5.187208,43.935978],[5.187273,43.935398],[5.187562,43.934902],[5.187401,43.934223],[5.18739,43.9342],[5.18762,43.93327],[5.18788,43.933289],[5.18825,43.933571],[5.18857,43.933971],[5.18872,43.93391],[5.18873,43.93346],[5.18915,43.932331],[5.188885,43.931106],[5.188963,43.930624],[5.188101,43.929506],[5.187798,43.928759],[5.18895,43.929861],[5.18895,43.928749],[5.1871,43.926491],[5.18684,43.925961],[5.1864,43.92548],[5.18599,43.924648],[5.18651,43.923592],[5.18677,43.923458],[5.18739,43.92226],[5.18784,43.921841],[5.18815,43.921242],[5.18911,43.920368],[5.19021,43.919941],[5.19058,43.919441],[5.19142,43.918739],[5.19175,43.918388],[5.19203,43.918289],[5.19279,43.917511],[5.1933,43.917469],[5.19376,43.917511],[5.19389,43.917019],[5.19411,43.916752],[5.19441,43.916691],[5.19459,43.91647],[5.1947,43.915901],[5.19471,43.91526],[5.19496,43.914631],[5.19549,43.914089],[5.19599,43.91404],[5.19654,43.913811],[5.19668,43.913361],[5.19698,43.91386],[5.19734,43.91383],[5.19778,43.91301],[5.19799,43.912189],[5.19868,43.911659],[5.199546,43.91135],[5.199536,43.9104],[5.198935,43.910591],[5.198141,43.91114],[5.197497,43.911335],[5.197787,43.910942],[5.198463,43.910339],[5.198506,43.910011],[5.198978,43.909859],[5.199149,43.909641],[5.199879,43.909386],[5.200523,43.909428],[5.200898,43.90958],[5.203344,43.911198],[5.203688,43.911198],[5.204052,43.91098],[5.204417,43.910927],[5.205394,43.910957],[5.206885,43.910671],[5.208151,43.910641],[5.208966,43.91053],[5.209245,43.910641],[5.209277,43.910973],[5.209878,43.911251],[5.211037,43.911198],[5.211509,43.911102],[5.212056,43.91132],[5.213193,43.911514],[5.214052,43.911606],[5.214384,43.911751],[5.215146,43.911831],[5.215704,43.911831],[5.216208,43.911945],[5.216573,43.912178],[5.216863,43.912601],[5.217925,43.912945],[5.220285,43.913548],[5.221562,43.91428],[5.222646,43.914673],[5.22345,43.914776],[5.22389,43.914742],[5.224931,43.915058],[5.225456,43.915176],[5.2261,43.915409],[5.226454,43.915665],[5.226937,43.915787],[5.227634,43.915779],[5.228031,43.91571],[5.228428,43.91581],[5.228525,43.915161],[5.22845,43.914536],[5.229405,43.913254],[5.229641,43.912434],[5.229973,43.912079],[5.229834,43.911507],[5.230038,43.910694],[5.230574,43.910755],[5.233128,43.91053],[5.233492,43.910339],[5.235091,43.910061],[5.237076,43.909897],[5.24037,43.909958],[5.241829,43.909595],[5.243105,43.909565],[5.244886,43.909679],[5.246785,43.909595],[5.247493,43.909565],[5.247944,43.909626],[5.251688,43.909409],[5.252461,43.90955],[5.253534,43.909813],[5.255669,43.909866],[5.257536,43.909752],[5.261065,43.909077],[5.262922,43.908798],[5.264971,43.908615],[5.266076,43.908707],[5.266923,43.908489],[5.267406,43.908188],[5.267578,43.907925],[5.269294,43.907261],[5.269509,43.907322],[5.269455,43.907673],[5.269638,43.907703],[5.270421,43.907387],[5.272063,43.907036],[5.273275,43.906597],[5.27408,43.906528],[5.275174,43.906567],[5.275603,43.906364],[5.276193,43.905617],[5.277255,43.904377],[5.277813,43.903358],[5.278264,43.902584],[5.278875,43.902645],[5.28042,43.901997],[5.280957,43.901966],[5.281579,43.902237],[5.281547,43.903172],[5.281858,43.903343],[5.282416,43.903194],[5.283231,43.902802],[5.283896,43.903042],[5.284122,43.902878],[5.283242,43.90226],[5.283242,43.90205],[5.28439,43.902485],[5.284717,43.902377],[5.285752,43.90145],[5.286589,43.901123],[5.287512,43.901936],[5.289282,43.902416],[5.289711,43.902607],[5.290023,43.902615],[5.291568,43.90205],[5.291696,43.901882],[5.29205,43.901936],[5.292373,43.902126],[5.293269,43.902077],[5.293821,43.901913],[5.294379,43.899677],[5.293746,43.898895],[5.293703,43.898502],[5.294024,43.89772],[5.29587,43.89674],[5.297769,43.895987],[5.299453,43.895203],[5.300236,43.89513],[5.301765,43.895233],[5.303251,43.895428],[5.304603,43.895348],[5.305027,43.895464],[5.305451,43.89575],[5.307114,43.898434],[5.307672,43.898605],[5.308884,43.898598],[5.309635,43.898906],[5.31089,43.898775],[5.311824,43.898712],[5.312575,43.89838],[5.314452,43.898216],[5.315954,43.898033],[5.316791,43.89835],[5.317531,43.898373],[5.317885,43.898319],[5.318454,43.898464],[5.31899,43.898811],[5.319752,43.899052],[5.320471,43.899181],[5.322359,43.900047],[5.323271,43.900265],[5.325063,43.900589],[5.325471,43.900883],[5.32605,43.901047],[5.327477,43.900784],[5.327584,43.900948],[5.328797,43.899811],[5.329397,43.899517],[5.330438,43.899414],[5.330781,43.89954],[5.331714,43.899538],[5.332798,43.899981],[5.333925,43.900265],[5.334429,43.900536],[5.334568,43.900922],[5.335234,43.900715],[5.336339,43.900589],[5.336425,43.900265],[5.336833,43.90007],[5.336983,43.898758],[5.337498,43.898479],[5.337734,43.898163],[5.338066,43.898018],[5.338002,43.89756],[5.338635,43.897732],[5.339053,43.897614],[5.339418,43.897297],[5.340352,43.89743],[5.340867,43.897453],[5.341274,43.897636],[5.341628,43.898449],[5.342208,43.899353],[5.342369,43.89978],[5.342293,43.90012],[5.342497,43.900368],[5.343045,43.900513],[5.343356,43.9007],[5.343688,43.900845],[5.343163,43.901695],[5.343281,43.90205],[5.342916,43.902885],[5.343205,43.903343],[5.343785,43.903435],[5.343989,43.903893],[5.344321,43.904186],[5.34504,43.9044],[5.345319,43.904625],[5.345555,43.905029],[5.346145,43.905624],[5.346156,43.905846],[5.347679,43.905823],[5.349342,43.905243],[5.349847,43.905266],[5.350855,43.905499],[5.35314,43.905098],[5.353548,43.904858],[5.354599,43.905384],[5.354836,43.905273],[5.35505,43.904736],[5.35564,43.904415],[5.35755,43.904179],[5.357818,43.90591],[5.357657,43.906403],[5.357582,43.90696],[5.358998,43.907562],[5.359706,43.908134],[5.360189,43.908901],[5.359696,43.90937],[5.35975,43.909874],[5.359717,43.910375],[5.359846,43.910833],[5.359824,43.911777],[5.360618,43.912571],[5.36094,43.913096],[5.361799,43.91339],[5.362357,43.913305],[5.363172,43.913092],[5.363859,43.913096],[5.364577,43.913261],[5.364867,43.914009],[5.364846,43.914326],[5.365006,43.914597],[5.365006,43.914814],[5.365843,43.9151],[5.366358,43.915726],[5.366787,43.916553],[5.366798,43.917278],[5.367184,43.917889],[5.367131,43.918461],[5.367045,43.918869],[5.367517,43.919502],[5.367571,43.920132],[5.367538,43.920353],[5.367603,43.920639],[5.36756,43.920849],[5.367753,43.921314],[5.367753,43.922478],[5.367646,43.92313],[5.367764,43.924133],[5.368354,43.924187],[5.369309,43.924599],[5.370575,43.92543],[5.371186,43.926723],[5.371218,43.927231],[5.371572,43.928074],[5.371755,43.928864],[5.372645,43.929745],[5.373075,43.93071],[5.373557,43.931442],[5.373911,43.932186],[5.374137,43.933655],[5.376701,43.933685],[5.377752,43.933605],[5.379351,43.933212]]],"type":"MultiLineString"},"properties":{"geo_point":{"lon":5.377291084727376,"lat":43.85517304651214},"name":"GR97 Tour du Luberon (Vaucluse, Alpes-de-Haute-Provence) (2019)","code_gr":"GR97"}}]}