{"type":"FeatureCollection","features":[{"type":"Feature","geometry":{"coordinates":[[[5.354814,43.231004],[5.35483,43.230151],[5.353919,43.229475],[5.354163,43.22944],[5.354537,43.229594],[5.354784,43.22957],[5.354848,43.229445],[5.354744,43.229218],[5.354805,43.229124],[5.355192,43.228825],[5.355412,43.228262],[5.354774,43.22793],[5.35507,43.227891],[5.355283,43.227775],[5.355351,43.227499],[5.355275,43.227322],[5.355055,43.2272],[5.355146,43.227079],[5.354949,43.227068],[5.35488,43.226996],[5.35507,43.226902],[5.3557,43.226896],[5.355935,43.226802],[5.356216,43.226813],[5.356481,43.226614],[5.356322,43.226476],[5.356398,43.226382],[5.356398,43.226244],[5.356504,43.225962],[5.356823,43.225813],[5.356845,43.225636],[5.356967,43.225525],[5.356891,43.225409],[5.356421,43.225249],[5.356094,43.22521],[5.355662,43.225066],[5.355351,43.224691],[5.355283,43.224503],[5.355457,43.22432],[5.355791,43.224088],[5.355738,43.223867],[5.35595,43.223613],[5.356322,43.223452],[5.356769,43.223469],[5.356367,43.223209],[5.356072,43.223165],[5.35554,43.223071],[5.354941,43.223181],[5.354425,43.222977],[5.354008,43.222955],[5.353925,43.222717],[5.354425,43.222219],[5.354865,43.222153],[5.354387,43.221921],[5.354152,43.221921],[5.354069,43.222059],[5.353871,43.221965],[5.353507,43.222054],[5.353295,43.222009],[5.353067,43.222026],[5.35309,43.221871],[5.352936,43.221785],[5.352643,43.221761],[5.352001,43.221519],[5.351724,43.221299],[5.351895,43.221181],[5.352448,43.221157],[5.352318,43.220849],[5.352456,43.220618],[5.352253,43.220523],[5.351822,43.220571],[5.351431,43.220683],[5.351139,43.220653],[5.3507,43.220659],[5.350513,43.220458],[5.350667,43.220256],[5.350567,43.220075],[5.350343,43.219941],[5.350406,43.219756],[5.350148,43.219547],[5.350401,43.219434],[5.350464,43.219274],[5.349831,43.219006],[5.349382,43.218787],[5.349724,43.218503],[5.349732,43.218248],[5.349846,43.218076],[5.350423,43.217981],[5.350895,43.21804],[5.351602,43.217993],[5.35196,43.218153],[5.352196,43.217886],[5.352066,43.217655],[5.352025,43.217389],[5.352529,43.217371],[5.35283,43.217703],[5.353318,43.217803],[5.353562,43.217531],[5.353871,43.2174],[5.354033,43.217223],[5.354205,43.217103],[5.354353,43.21678],[5.354109,43.216513],[5.354972,43.216659],[5.356,43.21676],[5.35609,43.216547],[5.356066,43.216352],[5.356326,43.215866],[5.356269,43.215629],[5.356367,43.215504],[5.355985,43.215208],[5.3557,43.215131],[5.355464,43.214752],[5.355407,43.214604],[5.355269,43.214503],[5.355229,43.214358],[5.355305,43.214004],[5.355518,43.213888],[5.354213,43.212699],[5.354365,43.212561],[5.354683,43.212412],[5.354812,43.212417],[5.354964,43.212329],[5.3546,43.212257],[5.354319,43.211814],[5.354054,43.211687],[5.354069,43.211472],[5.354243,43.211167],[5.354107,43.210869],[5.354281,43.210509],[5.354683,43.210227],[5.355093,43.210073],[5.355396,43.210023],[5.355571,43.20989],[5.35573,43.209885],[5.355897,43.209802],[5.356557,43.209962],[5.357354,43.209791],[5.357483,43.209863],[5.357778,43.209802],[5.358044,43.209885],[5.358256,43.209713],[5.358742,43.209619],[5.359698,43.209708],[5.360229,43.209813],[5.360813,43.20978],[5.360972,43.20999],[5.361374,43.209885],[5.36167,43.209973],[5.361959,43.210012],[5.362186,43.210338],[5.362206,43.209874],[5.361944,43.209734],[5.361831,43.209188],[5.361972,43.208961],[5.362609,43.208445],[5.363565,43.208099],[5.363728,43.207908],[5.36457,43.207748],[5.365561,43.207738],[5.36646,43.207815],[5.367514,43.208097],[5.36858,43.208251],[5.369458,43.208452],[5.370214,43.20866],[5.370539,43.208915],[5.37097,43.209163],[5.371393,43.209483],[5.37161,43.210069],[5.372645,43.210396],[5.373128,43.210379],[5.374255,43.209884],[5.37491,43.209801],[5.375301,43.210052],[5.375766,43.210183],[5.376031,43.2102],[5.376168,43.210266],[5.376434,43.210266],[5.376699,43.21046],[5.377154,43.210388],[5.377609,43.210493],[5.377837,43.210648],[5.378133,43.210736],[5.378421,43.210946],[5.378945,43.210869],[5.379187,43.21093],[5.379248,43.211085],[5.379749,43.211372],[5.380022,43.2114],[5.380265,43.211162],[5.38047,43.211167],[5.380735,43.210742],[5.381167,43.210736],[5.381266,43.210498],[5.381516,43.210415],[5.382055,43.210399],[5.382283,43.210321],[5.382609,43.21046],[5.383398,43.211278],[5.383269,43.211555],[5.38336,43.211754],[5.383618,43.211803],[5.383808,43.212445],[5.38403,43.212495],[5.384175,43.21264],[5.38439,43.212761],[5.384304,43.212609],[5.384218,43.212511],[5.384309,43.212409],[5.384282,43.212265],[5.384427,43.212139],[5.384567,43.212104],[5.384717,43.212006],[5.384932,43.211932],[5.385001,43.211788],[5.384948,43.211443],[5.38506,43.211279],[5.385141,43.211045],[5.385398,43.211193],[5.385693,43.211268],[5.38608,43.211436],[5.38623,43.211576],[5.386439,43.21149],[5.3866,43.211745],[5.386713,43.212159],[5.386981,43.212315],[5.387018,43.212507],[5.38719,43.212597],[5.387297,43.21248],[5.387378,43.212351],[5.387533,43.212304],[5.387909,43.212566],[5.388113,43.212534],[5.388317,43.212421],[5.388547,43.212558],[5.389207,43.21262],[5.389363,43.213203],[5.389228,43.213512],[5.389373,43.213738],[5.389663,43.213789],[5.389904,43.21393],[5.390081,43.213899],[5.390237,43.213957],[5.390425,43.213895],[5.390548,43.213957],[5.390913,43.213711],[5.39117,43.213688],[5.391541,43.213832],[5.392115,43.21395],[5.392383,43.214059],[5.392672,43.213977],[5.392855,43.214012],[5.393085,43.21402],[5.393241,43.214126],[5.393649,43.213871],[5.393901,43.213879],[5.39404,43.214071],[5.394335,43.213914],[5.394968,43.213907],[5.395312,43.214055],[5.395854,43.214176],[5.395961,43.21427],[5.395843,43.214915],[5.395988,43.214993],[5.395827,43.21533],[5.395982,43.215463],[5.395837,43.215685],[5.395558,43.215834],[5.395328,43.215846],[5.39514,43.21628],[5.395575,43.216612],[5.395725,43.216624],[5.396551,43.216475],[5.396824,43.216483],[5.396996,43.216424],[5.397221,43.216299],[5.397495,43.216389],[5.397812,43.216362],[5.397989,43.216135],[5.398214,43.215861],[5.398552,43.215685],[5.398756,43.215697],[5.399002,43.215857],[5.399169,43.215873],[5.399442,43.215768],[5.399973,43.216186],[5.400628,43.216084],[5.401014,43.216264],[5.401282,43.216252],[5.401787,43.216436],[5.402076,43.216413],[5.402511,43.216526],[5.403047,43.216596],[5.403305,43.216581],[5.403573,43.216714],[5.404115,43.21678],[5.404335,43.216757],[5.404431,43.216839],[5.404949,43.21682],[5.405063,43.2165],[5.405315,43.216369],[5.405705,43.216399],[5.406055,43.216512],[5.406518,43.216547],[5.4076,43.216464],[5.407803,43.216352],[5.408185,43.216358],[5.408669,43.216495],[5.408916,43.216492],[5.409143,43.216384],[5.409461,43.21642],[5.409751,43.216689],[5.41024,43.216993],[5.411103,43.217199],[5.411429,43.217369],[5.411741,43.217421],[5.412052,43.217761],[5.412321,43.217885],[5.412597,43.218092],[5.41293,43.21804],[5.41342,43.217997],[5.413834,43.218089],[5.414168,43.218248],[5.414699,43.21835],[5.415367,43.218305],[5.415542,43.218167],[5.415875,43.218145],[5.41595,43.218156],[5.416141,43.21785],[5.416295,43.217751],[5.416351,43.217567],[5.416868,43.217401],[5.417201,43.217073],[5.417318,43.216857],[5.417663,43.21661],[5.417873,43.216143],[5.417983,43.215771],[5.418219,43.215646],[5.418812,43.215635],[5.419178,43.215724],[5.419691,43.216109],[5.419983,43.216512],[5.420382,43.216583],[5.42052,43.216761],[5.420715,43.216849],[5.420983,43.217045],[5.421138,43.21711],[5.421268,43.217258],[5.421666,43.217276],[5.422309,43.217181],[5.422593,43.217205],[5.423029,43.217117],[5.423583,43.217144],[5.42372,43.217001],[5.424463,43.217072],[5.425031,43.217054],[5.425562,43.216893],[5.425251,43.217226],[5.4251,43.217456],[5.424612,43.217851],[5.424317,43.218172],[5.423952,43.218434],[5.423673,43.218789],[5.423352,43.218946],[5.422949,43.219294],[5.42259,43.219458],[5.422477,43.219732],[5.422214,43.22013],[5.422155,43.220396],[5.421892,43.220748],[5.421796,43.22101],[5.421533,43.221264],[5.421238,43.221444],[5.420755,43.22151],[5.420637,43.221612],[5.420519,43.221956],[5.420594,43.22203],[5.421195,43.22196],[5.42142,43.222007],[5.421774,43.222226],[5.422311,43.222308],[5.422863,43.222452],[5.423175,43.222742],[5.423577,43.22282],[5.423727,43.222808],[5.424124,43.223004],[5.42443,43.223269],[5.42458,43.223281],[5.424714,43.223363],[5.424875,43.223375],[5.424972,43.223422],[5.425261,43.223394],[5.425454,43.223242],[5.425808,43.223203],[5.425969,43.223062],[5.426039,43.222886],[5.426238,43.222792],[5.426506,43.22273],[5.426484,43.222491],[5.426592,43.222273],[5.426533,43.22212],[5.426597,43.221948],[5.42679,43.221913],[5.427268,43.221968],[5.427713,43.222151],[5.427884,43.222034],[5.428056,43.221975],[5.428002,43.221753],[5.428265,43.221213],[5.428421,43.221104],[5.428995,43.221237],[5.429268,43.221436],[5.429467,43.221491],[5.429934,43.221088],[5.430213,43.221147],[5.430422,43.221268],[5.43091,43.221291],[5.431028,43.22119],[5.431023,43.22099],[5.431178,43.220885],[5.431543,43.220779],[5.431784,43.220877],[5.431843,43.22085],[5.432069,43.22085],[5.432374,43.22051],[5.432315,43.220314],[5.432466,43.220119],[5.432991,43.220193],[5.433319,43.220338],[5.433533,43.220486],[5.433844,43.220408],[5.434306,43.22047],[5.434477,43.2204],[5.434864,43.220478],[5.435346,43.220392],[5.435459,43.220482],[5.43579,43.220292],[5.436684,43.219984],[5.43753,43.219747],[5.438026,43.21938],[5.43827,43.219403],[5.438741,43.219611],[5.438961,43.219765],[5.439359,43.21986],[5.439563,43.219984],[5.439872,43.21996],[5.440463,43.220047],[5.440858,43.220058],[5.441229,43.21998],[5.442026,43.220146],[5.442671,43.219986],[5.442959,43.220003],[5.444187,43.219462],[5.444369,43.219313],[5.444959,43.21918],[5.445464,43.21929],[5.4457,43.219259],[5.445775,43.219157],[5.446035,43.219046],[5.446262,43.218891],[5.446665,43.218829],[5.446948,43.218752],[5.447203,43.218793],[5.447478,43.218875],[5.447867,43.218735],[5.448205,43.218782],[5.448446,43.218735],[5.448521,43.218614],[5.448537,43.218223],[5.448666,43.218078],[5.44909,43.218051],[5.44909,43.217836],[5.449117,43.21746],[5.449301,43.21731],[5.449453,43.217034],[5.449726,43.216851],[5.450052,43.216752],[5.450318,43.216746],[5.450538,43.21694],[5.451031,43.217155],[5.451592,43.217177],[5.452146,43.217233],[5.452708,43.217354],[5.452874,43.217271],[5.452768,43.216923],[5.452252,43.216359],[5.452131,43.216149],[5.451956,43.215978],[5.4527,43.215646],[5.45292,43.215447],[5.453155,43.215552],[5.453019,43.215834],[5.453019,43.216005],[5.453481,43.215768],[5.453861,43.215779],[5.454377,43.215707],[5.45471,43.215967],[5.454581,43.216105],[5.455348,43.216215],[5.455833,43.216381],[5.456599,43.216514],[5.457047,43.216785],[5.45735,43.217017],[5.457748,43.217241],[5.457737,43.218015],[5.457823,43.218242],[5.458081,43.218148],[5.458134,43.217843],[5.458682,43.217937],[5.458714,43.217515],[5.458843,43.217374],[5.458907,43.216913],[5.459207,43.216858],[5.459476,43.216796],[5.459883,43.216811],[5.460387,43.217038],[5.460516,43.216733],[5.460656,43.2166],[5.460452,43.216162],[5.460656,43.215904],[5.460473,43.215318],[5.460935,43.215224],[5.461149,43.215271],[5.461611,43.215122],[5.461975,43.214419],[5.462619,43.214372],[5.46308,43.214473],[5.463306,43.214716],[5.464046,43.214403],[5.464261,43.214481],[5.464389,43.214669],[5.46454,43.214708],[5.464743,43.21452],[5.464861,43.214075],[5.464507,43.213418],[5.465226,43.212949],[5.465602,43.213136],[5.466031,43.212863],[5.466103,43.213175],[5.465996,43.213387],[5.46618,43.213573],[5.466188,43.213836],[5.466152,43.214125],[5.46634,43.214496],[5.46653,43.214634],[5.466477,43.21527],[5.466651,43.215535],[5.466712,43.215801],[5.466826,43.215873],[5.46697,43.215718],[5.46722,43.215657],[5.467273,43.215524],[5.467516,43.21532],[5.467653,43.215099],[5.467896,43.214938],[5.468078,43.214546],[5.468434,43.214336],[5.468571,43.214115],[5.468905,43.213938],[5.469375,43.213766],[5.469701,43.213539],[5.470065,43.213484],[5.470179,43.213274],[5.470581,43.213374],[5.470945,43.213368],[5.471234,43.213429],[5.471438,43.21334],[5.471374,43.213093],[5.471444,43.212945],[5.471385,43.212714],[5.471449,43.212534],[5.471545,43.212382],[5.471513,43.212182],[5.471358,43.211952],[5.471556,43.211807],[5.471572,43.211655],[5.471883,43.2116],[5.472119,43.211619],[5.4719,43.21142],[5.471873,43.211248],[5.471637,43.211139],[5.471481,43.210923],[5.471964,43.210525],[5.471867,43.210411],[5.471932,43.210212],[5.472237,43.210106],[5.472645,43.209801],[5.472822,43.209516],[5.472869,43.209507],[5.472967,43.209193],[5.473502,43.208887],[5.473904,43.208485],[5.474123,43.208397],[5.474439,43.20846],[5.474784,43.208321],[5.475094,43.20825],[5.475583,43.208011],[5.475911,43.207756],[5.476382,43.207684],[5.476704,43.207391],[5.476917,43.207383],[5.477003,43.207504],[5.476946,43.207617],[5.477055,43.20768],[5.477526,43.20768],[5.477854,43.207471],[5.478182,43.207383],[5.478433,43.207225],[5.478804,43.207225],[5.479125,43.207362],[5.479222,43.207381],[5.479217,43.207471],[5.479748,43.207565],[5.48015,43.207592],[5.480579,43.207694],[5.480424,43.207764],[5.480402,43.207839],[5.480273,43.20785],[5.48037,43.208018],[5.480617,43.208147],[5.480933,43.208116],[5.481175,43.208218],[5.481491,43.208566],[5.482028,43.20891],[5.482328,43.209035],[5.482398,43.209227],[5.482215,43.20943],[5.481427,43.209696],[5.481373,43.209813],[5.481244,43.209817],[5.481201,43.209899],[5.481802,43.210126],[5.482884,43.210224],[5.483787,43.210224],[5.484388,43.210396],[5.485234,43.210224],[5.485608,43.209904],[5.486267,43.209691],[5.486958,43.209537],[5.487446,43.209566],[5.488609,43.209425],[5.488287,43.2098],[5.487929,43.210041],[5.487738,43.210365],[5.487799,43.210613],[5.487912,43.21072],[5.487781,43.210994],[5.487912,43.211095],[5.488043,43.211013],[5.488121,43.210841],[5.488356,43.210708],[5.488531,43.210524],[5.488783,43.210536],[5.488958,43.210733],[5.489603,43.210644],[5.490038,43.210466],[5.490282,43.210257],[5.491372,43.210035],[5.491199,43.210329],[5.491026,43.211368],[5.491176,43.211384],[5.492027,43.210689],[5.492383,43.210647],[5.492946,43.210823],[5.493889,43.211024],[5.494154,43.211158],[5.494786,43.211234],[5.4952,43.211133],[5.495419,43.211175],[5.495787,43.211368],[5.496224,43.211334],[5.4965,43.21141],[5.496718,43.211686],[5.496914,43.211477],[5.497128,43.21144],[5.497193,43.21124],[5.497187,43.211041],[5.496973,43.210873],[5.496683,43.21045],[5.496662,43.210271],[5.496855,43.210063],[5.496967,43.209833],[5.496941,43.209449],[5.497048,43.209211],[5.497107,43.208855],[5.497493,43.208171],[5.498196,43.20742],[5.498298,43.207252],[5.498507,43.207064],[5.498614,43.206857],[5.498931,43.206634],[5.499129,43.206345],[5.499092,43.206118],[5.499433,43.206268],[5.499799,43.206357],[5.49999,43.20637],[5.500138,43.206516],[5.500574,43.206763],[5.500827,43.206674],[5.500966,43.206789],[5.501184,43.206662],[5.501419,43.206693],[5.501576,43.20642],[5.502064,43.20623],[5.502491,43.206211],[5.502709,43.205982],[5.503467,43.205817],[5.503781,43.205823],[5.504304,43.205645],[5.504879,43.205328],[5.505236,43.205048],[5.505472,43.205067],[5.505916,43.204845],[5.506143,43.204699],[5.506483,43.204635],[5.507206,43.204413],[5.508034,43.204407],[5.508269,43.20428],[5.508478,43.204267],[5.509045,43.20407],[5.509541,43.204134],[5.510247,43.204134],[5.510535,43.204076],[5.510887,43.204108],[5.511489,43.204345],[5.51166,43.204286],[5.511814,43.204304],[5.512015,43.204904],[5.511274,43.205269],[5.511774,43.2054],[5.511914,43.205619],[5.512515,43.205911],[5.513016,43.205926],[5.513396,43.205853],[5.513616,43.20578],[5.514157,43.206028],[5.514597,43.206495],[5.514918,43.207253],[5.515098,43.207516],[5.517004,43.208961],[5.518119,43.209086],[5.519514,43.209946],[5.52093,43.211479],[5.521595,43.211885],[5.522175,43.212089],[5.522132,43.211494],[5.522561,43.211416],[5.523655,43.211432],[5.526381,43.212308],[5.527325,43.212589],[5.528591,43.21273],[5.528827,43.212495],[5.528591,43.212042],[5.529213,43.212151],[5.530715,43.212198],[5.530801,43.212386],[5.530629,43.212808],[5.53108,43.213261],[5.531766,43.213418],[5.532196,43.213668],[5.533032,43.213997],[5.533311,43.214622],[5.533504,43.214638],[5.533912,43.214278],[5.534363,43.214262],[5.534964,43.21445],[5.535479,43.214763],[5.53565,43.214497],[5.536809,43.214763],[5.537045,43.214904],[5.537453,43.214653],[5.537667,43.214419],[5.538697,43.213762],[5.541551,43.213621],[5.542066,43.213074],[5.542924,43.212526],[5.544748,43.21176],[5.545521,43.211182],[5.54595,43.211135],[5.547066,43.210931],[5.548654,43.209883],[5.550563,43.209227],[5.554297,43.209117],[5.555906,43.209195],[5.556185,43.209399],[5.556352,43.209389],[5.556649,43.209544],[5.55674,43.208972],[5.556831,43.208773],[5.557469,43.208641],[5.558925,43.207822],[5.559684,43.207734],[5.560219,43.207506],[5.561163,43.207444],[5.56155,43.207694],[5.562365,43.207944],[5.562987,43.20832],[5.56391,43.208445],[5.564361,43.208664],[5.56479,43.209524],[5.565305,43.209774],[5.566421,43.209868],[5.566442,43.209977],[5.565197,43.210102],[5.564597,43.210337],[5.564725,43.211025],[5.563502,43.211228],[5.563095,43.211197],[5.56273,43.211025],[5.562193,43.211103],[5.561893,43.21126],[5.561635,43.211666],[5.561743,43.212073],[5.562279,43.212964],[5.56288,43.21334],[5.563717,43.213449],[5.564404,43.213621],[5.564597,43.2142],[5.566013,43.214528],[5.566828,43.214544],[5.567343,43.2147],[5.567858,43.215154],[5.56891,43.215857],[5.56936,43.21592],[5.569553,43.216139],[5.569918,43.216217],[5.570518,43.216955],[5.57077,43.217432],[5.571135,43.217745],[5.571536,43.217854],[5.572059,43.217826],[5.572937,43.217649],[5.573143,43.217813],[5.573133,43.218051],[5.57289,43.218385],[5.572582,43.218487],[5.572227,43.218732],[5.57162,43.218841],[5.571536,43.219004],[5.571602,43.219106],[5.571527,43.219474],[5.571667,43.219855],[5.572171,43.220345],[5.572601,43.220433],[5.572965,43.22059],[5.57361,43.220447],[5.575786,43.220147],[5.576023,43.220418],[5.576337,43.220521],[5.576633,43.220517],[5.576941,43.220463],[5.577071,43.220504],[5.577212,43.220517],[5.577329,43.220665],[5.577453,43.221024],[5.577545,43.221455],[5.578241,43.222107],[5.5785,43.222268],[5.57863,43.222246],[5.57879,43.222093],[5.579424,43.222021],[5.580065,43.222213],[5.580801,43.223224],[5.581282,43.223595],[5.583038,43.224008],[5.583264,43.224379],[5.583207,43.22539],[5.583717,43.225885],[5.585416,43.226174],[5.585558,43.226445],[5.585462,43.226686],[5.585218,43.226819],[5.584992,43.226845],[5.584966,43.226965],[5.584364,43.227232],[5.583963,43.227264],[5.58378,43.227404],[5.58358,43.227435],[5.583571,43.2276],[5.584103,43.228242],[5.584469,43.228496],[5.58453,43.228623],[5.584826,43.229181],[5.58535,43.229552],[5.585716,43.229943],[5.586066,43.230234],[5.586464,43.230625],[5.587066,43.230909],[5.587586,43.231294],[5.588034,43.231887],[5.587952,43.232313],[5.587798,43.232544],[5.587879,43.232663],[5.588416,43.232817],[5.588456,43.233379],[5.588611,43.233682],[5.588977,43.234037],[5.589619,43.234546],[5.589676,43.234795],[5.590148,43.235234],[5.590595,43.235334],[5.59077,43.235378],[5.59107,43.235574],[5.592143,43.235847],[5.593012,43.236277],[5.593441,43.236344],[5.593801,43.236351],[5.594117,43.236406],[5.594423,43.23632],[5.595925,43.23614],[5.597185,43.23609],[5.598092,43.236238],[5.598437,43.236442],[5.598587,43.23661],[5.599006,43.236882],[5.599461,43.236928],[5.600064,43.237087],[5.60034,43.237196],[5.600725,43.237376],[5.601019,43.237426],[5.601519,43.237368],[5.602163,43.236966],[5.602422,43.236836],[5.602646,43.236714],[5.602841,43.236727],[5.603117,43.237007],[5.604242,43.237137],[5.60473,43.237277],[5.605358,43.237581],[5.605776,43.237975],[5.606246,43.238178],[5.606752,43.238546],[5.60731,43.23875],[5.607588,43.238953],[5.607728,43.239638],[5.608251,43.240108],[5.609663,43.240362],[5.610464,43.241048],[5.610935,43.24134],[5.611249,43.241695],[5.612904,43.242609],[5.613357,43.242609],[5.614229,43.242432],[5.614421,43.242495],[5.615013,43.243143],[5.614996,43.243676],[5.616721,43.243854],[5.619022,43.243066],[5.619562,43.24299],[5.620957,43.242533],[5.62134,43.242355],[5.622072,43.242254],[5.622386,43.242063],[5.623083,43.241809],[5.62378,43.241809],[5.625174,43.241619],[5.626063,43.241657],[5.628329,43.242825],[5.629741,43.242533],[5.63049,43.242305],[5.631327,43.242406],[5.63307,43.242939],[5.634063,43.243079],[5.634795,43.243282],[5.635475,43.24313],[5.635946,43.242736],[5.636312,43.242254],[5.636503,43.241886],[5.637113,43.241365],[5.637532,43.240768],[5.638246,43.240438],[5.64025,43.240184],[5.641993,43.239562],[5.643057,43.23974],[5.644033,43.239803],[5.644033,43.240007],[5.644172,43.240527],[5.644207,43.240883],[5.644782,43.241594],[5.64663,43.243371],[5.647048,43.243917],[5.647484,43.244793],[5.647804,43.244912],[5.648202,43.244972],[5.648715,43.245143],[5.649146,43.245238],[5.649488,43.245326],[5.649585,43.245623],[5.649894,43.245753],[5.650048,43.246032],[5.650268,43.246079],[5.650756,43.24647],[5.651081,43.246511],[5.651227,43.246594],[5.651642,43.246701],[5.651967,43.246962],[5.652097,43.247163],[5.652796,43.247483],[5.65278,43.247844],[5.653148,43.248107],[5.653897,43.248094],[5.65442,43.248411],[5.655292,43.248843],[5.655588,43.249376],[5.655658,43.2501],[5.655553,43.250582],[5.65564,43.250785],[5.65571,43.251103],[5.655797,43.251661],[5.656111,43.251648],[5.656529,43.251395],[5.656634,43.251014],[5.657331,43.250493],[5.658168,43.250239],[5.658394,43.249947],[5.659126,43.249655],[5.660398,43.249465],[5.660939,43.249122],[5.661357,43.248716],[5.66181,43.248487],[5.662176,43.247726],[5.662072,43.247154],[5.662473,43.246469],[5.662699,43.246507],[5.662734,43.245898],[5.663257,43.246139],[5.663937,43.246304],[5.66493,43.246697],[5.665401,43.246736],[5.666621,43.246697],[5.667701,43.246418],[5.668207,43.246431],[5.668154,43.246748],[5.668381,43.247281],[5.668468,43.247751],[5.668782,43.248322],[5.669549,43.249084],[5.670368,43.249287],[5.670873,43.249541],[5.671344,43.249985],[5.671326,43.250227],[5.671658,43.250506],[5.672599,43.250163],[5.672494,43.250811],[5.672599,43.251433],[5.672529,43.251814],[5.672407,43.252524],[5.672512,43.252677],[5.672477,43.252867],[5.67218,43.253134],[5.672268,43.253603],[5.67218,43.253895],[5.672287,43.254292],[5.671689,43.254224],[5.671035,43.254006],[5.670755,43.254428],[5.670549,43.254578],[5.670475,43.255013],[5.670213,43.25519],[5.670213,43.255748],[5.669597,43.256333],[5.669036,43.256523],[5.66885,43.25738],[5.668028,43.258251],[5.668065,43.258482],[5.667673,43.258849],[5.667411,43.259652],[5.667579,43.260006],[5.669148,43.260359],[5.669503,43.260577],[5.668962,43.261951],[5.669148,43.262264],[5.670176,43.262509],[5.670512,43.262862],[5.671315,43.264536],[5.671259,43.264821],[5.669784,43.265814],[5.670904,43.266304],[5.670325,43.266753],[5.67096,43.266821],[5.671353,43.267038],[5.6721,43.268263],[5.671391,43.268191],[5.670512,43.268269],[5.669868,43.268425],[5.668688,43.268425],[5.668044,43.268378],[5.666692,43.268503],[5.66534,43.268909],[5.664976,43.269144],[5.664997,43.269691],[5.664203,43.269534],[5.663087,43.269847],[5.662336,43.269894],[5.661542,43.270253],[5.661392,43.270597],[5.661736,43.270909],[5.6618,43.271112],[5.662529,43.271769],[5.662143,43.272112],[5.662014,43.27255],[5.662336,43.27355],[5.662723,43.274081],[5.66268,43.274456],[5.663238,43.274831],[5.663538,43.275362],[5.663602,43.276049],[5.66401,43.276174],[5.66401,43.276502],[5.664246,43.276659],[5.664761,43.276659],[5.664976,43.277565],[5.665319,43.277846],[5.665491,43.278236],[5.665705,43.278361],[5.665812,43.278643],[5.66577,43.278908],[5.666156,43.278955],[5.666585,43.279924],[5.667379,43.28072],[5.668259,43.282235],[5.668538,43.282314],[5.66901,43.282892],[5.669289,43.28297],[5.669053,43.283095],[5.669031,43.283251],[5.668795,43.283423],[5.668645,43.283657],[5.668237,43.283891],[5.668366,43.284532],[5.669224,43.284422],[5.669203,43.284532],[5.668881,43.28475],[5.669031,43.285032],[5.669589,43.285156],[5.670447,43.285656],[5.671241,43.285703],[5.672121,43.285953],[5.672357,43.286234],[5.673108,43.286562],[5.673709,43.286437],[5.674739,43.286718],[5.675018,43.287156],[5.675318,43.287562],[5.675747,43.288327],[5.67667,43.289264],[5.676498,43.289655],[5.676091,43.289546],[5.675554,43.289702],[5.675404,43.289514],[5.675039,43.289514],[5.674632,43.289905],[5.674868,43.290186],[5.67534,43.29028],[5.676005,43.290483],[5.676198,43.290764],[5.676541,43.290967],[5.677164,43.292701],[5.677013,43.292919],[5.677292,43.293044],[5.677249,43.2932],[5.677528,43.293232],[5.677464,43.293606],[5.677722,43.29459],[5.6777,43.295199],[5.678,43.295356],[5.678022,43.295855],[5.678236,43.296402],[5.678215,43.296886],[5.677485,43.297167],[5.677078,43.297511],[5.676734,43.297589],[5.676584,43.298026],[5.676692,43.298135],[5.676863,43.298463],[5.677464,43.298698],[5.677614,43.298854],[5.678065,43.29901],[5.678215,43.29926],[5.67873,43.299525],[5.67888,43.29976],[5.679739,43.300166],[5.680082,43.300462],[5.68079,43.300728],[5.681541,43.300728],[5.682764,43.300853],[5.683258,43.301009],[5.683751,43.301071],[5.684223,43.301259],[5.684931,43.301384],[5.685382,43.301524],[5.685897,43.301649],[5.687099,43.30218],[5.687807,43.302367],[5.688279,43.302586],[5.688794,43.302727],[5.689137,43.302898],[5.689995,43.303039],[5.690639,43.302976],[5.69169,43.30332],[5.692034,43.303585],[5.692656,43.303632],[5.693021,43.303507],[5.694952,43.303664],[5.69581,43.304319],[5.697012,43.304413],[5.697484,43.304679],[5.697548,43.305022],[5.69742,43.305209],[5.697505,43.305475],[5.697441,43.305631],[5.697601,43.305903],[5.697475,43.30598],[5.697594,43.306086],[5.697422,43.306172],[5.697383,43.306288],[5.697469,43.306422],[5.697231,43.306542],[5.697277,43.3066],[5.697112,43.306711],[5.697297,43.306845],[5.697271,43.307129],[5.697396,43.307259],[5.697535,43.307316],[5.697713,43.307624],[5.697957,43.307931],[5.697984,43.308417],[5.697753,43.308657],[5.697753,43.308945],[5.697693,43.309181],[5.697865,43.30932],[5.697984,43.309681],[5.697918,43.309796],[5.697951,43.309907],[5.697944,43.31006],[5.698162,43.310195],[5.698235,43.310671],[5.700447,43.311219],[5.700777,43.311334],[5.702741,43.311861],[5.704029,43.312048],[5.704951,43.312111],[5.705295,43.312283],[5.706689,43.31247],[5.706882,43.312689],[5.707437,43.313003],[5.707657,43.313061],[5.707947,43.313243],[5.708448,43.313389],[5.708838,43.313644],[5.709699,43.313906],[5.709969,43.314008],[5.71033,43.31403],[5.71093,43.314219],[5.711401,43.314416],[5.711891,43.314474],[5.712382,43.314663],[5.712572,43.314678],[5.712742,43.314918],[5.713343,43.315166],[5.713613,43.31537],[5.713964,43.315355],[5.714194,43.315421],[5.714454,43.315414],[5.714844,43.315508],[5.715145,43.315523],[5.716506,43.316047],[5.717397,43.316295],[5.718228,43.316331],[5.718578,43.316375],[5.718959,43.316324],[5.719589,43.316404],[5.72002,43.316411],[5.721471,43.316688],[5.722182,43.316725],[5.722402,43.316732],[5.722833,43.31679],[5.723854,43.31679],[5.724555,43.316885],[5.725035,43.316994],[5.725876,43.317089],[5.726607,43.317242],[5.727137,43.317329],[5.728378,43.317577],[5.728519,43.317679],[5.729319,43.317905],[5.72988,43.317948],[5.7303,43.318072],[5.730801,43.318116],[5.732653,43.318618],[5.733524,43.318735],[5.733914,43.318924],[5.734475,43.319092],[5.735095,43.319354],[5.735856,43.31947],[5.736907,43.319769],[5.737358,43.319835],[5.737988,43.32017],[5.738559,43.32025],[5.73927,43.32041],[5.73954,43.320606],[5.740751,43.320927],[5.741102,43.321102],[5.741522,43.321269],[5.741652,43.321357],[5.742643,43.321575],[5.742843,43.321655],[5.744155,43.321917],[5.744305,43.322194],[5.744475,43.322216],[5.744625,43.322129],[5.745256,43.322311],[5.745756,43.322624],[5.746197,43.322689],[5.746878,43.322879],[5.747518,43.322952],[5.748179,43.323221],[5.748479,43.323301],[5.74877,43.323447],[5.74949,43.323578],[5.750241,43.32368],[5.750411,43.323651],[5.750922,43.32376],[5.751653,43.323774],[5.751953,43.323876],[5.752373,43.323855],[5.752533,43.323942],[5.752774,43.323956],[5.753354,43.324088],[5.753585,43.324277],[5.754015,43.324241],[5.754395,43.324277],[5.754766,43.324219],[5.755116,43.324408],[5.755016,43.324517],[5.755116,43.324663],[5.755416,43.324663],[5.755707,43.324714],[5.755877,43.324816],[5.756047,43.324823],[5.756217,43.324896],[5.756698,43.324845],[5.757058,43.324954],[5.757338,43.324918],[5.757729,43.325085],[5.758059,43.325107],[5.758299,43.325202],[5.75865,43.325253],[5.75887,43.325362],[5.75905,43.325384],[5.75926,43.325457],[5.759971,43.325464],[5.760912,43.325741],[5.761363,43.325799],[5.761953,43.325974],[5.762344,43.325923],[5.762754,43.325996],[5.763275,43.326061],[5.763975,43.326345],[5.764846,43.326542],[5.765777,43.326869],[5.767089,43.32703],[5.767719,43.327088],[5.76807,43.327102],[5.76859,43.327284],[5.769021,43.32735],[5.769431,43.327437],[5.770032,43.327445]]],"type":"MultiLineString"},"properties":{"geo_point":{"lon":5.552406219550727,"lat":43.24160703892964},"name":"GR98 De La Madrague au Col du Pilon (Bouches-du-Rhône) (2019)","code_gr":"GR98"}}]}