{"type":"FeatureCollection","features":[{"type":"Feature","geometry":{"coordinates":[[[5.927145,43.163338],[5.927467,43.16362],[5.928411,43.163792],[5.929773,43.16392],[5.929674,43.164116],[5.929454,43.16441],[5.92898,43.164937],[5.928619,43.1655],[5.928392,43.165913],[5.928111,43.166347],[5.928746,43.166679],[5.928776,43.167468],[5.929206,43.16833],[5.929326,43.168359],[5.92951,43.168602],[5.929398,43.169126],[5.928826,43.169987],[5.928425,43.170775],[5.928526,43.170936],[5.928105,43.171535],[5.927785,43.171958],[5.927144,43.1726],[5.926964,43.173053],[5.927124,43.17355],[5.926443,43.174542],[5.926003,43.174834],[5.925743,43.175083],[5.925643,43.175915],[5.925803,43.17609],[5.925736,43.176773],[5.92421,43.177891],[5.9236,43.178959],[5.92358,43.179199],[5.9237,43.179649],[5.92368,43.179909],[5.92356,43.180111],[5.92347,43.180889],[5.92358,43.181271],[5.92291,43.181839],[5.92235,43.182522],[5.9226,43.182819],[5.92265,43.18309],[5.92291,43.18327],[5.92374,43.18335],[5.92452,43.183369],[5.92476,43.183521],[5.92492,43.183949],[5.92489,43.184151],[5.92522,43.184601],[5.92518,43.184761],[5.92491,43.184849],[5.92456,43.185341],[5.92461,43.185421],[5.92478,43.185398],[5.92487,43.185429],[5.92458,43.185791],[5.92466,43.186031],[5.92457,43.18631],[5.9245,43.186951],[5.92457,43.18708],[5.92444,43.187229],[5.92465,43.18824],[5.92491,43.18832],[5.92517,43.18853],[5.92541,43.188568],[5.9254,43.188629],[5.92485,43.188992],[5.92513,43.18924],[5.92527,43.189468],[5.92528,43.189781],[5.92512,43.18993],[5.92508,43.190121],[5.92514,43.19062],[5.92513,43.191151],[5.92496,43.191391],[5.92495,43.191551],[5.92416,43.192509],[5.92401,43.19281],[5.92377,43.193081],[5.92401,43.193089],[5.92396,43.193241],[5.92417,43.193291],[5.9242,43.193439],[5.92454,43.19371],[5.92512,43.19389],[5.92528,43.19405],[5.92517,43.194248],[5.92557,43.19466],[5.92539,43.19495],[5.92529,43.195431],[5.92528,43.19558],[5.92541,43.19577],[5.92529,43.195911],[5.92536,43.19595],[5.9252,43.196232],[5.92465,43.1968],[5.92453,43.19698],[5.92468,43.197498],[5.92493,43.197552],[5.92549,43.197842],[5.92585,43.197941],[5.92607,43.197891],[5.92607,43.197891],[5.926867,43.198042],[5.927017,43.198636],[5.927253,43.199105],[5.927296,43.199778],[5.927703,43.200028],[5.927768,43.200231],[5.929463,43.200982],[5.929677,43.201248],[5.930171,43.201514],[5.930793,43.201608],[5.93133,43.201858],[5.931866,43.201811],[5.9328,43.202351],[5.93303,43.202599],[5.93362,43.20293],[5.93386,43.203152],[5.93405,43.204041],[5.93406,43.204948],[5.93388,43.205769],[5.93364,43.206188],[5.93334,43.206558],[5.93321,43.206909],[5.93267,43.207218],[5.93143,43.208801],[5.93142,43.20903],[5.93124,43.209209],[5.93133,43.209431],[5.93089,43.210239],[5.930958,43.210437],[5.930764,43.21067],[5.930645,43.210742],[5.930676,43.210852],[5.930546,43.211059],[5.930334,43.211163],[5.92965,43.2118],[5.92834,43.21262],[5.92668,43.213039],[5.92638,43.213299],[5.92567,43.213427],[5.925345,43.213648],[5.924913,43.214288],[5.924618,43.214463],[5.92456,43.21492],[5.92384,43.215382],[5.92292,43.21656],[5.92328,43.216869],[5.92363,43.216919],[5.92408,43.217159],[5.92468,43.21769],[5.92482,43.218029],[5.92474,43.218208],[5.925027,43.218649],[5.92512,43.218965],[5.925185,43.219049],[5.92528,43.219391],[5.92541,43.21965],[5.92542,43.220131],[5.92524,43.220329],[5.92549,43.220558],[5.92564,43.220581],[5.92551,43.22086],[5.92519,43.22094],[5.92463,43.22155],[5.92438,43.222012],[5.92405,43.222279],[5.92397,43.22261],[5.92366,43.222839],[5.92332,43.222969],[5.92256,43.223518],[5.92248,43.223701],[5.92216,43.223969],[5.92189,43.224709],[5.92152,43.224949],[5.92119,43.22541],[5.92109,43.226521],[5.92118,43.2276],[5.92085,43.22826],[5.92105,43.229389],[5.92157,43.229858],[5.92145,43.230049],[5.9212,43.23027],[5.92108,43.230499],[5.92101,43.230869],[5.92111,43.23119],[5.92094,43.231621],[5.9211,43.23193],[5.92096,43.23225],[5.92094,43.232792],[5.92125,43.23317],[5.9212,43.23336],[5.92122,43.233601],[5.92136,43.23378],[5.92147,43.234089],[5.92209,43.234161],[5.92248,43.234581],[5.92235,43.23502],[5.92271,43.235371],[5.92413,43.234871],[5.92464,43.234779],[5.92494,43.234901],[5.925,43.235119],[5.92547,43.235149],[5.92579,43.235291],[5.92555,43.23563],[5.92567,43.23637],[5.92483,43.23716],[5.92469,43.237339],[5.92428,43.237659],[5.9239,43.23777],[5.92377,43.23798],[5.92357,43.238522],[5.92248,43.239128],[5.92184,43.2393],[5.92148,43.239578],[5.92124,43.23967],[5.92088,43.23999],[5.92068,43.240711],[5.91978,43.24094],[5.9195,43.241249],[5.91986,43.24139],[5.92003,43.241661],[5.91959,43.241779],[5.91963,43.241982],[5.91993,43.242039],[5.91996,43.242119],[5.91996,43.242119],[5.920118,43.242512],[5.920011,43.242794],[5.920161,43.243263],[5.919968,43.2437],[5.919775,43.243872],[5.919582,43.244075],[5.919453,43.244404],[5.919174,43.244888],[5.918788,43.245248],[5.918616,43.245404],[5.917951,43.245951],[5.917629,43.246357],[5.916921,43.247452],[5.916492,43.246998],[5.916234,43.247108],[5.915891,43.247014],[5.915354,43.247373],[5.914925,43.24767],[5.914239,43.247717],[5.913981,43.247858],[5.913681,43.247936],[5.913402,43.248327],[5.913166,43.248702],[5.912544,43.248561],[5.912157,43.248608],[5.911535,43.24828],[5.910805,43.248155],[5.90999,43.248077],[5.908746,43.247326],[5.907608,43.246654],[5.90676,43.245811],[5.90621,43.246429],[5.90616,43.246639],[5.90595,43.246861],[5.90604,43.247292],[5.90597,43.24752],[5.90618,43.247742],[5.90605,43.248112],[5.90616,43.248459],[5.90578,43.248871],[5.90554,43.24897],[5.90505,43.249519],[5.90459,43.249519],[5.90443,43.24958],[5.90362,43.249538],[5.90302,43.25005],[5.9023,43.250481],[5.90191,43.250969],[5.90154,43.251099],[5.90137,43.251251],[5.90133,43.251751],[5.90152,43.252121],[5.90179,43.252178],[5.90215,43.252579],[5.90206,43.252838],[5.90204,43.253391],[5.90214,43.253609],[5.90178,43.25367],[5.90106,43.254009],[5.90077,43.25404],[5.90012,43.25436],[5.89893,43.25481],[5.89804,43.254551],[5.89751,43.254551],[5.89507,43.254719],[5.89466,43.254551],[5.89297,43.25436],[5.89239,43.254189],[5.89147,43.254238],[5.89089,43.254688],[5.89048,43.255161],[5.88949,43.255619],[5.88835,43.255871],[5.88759,43.255901],[5.8866,43.255611],[5.88502,43.254971],[5.88431,43.255009],[5.88346,43.256378],[5.8824,43.256802],[5.88177,43.256779],[5.88041,43.257229],[5.8796,43.257832],[5.87975,43.258389],[5.8802,43.258362],[5.88057,43.258499],[5.88136,43.259399],[5.88205,43.25996],[5.88223,43.261089],[5.88285,43.262112],[5.883275,43.262757],[5.8834,43.263275],[5.883472,43.263387],[5.883109,43.264181],[5.882927,43.26443],[5.882711,43.264539],[5.882825,43.264719],[5.882703,43.265007],[5.882425,43.265254],[5.882059,43.265712],[5.881631,43.266176],[5.881519,43.266577],[5.88139,43.267559],[5.88111,43.268188],[5.88121,43.269001],[5.88018,43.269489],[5.87953,43.269901],[5.87855,43.270012],[5.87852,43.270119],[5.87796,43.270149],[5.8767,43.270679],[5.87646,43.271118],[5.87596,43.271198],[5.8758,43.27166],[5.87554,43.271999],[5.8753,43.272121],[5.87512,43.272289],[5.87452,43.272449],[5.87369,43.272861],[5.87265,43.272968],[5.87252,43.27322],[5.8722,43.273411],[5.87161,43.273472],[5.871721,43.273743],[5.8709,43.273739],[5.87057,43.273918],[5.87055,43.274109],[5.87037,43.274139],[5.87028,43.274479],[5.8704,43.274731],[5.87024,43.274929],[5.87011,43.27486],[5.87001,43.275021],[5.87007,43.27541],[5.8699,43.275711],[5.87039,43.27594],[5.87047,43.2761],[5.87045,43.276238],[5.870537,43.27636],[5.87054,43.27676],[5.870275,43.277085],[5.870499,43.277321],[5.87036,43.277481],[5.87065,43.277649],[5.870785,43.277731],[5.87077,43.277859],[5.87057,43.278042],[5.87105,43.278111],[5.87107,43.278191],[5.870431,43.27828],[5.8699,43.278259],[5.86892,43.278431],[5.86829,43.278648],[5.867991,43.278872],[5.86693,43.279259],[5.86723,43.279419],[5.86709,43.279591],[5.86524,43.279999],[5.86497,43.280479],[5.8632,43.280289],[5.8615,43.280239],[5.86124,43.280281],[5.86102,43.28051],[5.86094,43.280769],[5.8612,43.281071],[5.86123,43.28199],[5.86138,43.282318],[5.86129,43.283138],[5.86085,43.283939],[5.86067,43.284019],[5.86079,43.284401],[5.8613,43.284431],[5.86183,43.286079],[5.86208,43.286629],[5.86234,43.28688],[5.86318,43.286678],[5.86368,43.287781],[5.86406,43.288368],[5.86496,43.290459],[5.86559,43.290562],[5.86613,43.291908],[5.86686,43.291801],[5.86843,43.291168],[5.86914,43.29084],[5.87079,43.29092],[5.87314,43.291248],[5.87483,43.29129],[5.87525,43.29142],[5.87601,43.29142],[5.87636,43.291779],[5.87669,43.29195],[5.87712,43.291988],[5.87752,43.292519],[5.87824,43.292591],[5.879,43.292511],[5.88035,43.292648],[5.88077,43.292858],[5.8816,43.29295],[5.88291,43.292912],[5.88496,43.292568],[5.88541,43.2924],[5.88581,43.29237],[5.88602,43.292149],[5.88635,43.29195],[5.88811,43.291618],[5.88941,43.29129],[5.88999,43.2911],[5.89102,43.291088],[5.89193,43.290668],[5.8946,43.290699],[5.89495,43.2906],[5.89521,43.290779],[5.89562,43.290779],[5.89606,43.290501],[5.89645,43.290489],[5.89696,43.290218],[5.89824,43.289429],[5.90246,43.287788],[5.90222,43.286961],[5.90277,43.2869],[5.90315,43.286709],[5.905446,43.286383],[5.905522,43.286142],[5.907917,43.285902],[5.909005,43.285986],[5.909646,43.285918],[5.910835,43.286064],[5.910872,43.285911],[5.911466,43.285929],[5.91247,43.285796],[5.91323,43.285389],[5.91365,43.284939],[5.91383,43.284969],[5.91363,43.285759],[5.91368,43.285919],[5.91414,43.285591],[5.91444,43.285542],[5.914521,43.285358],[5.91446,43.284931],[5.91461,43.285],[5.91477,43.285439],[5.91507,43.28553],[5.91534,43.285469],[5.915701,43.285131],[5.91658,43.28476],[5.91695,43.284599],[5.91726,43.28429],[5.917653,43.284111],[5.918637,43.284246],[5.91887,43.284248],[5.91921,43.284489],[5.920166,43.284417],[5.92136,43.28447],[5.92162,43.284908],[5.92209,43.28521],[5.92244,43.285141],[5.92252,43.285464],[5.922824,43.285641],[5.922939,43.286468],[5.923043,43.286506],[5.922739,43.286802],[5.92228,43.28722],[5.9224,43.287941],[5.92263,43.288471],[5.92306,43.288681],[5.92415,43.28883],[5.92444,43.289028],[5.92476,43.28973],[5.92517,43.290058],[5.92663,43.29063],[5.92788,43.291279],[5.92863,43.291512],[5.92942,43.291309],[5.92947,43.29097],[5.9296,43.29073],[5.92962,43.290531],[5.92998,43.290131],[5.93053,43.289951],[5.93047,43.290272],[5.93058,43.290741],[5.93058,43.291191],[5.93097,43.291321],[5.93118,43.291538],[5.93134,43.292099],[5.93159,43.292252],[5.9316,43.29245],[5.931405,43.292816],[5.931469,43.293293],[5.931576,43.293465],[5.93148,43.293911],[5.931394,43.294128],[5.931544,43.29435],[5.93133,43.295113],[5.931029,43.295486],[5.930879,43.296051],[5.931008,43.296314],[5.930439,43.297409],[5.930085,43.298573],[5.929559,43.298744],[5.929259,43.299206],[5.929152,43.299915],[5.928926,43.300354],[5.928755,43.300797],[5.928218,43.30101],[5.927457,43.301132],[5.927027,43.30151],[5.92662,43.301682],[5.925182,43.302624],[5.924925,43.302742],[5.924571,43.303062],[5.924259,43.30365],[5.924335,43.303936],[5.924184,43.304115],[5.924141,43.304359],[5.922929,43.304935],[5.922049,43.305248],[5.920998,43.305264],[5.92086,43.305309],[5.92067,43.305382],[5.92012,43.305271],[5.91939,43.305599],[5.91906,43.305679],[5.91863,43.305611],[5.91821,43.305618],[5.91784,43.305531],[5.9175,43.30608],[5.91722,43.30616],[5.91727,43.306339],[5.91757,43.306499],[5.91752,43.306919],[5.91697,43.307171],[5.91672,43.307362],[5.91642,43.307411],[5.91583,43.30769],[5.9156,43.307701],[5.91486,43.308201],[5.91455,43.308708],[5.91467,43.30904],[5.9146,43.309299],[5.91433,43.30954],[5.91371,43.309509],[5.91266,43.308899],[5.9118,43.308979],[5.91195,43.309582],[5.91179,43.309799],[5.91137,43.30999],[5.9112,43.310371],[5.9112,43.311138],[5.91158,43.311218],[5.91154,43.312038],[5.91169,43.312431],[5.91236,43.312389],[5.91254,43.312462],[5.91243,43.312931],[5.91261,43.313492],[5.91225,43.313782],[5.91177,43.313999],[5.91099,43.314011],[5.91079,43.31411],[5.91033,43.314072],[5.90981,43.314281],[5.90967,43.314281],[5.90967,43.314281],[5.909309,43.314631],[5.908772,43.314779],[5.908021,43.315131],[5.907689,43.315084],[5.907345,43.315193],[5.906777,43.31524],[5.90638,43.315576],[5.906133,43.315716],[5.905951,43.316028],[5.905747,43.316122],[5.905189,43.316185],[5.90477,43.316512],[5.904738,43.317043],[5.904921,43.317231],[5.904889,43.317457],[5.904974,43.317629],[5.904867,43.317933],[5.904502,43.318144],[5.903633,43.31912],[5.903397,43.319494],[5.902914,43.320009],[5.902936,43.320134],[5.903708,43.320353],[5.904213,43.32061],[5.905715,43.321649],[5.906948,43.322015],[5.90842,43.322609],[5.9089,43.32291],[5.90925,43.323219],[5.9098,43.323589],[5.91073,43.323952],[5.91138,43.32428],[5.91234,43.324619],[5.91303,43.324791],[5.91373,43.324799],[5.91411,43.324959],[5.91375,43.325119],[5.91355,43.32534],[5.91354,43.325748],[5.91299,43.325581],[5.91273,43.325588],[5.91116,43.325981],[5.90979,43.325779],[5.90889,43.325771],[5.9082,43.32568],[5.90882,43.326229],[5.90831,43.326431],[5.90811,43.326618],[5.90797,43.326988],[5.90744,43.32737],[5.90698,43.327549],[5.90639,43.32814],[5.90598,43.32827],[5.90533,43.328381],[5.90532,43.328571],[5.90639,43.329399],[5.90698,43.329739],[5.90731,43.330139],[5.90741,43.330799],[5.90707,43.331539],[5.90709,43.331692],[5.90744,43.332161],[5.90744,43.332161],[5.908086,43.332427],[5.908332,43.332591],[5.908847,43.332895],[5.909051,43.333059],[5.909545,43.333153],[5.909899,43.333566],[5.909888,43.333629],[5.910006,43.33373],[5.910092,43.334167],[5.910231,43.334448],[5.910349,43.334518],[5.910586,43.334534],[5.911176,43.334713],[5.911326,43.334955],[5.911294,43.335111],[5.911433,43.33526],[5.911594,43.335314],[5.911905,43.335353],[5.912248,43.335502],[5.912603,43.335915],[5.912624,43.336102],[5.912849,43.336251],[5.912881,43.336337],[5.913225,43.336469],[5.91345,43.336461],[5.914115,43.336602],[5.91437,43.336578],[5.91448,43.336639],[5.91509,43.336609],[5.91536,43.336658],[5.91563,43.336819],[5.91608,43.336849],[5.9164,43.336979],[5.9168,43.336979],[5.91727,43.336922],[5.917444,43.337028],[5.917403,43.337181],[5.91756,43.337372],[5.91823,43.337372],[5.9186,43.33746],[5.919107,43.337494],[5.91939,43.337872],[5.91967,43.338039],[5.91988,43.33807],[5.92031,43.338428],[5.9206,43.338348],[5.920717,43.338449],[5.920936,43.338664],[5.921377,43.338664],[5.921512,43.33864],[5.921709,43.338706],[5.922107,43.338794],[5.92242,43.338741],[5.925029,43.339739],[5.9259,43.340019],[5.92657,43.34],[5.92685,43.340271],[5.92754,43.340519],[5.92802,43.340618],[5.92836,43.341228],[5.93007,43.34203],[5.930609,43.342015],[5.93104,43.34211],[5.92953,43.343109],[5.92913,43.34391],[5.92906,43.344379],[5.9294,43.34462],[5.92968,43.34473],[5.93032,43.34557],[5.93083,43.345928],[5.93101,43.346272],[5.931552,43.346731],[5.93104,43.346695],[5.9307,43.346409],[5.93016,43.346451],[5.92971,43.346321],[5.9293,43.34631],[5.92894,43.346249],[5.92862,43.346291],[5.928254,43.346218],[5.92733,43.34613],[5.92662,43.346149],[5.92623,43.346081],[5.92583,43.34613],[5.92553,43.346352],[5.92546,43.346531],[5.9249,43.34684],[5.92489,43.347012],[5.9246,43.347118],[5.92438,43.347111],[5.9226,43.34737],[5.92257,43.347561],[5.9222,43.347691],[5.92176,43.34864],[5.92152,43.35004],[5.92169,43.350349],[5.92282,43.351521],[5.92355,43.351959],[5.92378,43.352329],[5.92377,43.35302],[5.92413,43.353729],[5.92445,43.354038],[5.92533,43.354641],[5.92427,43.356022],[5.92421,43.356602],[5.92497,43.358028],[5.92569,43.35841],[5.92625,43.359219],[5.92639,43.359241],[5.92694,43.359909],[5.92708,43.360291],[5.92648,43.360458],[5.92644,43.360722],[5.92627,43.360958],[5.92634,43.361839],[5.92688,43.362801],[5.92721,43.363232],[5.92792,43.363869],[5.92824,43.364571],[5.92795,43.36467],[5.92685,43.36478],[5.92595,43.364799],[5.92544,43.364948],[5.92594,43.36504],[5.9265,43.365501],[5.92793,43.36557],[5.92839,43.366211],[5.92885,43.36665],[5.92916,43.366798],[5.9295,43.367279],[5.92918,43.367661],[5.92914,43.367889],[5.92925,43.36805],[5.92925,43.368279],[5.9295,43.369419],[5.92909,43.369469],[5.92859,43.369709],[5.92804,43.369621],[5.92803,43.370071],[5.92854,43.370361],[5.92868,43.370651],[5.92901,43.370602],[5.92918,43.370708],[5.92906,43.371029],[5.929,43.37159],[5.92879,43.37178],[5.92902,43.372269],[5.92898,43.37241],[5.92855,43.372662],[5.92843,43.372799],[5.92815,43.372929],[5.92777,43.372921],[5.92746,43.373081],[5.92708,43.37307],[5.92649,43.373291],[5.9265,43.37347],[5.92673,43.373821],[5.92693,43.373932],[5.92693,43.374111],[5.92626,43.374641],[5.92456,43.37534],[5.92432,43.375542],[5.92371,43.375839],[5.92355,43.375999],[5.92309,43.376068],[5.92285,43.376659],[5.92256,43.376789],[5.92255,43.37698],[5.92279,43.377178],[5.92271,43.37767],[5.92274,43.377831],[5.92294,43.37796],[5.92333,43.37875],[5.9243,43.37904],[5.92439,43.379238],[5.92479,43.379459],[5.9253,43.379379],[5.92562,43.379238],[5.92578,43.379391],[5.92566,43.379871],[5.92599,43.380089],[5.92658,43.380119],[5.92674,43.38031],[5.92711,43.380379],[5.92755,43.38031],[5.92788,43.380421],[5.92825,43.380859],[5.92889,43.381062],[5.92905,43.381229],[5.93005,43.381779],[5.93001,43.381901],[5.93024,43.382111],[5.93034,43.382729],[5.93056,43.383091],[5.93039,43.38335],[5.93071,43.38348],[5.93087,43.383369],[5.93171,43.383369],[5.9318,43.383308],[5.93215,43.383381],[5.93261,43.383251],[5.93287,43.38327],[5.93319,43.383129],[5.93357,43.383141],[5.93385,43.38327],[5.93432,43.383282],[5.93448,43.383171],[5.9349,43.38324],[5.9351,43.383331],[5.93576,43.383362],[5.93576,43.383549],[5.93599,43.383839],[5.93624,43.383991],[5.93683,43.384769],[5.93703,43.384781],[5.93825,43.385181],[5.93894,43.385342],[5.93928,43.38554],[5.93965,43.38549],[5.9405,43.385479],[5.94101,43.385349],[5.94129,43.38509],[5.9413,43.384869],[5.94173,43.384941],[5.94186,43.385071],[5.9424,43.385021],[5.94248,43.38512],[5.94268,43.38504],[5.94279,43.38522],[5.94333,43.385368],[5.94372,43.3853],[5.94419,43.38541],[5.94452,43.385361],[5.94497,43.38546],[5.94523,43.38541],[5.94563,43.38549],[5.9464,43.385262],[5.94672,43.384979],[5.94714,43.384869],[5.94718,43.38435],[5.9474,43.384029],[5.94734,43.383881],[5.94755,43.383591],[5.94822,43.383221],[5.94895,43.383171],[5.94997,43.383701],[5.95033,43.38372],[5.95089,43.383499],[5.95082,43.383171],[5.95132,43.382839],[5.95174,43.382481],[5.952,43.38245],[5.95277,43.381969],[5.95382,43.38187],[5.95402,43.381989],[5.95428,43.381981],[5.956,43.382961],[5.95651,43.382999],[5.95677,43.383549],[5.95669,43.383808],[5.95707,43.383942],[5.95726,43.384449],[5.95765,43.384819],[5.957272,43.385],[5.958534,43.385464],[5.959104,43.385429],[5.959299,43.38534],[5.959665,43.385402],[5.960115,43.385576],[5.960308,43.385782],[5.96081,43.385899],[5.961543,43.386211],[5.963393,43.386932],[5.963557,43.386756],[5.963956,43.386081],[5.964197,43.385894],[5.96453,43.385729],[5.965104,43.385544],[5.965834,43.385181],[5.966348,43.385028],[5.966768,43.38508],[5.966939,43.384971],[5.967282,43.385042],[5.96747,43.385136],[5.967778,43.385222],[5.967958,43.385846],[5.96858,43.386383],[5.968773,43.386806],[5.969117,43.386986],[5.969803,43.386742],[5.970109,43.386531],[5.970382,43.386219],[5.970629,43.386261],[5.97079,43.386084],[5.97167,43.385746],[5.972292,43.386097],[5.973376,43.38657],[5.974385,43.386681],[5.975307,43.386898],[5.976423,43.387695],[5.976509,43.387959],[5.976756,43.388271],[5.976981,43.388863],[5.974449,43.394047],[5.973591,43.395336],[5.973687,43.395523],[5.973666,43.39642],[5.973784,43.396832],[5.973719,43.397144],[5.973859,43.397503],[5.973837,43.398094],[5.973666,43.398556],[5.973322,43.398773],[5.973086,43.399311],[5.972893,43.400051],[5.973301,43.401127],[5.973301,43.401604],[5.973848,43.402912],[5.973741,43.403355],[5.97373,43.403839],[5.973301,43.404526],[5.97284,43.404758],[5.972024,43.405727],[5.971767,43.407917],[5.972089,43.409428],[5.972657,43.410206],[5.97299,43.411003],[5.973301,43.411274],[5.97358,43.411953],[5.973355,43.412319],[5.973494,43.412811],[5.974331,43.413109],[5.97446,43.413395],[5.974599,43.414494],[5.974599,43.41494],[5.974803,43.415951],[5.975329,43.41663],[5.975801,43.417355],[5.975811,43.417698],[5.976294,43.418903],[5.975415,43.419537],[5.975511,43.419643],[5.976412,43.419708],[5.976316,43.420223],[5.97682,43.421383],[5.977142,43.421913],[5.977271,43.421974],[5.977228,43.422363],[5.977507,43.422752],[5.977635,43.422878],[5.977635,43.423347],[5.977228,43.423557],[5.976723,43.423683],[5.976241,43.423954],[5.975726,43.424042],[5.975361,43.424236],[5.975136,43.424545],[5.974653,43.424686],[5.973419,43.424595],[5.96931,43.423885],[5.969138,43.424561],[5.970458,43.424694],[5.970629,43.425613],[5.970576,43.425823],[5.970726,43.426212],[5.971069,43.426399],[5.970533,43.427242],[5.970458,43.427547],[5.969771,43.428303],[5.968881,43.428684],[5.96814,43.428894],[5.967658,43.429508],[5.966821,43.429813],[5.966241,43.430634],[5.96563,43.431862],[5.96608,43.432339],[5.966113,43.432831],[5.966703,43.43317],[5.967239,43.434574],[5.967958,43.435081],[5.969481,43.436562],[5.969353,43.437084],[5.969546,43.43829],[5.969718,43.438587],[5.969728,43.438984],[5.969653,43.439701],[5.969471,43.439739],[5.96902,43.440113],[5.967078,43.440411],[5.966692,43.440659],[5.966392,43.441063],[5.966038,43.441338],[5.96593,43.441593],[5.96549,43.441921],[5.964632,43.443073],[5.96431,43.443573],[5.964235,43.443909],[5.96387,43.444637],[5.963527,43.445175],[5.963548,43.445637],[5.963173,43.446796],[5.96283,43.447334],[5.962701,43.448051],[5.962508,43.448494],[5.962561,43.448994],[5.963109,43.449631],[5.963624,43.450062],[5.963387,43.450226],[5.962604,43.450527],[5.9621,43.450871],[5.961928,43.451283],[5.961499,43.451088],[5.961038,43.451454],[5.960405,43.451679],[5.958753,43.451775],[5.957562,43.452061],[5.957487,43.452492],[5.957948,43.453106],[5.958077,43.453503],[5.958066,43.45425],[5.957733,43.454453],[5.957476,43.454872],[5.957454,43.455723],[5.956972,43.456043],[5.956843,43.456432],[5.956848,43.456455],[5.956446,43.456825],[5.956188,43.457771],[5.955598,43.458939],[5.955631,43.459312],[5.95547,43.459583],[5.955126,43.459805],[5.95504,43.460068],[5.955105,43.460381],[5.955545,43.460785],[5.956274,43.462364],[5.956349,43.462811],[5.956961,43.463753],[5.957294,43.463963],[5.957122,43.464211],[5.957605,43.464615],[5.957637,43.464989],[5.957959,43.465427],[5.957776,43.465878],[5.957583,43.466095],[5.957755,43.466305],[5.958667,43.466244],[5.959042,43.466347],[5.959128,43.466595],[5.958967,43.467335],[5.958463,43.467823],[5.957969,43.46822],[5.957873,43.468983],[5.95798,43.469444],[5.957465,43.470154],[5.957497,43.470348],[5.956864,43.470917],[5.955845,43.471329],[5.953753,43.472099],[5.953377,43.47237],[5.953034,43.472347],[5.952594,43.472752],[5.95179,43.473743],[5.951296,43.474155],[5.951189,43.474342],[5.950792,43.474567],[5.950416,43.475243],[5.949794,43.475239],[5.949612,43.475494],[5.94959,43.476139],[5.949869,43.476894],[5.950191,43.477283],[5.950341,43.478165],[5.95062,43.478569],[5.950749,43.479092],[5.950727,43.479534],[5.95121,43.480141],[5.95121,43.480625],[5.951049,43.481113],[5.950835,43.481434],[5.950963,43.481934],[5.950545,43.482906],[5.950717,43.483295],[5.95047,43.483837],[5.950706,43.484928],[5.950652,43.485847],[5.950534,43.487372],[5.950191,43.489418],[5.950009,43.490135],[5.949451,43.490761],[5.949504,43.49157],[5.949289,43.492222],[5.949494,43.492688],[5.950437,43.49321],[5.952466,43.493942],[5.95282,43.494125],[5.952964,43.494271],[5.952769,43.494321],[5.952487,43.494106],[5.952036,43.494053],[5.951318,43.494293],[5.950706,43.494362],[5.949397,43.494963],[5.948839,43.495026],[5.948281,43.495056],[5.94797,43.49498],[5.947723,43.494591],[5.947176,43.494915],[5.945824,43.495485],[5.945899,43.495574],[5.945052,43.495663],[5.944526,43.495953],[5.94429,43.496239],[5.943936,43.497025],[5.943432,43.497047],[5.942852,43.497181],[5.942316,43.497482],[5.942187,43.497631],[5.941973,43.497757],[5.941865,43.498146],[5.941898,43.498356],[5.941705,43.498775],[5.94164,43.499069],[5.941308,43.499546],[5.941072,43.499657],[5.940911,43.500076],[5.9409,43.500362],[5.940696,43.501328],[5.940578,43.501522],[5.940503,43.502224],[5.939956,43.503033],[5.938872,43.503624],[5.938475,43.503723],[5.938121,43.504066],[5.937681,43.504261],[5.937413,43.504665],[5.937381,43.505234],[5.937477,43.505451],[5.937188,43.505856],[5.937198,43.506527],[5.936973,43.506721],[5.936952,43.507038],[5.937145,43.507381],[5.938593,43.508331],[5.938872,43.508659],[5.939366,43.508961],[5.940031,43.509197],[5.941308,43.509941],[5.941533,43.510216],[5.942048,43.511593],[5.942498,43.511982],[5.942938,43.512245],[5.942992,43.512745],[5.94282,43.513203],[5.942895,43.513474],[5.942853,43.513858],[5.942633,43.513959],[5.942807,43.514283],[5.943003,43.514948],[5.942563,43.515042],[5.942263,43.514951],[5.941833,43.514971],[5.941629,43.515087],[5.941318,43.515755],[5.941415,43.51612],[5.941415,43.517215],[5.940546,43.518471],[5.940706,43.519099],[5.94076,43.519699],[5.941114,43.520321],[5.93972,43.524143],[5.941865,43.525993],[5.944612,43.527237],[5.942134,43.527657],[5.938615,43.528103],[5.937166,43.529877],[5.933937,43.531315],[5.931748,43.532185],[5.93118,43.532276],[5.930643,43.532475],[5.929903,43.532558],[5.92942,43.53273],[5.929044,43.533218],[5.928369,43.533241],[5.927746,43.53336],[5.927006,43.53384],[5.926609,43.53392],[5.926169,43.53455],[5.925483,43.534698],[5.925622,43.535156],[5.925407,43.535374],[5.924592,43.535606],[5.92441,43.536175],[5.923465,43.536633],[5.923047,43.536968],[5.922629,43.537037],[5.921749,43.537792],[5.921631,43.538383],[5.92118,43.538834],[5.92059,43.538689],[5.919904,43.539036],[5.919313,43.539154],[5.918798,43.539417],[5.918047,43.539467],[5.917286,43.539108],[5.917146,43.53875],[5.916631,43.538647],[5.916427,43.538548],[5.916041,43.538593],[5.915698,43.539124],[5.915269,43.539276],[5.914646,43.539402],[5.913541,43.540733],[5.912951,43.541744],[5.911857,43.542248],[5.910977,43.543003],[5.910441,43.54319],[5.90984,43.543556],[5.909024,43.543858],[5.908735,43.544022],[5.908467,43.544132],[5.908113,43.544853],[5.907844,43.545734],[5.90734,43.546558],[5.906922,43.547676],[5.907378,43.547978],[5.908091,43.547999],[5.908161,43.548472],[5.908509,43.549115],[5.908917,43.549606],[5.909314,43.549965],[5.909572,43.550484],[5.909604,43.551502],[5.909775,43.551682],[5.909936,43.552078],[5.910462,43.552444],[5.910612,43.552601],[5.910891,43.552776],[5.911438,43.553417],[5.911975,43.553726],[5.912372,43.554199],[5.911202,43.554993],[5.910763,43.555202],[5.910301,43.555592],[5.910065,43.556076],[5.910162,43.55658],[5.90999,43.556805],[5.910001,43.557335],[5.908971,43.558399],[5.908574,43.558647],[5.908134,43.559086],[5.907984,43.559296],[5.906535,43.560669],[5.905784,43.560623],[5.90528,43.560772],[5.905066,43.560802],[5.904336,43.56126],[5.904357,43.562031],[5.9041,43.562382],[5.903885,43.563072],[5.90293,43.563679],[5.902147,43.564121],[5.901922,43.564182],[5.901718,43.564301],[5.90145,43.56424],[5.901268,43.564362],[5.901461,43.564682],[5.901117,43.565777],[5.900162,43.566143],[5.899637,43.567505],[5.898972,43.567955],[5.898896,43.568279],[5.89851,43.568714],[5.897909,43.569252],[5.897952,43.569565],[5.897845,43.569782],[5.897888,43.57024],[5.897824,43.570946],[5.898221,43.571678],[5.898188,43.571941],[5.898339,43.572166],[5.898092,43.572472],[5.898263,43.572624],[5.898339,43.572899],[5.897802,43.573544],[5.897105,43.574062],[5.896525,43.574383],[5.896386,43.574795],[5.896515,43.575298],[5.896364,43.575726],[5.895903,43.576412],[5.895764,43.576939],[5.896053,43.577065],[5.895903,43.577297],[5.895538,43.577793],[5.89483,43.57914],[5.894712,43.580269],[5.894455,43.58066],[5.894595,43.581394],[5.893683,43.581789],[5.892674,43.582211],[5.89233,43.582466],[5.892169,43.582787],[5.891794,43.583157],[5.89041,43.584229],[5.889305,43.58577],[5.889165,43.586063],[5.8885,43.586758],[5.887105,43.587479],[5.886108,43.587727],[5.886183,43.587982],[5.885196,43.58831],[5.884627,43.588419],[5.884273,43.588504],[5.884123,43.588574],[5.88437,43.58866],[5.884525,43.588982],[5.884461,43.589037],[5.884461,43.589037],[5.884313,43.589059],[5.883799,43.588661],[5.883588,43.588627],[5.883894,43.589149],[5.88378,43.589173],[5.883672,43.589083],[5.883613,43.589192],[5.883409,43.589009],[5.883163,43.588652],[5.882964,43.588578],[5.88282,43.588058],[5.88274,43.587971],[5.88249,43.587978],[5.88234,43.588131],[5.88227,43.588371],[5.88139,43.588989],[5.88126,43.589699],[5.88072,43.590389],[5.88081,43.590519],[5.88118,43.590698],[5.88167,43.591049],[5.88212,43.59174],[5.8821,43.59193],[5.882343,43.592078],[5.882401,43.592369],[5.88256,43.592461],[5.88272,43.592682],[5.88353,43.593239],[5.8837,43.593529],[5.8838,43.59391],[5.88383,43.594349],[5.88405,43.594841],[5.88477,43.595921],[5.88494,43.596249],[5.88508,43.596859],[5.88501,43.597309],[5.88486,43.597542],[5.88456,43.597691],[5.88464,43.59782],[5.88496,43.597809],[5.88515,43.597931],[5.885,43.598469],[5.88494,43.598942],[5.88568,43.599701],[5.88562,43.600201],[5.8857,43.60046],[5.88527,43.600449],[5.88495,43.60062],[5.88391,43.600651],[5.88394,43.6007],[5.88451,43.600761],[5.88498,43.60099],[5.88529,43.6012],[5.88595,43.601479],[5.88668,43.601719],[5.8875,43.601768],[5.887878,43.60177],[5.887863,43.601919],[5.887665,43.601975],[5.88714,43.602051],[5.88705,43.602188],[5.88735,43.603409],[5.88734,43.60355],[5.88719,43.60371],[5.88449,43.604389],[5.88434,43.604561],[5.88442,43.604649],[5.88441,43.604832],[5.88472,43.604889],[5.88476,43.604961],[5.88469,43.605141],[5.88478,43.605541],[5.88493,43.605659],[5.88515,43.605701],[5.88509,43.60585],[5.8852,43.60601],[5.88485,43.606129],[5.88435,43.606071],[5.88395,43.606159],[5.88361,43.606201],[5.88338,43.60614],[5.88276,43.606358],[5.882417,43.606342],[5.882192,43.606476],[5.881784,43.606407],[5.881473,43.606445],[5.881001,43.606422],[5.880818,43.606514],[5.880314,43.606445],[5.8801,43.606335],[5.879349,43.606483],[5.879155,43.606384],[5.878855,43.60685],[5.878072,43.607288],[5.877846,43.607468],[5.877535,43.607681],[5.878265,43.608006],[5.877836,43.608311],[5.877643,43.608505],[5.877256,43.608688],[5.877171,43.60891],[5.877203,43.609203],[5.877138,43.609295],[5.876548,43.609375],[5.876237,43.610359],[5.875905,43.610619],[5.875754,43.610882],[5.875615,43.61095],[5.875411,43.611423],[5.875132,43.611805],[5.874832,43.611961],[5.874649,43.612343],[5.874907,43.612465],[5.874821,43.612885],[5.874896,43.613228],[5.874778,43.61404],[5.873652,43.61454],[5.873716,43.615192],[5.873287,43.615387],[5.87231,43.616684],[5.872364,43.616932],[5.873008,43.617481],[5.873587,43.618603],[5.874392,43.618618],[5.87451,43.619167],[5.874542,43.619867],[5.874859,43.620076],[5.875175,43.620425],[5.876004,43.620759],[5.877026,43.621249],[5.87749,43.621056],[5.877975,43.621204],[5.878233,43.621474],[5.878399,43.621571],[5.878501,43.621761],[5.878093,43.622959],[5.878351,43.623215],[5.878716,43.623302],[5.87922,43.623222],[5.879756,43.623035],[5.88055,43.6231],[5.880775,43.623081],[5.881205,43.623192],[5.881312,43.623402],[5.881752,43.62355],[5.881473,43.623604],[5.88129,43.623913],[5.880883,43.624115],[5.880926,43.624348],[5.881194,43.62431],[5.881526,43.62434],[5.88143,43.624916],[5.881569,43.625298],[5.881559,43.625584],[5.881752,43.625668],[5.881741,43.626312],[5.882223,43.626492],[5.882557,43.626718],[5.882739,43.626741],[5.883061,43.626991],[5.883404,43.627006],[5.883769,43.627361],[5.884016,43.627571],[5.885646,43.628899],[5.885689,43.629864],[5.885389,43.63015],[5.885335,43.630276],[5.885432,43.63044],[5.885732,43.630615],[5.886118,43.6306],[5.886333,43.630383],[5.88673,43.630173],[5.887277,43.630016],[5.887771,43.629993],[5.888189,43.630066],[5.888382,43.630203],[5.888865,43.630157],[5.889949,43.630539],[5.890657,43.630577],[5.891043,43.630451],[5.891322,43.630478],[5.891837,43.63036],[5.892502,43.630165],[5.89321,43.630112],[5.893875,43.630066],[5.894766,43.629848],[5.895871,43.630291],[5.896504,43.630688],[5.897148,43.630833],[5.897459,43.631004],[5.898435,43.631184],[5.899444,43.631191],[5.899905,43.63105],[5.901117,43.631065],[5.901375,43.630981],[5.901664,43.630825],[5.902319,43.63063],[5.902587,43.630718],[5.902587,43.630718],[5.902903,43.630628],[5.90315,43.630621],[5.903375,43.63076],[5.903923,43.631389],[5.904556,43.632709],[5.905328,43.634309],[5.90535,43.63535],[5.905253,43.635528],[5.90506,43.635668],[5.90492,43.636041],[5.904405,43.636491],[5.903783,43.636895],[5.903794,43.63764],[5.90389,43.638075],[5.904202,43.638005],[5.904942,43.638098],[5.905532,43.6383],[5.905854,43.638494],[5.905392,43.63844],[5.905135,43.638471],[5.905886,43.640443],[5.90654,43.641732],[5.906551,43.642128],[5.90638,43.642407],[5.906025,43.642858],[5.905907,43.643137],[5.905736,43.643401],[5.905789,43.643611],[5.906036,43.643852],[5.906444,43.644116],[5.906776,43.643805],[5.907173,43.643269],[5.907517,43.642726],[5.909062,43.641817],[5.909695,43.64153],[5.910499,43.641258],[5.91154,43.640498],[5.912624,43.640032],[5.913428,43.640218],[5.913718,43.640171],[5.914544,43.639806],[5.915145,43.639449],[5.915413,43.639216],[5.915832,43.639115],[5.916256,43.638947],[5.916535,43.638458],[5.916835,43.638287],[5.916502,43.637937],[5.91779,43.637548],[5.918407,43.637235],[5.918779,43.637452],[5.919281,43.638134],[5.919496,43.63839],[5.919979,43.638344],[5.920419,43.638172],[5.92132,43.638294],[5.921588,43.638397],[5.921942,43.638599],[5.922511,43.638988],[5.922983,43.639026],[5.92412,43.639296],[5.924871,43.639439],[5.925086,43.639427],[5.925439,43.639089],[5.926427,43.638683],[5.927392,43.638203],[5.927811,43.638165],[5.928755,43.638149],[5.929785,43.637836],[5.929935,43.637848],[5.93016,43.637776],[5.930911,43.637924],[5.931609,43.637845],[5.932113,43.637852],[5.932413,43.638744],[5.933089,43.63866],[5.934135,43.63922],[5.935245,43.639525],[5.935549,43.639799],[5.935905,43.639918],[5.936029,43.640221],[5.936029,43.64068],[5.93619,43.641053],[5.936667,43.641415],[5.936994,43.641698],[5.937032,43.642019],[5.936834,43.642323],[5.936609,43.642533],[5.937246,43.642966],[5.937724,43.643474],[5.938046,43.643929],[5.93826,43.644211],[5.938647,43.64457],[5.938984,43.644918],[5.939408,43.645631],[5.939773,43.646107],[5.939988,43.646729],[5.939998,43.64738],[5.94002,43.647682],[5.940084,43.64793],[5.939956,43.648373],[5.939902,43.648693],[5.939548,43.649521],[5.939623,43.649723],[5.939988,43.650352],[5.939323,43.651108],[5.939816,43.651321],[5.940245,43.651791],[5.94075,43.651875],[5.940975,43.6521],[5.940921,43.652271],[5.941007,43.652534],[5.941254,43.653064],[5.941694,43.653838],[5.941973,43.654233],[5.942423,43.654555],[5.942713,43.654731],[5.942241,43.655197],[5.941651,43.656113],[5.941704,43.656331],[5.94238,43.657337],[5.942799,43.658627],[5.943239,43.659622],[5.943121,43.660839],[5.943121,43.661819],[5.943185,43.662483],[5.943024,43.663261],[5.94326,43.66404],[5.943239,43.664387],[5.943089,43.664536],[5.942799,43.665218],[5.943067,43.665489],[5.943099,43.666412],[5.94281,43.666817],[5.942874,43.668602],[5.942659,43.669098],[5.942498,43.669937],[5.942552,43.671882],[5.942434,43.673008],[5.942134,43.673569],[5.942059,43.674073],[5.941952,43.674508],[5.941608,43.674957],[5.941275,43.675339],[5.9409,43.675724],[5.940583,43.675999],[5.940288,43.676422],[5.94017,43.676842],[5.939269,43.677681],[5.938625,43.678055],[5.937703,43.678767],[5.93678,43.679234],[5.936168,43.67963],[5.935428,43.680242],[5.934902,43.68028],[5.934505,43.680939],[5.934022,43.68112],[5.933668,43.682063],[5.932091,43.682184],[5.932059,43.68243],[5.931847,43.683014],[5.931566,43.683609],[5.929635,43.684052],[5.929871,43.685074],[5.930096,43.68565],[5.930192,43.686275],[5.930053,43.686703],[5.929978,43.686882],[5.929753,43.687077],[5.928133,43.687828],[5.927607,43.688202],[5.924335,43.689945],[5.925515,43.690357],[5.925997,43.690388],[5.927124,43.69062],[5.928133,43.691235],[5.928808,43.691181],[5.929538,43.691196],[5.929881,43.691105],[5.9303,43.691204],[5.930686,43.691181],[5.930707,43.691544],[5.930858,43.69173],[5.93104,43.691833],[5.931051,43.691948],[5.93074,43.692226],[5.930879,43.692562],[5.931019,43.693165],[5.931287,43.693432],[5.931748,43.693539],[5.932177,43.693741],[5.932199,43.693966],[5.932446,43.694115],[5.932671,43.694344],[5.933379,43.694416],[5.933669,43.694519],[5.933889,43.694386],[5.934548,43.694202],[5.934934,43.693954],[5.935165,43.693285],[5.935332,43.693004],[5.936158,43.692458],[5.936437,43.692242],[5.936372,43.692027],[5.936673,43.691753],[5.937263,43.691554],[5.937627,43.691326],[5.938046,43.691261],[5.938159,43.691329],[5.937893,43.691673],[5.9381,43.691878],[5.938014,43.692413],[5.93869,43.692841],[5.939097,43.692818],[5.939344,43.692886],[5.939988,43.692711],[5.940696,43.692631],[5.941608,43.6926],[5.942541,43.692547],[5.942885,43.6926],[5.943024,43.692516],[5.943217,43.692715],[5.944118,43.692932],[5.944784,43.692802],[5.944988,43.692924],[5.945728,43.692966],[5.946039,43.693298],[5.94605,43.693562],[5.946618,43.694283],[5.94709,43.694611],[5.948035,43.695129],[5.948861,43.696014],[5.950502,43.696644],[5.951006,43.69693],[5.951951,43.697269],[5.952723,43.697262],[5.954558,43.698509],[5.954461,43.698708],[5.954493,43.698814],[5.954236,43.698982],[5.954273,43.699093],[5.953892,43.69931],[5.953496,43.699444],[5.953624,43.699738],[5.954118,43.700863],[5.954354,43.701511],[5.954397,43.702148],[5.954525,43.702724],[5.954429,43.703514],[5.955781,43.702885],[5.958141,43.701878],[5.958978,43.701534],[5.961971,43.700195],[5.962443,43.699883],[5.963666,43.700226],[5.964525,43.700798],[5.965533,43.700909],[5.965791,43.701031],[5.967057,43.700893],[5.967743,43.700752],[5.968451,43.700489],[5.969568,43.699543],[5.971155,43.698628],[5.972657,43.697853],[5.973623,43.697556],[5.973043,43.696564],[5.97403,43.696472],[5.974889,43.696239],[5.975533,43.696007],[5.976326,43.695759],[5.978601,43.695274],[5.97918,43.695122],[5.982528,43.694717],[5.98315,43.694813],[5.984824,43.694717],[5.985339,43.694843],[5.986927,43.695213],[5.98815,43.695694],[5.988364,43.695972],[5.988858,43.696472],[5.989287,43.696609],[5.989544,43.696873],[5.990081,43.696903],[5.990767,43.697388],[5.991669,43.697636],[5.991948,43.698036],[5.993085,43.698101],[5.993686,43.698273],[5.994287,43.698086],[5.994565,43.697788],[5.995638,43.69762],[5.997076,43.697899],[5.997655,43.69762],[5.998707,43.697788],[5.998921,43.69762],[5.999426,43.697613],[5.999946,43.697529],[6.000788,43.697247],[6.001834,43.697163],[6.002408,43.696976],[6.003374,43.696804],[6.00405,43.69669],[6.004511,43.696487],[6.004962,43.6964],[6.005348,43.696308],[6.006399,43.695919],[6.006936,43.695782],[6.00788,43.695789],[6.008213,43.695694],[6.008449,43.695595],[6.009479,43.695332],[6.00965,43.695061],[6.010358,43.694618],[6.010283,43.694363],[6.010659,43.694138],[6.011088,43.693787],[6.011968,43.693012],[6.012204,43.692745],[6.01229,43.693184],[6.011946,43.69368],[6.011388,43.695198],[6.011581,43.695774],[6.01162,43.69574],[6.01244,43.695938],[6.01265,43.696091],[6.01294,43.69614],[6.01322,43.696281],[6.01323,43.696442],[6.01318,43.69656],[6.01347,43.6973],[6.01379,43.697819],[6.01371,43.6982],[6.01331,43.698582],[6.0129,43.698509],[6.01269,43.698181],[6.012638,43.697533],[6.01163,43.697124],[6.011136,43.697121],[6.010498,43.697376],[6.010433,43.697735],[6.010568,43.697933],[6.010932,43.698017],[6.011061,43.698242],[6.010879,43.698891],[6.010852,43.69931],[6.010943,43.699497],[6.011882,43.700283],[6.011973,43.700508],[6.011973,43.700508],[6.012059,43.700873],[6.011855,43.701083],[6.011458,43.70116],[6.010814,43.701021],[6.010288,43.700625],[6.01002,43.700292],[6.009602,43.700222],[6.009226,43.700323],[6.009076,43.700485],[6.009226,43.700889],[6.009312,43.701346],[6.008936,43.701595],[6.00855,43.70161],[6.008228,43.701509],[6.007703,43.700912],[6.007284,43.700904],[6.006619,43.70123],[6.006297,43.701517],[6.00575,43.701758],[6.005031,43.702223],[6.004978,43.702572],[6.005149,43.702952],[6.005729,43.703355],[6.005653,43.703735],[6.005342,43.70403],[6.005396,43.704263],[6.005718,43.704488],[6.006158,43.704542],[6.006866,43.704333],[6.007284,43.703976],[6.007864,43.703611],[6.009001,43.70327],[6.009237,43.703262],[6.009934,43.703115],[6.010514,43.703192],[6.011426,43.703092],[6.012295,43.702843],[6.012938,43.702696],[6.013496,43.702471],[6.014043,43.702107],[6.014494,43.701758],[6.015148,43.70154],[6.015728,43.701416],[6.016554,43.701424],[6.01738,43.701486],[6.018399,43.701556],[6.018904,43.701494],[6.019343,43.701346],[6.020191,43.701261],[6.021264,43.701455],[6.02238,43.701765],[6.022948,43.701967],[6.023388,43.702006],[6.024118,43.701773],[6.024697,43.701455],[6.024922,43.700928],[6.024955,43.699904],[6.02489,43.699555],[6.025137,43.698771],[6.025309,43.698383],[6.025663,43.697934],[6.026854,43.69701],[6.027959,43.69632],[6.028935,43.695862],[6.029461,43.695513],[6.0296,43.695149],[6.0296,43.694916],[6.029986,43.69452],[6.030577,43.694133],[6.031263,43.693908],[6.031424,43.693791],[6.032111,43.693667],[6.032239,43.693574],[6.033538,43.693628],[6.03386,43.69376],[6.034053,43.693683],[6.034181,43.693659],[6.034611,43.693869],[6.034761,43.693838],[6.035061,43.693458],[6.03504,43.693791],[6.035351,43.693473],[6.036037,43.693217],[6.036831,43.69307],[6.037368,43.692759],[6.038768,43.693111],[6.039187,43.693298],[6.039734,43.693794],[6.039873,43.693845],[6.040184,43.693741],[6.04041,43.693653],[6.041783,43.693516],[6.042362,43.693485],[6.042652,43.693329],[6.043113,43.693321],[6.044294,43.692902],[6.044862,43.69257],[6.045034,43.692226],[6.046021,43.691391],[6.046633,43.691528],[6.047266,43.691639],[6.047673,43.691521],[6.047931,43.691319],[6.048768,43.69088],[6.049293,43.690853],[6.052952,43.690491],[6.054926,43.690102],[6.055977,43.689705],[6.056138,43.689598],[6.057286,43.689224],[6.057565,43.688847],[6.057554,43.689274],[6.057565,43.689575],[6.05771,43.689568],[6.057973,43.689281],[6.058187,43.688969],[6.059089,43.688969],[6.059314,43.689102],[6.05999,43.689056],[6.060398,43.689125],[6.06087,43.689987],[6.061867,43.690708],[6.063123,43.691242],[6.063187,43.69136],[6.063573,43.691498],[6.064023,43.692281],[6.064442,43.692904],[6.064936,43.692987],[6.065397,43.692982],[6.06559,43.693244],[6.065612,43.693172],[6.065633,43.693058],[6.065837,43.69323],[6.066535,43.693447],[6.06691,43.693672],[6.066867,43.693989],[6.067039,43.694191],[6.06779,43.694393],[6.06912,43.694088],[6.06985,43.693779],[6.071041,43.694115],[6.071856,43.694416],[6.072114,43.694401],[6.072328,43.6945],[6.072607,43.694725],[6.073208,43.694866],[6.07354,43.695511],[6.073723,43.696144],[6.073701,43.696465],[6.073852,43.696945],[6.074624,43.696922],[6.074764,43.697014],[6.075182,43.696743],[6.075579,43.696751],[6.075858,43.696812],[6.076126,43.69672],[6.076201,43.69717],[6.076716,43.698132],[6.076684,43.698318],[6.07736,43.698936],[6.078165,43.699467],[6.078165,43.699589],[6.078454,43.699905],[6.078647,43.700001],[6.078926,43.700348],[6.079527,43.700829],[6.079892,43.701302],[6.080171,43.701504],[6.080428,43.701832],[6.081018,43.701969],[6.08104,43.702148],[6.081287,43.702297],[6.081694,43.702282],[6.082006,43.702335],[6.082617,43.702297],[6.082971,43.702194],[6.083164,43.702255],[6.085825,43.702244],[6.086104,43.702412],[6.086909,43.702435],[6.087509,43.702358],[6.087821,43.702419],[6.088089,43.702621],[6.08826,43.702644],[6.089419,43.702885],[6.089655,43.703133],[6.090696,43.70335],[6.090803,43.703251],[6.092016,43.703281],[6.092155,43.703568],[6.092552,43.704098],[6.092734,43.704422],[6.093432,43.704964],[6.094751,43.705414],[6.095771,43.70536],[6.096092,43.705307],[6.096747,43.705276],[6.097401,43.70509],[6.097691,43.705105],[6.098174,43.705505],[6.099215,43.70575],[6.099622,43.70578],[6.099987,43.705872],[6.101307,43.705879],[6.102519,43.705585],[6.103839,43.705578],[6.104879,43.705772],[6.105759,43.705742],[6.106317,43.705956],[6.107283,43.706615],[6.107347,43.706909],[6.107787,43.707104],[6.108055,43.707352],[6.108527,43.707493],[6.108774,43.707897],[6.108817,43.708092],[6.108817,43.708317],[6.108989,43.708801],[6.108795,43.709274],[6.108871,43.709496],[6.108838,43.709736],[6.108999,43.709888],[6.10975,43.709881],[6.11034,43.709671],[6.110684,43.709415],[6.111521,43.709206],[6.111842,43.709564],[6.112636,43.709881],[6.113495,43.71072],[6.11402,43.710991],[6.114879,43.711594],[6.115533,43.711773],[6.116831,43.711891],[6.117325,43.711548],[6.118087,43.710594],[6.118591,43.71043],[6.118966,43.710285],[6.119878,43.71027],[6.12034,43.710556],[6.120436,43.710712],[6.121144,43.71064],[6.121627,43.710842],[6.121799,43.710857],[6.122067,43.711067],[6.122282,43.711308],[6.122593,43.711338],[6.122743,43.711441],[6.122872,43.711479],[6.12299,43.711666],[6.123376,43.711704],[6.123945,43.711796],[6.124803,43.711643],[6.126144,43.711285],[6.12667,43.710991],[6.127152,43.711006],[6.127442,43.710873],[6.127796,43.710896],[6.128,43.710873],[6.128225,43.710999],[6.128998,43.71064],[6.129363,43.710667],[6.129427,43.711014],[6.130264,43.711574],[6.130671,43.711743],[6.130757,43.712504],[6.131272,43.712921],[6.13138,43.713217],[6.131992,43.71368],[6.132452,43.713933],[6.132946,43.71441],[6.133643,43.714783],[6.134201,43.715031],[6.133976,43.715302],[6.134115,43.715565],[6.134437,43.715729],[6.134459,43.715813],[6.135092,43.715969],[6.134979,43.716099],[6.134652,43.715996],[6.134325,43.716019],[6.134368,43.716213],[6.134614,43.716225],[6.134673,43.716286],[6.134625,43.716339],[6.134496,43.716362],[6.134507,43.716728],[6.134652,43.716747],[6.134716,43.7169],[6.135188,43.717059],[6.136643,43.717674],[6.137484,43.717982],[6.137801,43.717983],[6.138434,43.717594],[6.138611,43.717564],[6.138842,43.717606],[6.139137,43.717587],[6.13941,43.717651],[6.139823,43.71764],[6.139882,43.71756],[6.140874,43.717212],[6.141197,43.717402],[6.14146,43.717406],[6.141733,43.717503],[6.141808,43.716961],[6.142109,43.716703],[6.142832,43.716427],[6.142966,43.715884],[6.143122,43.715729],[6.143954,43.715583],[6.145059,43.715263],[6.146046,43.715069],[6.147012,43.714798],[6.147763,43.714512],[6.14831,43.714191],[6.148857,43.714031],[6.149232,43.714016],[6.150713,43.713673],[6.151239,43.713371],[6.151979,43.713371],[6.152837,43.713055],[6.154822,43.711983],[6.155294,43.711899],[6.156067,43.711502],[6.157182,43.711178],[6.157397,43.711143],[6.158288,43.71093],[6.159382,43.710564],[6.160133,43.710144],[6.160616,43.709942],[6.162643,43.708797],[6.163523,43.708275],[6.164757,43.707848],[6.164993,43.707176],[6.165433,43.70657],[6.165615,43.706329],[6.165819,43.706173],[6.166152,43.705578],[6.166377,43.704762],[6.167375,43.703934],[6.168222,43.702995],[6.169317,43.702019],[6.170046,43.700916],[6.170905,43.699837],[6.17202,43.698635],[6.172932,43.697975],[6.173372,43.69759],[6.174853,43.697472],[6.174746,43.697781],[6.174102,43.698441],[6.173512,43.698898],[6.173211,43.699196],[6.172632,43.699512],[6.172568,43.70015],[6.173136,43.700413],[6.173136,43.700603],[6.172707,43.700886],[6.172471,43.701233],[6.172106,43.701496],[6.172149,43.701698],[6.17202,43.702],[6.171752,43.70232],[6.171473,43.70248],[6.171463,43.702637],[6.171141,43.703018],[6.170315,43.703243],[6.16995,43.703461],[6.16951,43.703934],[6.169209,43.704304],[6.169252,43.704536],[6.169091,43.704857],[6.169081,43.705391],[6.169145,43.705585],[6.169102,43.7057],[6.168566,43.705811],[6.168362,43.70578],[6.168265,43.705841],[6.168201,43.706329],[6.168158,43.706478],[6.167868,43.706673],[6.167997,43.707035],[6.167858,43.707275],[6.168072,43.707771],[6.168351,43.707779],[6.168308,43.708115],[6.167965,43.708393],[6.168094,43.708611],[6.168598,43.708717],[6.168684,43.708851],[6.16848,43.70916],[6.168362,43.709751],[6.168877,43.709736],[6.168984,43.70982],[6.168995,43.709999],[6.169285,43.710159],[6.169553,43.710159],[6.169746,43.709991],[6.170551,43.710152],[6.171227,43.710655],[6.171656,43.710835],[6.171956,43.711082],[6.172128,43.711369],[6.172557,43.71151],[6.173083,43.712086],[6.173158,43.71257],[6.173501,43.713512],[6.173651,43.713921],[6.173823,43.714069],[6.174842,43.715187],[6.176623,43.716644],[6.177546,43.71693],[6.178029,43.71703],[6.17835,43.717056],[6.179005,43.716736],[6.179209,43.716553],[6.179262,43.716969],[6.178983,43.718018],[6.178372,43.718716],[6.178232,43.719227],[6.17776,43.719784],[6.177911,43.720226],[6.177471,43.720715],[6.177664,43.720669],[6.177943,43.720398],[6.178715,43.720047],[6.178865,43.719791],[6.17952,43.719101],[6.179992,43.718792],[6.180367,43.718208],[6.180443,43.71793],[6.180818,43.717892],[6.180958,43.71822],[6.181805,43.718231],[6.182277,43.718613],[6.182953,43.718868],[6.182814,43.71946],[6.182063,43.720707],[6.181644,43.720901],[6.181569,43.721142],[6.185614,43.721939],[6.186172,43.722172],[6.188039,43.722996],[6.188264,43.723553],[6.188242,43.724274],[6.188146,43.724628],[6.188017,43.724792],[6.187706,43.725597],[6.187363,43.725845],[6.186687,43.726219],[6.185989,43.728508],[6.185839,43.729057],[6.185893,43.729748],[6.185603,43.730335],[6.184466,43.731167],[6.184337,43.731632],[6.185882,43.732841],[6.186054,43.733307],[6.186032,43.734547],[6.185925,43.73502],[6.185646,43.735195],[6.18511,43.735237],[6.184133,43.734718],[6.183801,43.734127],[6.18349,43.733925],[6.182395,43.733562],[6.181118,43.733421],[6.180882,43.733376],[6.180035,43.732948],[6.17879,43.732738],[6.178222,43.73291],[6.178179,43.733089],[6.178109,43.733116],[6.177481,43.733288],[6.177562,43.733368],[6.177905,43.733391],[6.179477,43.73399],[6.179885,43.734337],[6.180743,43.734699],[6.18144,43.734756],[6.182095,43.735043],[6.182245,43.735359],[6.18276,43.735748],[6.182964,43.736164],[6.183608,43.736523],[6.18408,43.736561],[6.184713,43.736679],[6.185442,43.736485],[6.185528,43.736561],[6.185571,43.736832],[6.185904,43.737019],[6.186247,43.737408],[6.186601,43.737259],[6.188039,43.737537],[6.188296,43.737663],[6.188704,43.738018],[6.189208,43.738331],[6.189197,43.738873],[6.18909,43.739346],[6.189873,43.738857],[6.19101,43.739277],[6.192212,43.73946],[6.193049,43.73909],[6.193714,43.738918],[6.194701,43.739212],[6.195045,43.738808],[6.19586,43.738979],[6.196418,43.738808],[6.19777,43.738792],[6.198778,43.738777],[6.199143,43.738949],[6.199508,43.739025],[6.202619,43.741554],[6.203231,43.741806],[6.203225,43.74184],[6.203649,43.742207],[6.204164,43.742397],[6.205312,43.742924],[6.205607,43.743141],[6.205784,43.743378],[6.205956,43.743656],[6.206208,43.743805],[6.206519,43.744156],[6.20654,43.744358],[6.207023,43.744713],[6.207495,43.74482],[6.208504,43.744816],[6.208928,43.744965],[6.209292,43.745327],[6.209346,43.745754],[6.209003,43.746784],[6.209046,43.74733],[6.209207,43.747566],[6.209904,43.747955],[6.210269,43.748428],[6.210526,43.748631],[6.210644,43.748886],[6.210376,43.749893],[6.210108,43.750435],[6.209507,43.750839],[6.209775,43.751179],[6.20999,43.751755],[6.209904,43.751869],[6.209421,43.752296],[6.209421,43.752426],[6.209925,43.752529],[6.209947,43.752815],[6.209722,43.753746],[6.209764,43.754349],[6.210097,43.754707],[6.210151,43.755039],[6.210794,43.755234],[6.211513,43.755211],[6.211819,43.755078],[6.212426,43.754651],[6.2125,43.754249],[6.212715,43.754256],[6.213053,43.754353],[6.213254,43.75451],[6.213402,43.754783],[6.214131,43.755302],[6.214378,43.755333],[6.214356,43.755859],[6.214442,43.756271],[6.213627,43.757015],[6.213176,43.75782],[6.213487,43.758022],[6.214207,43.757999],[6.216127,43.75716],[6.217135,43.757179],[6.218315,43.756821],[6.218927,43.756844],[6.219249,43.756626],[6.219485,43.756714],[6.219925,43.756618],[6.220032,43.757278],[6.219817,43.757835],[6.219399,43.758301],[6.21897,43.758629],[6.219388,43.758698],[6.221062,43.758629],[6.22118,43.758324],[6.221191,43.757999],[6.221792,43.757374],[6.222113,43.757195],[6.221899,43.757397],[6.221577,43.757881],[6.221663,43.758533],[6.22221,43.758858],[6.22251,43.758652],[6.222467,43.758518],[6.222317,43.75824],[6.222371,43.757835],[6.222607,43.757603],[6.223444,43.75779],[6.223454,43.757999],[6.223497,43.758564],[6.223798,43.758923],[6.224227,43.758503],[6.22456,43.75827],[6.225375,43.758442],[6.226019,43.758984],[6.226598,43.759083],[6.227113,43.759102],[6.227639,43.759171],[6.227757,43.759354],[6.2278,43.759487],[6.228186,43.759621],[6.228454,43.759899],[6.22869,43.760323],[6.228529,43.760563],[6.228583,43.760818],[6.228304,43.760944],[6.227971,43.761185],[6.227478,43.761314],[6.226791,43.762611],[6.226158,43.763641],[6.226298,43.763718],[6.226598,43.763725],[6.229302,43.76371],[6.229581,43.763836],[6.229763,43.763531],[6.229999,43.763981],[6.230375,43.763626],[6.230643,43.763275],[6.230825,43.763275],[6.231158,43.763657],[6.231533,43.763378],[6.231726,43.763348],[6.232263,43.763657],[6.232681,43.763447],[6.233164,43.764137],[6.2334,43.764591],[6.2334,43.764591],[6.234086,43.764599],[6.234365,43.764645],[6.234644,43.764568],[6.234902,43.763793],[6.234795,43.763483],[6.235009,43.763065],[6.235138,43.762646],[6.235395,43.762212],[6.236232,43.762181],[6.236769,43.761763],[6.237756,43.761469],[6.238035,43.761933],[6.237391,43.762321],[6.237219,43.763127],[6.237219,43.763638],[6.237884,43.764119],[6.237198,43.764521],[6.236618,43.765126],[6.236018,43.765544],[6.235975,43.765994],[6.235739,43.766319],[6.235567,43.766675],[6.235073,43.767047],[6.235073,43.767466],[6.234763,43.767746],[6.234505,43.768158],[6.234527,43.768768],[6.234763,43.76897],[6.235632,43.769077],[6.235793,43.769188],[6.236168,43.769684],[6.236318,43.769855],[6.236662,43.770031],[6.237134,43.770473],[6.23737,43.771046],[6.23767,43.771435],[6.23767,43.771435],[6.238206,43.771525],[6.237799,43.772641],[6.237627,43.773323],[6.237262,43.773617],[6.237713,43.773943],[6.238442,43.774067],[6.239451,43.774578],[6.239987,43.775182],[6.241404,43.775879],[6.242348,43.775864],[6.24267,43.775678],[6.242691,43.775848],[6.243281,43.77591],[6.243179,43.776042],[6.24356,43.776181],[6.243437,43.776482],[6.243394,43.776815],[6.243319,43.777055],[6.243404,43.777404],[6.243404,43.777404],[6.243952,43.776823],[6.244231,43.776745],[6.244681,43.776218],[6.244831,43.77594],[6.24511,43.775885],[6.24555,43.77587],[6.245604,43.775707],[6.245883,43.775653],[6.245969,43.775521],[6.24613,43.77539],[6.246387,43.775289],[6.246441,43.774994],[6.246698,43.774894],[6.246623,43.77477],[6.246795,43.774739],[6.246891,43.774452],[6.247042,43.774328],[6.246999,43.774189],[6.247127,43.774026],[6.247288,43.77398],[6.247438,43.773817],[6.247975,43.773809],[6.248125,43.773918],[6.248275,43.773739],[6.248501,43.773732],[6.24879,43.773608],[6.249091,43.773794],[6.249187,43.773933],[6.249777,43.773507],[6.249928,43.773546],[6.25011,43.773476],[6.250239,43.773313],[6.250485,43.773298],[6.2507,43.773399],[6.251279,43.773275],[6.251537,43.773019],[6.251687,43.773065],[6.251773,43.772941],[6.251945,43.772856],[6.251998,43.772616],[6.252331,43.772206],[6.252395,43.772027],[6.252502,43.771942],[6.252513,43.771787],[6.252631,43.771593],[6.253028,43.771299],[6.253093,43.771152],[6.253178,43.771067],[6.253189,43.770896],[6.253361,43.770881],[6.253275,43.77071],[6.253683,43.770478],[6.253661,43.7703],[6.253833,43.76985],[6.254176,43.769657],[6.254273,43.769548],[6.254412,43.769502],[6.254509,43.769362],[6.254756,43.769261],[6.254831,43.768959],[6.255013,43.768897],[6.255313,43.768967],[6.255464,43.76889],[6.255539,43.768587],[6.2557,43.768518],[6.255861,43.768378],[6.256107,43.768278],[6.256268,43.768107],[6.256419,43.768169],[6.256494,43.768107],[6.256815,43.768154],[6.25718,43.767828],[6.25732,43.767565],[6.257481,43.767534],[6.257845,43.767565],[6.258146,43.767479],[6.25865,43.767139],[6.258972,43.7671],[6.259712,43.767278],[6.260431,43.767356],[6.260613,43.767208],[6.260678,43.7671],[6.260839,43.767077],[6.260989,43.766821],[6.260946,43.766728],[6.261032,43.766666],[6.261021,43.766596],[6.261128,43.766573],[6.261086,43.766387],[6.261289,43.766263],[6.261354,43.766046],[6.261568,43.765969],[6.261869,43.765976],[6.261965,43.765744],[6.262105,43.765666],[6.262223,43.765488],[6.262394,43.765519],[6.262427,43.765372],[6.262319,43.765194],[6.262394,43.765078],[6.262727,43.764682],[6.26277,43.764481],[6.263081,43.76421],[6.263382,43.764016],[6.263478,43.763768],[6.264154,43.762699],[6.264304,43.7629],[6.264379,43.762621],[6.26453,43.762552],[6.264648,43.762412],[6.264798,43.762389],[6.264937,43.762304],[6.265109,43.762288],[6.265302,43.762187],[6.265431,43.761924],[6.26557,43.761777],[6.265699,43.761444],[6.266268,43.761568],[6.266986,43.761072],[6.267126,43.760917],[6.267587,43.760707],[6.268124,43.760421],[6.269036,43.759894],[6.269615,43.758956],[6.271353,43.759119],[6.271353,43.759375],[6.271535,43.759537],[6.271557,43.759638],[6.27175,43.759731],[6.2719,43.759979],[6.272147,43.760002],[6.272319,43.760119],[6.27308,43.759863],[6.273542,43.759785],[6.273606,43.759429],[6.274003,43.759065],[6.274314,43.758592],[6.274754,43.758298],[6.274904,43.758243],[6.275119,43.758057],[6.27543,43.757879],[6.275559,43.757895],[6.275763,43.757802],[6.276127,43.757964],[6.276374,43.757957],[6.276546,43.757724],[6.277179,43.757709],[6.277436,43.75753],[6.27764,43.757197],[6.277919,43.757027],[6.278091,43.75681],[6.278101,43.756539],[6.278166,43.756391],[6.278166,43.756151],[6.278252,43.755686],[6.278477,43.755539],[6.278606,43.755306],[6.279357,43.754934],[6.279636,43.754981],[6.27999,43.754686],[6.280247,43.754702],[6.280666,43.754128],[6.280912,43.753392],[6.281234,43.753222],[6.281331,43.753028],[6.281492,43.752974],[6.281556,43.752826],[6.281674,43.75278],[6.281814,43.752633],[6.281932,43.752594],[6.281964,43.752416],[6.281835,43.752261],[6.281985,43.752238],[6.282082,43.751943],[6.282414,43.752005],[6.28264,43.751904],[6.282833,43.752021],[6.28298,43.751865],[6.282825,43.751617],[6.28327,43.751427],[6.283318,43.751342],[6.283533,43.751291],[6.28364,43.751338],[6.283764,43.751349],[6.28393,43.751415],[6.284032,43.75138],[6.284246,43.751407],[6.284472,43.751307],[6.284606,43.751128],[6.284751,43.751109],[6.284885,43.751148],[6.285014,43.751101],[6.285201,43.751171],[6.286263,43.750679],[6.286392,43.750574],[6.286644,43.750524],[6.28687,43.750396],[6.287057,43.750365],[6.287562,43.75016],[6.287647,43.749981],[6.28768,43.749795],[6.287787,43.749687],[6.288114,43.749699],[6.288125,43.749609],[6.288055,43.749361],[6.288323,43.749172],[6.28849,43.74916],[6.288618,43.749086],[6.28894,43.748982],[6.289091,43.74885],[6.289273,43.748753],[6.289343,43.748672],[6.289423,43.748633],[6.289536,43.748493],[6.289707,43.748451],[6.290002,43.748199],[6.290147,43.748183],[6.290308,43.74811],[6.290555,43.748052],[6.290673,43.747916],[6.290839,43.747939],[6.291566,43.747762],[6.291727,43.747568],[6.291995,43.747498],[6.292392,43.747274],[6.292553,43.747227],[6.293208,43.746646],[6.293422,43.746599],[6.293755,43.746351],[6.294227,43.74639],[6.294817,43.746258],[6.295407,43.745995],[6.295783,43.745584],[6.296051,43.745545],[6.296791,43.74484],[6.297092,43.744724],[6.297328,43.744545],[6.297639,43.744476],[6.298315,43.744135],[6.29898,43.74391],[6.299742,43.743677],[6.300417,43.743359],[6.300729,43.743398],[6.300997,43.74353],[6.301372,43.743499],[6.301716,43.743243],[6.30207,43.743189],[6.302585,43.743235],[6.302992,43.743073],[6.303475,43.743026],[6.303872,43.743096],[6.30413,43.743429],[6.304655,43.743817],[6.30487,43.74384],[6.30502,43.743956],[6.305245,43.743972],[6.30531,43.744119],[6.305514,43.744259],[6.305192,43.744452],[6.304838,43.744917],[6.304838,43.745313],[6.305396,43.745452],[6.305321,43.745785],[6.305739,43.745731],[6.305417,43.746002],[6.305321,43.746188],[6.305149,43.746351],[6.30516,43.746553],[6.305503,43.746661],[6.305514,43.746917],[6.305428,43.747111],[6.305471,43.747281],[6.305524,43.747529],[6.305728,43.747646],[6.306254,43.74777],[6.306469,43.748149],[6.306458,43.748576],[6.30634,43.748769],[6.306308,43.749048],[6.306651,43.748948],[6.30649,43.749343],[6.305943,43.749986],[6.305353,43.750412],[6.304945,43.750684],[6.304752,43.750753],[6.30458,43.751094],[6.303915,43.751668],[6.303615,43.752017],[6.302907,43.752559],[6.30237,43.753148],[6.301533,43.754109],[6.301898,43.75397],[6.302113,43.754016],[6.30222,43.753931],[6.30237,43.753915],[6.302703,43.753784],[6.302939,43.753745],[6.303132,43.753923],[6.30355,43.753962],[6.304355,43.753729],[6.305031,43.75314],[6.306232,43.752675],[6.307574,43.751831],[6.308078,43.751691],[6.308614,43.75173],[6.309966,43.751691],[6.311012,43.751212],[6.311956,43.750484],[6.312815,43.750143],[6.313694,43.749275],[6.314188,43.749042],[6.31642,43.748469],[6.318673,43.747771],[6.319831,43.747198],[6.320303,43.746361],[6.320582,43.745617],[6.321891,43.745105],[6.322492,43.744113],[6.323393,43.743818],[6.323973,43.743462],[6.324252,43.743353],[6.324702,43.74357],[6.325625,43.743245],[6.326526,43.743338],[6.327642,43.742423],[6.328994,43.741803],[6.330903,43.740997],[6.33159,43.740547],[6.332019,43.740532],[6.332534,43.740315],[6.332856,43.740284],[6.333972,43.740067],[6.334358,43.740206],[6.334943,43.739848],[6.335351,43.739817],[6.336005,43.739957],[6.336284,43.740166],[6.336713,43.74022],[6.337303,43.739926],[6.337539,43.739685],[6.337958,43.7396],[6.338312,43.739709],[6.33843,43.739662],[6.338687,43.739701],[6.338795,43.739848],[6.339041,43.739887],[6.339492,43.739902],[6.339674,43.740135],[6.339953,43.740236],[6.340254,43.740119],[6.340275,43.739639],[6.340597,43.739166],[6.341573,43.738468],[6.342099,43.738236],[6.342989,43.738166],[6.343118,43.738422],[6.344073,43.737902],[6.344513,43.737809],[6.343859,43.739329],[6.343472,43.739399],[6.343268,43.739585],[6.342968,43.739437],[6.342807,43.739523],[6.342764,43.739685],[6.342839,43.739864],[6.343204,43.740034],[6.343622,43.740057],[6.344137,43.74029],[6.343451,43.740321],[6.343376,43.740391],[6.343805,43.740546],[6.343826,43.740685],[6.344331,43.740654],[6.344352,43.74074],[6.344019,43.740957],[6.343751,43.740988],[6.343622,43.741073],[6.34329,43.741096],[6.343118,43.741259],[6.343086,43.741592],[6.343462,43.741623],[6.343386,43.741918],[6.343698,43.741902],[6.343279,43.742189],[6.342539,43.742515],[6.34196,43.742677],[6.341402,43.742832],[6.341681,43.743228],[6.342292,43.743189],[6.342593,43.743127],[6.342968,43.743111],[6.34403,43.74284],[6.344363,43.742856],[6.344803,43.743042],[6.345264,43.74284],[6.346079,43.742274],[6.346551,43.742111]]],"type":"MultiLineString"},"properties":{"geo_point":{"lon":6.012242023493788,"lat":43.54086313149575},"name":"GR99 De Revest-les-Eaux aux Gorges du Verdon (Var) (2020)","code_gr":"GR99"}}]}