{"type":"FeatureCollection","features":[{"type":"Feature","geometry":{"coordinates":[[[3.905832,44.591812],[3.905832,44.591812],[3.905832,44.591812],[3.905897,44.592255],[3.906122,44.5924],[3.906427,44.592723],[3.906701,44.592876],[3.907243,44.59296],[3.908128,44.593178],[3.909142,44.593845],[3.909807,44.594418],[3.911583,44.59576],[3.912178,44.59631],[3.912983,44.596939],[3.913138,44.597191],[3.91317,44.597584],[3.913283,44.597813],[3.913535,44.598083],[3.914249,44.598221],[3.915027,44.598663],[3.915246,44.59874],[3.915815,44.599159],[3.916099,44.599255],[3.916491,44.599262],[3.916829,44.599342],[3.917017,44.599274],[3.917108,44.599155],[3.91706,44.598461],[3.917086,44.597641],[3.917183,44.597393],[3.917328,44.59721],[3.91765,44.596981],[3.917977,44.59684],[3.918621,44.596672],[3.919002,44.5965],[3.919125,44.596256],[3.919812,44.596012],[3.920777,44.595852],[3.921496,44.595997],[3.921673,44.596275],[3.921614,44.597054],[3.921571,44.597446],[3.921662,44.597507],[3.921737,44.59745],[3.921829,44.59708],[3.922006,44.596783],[3.922263,44.59663],[3.922553,44.596642],[3.923041,44.59676],[3.923958,44.597218],[3.924307,44.597313],[3.92553,44.597546],[3.925895,44.597744],[3.926045,44.597961],[3.926249,44.598381],[3.926453,44.598461],[3.926753,44.598419],[3.927451,44.598217],[3.928464,44.598179],[3.928829,44.59824],[3.929221,44.59848],[3.929543,44.598881],[3.929752,44.599331],[3.929945,44.599419],[3.931329,44.599514],[3.932193,44.599651],[3.933335,44.599541],[3.934896,44.600155],[3.936184,44.600998],[3.936264,44.60183],[3.936189,44.602512],[3.93628,44.603065],[3.936608,44.603752],[3.936844,44.604088],[3.937434,44.604568],[3.937992,44.604839],[3.938893,44.605057],[3.939864,44.605186],[3.941478,44.605263],[3.942101,44.605366],[3.942991,44.605659],[3.943817,44.605709],[3.944606,44.605633],[3.945116,44.605476],[3.945604,44.605179],[3.946167,44.604595],[3.946387,44.604538],[3.946628,44.604652],[3.946628,44.604816],[3.946564,44.605061],[3.946634,44.605656],[3.946505,44.606243],[3.946187,44.606637],[3.947154,44.605843],[3.947862,44.605362],[3.948989,44.604809],[3.949831,44.604534],[3.950748,44.604351],[3.951462,44.604256],[3.952084,44.60421],[3.952143,44.604153],[3.952438,44.604214],[3.952722,44.604347],[3.952915,44.604549],[3.953162,44.604671],[3.953538,44.605118],[3.953752,44.605312],[3.953843,44.605526],[3.953897,44.605518],[3.953924,44.60516],[3.953902,44.604771],[3.953956,44.604759],[3.954321,44.605064],[3.954578,44.605553],[3.954664,44.605568],[3.95505,44.605293],[3.955303,44.605083],[3.955453,44.6049],[3.95585,44.604778],[3.956338,44.604797],[3.956671,44.6049],[3.956869,44.605167],[3.956831,44.60535],[3.956724,44.605488],[3.956815,44.605721],[3.957346,44.605721],[3.957658,44.605762],[3.958135,44.605659],[3.958317,44.605743],[3.958543,44.60574],[3.958972,44.605686],[3.959272,44.605839],[3.959782,44.605972],[3.960608,44.606125],[3.961268,44.606052],[3.963215,44.605747],[3.963912,44.60556],[3.96446,44.605484],[3.964706,44.605553],[3.965071,44.60558],[3.965388,44.605568],[3.965688,44.605537],[3.965962,44.605655],[3.966246,44.605743],[3.966197,44.605858],[3.965833,44.605941],[3.965538,44.606072],[3.965184,44.606236],[3.965071,44.606358],[3.964803,44.606503],[3.964631,44.606697],[3.964395,44.606766],[3.964374,44.606823],[3.964535,44.606812],[3.965087,44.606655],[3.965972,44.606468],[3.965962,44.606518],[3.96557,44.606903],[3.965575,44.606941],[3.966144,44.606728],[3.966692,44.606686],[3.967319,44.606598],[3.967308,44.606621],[3.967169,44.606674],[3.967051,44.606796],[3.96689,44.606949],[3.966933,44.606984],[3.967206,44.606911],[3.967624,44.606838],[3.967844,44.606769],[3.967872,44.606792],[3.967737,44.606903],[3.967672,44.607033],[3.967576,44.607155],[3.967614,44.607239],[3.967871,44.60712],[3.968108,44.607026],[3.968022,44.607162],[3.968059,44.607201],[3.96859,44.607113],[3.968847,44.606987],[3.968896,44.607048],[3.968874,44.607155],[3.968719,44.607242],[3.968767,44.607258],[3.969202,44.607197],[3.969722,44.606979],[3.969552,44.606724],[3.970035,44.606284],[3.970254,44.605871],[3.970509,44.605926],[3.970743,44.605538],[3.970268,44.604817],[3.970587,44.604762],[3.970686,44.604964],[3.970934,44.605019],[3.970884,44.604767],[3.971047,44.604077],[3.971019,44.603744],[3.97116,44.603734],[3.971408,44.604142],[3.971443,44.603578],[3.971861,44.602484],[3.972109,44.602111],[3.97259,44.601834],[3.973482,44.601693],[3.974133,44.601416],[3.973107,44.601527],[3.97293,44.601481],[3.972902,44.60131],[3.973206,44.600997],[3.973503,44.600851],[3.97373,44.600594],[3.974176,44.600529],[3.974443,44.600033],[3.974582,44.599876],[3.975049,44.59967],[3.975403,44.599312],[3.975607,44.598946],[3.975762,44.598537],[3.975848,44.598293],[3.9758,44.59808],[3.975585,44.597866],[3.975473,44.597622],[3.975274,44.597328],[3.975285,44.596771],[3.975183,44.596462],[3.975269,44.596233],[3.975178,44.595863],[3.975001,44.595581],[3.974947,44.595222],[3.974759,44.594971],[3.974706,44.594784],[3.974797,44.594425],[3.974711,44.594082],[3.974893,44.593552],[3.975215,44.593002],[3.975135,44.592766],[3.974792,44.592529],[3.974485,44.592266],[3.97389,44.59198],[3.973729,44.591831],[3.973649,44.591631],[3.973156,44.591334],[3.97267,44.591194],[3.972473,44.591102],[3.972321,44.590475],[3.972528,44.590485],[3.972313,44.590034],[3.972356,44.589825],[3.972201,44.589249],[3.972056,44.589153],[3.972125,44.589092],[3.972002,44.589054],[3.972174,44.588928],[3.972179,44.588779],[3.972034,44.588631],[3.972045,44.588341],[3.971884,44.587952],[3.971825,44.587566],[3.971723,44.587109],[3.971691,44.586742],[3.971466,44.586395],[3.97138,44.586326],[3.971053,44.585972],[3.970892,44.585865],[3.970972,44.585758],[3.970843,44.585712],[3.970629,44.585716],[3.970865,44.585548],[3.971305,44.585384],[3.971568,44.585293],[3.971912,44.585094],[3.971546,44.58492],[3.971213,44.584885],[3.971176,44.584682],[3.970886,44.584393],[3.970591,44.584324],[3.970296,44.584339],[3.970135,44.584415],[3.96969,44.584431],[3.969261,44.584538],[3.969352,44.584255],[3.969449,44.584053],[3.968966,44.584126],[3.968698,44.583698],[3.968204,44.583202],[3.967909,44.583076],[3.967587,44.583],[3.96734,44.582634],[3.96711,44.582443],[3.966793,44.58226],[3.966589,44.582039],[3.966702,44.581802],[3.966884,44.581364],[3.966788,44.581078],[3.966805,44.580587],[3.966697,44.580304],[3.966901,44.580022],[3.967287,44.579651],[3.967367,44.579403],[3.967271,44.579243],[3.966997,44.579014],[3.966868,44.578465],[3.966713,44.577969],[3.966557,44.577633],[3.966471,44.577354],[3.96623,44.576984],[3.966166,44.576725],[3.966369,44.576519],[3.966503,44.575684],[3.966423,44.575386],[3.96653,44.575218],[3.966471,44.57513],[3.966139,44.57505],[3.965468,44.574596],[3.965007,44.574375],[3.964642,44.574265],[3.963955,44.574116],[3.962953,44.573715],[3.962582,44.573654],[3.962142,44.573608],[3.961112,44.57325],[3.960431,44.572903],[3.960098,44.57288],[3.959632,44.572899],[3.959481,44.572838],[3.959133,44.57235],[3.95873,44.572041],[3.958355,44.571594],[3.957883,44.571285],[3.95791,44.570919],[3.958248,44.570301],[3.958457,44.569946],[3.958666,44.569721],[3.958902,44.569572],[3.959267,44.569233],[3.959253,44.569111],[3.959175,44.56908],[3.959353,44.568829],[3.959524,44.567944],[3.959557,44.567562],[3.95975,44.566943],[3.959932,44.566561],[3.959949,44.566307],[3.960152,44.566166],[3.960667,44.565491],[3.960726,44.565242],[3.96101,44.564697],[3.961391,44.564445],[3.961835,44.564073],[3.961966,44.563394],[3.962283,44.562955],[3.962078,44.562584],[3.962389,44.562317],[3.962786,44.561825],[3.963258,44.561527],[3.963806,44.56131],[3.963816,44.561253],[3.96366,44.560871],[3.963612,44.560246],[3.963848,44.559841],[3.963923,44.55957],[3.964143,44.559357],[3.964267,44.559021],[3.964562,44.558736],[3.964893,44.558058],[3.964749,44.557495],[3.964942,44.557206],[3.966175,44.556433],[3.966705,44.556398],[3.967393,44.555963],[3.968522,44.555701],[3.968998,44.555458],[3.969368,44.555344],[3.969781,44.55505],[3.969938,44.554858],[3.969877,44.554709],[3.969685,44.554591],[3.971171,44.553886],[3.971562,44.553653],[3.971777,44.553574],[3.971884,44.553444],[3.972008,44.553349],[3.972426,44.553287],[3.972608,44.553322],[3.973107,44.553276],[3.973231,44.553352],[3.973429,44.553417],[3.973515,44.553489],[3.973778,44.553592],[3.974244,44.553684],[3.974523,44.553604],[3.974733,44.553619],[3.974893,44.553715],[3.975039,44.553856],[3.975318,44.553966],[3.975683,44.554287],[3.976085,44.554184],[3.976031,44.554024],[3.976106,44.553986],[3.976573,44.55418],[3.976771,44.55423],[3.977587,44.554569],[3.978322,44.554901],[3.978488,44.555103],[3.978622,44.555336],[3.979013,44.555633],[3.979046,44.556023],[3.97918,44.556927],[3.979169,44.557452],[3.97908,44.557711],[3.978852,44.558024],[3.978687,44.558506],[3.978735,44.558521],[3.979164,44.558323],[3.979662,44.558117],[3.98051,44.557655],[3.980564,44.557693],[3.980306,44.558319],[3.981842,44.558248],[3.98226,44.557615],[3.982854,44.557272],[3.983201,44.557801],[3.983305,44.558357],[3.983434,44.558586],[3.983444,44.558895],[3.983369,44.559216],[3.983375,44.559933],[3.983525,44.560184],[3.9836,44.560398],[3.984147,44.560776],[3.984308,44.561016],[3.984539,44.561295],[3.984608,44.561569],[3.984705,44.561867],[3.984745,44.562237],[3.984834,44.562386],[3.98529,44.562401],[3.985499,44.56229],[3.985697,44.562241],[3.985842,44.562168],[3.985987,44.562229],[3.986105,44.562004],[3.986953,44.56134],[3.987291,44.561127],[3.987526,44.56086],[3.987993,44.56046],[3.98854,44.560176],[3.989329,44.559562],[3.989651,44.558865],[3.989828,44.55851],[3.99001,44.558056],[3.990021,44.557801],[3.990145,44.55764],[3.990284,44.557045],[3.990466,44.556778],[3.990547,44.556587],[3.990826,44.55616],[3.990976,44.555782],[3.991191,44.55547],[3.991491,44.55534],[3.991545,44.555153],[3.99163,44.555069],[3.9917,44.554932],[3.991899,44.554852],[3.991936,44.554787],[3.991877,44.554729],[3.99228,44.554626],[3.993427,44.554075],[3.993562,44.553928],[3.994002,44.55407],[3.994307,44.554035],[3.993942,44.553734],[3.993621,44.553246],[3.993267,44.552807],[3.993277,44.552593],[3.993557,44.552203],[3.993874,44.551925],[3.994118,44.551589],[3.994378,44.551462],[3.994451,44.551305],[3.994793,44.551172],[3.995096,44.550995],[3.995015,44.550739],[3.99508,44.550533],[3.995139,44.550175],[3.995402,44.549889],[3.995386,44.549522],[3.995241,44.548878],[3.995214,44.548264],[3.995391,44.547897],[3.99553,44.547783],[3.995654,44.54763],[3.995528,44.547771],[3.995609,44.547665],[3.995783,44.547581],[3.996097,44.547523],[3.996424,44.547417],[3.996858,44.547119],[3.997129,44.547012],[3.997175,44.546928],[3.997025,44.546021],[3.996987,44.545678],[3.997041,44.545361],[3.997119,44.544991],[3.997322,44.544769],[3.997478,44.544518],[3.997618,44.544411],[3.99777,44.544376],[3.998055,44.544384],[3.998942,44.544353],[3.999045,44.544201],[3.999736,44.544061],[3.999865,44.544159],[4.000079,44.544186],[4.000208,44.544129],[4.000487,44.544091],[4.000685,44.543877],[4.000948,44.543671],[4.000954,44.543507],[4.000889,44.543388],[4.00105,44.543247],[4.000959,44.542751],[4.000814,44.542599],[4.000573,44.542191],[4.000551,44.541733],[4.000546,44.541557],[4.000536,44.541237],[4.000417,44.540962],[4.000219,44.540825],[3.999929,44.540524],[3.999661,44.540169],[3.999597,44.539944],[3.999801,44.539692],[4.000573,44.539475],[4.001077,44.539291],[4.001308,44.539189],[4.001488,44.539149],[4.001619,44.539021],[4.002171,44.538712],[4.002568,44.538426],[4.002686,44.538039],[4.002654,44.537503],[4.002719,44.537266],[4.002714,44.536724],[4.002799,44.536442],[4.002842,44.536083],[4.003116,44.535702],[4.00339,44.535316],[4.003383,44.535259],[4.002531,44.535275],[4.001453,44.535427],[4.000755,44.535545],[3.999988,44.53558],[3.999618,44.535519],[3.999312,44.535362],[3.999007,44.534966],[3.998744,44.534546],[3.998234,44.534184],[3.997988,44.533938],[3.997892,44.533491],[3.997762,44.533131],[3.997816,44.532875],[3.998164,44.532528],[3.99883,44.53201],[3.998943,44.531713],[3.998803,44.530703],[3.998894,44.529716],[3.999012,44.528794],[3.998497,44.527691],[3.998594,44.527123],[3.99785,44.525143],[3.997885,44.524356],[3.998092,44.523717],[3.998333,44.523266],[3.998345,44.522716],[3.99877,44.521642],[3.999035,44.5212],[3.99938,44.520823],[3.999886,44.520585],[4.00107,44.52029],[4.001461,44.520142],[4.001957,44.519505],[4.002553,44.519076],[4.00303,44.519627],[4.003191,44.520061],[4.003749,44.520515],[4.005025,44.521469],[4.005063,44.521648],[4.00494,44.522205],[4.005066,44.522566],[4.00517,44.522713],[4.005186,44.522907],[4.005143,44.523094],[4.005261,44.523232],[4.005342,44.523369],[4.005755,44.523476],[4.005878,44.523621],[4.007037,44.523502],[4.007455,44.523022],[4.00797,44.522858],[4.008357,44.522839],[4.009059,44.522945],[4.010476,44.522999],[4.011044,44.522728],[4.011382,44.522373],[4.011592,44.521874],[4.01201,44.521371],[4.01238,44.521084],[4.012782,44.521057],[4.013555,44.521526],[4.014832,44.521461],[4.015846,44.521629],[4.016157,44.521832],[4.016355,44.52216],[4.016719,44.522514],[4.016843,44.52333],[4.016731,44.523829],[4.01651,44.524235],[4.016103,44.524643],[4.016859,44.524204],[4.01705,44.523866],[4.017326,44.523613],[4.017487,44.523274],[4.01768,44.522797],[4.017825,44.522304],[4.017846,44.522133],[4.018302,44.522205],[4.018683,44.522335],[4.019005,44.52248],[4.019397,44.522491],[4.019504,44.522373],[4.019702,44.522346],[4.019928,44.522434],[4.019879,44.522701],[4.02003,44.52261],[4.020094,44.522694],[4.020201,44.522621],[4.020416,44.522633],[4.020781,44.522511],[4.020995,44.521835],[4.020689,44.521461],[4.020453,44.521339],[4.020153,44.521214],[4.020019,44.521015],[4.019992,44.520847],[4.01989,44.520611],[4.020014,44.520328],[4.020502,44.520031],[4.020958,44.51984],[4.021929,44.519069],[4.022084,44.51894],[4.022331,44.518356],[4.022497,44.51786],[4.022444,44.51749],[4.022293,44.516994],[4.022492,44.51659],[4.023399,44.51627],[4.023946,44.516174],[4.024327,44.51606],[4.024246,44.515961],[4.024042,44.515888],[4.024622,44.515774],[4.025303,44.515659],[4.025609,44.51548],[4.025914,44.515141],[4.026295,44.514595],[4.026692,44.51429],[4.025882,44.513729],[4.025491,44.513405],[4.025389,44.513211],[4.025217,44.512593],[4.025241,44.51208],[4.025394,44.511574],[4.025695,44.511191],[4.025866,44.510872],[4.025796,44.510731],[4.025646,44.510582],[4.025544,44.510426],[4.025378,44.510284],[4.025255,44.510059],[4.025142,44.509739],[4.02481,44.509423],[4.02482,44.509098],[4.02497,44.508755],[4.025292,44.508377],[4.02555,44.508118],[4.02563,44.507477],[4.025893,44.507301],[4.026301,44.507294],[4.026912,44.507057],[4.027787,44.506496],[4.028157,44.506229],[4.028849,44.506168],[4.029273,44.506199],[4.029573,44.506168],[4.029369,44.506053],[4.029777,44.506046],[4.030238,44.506046],[4.030308,44.506001],[4.030758,44.506008],[4.031032,44.505901],[4.031462,44.505836],[4.0318,44.505906],[4.032218,44.505882],[4.032641,44.505817],[4.03291,44.505917],[4.033205,44.505981],[4.033473,44.506329],[4.034025,44.50658],[4.034101,44.506557],[4.034154,44.506428],[4.034186,44.506283],[4.034825,44.505886],[4.034884,44.50565],[4.035447,44.505245],[4.035903,44.505005],[4.036343,44.504696],[4.036724,44.504723],[4.036906,44.504692],[4.036879,44.504585],[4.036461,44.504009],[4.036386,44.503548],[4.036413,44.502754],[4.036568,44.501499],[4.036574,44.501148],[4.036718,44.500828],[4.037137,44.500492],[4.037641,44.499966],[4.038086,44.498905],[4.038355,44.498573],[4.038816,44.498352],[4.039073,44.497948],[4.039701,44.497307],[4.040012,44.49691],[4.040152,44.496502],[4.040195,44.4961],[4.03984,44.49554],[4.040715,44.495379],[4.041385,44.495359],[4.042249,44.495108],[4.042324,44.494861],[4.042547,44.494819],[4.043091,44.494502],[4.043949,44.494262],[4.044325,44.49424],[4.044894,44.493901],[4.045436,44.493416],[4.045725,44.493423],[4.046439,44.493931],[4.047142,44.494114],[4.047737,44.494156],[4.048638,44.494087],[4.049426,44.494087],[4.049437,44.493973],[4.049255,44.493867],[4.049507,44.493641],[4.049773,44.493628],[4.05006,44.493141],[4.050135,44.492771],[4.050306,44.492729],[4.050521,44.492809],[4.050934,44.492867],[4.051256,44.493252],[4.051578,44.493595],[4.05169,44.493969],[4.051674,44.494419],[4.052088,44.494766],[4.052495,44.494907],[4.053096,44.494995],[4.053343,44.495079],[4.053412,44.495434],[4.053573,44.495628],[4.05404,44.495785],[4.054217,44.495781],[4.054153,44.495468],[4.054233,44.495338],[4.054695,44.495087],[4.054855,44.494961],[4.05499,44.494785],[4.055247,44.494629],[4.055258,44.494396],[4.055027,44.494045],[4.054743,44.493774],[4.054448,44.493591],[4.054442,44.49345],[4.054689,44.493183],[4.054888,44.493088],[4.055118,44.493084],[4.055263,44.49324],[4.055467,44.493206],[4.05573,44.493015],[4.055891,44.492668],[4.056186,44.49242],[4.056406,44.492336],[4.056502,44.492371],[4.056653,44.492783],[4.056674,44.49308],[4.057017,44.493568],[4.05698,44.49398],[4.057109,44.494717],[4.057463,44.495106],[4.057865,44.49585],[4.057978,44.49614],[4.058138,44.496395],[4.058294,44.49646],[4.058444,44.496307],[4.059265,44.496204],[4.059646,44.496521],[4.060547,44.497002],[4.060874,44.497036],[4.06103,44.497147],[4.061185,44.49749],[4.061373,44.498089],[4.061497,44.498291],[4.061668,44.498074],[4.061759,44.497738],[4.061625,44.49725],[4.061545,44.496861],[4.061582,44.496574],[4.061438,44.49641],[4.061502,44.496223],[4.061818,44.496159],[4.062291,44.49614],[4.062392,44.496052],[4.062199,44.495842],[4.062114,44.495499],[4.062215,44.495213],[4.062119,44.49474],[4.061974,44.494255],[4.061958,44.49382],[4.062258,44.493233],[4.063068,44.492493],[4.063122,44.492275],[4.063052,44.492043],[4.062907,44.491711],[4.062972,44.490845],[4.062891,44.490303],[4.06251,44.489223],[4.062151,44.488491],[4.062012,44.487953],[4.061808,44.487637],[4.061701,44.487316],[4.061701,44.487316],[4.061701,44.487316],[4.06189,44.487029],[4.062105,44.487037],[4.062105,44.487132],[4.062395,44.487228],[4.062706,44.487588],[4.062341,44.487634],[4.062352,44.487783],[4.062588,44.487886],[4.062727,44.488116],[4.063221,44.488575],[4.063349,44.489218],[4.063725,44.48944],[4.063993,44.489976],[4.064084,44.489708],[4.064197,44.489869],[4.06432,44.489605],[4.064294,44.488866],[4.065109,44.488866],[4.065302,44.489042],[4.065238,44.489329],[4.06512,44.489411],[4.065066,44.489884],[4.065324,44.49091],[4.065474,44.491231],[4.065431,44.491476],[4.066289,44.492371],[4.066423,44.492711],[4.066295,44.492977],[4.066536,44.493351],[4.066321,44.493948],[4.066439,44.494193],[4.06616,44.494637],[4.066117,44.494958],[4.065796,44.495448],[4.066107,44.496642],[4.06608,44.496871],[4.066396,44.497514],[4.066643,44.49782],[4.066568,44.498333],[4.066708,44.499779],[4.066413,44.500292],[4.066018,44.500717],[4.065366,44.501738],[4.065753,44.502412],[4.065688,44.503039],[4.066665,44.502871],[4.068843,44.502718],[4.069529,44.502412],[4.070194,44.502595],[4.070731,44.502381],[4.071042,44.502152],[4.071385,44.502144],[4.072693,44.500568],[4.073449,44.499283],[4.073977,44.498714],[4.074887,44.498108],[4.075477,44.497807],[4.075613,44.497803],[4.075766,44.497944],[4.075268,44.498936],[4.076018,44.498576],[4.076418,44.498466],[4.077314,44.498378],[4.077947,44.49844],[4.078508,44.498383],[4.079326,44.498199],[4.079926,44.497833],[4.080471,44.497318],[4.080897,44.496899],[4.081214,44.496563],[4.08122,44.49654],[4.08168,44.496239],[4.08224,44.496101],[4.08242,44.495949],[4.08279,44.49585],[4.08316,44.495831],[4.0838,44.495071],[4.08441,44.49477],[4.0849,44.49461],[4.08515,44.49427],[4.08586,44.493881],[4.08646,44.49371],[4.08719,44.493752],[4.08783,44.493599],[4.08812,44.493771],[4.08961,44.494091],[4.09062,44.494549],[4.09091,44.494541],[4.09093,44.494469],[4.09194,44.494709],[4.0921,44.494862],[4.09238,44.496078],[4.09251,44.496151],[4.09266,44.49609],[4.09294,44.49575],[4.09353,44.49551],[4.09367,44.495232],[4.09426,44.494949],[4.09472,44.49461],[4.09513,44.493961],[4.09515,44.493591],[4.09502,44.493301],[4.09513,44.493111],[4.09667,44.491852],[4.09697,44.491562],[4.09723,44.49155],[4.09859,44.492168],[4.09901,44.49226],[4.09933,44.49239],[4.09945,44.492298],[4.09975,44.490681],[4.0996,44.490471],[4.10012,44.49004],[4.09997,44.489441],[4.09957,44.489281],[4.09939,44.489109],[4.09975,44.48877],[4.10055,44.488541],[4.10138,44.48856],[4.10227,44.488361],[4.10293,44.488369],[4.1035,44.48793],[4.10408,44.48785],[4.1049,44.487961],[4.10568,44.48819],[4.105469,44.487979],[4.105602,44.487892],[4.10587,44.487991],[4.106215,44.488072],[4.1068,44.487911],[4.107338,44.487579],[4.1078,44.487654],[4.10809,44.487469],[4.108776,44.487309],[4.108178,44.486767],[4.108382,44.486572],[4.109648,44.486232],[4.10976,44.485641],[4.11001,44.48558],[4.1101,44.48542],[4.111082,44.485446],[4.111495,44.485527],[4.11188,44.485199],[4.1113,44.484772],[4.11079,44.48457],[4.11065,44.484291],[4.11047,44.48418],[4.11009,44.4841],[4.10993,44.484001],[4.10964,44.483521],[4.10958,44.48307],[4.10936,44.482819],[4.109333,44.482331],[4.109288,44.481964],[4.10981,44.481129],[4.10982,44.480831],[4.10964,44.480289],[4.109742,44.479984],[4.11008,44.479832],[4.11033,44.479919],[4.11082,44.479988],[4.1114,44.48024],[4.111915,44.480206],[4.11263,44.479889],[4.11304,44.479382],[4.11348,44.47876],[4.114,44.478451],[4.11428,44.478199],[4.114773,44.477706],[4.11506,44.47747],[4.11535,44.477341],[4.11576,44.47731],[4.11617,44.47736],[4.11639,44.4771],[4.11696,44.476879],[4.11699,44.47673],[4.1168,44.476398],[4.11614,44.47591],[4.11601,44.47562],[4.11601,44.475368],[4.11613,44.474991],[4.116215,44.474636],[4.11608,44.474384],[4.115956,44.474204],[4.11592,44.47382],[4.11608,44.473469],[4.116576,44.473251],[4.11729,44.47316],[4.118058,44.473138],[4.11821,44.472889],[4.11822,44.472672],[4.11781,44.471931],[4.11782,44.47131],[4.117954,44.471035],[4.117628,44.470352],[4.11784,44.469749],[4.11845,44.469341],[4.11864,44.469131],[4.11886,44.468498],[4.11899,44.4683],[4.11933,44.468269],[4.11944,44.467838],[4.11977,44.46767],[4.12013,44.467571],[4.120988,44.467484],[4.12163,44.467819],[4.12249,44.467991],[4.12333,44.46833],[4.12411,44.468719],[4.12465,44.469379],[4.1255,44.469688],[4.125457,44.46997],[4.12579,44.470051],[4.126,44.470169],[4.12648,44.47023],[4.126633,44.469417],[4.126911,44.469218],[4.12714,44.468842],[4.12754,44.468769],[4.12761,44.4687],[4.12761,44.468559],[4.12787,44.468288],[4.12732,44.468128],[4.12732,44.468021],[4.1275,44.467659],[4.12721,44.467571],[4.12701,44.467548],[4.12719,44.46719],[4.12704,44.4669],[4.127182,44.466411],[4.127586,44.466159],[4.128224,44.465935],[4.1286,44.46508],[4.1285,44.464909],[4.12833,44.464729],[4.12832,44.464329],[4.12843,44.463848],[4.12871,44.463558],[4.129227,44.463703],[4.129515,44.463898],[4.12977,44.463788],[4.12948,44.463299],[4.12952,44.463169],[4.12968,44.4631],[4.129811,44.462871],[4.128999,44.462707],[4.128691,44.46234],[4.128435,44.462237],[4.128087,44.462062],[4.128004,44.461849],[4.12845,44.461498],[4.12845,44.461399],[4.12826,44.46114],[4.1283,44.460918],[4.12813,44.460701],[4.12823,44.460369],[4.12823,44.460091],[4.12844,44.459888],[4.12851,44.459679],[4.12887,44.459301],[4.12925,44.459],[4.12977,44.458858],[4.13021,44.458939],[4.13053,44.459148],[4.13087,44.459251],[4.13116,44.459232],[4.13249,44.459591],[4.13273,44.45969],[4.1331,44.460079],[4.13337,44.460281],[4.13356,44.4603],[4.13504,44.460049],[4.13543,44.460072],[4.13562,44.46003],[4.13588,44.45977],[4.13601,44.459499],[4.13605,44.459229],[4.13599,44.459061],[4.135525,44.458203],[4.13531,44.458019],[4.13497,44.457779],[4.13493,44.457401],[4.13449,44.457279],[4.13435,44.456982],[4.13345,44.456341],[4.13295,44.455719],[4.13249,44.455448],[4.13242,44.455132],[4.13208,44.454498],[4.13189,44.454418],[4.13182,44.454441],[4.13193,44.454762],[4.13188,44.454762],[4.13169,44.454552],[4.13152,44.453819],[4.13153,44.453678],[4.1317,44.453499],[4.13194,44.453339],[4.13194,44.453209],[4.1316,44.452961],[4.13149,44.452831],[4.13149,44.45269],[4.13165,44.452591],[4.13187,44.452518],[4.132,44.452301],[4.13197,44.452099],[4.13187,44.45195],[4.13183,44.451691],[4.13137,44.45116],[4.13144,44.45105],[4.13171,44.450851],[4.13195,44.450531],[4.13201,44.45015],[4.13197,44.44976],[4.13182,44.449501],[4.13165,44.449348],[4.13111,44.44923],[4.13155,44.448761],[4.13286,44.44849],[4.13328,44.44846],[4.13348,44.44838],[4.13354,44.44828],[4.13338,44.44812],[4.1332,44.448078],[4.13305,44.448002],[4.13288,44.447731],[4.13277,44.44743],[4.13252,44.44722],[4.13227,44.446861],[4.13209,44.446781],[4.132,44.446602],[4.13172,44.446281],[4.13149,44.445782],[4.13145,44.445499],[4.13163,44.445148],[4.13162,44.444759],[4.1315,44.444649],[4.13121,44.444618],[4.13062,44.44463],[4.13026,44.44458],[4.12988,44.44418],[4.12964,44.444069],[4.12956,44.44355],[4.12934,44.443069],[4.12931,44.442799],[4.12937,44.442631],[4.12937,44.442371],[4.12981,44.441608],[4.12999,44.441441],[4.1301,44.441219],[4.13101,44.440571],[4.13152,44.440331],[4.13173,44.440289],[4.13223,44.440331],[4.13388,44.4403],[4.13445,44.440231],[4.13456,44.44014],[4.13453,44.43951],[4.13438,44.438992],[4.13446,44.438179],[4.13437,44.43808],[4.13398,44.438011],[4.13366,44.437889],[4.13347,44.43774],[4.1333,44.437489],[4.13273,44.43716],[4.13246,44.436771],[4.13227,44.436642],[4.13182,44.436481],[4.13167,44.436321],[4.13164,44.436001],[4.13154,44.435841],[4.1311,44.43573],[4.13076,44.435692],[4.1303,44.435539],[4.12995,44.43539],[4.12986,44.435219],[4.12989,44.435101],[4.13014,44.435001],[4.13022,44.434872],[4.13068,44.43486],[4.13091,44.434929],[4.13133,44.43494],[4.13208,44.434891],[4.13266,44.434711],[4.13384,44.434101],[4.13414,44.433868],[4.13429,44.433651],[4.13488,44.4324],[4.13499,44.43227],[4.13517,44.432201],[4.13548,44.432178],[4.13558,44.432098],[4.13543,44.431141],[4.13531,44.429482],[4.1355,44.428951],[4.13545,44.428459],[4.135778,44.427424],[4.135904,44.427269],[4.136556,44.426699],[4.13641,44.42667],[4.13611,44.426713],[4.13613,44.426637],[4.136691,44.426403],[4.136903,44.426182],[4.13655,44.426102],[4.13621,44.426105],[4.136129,44.426017],[4.136312,44.425217],[4.136225,44.425182],[4.13587,44.425598],[4.13573,44.42556],[4.13564,44.425461],[4.13585,44.42498],[4.13578,44.42495],[4.13552,44.425091],[4.13533,44.42514],[4.135104,44.42503],[4.13418,44.424789],[4.13349,44.423569],[4.13319,44.423191],[4.13275,44.422779],[4.130673,44.421512],[4.1302,44.421188],[4.129691,44.420501],[4.1294,44.419182],[4.12935,44.418499],[4.12941,44.417252],[4.12897,44.416752],[4.12757,44.415932],[4.12669,44.414341],[4.1262,44.413055],[4.12887,44.412708],[4.13139,44.41272],[4.13298,44.41283],[4.13352,44.412842],[4.13477,44.41304],[4.13536,44.413261],[4.13552,44.413261],[4.13562,44.412891],[4.135145,44.412212],[4.134705,44.411999],[4.134378,44.411903],[4.134206,44.411507],[4.134184,44.411259],[4.133197,44.41074],[4.132452,44.410202],[4.132119,44.409622],[4.132151,44.409245],[4.132334,44.408852],[4.132318,44.408028],[4.132677,44.406868],[4.132682,44.406239],[4.132682,44.406239],[4.132476,44.406122],[4.132057,44.406084],[4.131566,44.40591],[4.130827,44.405604],[4.129952,44.405341],[4.129855,44.4052],[4.129228,44.405304],[4.12882,44.404934],[4.127785,44.404423],[4.127264,44.404087],[4.12691,44.403759],[4.12565,44.403008],[4.12499,44.402534],[4.124652,44.402374],[4.123745,44.401585],[4.123504,44.401531],[4.123359,44.401352],[4.122914,44.401058],[4.122399,44.40094],[4.121954,44.400761],[4.121573,44.40036],[4.121208,44.400188],[4.120843,44.400082],[4.120355,44.400105],[4.119926,44.400322],[4.119722,44.400394],[4.119556,44.400509],[4.119073,44.400497],[4.117319,44.399902],[4.117158,44.399761],[4.117029,44.399441],[4.116734,44.399303],[4.116321,44.399197],[4.115994,44.399036],[4.115312,44.398643],[4.114849,44.398675],[4.114656,44.398789],[4.114629,44.399083],[4.11439,44.399205],[4.114267,44.399147],[4.114087,44.399194],[4.114025,44.399349],[4.113843,44.399357],[4.113749,44.399486],[4.113744,44.399582],[4.113562,44.399635],[4.113296,44.399551],[4.112601,44.39949],[4.111643,44.398853],[4.111379,44.398742],[4.110833,44.398716],[4.110045,44.398914],[4.108588,44.399303],[4.108106,44.399333],[4.107025,44.399257],[4.106086,44.399033],[4.105265,44.398792],[4.104614,44.398834],[4.104082,44.398979],[4.10305,44.399033],[4.102398,44.399014],[4.101567,44.399158],[4.100668,44.399426],[4.099713,44.39967],[4.098997,44.399986],[4.098479,44.400166],[4.098241,44.400314],[4.097423,44.400322],[4.097103,44.400349],[4.096428,44.400361],[4.096666,44.400051],[4.096706,44.39962],[4.096795,44.399391],[4.096814,44.399227],[4.097036,44.398911],[4.097503,44.398678],[4.097878,44.398319],[4.098103,44.397884],[4.098028,44.397556],[4.098119,44.397362],[4.098581,44.397205],[4.098935,44.396835],[4.099219,44.396],[4.099149,44.395584],[4.098994,44.395412],[4.098366,44.395531],[4.097851,44.395264],[4.097385,44.395065],[4.097824,44.394253],[4.097701,44.393994],[4.096376,44.393555],[4.095743,44.393692],[4.095174,44.393875],[4.094402,44.394005],[4.093785,44.393917],[4.093426,44.393894],[4.093356,44.393643],[4.094043,44.393414],[4.094461,44.393116],[4.094617,44.392742],[4.094584,44.392414],[4.095346,44.391766],[4.09592,44.391533],[4.096011,44.391388],[4.095915,44.391281],[4.09563,44.391048],[4.095968,44.390682],[4.096408,44.390438],[4.096424,44.390137],[4.095958,44.389694],[4.096038,44.389542],[4.096505,44.389404],[4.097261,44.389019],[4.098275,44.388557],[4.098468,44.388371],[4.098162,44.387955],[4.098162,44.387653],[4.098302,44.387428],[4.098924,44.387001],[4.099391,44.386469],[4.099879,44.385735],[4.099933,44.385307],[4.100115,44.384899],[4.100174,44.38456],[4.100086,44.384307],[4.100143,44.384216],[4.100667,44.384186],[4.101021,44.384307],[4.101017,44.384545],[4.101489,44.385024],[4.101441,44.385572],[4.101879,44.385981],[4.102084,44.386729],[4.103074,44.386622],[4.103803,44.386689],[4.104139,44.386862],[4.104027,44.387129],[4.10399,44.388197],[4.104569,44.388304],[4.104942,44.388211],[4.107277,44.386836],[4.108604,44.386462],[4.111835,44.386368],[4.112564,44.386315],[4.113348,44.386355],[4.112508,44.386982],[4.113124,44.387303],[4.113199,44.387783],[4.113386,44.387864],[4.113927,44.387516],[4.114544,44.387383],[4.114861,44.387356],[4.115515,44.387183],[4.115945,44.387169],[4.116356,44.387209],[4.116318,44.386635],[4.115814,44.386448],[4.116038,44.386088],[4.116019,44.385928],[4.115235,44.385674],[4.11516,44.385247],[4.114899,44.385073],[4.114861,44.384272],[4.113591,44.383632],[4.113199,44.383672],[4.113143,44.383485],[4.11333,44.383164],[4.112601,44.382337],[4.112452,44.382043],[4.112265,44.381669],[4.111966,44.381429],[4.111704,44.380882],[4.111574,44.380174],[4.110602,44.37984],[4.109799,44.37976],[4.109183,44.379239],[4.108547,44.379119],[4.108417,44.378425],[4.107688,44.378064],[4.107053,44.377384],[4.10709,44.376663],[4.106904,44.376462],[4.10625,44.376396],[4.106082,44.376155],[4.106343,44.375661],[4.105895,44.375194],[4.105895,44.374927],[4.105391,44.374273],[4.105316,44.373658],[4.105596,44.371909],[4.105391,44.371295],[4.103691,44.369492],[4.102364,44.368331],[4.102103,44.368037],[4.101823,44.367463],[4.101356,44.367155],[4.101318,44.366862],[4.10059,44.367008],[4.099749,44.366434],[4.099189,44.365686],[4.099301,44.365473],[4.09932,44.365112],[4.098927,44.365433],[4.09874,44.365313],[4.098311,44.365353],[4.097806,44.365887],[4.09719,44.365913],[4.097171,44.365339],[4.097041,44.365259],[4.095752,44.365459],[4.095079,44.365767],[4.094407,44.365833],[4.094239,44.36558],[4.094687,44.364738],[4.094519,44.364378],[4.094724,44.364044],[4.093174,44.363269],[4.093136,44.363456],[4.092912,44.36351],[4.092184,44.363216],[4.09153,44.363296],[4.090839,44.363229],[4.090092,44.363389],[4.089288,44.364137],[4.089718,44.363389],[4.090204,44.363002],[4.090764,44.362748],[4.090185,44.362348],[4.089288,44.362161],[4.088541,44.362241],[4.087943,44.362067],[4.087178,44.3618],[4.086393,44.361733],[4.085627,44.362842],[4.08488,44.363389],[4.084133,44.362975],[4.083666,44.362495],[4.083778,44.363056],[4.084207,44.36363],[4.084805,44.364057],[4.085384,44.364311],[4.08531,44.364485],[4.084843,44.364338],[4.084189,44.364231],[4.08318,44.36363],[4.082452,44.362869],[4.082134,44.362521],[4.081723,44.362281],[4.08148,44.362254],[4.081013,44.361747],[4.080901,44.361173],[4.080994,44.360972],[4.080434,44.360278],[4.079986,44.35973],[4.079126,44.359303],[4.079425,44.359169],[4.080621,44.358368],[4.081798,44.357847],[4.082134,44.357807],[4.082227,44.357727],[4.082059,44.35762],[4.081424,44.357593],[4.079407,44.357607],[4.079818,44.356966],[4.079743,44.356565],[4.080004,44.355763],[4.080808,44.354775],[4.080901,44.354361],[4.080864,44.354121],[4.0812,44.354094],[4.081312,44.353813],[4.081219,44.353426],[4.080901,44.353479],[4.08092,44.353132],[4.081107,44.352718],[4.081032,44.352438],[4.080584,44.352424],[4.08021,44.352544],[4.079762,44.352451],[4.079706,44.352277],[4.080004,44.35201],[4.079818,44.351837],[4.0795,44.35177],[4.078828,44.352104],[4.078865,44.351917],[4.079276,44.351195],[4.078435,44.351449],[4.077669,44.351543],[4.078249,44.351129],[4.078286,44.350314],[4.078211,44.349753],[4.077968,44.349178],[4.077744,44.349125],[4.077725,44.348551],[4.077333,44.348217],[4.076717,44.347522],[4.07681,44.34656],[4.076997,44.346333],[4.076885,44.346079],[4.076007,44.345879],[4.075615,44.345852],[4.074811,44.345545],[4.074344,44.345465],[4.07412,44.345077],[4.074811,44.344129],[4.074774,44.343782],[4.074606,44.343621],[4.07455,44.343795],[4.074214,44.344343],[4.07412,44.344049],[4.073971,44.343915],[4.073635,44.344236],[4.073373,44.343928],[4.073018,44.34469],[4.072943,44.345585],[4.073224,44.346413],[4.072495,44.34636],[4.071991,44.34648],[4.071281,44.346787],[4.070459,44.347268],[4.070216,44.347335],[4.070029,44.347602],[4.069768,44.347509],[4.069581,44.347642],[4.069319,44.347762],[4.068946,44.347268],[4.068348,44.347121],[4.067657,44.347094],[4.067395,44.346921],[4.066854,44.347228],[4.066723,44.347509],[4.066742,44.348096],[4.066275,44.348377],[4.065714,44.348444],[4.065808,44.348591],[4.065527,44.348898],[4.065116,44.348804],[4.064649,44.348844],[4.0645,44.349018],[4.064332,44.349365],[4.063772,44.35026],[4.063267,44.350327],[4.062333,44.350928],[4.061455,44.351048],[4.060839,44.351022],[4.061661,44.351623],[4.062445,44.351997],[4.062165,44.352705],[4.061754,44.353079],[4.061044,44.353119],[4.060868,44.353138],[4.060899,44.352853],[4.060579,44.352667],[4.060299,44.352655],[4.060158,44.352759],[4.059716,44.352451],[4.059286,44.352288],[4.059096,44.351856],[4.059045,44.351474],[4.058826,44.35118],[4.058579,44.351054],[4.058402,44.350681],[4.058793,44.349815],[4.059169,44.349033],[4.059155,44.348774],[4.059078,44.348419],[4.059161,44.348312],[4.058842,44.348133],[4.058831,44.348083],[4.059204,44.348003],[4.059673,44.347916],[4.059845,44.347828],[4.059678,44.347794],[4.059341,44.347824],[4.058954,44.347733],[4.058965,44.347668],[4.059223,44.347679],[4.059397,44.347633],[4.059738,44.347458],[4.060411,44.347225],[4.060454,44.346935],[4.060349,44.346641],[4.060408,44.346506],[4.060241,44.346278],[4.060051,44.345109],[4.059781,44.344976],[4.059625,44.344387],[4.058941,44.343823],[4.058595,44.343782],[4.05764,44.343483],[4.057562,44.342903],[4.057645,44.342583],[4.057616,44.342052],[4.057501,44.341869],[4.057109,44.341637],[4.056784,44.341248],[4.056334,44.34108],[4.055942,44.340855],[4.055773,44.34052],[4.054708,44.340942],[4.054118,44.341072],[4.053973,44.341225],[4.05396,44.341534],[4.052782,44.342846],[4.052002,44.343124],[4.051412,44.343544],[4.050953,44.34404],[4.050122,44.344513],[4.049811,44.344749],[4.049478,44.345123],[4.049086,44.345287],[4.048687,44.345589],[4.048276,44.345711],[4.047869,44.34594],[4.047759,44.345955],[4.047405,44.346142],[4.04719,44.346249],[4.04715,44.346569],[4.047198,44.346981],[4.047184,44.347534],[4.047029,44.347851],[4.046181,44.348301],[4.045527,44.34856],[4.044631,44.349117],[4.044497,44.349277],[4.044325,44.349384],[4.043392,44.350197],[4.042855,44.350525],[4.042528,44.350883],[4.042372,44.351105],[4.042147,44.351311],[4.042115,44.351673],[4.041975,44.351837],[4.041761,44.351837],[4.041541,44.351757],[4.041058,44.351822],[4.040736,44.351936],[4.040484,44.351959],[4.039798,44.352299],[4.03946,44.352367],[4.03866,44.352699],[4.038049,44.353062],[4.037196,44.353371],[4.036783,44.353336],[4.03645,44.353458],[4.035903,44.353432],[4.035404,44.353519],[4.035077,44.353409],[4.034594,44.353401],[4.034138,44.353298],[4.033741,44.353268],[4.033376,44.35318],[4.032625,44.353294],[4.03218,44.353348],[4.031665,44.353458],[4.030962,44.353462],[4.030099,44.353554],[4.029208,44.353748],[4.028806,44.354218],[4.028473,44.354969],[4.02828,44.355228],[4.02828,44.355228],[4.028191,44.355968],[4.028363,44.356981],[4.028159,44.357856],[4.028706,44.359904],[4.02846,44.360218],[4.027698,44.360909],[4.02714,44.361883],[4.026603,44.362343],[4.025198,44.362834],[4.024265,44.363317],[4.023975,44.363263],[4.023793,44.36334],[4.023578,44.363171],[4.023471,44.363049],[4.023535,44.362903],[4.023406,44.362427],[4.023514,44.361829],[4.02331,44.361491],[4.023278,44.361254],[4.023192,44.361116],[4.023009,44.360111],[4.022956,44.360019],[4.02272,44.360226],[4.022612,44.360556],[4.022527,44.360563],[4.022205,44.360878],[4.02184,44.361047],[4.021572,44.361131],[4.021454,44.361338],[4.020949,44.361277],[4.020606,44.361323],[4.019855,44.361614],[4.019576,44.361576],[4.019265,44.361376],[4.019222,44.361246],[4.020434,44.360709],[4.020467,44.360479],[4.020273,44.360272],[4.020155,44.360034],[4.020177,44.359796],[4.020349,44.359551],[4.020649,44.359213],[4.020574,44.359022],[4.020381,44.358883],[4.020155,44.358799],[4.01978,44.358416],[4.017945,44.357687],[4.017344,44.357227],[4.01698,44.356605],[4.016905,44.355907],[4.016636,44.355577],[4.016443,44.355155],[4.016143,44.354956],[4.016347,44.354841],[4.016615,44.354848],[4.017066,44.355048],[4.017495,44.355079],[4.017645,44.354933],[4.01743,44.354365],[4.017302,44.353698],[4.017355,44.353115],[4.017731,44.352685],[4.01787,44.352394],[4.017945,44.352248],[4.018267,44.351634],[4.017559,44.351181],[4.017559,44.351181],[4.017688,44.351043],[4.01694,44.351063],[4.016173,44.351089],[4.014998,44.350971],[4.009992,44.350018],[4.009478,44.349716],[4.008754,44.349449],[4.007976,44.349056],[4.006147,44.349178],[4.005031,44.349674],[4.003497,44.350109],[4.002429,44.350323],[4.000297,44.351082],[3.99994,44.351728],[3.999582,44.352018],[3.999259,44.352436],[3.999118,44.352751],[3.998639,44.353018],[3.998545,44.353218],[3.998282,44.353378],[3.998036,44.353889],[3.997622,44.354137],[3.997445,44.354351],[3.997167,44.354408],[3.996501,44.35548],[3.996378,44.355885],[3.996228,44.355988],[3.996131,44.356167],[3.995858,44.356239],[3.99585,44.356251],[3.99585,44.35638],[3.99649,44.357068],[3.996598,44.357313],[3.995926,44.357446],[3.994226,44.356912],[3.993516,44.356899],[3.992377,44.356485],[3.991872,44.356485],[3.990957,44.356204],[3.990284,44.355523],[3.989407,44.355216],[3.988771,44.354348],[3.988043,44.354081],[3.986941,44.354441],[3.986212,44.354161],[3.984905,44.35384],[3.985054,44.354147],[3.985073,44.354735],[3.985614,44.355109],[3.985721,44.35539],[3.985364,44.35561],[3.985216,44.35576],[3.984858,44.355874],[3.984636,44.35605],[3.985297,44.357019],[3.985372,44.35754],[3.985932,44.357954],[3.986474,44.359009],[3.986362,44.35941],[3.985857,44.359623],[3.985297,44.35945],[3.984288,44.359436],[3.983578,44.358822],[3.98353,44.35878],[3.98297,44.358471],[3.98284,44.358292],[3.982,44.357719],[3.981759,44.356987],[3.98142,44.356819],[3.98108,44.35643],[3.98064,44.356232],[3.980211,44.356229],[3.979626,44.356907],[3.979131,44.35725],[3.978794,44.35738],[3.97833,44.358021],[3.97753,44.35849],[3.97688,44.35878],[3.97456,44.359551],[3.974435,44.359674],[3.974074,44.359783],[3.973266,44.360245],[3.972935,44.359963],[3.97202,44.359753],[3.97092,44.359741],[3.96941,44.359951],[3.96827,44.359879],[3.96724,44.359921],[3.96633,44.36018],[3.965835,44.360389],[3.965626,44.360522],[3.96522,44.360315],[3.964597,44.360333],[3.964412,44.360209],[3.96374,44.360279],[3.96398,44.360069],[3.96389,44.360069],[3.96339,44.36031],[3.96264,44.360149],[3.96203,44.360271],[3.9613,44.360512],[3.96081,44.36034],[3.96035,44.360359],[3.95984,44.360512],[3.95933,44.360569],[3.95903,44.360802],[3.95888,44.361031],[3.9588,44.361031],[3.95839,44.36068],[3.95827,44.360458],[3.95803,44.36039],[3.9578,44.36021],[3.95791,44.36005],[3.95905,44.359669],[3.95946,44.35915],[3.95984,44.35928],[3.96039,44.359119],[3.96116,44.359051],[3.96163,44.35891],[3.96125,44.358719],[3.96093,44.35844],[3.96028,44.358299],[3.95983,44.357891],[3.9594,44.35738],[3.95898,44.35725],[3.95859,44.3568],[3.95838,44.356449],[3.95755,44.356461],[3.95718,44.35656],[3.95629,44.356251],[3.9562,44.355831],[3.95597,44.355431],[3.95581,44.354771],[3.9556,44.35466],[3.95491,44.354832],[3.954166,44.355114],[3.95393,44.35471],[3.95355,44.354622],[3.95351,44.354],[3.95355,44.353512],[3.95342,44.353191],[3.95351,44.352638],[3.953111,44.352322],[3.95354,44.35186],[3.953689,44.351135],[3.9528,44.35133],[3.95198,44.351398],[3.95156,44.351521],[3.95083,44.35141],[3.95046,44.351601],[3.94991,44.351509],[3.94968,44.351292],[3.94962,44.35107],[3.94972,44.350929],[3.94959,44.350849],[3.94961,44.350479],[3.9494,44.350441],[3.94946,44.350182]]],"type":"MultiLineString"},"properties":{"geo_point":{"lon":4.0427637035528825,"lat":44.45843205374831},"name":"GRP Le Cévenol (Lozère - Ardèche - Gard) (2020)","code_gr":"GRP"}}]}