{"type":"FeatureCollection","features":[{"type":"Feature","geometry":{"coordinates":[[[55.472238,-21.131826],[55.472175,-21.131563],[55.471951,-21.131349],[55.472261,-21.13115],[55.472422,-21.130984],[55.4726,-21.130737],[55.472836,-21.130523],[55.473083,-21.130426],[55.473204,-21.130292],[55.473152,-21.130105],[55.473308,-21.130094],[55.473405,-21.129896],[55.47375,-21.129568],[55.473882,-21.129193],[55.474009,-21.12915],[55.474153,-21.129177],[55.474141,-21.129048],[55.473589,-21.128383],[55.472968,-21.128217],[55.472393,-21.127997],[55.472106,-21.127986],[55.472071,-21.127863],[55.472462,-21.127504],[55.472733,-21.127118],[55.47298,-21.127037],[55.473181,-21.12693],[55.473446,-21.126871],[55.473394,-21.126678],[55.473377,-21.126399],[55.473262,-21.126538],[55.472986,-21.126656],[55.472692,-21.12664],[55.472342,-21.126785],[55.47191,-21.127077],[55.471705,-21.126709],[55.471523,-21.126256],[55.471363,-21.126171],[55.471272,-21.125853],[55.471136,-21.125711],[55.471265,-21.125449],[55.471151,-21.125393],[55.470916,-21.125478],[55.470772,-21.125379],[55.470681,-21.125371],[55.470627,-21.125159],[55.470483,-21.124975],[55.470347,-21.124735],[55.470036,-21.124706],[55.469975,-21.124947],[55.470028,-21.125095],[55.469842,-21.125177],[55.46967,-21.125132],[55.469617,-21.125472],[55.469488,-21.125402],[55.46966,-21.125832],[55.469649,-21.126077],[55.469467,-21.126238],[55.469241,-21.126303],[55.469247,-21.126383],[55.468925,-21.126338],[55.468136,-21.126493],[55.468029,-21.126403],[55.467975,-21.126473],[55.467793,-21.126498],[55.467653,-21.126618],[55.466747,-21.126658],[55.466248,-21.126778],[55.466194,-21.126698],[55.466033,-21.126758],[55.465824,-21.126628],[55.465883,-21.126773],[55.465572,-21.126608],[55.465513,-21.126528],[55.465433,-21.126513],[55.465266,-21.126383],[55.465148,-21.126363],[55.465079,-21.126298],[55.464907,-21.126273],[55.464735,-21.126198],[55.464505,-21.126208],[55.464,-21.126007],[55.463517,-21.126047],[55.463399,-21.125952],[55.46334,-21.125402],[55.463249,-21.125277],[55.46334,-21.125042],[55.463614,-21.124716],[55.463711,-21.124481],[55.463593,-21.124281],[55.463571,-21.123991],[55.463646,-21.123696],[55.463834,-21.123365],[55.463807,-21.12329],[55.463609,-21.123165],[55.463501,-21.122795],[55.463367,-21.122745],[55.463158,-21.12275],[55.462895,-21.122925],[55.462563,-21.123015],[55.462332,-21.12308],[55.462117,-21.123005],[55.461903,-21.12303],[55.461731,-21.123035],[55.461533,-21.123208],[55.460958,-21.123256],[55.460707,-21.123465],[55.46061,-21.12341],[55.460347,-21.123566],[55.460009,-21.123646],[55.459682,-21.123676],[55.459483,-21.123751],[55.459435,-21.123696],[55.459119,-21.123731],[55.458942,-21.123701],[55.458384,-21.123761],[55.458293,-21.123681],[55.45811,-21.123701],[55.457837,-21.123636],[55.457633,-21.123535],[55.457402,-21.123345],[55.457418,-21.12325],[55.457273,-21.123085],[55.457171,-21.12274],[55.457219,-21.122495],[55.457064,-21.122355],[55.457005,-21.122495],[55.456898,-21.12242],[55.456855,-21.12247],[55.45678,-21.122445],[55.456688,-21.12269],[55.456597,-21.12247],[55.456586,-21.122881],[55.456468,-21.122675],[55.456468,-21.122961],[55.456431,-21.122911],[55.456399,-21.123146],[55.456249,-21.123061],[55.456286,-21.123246],[55.456436,-21.123341],[55.456452,-21.123426],[55.456619,-21.123531],[55.456554,-21.123571],[55.456726,-21.123811],[55.456586,-21.123771],[55.456581,-21.123846],[55.456275,-21.123706],[55.456313,-21.123821],[55.456055,-21.123766],[55.455878,-21.123796],[55.45598,-21.124016],[55.455696,-21.123991],[55.455932,-21.124142],[55.45583,-21.124162],[55.455927,-21.124387],[55.455868,-21.124567],[55.45575,-21.124637],[55.455401,-21.124567],[55.455219,-21.124632],[55.455004,-21.124622],[55.454875,-21.124637],[55.454741,-21.124547],[55.454714,-21.124447],[55.454875,-21.124312],[55.454827,-21.124247],[55.454741,-21.124222],[55.454747,-21.124146],[55.454618,-21.124096],[55.454602,-21.123956],[55.454495,-21.123916],[55.454366,-21.123931],[55.454269,-21.123871],[55.454253,-21.123751],[55.454039,-21.123741],[55.453695,-21.123581],[55.453384,-21.12333],[55.453325,-21.123365],[55.45318,-21.12323],[55.453132,-21.123255],[55.453052,-21.12321],[55.452912,-21.1228],[55.452864,-21.122565],[55.452746,-21.122605],[55.452558,-21.122204],[55.452419,-21.122425],[55.45236,-21.122234],[55.452166,-21.122164],[55.452182,-21.121929],[55.452134,-21.121619],[55.452032,-21.121634],[55.451989,-21.121514],[55.451614,-21.121619],[55.451598,-21.121479],[55.451507,-21.121529],[55.451555,-21.121149],[55.451244,-21.121159],[55.451265,-21.120953],[55.451136,-21.120983],[55.451249,-21.120608],[55.451201,-21.120383],[55.451024,-21.120148],[55.450992,-21.119737],[55.450836,-21.119502],[55.450793,-21.119227],[55.450702,-21.119297],[55.450654,-21.119217],[55.450536,-21.119237],[55.450493,-21.119047],[55.450391,-21.119117],[55.450385,-21.118917],[55.450133,-21.119007],[55.450085,-21.118857],[55.450348,-21.118647],[55.45031,-21.118606],[55.450021,-21.118787],[55.449763,-21.118822],[55.449844,-21.118722],[55.44972,-21.118707],[55.449854,-21.118617],[55.449693,-21.118591],[55.449844,-21.118436],[55.449661,-21.118421],[55.449978,-21.118211],[55.449779,-21.118201],[55.449876,-21.117966],[55.450123,-21.117736],[55.450171,-21.117511],[55.450064,-21.117626],[55.450085,-21.117421],[55.449967,-21.117541],[55.449999,-21.11727],[55.449822,-21.117385],[55.449978,-21.117095],[55.449916,-21.116976],[55.449986,-21.116836],[55.450243,-21.116676],[55.450587,-21.116321],[55.450603,-21.116221],[55.450522,-21.116246],[55.450597,-21.116085],[55.450495,-21.116136],[55.450506,-21.116045],[55.45041,-21.116111],[55.450426,-21.11606],[55.450329,-21.116095],[55.45034,-21.11604],[55.450249,-21.11607],[55.450292,-21.115975],[55.450147,-21.116025],[55.450259,-21.115835],[55.44997,-21.115975],[55.450152,-21.115785],[55.450141,-21.1157],[55.44997,-21.11574],[55.449937,-21.11568],[55.450023,-21.11554],[55.449932,-21.11558],[55.449964,-21.11548],[55.449809,-21.11553],[55.449916,-21.115375],[55.449895,-21.11532],[55.449734,-21.11543],[55.449659,-21.115385],[55.449728,-21.1152],[55.449669,-21.115115],[55.449541,-21.11513],[55.449707,-21.11496],[55.449621,-21.11493],[55.449793,-21.114774],[55.450442,-21.114594],[55.449943,-21.114474],[55.449675,-21.114349],[55.449723,-21.114279],[55.449659,-21.114219],[55.4496,-21.114074],[55.449465,-21.113924],[55.449192,-21.113698],[55.449031,-21.113478],[55.4488,-21.113333],[55.448591,-21.113173],[55.448242,-21.112978],[55.448065,-21.112683],[55.447593,-21.112477],[55.447427,-21.112818],[55.447317,-21.112762],[55.447145,-21.112567],[55.447167,-21.112817],[55.44715,-21.112942],[55.446952,-21.113243],[55.446791,-21.113523],[55.446528,-21.113583],[55.446362,-21.113818],[55.446099,-21.113923],[55.445579,-21.113773],[55.445359,-21.113788],[55.445176,-21.113733],[55.444903,-21.113778],[55.444279,-21.113366],[55.444049,-21.113259],[55.444008,-21.113093],[55.443399,-21.112519],[55.443215,-21.112294],[55.442789,-21.112133],[55.442674,-21.111972],[55.442456,-21.111612],[55.442071,-21.111468],[55.44141,-21.111634],[55.440783,-21.111435],[55.440605,-21.1115],[55.44049,-21.111478],[55.440444,-21.111586],[55.440242,-21.11172],[55.44026,-21.111795],[55.440426,-21.111923],[55.440518,-21.112369],[55.440444,-21.11253],[55.440472,-21.112658],[55.440398,-21.112739],[55.440432,-21.112851],[55.440346,-21.1129],[55.440357,-21.113007],[55.440237,-21.11298],[55.440288,-21.113125],[55.440185,-21.113259],[55.440064,-21.113248],[55.44003,-21.113425],[55.439921,-21.11335],[55.439662,-21.113414],[55.439466,-21.113575],[55.439098,-21.113699],[55.438765,-21.11387],[55.438656,-21.113656],[55.438362,-21.113538],[55.437966,-21.113586],[55.437443,-21.113838],[55.437115,-21.113785],[55.436931,-21.113688],[55.436747,-21.113715],[55.436488,-21.113624],[55.436327,-21.113463],[55.436281,-21.113296],[55.435948,-21.11342],[55.435574,-21.113366],[55.435309,-21.113404],[55.435344,-21.11327],[55.435252,-21.113329],[55.435275,-21.113227],[55.435131,-21.113361],[55.435206,-21.113178],[55.435097,-21.113243],[55.43512,-21.113152],[55.434861,-21.113162],[55.434453,-21.113243],[55.434591,-21.113141],[55.434355,-21.113098],[55.4342,-21.113195],[55.434056,-21.113093],[55.434217,-21.113018],[55.433907,-21.112926],[55.43378,-21.112937],[55.433751,-21.113082],[55.4337,-21.113152],[55.433636,-21.113339],[55.433458,-21.113077],[55.432837,-21.112948],[55.432918,-21.112857],[55.432699,-21.112819],[55.432785,-21.112647],[55.432699,-21.112487],[55.432601,-21.11261],[55.432394,-21.112658],[55.432366,-21.112503],[55.43213,-21.112706],[55.432159,-21.112546],[55.431825,-21.11276],[55.431848,-21.112631],[55.431722,-21.112658],[55.431883,-21.112508],[55.431624,-21.112556],[55.431958,-21.112288],[55.431687,-21.112331],[55.431906,-21.112052],[55.431935,-21.11195],[55.431705,-21.112052],[55.431808,-21.111886],[55.431756,-21.111897],[55.431808,-21.111827],[55.431705,-21.111827],[55.431814,-21.111655],[55.43167,-21.111682],[55.431779,-21.11151],[55.431728,-21.111473],[55.431774,-21.111317],[55.431607,-21.111339],[55.431693,-21.111124],[55.431538,-21.111146],[55.431624,-21.110974],[55.431475,-21.110931],[55.431521,-21.110781],[55.431664,-21.110663],[55.43148,-21.110561],[55.431601,-21.110448],[55.431544,-21.1104],[55.431917,-21.110363],[55.432021,-21.110245],[55.432331,-21.110068],[55.432354,-21.109982],[55.432452,-21.109955],[55.432406,-21.109821],[55.432578,-21.109901],[55.432573,-21.109853],[55.432918,-21.109982],[55.432716,-21.109799],[55.432975,-21.109858],[55.432992,-21.109612],[55.433096,-21.109327],[55.432969,-21.109167],[55.433067,-21.109075],[55.433033,-21.108995],[55.433182,-21.109022],[55.433107,-21.10892],[55.433211,-21.108909],[55.43328,-21.108695],[55.433153,-21.108711],[55.433125,-21.108582],[55.432981,-21.108512],[55.43282,-21.108523],[55.432774,-21.108357],[55.432596,-21.108394],[55.432624,-21.108287],[55.43255,-21.108271],[55.432619,-21.10811],[55.432458,-21.108174],[55.432515,-21.107949],[55.432435,-21.107938],[55.432492,-21.107831],[55.432348,-21.107788],[55.432412,-21.107638],[55.432377,-21.107557],[55.432285,-21.107584],[55.432348,-21.107418],[55.432147,-21.107364],[55.43232,-21.1073],[55.43217,-21.107198],[55.432435,-21.106946],[55.432486,-21.106774],[55.432521,-21.106431],[55.432481,-21.106217],[55.432596,-21.105922],[55.432565,-21.105687],[55.432696,-21.105414],[55.432696,-21.105255],[55.432842,-21.105073],[55.432948,-21.10461],[55.433159,-21.104428],[55.433322,-21.104102],[55.433696,-21.103578],[55.434094,-21.103503],[55.434566,-21.103449],[55.434883,-21.103343],[55.435184,-21.103283],[55.435314,-21.1031],[55.435419,-21.102721],[55.435688,-21.102516],[55.43572,-21.102342],[55.43598,-21.102145],[55.435972,-21.101105],[55.436054,-21.100787],[55.435802,-21.100263],[55.435932,-21.099937],[55.435989,-21.099672],[55.4362,-21.099383],[55.43646,-21.099171],[55.436476,-21.099027],[55.436639,-21.098822],[55.436818,-21.098769],[55.436932,-21.098686],[55.437127,-21.09867],[55.437127,-21.098579],[55.437306,-21.098519],[55.437414,-21.098224],[55.437437,-21.098042],[55.437534,-21.097656],[55.437471,-21.097479],[55.437644,-21.096899],[55.437741,-21.096765],[55.437764,-21.096524],[55.437851,-21.09639],[55.437839,-21.09625],[55.437954,-21.09603],[55.437983,-21.095773],[55.438029,-21.094995],[55.438196,-21.09448],[55.438362,-21.094174],[55.438483,-21.09403],[55.438414,-21.09389],[55.4385,-21.093815],[55.438403,-21.093541],[55.438575,-21.093456],[55.438661,-21.093263],[55.438811,-21.093161],[55.438788,-21.093021],[55.438702,-21.092874],[55.438519,-21.092739],[55.43853,-21.092593],[55.438229,-21.092698],[55.438192,-21.092854],[55.437967,-21.092864],[55.437596,-21.093189],[55.437398,-21.093129],[55.437323,-21.092989],[55.437323,-21.092774],[55.437189,-21.092578],[55.43684,-21.092463],[55.436727,-21.092313],[55.43669,-21.092193],[55.43654,-21.092038],[55.436561,-21.091953],[55.436765,-21.091848],[55.436658,-21.091788],[55.436529,-21.091798],[55.43647,-21.091753],[55.436609,-21.091652],[55.436695,-21.091232],[55.436636,-21.091052],[55.436642,-21.090922],[55.436491,-21.090967],[55.436422,-21.090827],[55.436271,-21.090772],[55.436041,-21.090842],[55.435891,-21.090797],[55.435821,-21.090727],[55.435687,-21.090681],[55.435569,-21.090561],[55.435435,-21.090511],[55.435161,-21.090556],[55.4347,-21.090737],[55.434426,-21.090737],[55.434453,-21.090616],[55.434254,-21.090646],[55.434367,-21.090451],[55.434324,-21.090351],[55.43419,-21.090296],[55.434136,-21.090236],[55.433911,-21.090071],[55.433766,-21.089886],[55.433756,-21.089771],[55.433423,-21.089896],[55.433348,-21.089896],[55.433278,-21.090016],[55.433214,-21.089886],[55.433187,-21.089941],[55.433123,-21.089871],[55.43309,-21.089906],[55.433031,-21.089846],[55.432988,-21.089851],[55.432886,-21.0897],[55.432661,-21.0897],[55.432565,-21.08954],[55.432109,-21.089315],[55.431765,-21.089315],[55.431905,-21.08908],[55.431798,-21.0888],[55.431283,-21.088449],[55.431245,-21.088269],[55.431331,-21.088089],[55.43132,-21.087989],[55.431599,-21.088019],[55.431551,-21.087874],[55.43125,-21.087773],[55.431159,-21.087809],[55.431143,-21.087718],[55.431025,-21.087779],[55.431057,-21.087683],[55.430778,-21.087859],[55.430564,-21.087904],[55.430113,-21.087819],[55.429974,-21.087693],[55.429936,-21.087563],[55.429797,-21.087493],[55.429695,-21.087383],[55.429389,-21.087308],[55.428681,-21.086968],[55.428278,-21.086838],[55.428209,-21.086727],[55.428144,-21.086437],[55.427914,-21.086087],[55.42764,-21.086067],[55.42735,-21.085826],[55.427259,-21.085691],[55.427195,-21.085546],[55.4269,-21.085416],[55.426884,-21.085231],[55.42683,-21.085121],[55.427002,-21.085011],[55.427104,-21.08484],[55.427082,-21.084795],[55.427297,-21.084765],[55.427157,-21.08464],[55.427399,-21.0847],[55.427227,-21.084525],[55.427377,-21.08452],[55.42727,-21.084365],[55.427039,-21.08419],[55.426996,-21.084045],[55.427066,-21.083909],[55.427034,-21.083779],[55.427104,-21.083699],[55.426991,-21.083579],[55.427039,-21.083509],[55.426873,-21.083429],[55.427093,-21.083344],[55.426943,-21.083194],[55.426986,-21.083069],[55.426996,-21.082903],[55.427109,-21.082843],[55.427179,-21.082753],[55.427313,-21.082868],[55.427656,-21.082733],[55.427667,-21.082378],[55.427506,-21.081992],[55.427377,-21.082037],[55.427297,-21.082128],[55.426953,-21.081672],[55.426755,-21.081677],[55.426347,-21.081537],[55.426396,-21.081382],[55.426564,-21.081223],[55.426702,-21.080575],[55.426881,-21.080274],[55.426709,-21.080261],[55.426583,-21.080076],[55.426451,-21.080027],[55.426286,-21.080021],[55.426458,-21.079879],[55.426167,-21.079928],[55.426055,-21.080039],[55.425963,-21.080052],[55.425896,-21.079836],[55.425672,-21.079731],[55.425474,-21.079466],[55.425262,-21.079368],[55.424998,-21.079497],[55.424827,-21.079472],[55.424655,-21.079349],[55.424595,-21.079207],[55.424364,-21.079195],[55.424133,-21.078869],[55.424344,-21.078425],[55.423895,-21.078326],[55.423466,-21.077525],[55.42357,-21.077475],[55.423657,-21.077297],[55.424082,-21.076796],[55.424316,-21.076532],[55.42443,-21.07633],[55.424727,-21.076323],[55.424893,-21.076465],[55.425183,-21.07644],[55.425467,-21.076274],[55.425612,-21.075818],[55.425685,-21.076077],[55.4262,-21.075658],[55.426247,-21.075374],[55.426412,-21.075196],[55.42659,-21.074752],[55.42698,-21.074074],[55.427449,-21.073797],[55.427701,-21.073838],[55.428112,-21.074135],[55.428381,-21.074174],[55.428827,-21.074472],[55.429032,-21.074657],[55.429195,-21.074657],[55.42923,-21.074762],[55.429336,-21.074749],[55.429357,-21.074848],[55.429471,-21.074841],[55.429499,-21.074914],[55.429549,-21.074947],[55.429584,-21.075172],[55.429803,-21.075271],[55.429775,-21.075059],[55.430079,-21.075238],[55.430384,-21.075317],[55.430511,-21.075489],[55.430688,-21.075608],[55.430719,-21.075475],[55.430805,-21.07561],[55.430827,-21.07548],[55.430907,-21.075595],[55.431041,-21.075435],[55.431159,-21.07565],[55.431224,-21.07554],[55.431438,-21.07549],[55.43146,-21.075786],[55.431658,-21.075676],[55.431862,-21.075671],[55.43184,-21.075811],[55.431932,-21.075851],[55.432066,-21.075816],[55.432216,-21.075711],[55.432237,-21.075981],[55.432528,-21.07594],[55.432635,-21.076301],[55.43312,-21.075855],[55.433325,-21.076585],[55.433295,-21.076811],[55.433363,-21.076967],[55.433591,-21.077052],[55.433712,-21.077236],[55.434129,-21.077448],[55.434531,-21.077823],[55.434782,-21.07788],[55.434683,-21.078085],[55.434933,-21.078333],[55.435449,-21.078283],[55.436018,-21.078368],[55.436602,-21.078482],[55.436931,-21.078804],[55.437264,-21.078929],[55.437559,-21.078964],[55.437688,-21.079134],[55.437886,-21.07943],[55.438256,-21.07936],[55.438551,-21.079239],[55.438691,-21.079054],[55.439667,-21.078844],[55.439866,-21.078824],[55.440204,-21.078609],[55.440552,-21.078759],[55.440944,-21.078649],[55.44148,-21.078689],[55.442006,-21.078569],[55.442666,-21.078529],[55.44288,-21.078589],[55.442988,-21.078664],[55.443149,-21.078659],[55.443685,-21.078514],[55.443905,-21.078338],[55.444297,-21.078168],[55.44472,-21.078203],[55.444956,-21.078283],[55.445166,-21.078278],[55.445369,-21.078353],[55.445729,-21.078273],[55.445917,-21.078073],[55.446035,-21.078028],[55.446196,-21.078048],[55.446475,-21.077908],[55.447311,-21.078333],[55.447574,-21.078223],[55.447644,-21.078083],[55.447773,-21.078028],[55.447757,-21.077953],[55.44802,-21.077903],[55.448159,-21.077818],[55.448411,-21.077758],[55.448508,-21.077653],[55.448534,-21.077578],[55.448588,-21.077503],[55.44898,-21.077237],[55.449066,-21.077087],[55.449345,-21.077052],[55.449446,-21.076867],[55.449645,-21.076772],[55.449752,-21.076562],[55.449951,-21.076406],[55.450063,-21.076216],[55.450321,-21.075926],[55.450589,-21.075781],[55.450755,-21.075525],[55.450798,-21.075205],[55.450723,-21.07487],[55.450841,-21.074524],[55.451083,-21.074344],[55.45126,-21.073909],[55.451565,-21.073999],[55.451775,-21.074029],[55.451603,-21.073858],[55.451522,-21.073648],[55.451372,-21.073448],[55.451544,-21.073508],[55.451737,-21.073683],[55.451946,-21.073753],[55.451657,-21.073548],[55.451437,-21.073218],[55.451442,-21.072982],[55.451249,-21.072487],[55.45104,-21.072352],[55.450948,-21.072242],[55.45083,-21.072162],[55.450857,-21.071966],[55.450702,-21.071656],[55.450852,-21.071356],[55.450755,-21.07088],[55.450514,-21.07059],[55.450144,-21.070279],[55.44979,-21.069674],[55.44972,-21.069504],[55.449527,-21.069338],[55.449559,-21.069043],[55.449463,-21.068317],[55.449532,-21.068132],[55.449414,-21.067897],[55.449446,-21.067787],[55.449607,-21.067726],[55.449838,-21.067176],[55.449741,-21.067056],[55.449817,-21.067011],[55.450224,-21.067066],[55.450315,-21.06689],[55.450519,-21.06682],[55.450584,-21.066545],[55.450825,-21.066235],[55.451126,-21.06613],[55.451077,-21.065764],[55.451254,-21.065364],[55.451099,-21.064978],[55.451099,-21.064778],[55.450788,-21.064563],[55.450611,-21.064262],[55.450541,-21.064242],[55.450541,-21.064082],[55.450755,-21.063977],[55.450965,-21.063602],[55.451281,-21.063171],[55.451303,-21.063001],[55.451222,-21.062841],[55.451437,-21.0626],[55.451737,-21.0624],[55.45207,-21.062235],[55.452488,-21.061905],[55.452467,-21.061764],[55.452703,-21.061659],[55.452821,-21.061404],[55.452928,-21.061264],[55.452971,-21.061034],[55.453185,-21.060973],[55.453357,-21.060788],[55.45332,-21.060638],[55.453427,-21.060723],[55.4534,-21.060613],[55.453518,-21.060693],[55.453502,-21.060593],[55.453598,-21.060488],[55.453749,-21.060473],[55.453727,-21.060283],[55.453652,-21.060147],[55.453829,-21.060027],[55.453835,-21.059822],[55.453759,-21.059667],[55.453926,-21.059492],[55.45377,-21.059266],[55.454097,-21.058981],[55.454189,-21.058851],[55.454333,-21.058781],[55.454403,-21.058681],[55.454156,-21.059156],[55.454569,-21.058826],[55.454725,-21.05838],[55.454822,-21.058395],[55.454902,-21.05836],[55.455009,-21.058395],[55.455084,-21.058375],[55.455165,-21.058395],[55.455358,-21.058365],[55.455605,-21.058175],[55.455766,-21.05813],[55.455911,-21.05802],[55.455793,-21.05777],[55.455814,-21.057514],[55.455717,-21.057379],[55.455723,-21.057274],[55.455798,-21.057329],[55.455953,-21.057119],[55.455857,-21.057069],[55.455621,-21.057014],[55.45583,-21.056979],[55.455599,-21.056873],[55.455814,-21.056893],[55.45561,-21.056763],[55.45598,-21.056788],[55.45561,-21.056673],[55.455379,-21.056678],[55.455208,-21.056548],[55.454977,-21.056102],[55.454763,-21.056012],[55.454591,-21.055997],[55.454473,-21.055777],[55.454687,-21.055487],[55.454709,-21.055186],[55.454618,-21.054986],[55.454441,-21.054906],[55.454645,-21.054836],[55.454768,-21.054495],[55.454859,-21.05437],[55.454848,-21.054235],[55.454945,-21.054085],[55.454956,-21.053915],[55.455202,-21.053544],[55.455084,-21.053289],[55.455219,-21.053079],[55.455063,-21.052768],[55.455084,-21.052653],[55.455004,-21.052568],[55.454999,-21.052338],[55.454929,-21.052012],[55.454993,-21.051847],[55.455084,-21.052102],[55.455181,-21.052233],[55.455272,-21.052198],[55.455288,-21.051897],[55.455197,-21.051472],[55.455106,-21.051311],[55.455176,-21.051151],[55.455052,-21.050981],[55.455133,-21.05056],[55.455058,-21.05023],[55.455084,-21.049945],[55.455063,-21.049709],[55.455272,-21.049164],[55.455186,-21.048888],[55.455186,-21.048593],[55.455335,-21.048561],[55.455116,-21.047413],[55.455214,-21.047193],[55.455565,-21.046898],[55.455841,-21.046554],[55.455944,-21.046549],[55.455973,-21.046705],[55.455697,-21.047102],[55.455645,-21.047338],[55.455737,-21.047654],[55.455846,-21.048314],[55.456013,-21.048846],[55.456117,-21.049345],[55.456289,-21.049618],[55.45691,-21.050273],[55.457255,-21.050445],[55.457433,-21.050396],[55.457571,-21.050273],[55.4576,-21.050133],[55.457071,-21.049366],[55.456715,-21.049125],[55.456732,-21.048695],[55.456646,-21.048202],[55.456939,-21.047783],[55.457336,-21.047424],[55.457324,-21.047273],[55.457008,-21.046018],[55.456761,-21.045336],[55.457146,-21.044392],[55.457387,-21.044011],[55.457732,-21.043737],[55.457934,-21.043759],[55.458434,-21.044038],[55.45848,-21.044167],[55.458393,-21.044226],[55.457968,-21.044086],[55.45787,-21.044124],[55.457801,-21.044269],[55.457807,-21.044569],[55.457784,-21.044784],[55.457819,-21.045079],[55.457686,-21.045471],[55.457704,-21.045589],[55.457824,-21.045578],[55.458048,-21.045031],[55.458169,-21.045068],[55.458008,-21.045653],[55.4581,-21.045728],[55.458457,-21.045159],[55.45894,-21.044827],[55.459302,-21.044435],[55.460021,-21.044231],[55.460164,-21.044097],[55.460331,-21.043791],[55.46067,-21.043372],[55.460848,-21.043238],[55.460952,-21.043367],[55.460963,-21.043485],[55.460682,-21.043721],[55.460561,-21.044413],[55.460337,-21.044784],[55.460601,-21.045159],[55.460774,-21.04553],[55.460705,-21.045814],[55.460739,-21.045975],[55.460843,-21.046034],[55.46094,-21.045986],[55.461124,-21.045728],[55.461308,-21.045615],[55.461527,-21.045594],[55.461487,-21.045755],[55.46159,-21.046002],[55.461475,-21.046168],[55.461527,-21.046485],[55.461354,-21.046689],[55.461176,-21.047027],[55.461084,-21.047139],[55.460986,-21.047349],[55.46105,-21.047633],[55.460871,-21.047606],[55.460705,-21.04774],[55.460745,-21.047944],[55.460705,-21.048148],[55.460797,-21.048255],[55.460958,-21.048384],[55.460929,-21.048604],[55.461124,-21.048781],[55.461372,-21.048808],[55.461469,-21.049151],[55.461745,-21.049312],[55.462136,-21.049431],[55.462481,-21.049613],[55.462487,-21.04986],[55.462763,-21.050166],[55.462941,-21.050117],[55.46301,-21.050289],[55.462895,-21.050434],[55.462964,-21.050557],[55.463137,-21.050541],[55.463269,-21.050455],[55.463476,-21.050466],[55.46393,-21.0503],[55.464344,-21.050273],[55.464482,-21.050616],[55.464735,-21.050713],[55.464896,-21.051024],[55.46504,-21.05104],[55.465143,-21.051255],[55.46535,-21.051341],[55.465431,-21.051491],[55.465615,-21.051512],[55.46596,-21.05163],[55.466178,-21.051663],[55.466552,-21.052092],[55.466816,-21.052151],[55.466903,-21.052301],[55.466885,-21.052489],[55.46723,-21.052425],[55.467366,-21.052496],[55.467805,-21.052276],[55.468073,-21.052268],[55.468285,-21.052207],[55.46848,-21.052238],[55.468813,-21.052443],[55.468935,-21.05264],[55.46935,-21.052898],[55.469488,-21.053148],[55.468569,-21.055258],[55.468431,-21.055797],[55.468699,-21.056176],[55.468828,-21.056137],[55.469155,-21.056203],[55.469209,-21.056318],[55.469332,-21.056238],[55.469413,-21.056303],[55.469247,-21.056443],[55.469375,-21.056493],[55.469338,-21.056633],[55.469676,-21.056898],[55.46996,-21.056763],[55.470057,-21.057024],[55.470201,-21.057174],[55.47033,-21.057469],[55.470217,-21.057549],[55.470099,-21.057754],[55.469885,-21.05795],[55.469885,-21.058065],[55.470051,-21.05812],[55.470357,-21.05804],[55.470614,-21.05815],[55.471136,-21.058646],[55.471189,-21.058943],[55.471447,-21.058907],[55.471492,-21.058539],[55.471636,-21.058483],[55.471614,-21.058284],[55.471697,-21.058143],[55.474572,-21.058419],[55.478178,-21.058891],[55.478371,-21.058741],[55.478361,-21.05847],[55.478565,-21.05812],[55.478747,-21.05801],[55.478919,-21.057759],[55.479316,-21.057469],[55.479423,-21.057199],[55.479573,-21.057069],[55.479798,-21.056648],[55.480206,-21.056328],[55.480501,-21.056137],[55.480442,-21.056097],[55.480544,-21.056057],[55.480431,-21.056002],[55.480678,-21.055867],[55.480469,-21.055792],[55.480485,-21.055582],[55.48056,-21.055286],[55.480742,-21.055121],[55.480882,-21.054886],[55.480898,-21.054751],[55.481091,-21.054696],[55.481268,-21.054576],[55.481225,-21.054465],[55.481354,-21.054265],[55.481375,-21.054105],[55.481359,-21.053985],[55.481408,-21.05384],[55.48167,-21.053739],[55.482003,-21.053429],[55.482207,-21.053324],[55.482357,-21.053309],[55.482513,-21.053254],[55.482706,-21.053269],[55.482926,-21.053204],[55.483189,-21.053274],[55.483269,-21.053224],[55.483258,-21.053174],[55.483108,-21.053124],[55.482894,-21.053029],[55.482711,-21.052923],[55.482582,-21.052938],[55.482459,-21.052858],[55.482352,-21.052798],[55.482218,-21.052773],[55.48211,-21.052773],[55.482067,-21.052728],[55.4821,-21.052563],[55.482277,-21.052453],[55.482357,-21.052623],[55.482454,-21.052653],[55.482711,-21.052563],[55.48314,-21.052564],[55.483416,-21.052496],[55.483628,-21.052587],[55.483798,-21.052556],[55.484091,-21.052632],[55.484335,-21.052754],[55.484278,-21.052602],[55.484327,-21.052397],[55.483888,-21.052139],[55.484303,-21.052071],[55.484652,-21.052177],[55.48488,-21.052094],[55.485091,-21.052192],[55.485221,-21.052207],[55.485286,-21.052344],[55.485254,-21.052678],[55.485425,-21.052814],[55.485433,-21.052974],[55.485563,-21.052989],[55.485961,-21.05286],[55.486392,-21.053634],[55.486693,-21.053892],[55.486465,-21.054165],[55.486628,-21.054317],[55.486953,-21.054249],[55.487279,-21.054271],[55.488222,-21.053869],[55.488555,-21.053808],[55.489002,-21.053922],[55.489515,-21.053945],[55.489693,-21.053991],[55.489913,-21.053945],[55.490165,-21.054082],[55.490336,-21.054044],[55.490344,-21.053922],[55.490637,-21.053975],[55.491076,-21.054188],[55.491352,-21.054036],[55.491856,-21.054211],[55.491946,-21.054165],[55.492336,-21.054195],[55.492619,-21.054025],[55.492952,-21.054025],[55.493231,-21.05421],[55.493515,-21.054125],[55.493692,-21.054155],[55.493896,-21.054105],[55.494357,-21.054335],[55.494663,-21.05434],[55.494808,-21.054265],[55.494626,-21.05415],[55.49455,-21.05397],[55.494776,-21.05379],[55.494969,-21.053895],[55.495001,-21.054025],[55.495157,-21.0541],[55.495323,-21.05408],[55.495457,-21.054175],[55.495505,-21.05428],[55.49565,-21.05435],[55.495806,-21.05429],[55.496026,-21.05442],[55.49639,-21.05419],[55.496546,-21.05416],[55.496653,-21.05424],[55.496793,-21.05425],[55.496889,-21.054155],[55.497141,-21.05428],[55.497329,-21.054225],[55.497635,-21.054265],[55.497785,-21.05423],[55.497946,-21.054335],[55.498161,-21.054335],[55.498381,-21.05442],[55.498681,-21.054611],[55.498853,-21.054621],[55.49889,-21.054571],[55.498735,-21.0544],[55.498778,-21.05435],[55.498906,-21.05444],[55.49911,-21.05436],[55.499368,-21.0541],[55.499389,-21.054395],[55.499534,-21.05427],[55.499598,-21.054165],[55.499636,-21.05428],[55.499663,-21.05446],[55.499738,-21.054576],[55.499647,-21.054621],[55.499614,-21.054771],[55.499679,-21.054836],[55.499813,-21.054676],[55.500044,-21.054716],[55.500124,-21.054901],[55.500573,-21.05547],[55.50063,-21.055759],[55.500817,-21.055941],[55.500827,-21.056027],[55.500913,-21.056027],[55.500897,-21.056183],[55.500966,-21.056273],[55.500859,-21.056463],[55.500795,-21.056688],[55.500918,-21.056658],[55.500795,-21.056838],[55.500784,-21.056964],[55.500682,-21.057134],[55.500966,-21.056858],[55.501186,-21.056903],[55.501449,-21.056848],[55.501524,-21.057019],[55.501369,-21.057229],[55.501417,-21.057714],[55.501556,-21.058045],[55.501927,-21.058295],[55.502254,-21.0584],[55.502608,-21.058866],[55.502737,-21.059051],[55.502973,-21.059076],[55.50316,-21.059171],[55.503289,-21.059136],[55.503284,-21.058871],[55.503348,-21.058881],[55.503429,-21.059141],[55.503852,-21.059487],[55.503927,-21.059432],[55.503616,-21.059041],[55.503691,-21.059001],[55.503922,-21.059251],[55.504201,-21.059407],[55.504335,-21.059552],[55.504324,-21.059722],[55.504378,-21.060037],[55.504818,-21.060358],[55.504931,-21.060348],[55.504915,-21.060102],[55.505016,-21.060107],[55.505242,-21.060543],[55.50529,-21.060518],[55.505311,-21.060162],[55.505387,-21.060067],[55.505655,-21.059922],[55.505698,-21.059982],[55.505633,-21.060082],[55.505489,-21.060147],[55.505478,-21.060248],[55.505687,-21.060623],[55.505735,-21.060928],[55.505853,-21.061099],[55.506063,-21.061289],[55.50602,-21.061599],[55.506143,-21.061804],[55.506293,-21.061885],[55.506309,-21.061789],[55.506282,-21.061644],[55.506336,-21.061314],[55.506325,-21.061194],[55.506374,-21.061164],[55.506878,-21.061349],[55.506926,-21.061504],[55.506808,-21.061905],[55.507071,-21.062175],[55.507221,-21.062195],[55.507699,-21.06209],[55.508155,-21.062005],[55.508471,-21.06204],[55.508595,-21.06213],[55.508651,-21.062801],[55.508324,-21.063191],[55.50834,-21.063325],[55.508484,-21.063361],[55.508871,-21.063063],[55.509167,-21.063007],[55.509478,-21.063063],[55.510039,-21.06353],[55.510479,-21.063686],[55.511177,-21.064267],[55.511276,-21.06455],[55.511344,-21.064819],[55.511526,-21.064939],[55.512148,-21.065159],[55.512672,-21.065732],[55.513423,-21.066256],[55.514037,-21.066617],[55.514067,-21.066794],[55.513938,-21.066985],[55.5136,-21.067241],[55.513873,-21.067421],[55.514131,-21.067341],[55.51419,-21.067426],[55.51427,-21.067251],[55.514415,-21.067106],[55.514447,-21.067261],[55.514619,-21.067101],[55.514694,-21.067266],[55.514978,-21.067186],[55.515198,-21.067216],[55.51545,-21.067161],[55.515622,-21.067026],[55.515981,-21.066966],[55.516373,-21.06678],[55.516459,-21.066645],[55.516748,-21.06648],[55.516915,-21.066515],[55.517076,-21.066675],[55.517403,-21.0667],[55.517542,-21.066865],[55.517794,-21.066895],[55.518009,-21.06671],[55.517923,-21.06649],[55.52044,-21.064883],[55.520809,-21.064658],[55.520809,-21.064658],[55.522048,-21.065364],[55.522354,-21.065549],[55.522837,-21.065454],[55.523368,-21.065654],[55.523749,-21.065494],[55.523776,-21.065314],[55.523878,-21.065394],[55.524232,-21.065344],[55.524403,-21.065419],[55.524575,-21.065419],[55.524688,-21.065269],[55.524854,-21.065289],[55.525203,-21.065459],[55.525503,-21.065519],[55.525761,-21.065434],[55.525964,-21.065244],[55.52627,-21.065038],[55.526388,-21.064853],[55.526399,-21.064668],[55.52656,-21.064237],[55.526801,-21.063972],[55.526962,-21.063672],[55.527263,-21.063351],[55.527322,-21.063056],[55.527402,-21.062971],[55.527434,-21.062846],[55.527665,-21.062711],[55.527649,-21.06265],[55.527858,-21.0624],[55.528024,-21.062355],[55.528126,-21.062265],[55.528266,-21.062265],[55.528437,-21.06216],[55.528615,-21.0622],[55.528491,-21.062335],[55.528454,-21.062495],[55.528159,-21.06267],[55.52818,-21.062761],[55.528389,-21.062751],[55.528872,-21.06262],[55.528813,-21.062726],[55.528899,-21.062741],[55.529044,-21.062605],[55.529237,-21.06256],[55.529408,-21.06237],[55.529827,-21.062185],[55.529752,-21.062285],[55.529886,-21.062285],[55.5301,-21.062065],[55.530111,-21.06215],[55.530186,-21.062025],[55.530149,-21.062195],[55.530444,-21.06206],[55.530165,-21.06238],[55.530508,-21.06217],[55.530503,-21.062325],[55.530986,-21.06196],[55.531442,-21.061569],[55.531715,-21.061219],[55.531672,-21.061409],[55.531828,-21.061254],[55.531721,-21.061589],[55.53194,-21.061279],[55.532058,-21.061194],[55.532005,-21.061399],[55.532375,-21.061104],[55.532429,-21.061149],[55.532536,-21.060908],[55.532885,-21.060758],[55.532992,-21.060558],[55.533029,-21.060603],[55.533263,-21.060356],[55.53336,-21.060136],[55.533681,-21.059845],[55.53396,-21.059295],[55.534046,-21.059515],[55.534089,-21.059215],[55.534508,-21.058774],[55.534583,-21.058544],[55.534711,-21.058474],[55.534969,-21.058093],[55.535334,-21.058023],[55.535119,-21.058293],[55.53513,-21.058684],[55.535237,-21.058444],[55.535419,-21.058333],[55.535409,-21.058504],[55.535645,-21.058404],[55.535387,-21.058884],[55.535741,-21.058634],[55.535698,-21.058804],[55.535505,-21.058944],[55.535409,-21.059355],[55.535666,-21.059235],[55.535784,-21.059004],[55.535784,-21.059275],[55.535656,-21.059435],[55.535763,-21.059495],[55.535527,-21.059825],[55.535656,-21.059775],[55.535527,-21.060116],[55.535602,-21.060546],[55.53572,-21.060646],[55.535623,-21.060837],[55.535816,-21.060877],[55.535977,-21.060626],[55.536289,-21.060646],[55.536589,-21.060406],[55.536675,-21.060446],[55.536643,-21.060576],[55.536718,-21.060736],[55.536342,-21.061147],[55.536492,-21.061648],[55.536492,-21.061648],[55.536289,-21.061758],[55.534679,-21.062989],[55.534647,-21.06344],[55.534186,-21.064141],[55.534368,-21.064521],[55.53469,-21.064801],[55.534465,-21.065382],[55.534261,-21.065512],[55.534035,-21.065452],[55.533821,-21.065262],[55.533349,-21.065032],[55.532684,-21.064992],[55.532405,-21.064841],[55.532362,-21.064711],[55.53219,-21.064911],[55.532115,-21.065272],[55.531793,-21.065672],[55.531503,-21.065813],[55.531021,-21.066824],[55.531096,-21.067414],[55.531246,-21.067555],[55.531332,-21.068426],[55.531192,-21.068776],[55.5313,-21.068946],[55.531192,-21.068976],[55.531128,-21.069297],[55.53131,-21.069667],[55.531224,-21.069747],[55.53116,-21.070348],[55.531246,-21.070638],[55.531117,-21.071149],[55.531149,-21.071639],[55.531074,-21.071829],[55.531214,-21.07214],[55.531246,-21.07251],[55.531064,-21.07269],[55.531031,-21.073151],[55.530506,-21.073672],[55.530302,-21.074122],[55.529819,-21.075634],[55.529572,-21.075914],[55.529336,-21.076465],[55.529057,-21.076855],[55.528853,-21.076965],[55.528467,-21.077436],[55.528178,-21.077646],[55.528059,-21.077896],[55.52807,-21.078257],[55.528231,-21.078447],[55.52822,-21.078637],[55.528092,-21.078757],[55.528049,-21.078957],[55.527845,-21.079048],[55.527437,-21.079348],[55.527169,-21.079408],[55.527008,-21.079828],[55.526751,-21.080049],[55.526429,-21.080169],[55.526332,-21.080759],[55.525946,-21.08139],[55.525721,-21.081831],[55.52512,-21.082571],[55.524658,-21.082461],[55.52454,-21.082491],[55.524347,-21.082361],[55.524133,-21.082421],[55.524143,-21.082571],[55.523832,-21.082721],[55.523543,-21.082571],[55.523446,-21.082631],[55.523478,-21.082832],[55.523382,-21.082922],[55.523392,-21.083172],[55.523274,-21.083212],[55.523038,-21.083462],[55.523038,-21.083632],[55.522813,-21.083863],[55.522867,-21.084103],[55.522609,-21.084844],[55.522695,-21.085104],[55.522609,-21.085474],[55.522781,-21.085985],[55.522491,-21.086836],[55.522309,-21.087196],[55.521611,-21.088247],[55.521075,-21.088588],[55.520836,-21.08883],[55.520646,-21.089088],[55.520463,-21.089258],[55.520303,-21.089599],[55.519863,-21.089759],[55.519723,-21.090169],[55.519369,-21.0907],[55.519197,-21.09089],[55.518736,-21.09091],[55.518758,-21.0912],[55.517964,-21.091971],[55.517642,-21.092051],[55.517674,-21.092171],[55.517416,-21.092432],[55.517577,-21.092532],[55.517567,-21.092702],[55.517792,-21.093282],[55.517717,-21.093392],[55.51747,-21.093382],[55.517365,-21.093454],[55.516826,-21.093563],[55.516687,-21.093423],[55.516558,-21.093543],[55.516483,-21.093352],[55.516387,-21.093342],[55.516311,-21.093523],[55.515914,-21.093893],[55.515668,-21.094333],[55.515432,-21.094554],[55.515335,-21.094774],[55.515142,-21.094634],[55.515035,-21.094854],[55.514949,-21.094734],[55.514681,-21.094604],[55.514455,-21.094333],[55.513801,-21.094153],[55.513554,-21.094303],[55.5132,-21.094343],[55.513039,-21.094183],[55.512631,-21.094263],[55.512406,-21.094353],[55.512406,-21.094444],[55.512234,-21.094484],[55.512106,-21.094403],[55.511998,-21.094524],[55.511741,-21.094684],[55.511795,-21.094794],[55.511655,-21.094854],[55.511677,-21.095004],[55.511462,-21.095064],[55.511333,-21.095184],[55.511011,-21.095244],[55.510797,-21.095254],[55.510829,-21.095505],[55.5107,-21.095505],[55.510754,-21.095645],[55.510453,-21.095695],[55.510121,-21.095845],[55.509745,-21.095755],[55.509627,-21.096205],[55.509477,-21.096325],[55.509263,-21.096365],[55.509305,-21.096556],[55.509027,-21.096686],[55.508844,-21.096876],[55.508426,-21.097046],[55.50849,-21.097206],[55.508018,-21.097416],[55.507589,-21.097486],[55.50746,-21.097607],[55.507578,-21.097797],[55.507439,-21.098117],[55.507117,-21.098287],[55.507128,-21.098387],[55.506891,-21.098487],[55.506591,-21.098588],[55.506462,-21.098748],[55.506205,-21.098928],[55.506022,-21.098988],[55.505786,-21.099328],[55.505604,-21.099478],[55.505497,-21.099669],[55.505432,-21.099709],[55.505347,-21.099849],[55.504917,-21.099909],[55.505025,-21.099999],[55.504842,-21.100009],[55.504861,-21.100141],[55.504209,-21.100399],[55.503952,-21.100529],[55.503823,-21.10074],[55.50378,-21.10095],[55.503598,-21.10135],[55.503276,-21.10169],[55.503072,-21.101821],[55.503029,-21.102031],[55.502761,-21.102251],[55.502074,-21.102421],[55.501549,-21.102581],[55.501377,-21.102571],[55.501334,-21.102611],[55.501173,-21.102581],[55.501248,-21.102681],[55.501173,-21.102701],[55.501291,-21.102902],[55.501345,-21.103152],[55.500873,-21.103822],[55.50069,-21.103933],[55.50054,-21.104123],[55.500132,-21.104313],[55.500143,-21.104433],[55.499896,-21.104663],[55.499821,-21.104823],[55.499617,-21.104893],[55.499607,-21.105144],[55.499553,-21.105124],[55.499532,-21.105264],[55.499392,-21.105294],[55.49936,-21.105214],[55.498791,-21.105524],[55.498577,-21.105804],[55.498405,-21.106365],[55.497944,-21.106965],[55.497386,-21.107606],[55.497139,-21.107736],[55.497182,-21.107846],[55.496924,-21.108056],[55.496656,-21.108477],[55.496667,-21.108687],[55.496549,-21.108717],[55.496313,-21.109037],[55.496238,-21.109237],[55.496034,-21.109498],[55.49612,-21.109868],[55.495744,-21.110118],[55.495497,-21.110519],[55.495433,-21.110699],[55.495283,-21.110859],[55.495444,-21.110969],[55.495347,-21.111029],[55.495401,-21.111139],[55.495251,-21.111169],[55.495283,-21.111229],[55.495154,-21.111259],[55.495251,-21.111429],[55.494961,-21.111569],[55.495283,-21.11173],[55.495176,-21.1118],[55.495272,-21.11198],[55.495047,-21.11192],[55.495176,-21.11214],[55.494972,-21.11205],[55.495036,-21.11229],[55.494854,-21.11216],[55.49494,-21.11262],[55.494685,-21.112491],[55.494771,-21.112707],[55.49461,-21.112656],[55.494755,-21.112902],[55.494524,-21.112807],[55.494572,-21.113017],[55.494374,-21.112807],[55.49447,-21.113027],[55.494363,-21.113027],[55.494331,-21.113182],[55.494181,-21.112917],[55.4941,-21.113192],[55.493885,-21.112767],[55.493875,-21.113072],[55.493649,-21.112727],[55.493628,-21.112847],[55.493467,-21.112697],[55.493623,-21.113087],[55.493494,-21.113042],[55.493408,-21.112917],[55.493429,-21.113067],[55.493215,-21.112897],[55.493242,-21.113152],[55.493,-21.112952],[55.493167,-21.113367],[55.493027,-21.113342],[55.492909,-21.113172],[55.49277,-21.113082],[55.492796,-21.113242],[55.4927,-21.113207],[55.4927,-21.113357],[55.492405,-21.113027],[55.492426,-21.113177],[55.492271,-21.113087],[55.492292,-21.113312],[55.492099,-21.113132],[55.492099,-21.113257],[55.491831,-21.113022],[55.491868,-21.113202],[55.491675,-21.113127],[55.491815,-21.113317],[55.49153,-21.113227],[55.49167,-21.113427],[55.491638,-21.113612],[55.491493,-21.113362],[55.491477,-21.113507],[55.491359,-21.113317],[55.491321,-21.113427],[55.491123,-21.113272],[55.491187,-21.113517],[55.490935,-21.113437],[55.490999,-21.113577],[55.49079,-21.113612],[55.490484,-21.113772],[55.490291,-21.113762],[55.490028,-21.113592],[55.489599,-21.113457],[55.489487,-21.113307],[55.489353,-21.113102],[55.488993,-21.113137],[55.488695,-21.112861],[55.488395,-21.112991],[55.488073,-21.113301],[55.487845,-21.113698],[55.487813,-21.114148],[55.487909,-21.114754],[55.487872,-21.115334],[55.488242,-21.115615],[55.487684,-21.11567],[55.487389,-21.115785],[55.487325,-21.116025],[55.487067,-21.116105],[55.48711,-21.116135],[55.487083,-21.116275],[55.487169,-21.11639],[55.487368,-21.11642],[55.487469,-21.116575],[55.487598,-21.116605],[55.487604,-21.116711],[55.487486,-21.116951],[55.487207,-21.117036],[55.487051,-21.117206],[55.487142,-21.117271],[55.487089,-21.117376],[55.486858,-21.117306],[55.486906,-21.117411],[55.486729,-21.117461],[55.48682,-21.117541],[55.486686,-21.117551],[55.486869,-21.117696],[55.486659,-21.117711],[55.486831,-21.117786],[55.486767,-21.117872],[55.487035,-21.117887],[55.487062,-21.117967],[55.486804,-21.118077],[55.486295,-21.118157],[55.486391,-21.118247],[55.486343,-21.118392],[55.486434,-21.118572],[55.486375,-21.118797],[55.486552,-21.118927],[55.48638,-21.118962],[55.486504,-21.119093],[55.486327,-21.119032],[55.486279,-21.119128],[55.486225,-21.119108],[55.486225,-21.118992],[55.486075,-21.118812],[55.485973,-21.119012],[55.486064,-21.119213],[55.486059,-21.119373],[55.485908,-21.119468],[55.485769,-21.119438],[55.485608,-21.119333],[55.485597,-21.119428],[55.485538,-21.119473],[55.48542,-21.119418],[55.485409,-21.119313],[55.485265,-21.119363],[55.485286,-21.119463],[55.485066,-21.119623],[55.485034,-21.119538],[55.484868,-21.119558],[55.484599,-21.119848],[55.484632,-21.119968],[55.484599,-21.120088],[55.484449,-21.119918],[55.48446,-21.120073],[55.484449,-21.120404],[55.484734,-21.120584],[55.484519,-21.120639],[55.484632,-21.120699],[55.484412,-21.120674],[55.484498,-21.120789],[55.484256,-21.120709],[55.484406,-21.120849],[55.48417,-21.120829],[55.484369,-21.120949],[55.484616,-21.120994],[55.484498,-21.121069],[55.484712,-21.121174],[55.484433,-21.121214],[55.484578,-21.121319],[55.48439,-21.121329],[55.484471,-21.121429],[55.483966,-21.121344],[55.484084,-21.12159],[55.483875,-21.121494],[55.483913,-21.121665],[55.483709,-21.12161],[55.483575,-21.121635],[55.483822,-21.121795],[55.48357,-21.12178],[55.483848,-21.121975],[55.483741,-21.12227],[55.483537,-21.122735],[55.483414,-21.122831],[55.482899,-21.12273],[55.482786,-21.12265],[55.482636,-21.122625],[55.482491,-21.122555],[55.482674,-21.122826],[55.482867,-21.122971],[55.482969,-21.123191],[55.483259,-21.12347],[55.483259,-21.12347],[55.482529,-21.123355],[55.482212,-21.123405],[55.482057,-21.12322],[55.481698,-21.12311],[55.481526,-21.122985],[55.481376,-21.12302],[55.481333,-21.12319],[55.481633,-21.124321],[55.481746,-21.124486],[55.482014,-21.124666],[55.482207,-21.124867],[55.482234,-21.125022],[55.482121,-21.125017],[55.482046,-21.124826],[55.481939,-21.124796],[55.481955,-21.124937],[55.481832,-21.124766],[55.48181,-21.124862],[55.481767,-21.124766],[55.48174,-21.124887],[55.481569,-21.124731],[55.481553,-21.124811],[55.481478,-21.124756],[55.481429,-21.124837],[55.481274,-21.124571],[55.481193,-21.124596],[55.481043,-21.124341],[55.480957,-21.124371],[55.48085,-21.124166],[55.480769,-21.124221],[55.480598,-21.124096],[55.480399,-21.124071],[55.480292,-21.124141],[55.480056,-21.124051],[55.479943,-21.124146],[55.479965,-21.124341],[55.480008,-21.124436],[55.479976,-21.124656],[55.479756,-21.124887],[55.47967,-21.124862],[55.47953,-21.125032],[55.47931,-21.125137],[55.479155,-21.125057],[55.479123,-21.125117],[55.479235,-21.125232],[55.479128,-21.125302],[55.478999,-21.125247],[55.478742,-21.125162],[55.47871,-21.125047],[55.478543,-21.124937],[55.478441,-21.124811],[55.47828,-21.124776],[55.478216,-21.124661],[55.477781,-21.124601],[55.47768,-21.124466],[55.477159,-21.124036],[55.47695,-21.123936],[55.476778,-21.123686],[55.476532,-21.123465],[55.476167,-21.12348],[55.475936,-21.123375],[55.475866,-21.1234],[55.475384,-21.12314],[55.475035,-21.12316],[55.474858,-21.123135],[55.474649,-21.12316],[55.474429,-21.123235],[55.474273,-21.123215],[55.474091,-21.122905],[55.473973,-21.122905],[55.473973,-21.123415],[55.473823,-21.123255],[55.473774,-21.123325],[55.473806,-21.123591],[55.473651,-21.123786],[55.473442,-21.123876],[55.47335,-21.123961],[55.473082,-21.123951],[55.47305,-21.124031],[55.473243,-21.124031],[55.47312,-21.124301],[55.473216,-21.124386],[55.472889,-21.124691],[55.473216,-21.124746],[55.472937,-21.125122],[55.472868,-21.125077],[55.472776,-21.125282],[55.472524,-21.125462],[55.472278,-21.125567],[55.472326,-21.125737],[55.472084,-21.126223],[55.472653,-21.126107],[55.472336,-21.126463],[55.471922,-21.127021]]],"type":"MultiLineString"},"properties":{"geo_point":{"lon":55.47506522245693,"lat":-21.08543054081033},"name":"GRR1 Tour du Piton des Neiges (Ile de la Réunion) (2020)","code_gr":"GRR1"}}]}