{"type":"FeatureCollection","features":[{"type":"Feature","geometry":{"coordinates":[[[4.057517,44.147787],[4.057045,44.147586],[4.056787,44.147202],[4.056294,44.146986],[4.055715,44.145816],[4.05535,44.145569],[4.055243,44.145231],[4.054534,44.144091],[4.05447,44.143722],[4.055178,44.142798],[4.05535,44.142628],[4.055715,44.141397],[4.055908,44.140904],[4.055972,44.140057],[4.055736,44.139641],[4.055758,44.138609],[4.055607,44.138609],[4.055307,44.139118],[4.054964,44.139195],[4.053762,44.138563],[4.053032,44.137963],[4.052646,44.137593],[4.052539,44.137732],[4.052539,44.138132],[4.052925,44.139148],[4.052753,44.13958],[4.052453,44.139764],[4.05211,44.139795],[4.051895,44.139626],[4.051702,44.139041],[4.051681,44.138455],[4.051573,44.137578],[4.051359,44.137516],[4.051123,44.137901],[4.050694,44.138301],[4.0502,44.138486],[4.049835,44.138409],[4.048784,44.137793],[4.048741,44.137886],[4.048891,44.138763],[4.048827,44.139641],[4.048603,44.140089],[4.048389,44.140337],[4.048183,44.140371],[4.04794,44.140237],[4.047081,44.139506],[4.046642,44.139312],[4.046315,44.139291],[4.045829,44.139533],[4.045185,44.140103],[4.045017,44.140103],[4.04526,44.138728],[4.045288,44.138098],[4.045045,44.136744],[4.044988,44.136344],[4.04479,44.135826],[4.044648,44.135419],[4.044351,44.135287],[4.043926,44.135338],[4.043445,44.135084],[4.04299,44.134998],[4.042904,44.134871],[4.042851,44.134575],[4.042717,44.134532],[4.042073,44.134155],[4.041966,44.133724],[4.041901,44.133639],[4.041858,44.133254],[4.041821,44.133073],[4.041917,44.132711],[4.041842,44.132218],[4.041772,44.131741],[4.041676,44.131498],[4.041606,44.13141],[4.041451,44.131452],[4.040667,44.13223],[4.040506,44.132623],[4.040002,44.133331],[4.039739,44.133801],[4.039203,44.13422],[4.039066,44.134524],[4.038887,44.134769],[4.038724,44.134827],[4.038537,44.134763],[4.038326,44.134769],[4.038017,44.134693],[4.037846,44.134746],[4.037675,44.134915],[4.037301,44.135026],[4.037017,44.135055],[4.036756,44.135248],[4.036586,44.135475],[4.03626,44.135609],[4.035602,44.135563],[4.035163,44.135627],[4.034903,44.135586],[4.034683,44.13558],[4.03452,44.135528],[4.033976,44.135638],[4.033846,44.135586],[4.033561,44.135615],[4.033293,44.135528],[4.032984,44.135539],[4.032439,44.135662],[4.032268,44.135656],[4.032089,44.135545],[4.03187,44.13558],[4.031585,44.135487],[4.031357,44.135277],[4.031138,44.135271],[4.031008,44.135148],[4.030902,44.135166],[4.030544,44.135014],[4.030374,44.135026],[4.030122,44.134944],[4.029829,44.134927],[4.02952,44.134699],[4.029138,44.134705],[4.028723,44.134576],[4.028386,44.134638],[4.028142,44.134569],[4.027576,44.134526],[4.027428,44.134425],[4.027053,44.134457],[4.026835,44.134526],[4.026565,44.134469],[4.02633,44.134526],[4.026138,44.134513],[4.025964,44.134532],[4.025746,44.134501],[4.025552,44.134454],[4.025251,44.134442],[4.025137,44.134366],[4.024942,44.134337],[4.024788,44.13422],[4.024568,44.134279],[4.024422,44.134238],[4.023991,44.134349],[4.023812,44.13432],[4.023682,44.134215],[4.023511,44.134197],[4.02334,44.134051],[4.022771,44.133853],[4.022633,44.133754],[4.022625,44.133666],[4.02247,44.133649],[4.022291,44.133304],[4.022007,44.133252],[4.021446,44.133567],[4.021291,44.133462],[4.020966,44.133497],[4.0206,44.133806],[4.020543,44.13397],[4.020275,44.134057],[4.019177,44.134325],[4.018511,44.134378],[4.018218,44.134343],[4.017828,44.134518],[4.017445,44.134565],[4.017185,44.134664],[4.016795,44.134594],[4.015819,44.134512],[4.015447,44.134392],[4.014911,44.133839],[4.014578,44.133561],[4.014387,44.133485],[4.014289,44.133539],[4.014011,44.133919],[4.01382,44.134158],[4.013833,44.134423],[4.01358,44.134613],[4.012834,44.135051],[4.012409,44.135352],[4.012267,44.135586],[4.012261,44.135692],[4.012132,44.135754],[4.011898,44.135798],[4.011528,44.135997],[4.011257,44.136046],[4.011004,44.135962],[4.010647,44.135728],[4.010339,44.135604],[4.010061,44.135555],[4.009476,44.13529],[4.008878,44.135232],[4.008796,44.135295],[4.008352,44.135314],[4.008003,44.135608],[4.007654,44.135826],[4.007158,44.13602],[4.006748,44.136064],[4.006426,44.136027],[4.005258,44.135983],[4.00463,44.136289],[4.004221,44.136383],[4.003968,44.136489],[4.003689,44.136533],[4.003254,44.136777],[4.003053,44.136765],[4.002853,44.136846],[4.002504,44.136852],[4.002033,44.137084],[4.001554,44.137365],[4.000395,44.137584],[4.000125,44.137684],[3.998896,44.13784],[3.997781,44.137734],[3.997136,44.13779],[3.996552,44.137721],[3.996212,44.13779],[3.995907,44.138034],[3.995576,44.138159],[3.995332,44.138391],[3.994957,44.13851],[3.994495,44.138547],[3.994295,44.138653],[3.99399,44.138697],[3.993232,44.139047],[3.993005,44.139285],[3.9925,44.139579],[3.992012,44.140004],[3.991471,44.140304],[3.991053,44.140454],[3.99094,44.140567],[3.99053,44.140736],[3.990095,44.140855],[3.989628,44.14107],[3.988001,44.141556],[3.98651,44.141919],[3.986029,44.141963],[3.985598,44.141937],[3.985191,44.141954],[3.984945,44.141928],[3.983885,44.142007],[3.983096,44.142007],[3.982763,44.141998],[3.982196,44.142122],[3.981555,44.142149],[3.98073,44.142096],[3.979978,44.141945],[3.979534,44.141795],[3.979071,44.141549],[3.978504,44.141499],[3.977833,44.141561],[3.976683,44.141912],[3.975768,44.142174],[3.975123,44.142174],[3.974531,44.142197],[3.973637,44.142189],[3.972922,44.141998],[3.971708,44.141822],[3.9701,44.142091],[3.968609,44.142768],[3.967438,44.142918],[3.967099,44.14302],[3.966292,44.14298],[3.965651,44.143033],[3.964289,44.14287],[3.962687,44.142878],[3.960857,44.143086],[3.960604,44.143095],[3.959828,44.14275],[3.959544,44.142724],[3.959224,44.142794],[3.958867,44.142777],[3.957979,44.142556],[3.957486,44.142697],[3.957104,44.142671],[3.956463,44.14252],[3.955847,44.14229],[3.954824,44.141998],[3.95358,44.141998],[3.95321,44.142122],[3.952655,44.142166],[3.952495,44.142255],[3.952325,44.142273],[3.951894,44.14239],[3.951601,44.142326],[3.95139,44.14232],[3.951105,44.142168],[3.950666,44.141882],[3.950243,44.141701],[3.950024,44.14169],[3.94978,44.141602],[3.949487,44.141625],[3.948162,44.14141],[3.947593,44.141188],[3.947357,44.141182],[3.947113,44.141316],[3.946609,44.141328],[3.946389,44.14131],[3.945787,44.141369],[3.94521,44.141614],[3.944454,44.141987],[3.944234,44.141976],[3.944007,44.141894],[3.944088,44.142046],[3.944552,44.142267],[3.944755,44.142308],[3.94495,44.142308],[3.94495,44.142366],[3.944552,44.142471],[3.943999,44.1426],[3.943714,44.142711],[3.943015,44.142909],[3.942405,44.14337],[3.942129,44.14365],[3.941958,44.143889],[3.941657,44.14414],[3.941283,44.144543],[3.941153,44.144765],[3.94121,44.145056],[3.941389,44.145354],[3.941364,44.145558],[3.940348,44.1462],[3.939616,44.146579],[3.939673,44.14711],[3.93947,44.147571],[3.939258,44.147828],[3.939014,44.147903],[3.938323,44.147962],[3.937697,44.147938],[3.936941,44.147734],[3.937856,44.148222],[3.938964,44.148396],[3.93951,44.148423],[3.939836,44.148341],[3.939791,44.148597],[3.939487,44.148739],[3.93863,44.148918],[3.938478,44.149038],[3.938706,44.149142],[3.938213,44.149316],[3.937704,44.149468],[3.937416,44.14974],[3.936922,44.1495],[3.936462,44.149317],[3.936328,44.149175],[3.936271,44.149083],[3.93603,44.148697],[3.935549,44.148413],[3.935273,44.148139],[3.93516,44.14792],[3.935004,44.147753],[3.934884,44.147478],[3.934834,44.14727],[3.934685,44.147255],[3.934098,44.147443],[3.933574,44.147412],[3.933185,44.147423],[3.932852,44.147311],[3.932611,44.147133],[3.932463,44.146976],[3.932236,44.146874],[3.931252,44.146976],[3.931019,44.147145],[3.930338,44.14731],[3.929637,44.147346],[3.928907,44.147282],[3.928336,44.147239],[3.928076,44.147009],[3.927956,44.146556],[3.927675,44.145903],[3.927345,44.1454],[3.927295,44.145227],[3.927155,44.144452],[3.926834,44.143942],[3.926534,44.143906],[3.926474,44.144035],[3.926204,44.144064],[3.925843,44.14397],[3.925568,44.143796],[3.925413,44.143623],[3.925172,44.143588],[3.925002,44.143669],[3.924754,44.143979],[3.924082,44.144659],[3.921883,44.145108],[3.921368,44.145446],[3.919845,44.146016],[3.919737,44.144954],[3.919523,44.144538],[3.919244,44.144461],[3.918664,44.144476],[3.917785,44.144199],[3.91727,44.144338],[3.916411,44.144676],[3.915875,44.144538],[3.914974,44.144769],[3.914244,44.145662],[3.912957,44.145554],[3.91227,44.145785],[3.911669,44.145877],[3.911154,44.146155],[3.911004,44.146493],[3.910811,44.146801],[3.910725,44.147125],[3.910446,44.147432],[3.910682,44.148264],[3.911154,44.148803],[3.911154,44.149111],[3.910296,44.14908],[3.909717,44.149111],[3.909545,44.148818],[3.90933,44.148787],[3.909481,44.149049],[3.909588,44.149403],[3.910232,44.149434],[3.910789,44.149973],[3.910918,44.150342],[3.910575,44.151051],[3.910811,44.151651],[3.910811,44.152252],[3.910317,44.152914],[3.910339,44.153314],[3.910682,44.15373],[3.910897,44.153976],[3.911326,44.154161],[3.911519,44.154576],[3.912077,44.1551],[3.91257,44.155284],[3.912678,44.155592],[3.912463,44.156008],[3.912442,44.156347],[3.912892,44.156947],[3.9133,44.157147],[3.913321,44.157748],[3.913407,44.158102],[3.913729,44.158702],[3.914545,44.158779],[3.91506,44.158979],[3.915424,44.158656],[3.916111,44.158517],[3.916862,44.158994],[3.916733,44.15901],[3.916025,44.158748],[3.915982,44.159056],[3.915424,44.159425],[3.915081,44.159549],[3.915038,44.159841],[3.914351,44.160719],[3.913579,44.161242],[3.911819,44.161011],[3.910747,44.16115],[3.909845,44.161519],[3.908944,44.161565],[3.908257,44.16195],[3.907743,44.162227],[3.907356,44.162612],[3.90682,44.162904],[3.906562,44.163505],[3.906112,44.163843],[3.905768,44.164259],[3.90521,44.164428],[3.904266,44.165013],[3.903623,44.165259],[3.902893,44.165891],[3.901606,44.166306],[3.900983,44.166429],[3.900661,44.166814],[3.900318,44.167014],[3.899782,44.167722],[3.89991,44.168153],[3.899739,44.168707],[3.899481,44.168892],[3.89888,44.168969],[3.89843,44.168892],[3.898194,44.169138],[3.897743,44.169631],[3.896971,44.170046],[3.896531,44.170258],[3.896086,44.170731],[3.896086,44.170897],[3.896134,44.171355],[3.896021,44.171497],[3.895469,44.171666],[3.895115,44.171866],[3.894986,44.172039],[3.894948,44.171885],[3.895061,44.171355],[3.895018,44.171235],[3.894884,44.171216],[3.894551,44.171732],[3.894374,44.172097],[3.893913,44.173147],[3.893704,44.173271],[3.892974,44.173625],[3.892738,44.173644],[3.891746,44.173536],[3.891408,44.173598],[3.891215,44.173609],[3.89093,44.173882],[3.890823,44.174094],[3.890287,44.174552],[3.890056,44.174713],[3.889884,44.174933],[3.889766,44.175221],[3.889675,44.175602],[3.889525,44.176102],[3.889557,44.176391],[3.889487,44.176433],[3.889418,44.176256],[3.889375,44.17581],[3.889096,44.175325],[3.888881,44.175171],[3.888758,44.17516],[3.888098,44.175341],[3.887771,44.175529],[3.88739,44.175956],[3.887444,44.175991],[3.887637,44.175795],[3.888109,44.175648],[3.888409,44.175633],[3.888484,44.175864],[3.888554,44.176676],[3.888436,44.177349],[3.888307,44.177711],[3.888152,44.177861],[3.888039,44.177922],[3.887996,44.178007],[3.888162,44.178222],[3.888259,44.178457],[3.888407,44.178524],[3.888534,44.178681],[3.888803,44.178854],[3.88881,44.179194],[3.888924,44.179372],[3.889051,44.179499],[3.889235,44.179945],[3.889101,44.180164],[3.889115,44.180341],[3.889292,44.180671],[3.889341,44.180981],[3.889646,44.181341],[3.889815,44.181656],[3.890084,44.181971],[3.890325,44.182179],[3.890559,44.182504],[3.890679,44.182839],[3.890771,44.183763],[3.890842,44.184077],[3.890693,44.184499],[3.890729,44.184986],[3.890927,44.185199],[3.890913,44.185407],[3.890792,44.185534],[3.890707,44.18557],[3.890707,44.185656],[3.890828,44.185833],[3.890785,44.186133],[3.891033,44.1866],[3.891408,44.186859],[3.891762,44.186996],[3.892031,44.18727],[3.892173,44.187696],[3.892236,44.188184],[3.892165,44.188381],[3.892081,44.188524],[3.891648,44.188584],[3.891358,44.188684],[3.890617,44.188835],[3.890166,44.189014],[3.889786,44.189065],[3.889766,44.189294],[3.889856,44.18956],[3.889896,44.190005],[3.889796,44.190156],[3.889916,44.190342],[3.889766,44.190443],[3.889766,44.190751],[3.889876,44.191038],[3.889856,44.191275],[3.889666,44.19172],[3.889516,44.191914],[3.889546,44.192129],[3.889446,44.192381],[3.889346,44.192976],[3.889426,44.19335],[3.889235,44.193759],[3.889095,44.194469],[3.888775,44.195079],[3.888585,44.195653],[3.888575,44.196256],[3.888274,44.197053],[3.888134,44.197168],[3.888004,44.197598],[3.887914,44.197692],[3.887944,44.198165],[3.887794,44.198424],[3.887814,44.198546],[3.887504,44.199959],[3.887574,44.200132],[3.887303,44.20095],[3.887303,44.201115],[3.887183,44.201653],[3.887374,44.201947],[3.887423,44.202174],[3.887583,44.202536],[3.887516,44.202889],[3.887473,44.203459],[3.887023,44.204095],[3.886745,44.204652],[3.886641,44.20527],[3.88653,44.20546],[3.886425,44.205765],[3.886209,44.205915],[3.885408,44.206198],[3.884934,44.206176],[3.884749,44.206246],[3.884589,44.206405],[3.884213,44.206586],[3.884145,44.206768],[3.883664,44.206984],[3.883344,44.207072],[3.883085,44.207324],[3.882851,44.207408],[3.882777,44.207549],[3.882623,44.207655],[3.882198,44.207717],[3.881908,44.207885],[3.881766,44.208079],[3.881542,44.208147],[3.881216,44.208435],[3.880905,44.208598],[3.88051,44.208701],[3.880002,44.208919],[3.879661,44.209131],[3.878606,44.208946],[3.878075,44.208935],[3.877681,44.209028],[3.876869,44.208973],[3.876042,44.208973],[3.875594,44.208941],[3.875071,44.208979],[3.87303,44.209675],[3.872666,44.209963],[3.872127,44.210088],[3.871111,44.210403],[3.870807,44.210697],[3.87039,44.210882],[3.870193,44.211099],[3.86998,44.211594],[3.869404,44.212078],[3.868964,44.212263],[3.868805,44.212415],[3.868236,44.212742],[3.868091,44.213041],[3.868046,44.213156],[3.867531,44.213325],[3.867155,44.213541],[3.866769,44.213818],[3.866447,44.213871],[3.865707,44.213802],[3.865342,44.213925],[3.865031,44.214087],[3.864709,44.214148],[3.863958,44.214556],[3.863443,44.21471],[3.862628,44.214794],[3.861877,44.215109],[3.861383,44.214994],[3.860976,44.215109],[3.860557,44.215348],[3.859913,44.215471],[3.859382,44.215439],[3.858745,44.215319],[3.858108,44.21527],[3.857417,44.215395],[3.857281,44.215324],[3.856621,44.215265],[3.856135,44.215178],[3.855528,44.215183],[3.855172,44.215303],[3.854876,44.215596],[3.854747,44.215895],[3.854777,44.216537],[3.855096,44.217434],[3.855225,44.219141],[3.855073,44.219391],[3.855058,44.219669],[3.855331,44.219854],[3.855337,44.219948],[3.855528,44.220045],[3.855308,44.220105],[3.855344,44.220258],[3.855485,44.22039],[3.856009,44.221313],[3.856292,44.221577],[3.856589,44.222175],[3.856972,44.222378],[3.856943,44.222824],[3.856703,44.22319],[3.857049,44.223372],[3.857302,44.223607],[3.858096,44.223406],[3.85888,44.223419],[3.859282,44.223292],[3.859851,44.223105],[3.86101,44.223018],[3.861234,44.223084],[3.861523,44.223238],[3.861775,44.223218],[3.862102,44.223111],[3.862625,44.223252],[3.86298,44.22358],[3.863083,44.223894],[3.863447,44.224088],[3.863942,44.224095],[3.864232,44.224162],[3.86469,44.224135],[3.865147,44.22437],[3.865745,44.224336],[3.866249,44.22447],[3.866586,44.224463],[3.867025,44.22439],[3.867632,44.224403],[3.868108,44.224523],[3.86864,44.224778],[3.869117,44.224912],[3.869229,44.225012],[3.869677,44.225059],[3.870079,44.22528],[3.870415,44.22536],[3.871312,44.225307],[3.871704,44.225293],[3.872134,44.225046],[3.872376,44.225086],[3.872758,44.224792],[3.872558,44.224347],[3.872378,44.223616],[3.872939,44.224132],[3.875001,44.224764],[3.877443,44.224735],[3.87812,44.224845],[3.878606,44.224818],[3.879419,44.22528],[3.879858,44.225353],[3.880091,44.225454],[3.880381,44.225507],[3.880483,44.225661],[3.880838,44.225748],[3.881053,44.225862],[3.881408,44.225942],[3.882006,44.226284],[3.882566,44.226257],[3.882949,44.226471],[3.883192,44.226485],[3.883435,44.226605],[3.883724,44.226618],[3.884173,44.226264],[3.884602,44.226183],[3.884845,44.226083],[3.885583,44.226317],[3.88832,44.225554],[3.888936,44.225481],[3.889226,44.225541],[3.890253,44.225554],[3.891299,44.225661],[3.89186,44.225554],[3.892261,44.22524],[3.892831,44.225193],[3.89327,44.225233],[3.893644,44.225059],[3.89398,44.225099],[3.89455,44.224898],[3.894718,44.224671],[3.895203,44.224604],[3.895662,44.224743],[3.895945,44.224729],[3.896395,44.224849],[3.897221,44.224712],[3.897652,44.224584],[3.89788,44.224597],[3.898737,44.224968],[3.898885,44.225175],[3.899131,44.22537],[3.899951,44.225405],[3.9009,44.225533],[3.902169,44.225515],[3.902576,44.225454],[3.902872,44.225432],[3.903124,44.225343],[3.903402,44.225348],[3.90419,44.225595],[3.904776,44.225414],[3.905164,44.225392],[3.905706,44.225467],[3.906316,44.225211],[3.906846,44.225092],[3.907419,44.224906],[3.90928,44.224517],[3.909835,44.224239],[3.910106,44.224005],[3.910377,44.224001],[3.910722,44.224098],[3.911412,44.224147],[3.912916,44.223961],[3.913852,44.223758],[3.914906,44.223334],[3.915411,44.223206],[3.915732,44.223162],[3.916163,44.223065],[3.916527,44.223043],[3.917198,44.222897],[3.918043,44.223188],[3.918388,44.223193],[3.91853,44.223303],[3.918708,44.223316],[3.918881,44.2234],[3.919127,44.223347],[3.919774,44.223321],[3.920243,44.223259],[3.920933,44.223255],[3.921493,44.223418],[3.922208,44.223224],[3.922547,44.223012],[3.922769,44.222937],[3.922948,44.222791],[3.923299,44.222623],[3.923878,44.222345],[3.924192,44.222239],[3.924519,44.222181],[3.925899,44.22178],[3.926694,44.221687],[3.927228,44.221674],[3.927855,44.221748],[3.928143,44.221892],[3.928335,44.221848],[3.928614,44.221705],[3.928945,44.221449],[3.929424,44.221243],[3.92959,44.221111],[3.929842,44.220924],[3.930034,44.220837],[3.930348,44.220612],[3.930609,44.220574],[3.931385,44.220362],[3.931733,44.220381],[3.931986,44.220343],[3.932143,44.220424],[3.932631,44.220268],[3.93311,44.22],[3.933389,44.219762],[3.934121,44.219381],[3.93505,44.218785],[3.935161,44.2186],[3.935592,44.218401],[3.935981,44.218432],[3.936868,44.21822],[3.93786,44.218233],[3.938334,44.218286],[3.939025,44.218216],[3.939811,44.218071],[3.940353,44.218071],[3.940782,44.218218],[3.94237,44.218486],[3.943136,44.218339],[3.944294,44.218553],[3.94478,44.21878],[3.945863,44.21858],[3.94633,44.218606],[3.947115,44.218392],[3.947601,44.218136],[3.948471,44.21827],[3.948772,44.218451],[3.949178,44.218724],[3.949617,44.219325],[3.949999,44.22024],[3.950325,44.220508],[3.950609,44.220624],[3.95104,44.221038],[3.951912,44.221487],[3.952142,44.221454],[3.952855,44.220993],[3.953143,44.220259],[3.953476,44.219946],[3.953672,44.219872],[3.954224,44.219155],[3.954247,44.218982],[3.9545,44.218891],[3.955615,44.218908],[3.955872,44.218616],[3.955625,44.218055],[3.955775,44.21747],[3.956559,44.216986],[3.958501,44.216717],[3.959616,44.215848],[3.960603,44.214679],[3.961086,44.214264],[3.961419,44.213864],[3.961397,44.213671],[3.961222,44.213503],[3.960805,44.213269],[3.960767,44.213171],[3.960828,44.213133],[3.961222,44.213285],[3.961632,44.213226],[3.962338,44.213052],[3.962975,44.212878],[3.963827,44.212749],[3.963849,44.212656],[3.963194,44.212656],[3.962916,44.21261],[3.962502,44.212629],[3.962422,44.212406],[3.961928,44.21243],[3.961864,44.212072],[3.961601,44.211857],[3.96192,44.211893],[3.962254,44.212171],[3.962634,44.212111],[3.963081,44.212187],[3.963498,44.212073],[3.964067,44.211757],[3.964439,44.211698],[3.965539,44.21173],[3.965782,44.211937],[3.965805,44.21253],[3.966313,44.212671],[3.967193,44.212383],[3.968301,44.212323],[3.968536,44.212225],[3.969423,44.211449],[3.96953,44.211149],[3.969637,44.210588],[3.969594,44.209803],[3.969873,44.209396],[3.970431,44.209088],[3.970689,44.208857],[3.970885,44.208647],[3.971184,44.208977],[3.97215,44.208845],[3.973507,44.208169],[3.974358,44.207559],[3.975991,44.207147],[3.976336,44.20685],[3.97629,44.20596],[3.975577,44.205762],[3.974611,44.204954],[3.974174,44.204608],[3.973806,44.204509],[3.973691,44.203948],[3.973852,44.203404],[3.974266,44.202959],[3.974473,44.202399],[3.97445,44.201822],[3.975071,44.201344],[3.975853,44.200931],[3.976152,44.200569],[3.977624,44.199596],[3.977785,44.199002],[3.977601,44.198656],[3.977072,44.198244],[3.977302,44.197453],[3.977279,44.197139],[3.97836,44.19704],[3.979188,44.196496],[3.979901,44.196381],[3.98043,44.196166],[3.981303,44.195985],[3.982062,44.195177],[3.982246,44.194814],[3.983097,44.194221],[3.983718,44.193924],[3.9845,44.19333],[3.984914,44.193578],[3.985144,44.193248],[3.984569,44.192885],[3.984224,44.192391],[3.984661,44.191764],[3.98404,44.190082],[3.983971,44.189554],[3.984638,44.189455],[3.984845,44.189093],[3.984638,44.188482],[3.984753,44.187757],[3.985328,44.187196],[3.987145,44.186289],[3.988663,44.185827],[3.989951,44.185877],[3.992273,44.186602],[3.992526,44.186899],[3.993469,44.187048],[3.994205,44.186866],[3.99455,44.186223],[3.995332,44.18624],[3.996068,44.185893],[3.996827,44.186058],[3.997471,44.186273],[3.998046,44.186273],[3.998575,44.185679],[3.998874,44.185761],[3.999587,44.186438],[3.999426,44.186916],[4.0003,44.186372],[4.000783,44.186108],[4.001059,44.185811],[4.001311,44.185728],[4.00184,44.186124],[4.002553,44.186025],[4.003036,44.186157],[4.003772,44.186174],[4.00575,44.186767],[4.006463,44.187097],[4.006946,44.187163],[4.007682,44.186998],[4.008142,44.186668],[4.008395,44.186701],[4.008579,44.187196],[4.008993,44.187229],[4.009499,44.187625],[4.010373,44.187658],[4.009798,44.188054],[4.0092,44.188136],[4.010028,44.188383],[4.01081,44.188317],[4.011637,44.187971],[4.012741,44.187938],[4.013983,44.187509],[4.015018,44.187048],[4.016743,44.186372],[4.017801,44.185811],[4.018997,44.18436],[4.019204,44.183914],[4.019618,44.182859],[4.01994,44.182529],[4.020607,44.181968],[4.020975,44.181754],[4.021573,44.180154],[4.022262,44.179659],[4.022853,44.178928],[4.024121,44.178135],[4.024414,44.177738],[4.024495,44.177389],[4.024918,44.177085],[4.025243,44.176117],[4.025422,44.175861],[4.025422,44.175359],[4.025584,44.174916],[4.025715,44.174274],[4.026024,44.17389],[4.027227,44.17319],[4.027455,44.172922],[4.027877,44.172677],[4.029146,44.171534],[4.030187,44.170869],[4.030935,44.170029],[4.031455,44.169609],[4.031829,44.169107],[4.032496,44.168641],[4.032854,44.168338],[4.03378,44.167836],[4.034529,44.167229],[4.034545,44.166821],[4.034903,44.165655],[4.035244,44.16527],[4.035569,44.165211],[4.036057,44.164698],[4.036464,44.164675],[4.037244,44.164348],[4.03783,44.164301],[4.038057,44.16345],[4.03848,44.162878],[4.039488,44.162225],[4.040448,44.161922],[4.041684,44.16177],[4.042334,44.161432],[4.043798,44.161082],[4.044822,44.161012],[4.045294,44.160802],[4.046335,44.160195],[4.04679,44.159798],[4.047993,44.15974],[4.049083,44.159483],[4.049359,44.159273],[4.049717,44.159285],[4.049896,44.15946],[4.049961,44.159868],[4.050498,44.16009],[4.050449,44.16016],[4.049652,44.160428],[4.049408,44.160638],[4.04905,44.161385],[4.048644,44.161735],[4.048302,44.161945],[4.048416,44.162178],[4.048855,44.162237],[4.04975,44.161945],[4.050254,44.161362],[4.05079,44.161432],[4.051734,44.161303],[4.052677,44.161537],[4.053213,44.161432],[4.053425,44.161128],[4.053929,44.16065],[4.054498,44.159833],[4.054726,44.159763],[4.055197,44.158468],[4.054775,44.158223],[4.054791,44.157873],[4.053718,44.15617],[4.05323,44.155855],[4.053457,44.155657],[4.052661,44.155202],[4.053018,44.15484],[4.0531,44.154548],[4.053002,44.154082],[4.0531,44.153883],[4.05401,44.153977],[4.054644,44.15414],[4.055409,44.154233],[4.056352,44.154373],[4.056417,44.153358],[4.056889,44.151912],[4.057442,44.15148],[4.057702,44.150966],[4.057653,44.150535],[4.057328,44.149718],[4.056271,44.149718]]],"type":"MultiLineString"},"properties":{"geo_point":{"lon":3.9571923511912273,"lat":44.177417366676714},"name":"Tour de la Vallée du Galeizon (Gard-Lozère) (2019)","code_gr":null}}]}