{"type":"FeatureCollection","features":[{"type":"Feature","geometry":{"coordinates":[[[5.860207,45.291618],[5.860359,45.291167],[5.860081,45.290677],[5.85993,45.289439],[5.859737,45.28888],[5.859094,45.287461],[5.859256,45.285991],[5.859362,45.285796],[5.859302,45.285652],[5.857559,45.284681],[5.857103,45.28449],[5.856562,45.284578],[5.855939,45.285061],[5.854474,45.285503],[5.85403,45.285816],[5.853772,45.286405],[5.854025,45.287678],[5.854039,45.288124],[5.854105,45.288593],[5.853992,45.288672],[5.853622,45.288487],[5.853424,45.288514],[5.853596,45.288793],[5.853665,45.289122],[5.853378,45.289323],[5.852995,45.289569],[5.85281,45.289625],[5.852572,45.290698],[5.852356,45.290828],[5.852163,45.290642],[5.851357,45.290192],[5.851146,45.290015],[5.850221,45.290141],[5.849198,45.290234],[5.848901,45.290224],[5.848326,45.290387],[5.847764,45.290261],[5.847721,45.289982],[5.847712,45.289667],[5.847957,45.289288],[5.847659,45.288979],[5.847566,45.288519],[5.847441,45.288491],[5.847243,45.288733],[5.84686,45.288965],[5.846688,45.289304],[5.846556,45.289332],[5.846404,45.289183],[5.846265,45.288189],[5.84612,45.287725],[5.846283,45.287023],[5.846262,45.286178],[5.845575,45.285106],[5.845747,45.284336],[5.845862,45.284188],[5.845717,45.283845],[5.845725,45.282993],[5.845928,45.282571],[5.84594,45.282298],[5.845783,45.28167],[5.8454,45.281221],[5.844674,45.280864],[5.843987,45.280743],[5.844181,45.281739],[5.84415,45.282276],[5.843944,45.282555],[5.844077,45.282882],[5.844207,45.283752],[5.843515,45.285348],[5.842629,45.286515],[5.842255,45.286647],[5.842142,45.28707],[5.842228,45.28731],[5.842061,45.287548],[5.842044,45.28772],[5.841547,45.288744],[5.841652,45.288909],[5.841649,45.289167],[5.84153,45.289418],[5.841391,45.28956],[5.840683,45.289831],[5.840318,45.289755],[5.839717,45.289726],[5.838644,45.289469],[5.83873,45.289258],[5.838366,45.289031],[5.838194,45.288563],[5.837679,45.288352],[5.837293,45.288609],[5.837121,45.289016],[5.83667,45.289303],[5.836432,45.289424],[5.836284,45.290073],[5.83604,45.290491],[5.836091,45.290964],[5.836348,45.291522],[5.836306,45.291945],[5.835984,45.292096],[5.836263,45.292564],[5.836413,45.292669],[5.83622,45.292986],[5.836649,45.293318],[5.836632,45.293685],[5.836413,45.294013],[5.83597,45.294476],[5.835639,45.294942],[5.835404,45.294979],[5.835412,45.294409],[5.835203,45.294458],[5.835133,45.294568],[5.834915,45.294568],[5.834732,45.294703],[5.834589,45.294934],[5.834506,45.29477],[5.834157,45.295071],[5.833924,45.295205],[5.833924,45.295537],[5.834439,45.295734],[5.834525,45.296171],[5.834401,45.29653],[5.834761,45.296926],[5.835533,45.297168],[5.836048,45.297468],[5.836263,45.297696],[5.836585,45.298224],[5.836798,45.298902],[5.8374,45.299854],[5.837199,45.300643],[5.836955,45.301139],[5.837099,45.301771],[5.836915,45.302447],[5.837494,45.305209],[5.838417,45.305843],[5.839833,45.307593],[5.840249,45.307973],[5.840441,45.308053],[5.840815,45.308323],[5.841329,45.308513],[5.842043,45.308514],[5.841957,45.308304],[5.841661,45.308084],[5.841207,45.307354],[5.841329,45.306974],[5.841485,45.306733],[5.841704,45.306129],[5.8418,45.306006],[5.841786,45.305888],[5.84092,45.306233],[5.840449,45.305933],[5.840305,45.305526],[5.839874,45.305356],[5.839769,45.305215],[5.839883,45.305209],[5.840109,45.305013],[5.840441,45.304946],[5.840249,45.304743],[5.84017,45.304455],[5.840519,45.304296],[5.840528,45.303726],[5.840467,45.303377],[5.840937,45.302641],[5.840929,45.302378],[5.841094,45.30231],[5.841077,45.302163],[5.841173,45.30201],[5.841181,45.301581],[5.841242,45.301372],[5.841807,45.300757],[5.842218,45.299877],[5.843224,45.298822],[5.844275,45.298309],[5.845477,45.297751],[5.845369,45.296966],[5.845498,45.296332],[5.845695,45.296579],[5.846288,45.297737],[5.846889,45.298093],[5.847193,45.298445],[5.847586,45.298332],[5.84773,45.298203],[5.847537,45.297811],[5.847644,45.297403],[5.84736,45.297038],[5.848116,45.296709],[5.848717,45.295864],[5.848524,45.2952],[5.849296,45.295215],[5.849617,45.295917],[5.849661,45.296271],[5.849852,45.296383],[5.850047,45.296377],[5.850283,45.296105],[5.850605,45.296105],[5.850755,45.296513],[5.851163,45.296271],[5.851442,45.295592],[5.851871,45.2952],[5.852223,45.294721],[5.852772,45.294566],[5.853077,45.294059],[5.853382,45.293826],[5.854384,45.293734],[5.855952,45.293802],[5.856397,45.293691],[5.856981,45.293698],[5.857695,45.294114],[5.858436,45.294274],[5.858793,45.294298],[5.859098,45.294482],[5.859517,45.294531],[5.859961,45.294746],[5.859804,45.294905],[5.859996,45.295199],[5.860249,45.295402],[5.859656,45.296137],[5.859438,45.296221],[5.858915,45.297222],[5.858687,45.297791],[5.859632,45.297896],[5.859883,45.298142],[5.860082,45.29847],[5.860074,45.299362],[5.86017,45.299564],[5.861305,45.299632],[5.861885,45.300281],[5.862314,45.300764],[5.862507,45.301202],[5.862722,45.301624],[5.862636,45.302258],[5.862121,45.302968],[5.862571,45.303073],[5.863365,45.303088],[5.863902,45.303209],[5.863902,45.303496],[5.863713,45.303432],[5.863565,45.303514],[5.863386,45.303475],[5.863282,45.303557],[5.863066,45.30354],[5.863066,45.303653],[5.862838,45.303622],[5.862899,45.303779],[5.862647,45.303692],[5.862628,45.303839],[5.862487,45.303818],[5.862314,45.303979],[5.862684,45.304056],[5.86248,45.304723],[5.862099,45.305428],[5.862722,45.30579],[5.863054,45.305829],[5.863405,45.306076],[5.863537,45.306635],[5.863842,45.306869],[5.863892,45.307592],[5.864095,45.307644],[5.864378,45.307597],[5.864773,45.30764],[5.865013,45.307718],[5.865383,45.307727],[5.866196,45.307432],[5.867361,45.307194],[5.867805,45.307298],[5.86879,45.307857],[5.869052,45.308521],[5.870023,45.309283],[5.870602,45.31011],[5.870768,45.3105],[5.871194,45.310999],[5.871669,45.311751],[5.872785,45.312913],[5.873665,45.313335],[5.873264,45.313668],[5.872833,45.313971],[5.872666,45.314158],[5.872642,45.314344],[5.872907,45.314985],[5.87295,45.31564],[5.872919,45.315986],[5.872808,45.316368],[5.87285,45.31664],[5.87343,45.316909],[5.873944,45.317273],[5.87418,45.318058],[5.87403,45.318631],[5.873061,45.319093],[5.873295,45.319362],[5.873729,45.319491],[5.873782,45.319717],[5.87372,45.319977],[5.873806,45.320241],[5.873985,45.320254],[5.874515,45.320107],[5.875113,45.320072],[5.875811,45.320201],[5.876105,45.320614],[5.876019,45.321112],[5.876179,45.321424],[5.875768,45.322087],[5.87576,45.322403],[5.876388,45.32265],[5.876755,45.32272],[5.87706,45.323014],[5.877417,45.322945],[5.877738,45.322824],[5.878138,45.323084],[5.878299,45.323586],[5.878779,45.323695],[5.87902,45.32379],[5.878983,45.32421],[5.879543,45.324539],[5.879993,45.324669],[5.880431,45.324908],[5.881367,45.325337],[5.881497,45.325587],[5.881349,45.325791],[5.88139,45.326266],[5.88101,45.32684],[5.881022,45.327165],[5.88085,45.327585],[5.880887,45.327663],[5.881355,45.327706],[5.881743,45.328027],[5.881743,45.328235],[5.881647,45.328363],[5.881454,45.328317],[5.881306,45.328105],[5.881182,45.328079],[5.881218,45.328559],[5.880918,45.329313],[5.881096,45.329652],[5.881386,45.329851],[5.881774,45.32995],[5.882292,45.330007],[5.882606,45.33021],[5.882849,45.33052],[5.882935,45.331138],[5.883351,45.331094],[5.883707,45.331153],[5.884201,45.331455],[5.88419,45.331735],[5.884029,45.332043],[5.884196,45.332164],[5.88448,45.332164],[5.885071,45.331852],[5.885521,45.331744],[5.88581,45.331802],[5.886611,45.332025],[5.886543,45.332342],[5.886389,45.332511],[5.886254,45.332498],[5.886025,45.332375],[5.885724,45.332489],[5.885453,45.332407],[5.885059,45.332466],[5.885256,45.332693],[5.885252,45.332843],[5.885059,45.332994],[5.884793,45.332961],[5.884633,45.33355],[5.883814,45.33349],[5.882699,45.333009],[5.881836,45.332441],[5.881776,45.332707],[5.88139,45.332541],[5.881454,45.332767],[5.880424,45.332556],[5.880531,45.332828],[5.880012,45.332688],[5.880167,45.332994],[5.879833,45.33294],[5.879973,45.33319],[5.87963,45.333114],[5.879716,45.333407],[5.880184,45.333737],[5.880295,45.334733],[5.880437,45.334902],[5.880843,45.335101],[5.881367,45.335582],[5.881433,45.335784],[5.882304,45.336344],[5.882978,45.336614],[5.882892,45.336176],[5.883247,45.336227],[5.883943,45.337059],[5.88448,45.337383],[5.884954,45.337951],[5.885166,45.338394],[5.886175,45.33954],[5.887248,45.34135],[5.887234,45.341559],[5.887006,45.341836],[5.886969,45.342074],[5.887702,45.342573],[5.888102,45.343032],[5.88801,45.343422],[5.88802,45.343642],[5.888343,45.344097],[5.888312,45.344266],[5.888411,45.344647],[5.889199,45.34554],[5.889631,45.346358],[5.89023,45.347774],[5.890678,45.348575],[5.891089,45.349117],[5.891861,45.34969],[5.89244,45.350172],[5.893256,45.350489],[5.895645,45.35039],[5.89636,45.350546],[5.896692,45.35068],[5.897438,45.350866],[5.897762,45.351695],[5.89832,45.352268],[5.899114,45.352789],[5.899533,45.352958],[5.899757,45.353098],[5.900045,45.353395],[5.900702,45.353761],[5.901023,45.354108],[5.902032,45.354138],[5.902472,45.35424],[5.902826,45.354394],[5.902804,45.354681],[5.903255,45.354982],[5.90347,45.35524],[5.903358,45.355496],[5.903555,45.356113],[5.904693,45.356626],[5.905432,45.356776],[5.907246,45.357636],[5.907847,45.358073],[5.908458,45.358003],[5.909093,45.358108],[5.909907,45.358948],[5.911688,45.359958],[5.911924,45.359234],[5.913083,45.358028],[5.913533,45.356551],[5.913619,45.355842],[5.913319,45.355043],[5.914134,45.35539],[5.914563,45.355721],[5.91479,45.355693],[5.914837,45.355555],[5.914557,45.355017],[5.914295,45.354669],[5.913352,45.353802],[5.912911,45.35355],[5.912913,45.353395],[5.913128,45.353343],[5.913492,45.353586],[5.914006,45.35375],[5.91494,45.353776],[5.915519,45.354058],[5.916117,45.354452],[5.918545,45.355069],[5.918833,45.355857],[5.919649,45.355435],[5.920478,45.355292],[5.920955,45.355227],[5.921215,45.355254],[5.920936,45.354666],[5.920571,45.354274],[5.920507,45.353942],[5.919756,45.352962],[5.920185,45.353022],[5.920506,45.352188],[5.920807,45.352178],[5.920872,45.351394],[5.921515,45.350606],[5.922224,45.350564],[5.922122,45.349713],[5.922188,45.349339],[5.92244,45.349175],[5.922599,45.349227],[5.922785,45.349024],[5.922867,45.348348],[5.923009,45.348374],[5.923178,45.348952],[5.923747,45.349398],[5.924065,45.349017],[5.924369,45.348438],[5.924177,45.347363],[5.924028,45.346818],[5.924048,45.346251],[5.92379,45.345889],[5.923704,45.34503],[5.923514,45.344764],[5.923505,45.344363],[5.923411,45.344022],[5.92343,45.343398],[5.923254,45.342828],[5.923318,45.341987],[5.923447,45.34141],[5.923297,45.340656],[5.922963,45.340346],[5.922717,45.340505],[5.922352,45.339977],[5.922267,45.338891],[5.921752,45.338288],[5.922052,45.338077],[5.921344,45.338032],[5.919241,45.336825],[5.917013,45.336709],[5.9154,45.336538],[5.914884,45.33661],[5.914306,45.33684],[5.914361,45.336669],[5.914006,45.336669],[5.91407,45.336388],[5.913595,45.336656],[5.912932,45.335633],[5.912857,45.334837],[5.912605,45.334312],[5.912246,45.33414],[5.911902,45.333657],[5.911173,45.333295],[5.910808,45.333326],[5.910382,45.333202],[5.9101,45.333024],[5.910111,45.332815],[5.910293,45.332541],[5.910014,45.331998],[5.910279,45.331856],[5.910422,45.331621],[5.910014,45.330444],[5.910709,45.330051],[5.91012,45.330005],[5.910503,45.329782],[5.910326,45.329617],[5.911045,45.329007],[5.911066,45.328513],[5.911473,45.328513],[5.911688,45.328212],[5.911602,45.32791],[5.912268,45.327464],[5.91225,45.32682],[5.911924,45.32613],[5.911185,45.325809],[5.91025,45.325602],[5.909499,45.325149],[5.909006,45.325104],[5.908943,45.324949],[5.908654,45.325047],[5.90842,45.324922],[5.906731,45.324863],[5.905272,45.324923],[5.904414,45.324697],[5.904199,45.324371],[5.903749,45.324063],[5.903601,45.32439],[5.902525,45.324093],[5.902583,45.323819],[5.902247,45.323656],[5.901839,45.323656],[5.901677,45.323524],[5.900916,45.323203],[5.900295,45.322276],[5.899951,45.321996],[5.899779,45.321543],[5.90038,45.321649],[5.901324,45.322192],[5.901345,45.3218],[5.901045,45.321211],[5.901367,45.321483],[5.901247,45.32114],[5.90149,45.321173],[5.90141,45.32091],[5.901796,45.321046],[5.901798,45.320785],[5.901462,45.320627],[5.900687,45.320621],[5.900061,45.320522],[5.899221,45.320201],[5.897805,45.31931],[5.897198,45.319103],[5.897343,45.318787],[5.897627,45.318871],[5.89772,45.318782],[5.898479,45.31888],[5.898532,45.318768],[5.898961,45.318731],[5.899404,45.318578],[5.899929,45.318496],[5.900177,45.318207],[5.900514,45.318035],[5.900712,45.317793],[5.901109,45.317621],[5.901302,45.317153],[5.902053,45.317319],[5.90348,45.317915],[5.904564,45.318465],[5.904958,45.318513],[5.905272,45.318481],[5.90544,45.317947],[5.90583,45.317138],[5.905724,45.316916],[5.90476,45.316553],[5.903942,45.316413],[5.903319,45.316368],[5.902802,45.316124],[5.902645,45.315561],[5.902686,45.314329],[5.902383,45.31393],[5.901524,45.313437],[5.901181,45.313171],[5.901076,45.312864],[5.90071,45.31284],[5.900527,45.312606],[5.900084,45.312364],[5.899124,45.312055],[5.898009,45.31181],[5.897079,45.311375],[5.896283,45.311197],[5.89583,45.310891],[5.894017,45.310915],[5.892606,45.310891],[5.892083,45.311124],[5.891578,45.31105],[5.890915,45.311111],[5.890026,45.310878],[5.889416,45.310548],[5.888388,45.31029],[5.888031,45.310102],[5.88782,45.309921],[5.887586,45.309824],[5.887813,45.309162],[5.88741,45.308816],[5.887384,45.308681],[5.88749,45.3085],[5.887203,45.308402],[5.886819,45.308402],[5.886638,45.308212],[5.886697,45.307924],[5.886829,45.307836],[5.887429,45.307704],[5.887715,45.307203],[5.887427,45.30675],[5.887979,45.30641],[5.888439,45.305787],[5.888025,45.305342],[5.887864,45.304776],[5.886479,45.304514],[5.885872,45.30437],[5.885654,45.304417],[5.885469,45.304319],[5.885099,45.304291],[5.885198,45.303928],[5.884919,45.303573],[5.884832,45.302886],[5.884617,45.302759],[5.884431,45.302543],[5.884181,45.302419],[5.883926,45.302151],[5.883613,45.30149],[5.883633,45.301281],[5.883438,45.300667],[5.882967,45.300116],[5.882134,45.299567],[5.881493,45.299437],[5.880632,45.299172],[5.880456,45.298833],[5.880126,45.298583],[5.879679,45.297693],[5.879617,45.297242],[5.879309,45.297086],[5.878976,45.297086],[5.878755,45.296965],[5.878792,45.296809],[5.878939,45.29667],[5.879186,45.296609],[5.879432,45.296323],[5.878385,45.296011],[5.877337,45.295896],[5.876936,45.295656],[5.875932,45.294304],[5.875656,45.293807],[5.875344,45.293639],[5.874778,45.293688],[5.874442,45.293886],[5.874222,45.293895],[5.872795,45.294768],[5.8723,45.295623],[5.87149,45.29608],[5.871494,45.296283],[5.871692,45.296464],[5.871302,45.296403],[5.870906,45.296459],[5.870967,45.296645],[5.870748,45.296836],[5.870706,45.296987],[5.870892,45.297158],[5.870906,45.297439],[5.871395,45.297899],[5.870959,45.297955],[5.870913,45.298067],[5.870563,45.298062],[5.870668,45.298721],[5.870631,45.299155],[5.870232,45.299367],[5.869977,45.299444],[5.869374,45.299098],[5.869099,45.299023],[5.869103,45.298694],[5.868971,45.298694],[5.868647,45.299047],[5.86833,45.299191],[5.868053,45.299023],[5.867866,45.298708],[5.868072,45.298143],[5.867941,45.297144],[5.867941,45.296803],[5.867578,45.296213],[5.867605,45.295909],[5.86738,45.295581],[5.866409,45.295305],[5.866501,45.295075],[5.866323,45.295028],[5.865999,45.295117],[5.865966,45.294866],[5.86586,45.294824],[5.865662,45.295029],[5.865517,45.294796],[5.865266,45.294935],[5.865158,45.295095],[5.864522,45.295252],[5.864282,45.294963],[5.863962,45.294385],[5.863663,45.294162],[5.863215,45.293925],[5.862453,45.293737],[5.862195,45.293491],[5.861686,45.293323],[5.861508,45.293184],[5.860947,45.292496],[5.860432,45.291941]]],"type":"MultiLineString"},"properties":{"geo_point":{"lon":5.878768285429693,"lat":45.31604633328731},"name":"Tour des Petites Roches (Isère) (2020)","code_gr":null}}]}