{"type":"FeatureCollection","features":[{"type":"Feature","geometry":{"coordinates":[[[0.863204,46.420861],[0.86256,46.419264],[0.864062,46.418657],[0.865286,46.41737],[0.865436,46.416438],[0.865715,46.415994],[0.866358,46.415506],[0.866487,46.414175],[0.866208,46.413746],[0.866401,46.412607],[0.866873,46.411941],[0.867732,46.411305],[0.868182,46.410269],[0.869663,46.408775],[0.869727,46.407532],[0.869942,46.407177],[0.86977,46.405313],[0.869191,46.404203],[0.868976,46.402605],[0.868869,46.400178],[0.868611,46.400001],[0.869062,46.398432],[0.869169,46.397559],[0.868869,46.397381],[0.867345,46.395458],[0.866466,46.393563],[0.864921,46.391491],[0.864041,46.390781],[0.862281,46.390174],[0.862796,46.389656],[0.863698,46.389819],[0.863848,46.389612],[0.863998,46.389064],[0.864492,46.38865],[0.865543,46.388442],[0.866509,46.387643],[0.867324,46.3868],[0.867582,46.386311],[0.867431,46.38563],[0.867818,46.384609],[0.867624,46.383943],[0.86771,46.382788],[0.867539,46.381619],[0.867796,46.379561],[0.867732,46.378895],[0.869663,46.379191],[0.871401,46.379147],[0.873268,46.37931],[0.874384,46.378155],[0.875049,46.377948],[0.875435,46.378125],[0.877688,46.380079],[0.886722,46.380968],[0.890627,46.380583],[0.895777,46.379043],[0.901721,46.378643],[0.902343,46.378703],[0.902965,46.377726],[0.903502,46.375831],[0.904467,46.375016],[0.904982,46.374868],[0.906806,46.374987],[0.907128,46.37472],[0.906291,46.373181],[0.907407,46.371981],[0.910432,46.366785],[0.910797,46.366725],[0.912621,46.36714],[0.912964,46.366829],[0.912857,46.365793],[0.915303,46.364075],[0.914445,46.363912],[0.913651,46.363942],[0.912664,46.36369],[0.910926,46.363438],[0.910604,46.363527],[0.910304,46.363808],[0.909403,46.36366],[0.908737,46.363764],[0.906356,46.363053],[0.906248,46.362609],[0.903566,46.361987],[0.902879,46.361943],[0.90245,46.361572],[0.901871,46.361498],[0.901227,46.361084],[0.900154,46.36098],[0.900133,46.360669],[0.900583,46.359233],[0.900262,46.35676],[0.899682,46.355249],[0.899382,46.354301],[0.899661,46.353546],[0.900498,46.353427],[0.902815,46.35322],[0.903373,46.352953],[0.903416,46.352435],[0.903759,46.352139],[0.903888,46.351161],[0.90451,46.350199],[0.90539,46.349547],[0.90569,46.348569],[0.905669,46.346629],[0.904339,46.345414],[0.903716,46.344615],[0.903115,46.34297],[0.90348,46.342156],[0.906184,46.338126],[0.905347,46.337904],[0.9079,46.333889],[0.908437,46.334526],[0.908973,46.334704],[0.911055,46.334185],[0.913952,46.333089],[0.915046,46.332422],[0.916248,46.331993],[0.916848,46.331963],[0.917449,46.332037],[0.918672,46.331756],[0.919209,46.331326],[0.919874,46.331385],[0.92026,46.33137],[0.920582,46.331459],[0.921762,46.331311],[0.922277,46.33103],[0.923844,46.3298],[0.924208,46.329652],[0.924723,46.329207],[0.924938,46.328866],[0.925238,46.328644],[0.925603,46.328289],[0.92835,46.327014],[0.928478,46.326273],[0.930066,46.324643],[0.932062,46.323132],[0.933371,46.32245],[0.935431,46.323665],[0.936268,46.323013],[0.93719,46.323354],[0.937834,46.324154],[0.938842,46.323384],[0.939701,46.322984],[0.939744,46.321798],[0.94028,46.321057],[0.940516,46.320391],[0.938499,46.319857],[0.937705,46.319398],[0.936976,46.318494],[0.936482,46.318212],[0.935881,46.318257],[0.934916,46.318479],[0.934336,46.31842],[0.932384,46.317619],[0.93204,46.315307],[0.931633,46.3151],[0.930667,46.315041],[0.929616,46.314211],[0.930581,46.31301],[0.930731,46.312284],[0.930367,46.311469],[0.929744,46.310728],[0.930174,46.309216],[0.93086,46.308534],[0.932298,46.307911],[0.933328,46.307304],[0.933499,46.307052],[0.933864,46.306903],[0.93395,46.306459],[0.934315,46.306296],[0.934851,46.306488],[0.935195,46.306399],[0.934637,46.305599],[0.934401,46.304724],[0.934487,46.303642],[0.935023,46.301863],[0.934014,46.301715],[0.933336,46.301161],[0.932613,46.300679],[0.932386,46.300252],[0.932805,46.300137],[0.932901,46.300005],[0.933031,46.299987],[0.933136,46.299734],[0.933057,46.29965],[0.933319,46.298999],[0.933493,46.298108],[0.933275,46.297675],[0.933214,46.297],[0.93307,46.296556],[0.932191,46.295162],[0.931986,46.295068],[0.931461,46.295251],[0.930513,46.295242],[0.930068,46.295206],[0.929249,46.295026],[0.927585,46.294815],[0.92728,46.294417],[0.92741,46.293635],[0.927792,46.292597],[0.927916,46.291684],[0.927742,46.291617],[0.927158,46.292015],[0.926609,46.29228],[0.926097,46.29236],[0.923898,46.29246],[0.922964,46.292405],[0.919616,46.292256],[0.918093,46.292093],[0.917428,46.291945],[0.917299,46.290878],[0.917345,46.290311],[0.917493,46.289817],[0.916441,46.289424],[0.914381,46.289469],[0.912578,46.288846],[0.91187,46.289365],[0.909596,46.289662],[0.909188,46.289187],[0.907664,46.289617],[0.903223,46.29064],[0.901077,46.289929],[0.899789,46.289854],[0.898609,46.2901],[0.897086,46.290507],[0.896866,46.290106],[0.896356,46.288817],[0.897032,46.288239],[0.897014,46.288113],[0.89494,46.286815],[0.894597,46.28591],[0.893607,46.284481],[0.893302,46.284162],[0.892751,46.283879],[0.891533,46.283078],[0.892236,46.282411],[0.892708,46.280394],[0.892494,46.280186],[0.891533,46.280085],[0.890077,46.279681],[0.889319,46.275308],[0.888868,46.274432],[0.887602,46.27411],[0.886035,46.273631],[0.8811,46.271643],[0.879233,46.270857],[0.877764,46.269929],[0.87668,46.269329],[0.874984,46.269463],[0.873677,46.269086],[0.873964,46.268092],[0.873938,46.267809],[0.873504,46.267549],[0.872474,46.267152],[0.87477,46.265087],[0.874748,46.264864],[0.869856,46.263915],[0.868268,46.263396],[0.867132,46.263308],[0.865951,46.263277],[0.86138,46.261868],[0.856187,46.258649],[0.853827,46.257284],[0.8525,46.256108],[0.851166,46.254791],[0.850823,46.254168],[0.84651,46.250666],[0.845909,46.250399],[0.845354,46.249811],[0.845032,46.249721],[0.843219,46.249655],[0.84301,46.249618],[0.841869,46.248968],[0.840137,46.248426],[0.839408,46.248351],[0.838313,46.248003],[0.83694,46.247921],[0.836535,46.2476],[0.835978,46.247389],[0.835559,46.247624],[0.834662,46.247606],[0.834022,46.247313],[0.833538,46.247582],[0.833198,46.247563],[0.832477,46.247224],[0.831082,46.247981],[0.829001,46.2466],[0.823429,46.243815],[0.819455,46.245285],[0.818958,46.245526],[0.818465,46.245977],[0.815826,46.248633],[0.814538,46.249672],[0.813637,46.250132],[0.812607,46.250444],[0.811234,46.251008],[0.809238,46.251482],[0.806599,46.252655],[0.804474,46.253322],[0.802854,46.253614],[0.802331,46.253788],[0.799539,46.255429],[0.798845,46.257434],[0.798638,46.257744],[0.798853,46.257862],[0.799167,46.257795],[0.801149,46.258293],[0.800396,46.259109],[0.800161,46.259266],[0.799499,46.259832],[0.798574,46.260444],[0.797608,46.260829],[0.795977,46.261378],[0.795119,46.261779],[0.794325,46.262788],[0.794261,46.264197],[0.793789,46.265858],[0.794003,46.267342],[0.793402,46.268158],[0.79293,46.268143],[0.791664,46.268469],[0.791342,46.268009],[0.789347,46.267208],[0.787265,46.267164],[0.787373,46.266452],[0.787566,46.265888],[0.787501,46.265547],[0.785678,46.264227],[0.785098,46.263411],[0.785206,46.263188],[0.784283,46.262906],[0.78394,46.262966],[0.783725,46.263203],[0.783253,46.263173],[0.781622,46.262535],[0.780945,46.262537],[0.779813,46.262381],[0.779185,46.2622],[0.778575,46.26209],[0.77776,46.261022],[0.777224,46.260983],[0.777009,46.260933],[0.776837,46.260815],[0.776301,46.260815],[0.775013,46.260384],[0.77452,46.259064],[0.772267,46.257254],[0.771621,46.256361],[0.771215,46.255652],[0.769949,46.25491],[0.768941,46.253931],[0.768361,46.253619],[0.767447,46.253343],[0.766253,46.252903],[0.764392,46.252566],[0.763512,46.25261],[0.762868,46.252862],[0.762627,46.253071],[0.761087,46.252818],[0.760161,46.252457],[0.758689,46.2518],[0.75827,46.251752],[0.758506,46.251481],[0.75807,46.251017],[0.758555,46.25074],[0.757922,46.250137],[0.756302,46.249806],[0.755851,46.249331],[0.753749,46.247669],[0.752536,46.246455],[0.752976,46.245651],[0.750702,46.245621],[0.749114,46.245102],[0.747483,46.244746],[0.745895,46.244093],[0.743985,46.243558],[0.74096,46.243454],[0.740597,46.243574],[0.74038,46.243751],[0.737741,46.243499],[0.736175,46.242564],[0.735359,46.242297],[0.733986,46.242089],[0.732033,46.24111],[0.730038,46.240397],[0.728922,46.24016],[0.726884,46.239878],[0.726369,46.239715],[0.725811,46.239448],[0.724597,46.23915],[0.723499,46.238824],[0.722976,46.238722],[0.722898,46.238662],[0.722335,46.238483],[0.721562,46.238453],[0.720446,46.238661],[0.719416,46.238661],[0.717077,46.237993],[0.714288,46.237206],[0.712743,46.236598],[0.711906,46.23596],[0.711473,46.235732],[0.71075,46.235563],[0.70828,46.235069],[0.706881,46.234912],[0.704911,46.234565],[0.703495,46.23409],[0.70343,46.235218],[0.70309,46.236673],[0.703177,46.237703],[0.703377,46.238065],[0.70363,46.238246],[0.705504,46.238927],[0.70709,46.239566],[0.707804,46.239668],[0.708353,46.239921],[0.709312,46.240831],[0.710018,46.241599],[0.708623,46.242891],[0.708559,46.243202],[0.706968,46.244393],[0.705417,46.245852],[0.701564,46.242802],[0.700693,46.242374],[0.697129,46.240982],[0.695684,46.240353],[0.693164,46.240084],[0.692859,46.239945],[0.692615,46.239674],[0.69195,46.24013],[0.691264,46.240338],[0.690706,46.239744],[0.689652,46.240181],[0.689417,46.240512],[0.688937,46.240904],[0.688646,46.240976],[0.687081,46.241145],[0.686865,46.241792],[0.686583,46.242032],[0.686371,46.24211],[0.686436,46.242425],[0.686209,46.242785],[0.685358,46.242744],[0.685369,46.243064],[0.686109,46.243464],[0.687686,46.243902],[0.688255,46.24428],[0.688373,46.244592],[0.68842,46.245214],[0.688355,46.245631],[0.688583,46.245833],[0.688062,46.246362],[0.688062,46.246688],[0.688274,46.247306],[0.688745,46.248161],[0.688924,46.248881],[0.688941,46.249364],[0.68868,46.249904],[0.689217,46.250196],[0.690355,46.249724],[0.690762,46.249702],[0.691461,46.249465],[0.691916,46.248881],[0.692307,46.248487],[0.692811,46.247138],[0.692827,46.246676],[0.693071,46.24653],[0.693388,46.246764],[0.693826,46.247208],[0.694182,46.247684],[0.69468,46.248817],[0.694794,46.249492],[0.69474,46.250162],[0.694375,46.251349],[0.694192,46.251842],[0.69407,46.252734],[0.694245,46.253734],[0.694719,46.254836],[0.696564,46.258945],[0.696824,46.258976],[0.697173,46.260019],[0.697574,46.260284],[0.697873,46.26077],[0.698715,46.261682],[0.700276,46.262624],[0.700789,46.262724],[0.701016,46.262652],[0.701277,46.262278],[0.701547,46.262387],[0.701809,46.262429],[0.702349,46.263001],[0.70268,46.263037],[0.702958,46.263322],[0.703046,46.264031],[0.70329,46.264429],[0.704181,46.265131],[0.704754,46.265453],[0.705347,46.265694],[0.704374,46.26746],[0.705662,46.275025],[0.70564,46.275989],[0.706053,46.275995],[0.706778,46.276553],[0.706985,46.276953],[0.707787,46.277736],[0.708516,46.278392],[0.708623,46.278837],[0.709052,46.279252],[0.709396,46.279904],[0.709825,46.280349],[0.709632,46.280824],[0.709868,46.281106],[0.710576,46.281625],[0.710898,46.28247],[0.711284,46.283137],[0.711526,46.283807],[0.71182,46.284338],[0.711477,46.284843],[0.711155,46.285139],[0.711273,46.285463],[0.710584,46.285993],[0.71021,46.28583],[0.709717,46.285717],[0.709653,46.285154],[0.70916,46.284991],[0.708728,46.285005],[0.707765,46.285955],[0.70637,46.286444],[0.705018,46.286311],[0.704353,46.28855],[0.704109,46.288444],[0.703473,46.287872],[0.702645,46.28842],[0.700319,46.29027],[0.699675,46.290863],[0.69916,46.291634],[0.699117,46.296245],[0.698903,46.296675],[0.697808,46.298305],[0.697379,46.300722],[0.697487,46.301715],[0.700075,46.302955],[0.701156,46.30342],[0.701521,46.303776],[0.703237,46.303776],[0.70313,46.305095],[0.702808,46.305792],[0.702593,46.306874],[0.701885,46.307541],[0.699568,46.30883],[0.698946,46.309008],[0.698238,46.309008],[0.697513,46.310028],[0.696778,46.311276],[0.696478,46.311395],[0.695384,46.313603],[0.694182,46.314433],[0.693174,46.315263],[0.691672,46.316004],[0.691049,46.316715],[0.690792,46.317234],[0.690041,46.317797],[0.689922,46.318106],[0.689869,46.318494],[0.690105,46.319472],[0.690062,46.320213],[0.690271,46.320447],[0.690384,46.320865],[0.690227,46.321651],[0.690445,46.322602],[0.690733,46.323222],[0.690878,46.324466],[0.691521,46.325562],[0.691929,46.325933],[0.692744,46.327829],[0.692766,46.328289],[0.692637,46.328881],[0.69265,46.330455],[0.693138,46.331683],[0.693704,46.332814],[0.693696,46.333241],[0.693002,46.334526],[0.691564,46.335208],[0.68871,46.335889],[0.691607,46.341282],[0.694847,46.34737],[0.696628,46.350761],[0.696955,46.351897],[0.697155,46.353148],[0.6971,46.35436],[0.696981,46.363643],[0.697401,46.365334],[0.698106,46.367691],[0.699783,46.37478],[0.700197,46.375609],[0.701692,46.378037],[0.703259,46.381219],[0.704754,46.383737],[0.705057,46.38553],[0.70549,46.386992],[0.706445,46.38964],[0.707679,46.393933],[0.708065,46.398536],[0.708005,46.399954],[0.707935,46.401101],[0.708022,46.401877],[0.708366,46.402797],[0.70916,46.403803],[0.709687,46.404377],[0.709486,46.404431],[0.709556,46.404623],[0.70946,46.405134],[0.709539,46.405308],[0.710105,46.405362],[0.710724,46.405344],[0.71137,46.405594],[0.712545,46.405903],[0.713138,46.406089],[0.713739,46.406185],[0.713992,46.406275],[0.714149,46.406209],[0.715098,46.40642],[0.715796,46.40651],[0.71682,46.406304],[0.717539,46.405705],[0.719386,46.405338],[0.721016,46.405164],[0.721783,46.405176],[0.721739,46.405434],[0.721922,46.405675],[0.721791,46.405789],[0.721469,46.405945],[0.72139,46.406038],[0.722201,46.405951],[0.72315,46.406067],[0.723729,46.406274],[0.724781,46.406112],[0.725486,46.405536],[0.725739,46.405482],[0.725887,46.40532],[0.726111,46.405224],[0.726227,46.405026],[0.726776,46.40532],[0.727098,46.405368],[0.727534,46.405278],[0.728205,46.404887],[0.728384,46.404601],[0.728351,46.404461],[0.728901,46.404277],[0.729286,46.40432],[0.730246,46.404589],[0.730563,46.404584],[0.731194,46.403565],[0.732562,46.403217],[0.734209,46.402994],[0.735307,46.402994],[0.735303,46.402223],[0.7361,46.402386],[0.736799,46.402341],[0.737287,46.402919],[0.739434,46.403081],[0.741304,46.403171],[0.743223,46.403356],[0.745638,46.403547],[0.745423,46.404011],[0.745981,46.404144],[0.7475,46.403984],[0.749459,46.404169],[0.750541,46.40441],[0.751388,46.404558],[0.752679,46.40496],[0.753273,46.405229],[0.753346,46.403765],[0.753557,46.403474],[0.75359,46.402807],[0.753476,46.401657],[0.753378,46.401298],[0.752826,46.401258],[0.752646,46.39942],[0.752305,46.398781],[0.75172,46.398057],[0.750938,46.397307],[0.753062,46.396094],[0.75392,46.395546],[0.754736,46.395073],[0.755183,46.39476],[0.755484,46.394934],[0.755769,46.395035],[0.756248,46.395068],[0.756761,46.395242],[0.758054,46.395814],[0.758419,46.395876],[0.759027,46.395872],[0.759615,46.395977],[0.761774,46.395739],[0.762847,46.395768],[0.76422,46.395591],[0.765014,46.395591],[0.765501,46.395713],[0.768941,46.394673],[0.771043,46.394392],[0.771558,46.394096],[0.774348,46.394042],[0.77573,46.394519],[0.776601,46.394747],[0.777567,46.394718],[0.778104,46.394418],[0.778373,46.393302],[0.783875,46.39343],[0.784601,46.393807],[0.784841,46.393859],[0.786536,46.393139],[0.786138,46.392741],[0.786081,46.392522],[0.786398,46.392248],[0.786992,46.391889],[0.78774,46.391586],[0.788188,46.391343],[0.788414,46.391289],[0.789325,46.390874],[0.789733,46.390514],[0.79052,46.390212],[0.792093,46.389804],[0.792673,46.389256],[0.79278,46.388428],[0.792301,46.387346],[0.79308,46.386829],[0.793488,46.386267],[0.794106,46.386443],[0.795055,46.386888],[0.797846,46.385753],[0.799155,46.385658],[0.799391,46.385585],[0.799757,46.385759],[0.800668,46.385989],[0.802278,46.385927],[0.803294,46.385725],[0.804174,46.385467],[0.80559,46.385023],[0.80853,46.384446],[0.809474,46.384342],[0.811212,46.383824],[0.813401,46.383736],[0.815504,46.383099],[0.816362,46.383025],[0.817409,46.383313],[0.81795,46.384061],[0.818465,46.384209],[0.819066,46.384772],[0.820694,46.387576],[0.820995,46.387811],[0.821211,46.388117],[0.821469,46.388635],[0.82228,46.389617],[0.82276,46.39033],[0.823353,46.391014],[0.827155,46.395117],[0.828695,46.396111],[0.830116,46.39713],[0.833571,46.399113],[0.834344,46.399779],[0.835695,46.401406],[0.835695,46.403078],[0.835818,46.403586],[0.836086,46.4039],[0.838356,46.405076],[0.840116,46.407162],[0.840631,46.408435],[0.840826,46.409349],[0.839172,46.409707],[0.838335,46.410032],[0.837326,46.410817],[0.836339,46.411408],[0.836404,46.412474],[0.838216,46.412629],[0.839579,46.412917],[0.84091,46.413687],[0.842776,46.414693],[0.844772,46.41521],[0.848591,46.416009],[0.85181,46.416335],[0.856102,46.417903],[0.85696,46.418287],[0.858011,46.418894],[0.859873,46.419618],[0.860436,46.420033],[0.860761,46.420612],[0.861044,46.420739],[0.86153,46.420846]]],"type":"MultiLineString"},"properties":{"geo_point":{"lon":0.8030460765544313,"lat":46.32352842983346},"name":"Tour de la Vienne Limousine (Vienne) (2020)","code_gr":null}}]}