{"type":"FeatureCollection","features":[{"type":"Feature","geometry":{"coordinates":[[[0.710868,48.821999],[0.710996,48.819823],[0.707391,48.820247],[0.707155,48.818283],[0.706834,48.817662],[0.705653,48.816404],[0.705503,48.815995],[0.70561,48.815712],[0.705954,48.815627],[0.706662,48.815726],[0.706962,48.815528],[0.706984,48.814709],[0.70561,48.811925],[0.705031,48.811035],[0.704817,48.810286],[0.704323,48.809466],[0.70443,48.808988],[0.704216,48.808663],[0.703722,48.808465],[0.7034,48.808098],[0.702907,48.808041],[0.701877,48.807476],[0.700825,48.807292],[0.69825,48.806388],[0.697285,48.805808],[0.696534,48.805667],[0.695955,48.80502],[0.695461,48.804709],[0.694967,48.804045],[0.694624,48.803833],[0.693809,48.801896],[0.693073,48.802401],[0.690283,48.803376],[0.689446,48.803546],[0.686764,48.804577],[0.684189,48.805651],[0.682108,48.806075],[0.681292,48.806132],[0.680627,48.806584],[0.678138,48.807856],[0.677065,48.807234],[0.676271,48.807842],[0.675713,48.808492],[0.675027,48.808972],[0.673503,48.809665],[0.672409,48.810046],[0.671529,48.810527],[0.670585,48.811304],[0.669898,48.812025],[0.668568,48.81112],[0.665435,48.809721],[0.661337,48.808492],[0.660028,48.810244],[0.654213,48.80876],[0.653269,48.808916],[0.652453,48.810075],[0.649192,48.812406],[0.647582,48.813819],[0.645286,48.816235],[0.644321,48.816193],[0.642883,48.816292],[0.641682,48.817493],[0.641059,48.817987],[0.638356,48.820827],[0.636253,48.820545],[0.634558,48.820093],[0.633377,48.819584],[0.625738,48.817761],[0.623636,48.820813],[0.623357,48.821647],[0.622992,48.823752],[0.623185,48.824543],[0.624987,48.824924],[0.625889,48.825334],[0.63091,48.830899],[0.629129,48.831916],[0.6287,48.831705],[0.62797,48.831634],[0.626661,48.83138],[0.625631,48.830942],[0.624301,48.831507],[0.623078,48.832383],[0.621082,48.834261],[0.620932,48.835165],[0.620009,48.836267],[0.619923,48.837637],[0.619623,48.838682],[0.616876,48.839402],[0.616147,48.839558],[0.614387,48.840009],[0.613529,48.84032],[0.612714,48.840447],[0.611598,48.841012],[0.611941,48.841619],[0.610868,48.842326],[0.610825,48.842693],[0.611297,48.843272],[0.611748,48.844938],[0.612842,48.846407],[0.614108,48.84772],[0.615525,48.850219],[0.61649,48.852506],[0.616125,48.852902],[0.616705,48.854469],[0.615889,48.855147],[0.615868,48.856841],[0.616083,48.857688],[0.617091,48.859029],[0.618572,48.860836],[0.619001,48.861655],[0.619773,48.865367],[0.620159,48.866271],[0.620224,48.867174],[0.619859,48.867372],[0.620288,48.868487],[0.620052,48.868727],[0.619387,48.868741],[0.616233,48.869065],[0.615396,48.869574],[0.614752,48.869785],[0.61443,48.86939],[0.613787,48.869263],[0.613014,48.868896],[0.610139,48.869588],[0.607285,48.869912],[0.605182,48.870082],[0.605504,48.870745],[0.607156,48.872368],[0.608079,48.873624],[0.608701,48.874132],[0.610461,48.875007],[0.612199,48.875402],[0.614087,48.876489],[0.615181,48.877477],[0.618078,48.8779],[0.6187,48.878366],[0.619623,48.880102],[0.620396,48.881033],[0.620438,48.881287],[0.619237,48.881499],[0.617477,48.882388],[0.616984,48.882529],[0.616083,48.883023],[0.613379,48.883714],[0.611297,48.886085],[0.610611,48.886409],[0.607242,48.886974],[0.608401,48.889132],[0.608551,48.890331],[0.607972,48.890289],[0.606663,48.889936],[0.605826,48.889499],[0.603487,48.888935],[0.602071,48.88885],[0.600569,48.888638],[0.596921,48.888427],[0.595033,48.88861],[0.595633,48.887848],[0.596063,48.88679],[0.59617,48.886042],[0.595848,48.886042],[0.594346,48.88576],[0.590462,48.886197],[0.58881,48.88624],[0.585377,48.886042],[0.583982,48.885563],[0.582888,48.885365],[0.576944,48.88607],[0.576557,48.885661],[0.574605,48.886564],[0.568253,48.888638],[0.566708,48.888032],[0.564949,48.888737],[0.563018,48.889104],[0.561258,48.889076],[0.559885,48.889231],[0.557289,48.889259],[0.556795,48.889414],[0.555851,48.889555],[0.554649,48.890049],[0.553233,48.890289],[0.553405,48.889697],[0.55319,48.889443],[0.552911,48.889443],[0.552782,48.889894],[0.552074,48.890049],[0.549821,48.889033],[0.549714,48.888822],[0.547997,48.888949],[0.546581,48.889203],[0.544521,48.889414],[0.543749,48.889273],[0.54244,48.888681],[0.541281,48.888427],[0.540401,48.888399],[0.538213,48.888878],[0.537204,48.888963],[0.536324,48.888779],[0.532183,48.888779],[0.532269,48.890162],[0.532526,48.890966],[0.532548,48.892137],[0.52345,48.893393],[0.522634,48.891785],[0.522806,48.891333],[0.52227,48.890416],[0.519974,48.891107],[0.519115,48.891122],[0.51742,48.891912],[0.516905,48.892913],[0.516176,48.893576],[0.515339,48.893633],[0.512206,48.893689],[0.511433,48.893971],[0.510468,48.894493],[0.510082,48.895128],[0.507678,48.894987],[0.508429,48.892673],[0.508193,48.892024],[0.507485,48.891234],[0.505597,48.889626],[0.505945,48.88832],[0.505601,48.8876],[0.505515,48.886133],[0.505945,48.88609],[0.505687,48.885244],[0.50706,48.88523],[0.50646,48.882591],[0.506266,48.880996],[0.505794,48.881208],[0.50603,48.880517],[0.504164,48.881039],[0.503241,48.881039],[0.501674,48.880799],[0.499894,48.880728],[0.499357,48.880672],[0.49852,48.880827],[0.498263,48.881208],[0.497168,48.881744],[0.496374,48.881984],[0.495967,48.882732],[0.495194,48.88355],[0.4944,48.88403],[0.493649,48.884171],[0.492255,48.88396],[0.490366,48.883861],[0.488349,48.883974],[0.490023,48.888305],[0.488285,48.889222],[0.489272,48.896079],[0.484809,48.896008],[0.481826,48.896135],[0.47865,48.897292],[0.475432,48.898336],[0.464939,48.900861],[0.462536,48.901552],[0.461184,48.90175],[0.460926,48.901721],[0.459939,48.901919],[0.456184,48.90213],[0.453245,48.902187],[0.452987,48.90268],[0.452815,48.904288],[0.453867,48.90481],[0.454789,48.904824],[0.455798,48.904232],[0.456871,48.905149],[0.457493,48.905149],[0.457794,48.90498],[0.458201,48.905487],[0.458652,48.906446],[0.459489,48.907391],[0.460969,48.908393],[0.46039,48.908872],[0.460411,48.909535],[0.461377,48.910903],[0.461849,48.911411],[0.461871,48.912341],[0.46245,48.913131],[0.463759,48.915839],[0.46481,48.916967],[0.465411,48.917446],[0.465947,48.9177],[0.466591,48.918363],[0.467256,48.918574],[0.468201,48.918617],[0.468694,48.918927],[0.46878,48.919505],[0.469917,48.9199],[0.470325,48.919857],[0.470518,48.919998],[0.470711,48.923763],[0.470411,48.924355],[0.470175,48.923537],[0.469059,48.922409],[0.4676,48.922804],[0.466184,48.923072],[0.46554,48.923974],[0.462707,48.925088],[0.461871,48.925779],[0.461313,48.926075],[0.461205,48.926639],[0.461956,48.926695],[0.463179,48.927767],[0.464553,48.928105],[0.465411,48.928105],[0.466462,48.928528],[0.46878,48.92905],[0.47084,48.92991],[0.471784,48.930643],[0.472921,48.931728],[0.474037,48.933476],[0.475067,48.934646],[0.478028,48.937198],[0.479316,48.937522],[0.480324,48.938212],[0.480732,48.939368],[0.481204,48.939143],[0.482041,48.939058],[0.48174,48.938565],[0.482706,48.938114],[0.482942,48.937592],[0.483478,48.937282],[0.485109,48.936746],[0.486225,48.936591],[0.486912,48.936676],[0.48601,48.938396],[0.486482,48.938424],[0.48747,48.940115],[0.491804,48.93903],[0.496696,48.938579],[0.498134,48.940697],[0.499142,48.942712],[0.504249,48.942896],[0.506803,48.943995],[0.508112,48.944234],[0.510022,48.94477],[0.510773,48.945376],[0.510365,48.946348],[0.509163,48.947039],[0.508176,48.948321],[0.507597,48.948589],[0.507554,48.950026],[0.508026,48.950365],[0.509099,48.952577],[0.509785,48.953549],[0.509721,48.954634],[0.510365,48.954874],[0.510644,48.955522],[0.510773,48.956311],[0.511245,48.956395],[0.511223,48.956804],[0.510667,48.957546],[0.509659,48.960223],[0.508328,48.962111],[0.507534,48.962914],[0.507341,48.963449],[0.506869,48.963407],[0.507105,48.96297],[0.506933,48.962773],[0.505882,48.96335],[0.505539,48.963336],[0.505281,48.962829],[0.505024,48.962885],[0.50468,48.962787],[0.504401,48.96228],[0.502234,48.961547],[0.501719,48.96166],[0.50202,48.961984],[0.498887,48.962914],[0.497792,48.963322],[0.497449,48.963364],[0.496205,48.96421],[0.495024,48.964731],[0.497685,48.968478],[0.50011,48.968168],[0.500947,48.969647],[0.500732,48.969873],[0.501483,48.970985],[0.502299,48.972507],[0.503178,48.972619],[0.504595,48.972408],[0.505431,48.972478],[0.505968,48.972647],[0.506461,48.972535],[0.507427,48.972718],[0.507963,48.972929],[0.508693,48.973],[0.510002,48.972746],[0.511718,48.971971],[0.512663,48.972845],[0.513714,48.973211],[0.515216,48.974056],[0.515516,48.973943],[0.516268,48.973971],[0.518156,48.972985],[0.521417,48.97207],[0.521889,48.973225],[0.522898,48.975028],[0.523778,48.975943],[0.525451,48.977662],[0.520752,48.980112],[0.520688,48.980929],[0.52028,48.981267],[0.520001,48.981816],[0.519164,48.982295],[0.519293,48.983098],[0.519078,48.983661],[0.518413,48.984323],[0.517405,48.984801],[0.516761,48.985379],[0.516675,48.985956],[0.516697,48.987463],[0.516268,48.988153],[0.51837,48.987787],[0.519508,48.988251],[0.52028,48.988927],[0.519851,48.989448],[0.520817,48.990193],[0.521267,48.990826],[0.5247,48.994544],[0.525215,48.99529],[0.525537,48.996177],[0.525645,48.99543],[0.52558,48.994966],[0.526417,48.994924],[0.528498,48.995135],[0.529099,48.995459],[0.52897,48.996388],[0.529228,48.997683],[0.529893,48.998584],[0.530408,48.999175],[0.530816,49.000414],[0.53073,49.001343],[0.530194,49.002526],[0.529485,49.003905],[0.529314,49.005003],[0.529936,49.006706],[0.53103,49.006988],[0.530923,49.007579],[0.531417,49.008621],[0.531932,49.008663],[0.534142,49.008508],[0.535215,49.008733],[0.536137,49.009169],[0.537468,49.008888],[0.539892,49.008832],[0.545257,49.007621],[0.545643,49.007424],[0.546716,49.007635],[0.552531,49.007452],[0.553776,49.007227],[0.554698,49.007199],[0.554956,49.007072],[0.55605,49.006805],[0.557702,49.006551],[0.558131,49.006523],[0.558732,49.007579],[0.560127,49.008241],[0.560492,49.00886],[0.560299,49.010127],[0.559741,49.011351],[0.559676,49.012139],[0.560084,49.012632],[0.561715,49.013518],[0.562745,49.014855],[0.56311,49.015812],[0.562852,49.016249],[0.561801,49.016854],[0.560985,49.018275],[0.561951,49.018852],[0.563131,49.019176],[0.564182,49.019598],[0.564333,49.019879],[0.56341,49.020794],[0.563281,49.021371],[0.564762,49.022314],[0.564891,49.022651],[0.564204,49.022933],[0.563517,49.022722],[0.564461,49.024073],[0.565448,49.024396],[0.565792,49.025845],[0.568646,49.028505],[0.568925,49.030784],[0.56856,49.030995],[0.567787,49.031741],[0.56768,49.03243],[0.567787,49.033485],[0.568131,49.034498],[0.568259,49.035412],[0.569268,49.036763],[0.572015,49.039675],[0.572787,49.040673],[0.573195,49.040645],[0.573946,49.040322],[0.574547,49.040589],[0.577079,49.040223],[0.577529,49.040322],[0.57989,49.044021],[0.580426,49.04464],[0.580726,49.045498],[0.580619,49.046088],[0.58049,49.04869],[0.58122,49.049984],[0.582314,49.050786],[0.589631,49.054892],[0.590511,49.055539],[0.59182,49.057001],[0.592571,49.057606],[0.598021,49.061079],[0.599802,49.062344],[0.60154,49.065283],[0.601841,49.066365],[0.601798,49.0686],[0.602077,49.069767],[0.602871,49.071623],[0.603306,49.074776],[0.60395,49.076378],[0.605238,49.078993],[0.605581,49.07985],[0.605581,49.080834],[0.605173,49.081593],[0.600989,49.085486],[0.602341,49.085739],[0.602384,49.087847],[0.603349,49.086722],[0.60468,49.085542],[0.609207,49.081846],[0.611302,49.078782],[0.612268,49.07784],[0.614049,49.077095],[0.614671,49.076772],[0.615272,49.077095],[0.61716,49.076842],[0.619027,49.076027],[0.625636,49.07621],[0.62761,49.076856],[0.629649,49.076884],[0.630078,49.077194],[0.631151,49.07687],[0.631945,49.076912],[0.633618,49.077348],[0.634541,49.077334],[0.635936,49.077165],[0.63703,49.076659],[0.637288,49.076674],[0.637652,49.07635],[0.638361,49.076533],[0.638618,49.075872],[0.640442,49.074593],[0.641729,49.073314],[0.642416,49.072541],[0.644004,49.071669],[0.643382,49.071416],[0.644412,49.069884],[0.64454,49.069364],[0.645227,49.068338],[0.647523,49.068591],[0.648725,49.068633],[0.650656,49.069069],[0.652673,49.068928],[0.652802,49.067846],[0.656364,49.065906],[0.656857,49.065934],[0.657908,49.065695],[0.658488,49.064936],[0.661964,49.065076],[0.662586,49.064556],[0.662865,49.063572],[0.663251,49.063445],[0.665204,49.060577],[0.663809,49.060141],[0.663445,49.059312],[0.662393,49.058327],[0.660033,49.057034],[0.659904,49.057709],[0.6572,49.057709],[0.659019,49.054784],[0.659513,49.053631],[0.660264,49.052604],[0.662946,49.050452],[0.665843,49.04996],[0.664212,49.044335],[0.666443,49.045263],[0.667044,49.045643],[0.668439,49.045235],[0.671572,49.043041],[0.671615,49.042647],[0.673803,49.041395],[0.676443,49.042098],[0.678395,49.041929],[0.68097,49.042281],[0.682816,49.040467],[0.683588,49.039299],[0.684318,49.038962],[0.684747,49.038469],[0.685219,49.038568],[0.685562,49.038202],[0.686313,49.037878],[0.688116,49.037625],[0.688399,49.037305],[0.68885,49.037108],[0.688506,49.036728],[0.689064,49.035237],[0.688721,49.034604],[0.689,49.034337],[0.690202,49.033971],[0.691232,49.033844],[0.690566,49.032508],[0.690695,49.031157],[0.691832,49.029314],[0.692369,49.028892],[0.691446,49.028189],[0.692455,49.027021],[0.692776,49.026472],[0.692433,49.025923],[0.695545,49.025783],[0.696145,49.025529],[0.698549,49.02453],[0.699579,49.023799],[0.700394,49.023461],[0.701531,49.022743],[0.701789,49.021618],[0.702904,49.020787],[0.701338,49.019859],[0.700501,49.018592],[0.700716,49.018212],[0.705136,49.016073],[0.703419,49.014905],[0.703162,49.013976],[0.704922,49.013301],[0.706445,49.013202],[0.707711,49.012696],[0.706552,49.011527],[0.706853,49.011316],[0.70666,49.010866],[0.706874,49.010303],[0.707175,49.010176],[0.707346,49.009627],[0.709578,49.006925],[0.7099,49.006052],[0.709814,49.004729],[0.709299,49.00228],[0.708741,49.001154],[0.708548,48.999718],[0.707539,48.998197],[0.706338,48.997367],[0.706359,48.997099],[0.706853,48.997043],[0.708398,48.996606],[0.709149,48.996107],[0.710222,48.995135],[0.712088,48.993953],[0.71535,48.992333],[0.715972,48.992164],[0.716487,48.991784],[0.719835,48.990658],[0.720929,48.990897],[0.72183,48.989982],[0.723311,48.9897],[0.724813,48.989264],[0.726401,48.988982],[0.729126,48.988349],[0.729941,48.987954],[0.730242,48.987462],[0.731293,48.986772],[0.733031,48.986307],[0.735348,48.985476],[0.739619,48.984631],[0.737142,48.982328],[0.739073,48.978653],[0.741863,48.97854],[0.743472,48.978878],[0.744996,48.979343],[0.74903,48.979413],[0.752549,48.97985],[0.755617,48.980047],[0.757377,48.98054],[0.76008,48.98099],[0.76154,48.980807],[0.762741,48.980469],[0.764479,48.979765],[0.767226,48.97923],[0.769702,48.978637],[0.774465,48.977918],[0.776332,48.977482],[0.777577,48.97744],[0.77925,48.977764],[0.780645,48.978214],[0.781031,48.978087],[0.779638,48.977518],[0.779058,48.97718],[0.776891,48.975307],[0.776076,48.975025],[0.774724,48.974068],[0.772964,48.972673],[0.768932,48.970463],[0.765971,48.969646],[0.764512,48.969519],[0.764726,48.968998],[0.764662,48.968406],[0.764984,48.967012],[0.756186,48.965194],[0.755113,48.964617],[0.754598,48.964011],[0.755027,48.964025],[0.756057,48.964391],[0.756916,48.963842],[0.758289,48.962377],[0.760692,48.961827],[0.761636,48.961285],[0.762452,48.960637],[0.763653,48.960186],[0.763718,48.959623],[0.765069,48.959017],[0.764941,48.957876],[0.762559,48.956903],[0.761572,48.955734],[0.760542,48.955438],[0.760027,48.954804],[0.759984,48.954283],[0.758911,48.953367],[0.757838,48.952803],[0.7558,48.952263],[0.753439,48.95201],[0.753332,48.951714],[0.752324,48.951855],[0.749212,48.952094],[0.748569,48.952024],[0.748032,48.951841],[0.747281,48.952362],[0.747603,48.952799],[0.747496,48.95325],[0.746895,48.953376],[0.745972,48.952954],[0.746079,48.951981],[0.746423,48.950403],[0.74668,48.949685],[0.746788,48.946302],[0.748998,48.94595],[0.749556,48.945739],[0.748161,48.94533],[0.745114,48.943132],[0.744749,48.943216],[0.74241,48.942836],[0.740286,48.942399],[0.738655,48.941398],[0.738375,48.940796],[0.73698,48.938879],[0.736616,48.937934],[0.736165,48.936976],[0.736594,48.935862],[0.737667,48.935214],[0.738418,48.935284],[0.73992,48.935045],[0.741379,48.934608],[0.74228,48.933593],[0.742602,48.933438],[0.743418,48.931929],[0.74374,48.931746],[0.743976,48.931478],[0.744555,48.930379],[0.74419,48.929914],[0.744169,48.929209],[0.743654,48.92856],[0.743632,48.92763],[0.742838,48.927714],[0.742025,48.927195],[0.740802,48.926801],[0.739557,48.926194],[0.739836,48.925771],[0.74048,48.925405],[0.741038,48.92525],[0.742003,48.924192],[0.741488,48.923967],[0.740308,48.923967],[0.74078,48.923375],[0.740845,48.922106],[0.74048,48.921457],[0.739901,48.921133],[0.739643,48.920385],[0.739707,48.918017],[0.739729,48.917114],[0.7396,48.916057],[0.7393,48.915394],[0.73975,48.913871],[0.740523,48.912432],[0.740609,48.911544],[0.740437,48.910599],[0.740888,48.909443],[0.741467,48.908568],[0.741939,48.908202],[0.742497,48.90792],[0.741918,48.907877],[0.741338,48.906312],[0.739729,48.905127],[0.73621,48.903561],[0.735781,48.903378],[0.734944,48.902757],[0.732519,48.901615],[0.729773,48.901615],[0.729022,48.901361],[0.728335,48.900924],[0.727434,48.900811],[0.726597,48.900895],[0.724108,48.900797],[0.721374,48.899965],[0.719228,48.899146],[0.714894,48.898342],[0.710624,48.8972],[0.707276,48.892968],[0.707148,48.892488],[0.705495,48.890343],[0.705603,48.890075],[0.704723,48.889948],[0.704186,48.889299],[0.70144,48.887818],[0.699251,48.88659],[0.698028,48.885589],[0.697084,48.885165],[0.69644,48.884474],[0.695668,48.884657],[0.69496,48.883881],[0.694423,48.882456],[0.694573,48.881172],[0.693543,48.879775],[0.692599,48.878759],[0.693093,48.878293],[0.694058,48.877969],[0.694466,48.877221],[0.694874,48.876939],[0.69511,48.876515],[0.695539,48.875979],[0.696033,48.873128],[0.696547,48.872366],[0.697663,48.870828],[0.69702,48.869402],[0.696848,48.868894],[0.696183,48.868019],[0.695968,48.86696],[0.696247,48.866043],[0.696247,48.865069],[0.697191,48.861074],[0.696869,48.861046],[0.6985,48.858547],[0.698865,48.856345],[0.699015,48.854665],[0.700603,48.853987],[0.70144,48.852293],[0.702084,48.851417],[0.702835,48.850838],[0.701955,48.849878],[0.701976,48.849342],[0.702341,48.849172],[0.703028,48.849469],[0.702813,48.84889],[0.702963,48.848184],[0.703156,48.846334],[0.702513,48.845247],[0.702255,48.844117],[0.702534,48.843397],[0.704787,48.842281],[0.706804,48.841038],[0.708349,48.840742],[0.711182,48.839442],[0.713542,48.838087],[0.715087,48.837267],[0.715795,48.836717],[0.715838,48.836434],[0.716353,48.836349],[0.714894,48.835897],[0.712533,48.835417],[0.710366,48.834513],[0.70865,48.833849],[0.707877,48.833638],[0.706783,48.833525],[0.704723,48.832988],[0.703629,48.832225],[0.70292,48.831321],[0.702877,48.830686],[0.704186,48.827648],[0.705109,48.826603],[0.705924,48.825727],[0.706783,48.823834],[0.708049,48.824456],[0.70895,48.824484],[0.709122,48.824357],[0.709529,48.82447],[0.709894,48.824428],[0.710109,48.823976],[0.710409,48.823721],[0.710624,48.822422]]],"type":"MultiLineString"},"properties":{"geo_point":{"lon":0.6214574026889321,"lat":48.93815459686199},"name":"Tour du Pays de la Risle Charentonne (Eure, Orne) (2019)","code_gr":null}}]}