{"type":"FeatureCollection","features":[{"type":"Feature","geometry":{"coordinates":[[[-0.273039,48.345957],[-0.272288,48.346185],[-0.270636,48.346969],[-0.26952,48.348024],[-0.268619,48.348566],[-0.268104,48.34908],[-0.267546,48.349878],[-0.26789,48.349907],[-0.269091,48.349636],[-0.270422,48.349493],[-0.27158,48.349465],[-0.271859,48.349721],[-0.272846,48.349208],[-0.273511,48.349693],[-0.274584,48.35062],[-0.275378,48.350976],[-0.276365,48.351219],[-0.275893,48.351732],[-0.275142,48.352074],[-0.274284,48.352417],[-0.271966,48.353429],[-0.270314,48.35437],[-0.271215,48.35514],[-0.269477,48.356381],[-0.269821,48.357878],[-0.269928,48.359061],[-0.26952,48.359418],[-0.269284,48.360116],[-0.269284,48.360601],[-0.269885,48.361014],[-0.270228,48.361884],[-0.270228,48.363053],[-0.269649,48.363538],[-0.269113,48.364308],[-0.268254,48.364051],[-0.267589,48.36408],[-0.267332,48.364422],[-0.266881,48.364707],[-0.266602,48.365163],[-0.266237,48.365405],[-0.265679,48.365562],[-0.26495,48.366375],[-0.264564,48.367031],[-0.262482,48.368057],[-0.262482,48.369582],[-0.262074,48.370466],[-0.262225,48.371264],[-0.262117,48.372234],[-0.262504,48.372619],[-0.262847,48.373431],[-0.26334,48.374215],[-0.263534,48.375369],[-0.263877,48.376096],[-0.263813,48.377222],[-0.263062,48.379774],[-0.263062,48.380201],[-0.26407,48.381227],[-0.26407,48.38137],[-0.26643,48.382823],[-0.266734,48.38345],[-0.266434,48.384063],[-0.265919,48.384448],[-0.263001,48.386172],[-0.264374,48.388324],[-0.266026,48.387882],[-0.267056,48.387811],[-0.268773,48.38764],[-0.270532,48.387341],[-0.271584,48.38707],[-0.271777,48.387284],[-0.273064,48.386999],[-0.273622,48.386742],[-0.277249,48.38593],[-0.279759,48.385403],[-0.281369,48.385289],[-0.282248,48.385089],[-0.282892,48.384989],[-0.284137,48.384761],[-0.286819,48.384605],[-0.291346,48.384206],[-0.292097,48.38422],[-0.293106,48.384077],[-0.294093,48.383864],[-0.295273,48.383835],[-0.296174,48.383664],[-0.296518,48.384049],[-0.29714,48.384377],[-0.297076,48.384733],[-0.296561,48.384961],[-0.296646,48.385616],[-0.297612,48.38573],[-0.298878,48.386201],[-0.298449,48.386543],[-0.298964,48.387027],[-0.298706,48.387668],[-0.299178,48.388794],[-0.29935,48.388808],[-0.29862,48.389407],[-0.297569,48.389977],[-0.297912,48.390818],[-0.297977,48.39143],[-0.298427,48.392399],[-0.296174,48.393553],[-0.296603,48.393696],[-0.29802,48.393853],[-0.299372,48.39361],[-0.300015,48.393397],[-0.30156,48.394608],[-0.302848,48.396374],[-0.303685,48.398127],[-0.303856,48.399067],[-0.304371,48.40005],[-0.304564,48.400577],[-0.305079,48.401375],[-0.305251,48.40213],[-0.30362,48.401631],[-0.303448,48.401945],[-0.302697,48.401916],[-0.301582,48.401603],[-0.30038,48.401517],[-0.299221,48.401617],[-0.298814,48.401802],[-0.298642,48.402144],[-0.299479,48.402401],[-0.301045,48.402657],[-0.301067,48.40307],[-0.301174,48.403298],[-0.30053,48.403868],[-0.29965,48.404338],[-0.300101,48.40478],[-0.30134,48.405456],[-0.302327,48.406567],[-0.303121,48.407564],[-0.303378,48.407592],[-0.303636,48.407835],[-0.304751,48.408262],[-0.305009,48.408532],[-0.30503,48.409031],[-0.304236,48.409914],[-0.304193,48.410242],[-0.304601,48.410997],[-0.304537,48.411296],[-0.305996,48.41121],[-0.306361,48.411338],[-0.306425,48.41235],[-0.306661,48.412635],[-0.307584,48.413233],[-0.308292,48.413332],[-0.310438,48.413361],[-0.311425,48.413731],[-0.311854,48.413802],[-0.312025,48.414272],[-0.311854,48.414572],[-0.312283,48.416651],[-0.318141,48.416936],[-0.318248,48.41413],[-0.319729,48.414059],[-0.321145,48.414842],[-0.325351,48.415027],[-0.326359,48.414757],[-0.32872,48.414244],[-0.328612,48.413461],[-0.328612,48.412207],[-0.327496,48.411965],[-0.329749,48.411752],[-0.331767,48.411709],[-0.331724,48.412307],[-0.331938,48.412563],[-0.331187,48.413788],[-0.330694,48.414102],[-0.330028,48.414201],[-0.326681,48.414913],[-0.328398,48.415084],[-0.329149,48.415042],[-0.329535,48.415141],[-0.330436,48.416152],[-0.330801,48.416266],[-0.331767,48.41648],[-0.331831,48.418303],[-0.33196,48.418702],[-0.336766,48.417947],[-0.337002,48.418274],[-0.336981,48.418502],[-0.336509,48.418873],[-0.336037,48.419115],[-0.336616,48.419642],[-0.336401,48.420695],[-0.336594,48.421265],[-0.336401,48.421735],[-0.334985,48.423088],[-0.334642,48.423529],[-0.333676,48.42417],[-0.332882,48.424426],[-0.330865,48.424811],[-0.329835,48.42491],[-0.329277,48.425352],[-0.329685,48.42605],[-0.329363,48.426178],[-0.328591,48.427132],[-0.327196,48.428114],[-0.325951,48.429495],[-0.325351,48.429752],[-0.324578,48.430834],[-0.323827,48.43136],[-0.323398,48.432129],[-0.322518,48.432229],[-0.322282,48.432613],[-0.32239,48.433823],[-0.322003,48.43435],[-0.321596,48.434578],[-0.31945,48.434948],[-0.318098,48.435332],[-0.317368,48.435703],[-0.31724,48.435873],[-0.316875,48.43593],[-0.317089,48.437696],[-0.317562,48.437767],[-0.319321,48.437539],[-0.320287,48.437568],[-0.321424,48.437568],[-0.322432,48.437439],[-0.322926,48.438593],[-0.323527,48.438934],[-0.323934,48.439945],[-0.325887,48.439504],[-0.326939,48.438607],[-0.331015,48.439276],[-0.330844,48.439461],[-0.330415,48.440543],[-0.329728,48.441496],[-0.330565,48.441753],[-0.329792,48.443404],[-0.329471,48.4446],[-0.329428,48.445382],[-0.329707,48.446564],[-0.330801,48.447959],[-0.331058,48.448684],[-0.33108,48.449439],[-0.329707,48.450905],[-0.328848,48.451488],[-0.328505,48.453139],[-0.328956,48.453239],[-0.328827,48.453865],[-0.325887,48.454021],[-0.324321,48.453666],[-0.323484,48.453765],[-0.321467,48.453566],[-0.32033,48.453538],[-0.320866,48.454164],[-0.32078,48.455089],[-0.320222,48.455473],[-0.320029,48.455943],[-0.318806,48.455829],[-0.314879,48.455174],[-0.314257,48.455117],[-0.313184,48.458006],[-0.311382,48.45738],[-0.311639,48.458618],[-0.312261,48.459714],[-0.312948,48.460212],[-0.313485,48.461478],[-0.310674,48.46219],[-0.309944,48.462204],[-0.309064,48.462417],[-0.308142,48.462232],[-0.304966,48.462161],[-0.302648,48.461962],[-0.30297,48.46411],[-0.302198,48.464523],[-0.302198,48.465021],[-0.301704,48.465121],[-0.300052,48.465206],[-0.299387,48.465661],[-0.299044,48.465761],[-0.299194,48.466543],[-0.299108,48.467255],[-0.299795,48.467696],[-0.299044,48.467909],[-0.298228,48.469631],[-0.297155,48.470498],[-0.296833,48.470683],[-0.296512,48.471068],[-0.295417,48.471565],[-0.295031,48.471494],[-0.293958,48.471395],[-0.292241,48.470925],[-0.292349,48.471679],[-0.292134,48.472291],[-0.292241,48.472888],[-0.292113,48.475236],[-0.291984,48.47589],[-0.292134,48.476928],[-0.291941,48.478052],[-0.292113,48.479375],[-0.292735,48.48131],[-0.292885,48.483144],[-0.293057,48.48323],[-0.292821,48.484026],[-0.292885,48.484567],[-0.293336,48.48488],[-0.292992,48.485093],[-0.293829,48.485178],[-0.29413,48.485406],[-0.29413,48.485832],[-0.293271,48.486316],[-0.291898,48.486245],[-0.290611,48.486572],[-0.288701,48.487354],[-0.286941,48.487923],[-0.286126,48.488264],[-0.284452,48.488663],[-0.283894,48.488947],[-0.282822,48.488876],[-0.282671,48.489644],[-0.282242,48.489715],[-0.282285,48.488904],[-0.280375,48.488648],[-0.279946,48.488805],[-0.277028,48.489203],[-0.276642,48.490227],[-0.276084,48.490654],[-0.275011,48.49081],[-0.273638,48.491151],[-0.272372,48.491379],[-0.272243,48.491749],[-0.271835,48.491749],[-0.27147,48.491521],[-0.27029,48.491493],[-0.269711,48.491222],[-0.268938,48.489999],[-0.268574,48.489928],[-0.26675,48.490255],[-0.265183,48.49071],[-0.262673,48.491933],[-0.261922,48.492388],[-0.26145,48.492445],[-0.261171,48.492815],[-0.259991,48.492758],[-0.258832,48.49236],[-0.257845,48.492289],[-0.256579,48.49172],[-0.256214,48.49145],[-0.254755,48.49118],[-0.253596,48.491137],[-0.252759,48.491265],[-0.250721,48.491322],[-0.248296,48.491848],[-0.247052,48.490767],[-0.246193,48.490582],[-0.245035,48.489729],[-0.243683,48.489786],[-0.242803,48.489431],[-0.241194,48.489203],[-0.240035,48.489459],[-0.238597,48.489047],[-0.237954,48.488719],[-0.236516,48.488307],[-0.234456,48.488051],[-0.234563,48.486529],[-0.231409,48.487098],[-0.229907,48.486942],[-0.227547,48.4868],[-0.225422,48.486046],[-0.223877,48.487169],[-0.223513,48.487639],[-0.222311,48.488321],[-0.220251,48.489786],[-0.219436,48.489886],[-0.218706,48.489786],[-0.217955,48.489601],[-0.217483,48.489587],[-0.216796,48.489103],[-0.216174,48.487653],[-0.216625,48.485847],[-0.215573,48.486145],[-0.213277,48.486401],[-0.211346,48.486814],[-0.210016,48.486956],[-0.207763,48.487411],[-0.202656,48.487852],[-0.202076,48.487255],[-0.200725,48.486401],[-0.200381,48.485832],[-0.199802,48.485392],[-0.197141,48.484581],[-0.195961,48.484424],[-0.19521,48.484012],[-0.195017,48.483557],[-0.195253,48.483073],[-0.190875,48.482248],[-0.190833,48.481722],[-0.18976,48.481366],[-0.18976,48.480627],[-0.189631,48.479688],[-0.189974,48.478948],[-0.18991,48.478707],[-0.189288,48.47818],[-0.189545,48.477483],[-0.189438,48.476502],[-0.188923,48.475549],[-0.189159,48.475179],[-0.189953,48.47488],[-0.190596,48.474112],[-0.190983,48.473557],[-0.191498,48.473088],[-0.191927,48.47249],[-0.193515,48.471722],[-0.194266,48.47158],[-0.195081,48.471637],[-0.196218,48.471309],[-0.197399,48.469175],[-0.196111,48.466515],[-0.196175,48.466031],[-0.197012,48.465192],[-0.19742,48.46458],[-0.197656,48.463655],[-0.19845,48.461962],[-0.19815,48.460368],[-0.198278,48.460012],[-0.197935,48.459742],[-0.197291,48.459002],[-0.195575,48.458049],[-0.189996,48.456341],[-0.187893,48.455516],[-0.187528,48.455203],[-0.186283,48.454676],[-0.185532,48.454406],[-0.185125,48.453552],[-0.185103,48.452641],[-0.184824,48.452015],[-0.183322,48.451474],[-0.182121,48.450478],[-0.181777,48.450051],[-0.181541,48.450236],[-0.180962,48.450407],[-0.180104,48.450905],[-0.180511,48.449667],[-0.180361,48.448841],[-0.179996,48.448884],[-0.179374,48.449368],[-0.178773,48.44961],[-0.176692,48.450876],[-0.175791,48.450933],[-0.175362,48.451431],[-0.174611,48.451645],[-0.171993,48.451502],[-0.167186,48.44998],[-0.166299,48.449837],[-0.165806,48.449667],[-0.165312,48.449282],[-0.164904,48.44978],[-0.163939,48.451189],[-0.163381,48.452143],[-0.162716,48.452129],[-0.162287,48.45257],[-0.162887,48.453637],[-0.162051,48.453694],[-0.162265,48.454164],[-0.158725,48.453438],[-0.156536,48.452783],[-0.155227,48.45304],[-0.151794,48.448855],[-0.147824,48.449339],[-0.144151,48.448866],[-0.14149,48.449093],[-0.140546,48.449606],[-0.138765,48.452253],[-0.137864,48.452964],[-0.135868,48.452452],[-0.13516,48.452125],[-0.133165,48.451556],[-0.132371,48.451513],[-0.131555,48.451242],[-0.130804,48.451214],[-0.129388,48.450659],[-0.124796,48.449421],[-0.121856,48.449036],[-0.119775,48.448609],[-0.119024,48.448339],[-0.11823,48.448311],[-0.117586,48.448794],[-0.114883,48.448752],[-0.113681,48.448666],[-0.111707,48.448723],[-0.109389,48.448396],[-0.108488,48.448026],[-0.107201,48.446446],[-0.105012,48.447827],[-0.10336,48.448154],[-0.099991,48.448396],[-0.093446,48.448609],[-0.092073,48.449278],[-0.090571,48.449648],[-0.088919,48.450346],[-0.08525,48.450317],[-0.084348,48.449947],[-0.083683,48.449947],[-0.082889,48.45036],[-0.082374,48.450417],[-0.079649,48.449905],[-0.079263,48.450018],[-0.076044,48.45009],[-0.075272,48.450332],[-0.073577,48.450474],[-0.071302,48.450958],[-0.069779,48.451],[-0.068405,48.451086],[-0.067783,48.450872],[-0.066174,48.450502],[-0.065015,48.450517],[-0.063363,48.450047],[-0.062826,48.449762],[-0.061711,48.449549],[-0.060874,48.449221],[-0.06111,48.44804],[-0.064007,48.446645],[-0.063642,48.444795],[-0.063685,48.444339],[-0.062869,48.443058],[-0.062397,48.441379],[-0.062655,48.439998],[-0.062118,48.438062],[-0.060723,48.434574],[-0.060659,48.433805],[-0.06096,48.432837],[-0.061453,48.43083],[-0.062419,48.429819],[-0.064414,48.428965],[-0.066002,48.427427],[-0.066624,48.426615],[-0.068298,48.425191],[-0.069307,48.423938],[-0.069435,48.423511],[-0.069199,48.422372],[-0.067826,48.422286],[-0.067032,48.422685],[-0.066002,48.422742],[-0.06553,48.422158],[-0.064221,48.421631],[-0.063556,48.420378],[-0.063706,48.419695],[-0.062977,48.419495],[-0.060015,48.419068],[-0.06023,48.418399],[-0.06096,48.417316],[-0.06096,48.416846],[-0.059157,48.415095],[-0.057355,48.412873],[-0.056475,48.412403],[-0.056217,48.411676],[-0.057634,48.410765],[-0.054007,48.41085],[-0.053857,48.408828],[-0.053664,48.407774],[-0.053192,48.407261],[-0.053192,48.406848],[-0.053578,48.406392],[-0.054393,48.404383],[-0.05317,48.402175],[-0.051797,48.398628],[-0.052012,48.397545],[-0.051368,48.397531],[-0.051153,48.397275],[-0.051497,48.396605],[-0.051068,48.393613],[-0.050789,48.392074],[-0.049759,48.391333],[-0.049566,48.390421],[-0.048042,48.38998],[-0.049308,48.388298],[-0.049104,48.387101],[-0.049319,48.386061],[-0.050327,48.384736],[-0.050456,48.383724],[-0.050971,48.38294],[-0.051229,48.381657],[-0.051658,48.381529],[-0.052495,48.380802],[-0.052924,48.379391],[-0.052151,48.379049],[-0.051229,48.378878],[-0.048589,48.375486],[-0.048718,48.374873],[-0.049619,48.374189],[-0.050349,48.374047],[-0.051207,48.373876],[-0.05213,48.373519],[-0.053074,48.37255],[-0.056572,48.372308],[-0.056743,48.373206],[-0.056679,48.373605],[-0.057151,48.373847],[-0.057044,48.374403],[-0.05655,48.375144],[-0.056293,48.376897],[-0.056614,48.377453],[-0.05743,48.377382],[-0.057923,48.377054],[-0.058353,48.376256],[-0.058674,48.375942],[-0.059275,48.375757],[-0.05964,48.375344],[-0.060412,48.375144],[-0.060584,48.374873],[-0.061357,48.374816],[-0.062258,48.37446],[-0.063438,48.374546],[-0.064296,48.374546],[-0.065326,48.374759],[-0.067193,48.375686],[-0.067386,48.374916],[-0.069489,48.374517],[-0.072,48.372593],[-0.0723,48.371709],[-0.071849,48.371281],[-0.072021,48.370968],[-0.072493,48.370882],[-0.073201,48.371267],[-0.073738,48.371196],[-0.074446,48.370611],[-0.074896,48.369984],[-0.075519,48.369756],[-0.076398,48.369842],[-0.07745,48.3693],[-0.077428,48.367803],[-0.077107,48.367618],[-0.07672,48.36729],[-0.076441,48.366264],[-0.075841,48.365109],[-0.075562,48.364867],[-0.075368,48.363797],[-0.075562,48.362058],[-0.075905,48.361416],[-0.077085,48.360818],[-0.077707,48.360632],[-0.078501,48.360247],[-0.07833,48.360119],[-0.077815,48.359976],[-0.079209,48.358123],[-0.078609,48.357995],[-0.078737,48.356754],[-0.079059,48.356426],[-0.079531,48.356426],[-0.078501,48.354986],[-0.077579,48.354587],[-0.076978,48.352163],[-0.077536,48.351635],[-0.078737,48.351877],[-0.079467,48.351892],[-0.079982,48.352234],[-0.080432,48.352391],[-0.080733,48.352006],[-0.080883,48.351364],[-0.081355,48.351863],[-0.082106,48.351849],[-0.082686,48.351492],[-0.083801,48.351222],[-0.083823,48.351008],[-0.084338,48.350851],[-0.083973,48.350509],[-0.083565,48.349853],[-0.08305,48.34981],[-0.08275,48.349425],[-0.082771,48.348769],[-0.082449,48.348255],[-0.082428,48.347899],[-0.082964,48.347785],[-0.083308,48.347599],[-0.084488,48.347485],[-0.08526,48.34787],[-0.085539,48.348498],[-0.086913,48.350509],[-0.087406,48.350951],[-0.088179,48.351179],[-0.090367,48.351578],[-0.091891,48.351607],[-0.092277,48.352348],[-0.09365,48.35279],[-0.095903,48.352662],[-0.098178,48.352933],[-0.098822,48.352876],[-0.100581,48.352291],[-0.101997,48.352006],[-0.101482,48.351321],[-0.100066,48.351008],[-0.099058,48.350623],[-0.098757,48.350337],[-0.099079,48.350209],[-0.099186,48.349368],[-0.099444,48.348797],[-0.099294,48.348341],[-0.099315,48.347813],[-0.099229,48.347314],[-0.099508,48.346801],[-0.100646,48.346031],[-0.102405,48.343763],[-0.104959,48.344947],[-0.105989,48.342551],[-0.106933,48.341852],[-0.107727,48.341524],[-0.107576,48.340754],[-0.107748,48.339798],[-0.107383,48.337815],[-0.106782,48.33686],[-0.106589,48.33579],[-0.110623,48.336075],[-0.110859,48.335433],[-0.110044,48.33462],[-0.108349,48.334264],[-0.106954,48.333707],[-0.106568,48.332737],[-0.107083,48.331425],[-0.106675,48.330997],[-0.10631,48.329256],[-0.106718,48.328072],[-0.107255,48.32753],[-0.107619,48.326674],[-0.107898,48.325433],[-0.107727,48.324877],[-0.106203,48.32529],[-0.105302,48.325362],[-0.105195,48.323378],[-0.10571,48.32188],[-0.106396,48.321723],[-0.107083,48.321709],[-0.10689,48.320882],[-0.107426,48.320996],[-0.107533,48.320625],[-0.106976,48.320168],[-0.10734,48.319868],[-0.107182,48.319628],[-0.107182,48.3187],[-0.108083,48.317701],[-0.108684,48.314519],[-0.109778,48.31382],[-0.110207,48.313149],[-0.110787,48.312892],[-0.110787,48.312507],[-0.111516,48.311351],[-0.112074,48.311423],[-0.112203,48.310652],[-0.110894,48.309467],[-0.111516,48.30931],[-0.111581,48.309068],[-0.112589,48.308782],[-0.113426,48.308768],[-0.112418,48.303787],[-0.113533,48.303858],[-0.114241,48.303402],[-0.113834,48.303216],[-0.114199,48.302802],[-0.115486,48.302388],[-0.116452,48.301846],[-0.115572,48.301161],[-0.116516,48.300647],[-0.115894,48.300333],[-0.115207,48.29959],[-0.114756,48.298534],[-0.113426,48.298563],[-0.110894,48.298349],[-0.106688,48.29685],[-0.106345,48.297121],[-0.104564,48.29802],[-0.10362,48.298006],[-0.101002,48.297535],[-0.099908,48.297449],[-0.097676,48.295065],[-0.097783,48.294823],[-0.097504,48.29448],[-0.099758,48.293466],[-0.099929,48.293138],[-0.101088,48.292324],[-0.102204,48.292381],[-0.102976,48.29221],[-0.104156,48.291568],[-0.104822,48.291368],[-0.10598,48.290854],[-0.106817,48.290311],[-0.107611,48.290026],[-0.109135,48.290011],[-0.110164,48.290283],[-0.11216,48.29044],[-0.113018,48.289569],[-0.113512,48.289369],[-0.113512,48.288955],[-0.113984,48.288027],[-0.113834,48.287056],[-0.114156,48.285157],[-0.113405,48.283615],[-0.113297,48.282244],[-0.110379,48.281487],[-0.109199,48.280916],[-0.108062,48.279517],[-0.107504,48.279031],[-0.106538,48.27866],[-0.10656,48.278403],[-0.110014,48.277146],[-0.111259,48.276903],[-0.111409,48.276989],[-0.11201,48.276889],[-0.112482,48.276075],[-0.112718,48.27539],[-0.113469,48.273904],[-0.113426,48.272905],[-0.114499,48.272633],[-0.115701,48.272433],[-0.11643,48.269577],[-0.116237,48.26922],[-0.115722,48.26902],[-0.113898,48.268848],[-0.120099,48.266706],[-0.12261,48.265435],[-0.123468,48.264306],[-0.123297,48.264335],[-0.123232,48.264006],[-0.12276,48.263278],[-0.12261,48.262592],[-0.12276,48.261935],[-0.121837,48.260721],[-0.121516,48.260164],[-0.121086,48.259992],[-0.119971,48.259964],[-0.119155,48.260021],[-0.117567,48.259764],[-0.117117,48.259806],[-0.116881,48.259421],[-0.116516,48.259235],[-0.116452,48.259049],[-0.117246,48.258521],[-0.117803,48.258406],[-0.117932,48.257978],[-0.117031,48.257021],[-0.115894,48.256121],[-0.114971,48.255078],[-0.114628,48.253963],[-0.114628,48.253535],[-0.113898,48.25242],[-0.113769,48.25192],[-0.112739,48.251277],[-0.112182,48.250534],[-0.111624,48.25002],[-0.109692,48.248134],[-0.108856,48.247448],[-0.107933,48.246976],[-0.107718,48.246691],[-0.108126,48.246619],[-0.108534,48.246333],[-0.109392,48.246119],[-0.109306,48.245533],[-0.108941,48.244647],[-0.10819,48.244233],[-0.10789,48.24379],[-0.107568,48.243561],[-0.10819,48.243132],[-0.109113,48.242618],[-0.110272,48.242589],[-0.110808,48.242118],[-0.112611,48.241532],[-0.114756,48.240832],[-0.115572,48.240332],[-0.116151,48.239631],[-0.11495,48.238145],[-0.114349,48.237159],[-0.113426,48.236487],[-0.113083,48.236344],[-0.11216,48.235644],[-0.112289,48.235301],[-0.111924,48.234629],[-0.111838,48.2343],[-0.111323,48.2345],[-0.110508,48.233772],[-0.110207,48.233286],[-0.109177,48.232614],[-0.108662,48.231842],[-0.108598,48.230456],[-0.10922,48.230127],[-0.109993,48.229855],[-0.10671,48.224452],[-0.109263,48.223823],[-0.108212,48.222122],[-0.108147,48.220964],[-0.108534,48.220377],[-0.11025,48.219334],[-0.110572,48.219891],[-0.111345,48.22042],[-0.113104,48.22235],[-0.115035,48.221678],[-0.115722,48.221621],[-0.117224,48.220578],[-0.118597,48.218791],[-0.122674,48.216045],[-0.123125,48.216689],[-0.131923,48.214144],[-0.131214,48.212943],[-0.13203,48.212843],[-0.132566,48.212285],[-0.13394,48.21004],[-0.133832,48.208996],[-0.1366,48.20811],[-0.134905,48.20555],[-0.136686,48.204649],[-0.141192,48.202875],[-0.141793,48.202904],[-0.143209,48.20269],[-0.143982,48.202461],[-0.145677,48.201803],[-0.150183,48.198799],[-0.151277,48.198385],[-0.152629,48.19827],[-0.153981,48.197941],[-0.152436,48.195438],[-0.153809,48.195166],[-0.154775,48.194823],[-0.155311,48.194423],[-0.155719,48.193436],[-0.156256,48.192735],[-0.158165,48.19325],[-0.15986,48.194265],[-0.160461,48.194337],[-0.16177,48.194165],[-0.162521,48.194165],[-0.164066,48.193593],[-0.165568,48.193607],[-0.166899,48.192921],[-0.167542,48.192749],[-0.168873,48.19202],[-0.170568,48.191948],[-0.171898,48.191433],[-0.1731,48.191118],[-0.174151,48.190704],[-0.176469,48.190532],[-0.177971,48.190217],[-0.178164,48.189931],[-0.178057,48.18893],[-0.177456,48.188644],[-0.177177,48.188386],[-0.177692,48.188257],[-0.178679,48.187771],[-0.179451,48.187771],[-0.179602,48.187442],[-0.180224,48.187213],[-0.181533,48.187013],[-0.181812,48.186727],[-0.181747,48.186183],[-0.181533,48.185911],[-0.181919,48.185425],[-0.182627,48.184767],[-0.184987,48.183336],[-0.185502,48.183565],[-0.185803,48.183465],[-0.187455,48.184624],[-0.187648,48.184581],[-0.189429,48.185754],[-0.194858,48.182134],[-0.19503,48.181805],[-0.195266,48.181476],[-0.194085,48.180289],[-0.194965,48.179917],[-0.196596,48.179545],[-0.1996,48.178543],[-0.201338,48.177327],[-0.20342,48.176111],[-0.204364,48.175982],[-0.205029,48.175996],[-0.205501,48.175924],[-0.206295,48.175853],[-0.207625,48.17561],[-0.208248,48.175724],[-0.20917,48.175624],[-0.210436,48.175438],[-0.21138,48.175166],[-0.211809,48.175152],[-0.212754,48.174894],[-0.213011,48.174694],[-0.213977,48.174665],[-0.214384,48.173807],[-0.216037,48.172948],[-0.218376,48.172433],[-0.219234,48.172648],[-0.220543,48.172347],[-0.223161,48.172104],[-0.223718,48.172276],[-0.22404,48.172648],[-0.224663,48.17259],[-0.237044,48.172762],[-0.237323,48.174093],[-0.23773,48.174808],[-0.239104,48.175867],[-0.239962,48.176754],[-0.240799,48.177255],[-0.243224,48.17727],[-0.242687,48.176754],[-0.242687,48.176425],[-0.242945,48.176268],[-0.24273,48.17551],[-0.24273,48.17488],[-0.243116,48.174422],[-0.243159,48.17395],[-0.24258,48.173735],[-0.242151,48.173292],[-0.242236,48.172834],[-0.246206,48.170601],[-0.246399,48.170029],[-0.249017,48.168784],[-0.24876,48.16834],[-0.250176,48.168068],[-0.25127,48.167982],[-0.252279,48.16814],[-0.253952,48.168269],[-0.253588,48.168984],[-0.254424,48.16927],[-0.255025,48.169399],[-0.256828,48.170415],[-0.257085,48.170802],[-0.256699,48.171102],[-0.256999,48.17259],[-0.258716,48.172576],[-0.260669,48.172648],[-0.263351,48.172347],[-0.264467,48.172533],[-0.265733,48.172376],[-0.268436,48.172948],[-0.268608,48.173621],[-0.269166,48.174551],[-0.271054,48.173735],[-0.272234,48.173521],[-0.275861,48.173177],[-0.276676,48.173592],[-0.276998,48.174265],[-0.277642,48.174909],[-0.2785,48.175366],[-0.279058,48.176153],[-0.279466,48.1784],[-0.279809,48.178672],[-0.280281,48.178929],[-0.280238,48.17943],[-0.280302,48.181176],[-0.279122,48.181447],[-0.278328,48.181848],[-0.277663,48.18212],[-0.278157,48.182978],[-0.279637,48.184695],[-0.280839,48.185611],[-0.281075,48.186026],[-0.282105,48.187156],[-0.282985,48.187213],[-0.28395,48.186984],[-0.285216,48.187127],[-0.285345,48.187628],[-0.286439,48.187928],[-0.287019,48.188429],[-0.288306,48.188744],[-0.288907,48.188729],[-0.289636,48.188543],[-0.290666,48.188803],[-0.290044,48.18999],[-0.291332,48.190076],[-0.291696,48.189132],[-0.292319,48.188574],[-0.292962,48.187186],[-0.29367,48.186213],[-0.293735,48.185512],[-0.2944,48.184983],[-0.294679,48.184554],[-0.296181,48.184196],[-0.297168,48.184025],[-0.298305,48.183567],[-0.299013,48.182952],[-0.300022,48.182422],[-0.302404,48.181321],[-0.307403,48.179017],[-0.31148,48.178044],[-0.311974,48.178158],[-0.315557,48.178087],[-0.316115,48.178316],[-0.317102,48.177887],[-0.318561,48.177772],[-0.321415,48.177357],[-0.324055,48.177186],[-0.325213,48.177343],[-0.325707,48.177701],[-0.326393,48.179003],[-0.327402,48.180019],[-0.328389,48.179961],[-0.328861,48.180476],[-0.329827,48.180977],[-0.32944,48.18215],[-0.329505,48.183238],[-0.330385,48.185312],[-0.328389,48.186256],[-0.328067,48.186957],[-0.329698,48.186728],[-0.330535,48.186743],[-0.330685,48.186571],[-0.337444,48.188159],[-0.340255,48.189318],[-0.341006,48.189246],[-0.341822,48.188932],[-0.343345,48.188889],[-0.342937,48.189189],[-0.342251,48.189447],[-0.341607,48.189818],[-0.341671,48.190147],[-0.341478,48.190534],[-0.343066,48.190777],[-0.343538,48.19175],[-0.343238,48.193051],[-0.34695,48.19348],[-0.348152,48.193452],[-0.348516,48.193666],[-0.348667,48.195054],[-0.349353,48.196513],[-0.348967,48.197671],[-0.348559,48.197743],[-0.347808,48.198501],[-0.347594,48.200661],[-0.346499,48.202606],[-0.346349,48.205323],[-0.345748,48.205981],[-0.345512,48.205695],[-0.345126,48.205637],[-0.344096,48.205966],[-0.343688,48.205795],[-0.343152,48.206167],[-0.34195,48.206495],[-0.3415,48.206781],[-0.341156,48.206853],[-0.340985,48.207139],[-0.34047,48.207411],[-0.339762,48.208011],[-0.339139,48.208254],[-0.338903,48.208755],[-0.340813,48.210728],[-0.341543,48.2109],[-0.342015,48.211214],[-0.342658,48.211543],[-0.343216,48.212201],[-0.343195,48.212701],[-0.343066,48.213259],[-0.343409,48.214003],[-0.34386,48.21406],[-0.344203,48.214046],[-0.345201,48.214754],[-0.345265,48.21534],[-0.344793,48.217142],[-0.34445,48.217885],[-0.343957,48.2184],[-0.343849,48.219601],[-0.34342,48.221188],[-0.344107,48.221888],[-0.344708,48.221788],[-0.344965,48.221502],[-0.346553,48.221059],[-0.347132,48.220702],[-0.348119,48.219858],[-0.349192,48.219572],[-0.350201,48.218915],[-0.350844,48.2181],[-0.351595,48.217456],[-0.352497,48.217042],[-0.353784,48.216684],[-0.354707,48.215712],[-0.355351,48.214497],[-0.356209,48.213925],[-0.358162,48.212023],[-0.358677,48.210951],[-0.359041,48.210507],[-0.358934,48.209592],[-0.358312,48.208548],[-0.358355,48.208077],[-0.358505,48.207776],[-0.358634,48.20739],[-0.357711,48.207204],[-0.357411,48.206875],[-0.356595,48.207061],[-0.356102,48.207476],[-0.354621,48.207576],[-0.353698,48.207576],[-0.353462,48.207247],[-0.3552,48.206732],[-0.3549,48.20626],[-0.355351,48.205445],[-0.356145,48.204702],[-0.356724,48.203472],[-0.357732,48.202385],[-0.357818,48.201927],[-0.357496,48.201355],[-0.358054,48.200826],[-0.359149,48.200197],[-0.359964,48.200354],[-0.36123,48.199982],[-0.36226,48.19981],[-0.363955,48.199124],[-0.365135,48.198781],[-0.368032,48.197365],[-0.368633,48.197408],[-0.370092,48.197207],[-0.369942,48.19828],[-0.36962,48.198895],[-0.369577,48.19931],[-0.369813,48.20044],[-0.36977,48.201012],[-0.369663,48.201183],[-0.370178,48.201698],[-0.3708,48.202628],[-0.370779,48.203615],[-0.371959,48.203586],[-0.375349,48.203829],[-0.374577,48.205259],[-0.374405,48.205774],[-0.374212,48.20709],[-0.372989,48.209135],[-0.372731,48.209792],[-0.371873,48.210894],[-0.371487,48.211551],[-0.371229,48.212052],[-0.371272,48.212967],[-0.370972,48.213739],[-0.370822,48.215612],[-0.370543,48.216084],[-0.370607,48.216885],[-0.370993,48.217085],[-0.372474,48.217514],[-0.373568,48.217271],[-0.374405,48.217499],[-0.376336,48.217256],[-0.376808,48.216756],[-0.377023,48.216213],[-0.377323,48.214997],[-0.378418,48.213968],[-0.38072,48.21344],[-0.382565,48.213111],[-0.384969,48.213039],[-0.386556,48.213239],[-0.387436,48.214512],[-0.386514,48.216471],[-0.386471,48.217128],[-0.386707,48.2176],[-0.386857,48.219016],[-0.386664,48.219445],[-0.386728,48.220217],[-0.387758,48.221403],[-0.389561,48.223162],[-0.389882,48.223662],[-0.390097,48.223834],[-0.390462,48.225192],[-0.391363,48.226407],[-0.39117,48.227222],[-0.391363,48.228522],[-0.391063,48.228622],[-0.390998,48.228851],[-0.390762,48.229094],[-0.391084,48.229351],[-0.391384,48.229752],[-0.391427,48.23018],[-0.392144,48.230155],[-0.392701,48.231012],[-0.393002,48.231269],[-0.39386,48.230555],[-0.394289,48.230126],[-0.395834,48.230498],[-0.397723,48.231169],[-0.399504,48.231298],[-0.402787,48.232327],[-0.403302,48.232727],[-0.405254,48.233213],[-0.407636,48.233571],[-0.408323,48.234057],[-0.408548,48.234551],[-0.408548,48.23558],[-0.40814,48.236123],[-0.40711,48.236494],[-0.406252,48.237466],[-0.405823,48.238181],[-0.406509,48.238595],[-0.407926,48.238195],[-0.408591,48.238352],[-0.410543,48.238324],[-0.411123,48.238166],[-0.411466,48.238238],[-0.411638,48.238552],[-0.413397,48.238395],[-0.414642,48.238224],[-0.415736,48.238367],[-0.415522,48.23901],[-0.415758,48.239924],[-0.415436,48.240567],[-0.415801,48.241468],[-0.415779,48.242611],[-0.416251,48.242768],[-0.417045,48.244054],[-0.417088,48.244754],[-0.417281,48.245355],[-0.417367,48.246341],[-0.418204,48.246441],[-0.418011,48.246841],[-0.417689,48.247241],[-0.417625,48.247541],[-0.416659,48.247841],[-0.414878,48.247784],[-0.415007,48.247455],[-0.414578,48.247398],[-0.413719,48.247084],[-0.412947,48.246998],[-0.412239,48.247227],[-0.411702,48.247284],[-0.411681,48.247812],[-0.410629,48.247784],[-0.408312,48.247312],[-0.407668,48.24797],[-0.406982,48.248278],[-0.406252,48.248849],[-0.407432,48.249321],[-0.410393,48.250107],[-0.411973,48.25081],[-0.413561,48.251868],[-0.416394,48.252268],[-0.417316,48.252082],[-0.417917,48.253268],[-0.417896,48.254411],[-0.418453,48.254239],[-0.418647,48.254754],[-0.419827,48.255482],[-0.420921,48.255997],[-0.423339,48.260066],[-0.422846,48.260066],[-0.422674,48.261238],[-0.422889,48.261495],[-0.422781,48.261995],[-0.423296,48.262938],[-0.423296,48.263695],[-0.423125,48.264395],[-0.423211,48.265352],[-0.423833,48.265637],[-0.424283,48.266466],[-0.424498,48.26718],[-0.424047,48.267666],[-0.423983,48.268066],[-0.424133,48.268194],[-0.423962,48.268708],[-0.423339,48.269051],[-0.424198,48.270965],[-0.421945,48.270737],[-0.420185,48.270751],[-0.41746,48.271079],[-0.417095,48.272008],[-0.416816,48.275607],[-0.416945,48.276007],[-0.416001,48.275907],[-0.414499,48.275907],[-0.412417,48.275564],[-0.411731,48.275578],[-0.408727,48.276306],[-0.407976,48.276349],[-0.406066,48.277049],[-0.4051,48.277834],[-0.40377,48.278263],[-0.403169,48.27872],[-0.402654,48.278077],[-0.401796,48.277635],[-0.401088,48.277463],[-0.399607,48.277149],[-0.39847,48.276678],[-0.39774,48.276106],[-0.396818,48.275121],[-0.394951,48.272036],[-0.394543,48.27225],[-0.394071,48.27235],[-0.393663,48.27285],[-0.393685,48.273793],[-0.393341,48.274278],[-0.391131,48.275464],[-0.390166,48.275721],[-0.389608,48.276492],[-0.389071,48.276878],[-0.388578,48.27752],[-0.388084,48.278049],[-0.38832,48.278548],[-0.390187,48.279477],[-0.390466,48.279834],[-0.390531,48.28069],[-0.390144,48.281119],[-0.389887,48.281847],[-0.389608,48.282104],[-0.389458,48.282604],[-0.388835,48.283204],[-0.38875,48.283618],[-0.39038,48.287687],[-0.390809,48.288587],[-0.389844,48.289243],[-0.389994,48.289857],[-0.388964,48.289843],[-0.388621,48.290371],[-0.387784,48.290471],[-0.387999,48.291242],[-0.388921,48.292141],[-0.387999,48.294197],[-0.386325,48.295339],[-0.382806,48.294283],[-0.38051,48.293826],[-0.379244,48.293683],[-0.378107,48.293655],[-0.376347,48.292598],[-0.373171,48.291428],[-0.373343,48.290685],[-0.373171,48.290271],[-0.373815,48.290057],[-0.373729,48.288972],[-0.373858,48.288315],[-0.373643,48.287359],[-0.372528,48.287359],[-0.370081,48.287016],[-0.369996,48.286673],[-0.369309,48.286545],[-0.368794,48.286345],[-0.368429,48.287102],[-0.365146,48.286316],[-0.364867,48.286488],[-0.364073,48.286573],[-0.363215,48.286431],[-0.362743,48.286216],[-0.362249,48.286131],[-0.362035,48.286088],[-0.361649,48.286359],[-0.361455,48.286773],[-0.360747,48.28683],[-0.360018,48.287002],[-0.358966,48.28703],[-0.358752,48.286531],[-0.358108,48.285959],[-0.357786,48.285374],[-0.357722,48.284689],[-0.357336,48.284446],[-0.356434,48.284403],[-0.356112,48.284203],[-0.355984,48.283503],[-0.354889,48.283346],[-0.35446,48.283089],[-0.354095,48.283289],[-0.35313,48.283561],[-0.353259,48.28249],[-0.353151,48.282033],[-0.352271,48.281904],[-0.351671,48.28159],[-0.351757,48.280876],[-0.350855,48.280876],[-0.350619,48.280462],[-0.350104,48.280505],[-0.348452,48.281019],[-0.348195,48.281347],[-0.348173,48.282033],[-0.347744,48.282504],[-0.3471,48.283803],[-0.347551,48.284703],[-0.347486,48.285731],[-0.346542,48.286188],[-0.34607,48.286216],[-0.345984,48.286645],[-0.345963,48.287601],[-0.345598,48.289871],[-0.343967,48.291613],[-0.343345,48.291942],[-0.343045,48.29424],[-0.340084,48.295225],[-0.337316,48.295239],[-0.335213,48.295411],[-0.334075,48.296296],[-0.333003,48.296924],[-0.331994,48.297609],[-0.330985,48.29788],[-0.330192,48.297952],[-0.328926,48.298508],[-0.327788,48.298737],[-0.32693,48.299051],[-0.326351,48.298922],[-0.325406,48.299079],[-0.324591,48.298951],[-0.322338,48.299079],[-0.320214,48.300022],[-0.318776,48.301092],[-0.316909,48.301592],[-0.315622,48.302063],[-0.314485,48.30202],[-0.314206,48.302462],[-0.314399,48.303804],[-0.313905,48.30516],[-0.314206,48.306145],[-0.314077,48.307786],[-0.315836,48.307444],[-0.318712,48.307415],[-0.320235,48.307629],[-0.321351,48.311625],[-0.319956,48.311554],[-0.318905,48.311711],[-0.313068,48.313195],[-0.312704,48.313438],[-0.311352,48.313794],[-0.310279,48.313937],[-0.30882,48.314265],[-0.308648,48.313894],[-0.30824,48.313851],[-0.306974,48.314165],[-0.306395,48.314693],[-0.305837,48.315649],[-0.304185,48.317676],[-0.303305,48.318346],[-0.302339,48.320558],[-0.301116,48.321657],[-0.300086,48.32324],[-0.299593,48.323697],[-0.298863,48.325138],[-0.298263,48.324967],[-0.297426,48.325124],[-0.29734,48.324539],[-0.296482,48.324653],[-0.291739,48.325766],[-0.291439,48.326037],[-0.290645,48.325937],[-0.288413,48.326094],[-0.287963,48.325124],[-0.288092,48.324453],[-0.287491,48.32481],[-0.287233,48.325324],[-0.286246,48.325709],[-0.284272,48.326023],[-0.28292,48.326065],[-0.282234,48.326265],[-0.281354,48.326194],[-0.280302,48.326679],[-0.2788,48.327835],[-0.278393,48.329475],[-0.277878,48.329461],[-0.27644,48.32996],[-0.271054,48.33036],[-0.269552,48.330231],[-0.268436,48.33036],[-0.269595,48.331287],[-0.270003,48.332927],[-0.267063,48.332614],[-0.266505,48.333156],[-0.266162,48.334482],[-0.266119,48.335952],[-0.265947,48.337563],[-0.266527,48.338747],[-0.267278,48.339033],[-0.267707,48.339446],[-0.26923,48.34043],[-0.269767,48.341001],[-0.270668,48.3416],[-0.270947,48.342056],[-0.27099,48.342869],[-0.270883,48.343226],[-0.273565,48.344238]]],"type":"MultiLineString"},"properties":{"geo_point":{"lon":-0.2388553099048305,"lat":48.32544301262124},"name":"Tour de la Mayenne profonde (Mayenne, Sarthe) (2019)","code_gr":null}}]}