{"type":"FeatureCollection","features":[{"type":"Feature","geometry":{"coordinates":[[[5.066837,44.527479],[5.066837,44.527479],[5.067438,44.527326],[5.067824,44.527448],[5.067717,44.52777],[5.068661,44.528672],[5.069562,44.528932],[5.070249,44.52936],[5.071472,44.52962],[5.072609,44.529682],[5.073553,44.529452],[5.076343,44.529146],[5.077244,44.528794],[5.07836,44.528703],[5.079003,44.528932],[5.080484,44.528932],[5.080892,44.528794],[5.081321,44.529315],[5.082158,44.528963],[5.083166,44.52936],[5.084067,44.529575],[5.084861,44.52959],[5.086042,44.529819],[5.086814,44.530125],[5.087415,44.529896],[5.088166,44.529452],[5.088638,44.529911],[5.089539,44.53011],[5.090097,44.531211],[5.091814,44.531349],[5.093681,44.53115],[5.094925,44.530844],[5.096964,44.531686],[5.097242,44.531946],[5.098315,44.531884],[5.098573,44.532252],[5.098981,44.532404],[5.099603,44.532496],[5.099968,44.532756],[5.100461,44.533536],[5.101362,44.533246],[5.101663,44.533674],[5.102757,44.534959],[5.10295,44.535311],[5.102821,44.535632],[5.102135,44.536167],[5.102242,44.53632],[5.102156,44.536488],[5.102307,44.536687],[5.102156,44.536855],[5.102221,44.537024],[5.101877,44.537146],[5.10207,44.537391],[5.10192,44.538477],[5.101663,44.538752],[5.102028,44.538951],[5.102478,44.540083],[5.101877,44.540281],[5.101899,44.540358],[5.102307,44.540526],[5.102543,44.540679],[5.1031,44.540694],[5.103637,44.540526],[5.105332,44.541719],[5.10589,44.542759],[5.106941,44.543279],[5.107371,44.543615],[5.107757,44.544044],[5.107993,44.544059],[5.110439,44.542927],[5.111641,44.542744],[5.112392,44.543432],[5.112413,44.544151],[5.112778,44.544426],[5.113207,44.544441],[5.11355,44.544747],[5.114323,44.545038],[5.115203,44.544778],[5.115782,44.544258],[5.117026,44.543707],[5.117563,44.54331],[5.117949,44.543096],[5.118593,44.542866],[5.118765,44.542468],[5.118679,44.54201],[5.119709,44.542407],[5.120631,44.542713],[5.122048,44.542759],[5.123078,44.542683],[5.122949,44.543417],[5.123078,44.543983],[5.122713,44.545909],[5.122799,44.546491],[5.122777,44.546934],[5.12297,44.548203],[5.122777,44.54906],[5.123356,44.550466],[5.123893,44.550864],[5.123829,44.551231],[5.12385,44.552072],[5.122756,44.55221],[5.12267,44.552699],[5.122327,44.553219],[5.122627,44.55354],[5.122391,44.554687],[5.12209,44.555115],[5.12209,44.555543],[5.122563,44.556109],[5.123206,44.556629],[5.123786,44.557347],[5.123485,44.557791],[5.124172,44.557699],[5.12473,44.557041],[5.125095,44.556766],[5.125309,44.556766],[5.124966,44.557531],[5.124,44.558142],[5.127455,44.557255],[5.127991,44.557011],[5.129343,44.556904],[5.131467,44.556292],[5.131897,44.555834],[5.131982,44.555329],[5.132583,44.554335],[5.132562,44.553754],[5.132369,44.553433],[5.132412,44.5525],[5.132197,44.552103],[5.132433,44.551751],[5.132712,44.550833],[5.133399,44.55169],[5.133592,44.552546],[5.13445,44.551323],[5.134793,44.552057],[5.135287,44.552607],[5.135823,44.552623],[5.138141,44.552271],[5.139128,44.552424],[5.139879,44.552684],[5.140909,44.552913],[5.141874,44.553249],[5.142432,44.552271],[5.14284,44.552041],[5.142368,44.551766],[5.142132,44.550986],[5.143312,44.550879],[5.14372,44.55065],[5.143655,44.550329],[5.143183,44.54984],[5.144321,44.548249],[5.1452,44.54776],[5.14623,44.547469],[5.146938,44.54698],[5.147089,44.546322],[5.146359,44.546001],[5.146509,44.545772],[5.146359,44.545389],[5.144385,44.5449],[5.144042,44.544319],[5.14402,44.543891],[5.144213,44.543187],[5.144042,44.541964],[5.143763,44.541811],[5.143591,44.541276],[5.144449,44.541505],[5.144492,44.540725],[5.144621,44.540389],[5.144085,44.540098],[5.143784,44.539792],[5.142604,44.539624],[5.14254,44.53941],[5.143012,44.53866],[5.143098,44.53814],[5.142368,44.538523],[5.141016,44.538599],[5.140651,44.538339],[5.139965,44.538936],[5.1396,44.538981],[5.138549,44.538737],[5.138248,44.538492],[5.13784,44.538507],[5.137347,44.537987],[5.136017,44.537697],[5.135351,44.537788],[5.134772,44.537712],[5.133999,44.537437],[5.13327,44.537605],[5.132433,44.5371],[5.132133,44.536825],[5.131189,44.536412],[5.130137,44.536458],[5.129622,44.536335],[5.129515,44.535892],[5.129558,44.535525],[5.129386,44.535448],[5.128871,44.535861],[5.128678,44.536213],[5.128485,44.536182],[5.12915,44.535311],[5.128764,44.534592],[5.129193,44.534102],[5.129172,44.533735],[5.129579,44.533643],[5.13018,44.533261],[5.130974,44.531839],[5.131103,44.531303],[5.131425,44.531043],[5.13136,44.530768],[5.132176,44.530232],[5.133098,44.52933],[5.1343,44.528718],[5.134944,44.528641],[5.136682,44.528183],[5.137519,44.527678],[5.138441,44.526943],[5.139364,44.52601],[5.140415,44.525827],[5.141467,44.526056],[5.141574,44.525919],[5.142003,44.526026],[5.142947,44.525643],[5.14314,44.525337],[5.144278,44.524741],[5.145587,44.524741],[5.146445,44.525031],[5.147067,44.524863],[5.147561,44.524572],[5.149192,44.524878],[5.149792,44.524924],[5.149964,44.524695],[5.149127,44.524419],[5.148934,44.524159],[5.148569,44.523303],[5.148677,44.522981],[5.150522,44.521237],[5.151037,44.521298],[5.151466,44.522155],[5.152732,44.521497],[5.152925,44.520946],[5.155007,44.518743],[5.154964,44.517137],[5.156315,44.517519],[5.156509,44.516969],[5.156358,44.516884],[5.156423,44.51649],[5.157431,44.515215],[5.157345,44.515163],[5.156788,44.5154],[5.156788,44.5154],[5.156079,44.515301],[5.156058,44.514475],[5.155865,44.514046],[5.156251,44.513572],[5.155994,44.513449],[5.154363,44.513266],[5.15432,44.512883],[5.153655,44.512822],[5.153161,44.512593],[5.153032,44.512241],[5.15241,44.512042],[5.151402,44.511231],[5.149599,44.510527],[5.147647,44.50944],[5.146831,44.509349],[5.14578,44.508538],[5.144771,44.508369],[5.1446,44.507788],[5.144814,44.507711],[5.145115,44.507849],[5.145565,44.507696],[5.145994,44.507788],[5.145994,44.507528],[5.146445,44.507619],[5.146488,44.507375],[5.146853,44.507466],[5.147067,44.507191],[5.147325,44.507405],[5.147432,44.507252],[5.147689,44.507359],[5.148247,44.507206],[5.148398,44.50742],[5.148634,44.507222],[5.148634,44.507375],[5.149213,44.507267],[5.149363,44.507451],[5.149921,44.507436],[5.150393,44.507252],[5.152153,44.507635],[5.153547,44.507941],[5.154148,44.507895],[5.155414,44.508063],[5.155822,44.507987],[5.157539,44.508109],[5.158118,44.507971],[5.159663,44.507084],[5.1608,44.506181],[5.158697,44.505033],[5.161723,44.502921],[5.163289,44.501054],[5.165392,44.500825],[5.16625,44.500825],[5.167409,44.500457],[5.168396,44.500488],[5.168911,44.500687],[5.169405,44.500534],[5.170563,44.500672],[5.171078,44.500549],[5.172151,44.499983],[5.172623,44.499524],[5.172816,44.498957],[5.173117,44.498605],[5.173374,44.498008],[5.174447,44.496845],[5.174769,44.496616],[5.174984,44.496172],[5.175112,44.49585],[5.175069,44.49484],[5.173954,44.494657],[5.172881,44.494794],[5.172301,44.4951],[5.172623,44.494412],[5.17301,44.494121],[5.172623,44.493983],[5.174104,44.493539],[5.174404,44.493157],[5.175799,44.492835],[5.176271,44.492284],[5.176786,44.490891],[5.176829,44.489927],[5.176572,44.489284],[5.176164,44.488916],[5.176185,44.488335],[5.17567,44.487508],[5.175413,44.4876],[5.175327,44.487049],[5.175005,44.486513],[5.175842,44.486911],[5.176486,44.487554],[5.177988,44.489039],[5.178331,44.489223],[5.178996,44.489406],[5.178782,44.489184],[5.178363,44.488966],[5.178218,44.488765],[5.178779,44.488818],[5.178867,44.48861],[5.178867,44.48861],[5.17831,44.48835],[5.177795,44.48783],[5.178524,44.487967],[5.17891,44.487768],[5.178331,44.487585],[5.178009,44.48737],[5.177666,44.486651],[5.176808,44.485962],[5.176936,44.485931],[5.177408,44.486023],[5.177816,44.486008],[5.177988,44.485794],[5.178288,44.485671],[5.177945,44.485442],[5.177537,44.485227],[5.176915,44.484661],[5.176142,44.484431],[5.175713,44.484033],[5.174791,44.483742],[5.174211,44.483329],[5.173417,44.48339],[5.172537,44.483252],[5.171808,44.483543],[5.171229,44.48414],[5.170435,44.484401],[5.169362,44.48463],[5.16904,44.484921],[5.168203,44.485197],[5.167709,44.48538],[5.167023,44.485487],[5.166229,44.485947],[5.164705,44.487233],[5.163032,44.487891],[5.162173,44.48809],[5.161809,44.488335],[5.161487,44.488748],[5.161015,44.488993],[5.159899,44.489284],[5.159169,44.489376],[5.158483,44.489498],[5.157174,44.488947],[5.15623,44.488748],[5.155629,44.488702],[5.155114,44.488825],[5.154792,44.488993],[5.153891,44.488809],[5.153505,44.489008],[5.152775,44.489008],[5.151638,44.489253],[5.1505,44.489712],[5.149964,44.489697],[5.148934,44.48936],[5.148312,44.489422],[5.146295,44.489269],[5.145672,44.489008],[5.145157,44.488626],[5.143613,44.488411],[5.142583,44.488258],[5.14151,44.488381],[5.139621,44.488763],[5.138098,44.489238],[5.137089,44.489774],[5.135566,44.490141],[5.134257,44.49034],[5.132068,44.490401],[5.129923,44.49034],[5.128077,44.490202],[5.126039,44.489697],[5.125052,44.489422],[5.124301,44.489115],[5.122691,44.488886],[5.121575,44.488809],[5.120674,44.488901],[5.120138,44.489146],[5.119666,44.489575],[5.118035,44.492009],[5.117649,44.493417],[5.117434,44.493922],[5.116705,44.494611],[5.116061,44.494963],[5.11546,44.495422],[5.114988,44.496554],[5.113486,44.496294],[5.113164,44.495452],[5.113615,44.49484],[5.112713,44.494075],[5.112027,44.4936],[5.111512,44.492896],[5.110611,44.492437],[5.109752,44.49132],[5.109688,44.490998],[5.109216,44.490554],[5.108336,44.488672],[5.108164,44.487799],[5.107242,44.48587],[5.105225,44.483513],[5.104924,44.483421],[5.103787,44.482074],[5.103894,44.479456],[5.103615,44.47869],[5.103036,44.478215],[5.102371,44.477909],[5.102135,44.477618],[5.102178,44.47722],[5.101834,44.476516],[5.101877,44.476041],[5.101555,44.475689],[5.10147,44.475199],[5.101963,44.474617],[5.102135,44.473928],[5.101448,44.472244],[5.10177,44.471953],[5.102693,44.471448],[5.103251,44.47157],[5.103766,44.471341],[5.10413,44.470927],[5.104645,44.470835],[5.104946,44.469687],[5.105375,44.46984],[5.106791,44.469274],[5.107328,44.469503],[5.108122,44.469365],[5.109388,44.468156],[5.109945,44.467819],[5.110224,44.467497],[5.110096,44.467068],[5.110782,44.466211],[5.110718,44.465491],[5.111641,44.464894],[5.112842,44.463699],[5.113207,44.463868],[5.113894,44.463745],[5.115653,44.463577],[5.11679,44.463883],[5.117262,44.463868],[5.117799,44.463577],[5.118958,44.463638],[5.119558,44.463439],[5.120438,44.463301],[5.120438,44.462811],[5.120073,44.462413],[5.120267,44.461601],[5.120889,44.461111],[5.121533,44.460805],[5.121103,44.4601],[5.122777,44.460146],[5.123163,44.460361],[5.12355,44.460422],[5.124429,44.460024],[5.125331,44.459166],[5.126167,44.458936],[5.126811,44.458875],[5.128678,44.458171],[5.129708,44.456532],[5.130631,44.456088],[5.131038,44.455613],[5.132412,44.454709],[5.134107,44.454219],[5.134321,44.453928],[5.134128,44.453744],[5.133356,44.453346],[5.132326,44.453101],[5.132304,44.452871],[5.13194,44.452718],[5.132562,44.452305],[5.132133,44.451968],[5.131961,44.451539],[5.131596,44.451278],[5.131639,44.451156],[5.132004,44.451202],[5.131768,44.450773],[5.132111,44.450773],[5.133012,44.45111],[5.133721,44.451018],[5.135265,44.451125],[5.135845,44.451003],[5.136188,44.451232],[5.136574,44.451048],[5.136939,44.451018],[5.137347,44.45114],[5.136553,44.450558],[5.136596,44.450497],[5.136843,44.450497],[5.137454,44.450773],[5.137679,44.450819],[5.137701,44.450719],[5.137336,44.450597],[5.137089,44.450038],[5.136607,44.449678],[5.135952,44.449486],[5.13578,44.449325],[5.135158,44.449295],[5.134643,44.449157],[5.135223,44.448743],[5.135029,44.448008],[5.135137,44.447395],[5.134708,44.446874],[5.134987,44.446461],[5.135587,44.446078],[5.135974,44.445603],[5.136639,44.445281],[5.136703,44.444776],[5.13636,44.444347],[5.136553,44.44404],[5.136596,44.443642],[5.135652,44.442999],[5.135308,44.4426],[5.135695,44.442187],[5.135845,44.440915],[5.135716,44.439904],[5.13548,44.439153],[5.135544,44.438433],[5.135974,44.437606],[5.135373,44.437238],[5.135158,44.436334],[5.135094,44.435599],[5.134836,44.435216],[5.134836,44.434848],[5.133999,44.434235],[5.133506,44.434051],[5.133098,44.433683],[5.132004,44.433071],[5.131038,44.432841],[5.129772,44.432672],[5.129644,44.431937],[5.129086,44.431646],[5.128957,44.43235],[5.128549,44.432366],[5.128335,44.432121],[5.126983,44.431799],[5.126468,44.430941],[5.124601,44.43068],[5.122219,44.430052],[5.11958,44.430435],[5.119494,44.430803],[5.119923,44.431692],[5.119902,44.432136],[5.120374,44.432488],[5.120588,44.432795],[5.121039,44.433163],[5.121339,44.433867],[5.121232,44.434021],[5.120803,44.43422],[5.120352,44.434817],[5.120224,44.435338],[5.119859,44.435537],[5.119816,44.436012],[5.119365,44.436732],[5.11855,44.437116],[5.118271,44.437407],[5.11722,44.437974],[5.116383,44.437744],[5.115567,44.43779],[5.114881,44.437943],[5.114301,44.437529],[5.113143,44.437437],[5.113014,44.437682],[5.111641,44.438065],[5.110847,44.438525],[5.109881,44.438663],[5.109194,44.438709],[5.107263,44.439996],[5.106898,44.440026],[5.106512,44.439996],[5.106383,44.440348],[5.106813,44.440976],[5.106512,44.441834],[5.106298,44.442738],[5.106276,44.443382],[5.105268,44.445281],[5.10486,44.445603],[5.104324,44.446445],[5.103615,44.447012],[5.103186,44.447839],[5.102929,44.44882],[5.102779,44.449984],[5.102328,44.450872],[5.101813,44.453292],[5.101663,44.454977],[5.100611,44.456907],[5.100654,44.457765],[5.100397,44.458286],[5.099624,44.458868],[5.099174,44.45948],[5.097521,44.460614],[5.09662,44.461854],[5.096105,44.462222],[5.094324,44.462788],[5.093917,44.463094],[5.093702,44.46386],[5.092908,44.46435],[5.091578,44.464733],[5.09102,44.465009],[5.090183,44.4653],[5.089003,44.465805],[5.087865,44.465729],[5.086793,44.465483],[5.086578,44.465131],[5.085677,44.464687],[5.084797,44.464427],[5.083853,44.464335],[5.083467,44.464396],[5.082587,44.465254],[5.081707,44.465606],[5.081192,44.465683],[5.081235,44.465101],[5.080892,44.464733],[5.080312,44.464764],[5.079862,44.465238],[5.079754,44.465851],[5.079046,44.466632],[5.078252,44.467214],[5.077652,44.467367],[5.075506,44.467719],[5.074562,44.467781],[5.073703,44.467658],[5.073146,44.46798],[5.072416,44.46798],[5.071601,44.468393],[5.070978,44.468577],[5.070442,44.468546],[5.070141,44.46896],[5.069519,44.468883],[5.069348,44.469266],[5.06939,44.469664],[5.069197,44.469894],[5.068961,44.469909],[5.068275,44.469679],[5.067609,44.469143],[5.067502,44.468332],[5.067888,44.467934],[5.068403,44.467719],[5.068532,44.467183],[5.06836,44.467076],[5.068747,44.466816],[5.068682,44.46654],[5.068253,44.46651],[5.067867,44.466249],[5.06821,44.465943],[5.069197,44.465713],[5.068532,44.465453],[5.067996,44.465392],[5.06791,44.465193],[5.067373,44.46533],[5.066537,44.465284],[5.066236,44.465407],[5.065786,44.465392],[5.065657,44.464948],[5.06555,44.464611],[5.065914,44.464274],[5.06482,44.463952],[5.064562,44.46337],[5.06379,44.463799],[5.063125,44.464412],[5.062588,44.464626],[5.062588,44.4653],[5.062352,44.465652],[5.06203,44.46533],[5.06188,44.465499],[5.061387,44.465606],[5.059949,44.46631],[5.059112,44.465637],[5.05879,44.465683],[5.058275,44.465499],[5.058211,44.465284],[5.05776,44.464932],[5.057374,44.465346],[5.056838,44.465759],[5.056537,44.465882],[5.056108,44.466525],[5.053404,44.468056],[5.052632,44.468041],[5.051752,44.468485],[5.050894,44.469373],[5.051087,44.469863],[5.051108,44.470491],[5.051345,44.47092],[5.051967,44.471088],[5.052289,44.471532],[5.053362,44.47265],[5.053104,44.473722],[5.052611,44.473875],[5.051967,44.473844],[5.050894,44.47438],[5.050079,44.474778],[5.049564,44.474916],[5.049091,44.475192],[5.048426,44.47536],[5.047525,44.475758],[5.047375,44.475957],[5.047997,44.475942],[5.048426,44.476217],[5.049564,44.476294],[5.049006,44.476631],[5.049177,44.476845],[5.048813,44.477595],[5.04834,44.477948],[5.048019,44.4783],[5.048276,44.47879],[5.048212,44.479035],[5.047675,44.479433],[5.046688,44.479662],[5.045937,44.479708],[5.045336,44.479616],[5.04347,44.479371],[5.042525,44.478973],[5.041646,44.478545],[5.040873,44.477305],[5.039693,44.477136],[5.03817,44.477641],[5.037933,44.478024],[5.036453,44.478866],[5.035616,44.478836],[5.034801,44.478637],[5.033234,44.478514],[5.031668,44.477963],[5.031217,44.477978],[5.029672,44.477718],[5.029629,44.477871],[5.029222,44.477886],[5.028921,44.478193],[5.029029,44.478514],[5.0289,44.478728],[5.028771,44.479877],[5.027441,44.480428],[5.026818,44.481086],[5.026261,44.481469],[5.024694,44.48228],[5.025402,44.483735],[5.025552,44.48476],[5.025767,44.485266],[5.026754,44.486199],[5.028041,44.488143],[5.028063,44.48848],[5.028535,44.488587],[5.02935,44.489475],[5.030488,44.490103],[5.030574,44.490363],[5.029565,44.491603],[5.030337,44.493057],[5.030938,44.493654],[5.030574,44.494205],[5.031325,44.494297],[5.031625,44.494511],[5.031325,44.495001],[5.031196,44.495751],[5.030831,44.495736],[5.030423,44.495598],[5.030488,44.495766],[5.029479,44.496241],[5.028621,44.496348],[5.028535,44.496608],[5.028685,44.496884],[5.028406,44.497327],[5.027827,44.497465],[5.026389,44.497526],[5.025338,44.498093],[5.025209,44.497664],[5.025016,44.497281],[5.024694,44.497419],[5.024415,44.497159],[5.024115,44.497144],[5.023836,44.496838],[5.022977,44.497098],[5.022098,44.49748],[5.021175,44.49745],[5.020724,44.497664],[5.020295,44.498123],[5.019416,44.498307],[5.018793,44.498491],[5.018343,44.498292],[5.0183,44.49797],[5.017398,44.497924],[5.017098,44.498031],[5.01551,44.497756],[5.015124,44.497848],[5.015103,44.497649],[5.014738,44.497526],[5.014738,44.497281],[5.01448,44.497113],[5.01433,44.496884],[5.013643,44.496593],[5.013021,44.49647],[5.012463,44.496669],[5.012356,44.496256],[5.010918,44.496256],[5.010167,44.496378],[5.010017,44.496486],[5.009373,44.496455],[5.008708,44.496241],[5.007785,44.49644],[5.006562,44.496409],[5.005339,44.495751],[5.005017,44.496057],[5.003837,44.495736],[5.003258,44.496149],[5.002957,44.496088],[5.002915,44.495751],[5.002679,44.496134],[5.002228,44.496378],[5.00167,44.495981],[5.000983,44.494894],[5.000683,44.493685],[5.000447,44.493807],[4.999953,44.493761],[4.999782,44.493501],[4.998945,44.493348],[4.997636,44.492644],[4.997035,44.492583],[4.996284,44.492322],[4.995683,44.492031],[4.994525,44.491741],[4.992722,44.492261],[4.989654,44.491833],[4.989139,44.492368],[4.989589,44.492935],[4.990019,44.493608],[4.990727,44.494006],[4.990233,44.494343],[4.989353,44.494251],[4.988645,44.494496],[4.988409,44.494741],[4.988087,44.494924],[4.987572,44.495322],[4.9871,44.495475],[4.98665,44.495491],[4.986006,44.495736],[4.985276,44.495873],[4.983839,44.496378],[4.983152,44.497006],[4.982444,44.497603],[4.982101,44.498093],[4.981736,44.498858],[4.981328,44.499302],[4.980663,44.499455],[4.979268,44.500052],[4.978753,44.500526],[4.978281,44.500802],[4.976522,44.500802],[4.977037,44.500358],[4.977037,44.499715],[4.975685,44.500235],[4.974054,44.499914],[4.97326,44.499103],[4.972252,44.497787],[4.971136,44.49771],[4.96899,44.497052],[4.965492,44.498246],[4.964977,44.498261],[4.963819,44.497955],[4.963304,44.497741],[4.962252,44.497496],[4.961587,44.497572],[4.960557,44.49722],[4.959248,44.496853],[4.958454,44.496853],[4.957596,44.496654],[4.956695,44.496287],[4.956351,44.49595],[4.954656,44.495154],[4.954442,44.494863],[4.953905,44.494649],[4.953519,44.494389],[4.952918,44.494266],[4.952167,44.49471],[4.951309,44.494802],[4.950322,44.495047],[4.949227,44.495919],[4.94794,44.496103],[4.947446,44.496424],[4.946374,44.496547],[4.945322,44.496455],[4.943563,44.496149],[4.941825,44.495399],[4.9394,44.495108],[4.938842,44.495154],[4.938177,44.494894],[4.937383,44.494894],[4.937018,44.49497],[4.936632,44.494878],[4.936031,44.495338],[4.936503,44.496287],[4.936031,44.496975],[4.936181,44.497281],[4.937125,44.497557],[4.937962,44.497603],[4.938584,44.49895],[4.939378,44.499363],[4.939341,44.499593],[4.938686,44.499684],[4.938676,44.499761],[4.940296,44.499631],[4.940714,44.499753],[4.942163,44.50198],[4.942484,44.502133],[4.942484,44.50247],[4.941605,44.504612],[4.940939,44.505852],[4.941175,44.506219],[4.94139,44.507183],[4.942227,44.507765],[4.943278,44.508698],[4.944523,44.509203],[4.946476,44.51159],[4.946647,44.512401],[4.947119,44.512952],[4.947591,44.51387],[4.949093,44.515477],[4.949265,44.515951],[4.948879,44.516624],[4.948299,44.517313],[4.948471,44.517481],[4.949329,44.517619],[4.949265,44.518063],[4.948514,44.518935],[4.947269,44.519531],[4.947677,44.52074],[4.947548,44.521872],[4.947827,44.522331],[4.947484,44.523325],[4.946862,44.523524],[4.946518,44.524136],[4.94654,44.52562],[4.945446,44.525819],[4.944716,44.526217],[4.944115,44.526247],[4.943343,44.525941],[4.942399,44.526171],[4.942055,44.526691],[4.941669,44.526783],[4.941454,44.527089],[4.941004,44.527135],[4.940403,44.527747],[4.939995,44.528787],[4.940081,44.529185],[4.939781,44.529414],[4.939652,44.530225],[4.939116,44.530668],[4.938086,44.532106],[4.937292,44.532534],[4.937506,44.533376],[4.937485,44.534049],[4.937635,44.534416],[4.937764,44.53541],[4.937549,44.535915],[4.937721,44.536282],[4.937871,44.537001],[4.938,44.537261],[4.937742,44.537873],[4.938622,44.54061],[4.938193,44.541406],[4.938,44.542017],[4.936712,44.54217],[4.934781,44.543118],[4.935081,44.544724],[4.936927,44.544556],[4.937077,44.545076],[4.936862,44.545428],[4.937249,44.545535],[4.937828,44.546881],[4.938343,44.547584],[4.94021,44.549373],[4.941476,44.54893],[4.9433,44.549128],[4.94581,44.549021],[4.945853,44.54737],[4.946819,44.546728],[4.94742,44.546682],[4.948493,44.545443],[4.949415,44.545045],[4.950209,44.54448],[4.951325,44.544158],[4.952248,44.544051],[4.95272,44.543409],[4.953449,44.543241],[4.955016,44.543455],[4.95581,44.543638],[4.956582,44.543531],[4.95684,44.543348],[4.95714,44.543287],[4.957333,44.543378],[4.957891,44.543455],[4.958706,44.544311],[4.959243,44.544556],[4.959372,44.544418],[4.959157,44.54188],[4.959822,44.541849],[4.961045,44.542996],[4.961668,44.54425],[4.961839,44.545168],[4.963298,44.545412],[4.964607,44.545443],[4.965122,44.544984],[4.965187,44.544434],[4.965702,44.544097],[4.965787,44.543654],[4.965551,44.543073],[4.966109,44.542767],[4.966195,44.542109],[4.965938,44.541681],[4.966152,44.541589],[4.966753,44.541513],[4.967139,44.541314],[4.967461,44.541513],[4.96774,44.541497],[4.968255,44.54191],[4.968277,44.540519],[4.968105,44.540213],[4.968212,44.540106],[4.969543,44.540733],[4.970809,44.540993],[4.970744,44.540809],[4.969929,44.540106],[4.969714,44.539356],[4.969864,44.539066],[4.971259,44.538056],[4.97156,44.538102],[4.972032,44.539463],[4.97274,44.539754],[4.973598,44.540962],[4.976087,44.543409],[4.976473,44.544816],[4.976452,44.545443],[4.976645,44.546116],[4.976967,44.546544],[4.97716,44.54737],[4.977696,44.547584],[4.978061,44.548165],[4.978726,44.54844],[4.979435,44.549297],[4.980336,44.550688],[4.982203,44.551621],[4.982417,44.552171],[4.983061,44.552538],[4.983318,44.552905],[4.984906,44.553502],[4.985207,44.553746],[4.985807,44.553104],[4.986451,44.553364],[4.986837,44.553655],[4.987567,44.554083],[4.988425,44.555061],[4.989412,44.554756],[4.989777,44.554511],[4.991515,44.554205],[4.992137,44.55396],[4.99306,44.554144],[4.993232,44.555061],[4.992803,44.555719],[4.992974,44.556789],[4.993318,44.556866],[4.994197,44.55659],[4.994755,44.55659],[4.995549,44.556407],[4.996214,44.556437],[4.997244,44.556973],[4.997759,44.55737],[4.998231,44.557615],[4.998923,44.557713],[4.998728,44.557424],[4.998825,44.556949],[4.99876,44.556068],[4.998435,44.555466],[4.998516,44.555222],[4.999183,44.555048],[4.999996,44.554805],[5.00076,44.555118],[5.001573,44.555257],[5.002305,44.555118],[5.002614,44.554979],[5.003378,44.554956],[5.004354,44.555257],[5.004679,44.555257],[5.004858,44.555361],[5.005216,44.555269],[5.005558,44.555234],[5.005818,44.554956],[5.006013,44.554956],[5.006598,44.554515],[5.006663,44.554353],[5.006322,44.55433],[5.005476,44.554446],[5.00497,44.55437],[5.004433,44.55398],[5.004433,44.553858],[5.004069,44.553644],[5.003929,44.553628],[5.0038,44.553514],[5.003071,44.553223],[5.003253,44.552719],[5.003232,44.552482],[5.002738,44.551962],[5.002642,44.551587],[5.002781,44.550501],[5.002867,44.550142],[5.00277,44.549477],[5.002749,44.548766],[5.003082,44.547963],[5.003253,44.547757],[5.003554,44.547573],[5.003757,44.547252],[5.004691,44.546763],[5.005807,44.546487],[5.007813,44.546503],[5.009122,44.546701],[5.009594,44.546044],[5.010045,44.545172],[5.010055,44.544247],[5.009755,44.543421],[5.009605,44.542473],[5.009948,44.541707],[5.010532,44.541274],[5.01079,44.541215],[5.011283,44.541188],[5.011807,44.541204],[5.012368,44.541069],[5.012588,44.541053],[5.012748,44.541009],[5.012702,44.540458],[5.012884,44.540079],[5.01343,44.539582],[5.013537,44.539387],[5.013992,44.538836],[5.014523,44.539128],[5.015099,44.539625],[5.015539,44.540123],[5.015858,44.540836],[5.015236,44.542772],[5.015175,44.543129],[5.015008,44.543508],[5.014841,44.544373],[5.014659,44.544697],[5.014325,44.547595],[5.013946,44.548287],[5.013658,44.549098],[5.013919,44.549583],[5.01442,44.550054],[5.01492,44.550282],[5.01494,44.550981],[5.01456,44.551181],[5.014186,44.551151],[5.013242,44.55135],[5.012941,44.551732],[5.013092,44.552023],[5.013714,44.552558],[5.014229,44.552696],[5.014508,44.552864],[5.014915,44.552956],[5.014915,44.553216],[5.015173,44.553812],[5.015044,44.554408],[5.015538,44.555265],[5.015388,44.555876],[5.015302,44.556595],[5.015452,44.556839],[5.015321,44.557266],[5.015341,44.557487],[5.01514,44.557751],[5.014855,44.557794],[5.014303,44.557754],[5.013963,44.557855],[5.013567,44.557865],[5.013312,44.557925],[5.013128,44.557815],[5.012798,44.557437],[5.012448,44.557287],[5.012288,44.557016],[5.011457,44.556659],[5.010466,44.555932],[5.009894,44.555662],[5.009154,44.55554],[5.008661,44.555601],[5.008285,44.5558],[5.008092,44.556518],[5.007888,44.556816],[5.007588,44.556985],[5.006686,44.556985],[5.006214,44.556832],[5.005893,44.55687],[5.005624,44.557084],[5.005388,44.557329],[5.005174,44.557375],[5.004594,44.557245],[5.003951,44.556732],[5.003082,44.556572],[5.002395,44.556564],[5.001526,44.556771],[5.001333,44.556587],[5.001107,44.556725],[5.000732,44.556358],[5.000474,44.556472],[5.000346,44.556297],[5.000324,44.555998],[4.999917,44.556174],[4.99967,44.55661],[4.999402,44.557061],[4.99887,44.557057],[4.998736,44.557248],[4.998763,44.557428],[4.998897,44.557734],[4.999166,44.557795],[4.999428,44.557791],[4.999626,44.557829],[5.001257,44.558333],[5.002051,44.558823],[5.002909,44.559312],[5.003982,44.560397],[5.005334,44.560688],[5.006729,44.560749],[5.007201,44.560887],[5.00748,44.561101],[5.00778,44.561116],[5.008295,44.560795],[5.009153,44.560673],[5.010162,44.56107],[5.010698,44.561697],[5.010849,44.562079],[5.011964,44.5624],[5.01323,44.562553],[5.012479,44.562706],[5.011235,44.562645],[5.011557,44.562981],[5.013016,44.563149],[5.013509,44.563409],[5.013509,44.563623],[5.01323,44.563868],[5.013102,44.564158],[5.012608,44.564311],[5.012072,44.564403],[5.011793,44.564846],[5.012072,44.565076],[5.01263,44.565305],[5.012372,44.565855],[5.01293,44.566314],[5.012758,44.566451],[5.011685,44.566696],[5.011557,44.567415],[5.011986,44.567017],[5.013423,44.566971],[5.015419,44.566513],[5.015998,44.566085],[5.016578,44.56558],[5.017114,44.565259],[5.018273,44.56506],[5.01896,44.565274],[5.01941,44.565259],[5.019217,44.565595],[5.020183,44.56639],[5.020762,44.566635],[5.021706,44.567262],[5.022135,44.56772],[5.02265,44.567965],[5.022414,44.569188],[5.021728,44.569371],[5.020977,44.569876],[5.021534,44.570059],[5.02235,44.57009],[5.02471,44.569876],[5.025504,44.570227],[5.026298,44.570273],[5.027135,44.570533],[5.027607,44.570105],[5.027907,44.57035],[5.027993,44.570915],[5.027779,44.571358],[5.026899,44.571679],[5.026577,44.571496],[5.026298,44.571465],[5.026405,44.571725],[5.025633,44.571511],[5.024925,44.571343],[5.025032,44.571634],[5.025504,44.571802],[5.025805,44.572505],[5.02529,44.572734],[5.025139,44.573025],[5.025225,44.573147],[5.026083,44.573147],[5.02692,44.573376],[5.027113,44.573682],[5.028079,44.573957],[5.02913,44.57414],[5.029345,44.574339],[5.028208,44.575593],[5.027349,44.576372],[5.027607,44.576678],[5.027371,44.577136],[5.026534,44.578023],[5.02883,44.578955],[5.029603,44.579138],[5.030911,44.57923],[5.031791,44.58004],[5.032907,44.579872],[5.033551,44.579322],[5.034388,44.579307],[5.03516,44.57897],[5.035053,44.578787],[5.034237,44.579062],[5.034259,44.57897],[5.034709,44.57816],[5.03619,44.577473],[5.037327,44.577182],[5.037091,44.576601],[5.037735,44.575761],[5.038336,44.575287],[5.038958,44.5744],[5.039387,44.574033],[5.039666,44.573284],[5.040031,44.573025],[5.040396,44.572902],[5.040482,44.572428],[5.040696,44.57197],[5.040567,44.571343],[5.041469,44.57012],[5.041318,44.569417],[5.041233,44.568729],[5.040825,44.568546],[5.039859,44.568592],[5.039731,44.568301],[5.039945,44.567812],[5.039859,44.567063],[5.040482,44.566987],[5.041082,44.56665],[5.041168,44.566023],[5.041619,44.565305],[5.041919,44.564846],[5.043593,44.564739],[5.04473,44.564174],[5.04546,44.562935],[5.046189,44.562645],[5.046361,44.562308],[5.047498,44.561773],[5.047927,44.561055],[5.048035,44.56052],[5.048872,44.559098],[5.049301,44.5587],[5.049022,44.558593],[5.049773,44.558165],[5.049429,44.557263],[5.050052,44.556483],[5.051554,44.556575],[5.051876,44.555612],[5.052434,44.55526],[5.052348,44.555092],[5.051253,44.554572],[5.050824,44.554312],[5.050545,44.553425],[5.049451,44.551667],[5.050159,44.550321],[5.050717,44.550061],[5.05194,44.550092],[5.052476,44.549847],[5.053399,44.548501],[5.053871,44.548318],[5.053807,44.54792],[5.053399,44.547706],[5.053914,44.547248],[5.053549,44.546177],[5.053227,44.546162],[5.053249,44.545856],[5.05312,44.545627],[5.053549,44.545198],[5.05415,44.544862],[5.0543,44.543791],[5.054236,44.542935],[5.054021,44.542461],[5.054558,44.54217],[5.054729,44.541482],[5.054472,44.541161],[5.054536,44.540717],[5.054408,44.540442],[5.054536,44.539953],[5.054365,44.539142],[5.056339,44.538056],[5.05621,44.537689],[5.056146,44.536328],[5.056232,44.535716],[5.057562,44.533162],[5.058957,44.531877],[5.061403,44.529598],[5.065029,44.527838],[5.065501,44.527471],[5.065609,44.526829],[5.0649,44.526355],[5.06593,44.52588]]],"type":"MultiLineString"},"properties":{"geo_point":{"lon":5.063022043898209,"lat":44.512857616703634},"name":"Tour du Pays de Dieulefit (Drôme) (2020)","code_gr":null}}]}