{"type":"FeatureCollection","features":[{"type":"Feature","geometry":{"coordinates":[[[3.125074,49.178401],[3.12451,49.179694],[3.124384,49.180153],[3.124418,49.180912],[3.1242,49.181385],[3.124131,49.181866],[3.124096,49.182738],[3.123949,49.183312],[3.124838,49.183608],[3.126337,49.184542],[3.127871,49.185294],[3.129579,49.186183],[3.131758,49.186844],[3.131949,49.187128],[3.132368,49.187926],[3.133065,49.18845],[3.133274,49.188814],[3.133553,49.190079],[3.133605,49.190865],[3.133135,49.191662],[3.134233,49.192027],[3.135383,49.192186],[3.136097,49.19238],[3.136097,49.192824],[3.13601,49.193086],[3.136202,49.193109],[3.137021,49.192858],[3.137527,49.192881],[3.142006,49.1955],[3.144272,49.196742],[3.144899,49.196856],[3.146729,49.196844],[3.146816,49.197015],[3.147357,49.197642],[3.14767,49.198484],[3.147984,49.198781],[3.148472,49.198894],[3.15011,49.198997],[3.150302,49.199145],[3.150546,49.199555],[3.151383,49.199874],[3.151871,49.199771],[3.152568,49.19935],[3.153718,49.198405],[3.158058,49.195933],[3.16001,49.195068],[3.160324,49.194817],[3.161422,49.194726],[3.162136,49.194726],[3.161544,49.194977],[3.16198,49.195683],[3.162119,49.196696],[3.162886,49.198336],[3.162938,49.199031],[3.162764,49.199578],[3.161561,49.199623],[3.160934,49.199885],[3.160254,49.200443],[3.159958,49.200808],[3.159801,49.201263],[3.15994,49.201992],[3.16001,49.202675],[3.15947,49.20263],[3.158999,49.202789],[3.158686,49.20304],[3.158407,49.203085],[3.156908,49.202732],[3.152219,49.208665],[3.158128,49.209883],[3.159104,49.209815],[3.159156,49.2101],[3.160882,49.210544],[3.1613,49.210555],[3.161701,49.210054],[3.161683,49.209599],[3.161997,49.208915],[3.16245,49.208437],[3.162956,49.20821],[3.163113,49.207993],[3.163322,49.20772],[3.163845,49.207447],[3.167365,49.206365],[3.167871,49.206388],[3.168254,49.206547],[3.168638,49.206604],[3.16916,49.20682],[3.169404,49.206706],[3.169265,49.206274],[3.169509,49.20567],[3.174023,49.204406],[3.174372,49.204668],[3.174755,49.20468],[3.174964,49.204463],[3.175104,49.204156],[3.175313,49.204087],[3.175818,49.20427],[3.176045,49.203825],[3.176515,49.203586],[3.17669,49.202983],[3.176097,49.201047],[3.17486,49.199065],[3.174581,49.198872],[3.173012,49.198029],[3.171914,49.1973],[3.171234,49.19673],[3.170712,49.196036],[3.169788,49.19435],[3.169648,49.193963],[3.169683,49.193222],[3.169858,49.192687],[3.169108,49.191799],[3.169178,49.191332],[3.168829,49.190944],[3.168916,49.189532],[3.169387,49.189042],[3.16991,49.18747],[3.170921,49.185944],[3.171304,49.186001],[3.17425,49.187823],[3.175017,49.188427],[3.176184,49.189486],[3.176585,49.190261],[3.17723,49.190455],[3.177596,49.190477],[3.178328,49.190409],[3.180054,49.189019],[3.18103,49.188131],[3.182441,49.187333],[3.183295,49.186661],[3.184655,49.18583],[3.184585,49.185032],[3.18638,49.18411],[3.187635,49.183734],[3.18835,49.182822],[3.188733,49.182537],[3.189064,49.182515],[3.189622,49.18256],[3.190006,49.182458],[3.190581,49.181991],[3.191138,49.181899],[3.193247,49.182344],[3.193997,49.182344],[3.196524,49.182093],[3.199836,49.181626],[3.200707,49.181649],[3.201282,49.181831],[3.201822,49.182161],[3.202101,49.181911],[3.202345,49.182332],[3.202851,49.182572],[3.204025,49.182602],[3.204866,49.182407],[3.205781,49.182065],[3.206696,49.181943],[3.207724,49.181564],[3.208247,49.180953],[3.209162,49.180343],[3.209517,49.180001],[3.210208,49.178939],[3.210787,49.178304],[3.217979,49.175874],[3.218633,49.175568],[3.219006,49.175532],[3.219884,49.175678],[3.22093,49.175678],[3.220949,49.175935],[3.222201,49.177437],[3.223097,49.178939],[3.222612,49.179024],[3.222182,49.179452],[3.222163,49.179793],[3.22235,49.181088],[3.223564,49.181308],[3.224087,49.180917],[3.224386,49.180941],[3.225096,49.181259],[3.225507,49.181222],[3.226067,49.180721],[3.228645,49.179696],[3.230009,49.178817],[3.233801,49.177595],[3.235781,49.178084],[3.236659,49.178096],[3.237911,49.178023],[3.238882,49.177766],[3.244243,49.177522],[3.247419,49.177766],[3.250183,49.177278],[3.250557,49.177095],[3.251061,49.176643],[3.25207,49.176484],[3.252967,49.176167],[3.253938,49.175593],[3.255302,49.174909],[3.256161,49.174127],[3.256497,49.173993],[3.25646,49.173712],[3.257879,49.171697],[3.258627,49.172002],[3.259747,49.171038],[3.259094,49.170744],[3.259112,49.170488],[3.259262,49.170134],[3.259206,49.16967],[3.259934,49.168094],[3.261877,49.168326],[3.262251,49.168155],[3.26283,49.168265],[3.262606,49.16868],[3.264249,49.169511],[3.265613,49.170317],[3.266248,49.17061],[3.268434,49.169999],[3.269648,49.169486],[3.270302,49.169157],[3.270955,49.169193],[3.271348,49.16945],[3.272431,49.169853],[3.274542,49.170146],[3.275289,49.170366],[3.276559,49.170158],[3.277363,49.170109],[3.279604,49.170622],[3.284984,49.171465],[3.286591,49.171111],[3.288795,49.170769],[3.290289,49.170463],[3.290065,49.170146],[3.291092,49.167703],[3.291541,49.16614],[3.291335,49.164076],[3.291018,49.162634],[3.290868,49.162256],[3.290532,49.161975],[3.291354,49.161633],[3.29197,49.161022],[3.29212,49.160289],[3.292139,49.159519],[3.292792,49.158957],[3.298415,49.157259],[3.309511,49.154144],[3.310594,49.154474],[3.310632,49.154657],[3.310352,49.155011],[3.311211,49.154889],[3.312481,49.155207],[3.31476,49.155537],[3.315825,49.15616],[3.316852,49.15638],[3.318197,49.156807],[3.318814,49.157247],[3.32057,49.158737],[3.320868,49.158811],[3.322344,49.158114],[3.323465,49.157601],[3.325034,49.157821],[3.327612,49.158628],[3.329144,49.159385],[3.331198,49.15991],[3.33273,49.160606],[3.335009,49.161657],[3.335943,49.162133],[3.338129,49.163025],[3.338726,49.163184],[3.340408,49.163196],[3.34108,49.163526],[3.340912,49.163672],[3.341136,49.164772],[3.341995,49.166885],[3.343658,49.17105],[3.344517,49.172137],[3.342388,49.172723],[3.343546,49.175495],[3.343602,49.176167],[3.344349,49.177412],[3.345022,49.178389],[3.345862,49.180025],[3.346367,49.180783],[3.346497,49.181112],[3.347973,49.182907],[3.34943,49.183127],[3.3507,49.183041],[3.350719,49.183493],[3.351317,49.184201],[3.351971,49.184726],[3.352045,49.185703],[3.351989,49.185972],[3.352886,49.186045],[3.353633,49.185935],[3.353932,49.185276],[3.35636,49.182431],[3.35707,49.181711],[3.35778,49.181344],[3.35877,49.181381],[3.35991,49.181662],[3.361161,49.181833],[3.363552,49.181943],[3.365121,49.181906],[3.367736,49.18143],[3.367774,49.181222],[3.367251,49.180233],[3.366466,49.179305],[3.37136,49.181234],[3.371865,49.181356],[3.372052,49.179525],[3.371958,49.177351],[3.372276,49.176851],[3.372388,49.175495],[3.373527,49.175361],[3.374387,49.175055],[3.376497,49.173932],[3.380177,49.17845],[3.380271,49.179024],[3.381037,49.181124],[3.382213,49.182321],[3.382867,49.182089],[3.383446,49.182077],[3.384156,49.182932],[3.384978,49.183432],[3.385464,49.182565],[3.385669,49.18215],[3.386323,49.181991],[3.387164,49.181588],[3.387126,49.182065],[3.387201,49.182614],[3.387855,49.181674],[3.388191,49.181515],[3.388695,49.181711],[3.389218,49.182223],[3.40052,49.185117],[3.402631,49.181576],[3.404573,49.180135],[3.406441,49.178609],[3.40816,49.177022],[3.409356,49.17679],[3.409953,49.176619],[3.4107,49.176191],[3.413017,49.175556],[3.413428,49.175654],[3.413857,49.175385],[3.414399,49.175214],[3.414829,49.174738],[3.41524,49.174713],[3.41679,49.175324],[3.417948,49.17591],[3.419088,49.175629],[3.42146,49.175678],[3.422861,49.175434],[3.4226,49.174567],[3.422786,49.174384],[3.422992,49.174066],[3.423814,49.173456],[3.42387,49.173101],[3.423123,49.172002],[3.423067,49.171734],[3.422488,49.171697],[3.423253,49.17116],[3.424542,49.169645],[3.425177,49.168497],[3.42585,49.167569],[3.42557,49.167325],[3.427251,49.16625],[3.427938,49.166686],[3.428339,49.167158],[3.429159,49.168585],[3.430381,49.170011],[3.430541,49.170483],[3.430221,49.170718],[3.430341,49.171019],[3.430921,49.17153],[3.431722,49.172328],[3.432022,49.173035],[3.432523,49.173598],[3.433444,49.174252],[3.433464,49.174501],[3.433684,49.174737],[3.434064,49.175587],[3.434165,49.176438],[3.435326,49.180391],[3.436704,49.180778],[3.437669,49.181142],[3.438721,49.181577],[3.439858,49.181914],[3.440309,49.181872],[3.441188,49.182096],[3.441854,49.182573],[3.442369,49.182755],[3.444278,49.183162],[3.445008,49.18305],[3.445244,49.182797],[3.445694,49.182643],[3.446145,49.182783],[3.446445,49.182924],[3.446767,49.18291],[3.447132,49.182643],[3.447733,49.182615],[3.448184,49.182489],[3.448827,49.182882],[3.449342,49.182755],[3.449986,49.182741],[3.450673,49.182517],[3.451273,49.182517],[3.452904,49.182152],[3.454835,49.18197],[3.454406,49.180988],[3.454449,49.180525],[3.454921,49.180315],[3.455844,49.180301],[3.456573,49.180679],[3.458054,49.179473],[3.459063,49.178744],[3.459492,49.178253],[3.459513,49.177692],[3.461037,49.176219],[3.462689,49.174928],[3.464513,49.173946],[3.465629,49.173652],[3.467109,49.173413],[3.467968,49.173511],[3.46992,49.173876],[3.47065,49.173862],[3.472903,49.173006],[3.474813,49.173091],[3.475134,49.173049],[3.475156,49.172866],[3.475585,49.172754],[3.47625,49.17159],[3.476744,49.171295],[3.478525,49.169654],[3.479447,49.169583],[3.480756,49.169555],[3.480799,49.169443],[3.481336,49.169429],[3.484211,49.169682],[3.484833,49.169794],[3.485069,49.169962],[3.485284,49.169892],[3.488846,49.171842],[3.488481,49.173764],[3.492301,49.174409],[3.493888,49.174942],[3.494897,49.17563],[3.495626,49.175966],[3.496249,49.176752],[3.496742,49.17779],[3.495991,49.177804],[3.493609,49.178099],[3.493631,49.178239],[3.49494,49.179712],[3.4973,49.181759],[3.498588,49.182307],[3.499382,49.182755],[3.500712,49.184102],[3.503802,49.186009],[3.504682,49.186542],[3.505797,49.188954],[3.506141,49.190581],[3.506098,49.191731],[3.507235,49.192025],[3.508952,49.193007],[3.513887,49.194536],[3.514123,49.195615],[3.514724,49.195419],[3.516998,49.196723],[3.516998,49.196961],[3.516097,49.197046],[3.517148,49.198434],[3.515518,49.198868],[3.515925,49.199738],[3.515174,49.200088],[3.514831,49.200397],[3.513908,49.200018],[3.513286,49.200901],[3.513994,49.202079],[3.514509,49.203004],[3.515089,49.205191],[3.515432,49.20578],[3.516998,49.207505],[3.51644,49.207729],[3.515968,49.208037],[3.515646,49.208991],[3.515904,49.21021],[3.516719,49.210771],[3.516784,49.212018],[3.517385,49.212944],[3.517427,49.213308],[3.517835,49.213911],[3.519681,49.214121],[3.520603,49.214163],[3.521204,49.214345],[3.521912,49.214317],[3.522534,49.214149],[3.522792,49.214359],[3.522663,49.214696],[3.5232,49.215186],[3.523521,49.215999],[3.524315,49.215817],[3.525217,49.216812],[3.526418,49.216896],[3.528821,49.217079],[3.532512,49.217877],[3.538091,49.221437],[3.534572,49.222096],[3.534594,49.222572],[3.5341,49.223525],[3.532598,49.225796],[3.532362,49.226034],[3.532813,49.226286],[3.532963,49.227043],[3.533306,49.227828],[3.533735,49.229761],[3.533907,49.230602],[3.534315,49.231191],[3.535237,49.231695],[3.535666,49.231807],[3.537126,49.231695],[3.537834,49.231779],[3.538907,49.232242],[3.539765,49.232494],[3.540924,49.23332],[3.541589,49.233685],[3.543198,49.234329],[3.543606,49.234722],[3.544142,49.234834],[3.544357,49.235002],[3.544464,49.235394],[3.545001,49.235576],[3.545408,49.235828],[3.545516,49.236305],[3.546417,49.236627],[3.548241,49.238294],[3.549721,49.237846],[3.55015,49.237286],[3.550687,49.237229],[3.551223,49.236977],[3.551888,49.236543],[3.552146,49.236585],[3.552704,49.236963],[3.554635,49.237832],[3.555171,49.238182],[3.55618,49.238392],[3.557017,49.238771],[3.557532,49.239247],[3.557403,49.239709],[3.556588,49.240592],[3.557639,49.240956],[3.558197,49.241376],[3.55839,49.24097],[3.55824,49.240662],[3.558798,49.24048],[3.559055,49.240228],[3.561695,49.239345],[3.562338,49.239317],[3.563883,49.239457],[3.564742,49.241124],[3.56472,49.242399],[3.566072,49.242777],[3.569119,49.243352],[3.572531,49.243618],[3.573174,49.2438],[3.573754,49.244724],[3.574526,49.244907],[3.579869,49.247694],[3.579698,49.248282],[3.579633,49.249053],[3.580964,49.252008],[3.581178,49.252919],[3.581607,49.253311],[3.58165,49.253675],[3.581457,49.254011],[3.581479,49.254921],[3.581543,49.255342],[3.581393,49.255734],[3.581457,49.25663],[3.582015,49.257596],[3.582079,49.2581],[3.581843,49.258661],[3.581049,49.259333],[3.580127,49.259907],[3.580985,49.262274],[3.581929,49.263786],[3.581994,49.264598],[3.582208,49.2652],[3.583474,49.266404],[3.584826,49.267427],[3.585062,49.267567],[3.585148,49.267959],[3.583646,49.268365],[3.583024,49.268757],[3.583431,49.269499],[3.584182,49.271431],[3.584998,49.272551],[3.586757,49.272831],[3.588238,49.273167],[3.58886,49.273447],[3.589547,49.273629],[3.591628,49.273853],[3.59283,49.274217],[3.594847,49.274385],[3.595533,49.274301],[3.599868,49.274609],[3.600941,49.274609],[3.605511,49.275029],[3.606992,49.275281],[3.608837,49.275323],[3.609073,49.274917],[3.609052,49.274651],[3.608773,49.273671],[3.608987,49.272999],[3.609009,49.272579],[3.609159,49.271879],[3.601906,49.269037],[3.599439,49.265788],[3.597486,49.264878],[3.597958,49.264836],[3.598323,49.26422],[3.598409,49.263618],[3.599846,49.260999],[3.600619,49.260551],[3.602078,49.259263],[3.606133,49.254627],[3.60697,49.251798],[3.60755,49.250958],[3.608537,49.249711],[3.613966,49.243912],[3.613665,49.243618],[3.612978,49.243071],[3.612614,49.242343],[3.612421,49.24153],[3.611476,49.240522],[3.610897,49.239093],[3.610296,49.238392],[3.613343,49.236613],[3.614974,49.236431],[3.615382,49.236277],[3.615682,49.235969],[3.618128,49.235618],[3.619823,49.235226],[3.620982,49.23517],[3.622141,49.235016],[3.622892,49.234708],[3.623707,49.234581],[3.62448,49.234259],[3.6239,49.23098],[3.62463,49.23077],[3.623579,49.230364],[3.622463,49.229649],[3.622162,49.228907],[3.620532,49.227365],[3.61903,49.227001],[3.620703,49.224605],[3.620167,49.22382],[3.618686,49.224114],[3.614738,49.224254],[3.614738,49.224591],[3.614395,49.224857],[3.614244,49.224689],[3.614094,49.22424],[3.612463,49.222993],[3.610811,49.22211],[3.613,49.219349],[3.613043,49.218943],[3.610318,49.215817],[3.614631,49.215677],[3.616626,49.215817],[3.62021,49.216238],[3.62242,49.216378],[3.628728,49.217036],[3.630273,49.217008],[3.632419,49.216686],[3.633277,49.2167],[3.633728,49.216798],[3.635209,49.217317],[3.636603,49.217317],[3.637333,49.215733],[3.638127,49.214738],[3.638406,49.214177],[3.639736,49.21314],[3.640122,49.213056],[3.640659,49.213294],[3.641431,49.212383],[3.641689,49.211906],[3.642526,49.211318],[3.643599,49.210911],[3.646109,49.209635],[3.647268,49.208514],[3.648126,49.207855],[3.649049,49.207406],[3.650723,49.206874],[3.652439,49.205738],[3.653169,49.205598],[3.654714,49.205626],[3.655765,49.204603],[3.656688,49.204322],[3.656902,49.203958],[3.657074,49.202878],[3.657846,49.201827],[3.659134,49.200411],[3.661301,49.198728],[3.662074,49.198476],[3.663146,49.198083],[3.663726,49.198041],[3.664305,49.198321],[3.664713,49.198293],[3.665035,49.198097],[3.665507,49.197705],[3.666,49.197354],[3.667867,49.196569],[3.668661,49.197214],[3.66924,49.197761],[3.670313,49.198392],[3.670421,49.198868],[3.670914,49.199401],[3.671772,49.199569],[3.671751,49.199752],[3.673811,49.200901],[3.674991,49.201378],[3.675807,49.202107],[3.676043,49.202289],[3.676686,49.203271],[3.678253,49.204953],[3.679497,49.205009],[3.680205,49.205191],[3.681836,49.205276],[3.682222,49.204911],[3.68351,49.204168],[3.684282,49.203145],[3.685205,49.202444],[3.685162,49.202191],[3.685377,49.201757],[3.685377,49.20156],[3.68572,49.200495],[3.685484,49.199471],[3.685184,49.198854],[3.685205,49.198476],[3.685913,49.197873],[3.686385,49.197116],[3.686879,49.195461],[3.687479,49.194788],[3.687437,49.193792],[3.687737,49.193189],[3.687758,49.191983],[3.68808,49.191408],[3.690805,49.188772],[3.689368,49.186977],[3.689325,49.18657],[3.689797,49.186318],[3.690827,49.185364],[3.691428,49.184999],[3.6919,49.184382],[3.692071,49.182868],[3.691492,49.182741],[3.691192,49.182545],[3.691299,49.182012],[3.69102,49.181367],[3.691041,49.181044],[3.691964,49.180048],[3.692157,49.179627],[3.69205,49.179291],[3.691599,49.178926],[3.691363,49.178449],[3.69117,49.177075],[3.68926,49.177145],[3.687458,49.17685],[3.68675,49.176247],[3.686213,49.175532],[3.68557,49.175391],[3.683574,49.175265],[3.682415,49.175012],[3.681707,49.17476],[3.681064,49.174325],[3.677652,49.173722],[3.675485,49.173497],[3.675227,49.17295],[3.675528,49.172431],[3.676193,49.171688],[3.676214,49.171309],[3.674605,49.169317],[3.676472,49.168728],[3.675914,49.168447],[3.675828,49.167282],[3.675592,49.166974],[3.674648,49.166707],[3.673317,49.16616],[3.672802,49.166132],[3.671966,49.166006],[3.670914,49.165543],[3.670399,49.165571],[3.670292,49.165374],[3.666923,49.164996],[3.666108,49.165445],[3.665142,49.166202],[3.664863,49.166721],[3.664327,49.166525],[3.661709,49.166805],[3.6601,49.166567],[3.656774,49.165893],[3.654757,49.16522],[3.648877,49.161305],[3.628943,49.151889],[3.624415,49.149924],[3.623192,49.1497],[3.621476,49.149742],[3.621368,49.149194],[3.620081,49.148366],[3.619673,49.147833],[3.619094,49.145756],[3.618858,49.144661],[3.618922,49.143931],[3.619223,49.143313],[3.612056,49.141699],[3.610425,49.140464],[3.609245,49.139902],[3.608408,49.138877],[3.607292,49.139607],[3.606884,49.140155],[3.604267,49.140786],[3.602958,49.141755],[3.602335,49.141264],[3.602228,49.140843],[3.602421,49.140253],[3.602357,49.13993],[3.60152,49.139397],[3.601413,49.13899],[3.60152,49.138498],[3.601949,49.137502],[3.60255,49.13541],[3.603044,49.134385],[3.602936,49.134146],[3.602228,49.133781],[3.601413,49.131914],[3.601928,49.131071],[3.601778,49.130833],[3.600469,49.130004],[3.599696,49.128277],[3.601327,49.127575],[3.60167,49.127168],[3.602228,49.127014],[3.605962,49.126157],[3.606348,49.125975],[3.60652,49.124697],[3.60682,49.124135],[3.607292,49.12384],[3.607979,49.123503],[3.608451,49.122927],[3.608837,49.122071],[3.608923,49.121776],[3.606198,49.119487],[3.604889,49.115077],[3.602872,49.114515],[3.606884,49.112914],[3.607635,49.112492],[3.610146,49.111032],[3.615661,49.104851],[3.617935,49.101957],[3.618321,49.100229],[3.618643,49.098023],[3.616884,49.095832],[3.615918,49.09527],[3.61521,49.094567],[3.61433,49.09253],[3.613,49.090928],[3.612764,49.090436],[3.612635,49.08993],[3.611906,49.08882],[3.610039,49.087063],[3.609974,49.086403],[3.609395,49.085335],[3.608816,49.082496],[3.608365,49.080107],[3.608365,49.079067],[3.609803,49.078153],[3.610833,49.076551],[3.611326,49.075581],[3.611648,49.07537],[3.61197,49.07485],[3.611391,49.074189],[3.611412,49.073964],[3.612099,49.073936],[3.613944,49.073486],[3.615983,49.072727],[3.617463,49.072039],[3.619137,49.071575],[3.620145,49.071462],[3.621111,49.07142],[3.623879,49.071111],[3.625939,49.071448],[3.627527,49.071828],[3.629522,49.072123],[3.631024,49.072446],[3.632011,49.072741],[3.632698,49.073051],[3.633277,49.073627],[3.634887,49.074962],[3.635638,49.0753],[3.635552,49.075876],[3.635252,49.076087],[3.63626,49.075764],[3.637741,49.075089],[3.638642,49.075735],[3.6395,49.075778],[3.640423,49.076719],[3.641539,49.077464],[3.644564,49.076101],[3.645122,49.076017],[3.646045,49.076143],[3.646603,49.076031],[3.646946,49.075876],[3.64568,49.075229],[3.645229,49.075117],[3.646002,49.074217],[3.647161,49.073093],[3.647568,49.072812],[3.648641,49.07194],[3.649478,49.071603],[3.650208,49.070338],[3.650551,49.069621],[3.651066,49.068805],[3.652375,49.067723],[3.652761,49.067273],[3.654971,49.06754],[3.655722,49.063322],[3.655722,49.06238],[3.655615,49.06148],[3.655915,49.060482],[3.656237,49.060187],[3.656602,49.059512],[3.656559,49.059189],[3.656752,49.058514],[3.656795,49.05805],[3.656945,49.057698],[3.656323,49.057558],[3.654349,49.056419],[3.653319,49.053241],[3.653083,49.052003],[3.653126,49.050259],[3.65113,49.045281],[3.650916,49.044957],[3.650057,49.042833],[3.647504,49.041314],[3.646474,49.040906],[3.645015,49.039781],[3.643599,49.037924],[3.642719,49.037108],[3.642504,49.036489],[3.641818,49.035519],[3.639951,49.034168],[3.639693,49.033493],[3.639972,49.032719],[3.639457,49.032058],[3.638663,49.031734],[3.638213,49.031411],[3.637526,49.031115],[3.637505,49.030159],[3.637033,49.029807],[3.636818,49.029427],[3.636174,49.028921],[3.636432,49.026571],[3.636239,49.02477],[3.636518,49.024587],[3.637054,49.023574],[3.636453,49.023476],[3.63523,49.022983],[3.633513,49.022997],[3.629994,49.022406],[3.629007,49.02235],[3.627162,49.022054],[3.626282,49.021703],[3.62551,49.021548],[3.624587,49.02121],[3.623192,49.021013],[3.621347,49.020999],[3.618171,49.020746],[3.61624,49.020338],[3.615038,49.019958],[3.614352,49.01955],[3.613579,49.018945],[3.611541,49.017959],[3.610082,49.017411],[3.608751,49.017073],[3.608859,49.016341],[3.608665,49.015905],[3.608301,49.015511],[3.608193,49.015046],[3.609374,49.013921],[3.610103,49.013541],[3.61064,49.013343],[3.61315,49.011753],[3.616133,49.010388],[3.616927,49.009755],[3.618472,49.009135],[3.619051,49.007094],[3.617055,49.004321],[3.616862,49.003223],[3.616798,49.002829],[3.61712,49.00214],[3.617034,49.001957],[3.61757,49.001154],[3.6183,48.998493],[3.618879,48.997761],[3.618665,48.99634],[3.618171,48.99472],[3.617678,48.994312],[3.617291,48.993735],[3.61712,48.993158],[3.617249,48.991426],[3.616776,48.99075],[3.617184,48.990328],[3.616009,48.989145],[3.614459,48.987934],[3.614202,48.986765],[3.613966,48.986413],[3.614416,48.986188],[3.613451,48.984977],[3.614073,48.984681],[3.614223,48.983808],[3.613729,48.983343],[3.612978,48.982963],[3.614094,48.982174],[3.614759,48.9814],[3.614502,48.980963],[3.615017,48.979682],[3.615489,48.978851],[3.615532,48.978597],[3.615768,48.978076],[3.615768,48.977738],[3.615532,48.977428],[3.615382,48.9764],[3.615124,48.975879],[3.615081,48.975231],[3.615382,48.974752],[3.61536,48.974414],[3.614695,48.973583],[3.614566,48.972837],[3.615725,48.971724],[3.616004,48.9704],[3.614352,48.969851],[3.612657,48.968865],[3.611991,48.968865],[3.611069,48.969485],[3.609824,48.969668],[3.608408,48.969696],[3.607399,48.970076],[3.604395,48.971879],[3.603773,48.971372],[3.603387,48.970851],[3.603086,48.970189],[3.602529,48.9694],[3.60225,48.968724],[3.602014,48.967512],[3.602571,48.966456],[3.60225,48.965991],[3.601563,48.966076],[3.601112,48.966456],[3.600361,48.966329],[3.599031,48.967019],[3.598108,48.967569],[3.597529,48.968231],[3.597121,48.968569],[3.596306,48.968865],[3.59534,48.968851],[3.59431,48.968907],[3.593624,48.968794],[3.592658,48.968414],[3.590984,48.970034],[3.588581,48.971766],[3.585942,48.972457],[3.584526,48.973724],[3.58253,48.97395],[3.581908,48.972344],[3.580985,48.9714],[3.580363,48.969668],[3.578732,48.968372],[3.577058,48.967625],[3.578496,48.965554],[3.579268,48.963512],[3.577616,48.962793],[3.575728,48.961624],[3.575084,48.961455],[3.574591,48.961469],[3.573904,48.961103],[3.57311,48.960497],[3.572295,48.959468],[3.571329,48.958764],[3.57002,48.957975],[3.569484,48.957482],[3.56869,48.957186],[3.567595,48.956876],[3.565986,48.956242],[3.560429,48.954593],[3.560686,48.953861],[3.558648,48.953903],[3.55706,48.953748],[3.556008,48.954044],[3.555686,48.953945],[3.555257,48.953565],[3.554721,48.953621],[3.55442,48.953508],[3.554077,48.953522],[3.553197,48.953198],[3.552897,48.953339],[3.552618,48.953311],[3.552489,48.952621],[3.55206,48.951972],[3.553112,48.951507],[3.553755,48.95069],[3.553519,48.950014],[3.553541,48.949661],[3.552983,48.94914],[3.552361,48.947928],[3.551738,48.947097],[3.551996,48.946265],[3.55206,48.945575],[3.552039,48.944884],[3.552318,48.943728],[3.552232,48.943052],[3.552275,48.940952],[3.552082,48.939994],[3.552017,48.939077],[3.55176,48.938359],[3.551803,48.936301],[3.551416,48.934384],[3.550558,48.932382],[3.549078,48.931141],[3.548187,48.93013],[3.546738,48.929556],[3.546485,48.929329],[3.546945,48.929027],[3.547566,48.928846],[3.548141,48.92877],[3.547221,48.928272],[3.546761,48.927879],[3.546531,48.92732],[3.546416,48.926821],[3.544783,48.926126],[3.545496,48.925099],[3.546462,48.924026],[3.547589,48.923074],[3.541563,48.921094],[3.532456,48.917104],[3.528868,48.921275],[3.528133,48.921155],[3.525718,48.921971],[3.525465,48.922424],[3.52443,48.922318],[3.521716,48.921789],[3.520244,48.921986],[3.517853,48.922499],[3.51507,48.922802],[3.514978,48.920958],[3.514219,48.91919],[3.513966,48.917966],[3.509872,48.915291],[3.510654,48.915034],[3.513023,48.913749],[3.515001,48.91254],[3.515277,48.911618],[3.51484,48.911074],[3.514518,48.910364],[3.514472,48.910001],[3.515438,48.90601],[3.518703,48.900251],[3.518312,48.899797],[3.518312,48.899283],[3.5176,48.898814],[3.516266,48.897514],[3.51553,48.896622],[3.515231,48.895594],[3.514771,48.895307],[3.514173,48.895186],[3.513023,48.895231],[3.511298,48.893523],[3.509642,48.892207],[3.509159,48.891663],[3.50886,48.891028],[3.508239,48.890423],[3.506469,48.890483],[3.505733,48.889289],[3.504813,48.889047],[3.5041,48.889032],[3.503272,48.888729],[3.50272,48.888245],[3.502237,48.88758],[3.501455,48.886416],[3.500765,48.885297],[3.500581,48.884162],[3.499868,48.883255],[3.49927,48.882892],[3.498327,48.882862],[3.495729,48.883013],[3.49083,48.882741],[3.489358,48.882968],[3.48699,48.881652],[3.485955,48.881591],[3.485771,48.881682],[3.483678,48.881622],[3.480918,48.882196],[3.480366,48.88265],[3.478664,48.883315],[3.474134,48.882151],[3.473973,48.881455],[3.473306,48.88079],[3.47326,48.880487],[3.472708,48.8802],[3.472363,48.879731],[3.466797,48.878234],[3.465832,48.879807],[3.4639,48.882453],[3.462336,48.882847],[3.460036,48.884026],[3.457483,48.885039],[3.455483,48.885357],[3.453827,48.885191],[3.452792,48.885312],[3.451366,48.885569],[3.450837,48.886022],[3.450216,48.885917],[3.449572,48.885554],[3.448698,48.885236],[3.447341,48.884994],[3.447157,48.885281],[3.447111,48.886007],[3.446858,48.88634],[3.446122,48.886763],[3.445548,48.887429],[3.445042,48.888155],[3.444237,48.888654],[3.443685,48.889395],[3.443409,48.890211],[3.443432,48.891013],[3.443386,48.892237],[3.443846,48.892993],[3.443064,48.893145],[3.443041,48.894173],[3.442719,48.895473],[3.442742,48.895987],[3.443478,48.896834],[3.444168,48.897212],[3.44426,48.897363],[3.443501,48.897423],[3.442305,48.898089],[3.441638,48.898376],[3.442144,48.899842],[3.442167,48.900281],[3.442535,48.900644],[3.442259,48.902291],[3.441868,48.902805],[3.441937,48.903335],[3.445019,48.904],[3.444582,48.905511],[3.438418,48.91118],[3.437843,48.911512],[3.436831,48.912328],[3.436141,48.912782],[3.434256,48.915306],[3.433704,48.915835],[3.431519,48.91579],[3.431312,48.916953],[3.431312,48.917679],[3.43145,48.918374],[3.431036,48.920308],[3.431864,48.92188],[3.433566,48.922983],[3.427954,48.922016],[3.426712,48.922303],[3.426229,48.921925],[3.423033,48.923104],[3.423585,48.92392],[3.423148,48.924207],[3.423815,48.924555],[3.425884,48.925053],[3.428621,48.925461],[3.43076,48.925688],[3.430691,48.926096],[3.431082,48.927259],[3.43053,48.9288],[3.430645,48.929511],[3.430507,48.931339],[3.42754,48.930886],[3.426965,48.932079],[3.427057,48.932381],[3.426758,48.933545],[3.425792,48.93362],[3.424988,48.933439],[3.42439,48.933424],[3.422941,48.933953],[3.422711,48.934889],[3.422849,48.935539],[3.423838,48.936672],[3.424735,48.937563],[3.425401,48.938016],[3.425631,48.938379],[3.4257,48.939452],[3.426091,48.940056],[3.42984,48.943319],[3.429311,48.943787],[3.430783,48.944346],[3.431588,48.945071],[3.431657,48.945403],[3.431151,48.945886],[3.430714,48.946702],[3.430829,48.948303],[3.430737,48.948756],[3.429288,48.949511],[3.429035,48.949753],[3.428874,48.95007],[3.427862,48.951218],[3.427563,48.951807],[3.426919,48.952834],[3.426482,48.953377],[3.425976,48.954495],[3.425447,48.95522],[3.425034,48.955613],[3.424827,48.95673],[3.424436,48.956926],[3.424344,48.957394],[3.423953,48.957938],[3.423447,48.95815],[3.422596,48.958255],[3.421998,48.958708],[3.421745,48.959161],[3.421216,48.959342],[3.419882,48.959403],[3.418824,48.959675],[3.419652,48.961185],[3.419629,48.961668],[3.419353,48.961728],[3.418479,48.961607],[3.417996,48.961698],[3.416823,48.960807],[3.41388,48.960128],[3.413167,48.960233],[3.411787,48.960626],[3.410729,48.960671],[3.409165,48.962921],[3.409096,48.963525],[3.408843,48.963902],[3.408268,48.96422],[3.407693,48.964642],[3.406037,48.965563],[3.404382,48.9673],[3.403738,48.967783],[3.402726,48.968779],[3.401622,48.969504],[3.399092,48.967541],[3.398632,48.966967],[3.398172,48.966862],[3.397321,48.967088],[3.396608,48.967164],[3.396033,48.96733],[3.394883,48.967405],[3.394424,48.967118],[3.392814,48.963314],[3.39171,48.963646],[3.390422,48.963797],[3.386995,48.96499],[3.386282,48.965488],[3.385983,48.965835],[3.3855,48.966741],[3.38481,48.967602],[3.384052,48.968236],[3.383523,48.969006],[3.383132,48.970168],[3.382511,48.97118],[3.381499,48.972417],[3.379797,48.973837],[3.380165,48.975935],[3.38028,48.977671],[3.373772,48.978607],[3.373818,48.978893],[3.372576,48.980222],[3.371978,48.980237],[3.37161,48.980101],[3.368689,48.980222],[3.367539,48.982244],[3.366596,48.982274],[3.366918,48.98324],[3.366527,48.98404],[3.366573,48.984568],[3.366757,48.984885],[3.368344,48.985519],[3.368689,48.985791],[3.368137,48.987044],[3.366872,48.987451],[3.366458,48.987979],[3.366159,48.988764],[3.366872,48.989066],[3.366964,48.989639],[3.368712,48.98973],[3.369471,48.990771],[3.370138,48.992854],[3.370184,48.994076],[3.369632,48.994891],[3.369471,48.996415],[3.368574,49.000232],[3.367102,49.000504],[3.36655,49.000368],[3.365216,49.000292],[3.363216,48.999991],[3.362411,48.999749],[3.36133,48.999221],[3.360755,48.99907],[3.359145,48.998422],[3.358248,48.998376],[3.356937,48.998512],[3.355143,48.998919],[3.352016,48.999055],[3.351441,48.999266],[3.349095,48.999448],[3.347117,48.999372],[3.345714,48.999357],[3.344541,48.999101],[3.344127,48.998904],[3.343782,48.998874],[3.34307,48.998497],[3.342748,48.998105],[3.34215,48.99821],[3.342403,48.999463],[3.341552,48.999448],[3.340908,48.999206],[3.340816,48.998678],[3.340954,48.997818],[3.34077,48.997335],[3.34077,48.99646],[3.341621,48.994257],[3.341874,48.992989],[3.342495,48.990922],[3.342495,48.98973],[3.342656,48.988734],[3.342541,48.988085],[3.342081,48.986847],[3.34192,48.986108],[3.341943,48.985217],[3.340195,48.983286],[3.339574,48.982335],[3.338746,48.982108],[3.337711,48.981716],[3.336791,48.981112],[3.336262,48.980976],[3.336032,48.980478],[3.33571,48.980056],[3.335756,48.979724],[3.33525,48.979482],[3.333778,48.978184],[3.332146,48.977761],[3.330973,48.97752],[3.329869,48.977052],[3.329156,48.976856],[3.328811,48.977308],[3.328052,48.977761],[3.327454,48.978622],[3.324786,48.977686],[3.324487,48.977293],[3.323337,48.976991],[3.321015,48.976961],[3.319865,48.976131],[3.319819,48.975633],[3.316208,48.975859],[3.314598,48.976237],[3.313379,48.976629],[3.313218,48.976705],[3.312092,48.976961],[3.311425,48.976931],[3.31016,48.977324],[3.30901,48.977414],[3.307653,48.977882],[3.306963,48.977791],[3.30648,48.977822],[3.305468,48.977308],[3.303697,48.97669],[3.302432,48.976991],[3.302087,48.976946],[3.301122,48.977127],[3.300432,48.977173],[3.299673,48.977112],[3.298661,48.976901],[3.29505,48.977173],[3.293555,48.977958],[3.290658,48.97832],[3.29052,48.977082],[3.28914,48.977127],[3.287254,48.977037],[3.285345,48.976795],[3.279941,48.976448],[3.279849,48.97681],[3.279113,48.976976],[3.278216,48.977067],[3.277457,48.977248],[3.276652,48.977248],[3.274973,48.977641],[3.274168,48.977973],[3.273478,48.978124],[3.272742,48.978561],[3.270857,48.979467],[3.269891,48.979663],[3.267936,48.979935],[3.266372,48.980327],[3.264279,48.981233],[3.26352,48.981323],[3.260784,48.982425],[3.257978,48.983452],[3.25692,48.983874],[3.256828,48.984025],[3.255655,48.984508],[3.254482,48.985595],[3.253309,48.98641],[3.251561,48.986048],[3.250228,48.986002],[3.249814,48.986304],[3.249239,48.986289],[3.248549,48.986123],[3.248319,48.986017],[3.244501,48.986108],[3.242063,48.985791],[3.242247,48.985429],[3.240499,48.98564],[3.238959,48.98564],[3.239051,48.985172],[3.235946,48.985021],[3.231829,48.986244],[3.231691,48.986561],[3.231415,48.988462],[3.23084,48.98982],[3.230909,48.99139],[3.231323,48.993397],[3.231714,48.994272],[3.231346,48.996309],[3.231783,48.997516],[3.232243,48.998467],[3.22953,48.998919],[3.229254,48.999568],[3.228725,49.000157],[3.22861,49.00156],[3.22815,49.001997],[3.227782,49.002752],[3.226563,49.004487],[3.225528,49.004683],[3.225367,49.005271],[3.226057,49.005754],[3.22631,49.006025],[3.225551,49.006629],[3.224815,49.00681],[3.224401,49.007323],[3.223136,49.006735],[3.221457,49.004607],[3.220721,49.004306],[3.2201,49.004321],[3.218882,49.005105],[3.218353,49.004985],[3.217893,49.004381],[3.216697,49.003234],[3.215524,49.002857],[3.21304,49.002525],[3.212212,49.002556],[3.21097,49.002299],[3.207912,49.002193],[3.206831,49.00239],[3.206555,49.002556],[3.208671,49.002963],[3.207567,49.00337],[3.206026,49.004306],[3.205428,49.004909],[3.204784,49.005995],[3.204347,49.007217],[3.204393,49.008092],[3.204669,49.00856],[3.204301,49.008605],[3.203795,49.009058],[3.203059,49.010265],[3.2023,49.011275],[3.201794,49.012527],[3.199908,49.0139],[3.197908,49.014488],[3.197011,49.015619],[3.19685,49.016283],[3.196206,49.017309],[3.195677,49.018515],[3.194504,49.01939],[3.195608,49.020189],[3.193331,49.022029],[3.192227,49.022165],[3.191744,49.022391],[3.192066,49.022919],[3.19202,49.023221],[3.192549,49.023854],[3.192687,49.024291],[3.193607,49.024623],[3.19363,49.025045],[3.193584,49.025347],[3.194665,49.027126],[3.19662,49.027805],[3.200529,49.028152],[3.203266,49.028725],[3.203312,49.029162],[3.202898,49.030896],[3.20069,49.033263],[3.200759,49.03444],[3.200437,49.035058],[3.197218,49.036415],[3.19455,49.037334],[3.192319,49.037591],[3.189283,49.03658],[3.188571,49.035329],[3.188938,49.03747],[3.189375,49.037983],[3.191146,49.03851],[3.193032,49.040425],[3.193262,49.041118],[3.193722,49.042852],[3.194573,49.043832],[3.196321,49.048656],[3.198805,49.052454],[3.199839,49.053388],[3.201127,49.054911],[3.20161,49.055724],[3.20184,49.056478],[3.202576,49.056809],[3.202714,49.057111],[3.201288,49.058075],[3.201334,49.058422],[3.20276,49.058995],[3.204462,49.060095],[3.204899,49.060125],[3.20552,49.060004],[3.206348,49.060019],[3.206601,49.0613],[3.208326,49.061119],[3.210119,49.060773],[3.211407,49.060396],[3.212833,49.059718],[3.213638,49.059628],[3.214259,49.059371],[3.215846,49.059718],[3.216582,49.060004],[3.219112,49.060291],[3.221871,49.060291],[3.22263,49.060125],[3.220123,49.062581],[3.217939,49.063847],[3.217709,49.064314],[3.217985,49.064661],[3.217893,49.064902],[3.217502,49.065052],[3.21603,49.066529],[3.214305,49.066665],[3.213868,49.067252],[3.209361,49.070838],[3.205635,49.073505],[3.204876,49.07343],[3.203473,49.073671],[3.201265,49.074424],[3.200529,49.075011],[3.199816,49.075915],[3.199517,49.076654],[3.198575,49.077316],[3.197195,49.078612],[3.197057,49.079154],[3.196781,49.079576],[3.195953,49.080058],[3.194504,49.081158],[3.194182,49.081474],[3.194159,49.081685],[3.19248,49.083041],[3.192135,49.084155],[3.191422,49.084984],[3.190548,49.085812],[3.189352,49.08652],[3.187421,49.088433],[3.186547,49.089095],[3.184063,49.091641],[3.185535,49.091686],[3.185765,49.093433],[3.184888,49.094085],[3.184372,49.094045],[3.184706,49.094214],[3.184478,49.094482],[3.184266,49.094432],[3.183917,49.095346],[3.183212,49.095195],[3.182108,49.09533],[3.182016,49.096686],[3.181602,49.097785],[3.179555,49.09923],[3.17898,49.098929],[3.177739,49.098929],[3.176635,49.098357],[3.175922,49.098387],[3.175554,49.098221],[3.174726,49.098221],[3.174243,49.098116],[3.173852,49.098342],[3.172426,49.098884],[3.171391,49.098718],[3.170954,49.098794],[3.169137,49.098688],[3.16847,49.098779],[3.169436,49.101384],[3.169666,49.101911],[3.169528,49.102317],[3.169781,49.10298],[3.168172,49.102919],[3.166608,49.102934],[3.16532,49.102513],[3.161226,49.103115],[3.16141,49.103732],[3.16164,49.104214],[3.160904,49.104365],[3.160352,49.104696],[3.160168,49.105389],[3.160329,49.106518],[3.160168,49.106939],[3.159616,49.107692],[3.158765,49.10983],[3.158236,49.110733],[3.157915,49.111772],[3.157501,49.112269],[3.155385,49.113744],[3.154534,49.114587],[3.153453,49.115385],[3.14883,49.117387],[3.141356,49.120051],[3.140689,49.120788],[3.140252,49.120834],[3.138274,49.120051],[3.136918,49.119027],[3.12896,49.114451],[3.126868,49.112585],[3.126638,49.111892],[3.126293,49.11129],[3.125764,49.110974],[3.125327,49.110839],[3.124499,49.110763],[3.124177,49.110974],[3.122613,49.111335],[3.120566,49.112043],[3.119853,49.112434],[3.118818,49.112735],[3.118036,49.113202],[3.117139,49.113292],[3.107848,49.115144],[3.107158,49.115189],[3.106285,49.11543],[3.10571,49.115972],[3.104192,49.116559],[3.10863,49.1213],[3.12443,49.137899],[3.125465,49.137959],[3.126408,49.13817],[3.127327,49.138335],[3.127419,49.138666],[3.127971,49.139087],[3.129374,49.139795],[3.129719,49.140772],[3.130432,49.14145],[3.131444,49.141781],[3.133537,49.142382],[3.135239,49.142698],[3.136182,49.142442],[3.136941,49.142367],[3.137355,49.142638],[3.138159,49.143059],[3.138918,49.144173],[3.13901,49.144564],[3.13993,49.144489],[3.141333,49.145542],[3.141839,49.145527],[3.14223,49.145782],[3.142253,49.146038],[3.141908,49.146504],[3.142736,49.146745],[3.142943,49.147106],[3.14292,49.147467],[3.142644,49.147783],[3.141816,49.148069],[3.140367,49.149242],[3.138113,49.15216],[3.137561,49.153123],[3.136642,49.155214],[3.134319,49.154853],[3.133422,49.154853],[3.132686,49.154657],[3.131743,49.154627],[3.130915,49.154417],[3.130271,49.154432],[3.128845,49.154808],[3.12758,49.154943],[3.126086,49.154973],[3.124131,49.155108],[3.125212,49.15765],[3.124499,49.159711],[3.12466,49.161546],[3.12535,49.165034],[3.126086,49.166869],[3.126454,49.168162],[3.127235,49.169967],[3.127121,49.170493],[3.126914,49.171094],[3.127235,49.171425],[3.128063,49.171395],[3.128155,49.172448],[3.128937,49.172583],[3.129512,49.172808],[3.129351,49.173004],[3.129397,49.173575],[3.129213,49.174071],[3.128155,49.173831],[3.127419,49.173726],[3.127177,49.173799],[3.126968,49.17396],[3.126699,49.174129],[3.12671,49.17429],[3.126882,49.174308],[3.127257,49.174318],[3.127322,49.174363],[3.126707,49.174368],[3.126707,49.174804],[3.126859,49.174874],[3.126813,49.17527],[3.126352,49.175342],[3.126026,49.176023],[3.126823,49.176108],[3.126807,49.176427],[3.128027,49.176469],[3.128612,49.176427],[3.12814,49.178861],[3.126074,49.178589]]],"type":"MultiLineString"},"properties":{"geo_point":{"lon":3.4165916130182126,"lat":49.093400817940314},"name":"Tour de l'Omois (Aisne, Marne, Oise) (2020)","code_gr":null}}]}