{"type":"FeatureCollection","features":[{"type":"Feature","geometry":{"coordinates":[[[3.381728,43.856688],[3.382337,43.856852],[3.382719,43.857071],[3.382974,43.857255],[3.383095,43.857628],[3.383158,43.85799],[3.383583,43.8585],[3.383725,43.858796],[3.384149,43.859184],[3.385048,43.859883],[3.386032,43.860389],[3.386591,43.860562],[3.386775,43.8607],[3.386839,43.860874],[3.386598,43.861272],[3.386591,43.861547],[3.38679,43.861797],[3.38703,43.861864],[3.388559,43.861649],[3.388779,43.8617],[3.389012,43.86195],[3.389578,43.862195],[3.389819,43.86242],[3.389894,43.862784],[3.390001,43.862869],[3.389862,43.863132],[3.390055,43.863696],[3.390226,43.863851],[3.390377,43.864184],[3.390527,43.864447],[3.390818,43.864719],[3.391225,43.865176],[3.39138,43.865633],[3.39151,43.865827],[3.391672,43.86626],[3.391802,43.866419],[3.392014,43.867181],[3.39229,43.867867],[3.392689,43.868212],[3.392827,43.868435],[3.393746,43.869098],[3.393868,43.869637],[3.394022,43.870159],[3.394103,43.870774],[3.394038,43.871055],[3.393689,43.871319],[3.39351,43.871771],[3.393559,43.871905],[3.393404,43.872198],[3.393803,43.872374],[3.393843,43.872579],[3.394103,43.872843],[3.394103,43.8733],[3.394412,43.873998],[3.394339,43.874244],[3.394347,43.874854],[3.393998,43.875592],[3.393908,43.876336],[3.394152,43.877257],[3.39403,43.877409],[3.394144,43.877743],[3.394705,43.878546],[3.396039,43.879783],[3.396112,43.880474],[3.396445,43.880896],[3.396486,43.881107],[3.396657,43.881465],[3.39651,43.881723],[3.396518,43.881969],[3.396421,43.882127],[3.396516,43.88241],[3.396355,43.882609],[3.39624,43.883289],[3.39685,43.883488],[3.397137,43.883421],[3.397149,43.883836],[3.397405,43.883961],[3.397437,43.884524],[3.397632,43.884805],[3.397681,43.885297],[3.397665,43.886059],[3.39799,43.887606],[3.398299,43.888204],[3.399779,43.889692],[3.399925,43.889985],[3.400283,43.890243],[3.400332,43.89056],[3.399876,43.891954],[3.40025,43.892153],[3.400169,43.892763],[3.39986,43.893337],[3.399958,43.893665],[3.400656,43.894202],[3.400691,43.895257],[3.400847,43.895569],[3.401229,43.896018],[3.401484,43.896589],[3.401619,43.896772],[3.402051,43.896997],[3.402263,43.89714],[3.403424,43.898155],[3.404287,43.898792],[3.4045,43.898859],[3.4053,43.898838],[3.405519,43.899129],[3.405809,43.89919],[3.406269,43.899333],[3.406531,43.899506],[3.406687,43.899751],[3.407211,43.900297],[3.407543,43.900445],[3.407848,43.90072],[3.408032,43.901291],[3.408173,43.901572],[3.408379,43.901704],[3.408754,43.90173],[3.409044,43.901888],[3.410361,43.902311],[3.410736,43.902373],[3.411344,43.902704],[3.412231,43.903188],[3.412746,43.903342],[3.413454,43.903474],[3.413733,43.903729],[3.414441,43.904015],[3.414667,43.904301],[3.41471,43.904564],[3.414967,43.904935],[3.415031,43.905159],[3.415686,43.905986],[3.41619,43.906009],[3.416791,43.906249],[3.417639,43.90638],[3.418143,43.90652],[3.419528,43.907661],[3.41993,43.907442],[3.420355,43.906929],[3.42078,43.906737],[3.421182,43.906672],[3.421493,43.906562],[3.421645,43.906612],[3.421653,43.906513],[3.421994,43.906639],[3.421941,43.906459],[3.422184,43.906453],[3.422335,43.906601],[3.42254,43.906748],[3.422548,43.906858],[3.422639,43.906808],[3.423033,43.907557],[3.423185,43.907601],[3.423511,43.908098],[3.42405,43.908339],[3.4243,43.908656],[3.424596,43.908913],[3.424892,43.908995],[3.425051,43.908847],[3.425362,43.908951],[3.425195,43.908656],[3.425089,43.908208],[3.425104,43.907869],[3.424945,43.907661],[3.42493,43.907311],[3.424862,43.907224],[3.425021,43.907136],[3.425818,43.907169],[3.426417,43.906945],[3.426827,43.906841],[3.427175,43.906907],[3.427593,43.906923],[3.428238,43.906808],[3.428769,43.906535],[3.429747,43.905841],[3.430453,43.905256],[3.430847,43.904748],[3.431227,43.904382],[3.431378,43.904332],[3.431651,43.904436],[3.431955,43.904436],[3.432365,43.904513],[3.432653,43.904502],[3.433078,43.904272],[3.433131,43.90401],[3.433063,43.903693],[3.433154,43.903502],[3.433973,43.902824],[3.435293,43.902086],[3.437205,43.901501],[3.437903,43.901195],[3.437994,43.900708],[3.437941,43.900484],[3.437766,43.900391],[3.437637,43.90026],[3.437668,43.900047],[3.438297,43.898888],[3.438494,43.898669],[3.439071,43.898057],[3.439246,43.897702],[3.439678,43.897182],[3.44011,43.896816],[3.44011,43.896756],[3.440255,43.896663],[3.441028,43.896668],[3.441408,43.896822],[3.442477,43.896997],[3.442993,43.897002],[3.443115,43.896865],[3.443289,43.896811],[3.443691,43.896843],[3.444108,43.896811],[3.444791,43.896401],[3.445853,43.895892],[3.446134,43.895925],[3.446346,43.896089],[3.446422,43.89633],[3.446126,43.897226],[3.44618,43.897756],[3.446407,43.897762],[3.446385,43.897661],[3.446662,43.897638],[3.446824,43.897743],[3.447524,43.897907],[3.44806,43.897931],[3.448467,43.89813],[3.448906,43.898727],[3.449085,43.89977],[3.44928,43.900005],[3.45102,43.90004],[3.451581,43.900123],[3.452051,43.900402],[3.452514,43.900495],[3.452954,43.900517],[3.453531,43.900315],[3.45388,43.900085],[3.454358,43.899615],[3.454593,43.899626],[3.455033,43.899495],[3.455572,43.89909],[3.45586,43.898762],[3.456338,43.89854],[3.457346,43.89861],[3.457655,43.898563],[3.458256,43.898821],[3.458696,43.899255],[3.459736,43.899372],[3.460045,43.899255],[3.459915,43.898809],[3.460501,43.898716],[3.460403,43.898517],[3.45998,43.898481],[3.460175,43.8982],[3.460224,43.897778],[3.460468,43.89772],[3.461428,43.897942],[3.462078,43.898388],[3.462566,43.899348],[3.463509,43.899149],[3.465086,43.898915],[3.466664,43.899325],[3.46681,43.899524],[3.467461,43.900005],[3.467965,43.900649],[3.468127,43.901258],[3.468097,43.902048],[3.468279,43.902539],[3.468613,43.903037],[3.468855,43.903731],[3.468833,43.90419],[3.468666,43.904671],[3.468173,43.905196],[3.468211,43.905387],[3.468643,43.905458],[3.469394,43.905365],[3.470221,43.905016],[3.470934,43.904556],[3.471488,43.904305],[3.472102,43.90395],[3.473134,43.903534],[3.473991,43.903365],[3.474735,43.903507],[3.475357,43.903436],[3.475698,43.903152],[3.476214,43.901856],[3.476374,43.901446],[3.476396,43.9012],[3.4772,43.900588],[3.477663,43.900583],[3.478134,43.900839],[3.478354,43.901293],[3.478407,43.90202],[3.478513,43.902299],[3.478839,43.902632],[3.479393,43.902982],[3.479484,43.903234],[3.479438,43.903496],[3.479393,43.90384],[3.478991,43.904343],[3.478862,43.904633],[3.479052,43.904873],[3.479476,43.905076],[3.480038,43.905087],[3.480409,43.904835],[3.480994,43.903786],[3.481047,43.903316],[3.481699,43.902425],[3.48198,43.901867],[3.482458,43.901233],[3.482647,43.900626],[3.482602,43.900085],[3.48242,43.899801],[3.483084,43.898492],[3.483278,43.898294],[3.483283,43.89802],[3.483578,43.897889],[3.484066,43.897599],[3.484597,43.897409],[3.484769,43.897228],[3.485128,43.897034],[3.485348,43.896972],[3.485885,43.896752],[3.486426,43.896675],[3.48699,43.896582],[3.487896,43.896594],[3.488739,43.896849],[3.489039,43.896841],[3.489248,43.896644],[3.488996,43.896501],[3.488594,43.89601],[3.488197,43.89533],[3.48803,43.894796],[3.488116,43.894607],[3.488213,43.894379],[3.488604,43.894081],[3.489372,43.893818],[3.490031,43.893776],[3.490868,43.893884],[3.491732,43.893946],[3.492113,43.894038],[3.492478,43.894004],[3.492858,43.894058],[3.493089,43.894031],[3.493363,43.894031],[3.49362,43.893864],[3.493776,43.89369],[3.493786,43.893381],[3.493722,43.893273],[3.492606,43.893076],[3.492097,43.892917],[3.491646,43.892635],[3.491367,43.892171],[3.491233,43.891545],[3.491319,43.891278],[3.49156,43.890988],[3.491973,43.890841],[3.492563,43.890868],[3.493588,43.891104],[3.493894,43.891077],[3.494645,43.890648],[3.494881,43.89042],[3.495015,43.890022],[3.495305,43.889473],[3.495407,43.889229],[3.495734,43.889028],[3.49612,43.888935],[3.496619,43.888997],[3.496769,43.889102],[3.496984,43.889198],[3.497284,43.889515],[3.497472,43.890099],[3.497472,43.890981],[3.497606,43.891356],[3.497885,43.891638],[3.498373,43.891765],[3.498781,43.891777],[3.498909,43.891568],[3.499247,43.891572],[3.499859,43.891414],[3.500057,43.891328],[3.500556,43.89122],[3.501565,43.89088],[3.502058,43.890814],[3.502348,43.890675],[3.50275,43.890803],[3.503416,43.890888],[3.503523,43.891104],[3.503544,43.891375],[3.503845,43.891526],[3.504049,43.891788],[3.504177,43.892307],[3.50414,43.892624],[3.503796,43.89296],[3.503131,43.893327],[3.502922,43.893563],[3.502933,43.89393],[3.503147,43.894332],[3.503507,43.894757],[3.50385,43.89497],[3.504585,43.895194],[3.505433,43.895515],[3.505256,43.895527],[3.503695,43.895059],[3.50333,43.894862],[3.502783,43.894232],[3.502557,43.894004],[3.502434,43.89369],[3.502477,43.893478],[3.502058,43.893663],[3.502015,43.893965],[3.502563,43.894549],[3.502874,43.894815],[3.503062,43.894943],[3.503925,43.895739],[3.503995,43.895987],[3.503931,43.896284],[3.503684,43.896563],[3.503314,43.896706],[3.502933,43.896934],[3.50289,43.897034],[3.503416,43.897162],[3.504784,43.897177],[3.505352,43.897142],[3.505792,43.89688],[3.506425,43.8963],[3.50782,43.895252],[3.508276,43.895098],[3.508871,43.895105],[3.509322,43.895256],[3.510084,43.895221],[3.510432,43.895248],[3.510979,43.895043],[3.511332,43.894699],[3.511566,43.894552],[3.511677,43.894539],[3.511936,43.894401],[3.51188,43.893948],[3.512084,43.893877],[3.512108,43.893668],[3.512295,43.893325],[3.512108,43.892317],[3.512108,43.892124],[3.512433,43.892446],[3.512392,43.892095],[3.513205,43.892892],[3.513344,43.892751],[3.513498,43.892306],[3.513766,43.89196],[3.513823,43.891743],[3.514043,43.891655],[3.514116,43.891497],[3.514392,43.891403],[3.51471,43.891368],[3.514929,43.891228],[3.515181,43.891122],[3.515075,43.890917],[3.51484,43.890747],[3.514579,43.89053],[3.514458,43.890261],[3.514149,43.88978],[3.51414,43.889522],[3.514303,43.889382],[3.514563,43.889124],[3.514539,43.888954],[3.51475,43.888673],[3.514661,43.888386],[3.514766,43.888204],[3.515035,43.888163],[3.515173,43.887805],[3.515409,43.887723],[3.515693,43.887512],[3.516002,43.887425],[3.516132,43.887108],[3.516035,43.886956],[3.516401,43.886745],[3.516994,43.886757],[3.517303,43.886557],[3.517832,43.886493],[3.518027,43.886352],[3.518247,43.886282],[3.518702,43.886294],[3.518938,43.886223],[3.519198,43.886229],[3.519312,43.886042],[3.519312,43.885795],[3.519466,43.885579],[3.519401,43.885379],[3.519702,43.88494],[3.519791,43.884735],[3.519125,43.884512],[3.519035,43.884371],[3.518889,43.884248],[3.518864,43.884119],[3.519198,43.883838],[3.519377,43.883657],[3.51923,43.883387],[3.518718,43.883123],[3.518726,43.882912],[3.518515,43.882701],[3.51871,43.882531],[3.518726,43.882402],[3.518507,43.881969],[3.518677,43.881805],[3.518718,43.881605],[3.518954,43.881301],[3.519125,43.880914],[3.519482,43.880715],[3.519726,43.880504],[3.520751,43.880035],[3.520995,43.879988],[3.521133,43.879835],[3.521401,43.879906],[3.521483,43.879888],[3.520792,43.879402],[3.520702,43.87898],[3.520279,43.878341],[3.520694,43.878071],[3.520905,43.877972],[3.521068,43.877784],[3.521255,43.877667],[3.521304,43.877368],[3.521491,43.877081],[3.521735,43.876952],[3.521995,43.876952],[3.522092,43.876905],[3.522158,43.87677],[3.521548,43.87629],[3.521263,43.876161],[3.520995,43.875797],[3.520824,43.875457],[3.520979,43.875217],[3.520979,43.875141],[3.520572,43.874994],[3.52058,43.874854],[3.520946,43.874467],[3.521491,43.874068],[3.521483,43.873869],[3.521296,43.873611],[3.52097,43.873464],[3.520035,43.873382],[3.520049,43.873106],[3.519968,43.872953],[3.519618,43.872787],[3.518571,43.871967],[3.518364,43.871929],[3.5181,43.871826],[3.517927,43.871718],[3.51795,43.871589],[3.518174,43.871477],[3.518709,43.870926],[3.518882,43.870649],[3.51883,43.870537],[3.518525,43.870408],[3.518537,43.870296],[3.51887,43.870077],[3.519094,43.869919],[3.519698,43.869795],[3.520785,43.86933],[3.521296,43.869156],[3.521733,43.869098],[3.522101,43.868995],[3.522251,43.86875],[3.522188,43.868439],[3.522234,43.868244],[3.522188,43.868008],[3.522205,43.867606],[3.522009,43.867196],[3.521636,43.866649],[3.520727,43.866147],[3.520181,43.865936],[3.518899,43.865604],[3.518301,43.865322],[3.517824,43.86492],[3.517899,43.864717],[3.51795,43.864137],[3.518048,43.863677],[3.518295,43.863465],[3.518525,43.863175],[3.518554,43.862914],[3.518669,43.862856],[3.518962,43.862939],[3.519232,43.862939],[3.519813,43.862794],[3.520118,43.862827],[3.520928,43.863051],[3.52236,43.863619],[3.522774,43.863764],[3.523429,43.863805],[3.523924,43.863672],[3.524229,43.863221],[3.524292,43.86303],[3.524027,43.862789],[3.524332,43.862549],[3.52474,43.862474],[3.525091,43.86211],[3.526396,43.861189],[3.526661,43.860961],[3.526684,43.860497],[3.526563,43.860194],[3.525994,43.859929],[3.525718,43.859531],[3.525292,43.859224],[3.525787,43.859904],[3.526224,43.860219],[3.526281,43.860402],[3.525775,43.860103],[3.524993,43.859664],[3.52512,43.859962],[3.525419,43.860277],[3.525695,43.860435],[3.525718,43.860617],[3.525384,43.860907],[3.52543,43.860543],[3.524407,43.860004],[3.524844,43.860526],[3.524223,43.860145],[3.523717,43.859971],[3.522797,43.859655],[3.522567,43.85944],[3.522487,43.859],[3.52213,43.858503],[3.521981,43.858528],[3.522038,43.859059],[3.522326,43.859664],[3.522763,43.86002],[3.523533,43.860418],[3.523671,43.860659],[3.523314,43.860468],[3.522809,43.860369],[3.522142,43.860153],[3.521555,43.85983],[3.521107,43.859175],[3.52121,43.859846],[3.521337,43.860178],[3.521256,43.860286],[3.520658,43.860095],[3.520497,43.859954],[3.520302,43.859962],[3.520187,43.859763],[3.519796,43.859573],[3.519738,43.859067],[3.519474,43.858685],[3.51906,43.858387],[3.519209,43.858719],[3.518703,43.858404],[3.517944,43.858122],[3.518876,43.856994],[3.518945,43.856123],[3.519244,43.855709],[3.5196,43.855087],[3.520037,43.854606],[3.520072,43.854324],[3.520514,43.853591],[3.520674,43.851916],[3.520834,43.851108],[3.520934,43.850848],[3.520834,43.850415],[3.520434,43.849895],[3.520314,43.849563],[3.519593,43.848971],[3.519313,43.848899],[3.518832,43.848321],[3.518672,43.847917],[3.518252,43.8477],[3.518131,43.847339],[3.518232,43.846921],[3.518172,43.846834],[3.518252,43.846661],[3.519012,43.846401],[3.519455,43.846028],[3.519848,43.845631],[3.520184,43.84553],[3.521762,43.84425],[3.522351,43.844203],[3.522846,43.844277],[3.523378,43.84429],[3.523201,43.843852],[3.524079,43.843583],[3.524191,43.843293],[3.524181,43.843091],[3.524714,43.843192],[3.525115,43.842822],[3.525713,43.842714],[3.526087,43.842593],[3.526741,43.842532],[3.528029,43.842007],[3.528571,43.841919],[3.529122,43.84165],[3.529571,43.841656],[3.529739,43.841582],[3.529925,43.84107],[3.530112,43.840996],[3.530626,43.841178],[3.531196,43.84107],[3.531532,43.841313],[3.531476,43.841501],[3.531597,43.841724],[3.532167,43.84196],[3.532821,43.841892],[3.533101,43.842135],[3.533428,43.842269],[3.534007,43.842323],[3.534558,43.842067],[3.534894,43.84237],[3.535324,43.842344],[3.53538,43.842472],[3.535287,43.843051],[3.535548,43.843287],[3.535866,43.843354],[3.536174,43.843516],[3.536818,43.84359],[3.537136,43.843576],[3.538089,43.843421],[3.538528,43.843125],[3.538864,43.842115],[3.538901,43.841522],[3.539424,43.841481],[3.540695,43.842141],[3.54118,43.842054],[3.541395,43.841933],[3.541853,43.841939],[3.542796,43.841535],[3.542964,43.841367],[3.543263,43.84132],[3.543674,43.841367],[3.543935,43.841171],[3.544963,43.841043],[3.54514,43.841286],[3.545533,43.841528],[3.547083,43.841757],[3.547391,43.842067],[3.547671,43.842242],[3.547989,43.84268],[3.548559,43.843105],[3.548858,43.843233],[3.549147,43.843522],[3.549521,43.843556],[3.549969,43.843475],[3.550137,43.843738],[3.550679,43.844257],[3.551305,43.844439],[3.55179,43.844748],[3.552127,43.84487],[3.553042,43.845052],[3.553957,43.845274],[3.554574,43.845537],[3.554882,43.845739],[3.555171,43.845779],[3.555564,43.845745],[3.555993,43.845846],[3.556302,43.845833],[3.556965,43.845462],[3.557488,43.845099],[3.557757,43.845018],[3.558213,43.845066],[3.558609,43.845008],[3.559369,43.845023],[3.559996,43.844923],[3.56061,43.845027],[3.561377,43.845508],[3.561568,43.845566],[3.561806,43.845518],[3.562182,43.844875],[3.562407,43.84437],[3.562645,43.844237],[3.562968,43.844251],[3.563133,43.844284],[3.563325,43.844256],[3.564039,43.844524],[3.564369,43.844791],[3.56535,43.844849],[3.565691,43.844668],[3.566722,43.844618],[3.567483,43.844762],[3.568333,43.845065],[3.570075,43.844834],[3.570025,43.844979],[3.570546,43.844863],[3.570275,43.845166],[3.572097,43.844748],[3.572748,43.844683],[3.573277,43.844545],[3.573794,43.844381],[3.574041,43.844259],[3.574317,43.844187],[3.574671,43.844034],[3.57516,43.843952],[3.575641,43.843958],[3.576505,43.843917],[3.576986,43.843861],[3.577269,43.843758],[3.57763,43.843718],[3.578154,43.843544],[3.578267,43.843273],[3.578111,43.842875],[3.577927,43.8426],[3.577765,43.841972],[3.577474,43.841456],[3.577411,43.840961],[3.577283,43.840884],[3.57706,43.840541],[3.576876,43.840152],[3.576623,43.839704],[3.575807,43.83899],[3.575013,43.838426],[3.573818,43.837788],[3.573392,43.83724],[3.573162,43.837108],[3.572461,43.83651],[3.572185,43.836403],[3.571943,43.836212],[3.571391,43.835955],[3.571023,43.835739],[3.569482,43.835598],[3.568873,43.835482],[3.568413,43.83549],[3.567022,43.835017],[3.565918,43.834346],[3.56532,43.834155],[3.565009,43.833815],[3.564561,43.833558],[3.563975,43.833417],[3.563377,43.833043],[3.563285,43.832803],[3.563101,43.832512],[3.562365,43.831741],[3.562077,43.831492],[3.561997,43.831144],[3.561249,43.829393],[3.561284,43.828945],[3.561137,43.828618],[3.561569,43.828405],[3.562229,43.828191],[3.563223,43.827967],[3.563709,43.827852],[3.564649,43.828027],[3.565302,43.828027],[3.56584,43.827956],[3.566144,43.827978],[3.566758,43.827797],[3.56713,43.827803],[3.567813,43.8276],[3.568382,43.827639],[3.568913,43.827655],[3.569383,43.827447],[3.569641,43.827447],[3.570149,43.827261],[3.570734,43.827124],[3.571037,43.826998],[3.571454,43.826949],[3.572092,43.826615],[3.572281,43.826467],[3.572524,43.825997],[3.572691,43.825958],[3.573032,43.825603],[3.573252,43.825406],[3.57395,43.824404],[3.574345,43.823785],[3.574383,43.823238],[3.57395,43.822483],[3.573859,43.822176],[3.573085,43.822111],[3.572668,43.821996],[3.572638,43.821881],[3.572463,43.821831],[3.572433,43.821476],[3.572137,43.821114],[3.571963,43.820802],[3.571477,43.820512],[3.571249,43.820507],[3.570863,43.820353],[3.57084,43.820135],[3.571227,43.819784],[3.571409,43.819516],[3.571485,43.819193],[3.571272,43.818974],[3.571386,43.818766],[3.571416,43.818569],[3.571515,43.818432],[3.571553,43.818098],[3.571803,43.817814],[3.571978,43.816982],[3.571978,43.816576],[3.571644,43.815876],[3.571864,43.815712],[3.57178,43.815471],[3.571902,43.815279],[3.571864,43.814436],[3.57156,43.814157],[3.570711,43.813675],[3.570438,43.813243],[3.570028,43.812876],[3.569649,43.81269],[3.568974,43.812274],[3.568913,43.812066],[3.5687,43.811901],[3.568215,43.811223],[3.567911,43.811064],[3.567873,43.810856],[3.567729,43.81067],[3.567775,43.810478],[3.567547,43.810193],[3.566993,43.809931],[3.566796,43.809605],[3.566464,43.809288],[3.566174,43.809261],[3.565364,43.809334],[3.565047,43.809299],[3.564742,43.80921],[3.564554,43.809056],[3.563937,43.808908],[3.563604,43.808754],[3.563438,43.808734],[3.56324,43.808622],[3.562945,43.808343],[3.5628,43.807898],[3.562837,43.807809],[3.562564,43.80743],[3.562687,43.807159],[3.562698,43.807039],[3.5628,43.806911],[3.562886,43.806442],[3.562633,43.806079],[3.562295,43.805939],[3.562011,43.805943],[3.561931,43.806044],[3.561432,43.80621],[3.561507,43.806075],[3.561738,43.805908],[3.561657,43.805463],[3.561541,43.80533],[3.561159,43.804099],[3.56106,43.803782],[3.560783,43.803486],[3.560663,43.803337],[3.56067,43.803159],[3.560592,43.802965],[3.560366,43.802781],[3.560175,43.802484],[3.559899,43.802249],[3.559361,43.801943],[3.558901,43.801795],[3.55849,43.801544],[3.558264,43.801335],[3.558101,43.800875],[3.557867,43.800655],[3.55769,43.800671],[3.557336,43.800936],[3.55711,43.800987],[3.556919,43.800895],[3.556572,43.801064],[3.556381,43.801023],[3.556083,43.800727],[3.555786,43.800569],[3.55551,43.800359],[3.554703,43.799966],[3.554378,43.799879],[3.554038,43.799664],[3.553295,43.799327],[3.553125,43.799266],[3.553054,43.799199],[3.552799,43.799077],[3.552547,43.798733],[3.551906,43.798321],[3.551436,43.797924],[3.551306,43.797613],[3.551116,43.797433],[3.550315,43.797223],[3.550165,43.796941],[3.550075,43.796587],[3.550125,43.796233],[3.549947,43.795903],[3.549598,43.79587],[3.549127,43.795618],[3.54849,43.795399],[3.548065,43.794851],[3.547189,43.794463],[3.546835,43.793913],[3.546556,43.793604],[3.546256,43.793449],[3.545955,43.79324],[3.545301,43.793015],[3.544078,43.792403],[3.543413,43.791915],[3.543198,43.791392],[3.543171,43.791079],[3.543236,43.790781],[3.543177,43.790312],[3.543225,43.789243],[3.543123,43.788899],[3.542801,43.78831],[3.542882,43.787923],[3.542764,43.787566],[3.542828,43.787361],[3.54278,43.787179],[3.542619,43.78709],[3.54249,43.786982],[3.541471,43.786734],[3.541294,43.786436],[3.541095,43.786331],[3.54095,43.786153],[3.540977,43.785316],[3.540934,43.785037],[3.540773,43.784879],[3.540693,43.784646],[3.540044,43.784228],[3.539996,43.783988],[3.539695,43.783829],[3.539486,43.783663],[3.539218,43.783248],[3.538966,43.783089],[3.538445,43.782892],[3.538654,43.782834],[3.538579,43.782776],[3.53889,43.782687],[3.53859,43.782636],[3.538971,43.782524],[3.538783,43.782373],[3.538885,43.782334],[3.538842,43.781691],[3.538966,43.78125],[3.538751,43.780874],[3.538692,43.780564],[3.538724,43.780227],[3.538638,43.779995],[3.538649,43.779824],[3.538504,43.779639],[3.538365,43.779573],[3.538231,43.779437],[3.538113,43.779379],[3.537946,43.779081],[3.53808,43.778972],[3.538139,43.77879],[3.538413,43.778616],[3.53829,43.778523],[3.538134,43.778163],[3.537812,43.777841],[3.537823,43.777675],[3.537748,43.777539],[3.537791,43.77728],[3.537737,43.777063],[3.537749,43.776811],[3.537582,43.776744],[3.537311,43.776526],[3.536997,43.776184],[3.536615,43.775926],[3.536578,43.775734],[3.536282,43.775588],[3.536177,43.775427],[3.535919,43.775334],[3.53558,43.775054],[3.535555,43.77484],[3.535407,43.77436],[3.535401,43.773995],[3.535068,43.773701],[3.534791,43.773292],[3.533811,43.772722],[3.533129,43.772473],[3.532522,43.772533],[3.532204,43.772493],[3.531934,43.772682],[3.531896,43.773053],[3.531765,43.773349],[3.531728,43.773916],[3.531485,43.774536],[3.531018,43.774927],[3.53076,43.775449],[3.530444,43.775362],[3.530133,43.775188],[3.528702,43.774009],[3.528374,43.773988],[3.528224,43.773884],[3.528058,43.773498],[3.527609,43.772929],[3.527149,43.772651],[3.526839,43.772435],[3.526373,43.772356],[3.525689,43.772398],[3.525499,43.772381],[3.525384,43.772232],[3.525287,43.772111],[3.525016,43.77197],[3.524769,43.77197],[3.524436,43.771866],[3.523993,43.771094],[3.523573,43.770687],[3.52328,43.770496],[3.522584,43.770413],[3.522124,43.770467],[3.521969,43.770368],[3.521762,43.769936],[3.521532,43.769533],[3.52125,43.769301],[3.52075,43.769039],[3.520509,43.768998],[3.520308,43.768902],[3.52025,43.768541],[3.520158,43.768313],[3.51994,43.768009],[3.519773,43.767636],[3.519416,43.767258],[3.519163,43.766893],[3.519066,43.766643],[3.518514,43.766178],[3.518105,43.765871],[3.517634,43.765796],[3.517168,43.76536],[3.516921,43.765244],[3.516386,43.764812],[3.516024,43.764704],[3.515507,43.764663],[3.515122,43.764792],[3.51492,43.764775],[3.51465,43.764522],[3.514414,43.764418],[3.51373,43.764293],[3.512931,43.764057],[3.512362,43.763783],[3.512051,43.763438],[3.511925,43.762778],[3.511718,43.762367],[3.511396,43.76223],[3.510827,43.762271],[3.510355,43.762255],[3.509832,43.762151],[3.509205,43.762076],[3.508878,43.761881],[3.50817,43.761839],[3.507486,43.761694],[3.506894,43.761457],[3.506446,43.761163],[3.506193,43.760826],[3.505741,43.760456],[3.505221,43.760221],[3.504326,43.759998],[3.503733,43.759393],[3.503253,43.759299],[3.502765,43.759052],[3.502611,43.758864],[3.502635,43.758712],[3.502481,43.758418],[3.502302,43.758342],[3.50231,43.75813],[3.502204,43.758007],[3.502229,43.757796],[3.501985,43.757708],[3.501822,43.757308],[3.501863,43.756991],[3.501855,43.756697],[3.501928,43.756439],[3.501846,43.756392],[3.501643,43.75641],[3.501359,43.756386],[3.501163,43.756404],[3.500863,43.756504],[3.500741,43.756504],[3.50083,43.755652],[3.500196,43.754947],[3.499879,43.754513],[3.499928,43.754231],[3.499814,43.75389],[3.499659,43.753808],[3.499488,43.75335],[3.499651,43.753226],[3.499789,43.752945],[3.499773,43.75278],[3.49983,43.752621],[3.500017,43.752563],[3.500106,43.752469],[3.499773,43.75187],[3.499578,43.751641],[3.499537,43.751376],[3.49935,43.751194],[3.499505,43.751006],[3.499448,43.750883],[3.499448,43.750748],[3.499732,43.750548],[3.499749,43.750331],[3.499643,43.750037],[3.499131,43.749691],[3.498968,43.749503],[3.498309,43.749092],[3.498017,43.748986],[3.497862,43.748851],[3.497618,43.748774],[3.497074,43.748534],[3.496789,43.74841],[3.496472,43.748105],[3.495512,43.747917],[3.495065,43.74804],[3.494838,43.748028],[3.494569,43.747846],[3.494244,43.747676],[3.49409,43.747506],[3.493813,43.747447],[3.493626,43.747247],[3.493358,43.747077],[3.49278,43.747065],[3.492504,43.746965],[3.492179,43.746554],[3.491707,43.746096],[3.491496,43.745967],[3.49152,43.745591],[3.491203,43.744827],[3.490422,43.744557],[3.490008,43.744375],[3.48978,43.744158],[3.489309,43.743952],[3.489024,43.743746],[3.48856,43.743558],[3.488333,43.743676],[3.488268,43.743823],[3.488056,43.744205],[3.487845,43.744381],[3.487747,43.744986],[3.487219,43.745174],[3.486877,43.745133],[3.486528,43.744927],[3.486333,43.744528],[3.485877,43.744492],[3.485731,43.744422],[3.485365,43.74461],[3.485267,43.744833],[3.485398,43.745127],[3.485576,43.745326],[3.485666,43.745608],[3.485308,43.745415],[3.485219,43.745765],[3.485428,43.746155],[3.485498,43.746608],[3.485114,43.746382],[3.485027,43.746709],[3.484661,43.746545],[3.484748,43.747263],[3.484312,43.746974],[3.484086,43.747578],[3.484121,43.747893],[3.483894,43.748333],[3.483563,43.74861],[3.483336,43.748887],[3.482796,43.749353],[3.482012,43.749932],[3.481646,43.750411],[3.480304,43.75133],[3.480321,43.751733],[3.479868,43.752249],[3.479833,43.752677],[3.479397,43.753206],[3.478909,43.752929],[3.478421,43.753004],[3.477672,43.752853],[3.476992,43.75279],[3.476539,43.752715],[3.475354,43.752702],[3.473838,43.752589],[3.473106,43.752639],[3.472583,43.752614],[3.471485,43.752664],[3.470055,43.752954],[3.469655,43.752992],[3.468853,43.75347],[3.468365,43.753646],[3.467912,43.7541],[3.467284,43.754251],[3.467075,43.754603],[3.466831,43.754502],[3.466535,43.75454],[3.466169,43.754742],[3.465977,43.754993],[3.465698,43.755144],[3.465646,43.755925],[3.465785,43.756391],[3.466064,43.756794],[3.466064,43.757196],[3.465071,43.75765],[3.464984,43.757914],[3.464722,43.758052],[3.464583,43.758279],[3.464234,43.75838],[3.463851,43.758631],[3.463415,43.758984],[3.463066,43.758795],[3.462979,43.758631],[3.462578,43.758405],[3.462456,43.758191],[3.461724,43.757876],[3.461149,43.75804],[3.460504,43.758506],[3.460243,43.758795],[3.459703,43.759223],[3.459615,43.759462],[3.459145,43.759525],[3.458971,43.759148],[3.458692,43.75916],[3.458413,43.75945],[3.457751,43.759475],[3.457454,43.759626],[3.457019,43.759739],[3.456443,43.760104],[3.455746,43.760923],[3.455694,43.761212],[3.455398,43.76169],[3.45545,43.762395],[3.455415,43.762647],[3.455589,43.76305],[3.455833,43.763302],[3.455886,43.764006],[3.456008,43.76422],[3.45599,43.764384],[3.45606,43.764711],[3.456042,43.765102],[3.456234,43.765454],[3.456199,43.766046],[3.455938,43.766348],[3.456008,43.766599],[3.456008,43.766826],[3.456286,43.767443],[3.456269,43.768097],[3.455973,43.768424],[3.455903,43.768689],[3.456147,43.769041],[3.456461,43.769192],[3.456408,43.769456],[3.456705,43.769985],[3.456618,43.770174],[3.4566,43.770388],[3.456286,43.770614],[3.456042,43.770652],[3.45592,43.770841],[3.455903,43.771332],[3.455781,43.771722],[3.455171,43.772125],[3.454857,43.772615],[3.454578,43.772754],[3.454526,43.77293],[3.454108,43.773308],[3.453602,43.773496],[3.453236,43.773736],[3.452958,43.773736],[3.452714,43.773912],[3.451894,43.773887],[3.450953,43.774151],[3.450517,43.774377],[3.449088,43.774679],[3.44806,43.774554],[3.447154,43.774843],[3.446195,43.775082],[3.445602,43.775095],[3.445184,43.775208],[3.444609,43.775195],[3.443441,43.775535],[3.442535,43.775598],[3.442012,43.775711],[3.441141,43.776781],[3.440879,43.777373],[3.440949,43.777964],[3.441193,43.778455],[3.441054,43.778757],[3.440949,43.779159],[3.440688,43.779399],[3.440653,43.779738],[3.440496,43.779789],[3.440165,43.779424],[3.440008,43.779411],[3.439764,43.780015],[3.439799,43.780267],[3.439711,43.780581],[3.439746,43.780846],[3.439572,43.781185],[3.439729,43.781462],[3.439677,43.781714],[3.438997,43.782066],[3.438735,43.782872],[3.437864,43.783866],[3.437481,43.784759],[3.437359,43.785313],[3.437167,43.785766],[3.436749,43.786055],[3.435825,43.786433],[3.435284,43.786835],[3.43389,43.787678],[3.433315,43.787905],[3.432461,43.788383],[3.431433,43.788899],[3.431189,43.789075],[3.430492,43.789238],[3.429934,43.789616],[3.429481,43.790107],[3.42901,43.791038],[3.427285,43.792799],[3.426814,43.79261],[3.426239,43.792661],[3.425437,43.792497],[3.425315,43.7929],[3.424095,43.792598],[3.423276,43.792635],[3.422892,43.792447],[3.421141,43.792159],[3.420277,43.791837],[3.419683,43.791709],[3.418494,43.791254],[3.417871,43.791173],[3.417035,43.791147],[3.41666,43.791014],[3.415818,43.790871],[3.413914,43.790406],[3.413213,43.790381],[3.412555,43.790243],[3.4115,43.789962],[3.410998,43.789711],[3.410764,43.78964],[3.410021,43.789609],[3.408449,43.789461],[3.407381,43.789415],[3.40702,43.789451],[3.40646,43.789369],[3.405908,43.789175],[3.405222,43.788613],[3.404924,43.788393],[3.404599,43.78804],[3.404374,43.787931],[3.403533,43.787844],[3.402882,43.787692],[3.402131,43.787714],[3.40117,43.787844],[3.400109,43.787786],[3.397807,43.787519],[3.397477,43.78754],[3.397136,43.787446],[3.396806,43.787439],[3.396546,43.78736],[3.395935,43.78736],[3.395495,43.787511],[3.394964,43.787577],[3.394784,43.787829],[3.394163,43.787815],[3.394123,43.787692],[3.394253,43.787461],[3.394413,43.786464],[3.395455,43.785748],[3.395845,43.785257],[3.396135,43.784671],[3.396586,43.784455],[3.396916,43.784129],[3.397126,43.783631],[3.397236,43.783421],[3.397126,43.783226],[3.397407,43.782684],[3.397517,43.781759],[3.397256,43.78152],[3.397106,43.781188],[3.396916,43.781051],[3.396596,43.781014],[3.396275,43.780848],[3.395905,43.780805],[3.395204,43.780913],[3.394494,43.781145],[3.39437,43.78129],[3.394816,43.781601],[3.395199,43.781903],[3.395545,43.782414],[3.395899,43.782935],[3.39619,43.783237],[3.396289,43.783482],[3.396402,43.783615],[3.396374,43.783784],[3.396076,43.784024],[3.395616,43.784274],[3.395213,43.784555],[3.395078,43.784857],[3.394901,43.785143],[3.394661,43.785291],[3.394505,43.78548],[3.394101,43.785628],[3.39396,43.785725],[3.393564,43.785695],[3.393068,43.785797],[3.392693,43.785664],[3.392417,43.785623],[3.391928,43.785777],[3.391652,43.785777],[3.391362,43.785991],[3.390952,43.786139],[3.390789,43.786288],[3.390258,43.786323],[3.389989,43.786257],[3.389805,43.786282],[3.389642,43.78641],[3.389437,43.786456],[3.389055,43.786937],[3.388729,43.786829],[3.388368,43.786768],[3.388064,43.786901],[3.387575,43.786901],[3.387377,43.786701],[3.387044,43.786507],[3.386414,43.785633],[3.386329,43.785255],[3.386365,43.784734],[3.385558,43.784545],[3.385034,43.785286],[3.3849,43.785587],[3.384418,43.786068],[3.384121,43.786523],[3.384121,43.787039],[3.383753,43.787233],[3.383498,43.787448],[3.382351,43.786962],[3.381743,43.786584],[3.381573,43.786201],[3.381397,43.786044],[3.380957,43.786687],[3.380742,43.787454],[3.380463,43.787958],[3.380227,43.788012],[3.37954,43.787787],[3.379272,43.787779],[3.378886,43.78795],[3.378296,43.787764],[3.37777,43.787857],[3.377277,43.787717],[3.377126,43.787563],[3.376912,43.787493],[3.376848,43.787377],[3.376676,43.787276],[3.376569,43.786703],[3.376611,43.78623],[3.376472,43.786106],[3.375893,43.78599],[3.375227,43.785688],[3.374895,43.78575],[3.374798,43.785859],[3.37453,43.785851],[3.374219,43.785688],[3.374262,43.785247],[3.373961,43.784642],[3.373436,43.784201],[3.372535,43.784193],[3.372159,43.783705],[3.372041,43.783395],[3.371558,43.782559],[3.370335,43.780529],[3.36982,43.779917],[3.36967,43.779515],[3.369466,43.779143],[3.369316,43.778678],[3.369037,43.778314],[3.369112,43.77802],[3.368758,43.777234],[3.368574,43.776886],[3.368294,43.776113],[3.368088,43.775213],[3.368003,43.774451],[3.367763,43.773956],[3.367685,43.773516],[3.367529,43.773061],[3.367338,43.772893],[3.367083,43.772422],[3.366516,43.771969],[3.36628,43.771861],[3.366269,43.771698],[3.366086,43.771535],[3.3657,43.771357],[3.36496,43.771187],[3.364745,43.771078],[3.364692,43.770854],[3.364263,43.770459],[3.363951,43.770063],[3.363426,43.76963],[3.363286,43.769428],[3.363072,43.769351],[3.362535,43.769428],[3.362288,43.769513],[3.361505,43.76956],[3.360754,43.769723],[3.359982,43.769676],[3.359789,43.76973],[3.359306,43.769684],[3.358673,43.769552],[3.358724,43.769228],[3.358412,43.769299],[3.357775,43.769151],[3.357634,43.769161],[3.357358,43.76931],[3.357166,43.769325],[3.35682,43.769248],[3.356402,43.769028],[3.355899,43.768982],[3.35539,43.76888],[3.355008,43.768839],[3.354427,43.768686],[3.354179,43.768665],[3.353889,43.768773],[3.353656,43.768936],[3.352709,43.768694],[3.35227,43.768794],[3.35179,43.768847],[3.35144,43.768794],[3.351066,43.768694],[3.350936,43.768553],[3.350944,43.768272],[3.350765,43.768043],[3.349879,43.767591],[3.349091,43.767444],[3.348489,43.767373],[3.348879,43.767667],[3.34892,43.767849],[3.349131,43.768107],[3.349196,43.768624],[3.349082,43.76907],[3.34905,43.76934],[3.349196,43.769581],[3.348814,43.769757],[3.348611,43.769927],[3.34857,43.770145],[3.348464,43.770297],[3.348586,43.770468],[3.348635,43.770708],[3.348342,43.77102],[3.348286,43.771249],[3.348118,43.771455],[3.348468,43.771929],[3.348572,43.772219],[3.348658,43.772394],[3.348497,43.772361],[3.347709,43.771954],[3.347252,43.771891],[3.347397,43.772045],[3.347321,43.772176],[3.347321,43.772428],[3.347184,43.772762],[3.346427,43.772726],[3.346071,43.772958],[3.345887,43.773382],[3.345691,43.773606],[3.34507,43.774071],[3.344564,43.774312],[3.344357,43.774312],[3.344208,43.774544],[3.343483,43.774744],[3.343242,43.775358],[3.343322,43.776014],[3.343184,43.776379],[3.343207,43.776711],[3.343702,43.777251],[3.343863,43.777733],[3.343667,43.778388],[3.343276,43.778986],[3.342598,43.779542],[3.342768,43.779516],[3.342041,43.779979],[3.341626,43.780642],[3.34161,43.780853],[3.341765,43.781147],[3.342285,43.781611],[3.342635,43.782063],[3.343683,43.783976],[3.343789,43.784006],[3.343649,43.784353],[3.34352,43.784298],[3.34352,43.784408],[3.342306,43.783707],[3.341736,43.783594],[3.342196,43.784017],[3.342449,43.784598],[3.342472,43.784972],[3.34261,43.785412],[3.342506,43.785769],[3.342621,43.786192],[3.342552,43.787014],[3.342656,43.787346],[3.342564,43.787985],[3.34223,43.788658],[3.342092,43.789106],[3.341839,43.789496],[3.341759,43.789836],[3.341943,43.790318],[3.341897,43.790783],[3.34169,43.791081],[3.341644,43.791513],[3.341529,43.791928],[3.342196,43.792127],[3.342449,43.792327],[3.342679,43.793157],[3.34307,43.793804],[3.343345,43.79392],[3.343713,43.794236],[3.344932,43.794667],[3.345412,43.794719],[3.345423,43.795059],[3.345262,43.795176],[3.345444,43.795547],[3.345691,43.795725],[3.345584,43.795842],[3.345541,43.796283],[3.345745,43.796523],[3.346131,43.796693],[3.346174,43.797019],[3.346421,43.797421],[3.346882,43.7977],[3.347483,43.797886],[3.347665,43.798095],[3.347729,43.798451],[3.348094,43.798715],[3.348234,43.799249],[3.348309,43.799357],[3.348126,43.799621],[3.348287,43.799915],[3.347976,43.800047],[3.348137,43.800372],[3.348116,43.800558],[3.347976,43.800813],[3.348041,43.801495],[3.348159,43.80175],[3.348041,43.801967],[3.348083,43.802509],[3.347783,43.802718],[3.347762,43.803005],[3.347644,43.803376],[3.347375,43.803492],[3.347343,43.803655],[3.347526,43.803864],[3.347847,43.804034],[3.34788,43.804259],[3.348008,43.804453],[3.347987,43.804987],[3.347955,43.805343],[3.348041,43.805506],[3.347976,43.805668],[3.348159,43.806133],[3.34788,43.806342],[3.347858,43.806528],[3.347762,43.806566],[3.347708,43.806698],[3.347805,43.806868],[3.347933,43.806892],[3.347944,43.807178],[3.34803,43.807348],[3.347772,43.807434],[3.346796,43.808146],[3.346506,43.808456],[3.34626,43.808626],[3.345637,43.809299],[3.345433,43.809385],[3.344999,43.810024],[3.345239,43.81029],[3.345303,43.810821],[3.344779,43.811409],[3.344135,43.812507],[3.343675,43.812936],[3.343513,43.813194],[3.343513,43.813411],[3.343041,43.813705],[3.342011,43.814773],[3.341002,43.815733],[3.339994,43.81595],[3.339801,43.816151],[3.340166,43.816631],[3.340981,43.81708],[3.340895,43.818025],[3.340573,43.818597],[3.340724,43.819108],[3.340745,43.819573],[3.340831,43.820006],[3.341088,43.820657],[3.341002,43.820966],[3.341646,43.821307],[3.341968,43.821307],[3.342762,43.821709],[3.342741,43.822065],[3.343127,43.822468],[3.34332,43.823149],[3.343685,43.823505],[3.344221,43.824326],[3.344843,43.824542],[3.345852,43.825115],[3.346088,43.825487],[3.346109,43.825967],[3.346238,43.826865],[3.346453,43.827282],[3.345938,43.828242],[3.3448,43.828753],[3.343599,43.829434],[3.342741,43.829682],[3.341367,43.830425],[3.341286,43.830617],[3.341041,43.830798],[3.340724,43.831151],[3.340183,43.831594],[3.339932,43.831875],[3.33943,43.832165],[3.33908,43.832637],[3.338439,43.833099],[3.337667,43.833981],[3.337046,43.834495],[3.336808,43.834752],[3.33622,43.835262],[3.335382,43.835455],[3.334722,43.835484],[3.334021,43.83534],[3.333761,43.835383],[3.33346,43.835744],[3.332786,43.836039],[3.332396,43.836367],[3.332319,43.836553],[3.33336,43.837318],[3.33326,43.838589],[3.33328,43.839166],[3.334521,43.839629],[3.334782,43.839932],[3.334882,43.840639],[3.336063,43.841751],[3.336443,43.842055],[3.337905,43.842661],[3.338686,43.843585],[3.338706,43.844394],[3.337965,43.846271],[3.337465,43.847036],[3.336143,43.848552],[3.335843,43.84926],[3.334842,43.850169],[3.334421,43.850458],[3.33328,43.850631],[3.33334,43.850877],[3.333881,43.851007],[3.333801,43.851339],[3.3331,43.852104],[3.331288,43.85333],[3.327168,43.857107],[3.3268,43.857975],[3.328305,43.857554],[3.328445,43.857662],[3.327424,43.858961],[3.327514,43.859243],[3.327454,43.859856],[3.327624,43.860506],[3.327744,43.860621],[3.327795,43.860816],[3.327978,43.861034],[3.327872,43.861272],[3.327641,43.861439],[3.327152,43.861463],[3.325871,43.861915],[3.325561,43.862106],[3.325178,43.862196],[3.324894,43.862139],[3.324623,43.862134],[3.324128,43.862349],[3.32385,43.862596],[3.323712,43.862949],[3.32356,43.86292],[3.32315,43.862991],[3.323071,43.863058],[3.32282,43.863158],[3.322001,43.863353],[3.321677,43.863444],[3.321255,43.863458],[3.321023,43.863517],[3.320648,43.863376],[3.320421,43.863435],[3.319738,43.863447],[3.319478,43.863658],[3.318697,43.864056],[3.318258,43.864173],[3.317624,43.864654],[3.317071,43.86483],[3.316534,43.86524],[3.316274,43.865217],[3.315185,43.868488],[3.31477,43.86913],[3.315661,43.869173],[3.315908,43.869138],[3.316278,43.869196],[3.316621,43.869231],[3.316959,43.869354],[3.317152,43.869594],[3.317807,43.869749],[3.31786,43.8699],[3.317804,43.870134],[3.317244,43.871014],[3.316703,43.872313],[3.316443,43.87328],[3.316343,43.874391],[3.316443,43.874507],[3.316423,43.874925],[3.316283,43.875286],[3.316323,43.875748],[3.316803,43.876051],[3.317083,43.876498],[3.317184,43.877061],[3.317444,43.87774],[3.317324,43.878043],[3.317264,43.878475],[3.317564,43.879125],[3.317484,43.879428],[3.317664,43.880265],[3.317764,43.881116],[3.317964,43.881535],[3.318024,43.881997],[3.317684,43.882877],[3.317184,43.883642],[3.317063,43.884147],[3.317103,43.884955],[3.316983,43.885792],[3.316663,43.887119],[3.316523,43.888129],[3.316303,43.88898],[3.316283,43.889601],[3.316082,43.890712],[3.316263,43.890899],[3.316142,43.891058],[3.316102,43.89126],[3.315982,43.891462],[3.316303,43.891679],[3.316203,43.892198],[3.316022,43.8924],[3.315882,43.893395],[3.315742,43.893597],[3.315642,43.894131],[3.315522,43.894348],[3.315462,43.894737],[3.315582,43.895213],[3.316002,43.895963],[3.315982,43.896728],[3.315902,43.896858],[3.315922,43.897233],[3.316303,43.898257],[3.316603,43.898373],[3.317083,43.898719],[3.317664,43.899253],[3.317644,43.899729],[3.317364,43.900205],[3.317324,43.900782],[3.317524,43.901013],[3.317524,43.901272],[3.317804,43.90195],[3.318104,43.902542],[3.318125,43.903306],[3.317984,43.904331],[3.318185,43.904951],[3.318225,43.906321],[3.317884,43.906624],[3.317884,43.907172],[3.317324,43.907533],[3.316763,43.908124],[3.316243,43.908441],[3.315942,43.909264],[3.316183,43.909754],[3.316763,43.910187],[3.316723,43.910547],[3.316903,43.910562],[3.317264,43.911196],[3.316983,43.911369],[3.317023,43.911687],[3.319266,43.910677],[3.319877,43.910308],[3.319764,43.909818],[3.319376,43.90917],[3.320177,43.908615],[3.322379,43.907511],[3.32328,43.907187],[3.32374,43.907114],[3.324021,43.907194],[3.324301,43.907158],[3.324802,43.906767],[3.325167,43.906643],[3.325381,43.906473],[3.325338,43.906179],[3.325124,43.906009],[3.324974,43.905824],[3.324995,43.905515],[3.325317,43.905205],[3.325295,43.904711],[3.325617,43.90417],[3.326025,43.903768],[3.326132,43.903319],[3.326025,43.902732],[3.325982,43.901866],[3.326325,43.901278],[3.326433,43.900258],[3.326304,43.89981],[3.326647,43.899253],[3.327312,43.898619],[3.327699,43.89848],[3.327913,43.898186],[3.328471,43.897645],[3.328943,43.89749],[3.329608,43.897104],[3.329995,43.896655],[3.330402,43.896346],[3.330703,43.896346],[3.332033,43.895774],[3.33287,43.895527],[3.333278,43.895496],[3.333342,43.895279],[3.334115,43.894645],[3.334436,43.89429],[3.334866,43.893965],[3.335252,43.893857],[3.335681,43.893346],[3.335681,43.893114],[3.336003,43.892666],[3.336711,43.892156],[3.337247,43.891831],[3.337955,43.891475],[3.338921,43.890841],[3.3395,43.890625],[3.340037,43.890145],[3.340552,43.889914],[3.341238,43.889465],[3.341904,43.889187],[3.342676,43.889279],[3.343127,43.888846],[3.343577,43.888182],[3.34435,43.887532],[3.345637,43.886728],[3.346066,43.886295],[3.346345,43.885784],[3.346882,43.885553],[3.347096,43.88529],[3.347182,43.884965],[3.347547,43.884547],[3.348191,43.883387],[3.349264,43.882367],[3.349435,43.88181],[3.3495,43.88099],[3.349822,43.880727],[3.350251,43.879799],[3.350701,43.879552],[3.352118,43.877819],[3.35304,43.877278],[3.354607,43.876721],[3.356194,43.876103],[3.356967,43.875685],[3.357718,43.874958],[3.358598,43.874262],[3.359563,43.873922],[3.360314,43.873102],[3.362825,43.871926],[3.363876,43.870704],[3.364992,43.870163],[3.365035,43.869761],[3.365185,43.869389],[3.365078,43.869235],[3.364713,43.869219],[3.364584,43.868972],[3.364327,43.868879],[3.364456,43.86792],[3.364885,43.867487],[3.366001,43.866945],[3.367352,43.866094],[3.367739,43.865584],[3.368254,43.865429],[3.368726,43.86546],[3.369627,43.865367],[3.370099,43.865104],[3.372309,43.86464],[3.373296,43.864563],[3.373811,43.864114],[3.374455,43.863867],[3.375056,43.863959],[3.375678,43.863897],[3.376687,43.863634],[3.377953,43.863155],[3.378232,43.862691],[3.378575,43.862366],[3.378811,43.861747],[3.379219,43.861298],[3.379776,43.860896],[3.380055,43.860447],[3.380764,43.860153],[3.381193,43.860293],[3.381321,43.859999],[3.381021,43.859457],[3.380957,43.858978],[3.380656,43.858776],[3.380034,43.858776],[3.379088,43.85825],[3.378748,43.858266],[3.378487,43.858158],[3.378451,43.858041],[3.378586,43.857929],[3.379152,43.857811],[3.379534,43.857883],[3.38049,43.857827],[3.380766,43.857577],[3.380957,43.857214],[3.381472,43.856688]]],"type":"MultiLineString"},"properties":{"geo_point":{"lon":3.4410137530524674,"lat":43.83698848787425},"name":"Tour du Larzac Méridional (Hérault-Gard) (2019)","code_gr":null}}]}