{"type":"FeatureCollection","features":[{"type":"Feature","geometry":{"coordinates":[[[0.197562,48.929261],[0.20106,48.931573],[0.200459,48.932771],[0.200266,48.934308],[0.199215,48.935999],[0.202262,48.935788],[0.202305,48.935957],[0.201511,48.936366],[0.201124,48.937226],[0.201575,48.938311],[0.201575,48.939058],[0.202026,48.939297],[0.203099,48.939396],[0.203807,48.939664],[0.204236,48.940411],[0.204772,48.940834],[0.205373,48.941045],[0.206424,48.941694],[0.20709,48.941834],[0.207905,48.941736],[0.209257,48.941341],[0.210544,48.939819],[0.211231,48.939988],[0.212111,48.940044],[0.212948,48.940228],[0.214428,48.940355],[0.22181,48.93862],[0.225178,48.938112],[0.225865,48.93776],[0.227064,48.938217],[0.229339,48.938823],[0.230025,48.939289],[0.230133,48.939514],[0.230605,48.939965],[0.230347,48.94129],[0.230454,48.94222],[0.231077,48.942671],[0.23142,48.943446],[0.234038,48.94618],[0.237063,48.949224],[0.237879,48.949957],[0.238351,48.950732],[0.238544,48.951493],[0.239252,48.952],[0.239917,48.951084],[0.242192,48.951239],[0.242857,48.951014],[0.243951,48.950972],[0.246312,48.950366],[0.248286,48.949985],[0.248608,48.949746],[0.24938,48.949732],[0.249938,48.949563],[0.250732,48.950112],[0.251011,48.949858],[0.251998,48.949619],[0.25277,48.949591],[0.253264,48.949746],[0.254272,48.949408],[0.256804,48.949157],[0.258199,48.948932],[0.259744,48.948875],[0.260602,48.948706],[0.261697,48.948678],[0.262598,48.94865],[0.263199,48.948185],[0.26395,48.948002],[0.264293,48.947663],[0.265688,48.947367],[0.265495,48.946959],[0.265967,48.946846],[0.269314,48.946733],[0.270323,48.947621],[0.272983,48.947861],[0.273456,48.946099],[0.273885,48.944831],[0.274056,48.943492],[0.274975,48.942055],[0.275661,48.941279],[0.276134,48.940448],[0.276048,48.939532],[0.273065,48.930087],[0.272443,48.929848],[0.270705,48.92958],[0.270962,48.929273],[0.27328,48.929188],[0.274009,48.929273],[0.274524,48.929132],[0.276863,48.927722],[0.27667,48.927454],[0.277035,48.927257],[0.27785,48.926975],[0.278623,48.926185],[0.279395,48.924268],[0.27991,48.923591],[0.281369,48.922844],[0.282142,48.921688],[0.283021,48.921462],[0.284609,48.919967],[0.285811,48.919418],[0.286819,48.919305],[0.287506,48.91915],[0.288064,48.919178],[0.289158,48.918557],[0.289716,48.919009],[0.290532,48.919234],[0.291454,48.919234],[0.292012,48.920447],[0.292892,48.921166],[0.295982,48.922181],[0.29699,48.92173],[0.298578,48.921321],[0.300445,48.920278],[0.301754,48.919897],[0.302784,48.919728],[0.304758,48.919685],[0.307569,48.918304],[0.30894,48.917839],[0.311772,48.917698],[0.315227,48.917726],[0.316192,48.917472],[0.320141,48.917613],[0.320591,48.916767],[0.321857,48.916091],[0.322158,48.916401],[0.324218,48.915766],[0.326342,48.913609],[0.327737,48.910393],[0.328166,48.908927],[0.329217,48.906868],[0.329496,48.905965],[0.330505,48.905175],[0.33205,48.903384],[0.335612,48.900252],[0.336298,48.899857],[0.336277,48.898785],[0.33677,48.898292],[0.336942,48.897713],[0.337436,48.897121],[0.337478,48.8965],[0.3378,48.896274],[0.337693,48.894582],[0.338225,48.894358],[0.337796,48.893822],[0.33711,48.892383],[0.336444,48.891791],[0.335994,48.890549],[0.3349,48.889209],[0.333655,48.888899],[0.333762,48.888151],[0.333591,48.887685],[0.332625,48.886415],[0.331895,48.884863],[0.331445,48.882366],[0.330887,48.881406],[0.327625,48.877794],[0.32696,48.876524],[0.326638,48.875239],[0.326746,48.874534],[0.326617,48.873701],[0.326885,48.872579],[0.326724,48.871457],[0.32593,48.870991],[0.32475,48.871302],[0.323784,48.871005],[0.322948,48.870427],[0.322261,48.870201],[0.322003,48.869608],[0.319364,48.869721],[0.318999,48.869156],[0.312734,48.867731],[0.314279,48.866672],[0.315394,48.865614],[0.316059,48.86464],[0.316939,48.864033],[0.318291,48.863496],[0.319793,48.862536],[0.318849,48.861421],[0.319364,48.860278],[0.318828,48.859346],[0.319364,48.858979],[0.320716,48.858287],[0.320716,48.857214],[0.320887,48.856861],[0.32136,48.856551],[0.320458,48.856184],[0.319364,48.856141],[0.31636,48.855227],[0.316188,48.854931],[0.312605,48.853293],[0.310759,48.852771],[0.309665,48.852248],[0.302734,48.850215],[0.303807,48.848563],[0.303314,48.848154],[0.302155,48.846191],[0.301125,48.845047],[0.299752,48.84403],[0.299752,48.843395],[0.299816,48.841333],[0.298529,48.840302],[0.299323,48.839596],[0.299537,48.83889],[0.299172,48.837647],[0.299086,48.836178],[0.298486,48.835415],[0.299365,48.835034],[0.295825,48.831616],[0.294881,48.831305],[0.293593,48.830345],[0.292563,48.830189],[0.291791,48.830302],[0.28368,48.829921],[0.282972,48.830189],[0.282199,48.830006],[0.280504,48.828565],[0.281899,48.827957],[0.282028,48.827435],[0.285203,48.826389],[0.285525,48.826107],[0.285504,48.825768],[0.286148,48.824821],[0.288594,48.82485],[0.289988,48.824129],[0.290847,48.823465],[0.291405,48.822745],[0.291061,48.820258],[0.291791,48.820103],[0.292005,48.818775],[0.292413,48.817814],[0.292928,48.8178],[0.294773,48.818224],[0.295932,48.818308],[0.29649,48.818238],[0.298571,48.81917],[0.299988,48.819594],[0.300567,48.81982],[0.302648,48.820089],[0.304665,48.820202],[0.305889,48.820442],[0.307069,48.820823],[0.30724,48.819933],[0.308292,48.819905],[0.309558,48.820032],[0.310309,48.819863],[0.310974,48.819622],[0.31224,48.819566],[0.313935,48.819241],[0.3146,48.818648],[0.315781,48.817983],[0.316489,48.817192],[0.317154,48.816811],[0.317347,48.816076],[0.318119,48.81626],[0.31975,48.81568],[0.320201,48.815878],[0.32078,48.815878],[0.321875,48.81609],[0.32254,48.815977],[0.323462,48.815214],[0.324192,48.814917],[0.325887,48.815228],[0.326766,48.813936],[0.327367,48.813441],[0.327796,48.812254],[0.328246,48.811675],[0.328912,48.81111],[0.329598,48.809909],[0.33095,48.81005],[0.330607,48.809004],[0.329083,48.807789],[0.327517,48.807252],[0.326744,48.806517],[0.325993,48.806432],[0.325586,48.805118],[0.325221,48.804863],[0.325543,48.804199],[0.325114,48.803182],[0.324877,48.802164],[0.32389,48.801542],[0.323526,48.800044],[0.323054,48.798574],[0.322303,48.797175],[0.323247,48.796496],[0.324813,48.795959],[0.326422,48.795832],[0.324899,48.795479],[0.323912,48.79538],[0.322968,48.795026],[0.323118,48.793952],[0.322624,48.793259],[0.322002,48.793231],[0.321723,48.792807],[0.320865,48.79234],[0.319942,48.792326],[0.31932,48.792171],[0.320564,48.790983],[0.320629,48.790474],[0.319599,48.789061],[0.319341,48.787689],[0.31962,48.786728],[0.319084,48.786502],[0.317732,48.785131],[0.318655,48.783858],[0.319835,48.783406],[0.320007,48.783137],[0.320822,48.782883],[0.321594,48.781935],[0.322303,48.781143],[0.322624,48.780564],[0.32432,48.779107],[0.324963,48.778542],[0.326272,48.776831],[0.326573,48.7757],[0.327152,48.774964],[0.32786,48.773126],[0.32874,48.772291],[0.329212,48.771471],[0.330242,48.768218],[0.330521,48.766974],[0.330886,48.766097],[0.330821,48.765715],[0.333632,48.764923],[0.334276,48.764442],[0.336615,48.764018],[0.337666,48.763735],[0.338868,48.763551],[0.341421,48.7629],[0.339447,48.760453],[0.339147,48.760482],[0.338718,48.760128],[0.338289,48.759534],[0.336937,48.758982],[0.336272,48.757695],[0.336357,48.754922],[0.336572,48.753734],[0.337752,48.752263],[0.337816,48.751541],[0.337452,48.750452],[0.335263,48.748584],[0.334362,48.748853],[0.33316,48.748811],[0.331336,48.747509],[0.330135,48.747566],[0.328997,48.74666],[0.327946,48.746151],[0.325221,48.746122],[0.322839,48.740958],[0.322903,48.739769],[0.324105,48.73708],[0.324277,48.736118],[0.326251,48.734363],[0.326744,48.733528],[0.326143,48.732622],[0.326573,48.731943],[0.326358,48.731023],[0.326852,48.730027],[0.326637,48.729334],[0.327281,48.729178],[0.325736,48.727763],[0.325178,48.726885],[0.324041,48.725965],[0.321981,48.724932],[0.321659,48.724493],[0.321594,48.723644],[0.320822,48.721747],[0.320951,48.720841],[0.320178,48.719638],[0.320243,48.718576],[0.319685,48.716905],[0.31829,48.717472],[0.316702,48.718406],[0.315651,48.718689],[0.314621,48.718335],[0.314234,48.717811],[0.315307,48.717047],[0.315651,48.716594],[0.315329,48.71607],[0.314578,48.715617],[0.313247,48.714314],[0.312303,48.71413],[0.311767,48.713904],[0.311552,48.713451],[0.308784,48.712474],[0.306874,48.71103],[0.304278,48.709944],[0.302819,48.708996],[0.300523,48.708613],[0.298206,48.706886],[0.295523,48.705201],[0.292519,48.703671],[0.29194,48.703261],[0.291682,48.702807],[0.289172,48.701844],[0.287262,48.700329],[0.28812,48.698998],[0.288335,48.698035],[0.290953,48.694537],[0.291315,48.691916],[0.291401,48.690046],[0.289534,48.690061],[0.288526,48.689848],[0.28756,48.689848],[0.286423,48.689522],[0.284255,48.688545],[0.281852,48.688318],[0.279664,48.687766],[0.277132,48.687794],[0.276102,48.687539],[0.274621,48.687709],[0.273548,48.688078],[0.273291,48.687638],[0.270759,48.686406],[0.270201,48.685924],[0.269321,48.685372],[0.269321,48.683743],[0.269707,48.68353],[0.269643,48.682057],[0.269578,48.681674],[0.26975,48.681235],[0.269686,48.679719],[0.270394,48.679053],[0.269836,48.678274],[0.269428,48.676659],[0.269557,48.675837],[0.269235,48.675242],[0.268334,48.675412],[0.267583,48.676149],[0.266553,48.676616],[0.265244,48.676701],[0.26445,48.677013],[0.262347,48.679323],[0.262218,48.67979],[0.261789,48.681632],[0.262326,48.684522],[0.262841,48.686293],[0.261467,48.686746],[0.260373,48.686788],[0.25945,48.687355],[0.25724,48.688332],[0.253871,48.689126],[0.251468,48.689012],[0.250524,48.690882],[0.249322,48.692015],[0.248228,48.692667],[0.248228,48.693446],[0.247885,48.693304],[0.246941,48.692837],[0.245267,48.692639],[0.24458,48.692639],[0.244387,48.692171],[0.242756,48.692171],[0.24089,48.691718],[0.239302,48.691718],[0.238894,48.691364],[0.238014,48.690953],[0.237628,48.68914],[0.236684,48.686803],[0.235804,48.685259],[0.234195,48.68574],[0.231963,48.687752],[0.231513,48.688488],[0.22986,48.689792],[0.229238,48.691024],[0.227478,48.690316],[0.227393,48.691208],[0.226663,48.692171],[0.225934,48.69278],[0.224431,48.694607],[0.223573,48.694692],[0.223595,48.695556],[0.223165,48.698233],[0.223187,48.699848],[0.222994,48.70057],[0.223058,48.70159],[0.222929,48.702269],[0.223552,48.703204],[0.224668,48.704054],[0.224195,48.705158],[0.223123,48.704932],[0.221685,48.704365],[0.221299,48.704436],[0.217865,48.703926],[0.217308,48.704082],[0.216342,48.70336],[0.214289,48.702538],[0.212679,48.702198],[0.210941,48.70108],[0.210555,48.700513],[0.208731,48.699479],[0.206543,48.698715],[0.205942,48.697143],[0.20547,48.695599],[0.205942,48.691888],[0.203109,48.686264],[0.20283,48.685485],[0.203152,48.683998],[0.203045,48.682255],[0.202787,48.681575],[0.201693,48.680286],[0.201564,48.6786],[0.2012,48.678345],[0.200921,48.677778],[0.199354,48.67537],[0.197423,48.676035],[0.195942,48.676333],[0.196672,48.677778],[0.197959,48.678076],[0.198153,48.678557],[0.197831,48.679181],[0.197616,48.679833],[0.196028,48.680881],[0.193947,48.681859],[0.192423,48.681603],[0.191458,48.681547],[0.190449,48.681093],[0.188196,48.680853],[0.187402,48.680201],[0.185793,48.680017],[0.184506,48.680243],[0.184784,48.681235],[0.184677,48.682184],[0.184098,48.683077],[0.184033,48.686066],[0.183368,48.687029],[0.182016,48.688318],[0.181222,48.690996],[0.180922,48.691165],[0.181115,48.691605],[0.182317,48.692525],[0.183518,48.693885],[0.1856,48.695259],[0.187402,48.696774],[0.190308,48.697787],[0.188677,48.697985],[0.187519,48.698368],[0.185738,48.699132],[0.183742,48.699628],[0.179729,48.699855],[0.177262,48.70035],[0.177305,48.701568],[0.176403,48.703749],[0.177176,48.706496],[0.175867,48.710588],[0.175588,48.711948],[0.174279,48.713618],[0.174,48.714836],[0.174644,48.715827],[0.174537,48.716436],[0.173829,48.717186],[0.173421,48.718106],[0.170932,48.719352],[0.169408,48.720088],[0.167477,48.722084],[0.166511,48.722028],[0.165203,48.721447],[0.163786,48.721631],[0.161769,48.721829],[0.158851,48.721192],[0.158122,48.720853],[0.157242,48.720173],[0.156856,48.720173],[0.156276,48.720669],[0.154602,48.72132],[0.153615,48.721575],[0.152821,48.722268],[0.152821,48.722919],[0.151899,48.724009],[0.151942,48.725651],[0.152693,48.727746],[0.153572,48.728567],[0.153637,48.729487],[0.153336,48.73062],[0.153508,48.731893],[0.152156,48.734016],[0.152092,48.734639],[0.150289,48.738715],[0.15059,48.738913],[0.158293,48.738913],[0.157499,48.739748],[0.155547,48.740965],[0.155568,48.7417],[0.154517,48.742861],[0.154517,48.743455],[0.154731,48.743809],[0.154624,48.745238],[0.154581,48.745606],[0.153036,48.746978],[0.150268,48.748917],[0.148423,48.74985],[0.140415,48.752052],[0.139042,48.75201],[0.138763,48.752321],[0.138999,48.753354],[0.138699,48.753708],[0.136274,48.753764],[0.135931,48.753694],[0.13533,48.754033],[0.13312,48.754755],[0.132969,48.755759],[0.132455,48.756198],[0.131382,48.756594],[0.130759,48.757258],[0.130416,48.757895],[0.12915,48.759112],[0.127519,48.760172],[0.126468,48.761559],[0.12518,48.762747],[0.124858,48.763779],[0.124258,48.764529],[0.123786,48.765675],[0.123035,48.766792],[0.122284,48.7674],[0.121704,48.767768],[0.12209,48.769203],[0.122262,48.770716],[0.122434,48.772059],[0.122284,48.773431],[0.12106,48.773304],[0.119365,48.772964],[0.117606,48.77213],[0.115288,48.770871],[0.113143,48.770914],[0.110825,48.770108],[0.109881,48.770207],[0.108808,48.770164],[0.108122,48.770292],[0.107607,48.769698],[0.106147,48.770475],[0.105032,48.770433],[0.103787,48.770475],[0.102886,48.770433],[0.101877,48.772427],[0.102092,48.773375],[0.102199,48.775284],[0.101663,48.775326],[0.101405,48.775623],[0.101727,48.776443],[0.101405,48.776896],[0.101277,48.777603],[0.101749,48.781025],[0.102328,48.783329],[0.102242,48.78439],[0.101727,48.785549],[0.101234,48.788702],[0.099968,48.789267],[0.09838,48.790045],[0.094839,48.790879],[0.089432,48.793056],[0.088531,48.792377],[0.084861,48.788532],[0.08484,48.787161],[0.084389,48.786143],[0.08411,48.783965],[0.083402,48.783852],[0.079518,48.783838],[0.078102,48.784008],[0.079797,48.787712],[0.079905,48.788687],[0.081299,48.795713],[0.077931,48.796957],[0.076793,48.797141],[0.074175,48.798229],[0.072824,48.798455],[0.071944,48.798823],[0.069734,48.799459],[0.06879,48.799544],[0.065678,48.800392],[0.062438,48.800985],[0.057953,48.801494],[0.054413,48.802455],[0.05364,48.802413],[0.052031,48.80278],[0.051581,48.802752],[0.051108,48.803162],[0.050465,48.803388],[0.049671,48.803515],[0.046753,48.804448],[0.041281,48.805366],[0.040487,48.805692],[0.039886,48.805409],[0.038985,48.805465],[0.038427,48.80514],[0.037612,48.805211],[0.036389,48.803826],[0.033105,48.802073],[0.029136,48.799784],[0.028385,48.799473],[0.02611,48.797324],[0.024179,48.795812],[0.020081,48.793239],[0.020059,48.79314],[0.019566,48.792745],[0.018427,48.790962],[0.017247,48.789619],[0.015509,48.788573],[0.014629,48.787259],[0.013577,48.78682],[0.012354,48.786495],[0.010681,48.784784],[0.007913,48.783441],[0.007076,48.780797],[0.006024,48.774264],[0.004758,48.775155],[0.003728,48.775509],[0.001518,48.776371],[0.001368,48.776103],[-0.014103,48.778959],[-0.017558,48.778761],[-0.016614,48.780288],[-0.01642,48.782522],[-0.015069,48.783781],[-0.014639,48.784813],[-0.011764,48.786863],[-0.011185,48.787838],[-0.01067,48.788333],[-0.009704,48.790524],[-0.009318,48.79198],[-0.009404,48.793578],[-0.008052,48.79574],[-0.007258,48.79656],[-0.006292,48.797323],[-0.005456,48.799345],[-0.00743,48.799755],[-0.009704,48.800532],[-0.011657,48.801436],[-0.0173,48.80261],[-0.023008,48.803302],[-0.023265,48.803217],[-0.02554,48.803415],[-0.02887,48.80439],[-0.030823,48.804687],[-0.031874,48.804701],[-0.032689,48.804899],[-0.034063,48.805592],[-0.03771,48.806934],[-0.038719,48.807499],[-0.039921,48.807457],[-0.03977,48.80781],[-0.0405,48.808149],[-0.040672,48.808531],[-0.040071,48.80952],[-0.0405,48.809987],[-0.040049,48.810637],[-0.040393,48.811315],[-0.0402,48.811739],[-0.039062,48.812572],[-0.038419,48.812685],[-0.037861,48.8127],[-0.036981,48.813067],[-0.036466,48.813576],[-0.036509,48.814635],[-0.036745,48.815031],[-0.03638,48.815356],[-0.035329,48.815653],[-0.034106,48.815709],[-0.034041,48.816063],[-0.035264,48.816614],[-0.035543,48.817108],[-0.038783,48.818676],[-0.039985,48.819552],[-0.040693,48.819948],[-0.038676,48.822406],[-0.040157,48.822915],[-0.040715,48.823621],[-0.041616,48.823777],[-0.042453,48.824229],[-0.043804,48.824554],[-0.043289,48.825655],[-0.040972,48.827803],[-0.044083,48.82978],[-0.046122,48.830035],[-0.047388,48.830458],[-0.048504,48.830501],[-0.047731,48.832069],[-0.046272,48.833495],[-0.04507,48.833707],[-0.044105,48.834639],[-0.043762,48.835501],[-0.045135,48.835854],[-0.046551,48.835727],[-0.048976,48.836108],[-0.050199,48.836405],[-0.049534,48.837196],[-0.049491,48.83745],[-0.04889,48.837944],[-0.048504,48.838128],[-0.04816,48.83858],[-0.04771,48.838707],[-0.047388,48.839145],[-0.046937,48.839018],[-0.046079,48.839371],[-0.04404,48.840543],[-0.042088,48.84187],[-0.041702,48.841899],[-0.038826,48.844003],[-0.037968,48.844935],[-0.035457,48.8467],[-0.03005,48.845217],[-0.026016,48.843749],[-0.024214,48.842944],[-0.021145,48.842294],[-0.019944,48.841899],[-0.010052,48.85167],[-0.011768,48.852786],[-0.014,48.853644],[-0.009558,48.856044],[-0.00812,48.855479],[-0.006811,48.855282],[-0.00546,48.855367],[-0.005417,48.856369],[-0.004537,48.857823],[-0.002863,48.859969],[0.002673,48.866208],[0.002737,48.866702],[0.004384,48.865764],[0.007367,48.864451],[0.007732,48.863971],[0.009105,48.86335],[0.009813,48.86287],[0.010414,48.862193],[0.01168,48.861628],[0.013761,48.86023],[0.016615,48.858889],[0.018053,48.858127],[0.021894,48.855713],[0.022752,48.855176],[0.024276,48.854386],[0.025606,48.853567],[0.027408,48.852028],[0.028739,48.851068],[0.029425,48.85015],[0.03082,48.84919],[0.031485,48.847425],[0.031721,48.845702],[0.032172,48.845208],[0.031099,48.844671],[0.03082,48.844191],[0.031485,48.84405],[0.033245,48.843132],[0.034232,48.842835],[0.035798,48.842044],[0.03685,48.841578],[0.037966,48.840406],[0.03921,48.839389],[0.04039,48.838132],[0.041249,48.836678],[0.041721,48.836169],[0.042257,48.834997],[0.042729,48.834291],[0.043008,48.833697],[0.043437,48.833472],[0.043759,48.832977],[0.043995,48.832892],[0.046034,48.834277],[0.046913,48.834658],[0.0476,48.834912],[0.049016,48.83559],[0.049639,48.836197],[0.05039,48.836367],[0.052063,48.836409],[0.055282,48.838514],[0.056934,48.839516],[0.060496,48.843075],[0.061526,48.844502],[0.059938,48.844304],[0.0579,48.844459],[0.06041,48.847326],[0.061762,48.848371],[0.062277,48.849274],[0.062299,48.849952],[0.062084,48.85087],[0.062427,48.851548],[0.066268,48.85327],[0.068457,48.853496],[0.070603,48.854273],[0.070066,48.854823],[0.068736,48.85584],[0.070281,48.856828],[0.073263,48.858452],[0.073371,48.858861],[0.072534,48.859482],[0.071418,48.860089],[0.07086,48.861204],[0.071997,48.862856],[0.072984,48.863378],[0.074444,48.864945],[0.07528,48.865679],[0.075795,48.866611],[0.076074,48.868601],[0.076439,48.869716],[0.076546,48.870775],[0.078019,48.872189],[0.079178,48.873474],[0.080894,48.875153],[0.08128,48.875986],[0.081645,48.877072],[0.082418,48.878526],[0.082375,48.879556],[0.081538,48.880657],[0.081517,48.881151],[0.081323,48.881405],[0.081688,48.882223],[0.081345,48.882872],[0.080787,48.883027],[0.080873,48.883437],[0.079499,48.884043],[0.079607,48.884424],[0.077461,48.88561],[0.076216,48.885934],[0.075015,48.886216],[0.072976,48.887387],[0.077719,48.888855],[0.07862,48.888841],[0.080272,48.888516],[0.082933,48.887557],[0.083534,48.891803],[0.084499,48.89272],[0.085121,48.893962],[0.085593,48.894371],[0.086623,48.895768],[0.087546,48.896543],[0.088018,48.897418],[0.088619,48.900141],[0.088898,48.900253],[0.08922,48.901481],[0.089048,48.903582],[0.089413,48.90433],[0.089241,48.90574],[0.091065,48.90684],[0.091602,48.906995],[0.091988,48.90732],[0.093426,48.907983],[0.094498,48.907757],[0.096108,48.907658],[0.095528,48.908434],[0.095786,48.909746],[0.096644,48.909887],[0.097867,48.909464],[0.098404,48.91031],[0.099584,48.911255],[0.099927,48.911212],[0.100721,48.910253],[0.100936,48.909774],[0.101815,48.910155],[0.102609,48.910056],[0.10321,48.910408],[0.106128,48.910014],[0.107588,48.911339],[0.108317,48.911706],[0.108296,48.912453],[0.10851,48.913906],[0.110956,48.914202],[0.11278,48.913962],[0.113467,48.914047],[0.114046,48.914061],[0.11499,48.914343],[0.11635,48.914399],[0.118474,48.914851],[0.11974,48.914921],[0.121092,48.915401],[0.122015,48.91588],[0.126285,48.919053],[0.127143,48.919307],[0.128302,48.920124],[0.129246,48.919997],[0.131306,48.919899],[0.13122,48.918545],[0.13255,48.918545],[0.134095,48.918771],[0.134331,48.919067],[0.135361,48.919772],[0.135469,48.920533],[0.137507,48.920984],[0.139116,48.920702],[0.139846,48.921464],[0.140811,48.921492],[0.144567,48.918475],[0.147893,48.916486],[0.149931,48.915697],[0.153965,48.914978],[0.156175,48.918319],[0.157398,48.919166],[0.160359,48.92004],[0.161819,48.921182],[0.162612,48.921351],[0.163166,48.921168],[0.163874,48.920477],[0.164346,48.920449],[0.165912,48.920815],[0.166127,48.921168],[0.16735,48.921422],[0.167994,48.921859],[0.169968,48.922014],[0.170847,48.922169],[0.171963,48.922014],[0.172779,48.922183],[0.173787,48.92207],[0.175504,48.923043],[0.176169,48.923311],[0.177177,48.923833],[0.179237,48.924396],[0.180525,48.924425],[0.18192,48.924777],[0.179559,48.925694],[0.178916,48.928006],[0.178207,48.929119],[0.181276,48.929937],[0.183679,48.929796],[0.186726,48.929373],[0.187198,48.92919],[0.188443,48.929063],[0.189086,48.928668],[0.19091,48.928457],[0.192927,48.928372],[0.193636,48.928062],[0.193807,48.92778],[0.194193,48.927456],[0.197627,48.928133]]],"type":"MultiLineString"},"properties":{"geo_point":{"lon":0.17026490430874586,"lat":48.81453298060781},"name":"Tour du Pays d'Auge Ornais (Orne) (2019)","code_gr":null}}]}