{"type":"FeatureCollection","features":[{"type":"Feature","geometry":{"coordinates":[[[0.942505,48.960402],[0.94184,48.960459],[0.941174,48.960698],[0.940831,48.960515],[0.939887,48.960515],[0.939007,48.960712],[0.938921,48.960487],[0.936046,48.960304],[0.93272,48.959585],[0.931969,48.959543],[0.928085,48.960318],[0.925639,48.962065],[0.923729,48.961797],[0.922849,48.962191],[0.920897,48.963079],[0.919652,48.963234],[0.917485,48.962079],[0.916498,48.96036],[0.915618,48.959641],[0.913241,48.953743],[0.914614,48.950911],[0.910494,48.94743],[0.912962,48.934023],[0.909979,48.93298],[0.909271,48.932882],[0.908284,48.932149],[0.908155,48.931768],[0.907383,48.931162],[0.907511,48.930725],[0.903928,48.929541],[0.904164,48.9283],[0.903585,48.926848],[0.904507,48.925311],[0.904421,48.92479],[0.903842,48.923253],[0.903477,48.921984],[0.904035,48.921519],[0.903263,48.920983],[0.902147,48.920179],[0.901525,48.919361],[0.900838,48.918952],[0.900345,48.919009],[0.899808,48.91891],[0.899615,48.918529],[0.897212,48.917881],[0.897062,48.917162],[0.896332,48.91633],[0.895602,48.91578],[0.89704,48.915173],[0.896525,48.914525],[0.896053,48.914257],[0.894723,48.912508],[0.894272,48.91181],[0.894208,48.911056],[0.894916,48.909081],[0.894766,48.90839],[0.893886,48.906895],[0.893199,48.906289],[0.893113,48.905457],[0.892684,48.904568],[0.892985,48.903679],[0.8938,48.903228],[0.893757,48.90272],[0.894465,48.901973],[0.895044,48.901888],[0.895002,48.900802],[0.896396,48.898836],[0.896868,48.897693],[0.896868,48.896409],[0.900387,48.889609],[0.900108,48.887479],[0.900666,48.886392],[0.898842,48.884008],[0.898091,48.881073],[0.87908,48.866564],[0.890174,48.85729],[0.892749,48.855793],[0.897126,48.850612],[0.898306,48.84968],[0.901868,48.846079],[0.905881,48.843184],[0.906889,48.841814],[0.909164,48.839611],[0.910751,48.838877],[0.912983,48.836561],[0.913644,48.835972],[0.912357,48.835703],[0.912443,48.835223],[0.912378,48.834729],[0.912679,48.833684],[0.912722,48.83261],[0.913194,48.83172],[0.913601,48.830011],[0.913172,48.829051],[0.913494,48.827186],[0.914395,48.825053],[0.914932,48.822312],[0.914717,48.821125],[0.919245,48.821592],[0.919438,48.82056],[0.919824,48.820447],[0.919996,48.819232],[0.92094,48.81871],[0.922614,48.8183],[0.924094,48.820094],[0.924652,48.820136],[0.92521,48.819783],[0.926691,48.820066],[0.930843,48.817332],[0.935767,48.814711],[0.936411,48.812168],[0.936797,48.811871],[0.937076,48.811065],[0.938407,48.810232],[0.938578,48.809822],[0.939222,48.809454],[0.940488,48.809242],[0.939458,48.807264],[0.937977,48.807363],[0.938707,48.806628],[0.938793,48.806105],[0.940037,48.804282],[0.940445,48.802798],[0.942376,48.802699],[0.942977,48.802473],[0.942698,48.801187],[0.946796,48.795053],[0.947419,48.795462],[0.948062,48.79566],[0.949672,48.792225],[0.953037,48.789231],[0.952415,48.788863],[0.950419,48.788227],[0.949368,48.787619],[0.947823,48.786516],[0.946771,48.785159],[0.944947,48.784254],[0.94396,48.78137],[0.944151,48.780977],[0.944216,48.780581],[0.944752,48.780228],[0.945503,48.779379],[0.94619,48.779181],[0.946962,48.779266],[0.948979,48.777612],[0.949365,48.777527],[0.948636,48.776905],[0.948035,48.776],[0.947241,48.775632],[0.945288,48.775166],[0.942778,48.774826],[0.940632,48.774232],[0.939109,48.773228],[0.938315,48.772507],[0.937928,48.771814],[0.936641,48.767854],[0.93662,48.767147],[0.936169,48.76627],[0.936555,48.764644],[0.936534,48.76354],[0.935933,48.762112],[0.93574,48.760499],[0.935911,48.757769],[0.935718,48.756652],[0.936105,48.755548],[0.936834,48.754091],[0.936748,48.753101],[0.934903,48.750894],[0.934817,48.750385],[0.934152,48.749819],[0.934345,48.749267],[0.934345,48.748701],[0.934924,48.747527],[0.935461,48.746932],[0.935246,48.746451],[0.934259,48.745942],[0.933744,48.745376],[0.933294,48.744145],[0.933186,48.743055],[0.933465,48.74273],[0.934023,48.742518],[0.93353,48.740876],[0.931362,48.740268],[0.929023,48.740197],[0.926041,48.741923],[0.925161,48.742065],[0.925032,48.74239],[0.924217,48.742645],[0.923638,48.743041],[0.923573,48.743282],[0.919883,48.743848],[0.915462,48.744159],[0.911428,48.744711],[0.908167,48.745065],[0.90512,48.745616],[0.90145,48.746168],[0.900099,48.746734],[0.899197,48.746932],[0.898554,48.746904],[0.898146,48.747031],[0.897137,48.746734],[0.896172,48.747357],[0.895614,48.747611],[0.893962,48.74921],[0.892781,48.749776],[0.890164,48.752323],[0.88658,48.751516],[0.885722,48.751997],[0.880701,48.75378],[0.878641,48.754275],[0.875036,48.754827],[0.874714,48.755152],[0.875057,48.755562],[0.874972,48.755845],[0.874843,48.755732],[0.873877,48.756652],[0.872912,48.757218],[0.870487,48.758222],[0.870058,48.758731],[0.870337,48.761263],[0.869886,48.76173],[0.869221,48.762183],[0.869629,48.76289],[0.868212,48.763512],[0.867633,48.763951],[0.867097,48.764615],[0.863277,48.767105],[0.861475,48.769367],[0.863041,48.769905],[0.86126,48.771955],[0.860917,48.771234],[0.860316,48.770951],[0.85935,48.770683],[0.858814,48.770725],[0.857784,48.77204],[0.857784,48.773059],[0.858256,48.774614],[0.856368,48.776749],[0.855445,48.778531],[0.852033,48.781415],[0.851754,48.782787],[0.849973,48.7856],[0.849137,48.787354],[0.850231,48.787792],[0.850016,48.788371],[0.848707,48.789206],[0.845961,48.788428],[0.845682,48.788584],[0.845317,48.789305],[0.843364,48.789064],[0.841626,48.788668],[0.840661,48.789799],[0.840017,48.789559],[0.837335,48.788202],[0.836584,48.788697],[0.835189,48.790789],[0.83182,48.79004],[0.830533,48.789488],[0.829567,48.790351],[0.828666,48.790209],[0.828022,48.790379],[0.82564,48.792895],[0.825705,48.793659],[0.823731,48.7965],[0.823001,48.79633],[0.822572,48.797206],[0.820083,48.799002],[0.819847,48.799426],[0.819654,48.799934],[0.819439,48.800146],[0.819053,48.800952],[0.818066,48.80115],[0.817293,48.80156],[0.816607,48.801984],[0.814976,48.802493],[0.814697,48.802902],[0.812701,48.804287],[0.811285,48.804683],[0.810341,48.805107],[0.806672,48.806139],[0.805749,48.806054],[0.804548,48.806379],[0.803668,48.806704],[0.801994,48.807821],[0.800964,48.807934],[0.800277,48.807778],[0.798368,48.807623],[0.796308,48.807637],[0.795986,48.80775],[0.792188,48.806803],[0.791415,48.803397],[0.791029,48.803015],[0.78987,48.802973],[0.774807,48.798535],[0.767125,48.793037],[0.764422,48.791976],[0.762984,48.791877],[0.761439,48.790647],[0.759637,48.789743],[0.75822,48.788682],[0.758156,48.790011],[0.757148,48.791835],[0.756139,48.792669],[0.755388,48.792937],[0.754015,48.794026],[0.752298,48.795538],[0.748028,48.798054],[0.744981,48.799567],[0.744337,48.800033],[0.743844,48.800599],[0.742943,48.800909],[0.741569,48.803058],[0.741097,48.803482],[0.740196,48.804019],[0.739638,48.804513],[0.73893,48.80539],[0.736098,48.807891],[0.73496,48.808654],[0.732815,48.809601],[0.730004,48.810661],[0.726871,48.811353],[0.727944,48.812583],[0.728115,48.813077],[0.728823,48.81319],[0.729295,48.813515],[0.728995,48.814434],[0.729317,48.8149],[0.729853,48.815126],[0.730519,48.815564],[0.728802,48.815875],[0.727579,48.81596],[0.728416,48.817288],[0.730433,48.819619],[0.730905,48.820679],[0.733093,48.826895],[0.7323,48.827672],[0.732257,48.828335],[0.731785,48.829494],[0.7329,48.831005],[0.733802,48.83294],[0.734274,48.833435],[0.733287,48.834183],[0.733201,48.83455],[0.732643,48.834649],[0.732106,48.83496],[0.729167,48.835822],[0.728974,48.836302],[0.728695,48.836457],[0.728866,48.836895],[0.72657,48.837799],[0.723824,48.839451],[0.720541,48.837192],[0.718953,48.836415],[0.71818,48.836471],[0.716314,48.836344],[0.715842,48.836457],[0.715734,48.836768],[0.714618,48.837516],[0.712086,48.838971],[0.708331,48.840737],[0.706722,48.841046],[0.704533,48.84243],[0.702473,48.843404],[0.702216,48.84428],[0.702538,48.845268],[0.703181,48.846313],[0.703031,48.847852],[0.702752,48.848855],[0.703031,48.849504],[0.702516,48.84918],[0.701958,48.849335],[0.702001,48.849942],[0.702731,48.850705],[0.702667,48.851043],[0.702087,48.851509],[0.701229,48.852625],[0.700542,48.854037],[0.698997,48.854672],[0.698847,48.855463],[0.698826,48.856479],[0.698504,48.858681],[0.696937,48.861053],[0.697195,48.861067],[0.696272,48.865104],[0.696251,48.86622],[0.695886,48.867264],[0.696294,48.868238],[0.69683,48.868831],[0.697602,48.870779],[0.696959,48.871894],[0.696208,48.872769],[0.6955,48.875972],[0.694727,48.877059],[0.694405,48.877271],[0.694041,48.878019],[0.692946,48.878385],[0.692581,48.878752],[0.693375,48.879599],[0.694577,48.881222],[0.69447,48.882577],[0.694942,48.883931],[0.695693,48.884623],[0.696422,48.884467],[0.697388,48.885342],[0.698075,48.885638],[0.69919,48.886598],[0.704254,48.889434],[0.704812,48.88997],[0.705628,48.890083],[0.705456,48.890379],[0.707151,48.892524],[0.707258,48.893003],[0.710584,48.897221],[0.715155,48.898392],[0.719189,48.899111],[0.721206,48.899873],[0.724231,48.900776],[0.726806,48.900889],[0.727514,48.90079],[0.728266,48.900889],[0.729424,48.901509],[0.732385,48.901636],[0.734896,48.902694],[0.736183,48.903597],[0.739466,48.905064],[0.741376,48.906319],[0.741891,48.907885],[0.74247,48.907913],[0.741784,48.90828],[0.740947,48.909394],[0.740389,48.910536],[0.740539,48.91189],[0.740453,48.912539],[0.739724,48.91378],[0.739359,48.9155],[0.739702,48.916459],[0.739702,48.920393],[0.739917,48.92114],[0.740518,48.921464],[0.740849,48.922577],[0.740827,48.923381],[0.740377,48.923945],[0.741492,48.923959],[0.742007,48.92417],[0.740956,48.925256],[0.740248,48.92551],[0.73954,48.9262],[0.74293,48.927695],[0.74366,48.92761],[0.743702,48.928625],[0.744217,48.92933],[0.744239,48.930035],[0.744539,48.930373],[0.74411,48.931487],[0.743488,48.931995],[0.742587,48.933475],[0.742158,48.9337],[0.741407,48.934616],[0.739947,48.935096],[0.738445,48.935293],[0.737673,48.935251],[0.736664,48.935772],[0.736128,48.936956],[0.737051,48.938944],[0.738767,48.941453],[0.740226,48.942355],[0.742651,48.942932],[0.745097,48.943186],[0.747973,48.945258],[0.749496,48.945793],[0.746771,48.946315],[0.746707,48.94981],[0.74632,48.95081],[0.745998,48.952938],[0.746771,48.953361],[0.747372,48.953375],[0.747672,48.952924],[0.747307,48.952304],[0.748058,48.951853],[0.749003,48.952078],[0.752071,48.951909],[0.753337,48.951712],[0.75353,48.95198],[0.755933,48.952247],[0.757886,48.952783],[0.759324,48.953614],[0.760053,48.954431],[0.760161,48.954967],[0.760633,48.955474],[0.761577,48.95577],[0.76265,48.95694],[0.764946,48.957898],[0.765139,48.958997],[0.763722,48.959631],[0.763615,48.960208],[0.762843,48.960391],[0.761942,48.960913],[0.760783,48.9618],[0.758294,48.962392],[0.757307,48.963505],[0.756041,48.964364],[0.755011,48.963984],[0.754624,48.96404],[0.755397,48.964843],[0.757178,48.965435],[0.76501,48.967027],[0.76471,48.968421],[0.764752,48.968957],[0.764581,48.969534],[0.766083,48.969661],[0.768958,48.970464],[0.769881,48.970985],[0.772971,48.972605],[0.776082,48.975013],[0.777198,48.97552],[0.779236,48.977253],[0.783185,48.979069],[0.784708,48.978506],[0.785502,48.977985],[0.787154,48.978739],[0.787224,48.978715],[0.787911,48.97825],[0.788941,48.978546],[0.789713,48.978476],[0.791258,48.977419],[0.791537,48.977997],[0.793597,48.979884],[0.79909,48.982616],[0.801043,48.984306],[0.827264,48.98991],[0.830461,48.990952],[0.83162,48.991008],[0.836255,48.992008],[0.840933,48.99243],[0.843679,48.992219],[0.846619,48.993247],[0.84752,48.993726],[0.847906,48.992994],[0.848421,48.992473],[0.848379,48.992121],[0.848572,48.991093],[0.84973,48.990389],[0.850438,48.989671],[0.851061,48.987868],[0.851468,48.985869],[0.851373,48.984744],[0.852982,48.983561],[0.853991,48.983716],[0.86841,48.978477],[0.869376,48.978477],[0.869848,48.97859],[0.877508,48.978928],[0.878495,48.978646],[0.879804,48.978491],[0.882765,48.977731],[0.883473,48.977139],[0.884031,48.976421],[0.884353,48.976139],[0.884718,48.976252],[0.886735,48.976548],[0.889052,48.97697],[0.891928,48.977111],[0.895919,48.976773],[0.897914,48.976491],[0.899352,48.976139],[0.901326,48.976505],[0.902013,48.9769],[0.90212,48.977519],[0.902893,48.977886],[0.903214,48.978716],[0.906776,48.978815],[0.906669,48.979477],[0.909029,48.97959],[0.909673,48.979153],[0.910253,48.979111],[0.916003,48.979702],[0.91684,48.978364],[0.918428,48.977956],[0.918685,48.977829],[0.91978,48.97766],[0.920896,48.97697],[0.922355,48.976562],[0.92332,48.976181],[0.923921,48.976041],[0.925938,48.974308],[0.928406,48.972393],[0.928792,48.97197],[0.930122,48.971195],[0.930723,48.969914],[0.932976,48.968322],[0.934242,48.967899],[0.933856,48.967322],[0.935036,48.966096],[0.935766,48.965617],[0.939027,48.964152],[0.938512,48.96349],[0.939027,48.963532],[0.939843,48.963236],[0.940057,48.963448],[0.940486,48.963476],[0.940851,48.962616],[0.941689,48.962713],[0.942011,48.961247]]],"type":"MultiLineString"},"properties":{"geo_point":{"lon":0.8357024179094171,"lat":48.87161102764711},"name":"Tour du Pays d'Ouche (Eure) (2019)","code_gr":null}}]}