{"type":"FeatureCollection","features":[{"type":"Feature","geometry":{"coordinates":[[[-0.249431,46.652128],[-0.248497,46.652106],[-0.247601,46.652198],[-0.246963,46.652581],[-0.246684,46.653362],[-0.246319,46.654599],[-0.245568,46.655438],[-0.243959,46.656278],[-0.243337,46.656823],[-0.242414,46.65697],[-0.23971,46.656955],[-0.239646,46.656808],[-0.239024,46.656786],[-0.23809,46.657191],[-0.237425,46.657324],[-0.236739,46.657559],[-0.23558,46.657397],[-0.234507,46.657059],[-0.233863,46.65669],[-0.23279,46.65644],[-0.233219,46.655247],[-0.233563,46.655144],[-0.233627,46.654805],[-0.233949,46.654555],[-0.2347,46.654422],[-0.234786,46.654069],[-0.23382,46.653951],[-0.232941,46.654407],[-0.232318,46.654555],[-0.230687,46.65563],[-0.229207,46.655365],[-0.229014,46.655085],[-0.229314,46.654717],[-0.228949,46.654525],[-0.228542,46.654643],[-0.227791,46.65454],[-0.227705,46.654216],[-0.226954,46.653966],[-0.225988,46.654113],[-0.225967,46.65429],[-0.224915,46.654687],[-0.224272,46.654363],[-0.224357,46.654938],[-0.224036,46.655232],[-0.223456,46.655218],[-0.223156,46.655173],[-0.223027,46.655512],[-0.222212,46.655512],[-0.220753,46.65591],[-0.21983,46.656396],[-0.219229,46.657147],[-0.219465,46.657589],[-0.22219,46.65996],[-0.222963,46.660063],[-0.224765,46.660696],[-0.225259,46.66074],[-0.226117,46.661727],[-0.226031,46.661933],[-0.226332,46.662508],[-0.226374,46.662817],[-0.227018,46.663848],[-0.227447,46.664039],[-0.227962,46.664702],[-0.228048,46.665173],[-0.228649,46.666115],[-0.227442,46.666813],[-0.226176,46.667623],[-0.225597,46.667888],[-0.22476,46.668109],[-0.223515,46.669169],[-0.22094,46.66992],[-0.219696,46.670037],[-0.217486,46.670376],[-0.215447,46.671274],[-0.214846,46.671495],[-0.214074,46.672437],[-0.212186,46.673188],[-0.210018,46.674499],[-0.208452,46.675176],[-0.208173,46.675426],[-0.209332,46.675794],[-0.210254,46.676869],[-0.210748,46.677208],[-0.211778,46.677443],[-0.211885,46.677752],[-0.20886,46.679782],[-0.206778,46.680827],[-0.20356,46.682667],[-0.199461,46.684404],[-0.196801,46.685715],[-0.194247,46.686922],[-0.189441,46.688644],[-0.187617,46.689748],[-0.186007,46.690616],[-0.184934,46.691058],[-0.184098,46.691543],[-0.181887,46.692162],[-0.180857,46.692323],[-0.179828,46.692853],[-0.178175,46.693957],[-0.177875,46.694796],[-0.177746,46.696106],[-0.175751,46.699196],[-0.175815,46.699917],[-0.175407,46.700653],[-0.175364,46.700948],[-0.175064,46.70161],[-0.175128,46.702449],[-0.174399,46.703817],[-0.173755,46.704612],[-0.173455,46.705539],[-0.173433,46.706701],[-0.173648,46.707466],[-0.173626,46.708393],[-0.173197,46.709232],[-0.172575,46.709732],[-0.172103,46.709968],[-0.172038,46.710718],[-0.17221,46.712866],[-0.171995,46.714499],[-0.171223,46.715956],[-0.170086,46.717268],[-0.17,46.718269],[-0.16985,46.719563],[-0.170493,46.720372],[-0.169657,46.721534],[-0.166996,46.724315],[-0.166481,46.724668],[-0.166631,46.725006],[-0.166803,46.725653],[-0.167103,46.726197],[-0.167296,46.726845],[-0.167532,46.727359],[-0.167216,46.727532],[-0.16683,46.728135],[-0.165349,46.728032],[-0.165113,46.72887],[-0.165736,46.729988],[-0.164298,46.729885],[-0.161637,46.729311],[-0.15917,46.729208],[-0.158526,46.729105],[-0.158183,46.72887],[-0.156788,46.729208],[-0.156852,46.729444],[-0.156316,46.729767],[-0.155758,46.730179],[-0.153719,46.731076],[-0.153634,46.731385],[-0.150029,46.732738],[-0.150458,46.733694],[-0.151187,46.734488],[-0.152003,46.735194],[-0.153033,46.736488],[-0.152904,46.7374],[-0.152217,46.738709],[-0.151917,46.739812],[-0.15123,46.740606],[-0.151402,46.741532],[-0.151102,46.741915],[-0.15093,46.742812],[-0.151123,46.743517],[-0.151123,46.744326],[-0.151767,46.745179],[-0.152539,46.745708],[-0.152968,46.745811],[-0.152303,46.746252],[-0.150587,46.747208],[-0.152024,46.748502],[-0.152668,46.749178],[-0.153419,46.74959],[-0.154106,46.750237],[-0.154728,46.750943],[-0.156101,46.751281],[-0.156788,46.751619],[-0.157539,46.752486],[-0.158118,46.752957],[-0.157753,46.753177],[-0.157517,46.753545],[-0.157668,46.753883],[-0.156831,46.754897],[-0.155586,46.755868],[-0.155157,46.75722],[-0.160715,46.760674],[-0.160865,46.761689],[-0.161401,46.761718],[-0.162539,46.761939],[-0.162882,46.762365],[-0.16329,46.762277],[-0.163654,46.762012],[-0.164513,46.76113],[-0.165092,46.761101],[-0.165671,46.760674],[-0.16653,46.759219],[-0.168139,46.760351],[-0.169105,46.760777],[-0.170156,46.761571],[-0.171122,46.762115],[-0.170993,46.762365],[-0.17095,46.762865],[-0.170177,46.763203],[-0.170049,46.763526],[-0.169362,46.763585],[-0.168826,46.763996],[-0.167839,46.763938],[-0.167774,46.764467],[-0.16683,46.765775],[-0.166723,46.766319],[-0.167152,46.766098],[-0.168225,46.766054],[-0.168611,46.765819],[-0.169212,46.765701],[-0.169083,46.766304],[-0.171486,46.767524],[-0.172388,46.76673],[-0.172795,46.766951],[-0.172345,46.767451],[-0.172173,46.768303],[-0.171873,46.769067],[-0.173375,46.770537],[-0.173696,46.771081],[-0.173654,46.771842],[-0.173847,46.77312],[-0.173117,46.773958],[-0.172323,46.775354],[-0.175263,46.77556],[-0.175714,46.775898],[-0.175928,46.776265],[-0.178567,46.77625],[-0.180799,46.77434],[-0.183052,46.772841],[-0.185369,46.770798],[-0.186464,46.770093],[-0.188631,46.769181],[-0.189682,46.768314],[-0.189575,46.769314],[-0.18964,46.770357],[-0.189961,46.770798],[-0.192107,46.771739],[-0.193395,46.772635],[-0.194789,46.775516],[-0.194296,46.777411],[-0.193459,46.776794],[-0.192515,46.775868],[-0.190734,46.778028],[-0.190133,46.778528],[-0.190026,46.779322],[-0.190197,46.779851],[-0.190262,46.780673],[-0.190648,46.78204],[-0.190498,46.782466],[-0.191249,46.783524],[-0.192343,46.78467],[-0.192107,46.785317],[-0.191528,46.785361],[-0.190562,46.786272],[-0.192193,46.787094],[-0.191893,46.787741],[-0.192172,46.788152],[-0.19215,46.789592],[-0.19112,46.790253],[-0.190412,46.790224],[-0.187966,46.790635],[-0.187215,46.790444],[-0.187,46.790723],[-0.186271,46.791311],[-0.185155,46.792001],[-0.184382,46.792707],[-0.18243,46.793794],[-0.180606,46.791854],[-0.180198,46.791237],[-0.179554,46.790591],[-0.178482,46.79018],[-0.17758,46.789284],[-0.177022,46.789607],[-0.174791,46.790136],[-0.173568,46.790224],[-0.173418,46.788152],[-0.172259,46.788475],[-0.171207,46.788593],[-0.17065,46.788329],[-0.169791,46.788167],[-0.169362,46.787418],[-0.169233,46.786404],[-0.169405,46.785728],[-0.167603,46.785772],[-0.167152,46.785963],[-0.16668,46.786786],[-0.165088,46.786206],[-0.164767,46.785707],[-0.164938,46.785178],[-0.164895,46.784046],[-0.165153,46.783356],[-0.166033,46.782474],[-0.166612,46.78149],[-0.167105,46.780961],[-0.167234,46.780579],[-0.167685,46.780035],[-0.167835,46.778962],[-0.167749,46.778198],[-0.167771,46.777317],[-0.167341,46.777243],[-0.166097,46.776582],[-0.165805,46.775897],[-0.165269,46.775192],[-0.164904,46.773957],[-0.164217,46.773707],[-0.163874,46.773105],[-0.163509,46.772017],[-0.162865,46.772135],[-0.161599,46.772032],[-0.160977,46.772047],[-0.160741,46.771973],[-0.160548,46.772238],[-0.159969,46.772355],[-0.158917,46.772429],[-0.156814,46.772943],[-0.155634,46.771826],[-0.154776,46.771885],[-0.151922,46.771371],[-0.151686,46.770373],[-0.152029,46.768697],[-0.152737,46.767624],[-0.153145,46.765993],[-0.153038,46.763479],[-0.152394,46.760951],[-0.150334,46.760187],[-0.149197,46.759937],[-0.147909,46.759893],[-0.147416,46.759613],[-0.147115,46.759922],[-0.147266,46.760363],[-0.147008,46.761201],[-0.146579,46.761319],[-0.146021,46.762127],[-0.145506,46.762127],[-0.144498,46.76176],[-0.143382,46.761613],[-0.142416,46.761671],[-0.140163,46.761495],[-0.13982,46.761804],[-0.139369,46.762818],[-0.139841,46.76345],[-0.139155,46.763861],[-0.138425,46.764685],[-0.137545,46.764626],[-0.136773,46.764802],[-0.136236,46.764979],[-0.135507,46.764435],[-0.135035,46.76367],[-0.134048,46.763097],[-0.131344,46.76273],[-0.130378,46.762686],[-0.129585,46.761745],[-0.128919,46.760392],[-0.127782,46.758584],[-0.126473,46.757276],[-0.126237,46.756835],[-0.12613,46.756335],[-0.125658,46.755762],[-0.123426,46.7561],[-0.122546,46.756468],[-0.122246,46.755806],[-0.120916,46.755556],[-0.119886,46.755747],[-0.116753,46.757688],[-0.116281,46.757614],[-0.11598,46.756923],[-0.114049,46.757982],[-0.114607,46.75857],[-0.115079,46.758805],[-0.114543,46.759702],[-0.114736,46.760025],[-0.115809,46.760628],[-0.116624,46.761921],[-0.114886,46.76248],[-0.114371,46.762877],[-0.114221,46.763274],[-0.114779,46.764008],[-0.11495,46.764479],[-0.115637,46.764993],[-0.11362,46.765699],[-0.11289,46.766052],[-0.111624,46.766331],[-0.109607,46.767242],[-0.107934,46.767786],[-0.106625,46.767786],[-0.106217,46.767389],[-0.104973,46.766875],[-0.105144,46.766448],[-0.106217,46.765978],[-0.106904,46.765449],[-0.107204,46.764141],[-0.105981,46.762744],[-0.105445,46.762494],[-0.104114,46.762245],[-0.103457,46.761696],[-0.102255,46.760109],[-0.104057,46.758786],[-0.103821,46.758448],[-0.103714,46.757713],[-0.103971,46.757316],[-0.102362,46.757624],[-0.101139,46.757521],[-0.100688,46.757624],[-0.100495,46.758198],[-0.098843,46.757757],[-0.09865,46.757389],[-0.098693,46.756257],[-0.097491,46.754581],[-0.098199,46.754023],[-0.098607,46.753346],[-0.0985,46.752861],[-0.097534,46.75192],[-0.097727,46.74898],[-0.098135,46.748509],[-0.098736,46.748024],[-0.098714,46.747068],[-0.098843,46.746569],[-0.098178,46.746304],[-0.097255,46.746377],[-0.095989,46.747113],[-0.09438,46.747818],[-0.093629,46.747804],[-0.092728,46.74726],[-0.092062,46.747274],[-0.091333,46.747083],[-0.090711,46.74726],[-0.089616,46.74848],[-0.088114,46.749347],[-0.087556,46.749083],[-0.087235,46.748627],[-0.086226,46.748465],[-0.085196,46.74848],[-0.084509,46.748304],[-0.082299,46.747921],[-0.081613,46.74773],[-0.081162,46.747848],[-0.080497,46.747907],[-0.07951,46.748259],[-0.078201,46.747098],[-0.079681,46.746304],[-0.080068,46.745583],[-0.080862,46.744922],[-0.080819,46.744539],[-0.081934,46.743966],[-0.082879,46.743775],[-0.083265,46.743451],[-0.083823,46.743378],[-0.084466,46.742716],[-0.085883,46.742613],[-0.085794,46.741834],[-0.085215,46.741172],[-0.084121,46.740672],[-0.083927,46.740408],[-0.082833,46.740672],[-0.081782,46.74051],[-0.080902,46.73976],[-0.080709,46.738761],[-0.080365,46.738452],[-0.080108,46.738084],[-0.079014,46.737716],[-0.078005,46.737525],[-0.076739,46.737496],[-0.076052,46.737113],[-0.07513,46.737731],[-0.073799,46.737893],[-0.073263,46.738113],[-0.072206,46.738345],[-0.071584,46.738565],[-0.072098,46.738007],[-0.072313,46.737242],[-0.072807,46.736639],[-0.07285,46.73583],[-0.072292,46.735404],[-0.069566,46.734771],[-0.068644,46.734698],[-0.067678,46.734771],[-0.066498,46.734477],[-0.065511,46.73383],[-0.064545,46.733095],[-0.064073,46.7328],[-0.06446,46.732124],[-0.06403,46.732006],[-0.063644,46.731771],[-0.062528,46.731462],[-0.061262,46.731712],[-0.05961,46.731859],[-0.057464,46.731492],[-0.057486,46.730786],[-0.057207,46.7303],[-0.057357,46.729329],[-0.057228,46.728638],[-0.056499,46.728565],[-0.054417,46.729153],[-0.052722,46.729212],[-0.051757,46.729006],[-0.050083,46.728476],[-0.04988,46.727999],[-0.049215,46.727235],[-0.048979,46.726529],[-0.048808,46.725514],[-0.048271,46.724984],[-0.048336,46.724778],[-0.049258,46.724793],[-0.049902,46.724013],[-0.052327,46.722631],[-0.053591,46.721573],[-0.05638,46.717366],[-0.057153,46.715747],[-0.057281,46.715159],[-0.057882,46.714865],[-0.058161,46.714261],[-0.057904,46.714085],[-0.056981,46.714232],[-0.055093,46.712878],[-0.053419,46.712275],[-0.052346,46.711775],[-0.050887,46.71151],[-0.049106,46.711628],[-0.047497,46.711437],[-0.046381,46.710701],[-0.045427,46.709646],[-0.045213,46.708734],[-0.042874,46.707145],[-0.041093,46.706586],[-0.039998,46.706468],[-0.038453,46.706586],[-0.037745,46.706601],[-0.03708,46.706718],[-0.035149,46.706071],[-0.03414,46.705983],[-0.033025,46.705909],[-0.031651,46.70457],[-0.030235,46.703878],[-0.029591,46.70382],[-0.030578,46.701965],[-0.030707,46.701215],[-0.029742,46.700185],[-0.029506,46.699625],[-0.029677,46.699449],[-0.026201,46.69833],[-0.025772,46.698051],[-0.024978,46.697138],[-0.023476,46.696329],[-0.023347,46.696005],[-0.021261,46.69332],[-0.019588,46.691569],[-0.019266,46.690465],[-0.018622,46.689729],[-0.019995,46.68892],[-0.020339,46.688051],[-0.021668,46.687423],[-0.022698,46.686304],[-0.021689,46.685774],[-0.022548,46.685318],[-0.023663,46.685053],[-0.022505,46.684081],[-0.021904,46.683286],[-0.021818,46.682462],[-0.021904,46.682079],[-0.021861,46.681284],[-0.022633,46.680872],[-0.022376,46.680681],[-0.021646,46.679694],[-0.021367,46.679032],[-0.019715,46.678266],[-0.018106,46.676323],[-0.017419,46.67572],[-0.016668,46.675131],[-0.016239,46.674306],[-0.015338,46.673909],[-0.014115,46.673864],[-0.013213,46.673658],[-0.013171,46.67276],[-0.013471,46.67251],[-0.01287,46.671715],[-0.011947,46.670993],[-0.011561,46.670979],[-0.01036,46.670228],[-0.009501,46.66905],[-0.008815,46.668711],[-0.008458,46.667471],[-0.007921,46.666705],[-0.007814,46.66591],[-0.007385,46.665395],[-0.005861,46.665866],[-0.004724,46.666396],[-0.003029,46.666764],[-0.002707,46.66591],[-0.001613,46.664644],[-0.001505,46.663952],[-0.001788,46.663304],[-0.002561,46.662449],[-0.002732,46.661831],[-0.002561,46.660903],[-0.003054,46.6608],[-0.004063,46.660167],[-0.004792,46.659961],[-0.004449,46.659637],[-0.003247,46.659563],[-0.002861,46.659239],[-0.00211,46.659018],[-0.004063,46.658326],[-0.004578,46.65781],[-0.005779,46.655999],[-0.005672,46.655218],[-0.005157,46.654659],[-0.004728,46.654511],[-0.004043,46.653423],[-0.002842,46.652657],[-0.002026,46.652407],[-0.002262,46.651876],[-0.002498,46.649623],[-0.003142,46.647914],[-0.005052,46.645763],[-0.005202,46.645277],[-0.005159,46.644879],[0.000742,46.646456],[0.000699,46.644909],[0.000806,46.644261],[0.000656,46.643686],[0.001192,46.643038],[0.004368,46.642626],[0.003724,46.6399],[0.003381,46.639768],[0.001128,46.63439],[0.000787,46.634187],[0.000293,46.633406],[-0.00138,46.631726],[-0.001809,46.631137],[-0.002582,46.63093],[-0.00314,46.630282],[-0.002453,46.629972],[-0.00123,46.629825],[-0.000458,46.630282],[0.001688,46.628956],[0.002954,46.628462],[0.004692,46.628027],[0.007374,46.628116],[0.00849,46.628897],[0.008855,46.62844],[0.009263,46.627364],[0.010185,46.626628],[0.012503,46.626333],[0.013833,46.62648],[0.015121,46.626952],[0.016623,46.626952],[0.018768,46.626377],[0.01967,46.626215],[0.019713,46.625729],[0.020506,46.62424],[0.01894,46.62368],[0.017953,46.622],[0.017352,46.621514],[0.016816,46.620703],[0.016258,46.620202],[0.016601,46.619305],[0.016515,46.618436],[0.016279,46.618126],[0.015357,46.617551],[0.017073,46.616962],[0.018425,46.616977],[0.019992,46.616785],[0.020764,46.615311],[0.021386,46.615061],[0.022652,46.614884],[0.022738,46.614427],[0.022717,46.614117],[0.023682,46.614279],[0.024669,46.614162],[0.025785,46.613321],[0.026837,46.612879],[0.027158,46.612422],[0.027909,46.6117],[0.028575,46.611523],[0.02866,46.610816],[0.029411,46.610757],[0.029476,46.610034],[0.029819,46.609283],[0.030763,46.608988],[0.031579,46.608944],[0.032373,46.608722],[0.035291,46.607602],[0.037072,46.608354],[0.037909,46.608546],[0.042179,46.610226],[0.045011,46.611744],[0.043874,46.613086],[0.043016,46.613926],[0.042737,46.6154],[0.041342,46.617198],[0.041149,46.617935],[0.041385,46.618672],[0.041192,46.619246],[0.041921,46.619674],[0.041685,46.620028],[0.040913,46.620116],[0.039969,46.620838],[0.039389,46.620882],[0.040183,46.622194],[0.040634,46.622356],[0.04132,46.622459],[0.042372,46.622887],[0.042994,46.622857],[0.043509,46.623034],[0.044389,46.623122],[0.044646,46.62324],[0.044668,46.623697],[0.045912,46.62383],[0.046578,46.624994],[0.048144,46.627249],[0.049002,46.62744],[0.049367,46.627116],[0.049968,46.626954],[0.052028,46.626556],[0.053766,46.627249],[0.055118,46.627337],[0.055912,46.627543],[0.056577,46.627573],[0.058487,46.628074],[0.059495,46.628074],[0.06016,46.627926],[0.061448,46.627867],[0.062585,46.62747],[0.063529,46.627455],[0.063872,46.627322],[0.064666,46.627661],[0.066834,46.628884],[0.066919,46.629282],[0.06707,46.629636],[0.066855,46.629975],[0.067499,46.629872],[0.068035,46.629518],[0.068035,46.628928],[0.067563,46.627779],[0.066812,46.626792],[0.066598,46.625893],[0.066962,46.625362],[0.068271,46.624847],[0.068979,46.624847],[0.069838,46.625127],[0.071619,46.625377],[0.072262,46.625421],[0.072734,46.625539],[0.074301,46.625451],[0.075266,46.625524],[0.076447,46.625348],[0.077348,46.624714],[0.077713,46.623815],[0.077348,46.622872],[0.077713,46.622106],[0.077326,46.621722],[0.076876,46.620809],[0.076039,46.620425],[0.07561,46.620072],[0.074816,46.619733],[0.074322,46.619379],[0.075009,46.619232],[0.075696,46.618701],[0.076532,46.617669],[0.07752,46.617213],[0.078099,46.616756],[0.079773,46.616048],[0.08121,46.61509],[0.082455,46.614972],[0.084236,46.615149],[0.084901,46.615296],[0.085631,46.615341],[0.08769,46.612982],[0.08754,46.612231],[0.087583,46.611376],[0.088205,46.610241],[0.088334,46.608919],[0.088055,46.607828],[0.087991,46.606634],[0.087969,46.604747],[0.087454,46.603759],[0.086403,46.603025],[0.085008,46.601831],[0.0843,46.600931],[0.083506,46.599796],[0.082176,46.599457],[0.081532,46.598543],[0.079966,46.598233],[0.079064,46.598218],[0.075009,46.597437],[0.075052,46.596803],[0.076919,46.593486],[0.077756,46.591215],[0.078077,46.589268],[0.074751,46.589298],[0.074515,46.588457],[0.075245,46.587086],[0.07473,46.586466],[0.073271,46.585921],[0.072477,46.58536],[0.071383,46.584815],[0.070052,46.583517],[0.069172,46.582381],[0.069087,46.581305],[0.068529,46.579963],[0.068164,46.579535],[0.068486,46.578886],[0.069366,46.578517],[0.068979,46.57778],[0.070632,46.576836],[0.071297,46.576202],[0.071983,46.575744],[0.072413,46.575213],[0.072928,46.574859],[0.072559,46.573948],[0.072752,46.572104],[0.073331,46.570363],[0.077301,46.569375],[0.078266,46.569257],[0.080584,46.568475],[0.082,46.567487],[0.081828,46.567295],[0.082215,46.565761],[0.082987,46.564949],[0.083116,46.564211],[0.082665,46.563415],[0.081442,46.562485],[0.082021,46.562028],[0.082193,46.56098],[0.081957,46.560774],[0.081378,46.560759],[0.079962,46.560508],[0.079382,46.559608],[0.078781,46.559313],[0.078245,46.559299],[0.077751,46.559018],[0.076292,46.558015],[0.075241,46.557602],[0.074597,46.557484],[0.073996,46.557616],[0.073546,46.557439],[0.072773,46.55769],[0.071464,46.557926],[0.07037,46.556613],[0.070263,46.556023],[0.069705,46.555374],[0.069147,46.555034],[0.068374,46.554857],[0.067495,46.555034],[0.066443,46.555079],[0.064362,46.555521],[0.063053,46.555595],[0.061529,46.556052],[0.060049,46.556318],[0.059362,46.556702],[0.058332,46.556879],[0.054513,46.557085],[0.053182,46.557321],[0.052045,46.557794],[0.050994,46.558103],[0.049535,46.558502],[0.049384,46.558885],[0.048333,46.558738],[0.047603,46.559121],[0.046852,46.55921],[0.046316,46.558561],[0.045329,46.558074],[0.044771,46.557676],[0.044084,46.557144],[0.042754,46.556348],[0.041874,46.5562],[0.039192,46.556097],[0.037711,46.555905],[0.035887,46.555374],[0.034815,46.554297],[0.033785,46.553588],[0.033355,46.553013],[0.032476,46.551847],[0.030566,46.550224],[0.029675,46.549619],[0.028613,46.54922],[0.02724,46.548394],[0.023185,46.54652],[0.020417,46.545841],[0.018979,46.545265],[0.017713,46.544896],[0.015224,46.54438],[0.013936,46.543878],[0.009194,46.541502],[0.012971,46.538417],[0.01576,46.537576],[0.016812,46.538078],[0.018442,46.539199],[0.020116,46.538137],[0.022176,46.537428],[0.023828,46.537103],[0.025652,46.537015],[0.026725,46.53669],[0.027927,46.536528],[0.025737,46.5346],[0.021102,46.531987],[0.020566,46.531456],[0.020309,46.531013],[0.018935,46.530319],[0.016832,46.528548],[0.01374,46.52682],[0.012624,46.525979],[0.012066,46.525359],[0.011165,46.524812],[0.009663,46.524207],[0.008719,46.524015],[0.00801,46.52369],[0.006959,46.522893],[0.006637,46.52186],[0.006015,46.522273],[0.0052,46.522421],[0.003762,46.521387],[0.000286,46.520103],[-0.000894,46.518936],[-0.002375,46.517681],[-0.002933,46.517061],[-0.002718,46.516205],[-0.003941,46.515363],[-0.005443,46.514935],[-0.006452,46.513502],[-0.007675,46.512823],[-0.010422,46.518065],[-0.014799,46.516953],[-0.016194,46.516244],[-0.017245,46.515801],[-0.01834,46.515078],[-0.018855,46.512242],[-0.020292,46.510928],[-0.020764,46.510721],[-0.021494,46.50985],[-0.021773,46.508639],[-0.022996,46.505848],[-0.023017,46.504977],[-0.023618,46.503249],[-0.023082,46.503071],[-0.022502,46.50316],[-0.020957,46.503913],[-0.020593,46.503854],[-0.020163,46.504105],[-0.019198,46.504415],[-0.017009,46.503839],[-0.011516,46.49994],[-0.009872,46.498655],[-0.008928,46.498138],[-0.00764,46.496572],[-0.007318,46.496144],[-0.00661,46.495789],[-0.006653,46.495302],[-0.006653,46.494741],[-0.006825,46.494268],[-0.006503,46.494327],[-0.005923,46.493884],[-0.00646,46.493175],[-0.006138,46.492983],[-0.007018,46.491077],[-0.007447,46.490722],[-0.006503,46.489289],[-0.008885,46.487738],[-0.010709,46.487354],[-0.010773,46.487576],[-0.012447,46.487856],[-0.015515,46.488876],[-0.016609,46.489688],[-0.017747,46.489851],[-0.017983,46.491683],[-0.019849,46.492303],[-0.019184,46.494312],[-0.022424,46.493426],[-0.023004,46.493057],[-0.023562,46.492407],[-0.024291,46.492067],[-0.026008,46.490944],[-0.027403,46.490412],[-0.02952,46.490196],[-0.031708,46.48959],[-0.033446,46.488793],[-0.038467,46.486133],[-0.039948,46.486576],[-0.042459,46.487064],[-0.044905,46.486916],[-0.045999,46.486798],[-0.046793,46.486591],[-0.047909,46.486532],[-0.050055,46.486089],[-0.051063,46.486384],[-0.053552,46.486857],[-0.054089,46.486798],[-0.056127,46.485986],[-0.057994,46.485956],[-0.059217,46.485202],[-0.059711,46.483784],[-0.059668,46.483178],[-0.060397,46.483075],[-0.062114,46.482351],[-0.064152,46.482661],[-0.065805,46.483252],[-0.067886,46.483828],[-0.068615,46.483888],[-0.069774,46.484464],[-0.070418,46.484597],[-0.070804,46.484877],[-0.070203,46.485853],[-0.070869,46.487345],[-0.072135,46.488143],[-0.072864,46.488394],[-0.073551,46.488231],[-0.074109,46.488408],[-0.074452,46.488335],[-0.074903,46.488408],[-0.074988,46.48931],[-0.074709,46.489989],[-0.075568,46.490418],[-0.076448,46.490373],[-0.07752,46.490122],[-0.078057,46.490344],[-0.0784,46.491082],[-0.07913,46.491688],[-0.079902,46.49191],[-0.082198,46.492412],[-0.084365,46.492397],[-0.087069,46.491984],[-0.088228,46.491762],[-0.089236,46.491186],[-0.089987,46.491215],[-0.089859,46.490713],[-0.090781,46.489649],[-0.091682,46.488157],[-0.092455,46.487419],[-0.094493,46.486015],[-0.096854,46.486562],[-0.097197,46.486739],[-0.098077,46.486562],[-0.099257,46.486118],[-0.100823,46.485749],[-0.102669,46.485247],[-0.103634,46.484405],[-0.103935,46.483119],[-0.1046,46.482971],[-0.105544,46.483208],[-0.110072,46.483828],[-0.111016,46.483725],[-0.112496,46.483385],[-0.113998,46.483888],[-0.1152,46.484257],[-0.115715,46.484523],[-0.116316,46.484523],[-0.11726,46.484937],[-0.117646,46.48535],[-0.122453,46.487714],[-0.124749,46.487936],[-0.126959,46.488689],[-0.128547,46.48962],[-0.129512,46.490491],[-0.131336,46.491599],[-0.133246,46.492072],[-0.133718,46.492663],[-0.134469,46.491732],[-0.134512,46.490344],[-0.133847,46.489103],[-0.133911,46.488438],[-0.134104,46.488128],[-0.134104,46.487463],[-0.134984,46.486133],[-0.135971,46.485025],[-0.136164,46.484405],[-0.135993,46.483636],[-0.135478,46.482838],[-0.13816,46.481701],[-0.139619,46.481346],[-0.142451,46.482499],[-0.144383,46.483961],[-0.146336,46.48312],[-0.146529,46.483149],[-0.148095,46.482677],[-0.152537,46.481036],[-0.152752,46.481273],[-0.153009,46.481731],[-0.153374,46.481731],[-0.154618,46.480992],[-0.157687,46.480519],[-0.159511,46.480091],[-0.160519,46.480047],[-0.161442,46.47981],[-0.162043,46.479455],[-0.16303,46.479042],[-0.163738,46.477904],[-0.165283,46.476929],[-0.165605,46.476412],[-0.166377,46.475673],[-0.168029,46.475392],[-0.168544,46.47588],[-0.168566,46.476352],[-0.16921,46.476722],[-0.170089,46.476722],[-0.171076,46.476293],[-0.172149,46.476264],[-0.172664,46.476692],[-0.173544,46.477815],[-0.175754,46.479249],[-0.176398,46.47882],[-0.177428,46.478761],[-0.180432,46.478022],[-0.183264,46.478111],[-0.183994,46.479263],[-0.184681,46.479588],[-0.187642,46.479973],[-0.188135,46.479337],[-0.188285,46.478658],[-0.188371,46.477402],[-0.188865,46.474712],[-0.189101,46.474032],[-0.189144,46.473412],[-0.189573,46.47217],[-0.18953,46.471919],[-0.189732,46.471545],[-0.189753,46.471102],[-0.190354,46.469979],[-0.190182,46.469624],[-0.190547,46.469506],[-0.190762,46.468663],[-0.18926,46.468131],[-0.188294,46.46791],[-0.187629,46.467511],[-0.186663,46.467747],[-0.185591,46.46757],[-0.186642,46.467378],[-0.187436,46.467067],[-0.187479,46.466727],[-0.186835,46.466195],[-0.187543,46.466343],[-0.18808,46.466668],[-0.188552,46.466639],[-0.188251,46.467156],[-0.188595,46.467363],[-0.189796,46.467407],[-0.190097,46.467215],[-0.19059,46.467422],[-0.191127,46.46723],[-0.191127,46.467821],[-0.191491,46.467895],[-0.192414,46.467614],[-0.192908,46.46785],[-0.193358,46.467836],[-0.193938,46.468131],[-0.194603,46.46822],[-0.195225,46.468516],[-0.195933,46.468693],[-0.196384,46.468397],[-0.196834,46.468634],[-0.197542,46.468752],[-0.198272,46.468205],[-0.198358,46.467791],[-0.198186,46.46757],[-0.197607,46.467318],[-0.197628,46.467156],[-0.198079,46.466875],[-0.197521,46.466816],[-0.197478,46.466491],[-0.197628,46.466136],[-0.197521,46.465855],[-0.197821,46.465678],[-0.198165,46.465264],[-0.198143,46.464717],[-0.198293,46.464495],[-0.197993,46.464111],[-0.197306,46.464555],[-0.195955,46.464821],[-0.195676,46.463224],[-0.196255,46.460283],[-0.197242,46.460682],[-0.199731,46.461244],[-0.200954,46.461421],[-0.201298,46.461229],[-0.201426,46.460741],[-0.201083,46.460165],[-0.201169,46.459899],[-0.200976,46.459751],[-0.201276,46.459248],[-0.201062,46.458775],[-0.201426,46.458554],[-0.201834,46.458627],[-0.202091,46.458539],[-0.202242,46.45882],[-0.202585,46.45882],[-0.2028,46.458509],[-0.203293,46.458967],[-0.205267,46.459219],[-0.206147,46.459145],[-0.206941,46.458908],[-0.208443,46.459263],[-0.211318,46.458598],[-0.214086,46.458834],[-0.215588,46.459174],[-0.215975,46.458598],[-0.216704,46.457933],[-0.217284,46.457607],[-0.218893,46.458834],[-0.219022,46.459795],[-0.219579,46.460283],[-0.220502,46.460652],[-0.22076,46.460963],[-0.220459,46.461687],[-0.219923,46.462471],[-0.219923,46.463003],[-0.221017,46.464215],[-0.221039,46.465042],[-0.221275,46.465693],[-0.220974,46.466151],[-0.220116,46.466417],[-0.219022,46.468013],[-0.218142,46.468338],[-0.217112,46.469402],[-0.216318,46.470008],[-0.216747,46.470688],[-0.215266,46.47153],[-0.215975,46.472343],[-0.215309,46.472831],[-0.215266,46.47422],[-0.215009,46.475092],[-0.215181,46.477146],[-0.214794,46.47849],[-0.214751,46.478919],[-0.214494,46.479407],[-0.214558,46.479658],[-0.211876,46.479288],[-0.21134,46.479732],[-0.209623,46.480766],[-0.208722,46.481283],[-0.209494,46.481845],[-0.21031,46.481475],[-0.21076,46.481579],[-0.210632,46.482244],[-0.211919,46.482835],[-0.212627,46.482657],[-0.213035,46.482672],[-0.2137,46.482332],[-0.213764,46.482022],[-0.214151,46.481904],[-0.21458,46.481918],[-0.215331,46.481741],[-0.215996,46.481992],[-0.21649,46.481918],[-0.217734,46.482317],[-0.218592,46.482362],[-0.219665,46.482642],[-0.218828,46.484667],[-0.218399,46.485095],[-0.219987,46.48542],[-0.221296,46.485125],[-0.223077,46.485317],[-0.223742,46.485642],[-0.224236,46.485671],[-0.226038,46.484667],[-0.227476,46.48409],[-0.230587,46.483041],[-0.23181,46.483736],[-0.23254,46.484356],[-0.234106,46.485317],[-0.232497,46.486971],[-0.232282,46.487503],[-0.232476,46.488079],[-0.233527,46.488257],[-0.234192,46.488641],[-0.235759,46.4887],[-0.23784,46.489054],[-0.23917,46.489424],[-0.23975,46.489424],[-0.240951,46.489261],[-0.24181,46.48935],[-0.242239,46.48932],[-0.242925,46.489823],[-0.243269,46.489468],[-0.24432,46.489128],[-0.24608,46.489409],[-0.247625,46.489394],[-0.247646,46.489956],[-0.24814,46.490916],[-0.24844,46.491241],[-0.248419,46.491669],[-0.249534,46.492659],[-0.250994,46.491463],[-0.251659,46.491285],[-0.252732,46.491152],[-0.254513,46.492275],[-0.25713,46.493161],[-0.257495,46.493885],[-0.259834,46.494387],[-0.260649,46.494712],[-0.261937,46.495495],[-0.262388,46.496071],[-0.262109,46.496825],[-0.261679,46.497194],[-0.26198,46.497519],[-0.262023,46.497962],[-0.260478,46.499439],[-0.259577,46.499543],[-0.258976,46.499796],[-0.258976,46.500829],[-0.26007,46.502055],[-0.260714,46.502247],[-0.261443,46.502971],[-0.261572,46.503385],[-0.26213,46.503975],[-0.262216,46.504359],[-0.262538,46.505054],[-0.26286,46.505187],[-0.263031,46.50563],[-0.263568,46.505836],[-0.264211,46.506279],[-0.264662,46.506427],[-0.265005,46.506073],[-0.265563,46.505999],[-0.267108,46.506279],[-0.268932,46.50563],[-0.269426,46.506309],[-0.269726,46.507727],[-0.269705,46.508746],[-0.269597,46.509277],[-0.269812,46.50972],[-0.26758,46.510518],[-0.266572,46.510533],[-0.266057,46.510252],[-0.26507,46.510237],[-0.263675,46.51068],[-0.261915,46.510725],[-0.261594,46.511921],[-0.261036,46.512571],[-0.259555,46.5139],[-0.259512,46.514549],[-0.259083,46.515125],[-0.258525,46.515361],[-0.258332,46.515627],[-0.258504,46.516203],[-0.258396,46.516469],[-0.258976,46.516809],[-0.259813,46.516882],[-0.261358,46.517635],[-0.262109,46.518152],[-0.262666,46.518551],[-0.263568,46.518521],[-0.264211,46.51858],[-0.264726,46.518374],[-0.265542,46.518713],[-0.266314,46.519289],[-0.26655,46.519673],[-0.267494,46.520293],[-0.267602,46.520721],[-0.268267,46.52115],[-0.268589,46.521607],[-0.269812,46.520884],[-0.270327,46.520205],[-0.271099,46.519732],[-0.271743,46.519717],[-0.27288,46.520131],[-0.273352,46.520042],[-0.275369,46.520603],[-0.274748,46.521512],[-0.273203,46.522546],[-0.272366,46.522678],[-0.272924,46.523048],[-0.272517,46.523491],[-0.271229,46.525395],[-0.270543,46.525129],[-0.269362,46.524421],[-0.268912,46.525395],[-0.268397,46.527698],[-0.269727,46.529219],[-0.270843,46.529986],[-0.271465,46.530178],[-0.272495,46.531005],[-0.271444,46.531182],[-0.2711,46.531093],[-0.270543,46.531182],[-0.270156,46.531522],[-0.269255,46.531403],[-0.26844,46.531448],[-0.267946,46.531403],[-0.26756,46.531861],[-0.267109,46.532186],[-0.267517,46.532643],[-0.268204,46.533042],[-0.268397,46.533603],[-0.26889,46.5344],[-0.269062,46.535345],[-0.269555,46.536467],[-0.269019,46.537352],[-0.269126,46.538444],[-0.26977,46.538666],[-0.270307,46.539064],[-0.270242,46.539581],[-0.269577,46.540216],[-0.269041,46.541249],[-0.268397,46.542016],[-0.267603,46.541972],[-0.267174,46.542341],[-0.266745,46.542548],[-0.266637,46.543743],[-0.2658,46.543345],[-0.26535,46.543035],[-0.263676,46.543463],[-0.261552,46.544274],[-0.261444,46.544732],[-0.260264,46.545972],[-0.259728,46.546149],[-0.259256,46.54699],[-0.259513,46.54699],[-0.260136,46.547521],[-0.258676,46.548628],[-0.257818,46.549484],[-0.258161,46.54972],[-0.25932,46.549868],[-0.258355,46.551063],[-0.257453,46.551432],[-0.255114,46.552199],[-0.251896,46.553955],[-0.253312,46.554339],[-0.254256,46.554855],[-0.258054,46.554767],[-0.259706,46.554516],[-0.2605,46.554531],[-0.265457,46.554472],[-0.265843,46.555224],[-0.268397,46.554796],[-0.269963,46.555298],[-0.271701,46.555416],[-0.27316,46.555091],[-0.274748,46.555003],[-0.276057,46.555888],[-0.278074,46.557895],[-0.27889,46.558308],[-0.281228,46.559164],[-0.283718,46.559665],[-0.284211,46.559518],[-0.28479,46.55971],[-0.285177,46.559414],[-0.285499,46.559414],[-0.286164,46.559783],[-0.287258,46.560152],[-0.286743,46.56148],[-0.285863,46.563],[-0.285499,46.564268],[-0.284769,46.564859],[-0.284318,46.565596],[-0.283482,46.565685],[-0.283203,46.566113],[-0.282537,46.565714],[-0.281314,46.566452],[-0.279104,46.568104],[-0.27919,46.568488],[-0.278847,46.569181],[-0.280435,46.570656],[-0.281078,46.570376],[-0.282022,46.570405],[-0.283331,46.57073],[-0.28479,46.570818],[-0.28743,46.570612],[-0.289254,46.569771],[-0.292429,46.569269],[-0.297279,46.569314],[-0.297193,46.568679],[-0.296978,46.567352],[-0.297,46.565552],[-0.299274,46.565522],[-0.299811,46.565832],[-0.300669,46.566776],[-0.302836,46.567381],[-0.304145,46.568045],[-0.305132,46.568443],[-0.305368,46.568753],[-0.305411,46.56921],[-0.305068,46.569668],[-0.304682,46.569815],[-0.304553,46.570125],[-0.305004,46.570346],[-0.305969,46.571349],[-0.307922,46.57182],[-0.310647,46.571894],[-0.310797,46.571658],[-0.311548,46.571023],[-0.312771,46.569179],[-0.313115,46.56822],[-0.313694,46.567645],[-0.314145,46.567424],[-0.316376,46.56558],[-0.316998,46.565521],[-0.318458,46.565122],[-0.319509,46.564975],[-0.322835,46.564886],[-0.323779,46.565255],[-0.324251,46.565683],[-0.324981,46.56589],[-0.325753,46.565904],[-0.327255,46.565757],[-0.328307,46.565919],[-0.329594,46.566494],[-0.330903,46.566981],[-0.332469,46.567291],[-0.333499,46.567203],[-0.335302,46.566701],[-0.334207,46.565624],[-0.333735,46.564444],[-0.333886,46.563514],[-0.334701,46.563057],[-0.335645,46.561744],[-0.336954,46.560224],[-0.337104,46.558985],[-0.338971,46.558159],[-0.339507,46.557436],[-0.341052,46.556226],[-0.34352,46.555296],[-0.343499,46.555119],[-0.348477,46.55596],[-0.349013,46.55627],[-0.350022,46.557096],[-0.351867,46.557908],[-0.35279,46.558159],[-0.354292,46.558365],[-0.355665,46.558764],[-0.357468,46.559619],[-0.358283,46.561272],[-0.358562,46.561537],[-0.358734,46.562673],[-0.364913,46.563927],[-0.366544,46.563647],[-0.36839,46.563072],[-0.368797,46.563219],[-0.370707,46.564591],[-0.371029,46.564783],[-0.371801,46.565624],[-0.372917,46.565993],[-0.375878,46.566878],[-0.380256,46.568766],[-0.382015,46.569283],[-0.384075,46.570374],[-0.385341,46.571392],[-0.388216,46.573074],[-0.389375,46.57356],[-0.390942,46.574637],[-0.391671,46.574858],[-0.392615,46.575035],[-0.39401,46.57564],[-0.396456,46.576923],[-0.397615,46.577351],[-0.398881,46.577558],[-0.399696,46.577853],[-0.400876,46.578605],[-0.40225,46.579018],[-0.402507,46.579637],[-0.406391,46.579401],[-0.407657,46.58036],[-0.409202,46.581348],[-0.411713,46.58154],[-0.414845,46.58095],[-0.41506,46.581967],[-0.414674,46.583428],[-0.415081,46.585197],[-0.412936,46.586053],[-0.412807,46.586333],[-0.412313,46.586274],[-0.411927,46.58648],[-0.411777,46.586746],[-0.408966,46.58825],[-0.410253,46.5894],[-0.411112,46.590359],[-0.411562,46.590506],[-0.412206,46.590506],[-0.413043,46.590712],[-0.412871,46.591199],[-0.412464,46.591759],[-0.412228,46.592305],[-0.411112,46.592939],[-0.410704,46.592983],[-0.409996,46.593426],[-0.409932,46.593721],[-0.410082,46.593883],[-0.410683,46.593603],[-0.410897,46.593883],[-0.41064,46.594782],[-0.41109,46.595077],[-0.410489,46.595785],[-0.409181,46.596566],[-0.408687,46.597097],[-0.408236,46.597407],[-0.406949,46.598645],[-0.409502,46.600473],[-0.408859,46.60155],[-0.410833,46.602419],[-0.412228,46.60326],[-0.412142,46.603702],[-0.413494,46.604174],[-0.414073,46.604542],[-0.414953,46.604852],[-0.417013,46.605736],[-0.417227,46.606768],[-0.416948,46.606842],[-0.417506,46.607225],[-0.418128,46.608124],[-0.418579,46.608154],[-0.4186,46.609127],[-0.418429,46.609613],[-0.416262,46.609613],[-0.416047,46.610159],[-0.415382,46.610704],[-0.414309,46.610984],[-0.412893,46.611765],[-0.412421,46.6115],[-0.411348,46.611441],[-0.40961,46.611603],[-0.40903,46.611942],[-0.408644,46.612134],[-0.406928,46.613947],[-0.406541,46.613932],[-0.405683,46.613239],[-0.404996,46.613033],[-0.404417,46.612959],[-0.403902,46.613844],[-0.401971,46.61545],[-0.400619,46.616983],[-0.399868,46.617617],[-0.39901,46.616968],[-0.396907,46.616305],[-0.394461,46.61573],[-0.39416,46.617632],[-0.392873,46.618752],[-0.390062,46.61943],[-0.390276,46.619695],[-0.392508,46.620756],[-0.393388,46.620859],[-0.393624,46.62108],[-0.393516,46.621994],[-0.393559,46.622466],[-0.391778,46.622657],[-0.391156,46.62276],[-0.388903,46.622333],[-0.387809,46.622024],[-0.387079,46.622451],[-0.386371,46.62251],[-0.385749,46.622363],[-0.384268,46.622363],[-0.383582,46.622643],[-0.382165,46.623704],[-0.381114,46.624116],[-0.379977,46.62416],[-0.377724,46.623792],[-0.376071,46.623821],[-0.375578,46.623659],[-0.375235,46.62307],[-0.375041,46.622333],[-0.374634,46.622097],[-0.373754,46.621832],[-0.372359,46.621876],[-0.369977,46.621272],[-0.369334,46.620889],[-0.368926,46.620579],[-0.367145,46.620859],[-0.36693,46.620034],[-0.365707,46.619813],[-0.365321,46.619297],[-0.364463,46.61915],[-0.363948,46.619415],[-0.363562,46.620152],[-0.363175,46.620063],[-0.363154,46.61968],[-0.36236,46.619651],[-0.360386,46.619076],[-0.359377,46.618722],[-0.358905,46.618442],[-0.358606,46.618982],[-0.357919,46.619409],[-0.357533,46.619984],[-0.357147,46.620353],[-0.357619,46.621134],[-0.357211,46.622607],[-0.351589,46.623565],[-0.351525,46.622018],[-0.349701,46.622003],[-0.348993,46.6219],[-0.348843,46.622106],[-0.348607,46.622047],[-0.348542,46.622637],[-0.348135,46.622814],[-0.346675,46.622725],[-0.346397,46.623138],[-0.344294,46.622681],[-0.342641,46.622254],[-0.338951,46.622401],[-0.336927,46.622433],[-0.335661,46.623096],[-0.333622,46.623774],[-0.333064,46.624172],[-0.331884,46.62457],[-0.332206,46.625218],[-0.327571,46.625822],[-0.32549,46.62566],[-0.325619,46.62538],[-0.326091,46.625056],[-0.32476,46.624422],[-0.324717,46.624069],[-0.324245,46.624083],[-0.323494,46.624275],[-0.323044,46.623538],[-0.322872,46.623052],[-0.322142,46.622551],[-0.321992,46.622079],[-0.321456,46.622963],[-0.321906,46.623376],[-0.321821,46.624717],[-0.321885,46.625528],[-0.320319,46.625454],[-0.318838,46.625189],[-0.318194,46.625189],[-0.317915,46.623553],[-0.318817,46.623155],[-0.319847,46.623185],[-0.320125,46.62261],[-0.319761,46.622359],[-0.319589,46.621976],[-0.319246,46.621608],[-0.317465,46.621755],[-0.316091,46.622713],[-0.315276,46.622418],[-0.314589,46.622403],[-0.313216,46.622713],[-0.310877,46.622905],[-0.309246,46.622507],[-0.30695,46.623022],[-0.304569,46.623347],[-0.303217,46.623185],[-0.301114,46.623494],[-0.300299,46.623818],[-0.299204,46.626795],[-0.300041,46.626721],[-0.301007,46.626191],[-0.302552,46.624909],[-0.303989,46.624231],[-0.305191,46.624334],[-0.305169,46.625086],[-0.303067,46.626279],[-0.301951,46.62706],[-0.301822,46.62737],[-0.301693,46.627664],[-0.301779,46.627871],[-0.301135,46.628151],[-0.300706,46.628416],[-0.298646,46.629639],[-0.299022,46.630296],[-0.298507,46.630443],[-0.296704,46.630355],[-0.29546,46.631165],[-0.295481,46.631386],[-0.293035,46.63227],[-0.293035,46.633491],[-0.2934,46.633889],[-0.294172,46.634655],[-0.29561,46.637514],[-0.295632,46.638059],[-0.296297,46.638972],[-0.29546,46.638957],[-0.292391,46.63825],[-0.290138,46.638383],[-0.287928,46.638486],[-0.286662,46.638751],[-0.284495,46.639326],[-0.283637,46.639326],[-0.281019,46.638515],[-0.280075,46.638751],[-0.279603,46.639458],[-0.278852,46.640018],[-0.277006,46.641049],[-0.276642,46.64292],[-0.275139,46.64239],[-0.273444,46.644467],[-0.272779,46.644791],[-0.271899,46.645012],[-0.27102,46.645616],[-0.270505,46.645911],[-0.269947,46.647075],[-0.269625,46.647295],[-0.269217,46.646662],[-0.269045,46.645366],[-0.268466,46.643952],[-0.268552,46.643053],[-0.267393,46.641241],[-0.265805,46.639915],[-0.265612,46.639974],[-0.265247,46.639812],[-0.26469,46.6399],[-0.264926,46.640401],[-0.264582,46.641005],[-0.263681,46.641904],[-0.263745,46.643038],[-0.263638,46.643554],[-0.263853,46.644777],[-0.263359,46.645189],[-0.262501,46.645366],[-0.261535,46.64538],[-0.260162,46.645631],[-0.259282,46.645543],[-0.257308,46.645852],[-0.255398,46.646264],[-0.253768,46.647148],[-0.253617,46.647561],[-0.252716,46.64843],[-0.251922,46.648503],[-0.251944,46.649019],[-0.251622,46.650124],[-0.25145,46.651405],[-0.251171,46.651759],[-0.250528,46.65167],[-0.249927,46.650772],[-0.249605,46.651302]]],"type":"MultiLineString"},"properties":{"geo_point":{"lon":-0.15492144743745728,"lat":46.610602692488655},"name":"Tour des Marches de Gâtine (Deux-Sèvres, Vienne) (2020)","code_gr":null}}]}