{"type":"FeatureCollection","features":[{"type":"Feature","geometry":{"coordinates":[[[0.929023,48.740197],[0.931362,48.740268],[0.93353,48.740876],[0.934023,48.742518],[0.933465,48.74273],[0.933186,48.743055],[0.933294,48.744145],[0.933744,48.745376],[0.934259,48.745942],[0.935246,48.746451],[0.935461,48.746932],[0.934924,48.747527],[0.934345,48.748701],[0.934345,48.749267],[0.934152,48.749819],[0.934817,48.750385],[0.934903,48.750894],[0.936748,48.753101],[0.936834,48.754091],[0.936105,48.755548],[0.935718,48.756652],[0.935911,48.757769],[0.93574,48.760499],[0.935933,48.762112],[0.936534,48.76354],[0.936555,48.764644],[0.936169,48.76627],[0.93662,48.767147],[0.936641,48.767854],[0.937928,48.771814],[0.938315,48.772507],[0.939109,48.773228],[0.940632,48.774232],[0.942778,48.774826],[0.945288,48.775166],[0.947241,48.775632],[0.948035,48.776],[0.948636,48.776905],[0.949365,48.777527],[0.948979,48.777612],[0.946962,48.779266],[0.94619,48.779181],[0.945503,48.779379],[0.944752,48.780228],[0.944216,48.780581],[0.944151,48.780977],[0.94396,48.78137],[0.944947,48.784254],[0.946771,48.785159],[0.947823,48.786516],[0.949368,48.787619],[0.950419,48.788227],[0.952415,48.788863],[0.953037,48.789231],[0.949672,48.792225],[0.948062,48.79566],[0.947419,48.795462],[0.946796,48.795053],[0.942698,48.801187],[0.942977,48.802473],[0.942376,48.802699],[0.940445,48.802798],[0.940037,48.804282],[0.938793,48.806105],[0.938707,48.806628],[0.937977,48.807363],[0.939458,48.807264],[0.940488,48.809242],[0.939222,48.809454],[0.938578,48.809822],[0.938407,48.810232],[0.937076,48.811065],[0.936797,48.811871],[0.936411,48.812168],[0.935767,48.814711],[0.930843,48.817332],[0.926691,48.820066],[0.92521,48.819783],[0.924652,48.820136],[0.924094,48.820094],[0.922614,48.8183],[0.92094,48.81871],[0.919996,48.819232],[0.919824,48.820447],[0.919438,48.82056],[0.919245,48.821592],[0.914717,48.821125],[0.914932,48.822312],[0.914395,48.825053],[0.913494,48.827186],[0.913172,48.829051],[0.913601,48.830011],[0.913194,48.83172],[0.912722,48.83261],[0.912679,48.833684],[0.912378,48.834729],[0.912443,48.835223],[0.912357,48.835703],[0.913644,48.835972],[0.912983,48.836561],[0.913718,48.836872],[0.914597,48.836915],[0.91567,48.836886],[0.916443,48.836915],[0.917237,48.836759],[0.917966,48.836703],[0.918481,48.836166],[0.919189,48.835799],[0.920048,48.835926],[0.922129,48.83594],[0.924103,48.836448],[0.925691,48.836448],[0.927493,48.836251],[0.928931,48.835898],[0.92994,48.835926],[0.930262,48.834471],[0.931141,48.834203],[0.933695,48.834288],[0.934768,48.83481],[0.936184,48.835982],[0.937664,48.836604],[0.938136,48.83659],[0.93833,48.835234],[0.938265,48.834429],[0.939875,48.834796],[0.939875,48.834485],[0.942471,48.834852],[0.947964,48.835121],[0.949681,48.832861],[0.950732,48.833242],[0.953479,48.834005],[0.955195,48.835022],[0.957212,48.835389],[0.959036,48.835771],[0.96086,48.8357],[0.96159,48.835177],[0.963113,48.834626],[0.963993,48.835799],[0.964637,48.835799],[0.966933,48.835432],[0.968456,48.835912],[0.969958,48.83618],[0.970108,48.83553],[0.970795,48.835234],[0.971503,48.834754],[0.972662,48.834132],[0.97425,48.834754],[0.975366,48.835008],[0.975816,48.835333],[0.978477,48.836632],[0.981524,48.837931],[0.983047,48.839683],[0.985322,48.840417],[0.983856,48.841891],[0.983362,48.842004],[0.984349,48.843472],[0.984414,48.844277],[0.985508,48.845675],[0.986152,48.847031],[0.987053,48.848217],[0.98613,48.848513],[0.986838,48.848683],[0.987503,48.849163],[0.990186,48.850024],[0.992546,48.850081],[0.992997,48.849855],[0.993619,48.849219],[0.994134,48.848866],[0.994284,48.848669],[0.995421,48.848429],[0.998297,48.8472],[0.999863,48.846367],[1.001,48.845717],[1.001902,48.844941],[1.002331,48.844828],[1.002953,48.844319],[1.004476,48.844009],[1.005978,48.844164],[1.006257,48.843289],[1.007352,48.843034],[1.008768,48.842413],[1.009669,48.8423],[1.010742,48.842921],[1.010764,48.843571],[1.011622,48.844447],[1.015098,48.847313],[1.015978,48.847468],[1.018274,48.847214],[1.019432,48.846875],[1.020291,48.846579],[1.020162,48.847567],[1.021964,48.847737],[1.022437,48.847991],[1.02323,48.848047],[1.022801,48.848655],[1.024561,48.849022],[1.028273,48.850278],[1.029131,48.850674],[1.029839,48.850688],[1.031041,48.850984],[1.031556,48.851337],[1.032543,48.851295],[1.032994,48.85145],[1.032758,48.852015],[1.033444,48.85265],[1.035805,48.8533],[1.036127,48.852876],[1.036835,48.852566],[1.038058,48.852241],[1.039281,48.852086],[1.041019,48.851253],[1.04177,48.852665],[1.04265,48.853272],[1.044259,48.855404],[1.045182,48.856914],[1.045718,48.857987],[1.046276,48.858679],[1.044795,48.859597],[1.041984,48.860811],[1.042843,48.861531],[1.043379,48.861643],[1.043508,48.862251],[1.044044,48.862632],[1.044323,48.863676],[1.044001,48.865356],[1.045654,48.865441],[1.047134,48.86561],[1.047671,48.865271],[1.048529,48.865356],[1.049023,48.865878],[1.048937,48.866542],[1.04928,48.866923],[1.050117,48.866979],[1.051361,48.866612],[1.051812,48.866372],[1.052263,48.866542],[1.054795,48.866697],[1.05694,48.866274],[1.058464,48.866626],[1.059472,48.867092],[1.061189,48.868941],[1.063185,48.870635],[1.063807,48.870663],[1.065416,48.870833],[1.066897,48.871298],[1.069064,48.871566],[1.070158,48.871369],[1.072025,48.87151],[1.072218,48.871355],[1.072776,48.871665],[1.074107,48.870536],[1.073592,48.870367],[1.073613,48.870042],[1.071489,48.869675],[1.071317,48.869082],[1.07063,48.868885],[1.070051,48.868377],[1.069815,48.867487],[1.069279,48.867078],[1.069021,48.866753],[1.067197,48.866076],[1.06621,48.864961],[1.065159,48.86465],[1.063764,48.863846],[1.061575,48.862208],[1.060159,48.861771],[1.059301,48.861404],[1.05591,48.861375],[1.054945,48.860952],[1.051962,48.860006],[1.050911,48.859808],[1.049709,48.858764],[1.04928,48.857973],[1.04913,48.856321],[1.049065,48.855601],[1.04943,48.854336],[1.049366,48.85243],[1.049087,48.851356],[1.0484,48.85065],[1.047971,48.850255],[1.047671,48.849535],[1.048701,48.848024],[1.048486,48.847163],[1.050074,48.846866],[1.049173,48.845906],[1.049044,48.843986],[1.048872,48.843449],[1.049473,48.841542],[1.04958,48.840723],[1.050396,48.839932],[1.051404,48.839029],[1.05149,48.837927],[1.051297,48.837465],[1.051533,48.836349],[1.052713,48.835615],[1.0537,48.835177],[1.055202,48.833976],[1.055889,48.833199],[1.057863,48.83012],[1.058142,48.829315],[1.058249,48.828044],[1.059472,48.824314],[1.060481,48.822887],[1.065137,48.824936],[1.06679,48.825614],[1.068334,48.826645],[1.070931,48.82721],[1.07327,48.828072],[1.075995,48.824823],[1.077763,48.821969],[1.079759,48.817448],[1.08175,48.814735],[1.084303,48.815979],[1.085548,48.817293],[1.090032,48.812333],[1.089796,48.811471],[1.093208,48.81222],[1.100074,48.811824],[1.105675,48.811104],[1.107585,48.811358],[1.105975,48.808461],[1.105997,48.806695],[1.107649,48.806878],[1.108271,48.806426],[1.109108,48.806242],[1.109473,48.80538],[1.110267,48.804646],[1.110427,48.800136],[1.112288,48.798055],[1.11359,48.797162],[1.111873,48.79343],[1.111977,48.792311],[1.11084,48.789272],[1.112428,48.789102],[1.117599,48.789286],[1.124358,48.789144],[1.127877,48.788621],[1.129036,48.78848],[1.131353,48.787731],[1.132748,48.786289],[1.133692,48.785836],[1.133971,48.785002],[1.135055,48.784076],[1.136385,48.782493],[1.136815,48.781814],[1.13748,48.781248],[1.137501,48.780937],[1.138124,48.78016],[1.137415,48.779509],[1.138038,48.778109],[1.139261,48.777388],[1.139819,48.776752],[1.139518,48.776271],[1.139862,48.77572],[1.140505,48.775281],[1.141492,48.775168],[1.142351,48.774306],[1.144346,48.773033],[1.145612,48.771732],[1.146213,48.771081],[1.147565,48.770332],[1.147737,48.769752],[1.148402,48.769342],[1.148724,48.768691],[1.148809,48.767828],[1.148938,48.767206],[1.148015,48.76565],[1.147994,48.765056],[1.148767,48.764194],[1.14941,48.76425],[1.148638,48.763501],[1.148144,48.763402],[1.147136,48.76251],[1.146492,48.762539],[1.14381,48.76186],[1.142308,48.761195],[1.141707,48.761138],[1.141106,48.760926],[1.141299,48.761153],[1.140076,48.760926],[1.138596,48.761124],[1.138016,48.760983],[1.136772,48.760375],[1.134969,48.759922],[1.133832,48.759795],[1.13336,48.760261],[1.133811,48.760742],[1.134283,48.760785],[1.134497,48.761421],[1.13439,48.762157],[1.133853,48.762864],[1.134433,48.764264],[1.134261,48.76459],[1.132759,48.764689],[1.132394,48.764901],[1.130506,48.764971],[1.127931,48.765608],[1.123876,48.766923],[1.120593,48.768111],[1.117653,48.768875],[1.114756,48.769087],[1.112739,48.769031],[1.110894,48.768719],[1.109435,48.768677],[1.107632,48.76896],[1.106087,48.768705],[1.103705,48.767673],[1.101581,48.766202],[1.101409,48.765863],[1.098384,48.764321],[1.097783,48.764222],[1.095551,48.764392],[1.089243,48.764363],[1.087977,48.764095],[1.083042,48.762426],[1.082291,48.761959],[1.083106,48.76145],[1.083557,48.760672],[1.084866,48.759314],[1.086046,48.758493],[1.085896,48.758083],[1.086046,48.757517],[1.084908,48.75705],[1.084254,48.756649],[1.083471,48.755682],[1.082806,48.755342],[1.082462,48.754111],[1.081711,48.75322],[1.080703,48.752979],[1.080081,48.75247],[1.079029,48.751381],[1.0786,48.75114],[1.077248,48.749853],[1.075617,48.749188],[1.074845,48.749061],[1.073987,48.748693],[1.072914,48.748495],[1.072184,48.748212],[1.071519,48.748198],[1.070382,48.748438],[1.068343,48.748763],[1.067206,48.748834],[1.066219,48.749556],[1.06506,48.751013],[1.061605,48.752541],[1.061284,48.753758],[1.059395,48.751098],[1.058258,48.750574],[1.057722,48.750037],[1.056949,48.749782],[1.056477,48.74916],[1.055941,48.748905],[1.054567,48.747844],[1.054138,48.747193],[1.05313,48.746217],[1.052572,48.746386],[1.052121,48.745849],[1.05019,48.746273],[1.049525,48.74616],[1.048945,48.746302],[1.047787,48.745184],[1.0468,48.744788],[1.046328,48.744533],[1.044547,48.74466],[1.043495,48.745014],[1.042401,48.744957],[1.0418,48.74466],[1.040942,48.743939],[1.040448,48.743967],[1.03974,48.744519],[1.039161,48.744009],[1.03429,48.741278],[1.033367,48.741505],[1.032316,48.74125],[1.031929,48.740854],[1.029312,48.739778],[1.028346,48.739411],[1.026801,48.738561],[1.022638,48.737302],[1.021351,48.736673],[1.019334,48.73547],[1.018003,48.7353],[1.017167,48.734918],[1.018261,48.734069],[1.018325,48.733205],[1.018604,48.732526],[1.018518,48.732243],[1.019055,48.731549],[1.019527,48.731578],[1.019634,48.731337],[1.018583,48.730955],[1.018132,48.730177],[1.017124,48.728492],[1.015965,48.727105],[1.014334,48.726581],[1.013133,48.726369],[1.01206,48.726383],[1.011652,48.726327],[1.010901,48.727558],[1.010601,48.728747],[1.010257,48.729271],[1.009614,48.729398],[1.007575,48.729525],[1.00736,48.729257],[1.005429,48.728973],[1.003691,48.729214],[1.00206,48.729893],[0.997597,48.729922],[0.997318,48.730771],[0.99734,48.731832],[0.994464,48.731903],[0.992834,48.732299],[0.992576,48.731634],[0.991589,48.731592],[0.990945,48.731408],[0.989551,48.731578],[0.988478,48.732073],[0.986847,48.733644],[0.984959,48.734154],[0.983972,48.7338],[0.982748,48.733644],[0.979873,48.734309],[0.979444,48.734734],[0.978779,48.737437],[0.977942,48.737182],[0.97571,48.735781],[0.974294,48.736885],[0.973135,48.73629],[0.97129,48.735625],[0.970496,48.735753],[0.968522,48.73547],[0.966484,48.73554],[0.964102,48.73605],[0.962771,48.73629],[0.962128,48.736163],[0.960583,48.735611],[0.957793,48.73496],[0.954403,48.733998],[0.952944,48.734125],[0.951935,48.734408],[0.950347,48.734182],[0.947279,48.73397],[0.945906,48.734054],[0.94376,48.733941],[0.941657,48.733573],[0.939683,48.732979],[0.937108,48.731748],[0.936979,48.732101],[0.937108,48.733106],[0.937516,48.733319],[0.937344,48.733856],[0.935391,48.73421],[0.933718,48.735526],[0.93213,48.735003],[0.931014,48.735257],[0.92992,48.734847],[0.929512,48.734437],[0.928761,48.734394],[0.928504,48.734578],[0.927774,48.73472],[0.926637,48.734592],[0.926014,48.734281],[0.924233,48.733163],[0.923032,48.73397],[0.921573,48.736135],[0.922173,48.736347],[0.921487,48.737267],[0.921251,48.738003]]],"type":"MultiLineString"},"properties":{"geo_point":{"lon":1.0223584896339721,"lat":48.796164976945825},"name":"Tour du Pays d'Avre et d'Iton (Eure) (2019)","code_gr":null}}]}