{"type":"FeatureCollection","features":[{"type":"Feature","geometry":{"coordinates":[[[1.397614,45.957407],[1.397128,45.956836],[1.395821,45.956186],[1.395111,45.956082],[1.394345,45.956121],[1.393635,45.956043],[1.393505,45.955576],[1.393,45.954914],[1.393056,45.954602],[1.393187,45.954381],[1.393019,45.953966],[1.392309,45.954134],[1.391861,45.954134],[1.39046,45.953018],[1.389899,45.952719],[1.389208,45.95242],[1.389395,45.952251],[1.389208,45.952043],[1.389003,45.951719],[1.388648,45.951342],[1.388087,45.951173],[1.387265,45.950602],[1.386033,45.949615],[1.385715,45.949511],[1.382633,45.949875],[1.383175,45.949134],[1.383249,45.948809],[1.383156,45.948654],[1.382184,45.948108],[1.381325,45.9479],[1.380354,45.946939],[1.38026,45.946705],[1.379812,45.946575],[1.379102,45.946199],[1.378953,45.9459],[1.379214,45.94516],[1.37927,45.943419],[1.378841,45.94312],[1.378355,45.943159],[1.377832,45.943562],[1.376898,45.944004],[1.376562,45.944289],[1.375833,45.944653],[1.374712,45.945017],[1.374245,45.945134],[1.373853,45.945432],[1.374003,45.946835],[1.373778,45.947212],[1.374003,45.947848],[1.374862,45.948472],[1.375086,45.949004],[1.375067,45.94968],[1.375142,45.950212],[1.375236,45.950914],[1.375179,45.951069],[1.374245,45.95068],[1.373255,45.950433],[1.372583,45.95029],[1.372434,45.949991],[1.371668,45.949797],[1.371219,45.949758],[1.369632,45.949394],[1.368361,45.948861],[1.367838,45.948459],[1.367409,45.948952],[1.366568,45.949134],[1.366194,45.949498],[1.365354,45.950147],[1.364756,45.95103],[1.364401,45.951849],[1.363841,45.952329],[1.363561,45.952797],[1.363318,45.953654],[1.362645,45.954225],[1.361767,45.955147],[1.360609,45.95594],[1.360273,45.956303],[1.360142,45.956732],[1.360179,45.956901],[1.360217,45.958004],[1.359937,45.95803],[1.359507,45.958472],[1.359768,45.959693],[1.359675,45.960485],[1.35947,45.960705],[1.357863,45.961238],[1.357452,45.961173],[1.356668,45.96129],[1.356201,45.961523],[1.35579,45.961523],[1.355192,45.961342],[1.354874,45.961108],[1.353754,45.960757],[1.35366,45.960589],[1.353361,45.960277],[1.352072,45.959796],[1.351419,45.95942],[1.350597,45.958199],[1.350485,45.957862],[1.350354,45.956849],[1.350204,45.956537],[1.349812,45.956342],[1.350428,45.955472],[1.350447,45.955199],[1.350447,45.954992],[1.350466,45.954706],[1.350298,45.954238],[1.349625,45.954082],[1.348448,45.953992],[1.347085,45.953758],[1.345609,45.953732],[1.345329,45.953641],[1.344152,45.953719],[1.343816,45.953693],[1.34305,45.953914],[1.342359,45.953901],[1.342022,45.954005],[1.341518,45.954005],[1.339837,45.954199],[1.33866,45.954563],[1.338137,45.954615],[1.337633,45.954511],[1.337278,45.954368],[1.336587,45.954706],[1.33625,45.954953],[1.335727,45.955043],[1.334252,45.954888],[1.333206,45.954576],[1.332795,45.954225],[1.332328,45.954056],[1.332197,45.95416],[1.331319,45.953992],[1.330646,45.954186],[1.330497,45.954979],[1.330161,45.955433],[1.329974,45.955849],[1.32947,45.956199],[1.32889,45.956563],[1.328928,45.957108],[1.328423,45.957537],[1.327097,45.958303],[1.326219,45.958212],[1.326182,45.958303],[1.326481,45.958667],[1.326462,45.959147],[1.32635,45.959394],[1.326032,45.959498],[1.32508,45.960212],[1.324164,45.960978],[1.324015,45.961368],[1.323828,45.962381],[1.323305,45.962991],[1.322558,45.963354],[1.322203,45.963627],[1.321717,45.963796],[1.321288,45.964289],[1.320933,45.964744],[1.320578,45.965016],[1.319849,45.965198],[1.319326,45.964056],[1.319196,45.96338],[1.318878,45.962718],[1.318897,45.962082],[1.318878,45.961692],[1.318897,45.961095],[1.317552,45.961744],[1.317197,45.962069],[1.31701,45.96251],[1.315702,45.962848],[1.315049,45.962887],[1.314694,45.962809],[1.313423,45.962238],[1.312153,45.961809],[1.31092,45.961666],[1.310453,45.961562],[1.310154,45.961095],[1.30965,45.960939],[1.309052,45.960965],[1.307147,45.961731],[1.305802,45.961835],[1.305372,45.962134],[1.305092,45.96216],[1.304532,45.962069],[1.303654,45.961511],[1.30328,45.961082],[1.303019,45.960498],[1.302944,45.959861],[1.302757,45.959744],[1.302309,45.959589],[1.301636,45.959186],[1.300329,45.958095],[1.29975,45.958329],[1.299357,45.958654],[1.298648,45.958524],[1.297975,45.958706],[1.297676,45.958939],[1.297078,45.958965],[1.296574,45.958784],[1.296462,45.958394],[1.295453,45.957978],[1.295136,45.957615],[1.294519,45.957407],[1.294071,45.95716],[1.293809,45.957147],[1.293641,45.957381],[1.29394,45.957615],[1.293697,45.957926],[1.293305,45.958056],[1.292931,45.958329],[1.292857,45.95903],[1.292595,45.959043],[1.292371,45.958446],[1.291997,45.958329],[1.290783,45.958693],[1.291138,45.958771],[1.291138,45.959082],[1.290223,45.960199],[1.289793,45.960602],[1.289793,45.961199],[1.289476,45.961459],[1.288859,45.961588],[1.288112,45.961666],[1.287327,45.961692],[1.28701,45.961913],[1.28686,45.96216],[1.286412,45.962277],[1.286076,45.962601],[1.28658,45.963147],[1.28686,45.963718],[1.287085,45.964445],[1.287794,45.965497],[1.288598,45.966263],[1.288859,45.966328],[1.290242,45.966211],[1.291269,45.966263],[1.292054,45.966523],[1.293249,45.966717],[1.293716,45.966925],[1.294332,45.967678],[1.295005,45.968094],[1.29564,45.968327],[1.29635,45.968457],[1.296686,45.968678],[1.296854,45.969678],[1.296649,45.970275],[1.296369,45.970599],[1.296238,45.971158],[1.296555,45.971638],[1.296499,45.972521],[1.296817,45.972975],[1.297153,45.973131],[1.297228,45.973469],[1.296817,45.973949],[1.29663,45.974728],[1.296742,45.975208],[1.296182,45.97539],[1.295453,45.976078],[1.295005,45.976091],[1.294631,45.97587],[1.294538,45.97526],[1.294202,45.975001],[1.293679,45.97491],[1.29338,45.97478],[1.292969,45.974455],[1.292483,45.974351],[1.292091,45.974105],[1.291306,45.974157],[1.289756,45.975208],[1.289009,45.976026],[1.28856,45.976662],[1.287944,45.977272],[1.286935,45.978077],[1.286263,45.978376],[1.285777,45.978661],[1.28531,45.979245],[1.284955,45.979284],[1.284544,45.979103],[1.284283,45.978791],[1.283984,45.978428],[1.283573,45.978583],[1.28333,45.97931],[1.28305,45.979557],[1.282545,45.979752],[1.282247,45.980102],[1.28234,45.981361],[1.282153,45.981699],[1.281611,45.981855],[1.280827,45.981816],[1.27922,45.98214],[1.278716,45.98301],[1.278716,45.983581],[1.278548,45.983931],[1.278081,45.984269],[1.277707,45.985048],[1.277539,45.98606],[1.277315,45.986852],[1.277315,45.987397],[1.277203,45.987929],[1.276474,45.98889],[1.276232,45.989811],[1.275335,45.991589],[1.275877,45.991446],[1.276568,45.991706],[1.277296,45.991914],[1.278006,45.992666],[1.278454,45.992991],[1.279127,45.993666],[1.279557,45.994431],[1.280304,45.994976],[1.281462,45.995353],[1.282078,45.995366],[1.2829,45.995599],[1.284451,45.996092],[1.285609,45.996495],[1.28673,45.996858],[1.285852,45.997299],[1.284357,45.997805],[1.283984,45.998052],[1.282527,45.998389],[1.28219,45.99883],[1.281238,45.999103],[1.28135,46.00005],[1.281462,46.000427],[1.281107,46.000465],[1.280827,46.000193],[1.280603,46.000271],[1.279538,46.000076],[1.278847,46.000375],[1.278809,46.00079],[1.27795,46.000933],[1.277539,46.001257],[1.275989,46.001127],[1.275148,46.001179],[1.274494,46.001348],[1.273878,46.001205],[1.273149,46.001244],[1.271225,46.00162],[1.270105,46.002049],[1.268629,46.002321],[1.267788,46.002386],[1.267134,46.002892],[1.266873,46.003528],[1.267956,46.004008],[1.268909,46.004345],[1.269395,46.004734],[1.269787,46.005435],[1.269806,46.005785],[1.269675,46.006473],[1.269768,46.007031],[1.270105,46.007563],[1.271506,46.009276],[1.27059,46.009289],[1.269694,46.009574],[1.268535,46.010443],[1.268087,46.010742],[1.267601,46.010858],[1.266948,46.011092],[1.266144,46.011092],[1.265715,46.01091],[1.26521,46.011027],[1.264687,46.01104],[1.263735,46.011183],[1.263081,46.010625],[1.262371,46.010573],[1.262035,46.010612],[1.261661,46.010508],[1.261344,46.010171],[1.261194,46.009924],[1.260933,46.009846],[1.260578,46.010028],[1.259924,46.010145],[1.259532,46.010119],[1.258747,46.009846],[1.258317,46.009937],[1.258112,46.010184],[1.258112,46.010755],[1.258374,46.010456],[1.258728,46.010508],[1.258859,46.010742],[1.258728,46.011364],[1.258747,46.011663],[1.259027,46.012117],[1.25942,46.012973],[1.259756,46.013907],[1.260335,46.014919],[1.26054,46.015581],[1.260652,46.016566],[1.260951,46.017332],[1.26125,46.017851],[1.261848,46.018162],[1.262576,46.018214],[1.262633,46.018447],[1.262931,46.018655],[1.263006,46.019368],[1.263847,46.020108],[1.264388,46.021094],[1.265136,46.021976],[1.265659,46.022754],[1.266649,46.023221],[1.267415,46.024103],[1.2679,46.024829],[1.268647,46.026035],[1.268573,46.026853],[1.268666,46.027566],[1.269581,46.027916],[1.270665,46.028928],[1.270628,46.029369],[1.270403,46.029926],[1.270011,46.030121],[1.269152,46.030199],[1.268928,46.030471],[1.269002,46.031081],[1.26889,46.031509],[1.268965,46.031794],[1.268498,46.032559],[1.268237,46.033415],[1.267545,46.0337],[1.266537,46.033804],[1.266182,46.033986],[1.265995,46.034219],[1.265715,46.034414],[1.265752,46.034634],[1.266126,46.034932],[1.266499,46.035295],[1.266817,46.035321],[1.267657,46.035101],[1.268349,46.03479],[1.268722,46.034867],[1.268647,46.035231],[1.268442,46.035529],[1.26861,46.036047],[1.268984,46.036112],[1.269413,46.036475],[1.269824,46.037668],[1.270366,46.038563],[1.270553,46.038939],[1.269768,46.039328],[1.269675,46.039652],[1.269862,46.040132],[1.269656,46.041299],[1.270198,46.041727],[1.270646,46.041844],[1.271393,46.041753],[1.272552,46.041999],[1.273112,46.042233],[1.273374,46.042557],[1.273486,46.043361],[1.273355,46.043879],[1.273075,46.044372],[1.272626,46.044541],[1.272421,46.044502],[1.27186,46.043983],[1.27031,46.043633],[1.269974,46.043698],[1.269806,46.043918],[1.269806,46.04445],[1.269544,46.044774],[1.269563,46.04502],[1.270422,46.046719],[1.270441,46.047212],[1.270142,46.047302],[1.269525,46.047354],[1.268666,46.047912],[1.268162,46.048119],[1.267751,46.048353],[1.266798,46.049221],[1.2662,46.049455],[1.265864,46.049701],[1.265472,46.049869],[1.265266,46.050103],[1.265472,46.050219],[1.265696,46.050647],[1.26607,46.050751],[1.266238,46.050971],[1.2662,46.051399],[1.26635,46.051736],[1.266331,46.052073],[1.266649,46.052734],[1.266817,46.052812],[1.266873,46.052968],[1.266462,46.053175],[1.265565,46.053383],[1.265528,46.053525],[1.26592,46.053642],[1.265696,46.053733],[1.265565,46.053914],[1.264613,46.053888],[1.264034,46.053953],[1.263753,46.053875],[1.26295,46.052877],[1.26267,46.052734],[1.262371,46.051918],[1.262334,46.051179],[1.262539,46.050855],[1.263081,46.049403],[1.262483,46.048054],[1.261829,46.047536],[1.261456,46.047069],[1.261007,46.046745],[1.260821,46.046447],[1.260185,46.045837],[1.259457,46.046058],[1.257496,46.047004],[1.256151,46.04738],[1.256281,46.048197],[1.255796,46.04878],[1.255534,46.049027],[1.255329,46.04939],[1.254974,46.049623],[1.255179,46.049895],[1.254843,46.050544],[1.252882,46.051334],[1.252975,46.05162],[1.253143,46.052073],[1.25305,46.05241],[1.252657,46.052747],[1.252601,46.053253],[1.25277,46.053642],[1.253218,46.054083],[1.250304,46.054925],[1.249911,46.055742],[1.249874,46.056183],[1.249949,46.056585],[1.249108,46.057362],[1.24965,46.05849],[1.250547,46.059177],[1.250771,46.060007],[1.250117,46.060784],[1.249071,46.062119],[1.248062,46.062042],[1.248137,46.062262],[1.248697,46.062703],[1.249295,46.06291],[1.250024,46.063649],[1.250173,46.064141],[1.250136,46.06479],[1.250061,46.065075],[1.250061,46.065282],[1.250528,46.06536],[1.2512,46.065204],[1.251798,46.065217],[1.252545,46.065813],[1.25305,46.066449],[1.25376,46.066552],[1.25432,46.066876],[1.2546,46.067615],[1.254469,46.067861],[1.25404,46.067926],[1.253311,46.067978],[1.252564,46.068185],[1.252246,46.068185],[1.251779,46.068367],[1.251275,46.068807],[1.25107,46.069403],[1.251238,46.069948],[1.251387,46.070311],[1.251369,46.070699],[1.2512,46.070946],[1.250266,46.071231],[1.24993,46.07149],[1.249295,46.07171],[1.248697,46.071736],[1.248118,46.071607],[1.247857,46.071386],[1.246829,46.071036],[1.245634,46.070907],[1.24569,46.07171],[1.245839,46.071982],[1.246007,46.07289],[1.24668,46.073538],[1.247464,46.074134],[1.248174,46.07425],[1.249108,46.074483],[1.249725,46.074756],[1.25021,46.074717],[1.25092,46.074276],[1.251574,46.074108],[1.253012,46.074108],[1.253498,46.073939],[1.254675,46.073874],[1.256188,46.073952],[1.258056,46.07368],[1.259457,46.073071],[1.260522,46.072721],[1.262446,46.072527],[1.264519,46.072151],[1.267078,46.071749],[1.267396,46.072319],[1.267994,46.072773],[1.26861,46.073032],[1.270852,46.073395],[1.271001,46.073278],[1.271692,46.071425],[1.270777,46.070168],[1.270609,46.069429],[1.270273,46.06895],[1.270217,46.06838],[1.27031,46.068004],[1.271057,46.067382],[1.271188,46.067187],[1.269787,46.066824],[1.269301,46.066306],[1.269563,46.065645],[1.269806,46.064491],[1.269469,46.064025],[1.269451,46.063442],[1.269768,46.063143],[1.270385,46.063001],[1.271319,46.063143],[1.272253,46.063092],[1.273037,46.062832],[1.273542,46.062495],[1.273953,46.062638],[1.274868,46.062664],[1.275428,46.062521],[1.27597,46.062301],[1.277726,46.062236],[1.278492,46.062119],[1.278921,46.061782],[1.279314,46.060901],[1.279743,46.060097],[1.279986,46.059462],[1.280154,46.059177],[1.280173,46.058309],[1.280846,46.057738],[1.281873,46.058179],[1.282265,46.058114],[1.282975,46.057272],[1.283068,46.056714],[1.283237,46.056507],[1.281723,46.055962],[1.282078,46.055509],[1.282564,46.055392],[1.283965,46.055275],[1.284395,46.055068],[1.284339,46.054718],[1.282938,46.054666],[1.282545,46.054472],[1.282508,46.054251],[1.282807,46.053953],[1.282359,46.052864],[1.281929,46.052449],[1.281705,46.051879],[1.28178,46.051425],[1.282265,46.051036],[1.282639,46.051036],[1.283162,46.051127],[1.283629,46.050894],[1.28389,46.05114],[1.284469,46.051153],[1.284787,46.050958],[1.285553,46.051101],[1.286244,46.050803],[1.287253,46.050531],[1.287682,46.050544],[1.287851,46.050466],[1.287421,46.050038],[1.286674,46.049649],[1.28673,46.049377],[1.286898,46.049195],[1.287626,46.049027],[1.287664,46.048716],[1.287197,46.048314],[1.286767,46.048171],[1.285983,46.048301],[1.285553,46.048197],[1.285329,46.047704],[1.285534,46.047082],[1.286674,46.046213],[1.287066,46.046135],[1.287402,46.045798],[1.287794,46.045422],[1.288336,46.045163],[1.288803,46.044657],[1.289083,46.044165],[1.289438,46.045085],[1.29112,46.045513],[1.29211,46.045539],[1.292707,46.045422],[1.292875,46.045539],[1.293697,46.045383],[1.294202,46.045539],[1.294613,46.045513],[1.295229,46.045345],[1.295958,46.045293],[1.297228,46.044489],[1.298218,46.04432],[1.298909,46.04432],[1.299656,46.044398],[1.299993,46.044398],[1.301169,46.044606],[1.304252,46.044813],[1.305036,46.044528],[1.305746,46.044502],[1.306344,46.044787],[1.307054,46.044839],[1.307352,46.045046],[1.307745,46.044774],[1.308193,46.044865],[1.309034,46.045552],[1.308903,46.045824],[1.309239,46.046939],[1.309071,46.047367],[1.309034,46.047899],[1.308847,46.048288],[1.308604,46.048353],[1.308268,46.048534],[1.307857,46.048651],[1.30739,46.048936],[1.307184,46.049338],[1.306848,46.04948],[1.306923,46.049688],[1.307371,46.049701],[1.307539,46.049843],[1.308305,46.049662],[1.308903,46.04939],[1.308772,46.049701],[1.308249,46.050271],[1.308305,46.050647],[1.30866,46.05079],[1.309239,46.050764],[1.3098,46.050479],[1.310976,46.050193],[1.311182,46.050582],[1.311014,46.050907],[1.311313,46.051036],[1.311686,46.051127],[1.311668,46.050764],[1.313031,46.050453],[1.313704,46.050219],[1.314189,46.04996],[1.314806,46.050051],[1.31559,46.050181],[1.315833,46.049986],[1.316057,46.049895],[1.316244,46.049779],[1.317066,46.05031],[1.317645,46.050803],[1.318785,46.050894],[1.319569,46.050725],[1.319681,46.050362],[1.320634,46.049856],[1.320746,46.049584],[1.320727,46.04926],[1.320503,46.049001],[1.320484,46.048741],[1.320671,46.048547],[1.321101,46.048651],[1.3214,46.048962],[1.321773,46.049001],[1.322334,46.048716],[1.322838,46.048236],[1.323249,46.048067],[1.323548,46.048093],[1.323866,46.048171],[1.324669,46.047989],[1.324986,46.048093],[1.325005,46.048365],[1.325304,46.048547],[1.32579,46.04843],[1.325976,46.048067],[1.326275,46.047989],[1.326724,46.047989],[1.327209,46.047873],[1.327415,46.047873],[1.328125,46.047445],[1.328479,46.047562],[1.328648,46.047899],[1.329096,46.048015],[1.329301,46.048573],[1.329862,46.049338],[1.330347,46.049973],[1.330889,46.049843],[1.330927,46.048845],[1.330422,46.04808],[1.330534,46.047302],[1.330889,46.046823],[1.331468,46.046693],[1.331991,46.046473],[1.332608,46.046382],[1.333243,46.046006],[1.33328,46.045526],[1.333747,46.045137],[1.334438,46.044826],[1.335074,46.044904],[1.335316,46.04502],[1.336344,46.044826],[1.336792,46.044619],[1.337371,46.044541],[1.337707,46.044242],[1.338268,46.044048],[1.338735,46.044333],[1.339052,46.04423],[1.339146,46.043854],[1.33909,46.043672],[1.339351,46.043335],[1.339706,46.043283],[1.340136,46.043452],[1.340547,46.043542],[1.341126,46.043646],[1.341686,46.043529],[1.342172,46.043348],[1.342807,46.043335],[1.343162,46.043114],[1.343143,46.042596],[1.343685,46.042103],[1.344451,46.041675],[1.344507,46.041325],[1.344731,46.040832],[1.343685,46.040819],[1.343031,46.040651],[1.342882,46.04034],[1.343087,46.039808],[1.342602,46.038952],[1.342583,46.038719],[1.343199,46.038421],[1.343741,46.037954],[1.344488,46.037565],[1.344862,46.037591],[1.344862,46.037967],[1.345123,46.037941],[1.345254,46.036333],[1.345142,46.036009],[1.345142,46.035412],[1.345422,46.03466],[1.345291,46.033609],[1.34546,46.033156],[1.346674,46.034258],[1.347066,46.034958],[1.347477,46.035256],[1.347907,46.035295],[1.348131,46.035464],[1.348318,46.034777],[1.348673,46.034115],[1.348654,46.033622],[1.348953,46.033441],[1.349326,46.032792],[1.349677,46.032711],[1.349921,46.032869],[1.349986,46.033219],[1.350262,46.033332],[1.35036,46.033987],[1.350295,46.034777],[1.350766,46.034743],[1.351921,46.035059],[1.352588,46.035138],[1.353238,46.03498],[1.353824,46.034799],[1.35436,46.034878],[1.354653,46.035025],[1.354783,46.03568],[1.355092,46.035386],[1.355661,46.035228],[1.356344,46.03472],[1.356247,46.034393],[1.355986,46.034156],[1.355368,46.033749],[1.354994,46.033287],[1.354946,46.033038],[1.355141,46.032903],[1.355141,46.032632],[1.355255,46.032496],[1.355352,46.032169],[1.355596,46.031706],[1.35558,46.031142],[1.355759,46.030667],[1.356182,46.030092],[1.35693,46.029301],[1.357417,46.028996],[1.358214,46.028838],[1.358783,46.028951],[1.359304,46.028906],[1.359792,46.028737],[1.360019,46.028353],[1.36067,46.028533],[1.361223,46.028838],[1.361743,46.029312],[1.361857,46.029538],[1.362068,46.029561],[1.362426,46.029211],[1.362572,46.028861],[1.362979,46.029019],[1.363353,46.029087],[1.363792,46.029595],[1.364101,46.029629],[1.364524,46.029572],[1.365337,46.02929],[1.366296,46.029121],[1.367077,46.028793],[1.367744,46.028387],[1.368167,46.028375],[1.368362,46.028443],[1.368736,46.028793],[1.369224,46.028906],[1.369256,46.029019],[1.368931,46.029256],[1.369061,46.029787],[1.369321,46.030216],[1.369842,46.030679],[1.369744,46.031074],[1.369907,46.031288],[1.369842,46.03139],[1.370167,46.031525],[1.370069,46.031819],[1.369435,46.032067],[1.368557,46.032587],[1.368183,46.03297],[1.367923,46.033467],[1.367532,46.033941],[1.3675,46.034495],[1.367581,46.034957],[1.367353,46.035375],[1.367581,46.035646],[1.368004,46.035578],[1.368329,46.035364],[1.368606,46.035296],[1.36885,46.035319],[1.369159,46.035488],[1.369467,46.035544],[1.370004,46.035375],[1.370573,46.035691],[1.370801,46.035962],[1.370768,46.03647],[1.371126,46.037001],[1.371403,46.037441],[1.37111,46.037435],[1.369298,46.037205],[1.368444,46.037278],[1.368147,46.037484],[1.367869,46.037859],[1.366788,46.038645],[1.366073,46.038669],[1.36576,46.039419],[1.36616,46.041476],[1.366073,46.04173],[1.366352,46.042069],[1.366771,46.042783],[1.367381,46.043412],[1.367276,46.043956],[1.36806,46.044549],[1.368513,46.044573],[1.369106,46.044488],[1.370047,46.044126],[1.370779,46.044005],[1.371267,46.044113],[1.371842,46.044476],[1.372487,46.044743],[1.373097,46.045505],[1.373289,46.046049],[1.373638,46.046605],[1.373254,46.047501],[1.373324,46.047767],[1.373777,46.048118],[1.373864,46.048565],[1.37416,46.048892],[1.375572,46.049509],[1.375764,46.049726],[1.375712,46.050658],[1.375956,46.05096],[1.376618,46.051033],[1.377211,46.051202],[1.377873,46.051081],[1.378082,46.051142],[1.378727,46.051577],[1.379267,46.051662],[1.37986,46.051686],[1.380191,46.051892],[1.380139,46.052315],[1.380278,46.052581],[1.380208,46.05292],[1.37972,46.053222],[1.379563,46.05344],[1.379685,46.054045],[1.379616,46.054408],[1.37972,46.054649],[1.380243,46.055049],[1.380261,46.055315],[1.379999,46.055436],[1.37918,46.05569],[1.378919,46.05604],[1.378692,46.056585],[1.378274,46.057395],[1.378099,46.057976],[1.378221,46.058496],[1.378605,46.05927],[1.37864,46.059826],[1.378901,46.060201],[1.378919,46.060527],[1.378413,46.060999],[1.378343,46.061471],[1.378117,46.061858],[1.378117,46.0621],[1.378221,46.062644],[1.378134,46.063369],[1.378117,46.064131],[1.377803,46.06476],[1.378169,46.065449],[1.378256,46.0658],[1.378814,46.066211],[1.379459,46.066453],[1.379964,46.066538],[1.380191,46.066864],[1.380034,46.067457],[1.380226,46.068485],[1.379511,46.068751],[1.378553,46.068835],[1.377803,46.06944],[1.377054,46.069815],[1.377001,46.070552],[1.377402,46.070939],[1.377733,46.071133],[1.377803,46.071459],[1.377594,46.071967],[1.377786,46.072233],[1.378065,46.073152],[1.378553,46.074337],[1.37857,46.074663],[1.378622,46.074821],[1.378953,46.074821],[1.379215,46.075026],[1.379912,46.074929],[1.380156,46.075268],[1.38094,46.07522],[1.381393,46.075256],[1.381655,46.075183],[1.381603,46.07476],[1.381847,46.074349],[1.382387,46.07395],[1.382945,46.073829],[1.383886,46.073841],[1.385402,46.074119],[1.385977,46.074144],[1.387668,46.073878],[1.38894,46.073998],[1.389969,46.074361],[1.394762,46.074301],[1.3945,46.075764],[1.394518,46.076296],[1.394239,46.076949],[1.394326,46.077481],[1.394971,46.078],[1.395563,46.078629],[1.395441,46.07881],[1.39403,46.078943],[1.393559,46.07927],[1.393245,46.079391],[1.393228,46.079633],[1.392722,46.079947],[1.392287,46.08014],[1.391642,46.081168],[1.392496,46.082087],[1.393611,46.083018],[1.394082,46.083779],[1.394204,46.08436],[1.393437,46.084843],[1.393228,46.085302],[1.393298,46.085726],[1.394413,46.087007],[1.395215,46.088143],[1.396069,46.088603],[1.396539,46.089062],[1.396923,46.089304],[1.39687,46.089509],[1.397463,46.090065],[1.397777,46.089968],[1.39816,46.090017],[1.398788,46.089884],[1.399799,46.089473],[1.400461,46.089146],[1.400862,46.089533],[1.401855,46.089727],[1.402796,46.090077],[1.403215,46.089171],[1.402796,46.08859],[1.403372,46.088143],[1.403929,46.087781],[1.403947,46.086959],[1.404086,46.086535],[1.404104,46.085931],[1.404295,46.085617],[1.403964,46.085097],[1.403528,46.084952],[1.40318,46.084638],[1.4025,46.084408],[1.40243,46.083574],[1.402273,46.083465],[1.401175,46.08355],[1.400705,46.08332],[1.400374,46.08303],[1.399816,46.082655],[1.399589,46.082329],[1.399485,46.082002],[1.399223,46.0817],[1.399276,46.081434],[1.399433,46.081277],[1.399799,46.081349],[1.401053,46.080588],[1.401297,46.079584],[1.401193,46.079052],[1.40135,46.078037],[1.401263,46.077553],[1.401123,46.07719],[1.401228,46.076804],[1.40182,46.076525],[1.402239,46.076259],[1.402692,46.076235],[1.403755,46.076683],[1.404156,46.077045],[1.404278,46.077215],[1.404714,46.077674],[1.404992,46.078097],[1.405602,46.078387],[1.406212,46.078508],[1.406944,46.078049],[1.410099,46.078653],[1.410709,46.081071],[1.415345,46.081785],[1.41714,46.081422],[1.418639,46.081506],[1.420051,46.081446],[1.421132,46.081361],[1.421916,46.081434],[1.422613,46.082147],[1.423293,46.082534],[1.423572,46.082486],[1.424164,46.082534],[1.424496,46.082788],[1.424984,46.082873],[1.425855,46.0828],[1.426221,46.082498],[1.426656,46.082355],[1.427686,46.082295],[1.428587,46.082176],[1.42906,46.082206],[1.429081,46.082668],[1.429853,46.083129],[1.430132,46.083441],[1.430326,46.083992],[1.430883,46.084602],[1.43127,46.084528],[1.431785,46.084543],[1.431935,46.084721],[1.432621,46.084766],[1.432815,46.084826],[1.432922,46.084409],[1.432686,46.084096],[1.43275,46.083188],[1.433415,46.083561],[1.434596,46.083709],[1.435454,46.083888],[1.435926,46.083888],[1.436377,46.083784],[1.437471,46.083739],[1.437964,46.083843],[1.438715,46.083754],[1.439295,46.083828],[1.440132,46.083828],[1.441355,46.083903],[1.441827,46.084186],[1.442256,46.083933],[1.443157,46.083873],[1.443758,46.083575],[1.445475,46.08237],[1.445968,46.081819],[1.446419,46.081164],[1.446869,46.080733],[1.447685,46.080405],[1.449487,46.079795],[1.449895,46.079572],[1.450195,46.079497],[1.450474,46.079155],[1.451011,46.079155],[1.452963,46.078589],[1.454358,46.078589],[1.455195,46.078485],[1.455774,46.07844],[1.458006,46.077845],[1.458821,46.077518],[1.460774,46.077324],[1.461375,46.077175],[1.462533,46.076654],[1.463113,46.077533],[1.46528,46.078783],[1.465688,46.07911],[1.466203,46.07914],[1.466889,46.078857],[1.467361,46.078857],[1.468713,46.079691],[1.469014,46.080286],[1.470215,46.08048],[1.470366,46.080628],[1.469164,46.081149],[1.469164,46.081685],[1.469679,46.082608],[1.470859,46.082965],[1.471696,46.083114],[1.472747,46.083769],[1.473413,46.084409],[1.473842,46.085094],[1.474335,46.085555],[1.474679,46.086284],[1.474979,46.086567],[1.475236,46.086582],[1.475515,46.086775],[1.47558,46.0874],[1.475708,46.087817],[1.474915,46.088591],[1.474872,46.089409],[1.474721,46.089781],[1.474335,46.090362],[1.473477,46.091046],[1.472833,46.092326],[1.472533,46.093085],[1.472232,46.093487],[1.471481,46.094097],[1.471052,46.094662],[1.469142,46.096269],[1.470044,46.096448],[1.473327,46.096031],[1.473541,46.095079],[1.473842,46.094528],[1.473863,46.094231],[1.473584,46.093874],[1.473691,46.09368],[1.474442,46.09371],[1.474915,46.093442],[1.47543,46.093383],[1.476245,46.093576],[1.476889,46.09435],[1.476932,46.095094],[1.476846,46.095808],[1.477125,46.096061],[1.477726,46.096254],[1.478133,46.096091],[1.47867,46.095317],[1.479378,46.094514],[1.480193,46.093963],[1.480944,46.093755],[1.481609,46.093769],[1.482017,46.093948],[1.482339,46.09429],[1.482704,46.094871],[1.48279,46.096731],[1.48309,46.096939],[1.483734,46.096984],[1.48442,46.096909],[1.484935,46.096879],[1.485364,46.096731],[1.485751,46.096879],[1.48618,46.096939],[1.486802,46.097251],[1.48751,46.097519],[1.487746,46.0974],[1.488068,46.096894],[1.488369,46.096998],[1.488068,46.097222],[1.488154,46.097623],[1.488476,46.097668],[1.488755,46.09743],[1.488905,46.097162],[1.48912,46.097058],[1.489549,46.097013],[1.489656,46.097073],[1.490064,46.097073],[1.490278,46.096894],[1.490686,46.096924],[1.490965,46.096775],[1.49178,46.09685],[1.49236,46.096984],[1.493175,46.096597],[1.493711,46.096463],[1.493969,46.096016],[1.494656,46.095957],[1.494591,46.095674],[1.49472,46.095258],[1.495299,46.094707],[1.495085,46.094156],[1.494977,46.09374],[1.494162,46.093427],[1.493754,46.092758],[1.493175,46.092267],[1.493733,46.091865],[1.494741,46.092802],[1.495364,46.092758],[1.496093,46.092966],[1.496565,46.092981],[1.497381,46.092639],[1.49869,46.092326],[1.499376,46.092043],[1.499956,46.091418],[1.500084,46.091121],[1.500256,46.091061],[1.501393,46.091716],[1.501887,46.091508],[1.503367,46.090451],[1.503968,46.089915],[1.504397,46.088948],[1.505105,46.088055],[1.50605,46.087862],[1.506307,46.087609],[1.506586,46.086984],[1.508131,46.086076],[1.508324,46.085406],[1.508904,46.085183],[1.509311,46.08484],[1.509569,46.08484],[1.50974,46.083933],[1.510577,46.083531],[1.509976,46.083308],[1.510084,46.082846],[1.511242,46.08301],[1.512702,46.083159],[1.513259,46.083069],[1.513667,46.082697],[1.512723,46.081328],[1.512101,46.080792],[1.511242,46.079631],[1.511092,46.079185],[1.51062,46.078664],[1.510341,46.078158],[1.509697,46.077265],[1.50929,46.076431],[1.508474,46.074273],[1.50841,46.073528],[1.509182,46.072635],[1.509612,46.071772],[1.510255,46.0714],[1.510513,46.071042],[1.510491,46.069881],[1.511114,46.069866],[1.512766,46.069613],[1.514032,46.069077],[1.515169,46.068363],[1.51607,46.067901],[1.516414,46.066859],[1.517122,46.066383],[1.517851,46.065668],[1.517723,46.06537],[1.517594,46.064328],[1.517959,46.06412],[1.518238,46.064075],[1.518366,46.063852],[1.518087,46.06342],[1.518173,46.063092],[1.518946,46.06208],[1.519418,46.061767],[1.520104,46.061514],[1.520298,46.0601],[1.520512,46.059876],[1.520963,46.059712],[1.522186,46.059787],[1.522915,46.059698],[1.523623,46.059683],[1.523817,46.059385],[1.523902,46.059117],[1.52283,46.058804],[1.522615,46.058417],[1.523173,46.057926],[1.525083,46.057122],[1.525254,46.056571],[1.525555,46.056347],[1.52607,46.056288],[1.527078,46.055588],[1.527765,46.055365],[1.528709,46.055454],[1.529052,46.055156],[1.52931,46.055022],[1.531026,46.055171],[1.531756,46.055379],[1.532249,46.055439],[1.532528,46.055662],[1.532443,46.056169],[1.532207,46.056541],[1.532357,46.056958],[1.532679,46.057539],[1.532142,46.058745],[1.532743,46.059266],[1.533387,46.059444],[1.533687,46.05943],[1.534202,46.059668],[1.53549,46.059757],[1.535983,46.059296],[1.536455,46.058998],[1.536756,46.058536],[1.537399,46.058134],[1.537893,46.058015],[1.538236,46.057985],[1.538579,46.057598],[1.539438,46.057285],[1.540318,46.057151],[1.539803,46.056332],[1.539459,46.056154],[1.539524,46.055752],[1.539352,46.05535],[1.539502,46.054977],[1.539524,46.054724],[1.539931,46.054054],[1.540596,46.053414],[1.541541,46.05252],[1.542163,46.052088],[1.543021,46.05118],[1.543815,46.050167],[1.543708,46.049914],[1.543515,46.049542],[1.543558,46.04844],[1.543536,46.047889],[1.54388,46.047606],[1.544523,46.047442],[1.544545,46.047099],[1.54433,46.047055],[1.544223,46.046638],[1.544051,46.046325],[1.544073,46.04558],[1.544373,46.045402],[1.544094,46.045089],[1.543686,46.045044],[1.543643,46.044583],[1.543429,46.044761],[1.543064,46.04561],[1.542721,46.045506],[1.540918,46.045223],[1.539996,46.044761],[1.539545,46.044329],[1.539652,46.043808],[1.539845,46.043331],[1.539867,46.042765],[1.539717,46.042006],[1.539481,46.041544],[1.53918,46.041321],[1.538858,46.040784],[1.538644,46.040204],[1.538022,46.039191],[1.537893,46.038774],[1.537678,46.037791],[1.537764,46.037329],[1.537592,46.036673],[1.537378,46.036107],[1.536841,46.035243],[1.53667,46.034737],[1.536691,46.03435],[1.53652,46.033307],[1.536369,46.031996],[1.536434,46.031415],[1.535876,46.03137],[1.535747,46.031191],[1.535339,46.031102],[1.534996,46.030923],[1.534674,46.031087],[1.534181,46.031504],[1.53388,46.0307],[1.534245,46.030387],[1.534266,46.030208],[1.533365,46.030655],[1.533322,46.030372],[1.533344,46.029702],[1.533279,46.02921],[1.533065,46.028987],[1.532764,46.028808],[1.532421,46.028793],[1.531885,46.028495],[1.531198,46.028599],[1.530962,46.028495],[1.530147,46.027795],[1.529374,46.026633],[1.528881,46.025888],[1.528752,46.025113],[1.528838,46.023832],[1.528752,46.023727],[1.529181,46.023087],[1.52961,46.023012],[1.529975,46.023102],[1.530297,46.022714],[1.530447,46.022282],[1.53049,46.021537],[1.530147,46.020837],[1.529911,46.020509],[1.529567,46.019898],[1.529675,46.019272],[1.529546,46.018915],[1.529675,46.018632],[1.529782,46.018304],[1.530318,46.018393],[1.530533,46.017931],[1.530426,46.017588],[1.530833,46.016829],[1.530833,46.016411],[1.530651,46.016139],[1.530362,46.016033],[1.530074,46.015675],[1.530029,46.015485],[1.529816,46.015232],[1.529771,46.014874],[1.529619,46.0146],[1.529103,46.014347],[1.528739,46.014073],[1.528663,46.013346],[1.528754,46.012862],[1.528466,46.012524],[1.527813,46.011903],[1.527464,46.011734],[1.526888,46.011302],[1.526736,46.010712],[1.527161,46.009911],[1.527028,46.00934],[1.526338,46.008893],[1.526246,46.008574],[1.526637,46.007999],[1.527051,46.006848],[1.527166,46.006114],[1.526292,46.004293],[1.525602,46.004133],[1.524475,46.004165],[1.523555,46.003909],[1.522314,46.003174],[1.521969,46.002807],[1.521739,46.002168],[1.520888,46.001928],[1.519853,46.000858],[1.518749,46.000459],[1.518703,46.000219],[1.517599,46.000139],[1.514701,45.999868],[1.514816,45.999516],[1.515,45.999532],[1.515069,45.99934],[1.51477,45.998861],[1.514816,45.997599],[1.515023,45.9972],[1.515782,45.996704],[1.516288,45.996624],[1.51661,45.996672],[1.51707,45.996816],[1.518611,45.996129],[1.51891,45.995778],[1.519554,45.995426],[1.520152,45.995346],[1.52098,45.994947],[1.520713,45.994239],[1.520242,45.993796],[1.520743,45.993522],[1.520652,45.993163],[1.520637,45.992657],[1.520986,45.992267],[1.520788,45.991899],[1.520895,45.991192],[1.521668,45.990718],[1.522351,45.990486],[1.522852,45.990486],[1.523595,45.990033],[1.524157,45.989179],[1.524931,45.989],[1.525249,45.988831],[1.526266,45.989063],[1.526448,45.989253],[1.526645,45.989242],[1.526918,45.988926],[1.5266,45.98785],[1.526767,45.987555],[1.527131,45.987376],[1.527996,45.987302],[1.528633,45.987018],[1.529058,45.986617],[1.529877,45.986469],[1.531243,45.985594],[1.532472,45.984825],[1.532578,45.985057],[1.532987,45.983391],[1.533761,45.981904],[1.533701,45.981714],[1.533928,45.981556],[1.534034,45.980976],[1.534611,45.979226],[1.534641,45.978878],[1.534975,45.978024],[1.534945,45.977223],[1.534808,45.976938],[1.534763,45.975198],[1.534808,45.974144],[1.534656,45.973659],[1.534429,45.9731],[1.534353,45.972499],[1.534626,45.971771],[1.535005,45.971212],[1.535203,45.970253],[1.533845,45.968113],[1.533532,45.967277],[1.533375,45.96672],[1.532887,45.966465],[1.531109,45.965847],[1.530412,45.965956],[1.530011,45.965835],[1.529906,45.965411],[1.529697,45.965435],[1.529279,45.965157],[1.52893,45.965132],[1.527397,45.965532],[1.52656,45.965338],[1.525776,45.965278],[1.525131,45.965314],[1.524573,45.965157],[1.521296,45.963218],[1.519815,45.963085],[1.518246,45.963146],[1.517863,45.963315],[1.516608,45.963327],[1.516312,45.962697],[1.515806,45.962467],[1.514534,45.962419],[1.514185,45.96254],[1.513384,45.962334],[1.511954,45.962152],[1.510961,45.961643],[1.510386,45.96111],[1.509636,45.961631],[1.509131,45.961801],[1.508556,45.96174],[1.507771,45.961886],[1.506534,45.96168],[1.506098,45.961692],[1.505854,45.961789],[1.505366,45.96111],[1.505523,45.959826],[1.505854,45.959135],[1.50683,45.957766],[1.5069,45.957403],[1.506865,45.957124],[1.50622,45.955646],[1.50561,45.954931],[1.505262,45.95487],[1.5027,45.953852],[1.501706,45.952822],[1.501026,45.952471],[1.500678,45.952023],[1.499092,45.951174],[1.497854,45.950217],[1.493044,45.947127],[1.491231,45.947163],[1.490918,45.947333],[1.49022,45.947333],[1.488512,45.947163],[1.485637,45.946921],[1.483772,45.946485],[1.481767,45.945794],[1.480216,45.945139],[1.479937,45.944703],[1.479868,45.943843],[1.479449,45.943358],[1.4787,45.943249],[1.477114,45.942776],[1.476451,45.942522],[1.476051,45.941952],[1.475563,45.941794],[1.475092,45.94194],[1.474743,45.943115],[1.474377,45.943467],[1.474203,45.94383],[1.473157,45.944158],[1.4726,45.944255],[1.472007,45.944533],[1.471258,45.944339],[1.471136,45.943734],[1.470874,45.943661],[1.470334,45.943867],[1.469968,45.944218],[1.468608,45.944218],[1.46697,45.943879],[1.466482,45.9436],[1.465332,45.943394],[1.46453,45.943418],[1.463049,45.943176],[1.462003,45.942849],[1.461724,45.942667],[1.46019,45.942388],[1.459667,45.942316],[1.459075,45.94217],[1.458604,45.94217],[1.457785,45.941903],[1.457175,45.941831],[1.45599,45.941916],[1.454787,45.94177],[1.453375,45.941503],[1.452992,45.941261],[1.452051,45.940922],[1.451511,45.940776],[1.450657,45.940182],[1.45029,45.939855],[1.449924,45.939576],[1.449715,45.939298],[1.44982,45.938534],[1.449384,45.938061],[1.44846,45.937904],[1.447606,45.937492],[1.447432,45.937092],[1.44623,45.937322],[1.445794,45.937601],[1.445376,45.93811],[1.444556,45.93857],[1.443458,45.939055],[1.442674,45.939285],[1.441611,45.939722],[1.440042,45.939916],[1.438578,45.940231],[1.438038,45.940158],[1.437236,45.939819],[1.436783,45.939867],[1.436312,45.940073],[1.434779,45.941358],[1.433942,45.940994],[1.432652,45.93977],[1.431467,45.93897],[1.431694,45.938158],[1.431572,45.937782],[1.430909,45.937383],[1.428347,45.937601],[1.427319,45.93731],[1.425942,45.937152],[1.42331,45.93714],[1.422735,45.937031],[1.421986,45.93697],[1.421341,45.937225],[1.420992,45.937673],[1.419825,45.937504],[1.41911,45.936995],[1.418552,45.937528],[1.418848,45.938001],[1.41918,45.938546],[1.419215,45.939334],[1.419459,45.939891],[1.420016,45.94051],[1.420557,45.940764],[1.420975,45.941152],[1.421951,45.94171],[1.422857,45.942691],[1.423519,45.943237],[1.42453,45.944024],[1.425018,45.944279],[1.425437,45.944715],[1.425628,45.944994],[1.425628,45.945236],[1.426273,45.945891],[1.426779,45.946763],[1.42636,45.947151],[1.425384,45.948266],[1.427859,45.949151],[1.428591,45.949987],[1.429445,45.952386],[1.42941,45.952774],[1.429881,45.953562],[1.429968,45.954519],[1.429881,45.95521],[1.430073,45.955597],[1.430753,45.955912],[1.430944,45.956191],[1.430979,45.956458],[1.430787,45.956615],[1.430683,45.957306],[1.429846,45.957863],[1.430369,45.958348],[1.431659,45.958675],[1.430613,45.960444],[1.429864,45.960601],[1.428626,45.961219],[1.427633,45.961122],[1.42697,45.961001],[1.426866,45.961498],[1.42467,45.962285],[1.424077,45.962382],[1.423711,45.9626],[1.423572,45.962806],[1.422735,45.963388],[1.422543,45.963824],[1.422491,45.96426],[1.422962,45.964866],[1.423293,45.965145],[1.423328,45.965532],[1.423084,45.965726],[1.422822,45.966853],[1.422108,45.967713],[1.421811,45.968294],[1.421428,45.96873],[1.421742,45.968912],[1.42162,45.969336],[1.421271,45.969809],[1.421027,45.970305],[1.419633,45.971916],[1.419685,45.972231],[1.419581,45.972413],[1.419546,45.972704],[1.420034,45.973067],[1.421149,45.974339],[1.421254,45.974799],[1.420435,45.974472],[1.419528,45.976846],[1.417872,45.976967],[1.414927,45.977343],[1.413236,45.978421],[1.412469,45.978663],[1.411929,45.978554],[1.411668,45.978276],[1.411964,45.977319],[1.412138,45.975805],[1.412835,45.974896],[1.413236,45.974121],[1.413672,45.973431],[1.413777,45.972801],[1.413585,45.972316],[1.413812,45.971589],[1.412034,45.970281],[1.411319,45.970111],[1.410343,45.970378],[1.409158,45.97039],[1.408286,45.970002],[1.406857,45.969518],[1.407084,45.969239],[1.407642,45.968718],[1.40792,45.968088],[1.408042,45.967628],[1.407938,45.967204],[1.407572,45.966925],[1.406927,45.966635],[1.405986,45.966283],[1.405864,45.965762],[1.405585,45.965447],[1.405393,45.964939],[1.405289,45.964309],[1.405045,45.963933],[1.4044,45.963436],[1.404069,45.963473],[1.403476,45.962879],[1.402064,45.962334],[1.401995,45.961449],[1.401681,45.961025],[1.400722,45.960456],[1.39938,45.95979],[1.399345,45.959547],[1.399345,45.95882],[1.398491,45.958748],[1.397968,45.958905],[1.397724,45.958711],[1.39769,45.95779]]],"type":"MultiLineString"},"properties":{"geo_point":{"lon":1.3892381105885023,"lat":46.01946558097938},"name":"Tour des Monts d'Ambazac (Haute-Vienne) (2020)","code_gr":null}}]}