{"type":"FeatureCollection","features":[{"type":"Feature","geometry":{"coordinates":[[[0.19681,43.078136],[0.197732,43.078449],[0.198977,43.079092],[0.199535,43.079468],[0.199964,43.079907],[0.200458,43.080079],[0.200908,43.080079],[0.202968,43.079844],[0.203526,43.079311],[0.20402,43.079092],[0.204191,43.078653],[0.20462,43.078684],[0.204899,43.078637],[0.2055,43.078825],[0.205886,43.078574],[0.206358,43.078574],[0.206702,43.078841],[0.206552,43.079233],[0.206916,43.079719],[0.20741,43.079891],[0.208311,43.079766],[0.20859,43.079891],[0.208611,43.080189],[0.208912,43.080408],[0.209363,43.080565],[0.209706,43.081004],[0.210264,43.081349],[0.211143,43.081615],[0.212002,43.081725],[0.212495,43.082258],[0.212967,43.082305],[0.213568,43.081991],[0.21404,43.081505],[0.214534,43.082571],[0.214705,43.08312],[0.215349,43.083652],[0.216229,43.085314],[0.216873,43.086003],[0.216851,43.086269],[0.216272,43.08652],[0.215135,43.087241],[0.214641,43.08862],[0.214469,43.090218],[0.21477,43.090673],[0.215499,43.090971],[0.215585,43.091206],[0.215499,43.091503],[0.215671,43.091973],[0.216229,43.092428],[0.218332,43.092506],[0.219319,43.092788],[0.219147,43.093368],[0.219491,43.094449],[0.220563,43.095499],[0.221566,43.096211],[0.222204,43.096488],[0.223883,43.097333],[0.225378,43.097787],[0.226114,43.097871],[0.227378,43.097803],[0.228206,43.098072],[0.22931,43.09819],[0.231472,43.098106],[0.233059,43.09824],[0.234255,43.098206],[0.23506,43.098475],[0.235221,43.099046],[0.235543,43.099432],[0.23713,43.100591],[0.238164,43.100994],[0.239107,43.101145],[0.238831,43.101447],[0.238233,43.101565],[0.237567,43.102321],[0.236371,43.102572],[0.236302,43.102858],[0.23759,43.1041],[0.238049,43.105091],[0.238509,43.105091],[0.239199,43.105376],[0.242396,43.105477],[0.242626,43.10536],[0.24304,43.105511],[0.245018,43.105612],[0.245409,43.105729],[0.246536,43.105645],[0.246651,43.105914],[0.247686,43.1063],[0.248467,43.106132],[0.248858,43.106283],[0.249065,43.106585],[0.249663,43.106636],[0.250123,43.107039],[0.250238,43.107223],[0.250813,43.107341],[0.250951,43.10761],[0.251572,43.107677],[0.252354,43.108315],[0.253274,43.108499],[0.253941,43.108667],[0.254355,43.108701],[0.2547,43.108852],[0.255735,43.108869],[0.256586,43.109221],[0.257897,43.109322],[0.258747,43.107408],[0.259506,43.106837],[0.259805,43.106199],[0.260518,43.105763],[0.260748,43.105444],[0.261714,43.104822],[0.262289,43.104722],[0.262749,43.104503],[0.263347,43.104453],[0.264543,43.103849],[0.264934,43.103748],[0.265256,43.103496],[0.266245,43.103378],[0.266797,43.102757],[0.268797,43.103261],[0.269303,43.103529],[0.269809,43.103261],[0.270108,43.103345],[0.271373,43.103446],[0.271764,43.102975],[0.272408,43.102539],[0.273075,43.102321],[0.27365,43.102472],[0.274731,43.101548],[0.274869,43.10133],[0.274731,43.100944],[0.274662,43.100658],[0.274455,43.100675],[0.27411,43.100809],[0.273811,43.100692],[0.272891,43.100121],[0.272799,43.099953],[0.272408,43.100087],[0.271948,43.099919],[0.271442,43.099919],[0.271373,43.099651],[0.27089,43.099835],[0.270361,43.099919],[0.269832,43.099735],[0.269165,43.099819],[0.268338,43.099567],[0.267924,43.099332],[0.266728,43.098962],[0.266728,43.098425],[0.266406,43.098509],[0.265923,43.098324],[0.265532,43.097837],[0.26498,43.097669],[0.264727,43.097132],[0.264129,43.096208],[0.263922,43.095688],[0.264175,43.095083],[0.264842,43.094411],[0.264727,43.094176],[0.263853,43.094159],[0.261645,43.094025],[0.261714,43.093723],[0.26176,43.093068],[0.261967,43.092295],[0.261725,43.091864],[0.261953,43.091532],[0.264457,43.091377],[0.265709,43.091116],[0.266522,43.09076],[0.268913,43.090724],[0.2701,43.090534],[0.271271,43.09019],[0.271905,43.090118],[0.272393,43.089916],[0.272978,43.08943],[0.273385,43.08956],[0.274539,43.088717],[0.275596,43.088242],[0.275808,43.088052],[0.276295,43.088254],[0.276897,43.088313],[0.277287,43.088218],[0.278068,43.087434],[0.278951,43.086677],[0.279296,43.086585],[0.28017,43.085829],[0.280434,43.086014],[0.280698,43.085879],[0.280907,43.08587],[0.281659,43.085456],[0.282355,43.085038],[0.282018,43.084514],[0.281911,43.084154],[0.282941,43.083464],[0.284421,43.082759],[0.28543,43.082117],[0.286031,43.081975],[0.286438,43.081646],[0.287683,43.080894],[0.288026,43.080299],[0.287919,43.080079],[0.28837,43.07986],[0.28882,43.0787],[0.28852,43.077979],[0.288434,43.077509],[0.288498,43.076882],[0.288348,43.076819],[0.28837,43.076067],[0.288563,43.075612],[0.289078,43.075361],[0.289636,43.075299],[0.289936,43.075189],[0.290473,43.075346],[0.291266,43.075408],[0.291975,43.075048],[0.292211,43.074766],[0.29249,43.074155],[0.292468,43.073825],[0.292103,43.073418],[0.291803,43.071443],[0.292125,43.071145],[0.292404,43.070048],[0.292253,43.069468],[0.292146,43.068888],[0.292318,43.068574],[0.292361,43.06801],[0.293112,43.068135],[0.292876,43.067242],[0.293133,43.066427],[0.292532,43.065533],[0.292253,43.06547],[0.291932,43.064984],[0.292232,43.064404],[0.291996,43.063903],[0.291309,43.063495],[0.291288,43.063103],[0.291073,43.062382],[0.290987,43.061943],[0.290816,43.06163],[0.289872,43.061144],[0.289464,43.061253],[0.28897,43.061269],[0.288756,43.061191],[0.288863,43.060846],[0.289335,43.060501],[0.289421,43.059811],[0.28985,43.059184],[0.289528,43.0584],[0.289807,43.058102],[0.290537,43.057773],[0.290859,43.057444],[0.29103,43.057475],[0.29103,43.058212],[0.29161,43.05829],[0.292168,43.057726],[0.293026,43.057836],[0.293047,43.058322],[0.293283,43.058635],[0.294313,43.058902],[0.294785,43.058886],[0.294914,43.059137],[0.295258,43.0592],[0.295901,43.059231],[0.296524,43.05945],[0.296845,43.059639],[0.297489,43.059544],[0.29824,43.059497],[0.298519,43.059325],[0.298862,43.059497],[0.299227,43.059152],[0.299442,43.059607],[0.299871,43.059936],[0.299335,43.060501],[0.299227,43.061285],[0.299571,43.06094],[0.299957,43.060799],[0.300343,43.060626],[0.301051,43.060375],[0.301437,43.060344],[0.302103,43.060548],[0.302253,43.06014],[0.302532,43.059717],[0.302553,43.059152],[0.302725,43.059121],[0.302982,43.059388],[0.303326,43.059529],[0.303733,43.059748],[0.303755,43.059168],[0.304334,43.058729],[0.305128,43.05851],[0.306201,43.058133],[0.306587,43.057883],[0.306591,43.057713],[0.307161,43.057511],[0.307648,43.057463],[0.308949,43.05681],[0.309551,43.05643],[0.309405,43.055859],[0.309144,43.055776],[0.309112,43.055348],[0.309632,43.054612],[0.309697,43.054326],[0.309535,43.054124],[0.308136,43.053863],[0.307632,43.053269],[0.307144,43.053138],[0.306673,43.052924],[0.306364,43.052508],[0.30638,43.052033],[0.306884,43.051558],[0.307909,43.051094],[0.308852,43.050809],[0.309405,43.050785],[0.310153,43.051213],[0.310494,43.051249],[0.310982,43.051082],[0.311291,43.050845],[0.311779,43.050144],[0.312364,43.049561],[0.313519,43.049585],[0.314316,43.049537],[0.314625,43.049264],[0.314722,43.04905],[0.314023,43.048325],[0.313991,43.04804],[0.314462,43.047731],[0.315015,43.047529],[0.315275,43.047648],[0.318284,43.04722],[0.320138,43.046887],[0.320658,43.046911],[0.32152,43.04684],[0.322089,43.046899],[0.323536,43.047422],[0.324089,43.047505],[0.325211,43.047398],[0.326317,43.047446],[0.326805,43.048492],[0.327146,43.048717],[0.327667,43.048706],[0.328903,43.048492],[0.330691,43.048777],[0.333245,43.048527],[0.336009,43.048527],[0.336286,43.048183],[0.336562,43.047993],[0.33692,43.047862],[0.337586,43.04747],[0.337993,43.047434],[0.338237,43.047232],[0.338383,43.047624],[0.33892,43.047981],[0.339148,43.048052],[0.339701,43.048004],[0.341001,43.048171],[0.341343,43.048135],[0.341863,43.047684],[0.342709,43.047339],[0.343538,43.046448],[0.34401,43.046186],[0.34427,43.046305],[0.345132,43.04577],[0.34627,43.046341],[0.347279,43.046543],[0.348563,43.046685],[0.349376,43.046923],[0.349539,43.046638],[0.349929,43.046317],[0.350076,43.045984],[0.350141,43.045723],[0.34988,43.045331],[0.349702,43.044974],[0.349149,43.044784],[0.348547,43.044713],[0.348466,43.044487],[0.348645,43.044237],[0.348661,43.043762],[0.349214,43.042954],[0.348807,43.042407],[0.349181,43.042003],[0.349263,43.041694],[0.349441,43.041361],[0.350076,43.039447],[0.350173,43.038675],[0.350433,43.037522],[0.350824,43.03751],[0.352027,43.037094],[0.352108,43.03669],[0.352092,43.035692],[0.351149,43.03562],[0.351116,43.035394],[0.351246,43.03505],[0.351116,43.034669],[0.350791,43.034515],[0.348791,43.034729],[0.347392,43.034586],[0.347083,43.034788],[0.346693,43.034907],[0.346173,43.035145],[0.345799,43.035382],[0.344872,43.035537],[0.344189,43.03543],[0.34388,43.035252],[0.342872,43.035466],[0.342611,43.035692],[0.342481,43.036084],[0.342367,43.036108],[0.34214,43.03581],[0.341912,43.036203],[0.341782,43.036203],[0.341684,43.035787],[0.341473,43.035644],[0.341164,43.03505],[0.340644,43.034574],[0.339701,43.034432],[0.338774,43.034443],[0.338237,43.034515],[0.337895,43.034467],[0.337717,43.034241],[0.337521,43.033849],[0.337814,43.033207],[0.337765,43.032649],[0.338107,43.032268],[0.338139,43.031805],[0.337863,43.031531],[0.337928,43.031389],[0.339034,43.030699],[0.339196,43.030568],[0.339538,43.030438],[0.33957,43.030259],[0.339782,43.030069],[0.339814,43.029819],[0.339668,43.029748],[0.338936,43.029106],[0.33918,43.028702],[0.339261,43.028215],[0.339115,43.02768],[0.338709,43.027585],[0.338042,43.027228],[0.337343,43.027073],[0.336627,43.027014],[0.33609,43.027038],[0.335472,43.026729],[0.335131,43.026717],[0.334399,43.026883],[0.333944,43.027085],[0.333814,43.027323],[0.33331,43.027656],[0.332838,43.027751],[0.331862,43.027371],[0.331374,43.027264],[0.331033,43.027501],[0.330708,43.027525],[0.330382,43.027668],[0.330724,43.027906],[0.330594,43.028345],[0.329667,43.027941],[0.329781,43.028322],[0.329683,43.028987],[0.329911,43.029284],[0.329244,43.02932],[0.329179,43.029617],[0.330266,43.029796],[0.330513,43.029906],[0.330236,43.030022],[0.329732,43.030366],[0.328236,43.030675],[0.327,43.030723],[0.326528,43.030782],[0.32552,43.031115],[0.323244,43.031484],[0.322495,43.031496],[0.32165,43.031888],[0.32056,43.03165],[0.31991,43.031876],[0.318267,43.031781],[0.316381,43.032114],[0.315291,43.032244],[0.313438,43.032161],[0.313015,43.032316],[0.312803,43.032625],[0.312234,43.032601],[0.311421,43.032244],[0.310332,43.032007],[0.309242,43.0319],[0.309291,43.031603],[0.309177,43.031293],[0.308689,43.031412],[0.308461,43.031377],[0.307811,43.030628],[0.307551,43.030105],[0.306998,43.029344],[0.306965,43.028809],[0.306299,43.027157],[0.307063,43.027596],[0.30799,43.027882],[0.308917,43.027977],[0.309876,43.027787],[0.31173,43.027525],[0.311324,43.027418],[0.310445,43.02699],[0.30986,43.026907],[0.309746,43.026788],[0.309551,43.026729],[0.309453,43.026491],[0.309437,43.026253],[0.309275,43.026027],[0.309242,43.025552],[0.309453,43.025373],[0.309958,43.025147],[0.310445,43.025183],[0.310819,43.025136],[0.312738,43.025314],[0.313242,43.02472],[0.313308,43.024351],[0.313259,43.023792],[0.313291,43.02359],[0.313161,43.023388],[0.313161,43.023186],[0.313535,43.022687],[0.313958,43.022259],[0.314169,43.021759],[0.314413,43.021426],[0.314299,43.021296],[0.313925,43.020237],[0.314072,43.019821],[0.314478,43.019322],[0.314169,43.019215],[0.31534,43.017229],[0.315552,43.016552],[0.315308,43.016243],[0.313665,43.015505],[0.31199,43.014899],[0.31199,43.0139],[0.310917,43.013103],[0.310852,43.012711],[0.310722,43.012438],[0.310852,43.011998],[0.310722,43.011451],[0.310754,43.011046],[0.310006,43.010642],[0.309437,43.009786],[0.30921,43.009774],[0.308868,43.009548],[0.308348,43.009393],[0.307697,43.008846],[0.307177,43.008502],[0.307063,43.008311],[0.307177,43.008133],[0.306396,43.007657],[0.30612,43.007574],[0.304949,43.005374],[0.304542,43.005136],[0.303079,43.004625],[0.302396,43.004161],[0.301973,43.003721],[0.302103,43.003673],[0.302331,43.003483],[0.304217,43.002437],[0.304607,43.002377],[0.305144,43.00246],[0.305502,43.002389],[0.306136,43.002401],[0.306705,43.002068],[0.307274,43.001854],[0.30786,43.00183],[0.308413,43.001628],[0.308933,43.001521],[0.309307,43.001497],[0.310006,43.001366],[0.310933,43.001438],[0.311421,43.001212],[0.312072,43.001057],[0.312576,43.000784],[0.313096,43.000581],[0.31225,42.999773],[0.31121,42.999],[0.31134,42.998488],[0.311746,42.998024],[0.311828,42.997763],[0.311551,42.997323],[0.311015,42.996894],[0.309584,42.996371],[0.309112,42.996097],[0.308657,42.996038],[0.308852,42.995467],[0.309291,42.995229],[0.309275,42.994872],[0.309144,42.994706],[0.309079,42.994932],[0.308754,42.994777],[0.308723,42.994591],[0.309472,42.994056],[0.310047,42.993865],[0.310291,42.993329],[0.309943,42.993036],[0.308845,42.992947],[0.307468,42.993151],[0.303546,42.992654],[0.301194,42.992195],[0.300252,42.992424],[0.299573,42.992832],[0.299207,42.993278],[0.299259,42.993571],[0.299137,42.993839],[0.298701,42.993928],[0.297708,42.993967],[0.296836,42.994196],[0.296575,42.994783],[0.296017,42.995356],[0.296035,42.9957],[0.296331,42.996096],[0.296226,42.996287],[0.295651,42.996695],[0.294187,42.997332],[0.29349,42.997345],[0.292967,42.997472],[0.292479,42.997906],[0.29098,42.998288],[0.28983,42.998709],[0.289133,42.998785],[0.28861,42.998938],[0.288122,42.999321],[0.287599,42.999346],[0.287041,42.999002],[0.286571,42.998849],[0.285839,42.998951],[0.285246,42.999576],[0.283712,42.999716],[0.282893,42.999614],[0.281429,42.999856],[0.281046,43.000149],[0.280575,43.000175],[0.279599,42.99983],[0.279198,42.999741],[0.278553,42.99992],[0.278135,43.000226],[0.27803,43.000761],[0.277664,43.00071],[0.277612,43.000238],[0.277542,42.999894],[0.277525,42.999397],[0.27695,42.999423],[0.27634,42.999754],[0.275189,42.999983],[0.273568,43.000009],[0.272889,43.000136],[0.272418,43.00043],[0.272122,43.000251],[0.271651,43.000238],[0.270972,43.001615],[0.27064,43.001819],[0.270274,43.001959],[0.269943,43.002367],[0.269002,43.002775],[0.26895,43.003157],[0.269072,43.003667],[0.268305,43.003642],[0.268148,43.004559],[0.267799,43.005337],[0.26766,43.00591],[0.26766,43.006395],[0.267799,43.006739],[0.267695,43.007147],[0.26712,43.007899],[0.267364,43.008179],[0.267346,43.009097],[0.267712,43.009313],[0.267817,43.009747],[0.267747,43.009976],[0.267939,43.010307],[0.267782,43.010562],[0.267364,43.010945],[0.266911,43.011289],[0.266876,43.011467],[0.267207,43.011862],[0.267381,43.012232],[0.267921,43.012449],[0.268043,43.012691],[0.267852,43.013175],[0.268078,43.013583],[0.268967,43.014602],[0.269368,43.014819],[0.26956,43.015099],[0.269577,43.015354],[0.269386,43.015749],[0.269455,43.016323],[0.269264,43.016781],[0.268967,43.017062],[0.267904,43.017419],[0.267677,43.017903],[0.267172,43.018119],[0.266701,43.018463],[0.266457,43.018795],[0.266266,43.018948],[0.265865,43.018986],[0.265359,43.018833],[0.264593,43.018986],[0.26407,43.019075],[0.263407,43.019521],[0.263355,43.020235],[0.263094,43.020592],[0.263006,43.02091],[0.262728,43.02156],[0.262762,43.02198],[0.262919,43.022299],[0.262989,43.02272],[0.263163,43.023076],[0.262518,43.023752],[0.262518,43.024121],[0.26285,43.024363],[0.263198,43.024605],[0.263198,43.02472],[0.262518,43.024911],[0.262083,43.025383],[0.262152,43.025727],[0.262954,43.026529],[0.262954,43.026746],[0.262466,43.027676],[0.262396,43.028351],[0.26278,43.028797],[0.263128,43.029345],[0.263791,43.029689],[0.264052,43.030186],[0.264331,43.030479],[0.264627,43.030861],[0.265447,43.031167],[0.265987,43.03118],[0.267311,43.031753],[0.267869,43.031931],[0.268287,43.032263],[0.268741,43.032415],[0.268845,43.032658],[0.268566,43.03304],[0.267573,43.033817],[0.267172,43.034225],[0.26712,43.034568],[0.266527,43.035078],[0.266492,43.035358],[0.266806,43.035893],[0.266789,43.036186],[0.266614,43.036492],[0.26637,43.03662],[0.265952,43.036963],[0.265133,43.037358],[0.264784,43.037397],[0.264035,43.037244],[0.263651,43.037881],[0.262989,43.038059],[0.262518,43.038059],[0.262013,43.038199],[0.261089,43.038085],[0.260584,43.03825],[0.259312,43.039002],[0.258806,43.039422],[0.258719,43.039677],[0.25858,43.039651],[0.258126,43.039155],[0.258057,43.038976],[0.257621,43.039307],[0.257534,43.039664],[0.257464,43.039792],[0.257272,43.039817],[0.255983,43.041167],[0.254941,43.040565],[0.254978,43.040305],[0.255426,43.039431],[0.255538,43.038721],[0.255744,43.038175],[0.255669,43.037943],[0.255015,43.037738],[0.254212,43.037288],[0.254399,43.036755],[0.254343,43.036059],[0.253951,43.036592],[0.25296,43.037165],[0.252886,43.037138],[0.253315,43.036742],[0.253969,43.035404],[0.253465,43.035895],[0.252998,43.03625],[0.252456,43.036482],[0.252176,43.036455],[0.252232,43.036346],[0.252643,43.036237],[0.253073,43.035759],[0.253315,43.035199],[0.253315,43.034789],[0.25311,43.034311],[0.253091,43.034858],[0.252718,43.035308],[0.252139,43.035608],[0.251728,43.035608],[0.25184,43.035417],[0.251354,43.034666],[0.251036,43.034503],[0.250719,43.034216],[0.25042,43.034175],[0.250289,43.033997],[0.248533,43.034011],[0.247749,43.03397],[0.247581,43.033588],[0.247394,43.032782],[0.246012,43.031976],[0.245993,43.031772],[0.246348,43.03128],[0.246609,43.030829],[0.246889,43.030461],[0.246479,43.030051],[0.24476,43.0293],[0.24448,43.028713],[0.244256,43.027306],[0.243975,43.026706],[0.244031,43.026432],[0.243826,43.025367],[0.244181,43.025572],[0.244386,43.024848],[0.244592,43.024562],[0.245078,43.024357],[0.244723,43.024097],[0.244256,43.023961],[0.24362,43.023455],[0.24334,43.023032],[0.243434,43.022977],[0.242574,43.023005],[0.241883,43.022964],[0.241416,43.022841],[0.241136,43.022882],[0.240557,43.02321],[0.23966,43.023619],[0.239119,43.024043],[0.238633,43.023947],[0.236802,43.024193],[0.235999,43.024316],[0.235812,43.024534],[0.235738,43.025012],[0.235345,43.025272],[0.23486,43.025449],[0.234299,43.025477],[0.234168,43.025272],[0.233907,43.025258],[0.233627,43.025586],[0.233421,43.025695],[0.232823,43.02575],[0.232332,43.025635],[0.231604,43.025468],[0.231025,43.025657],[0.230699,43.025846],[0.228825,43.026267],[0.227559,43.026486],[0.226786,43.026486],[0.224662,43.026941],[0.222559,43.027381],[0.221529,43.027726],[0.219855,43.028055],[0.218117,43.028259],[0.21698,43.02862],[0.216122,43.029326],[0.21595,43.029749],[0.215027,43.03022],[0.214598,43.030659],[0.214427,43.031082],[0.215414,43.031725],[0.215435,43.032039],[0.215628,43.032274],[0.215392,43.032808],[0.216143,43.03331],[0.216508,43.033341],[0.217474,43.033263],[0.218053,43.033733],[0.217538,43.034172],[0.217752,43.034564],[0.217366,43.034972],[0.217087,43.035443],[0.217409,43.036196],[0.217774,43.036478],[0.21801,43.036807],[0.218267,43.037074],[0.218203,43.037246],[0.217216,43.037482],[0.216358,43.037576],[0.2158,43.037921],[0.213826,43.038281],[0.213096,43.038376],[0.212495,43.039034],[0.210135,43.039975],[0.209577,43.040132],[0.209019,43.040399],[0.20844,43.040508],[0.208375,43.041089],[0.208418,43.041387],[0.208161,43.041575],[0.207496,43.041638],[0.205715,43.041104],[0.205328,43.041167],[0.204556,43.041638],[0.203998,43.041747],[0.203011,43.041559],[0.202539,43.04134],[0.20211,43.041104],[0.20196,43.041151],[0.201638,43.041638],[0.201252,43.04181],[0.200393,43.042045],[0.200028,43.042265],[0.199256,43.042845],[0.198119,43.042986],[0.197046,43.043222],[0.196874,43.042924],[0.196531,43.043049],[0.195458,43.04319],[0.195029,43.043112],[0.194557,43.043049],[0.194256,43.042861],[0.193913,43.042845],[0.193462,43.043206],[0.193162,43.043598],[0.192046,43.044178],[0.191681,43.044743],[0.191681,43.045041],[0.192111,43.045354],[0.192561,43.046091],[0.192754,43.046734],[0.192518,43.047001],[0.191746,43.047346],[0.192347,43.047534],[0.193033,43.048287],[0.193462,43.048506],[0.193763,43.048835],[0.19387,43.049165],[0.194278,43.049557],[0.194728,43.050372],[0.194106,43.050733],[0.193977,43.051078],[0.19417,43.051642],[0.193934,43.053053],[0.193892,43.054151],[0.193377,43.054841],[0.192711,43.055374],[0.191939,43.055593],[0.191349,43.055651],[0.191369,43.055812],[0.19231,43.056163],[0.193011,43.056573],[0.193551,43.056792],[0.194092,43.057304],[0.193692,43.057655],[0.193451,43.057758],[0.193571,43.058109],[0.193491,43.058679],[0.193111,43.059206],[0.19247,43.059528],[0.191649,43.059835],[0.190829,43.060303],[0.190829,43.06061],[0.191209,43.0614],[0.19207,43.061824],[0.19251,43.062278],[0.192711,43.062761],[0.192751,43.063594],[0.192891,43.063901],[0.193251,43.064165],[0.193632,43.064999],[0.193952,43.065525],[0.193732,43.066227],[0.193451,43.066505],[0.19219,43.067178],[0.191329,43.067149],[0.190869,43.066988],[0.190929,43.067558],[0.190949,43.068158],[0.191169,43.068436],[0.191389,43.068494],[0.191409,43.06864],[0.191049,43.069284],[0.189868,43.070147],[0.189587,43.070849],[0.189007,43.071332],[0.188566,43.07139],[0.188066,43.072034],[0.187625,43.072194],[0.187365,43.07218],[0.187485,43.072575],[0.187165,43.073013],[0.187645,43.073862],[0.187225,43.074257],[0.187305,43.074476],[0.188286,43.074915],[0.188566,43.075236],[0.188766,43.075295],[0.189107,43.075192],[0.189407,43.075295],[0.189768,43.075543],[0.190528,43.075807],[0.191649,43.075851],[0.19249,43.075997],[0.192651,43.076436],[0.192823,43.076499],[0.193331,43.076374],[0.193793,43.076296],[0.194157,43.076108],[0.194335,43.075915],[0.194441,43.075954],[0.19419,43.076166],[0.193747,43.076412],[0.193219,43.076682],[0.193067,43.076861],[0.193054,43.077112],[0.194085,43.077446],[0.194707,43.077901],[0.1952,43.078465],[0.195973,43.078198],[0.195973,43.078198]]],"type":"MultiLineString"},"properties":{"geo_point":{"lon":0.2703848772979041,"lat":43.04828999312942},"name":"Tour des Baronnies de Bigorre (Hautes-Pyrénées) (2020)","code_gr":null}}]}