{"type":"FeatureCollection","features":[{"type":"Feature","geometry":{"coordinates":[[[2.055118,45.704694],[2.05726,45.703645],[2.058281,45.703463],[2.059762,45.703561],[2.060103,45.703338],[2.061004,45.703436],[2.061785,45.703296],[2.062145,45.70289],[2.064407,45.702303],[2.063566,45.700821],[2.062165,45.699842],[2.062425,45.699283],[2.061604,45.69966],[2.061564,45.699269],[2.061224,45.698849],[2.060964,45.698122],[2.061504,45.697087],[2.062025,45.69678],[2.062085,45.696472],[2.061584,45.696206],[2.061264,45.695843],[2.061664,45.695116],[2.061124,45.692263],[2.060743,45.691731],[2.060303,45.6912],[2.060243,45.690766],[2.060583,45.688529],[2.060343,45.686123],[2.060223,45.685732],[2.059943,45.683746],[2.058942,45.682305],[2.058141,45.681801],[2.05772,45.681382],[2.055678,45.681605],[2.055618,45.680389],[2.055698,45.679899],[2.055118,45.679339],[2.053776,45.678556],[2.053796,45.677885],[2.054157,45.677689],[2.053876,45.676836],[2.054617,45.67671],[2.055298,45.67692],[2.056119,45.677101],[2.05786,45.677787],[2.059622,45.678696],[2.061704,45.679158],[2.061604,45.678836],[2.061684,45.677927],[2.062225,45.677479],[2.062145,45.676192],[2.062505,45.675577],[2.063126,45.675689],[2.064427,45.675786],[2.064968,45.676262],[2.066089,45.677717],[2.067751,45.678137],[2.069032,45.678654],[2.071915,45.681116],[2.071354,45.681536],[2.074217,45.68278],[2.074858,45.683368],[2.075519,45.684585],[2.07702,45.68548],[2.079723,45.68562],[2.079423,45.686305],[2.078522,45.687536],[2.078222,45.68892],[2.078362,45.68969],[2.079283,45.690878],[2.079623,45.690641],[2.079963,45.689214],[2.081165,45.68769],[2.081705,45.686585],[2.082926,45.68569],[2.084648,45.683354],[2.085709,45.682235],[2.087131,45.6812],[2.088132,45.679787],[2.089613,45.679144],[2.092296,45.678864],[2.09632,45.679284],[2.098162,45.679367],[2.101325,45.680403],[2.101145,45.681186],[2.102306,45.682081],[2.102667,45.682669],[2.106571,45.686515],[2.109234,45.688053],[2.111036,45.68941],[2.11564,45.691536],[2.117082,45.691941],[2.118543,45.69292],[2.119264,45.693577],[2.120305,45.695493],[2.120145,45.698262],[2.121847,45.698304],[2.122307,45.698849],[2.124369,45.69966],[2.12511,45.699003],[2.126231,45.698458],[2.128834,45.697801],[2.129334,45.697143],[2.129334,45.696556],[2.129114,45.695759],[2.128654,45.695675],[2.128474,45.695269],[2.127833,45.693871],[2.127973,45.693535],[2.128834,45.693242],[2.128974,45.692892],[2.128534,45.692459],[2.128494,45.692081],[2.129014,45.691899],[2.129435,45.691857],[2.128974,45.690627],[2.129715,45.690263],[2.130035,45.689955],[2.130916,45.68962],[2.132458,45.688571],[2.131497,45.688095],[2.131337,45.687396],[2.130836,45.686934],[2.130956,45.686263],[2.130155,45.685298],[2.129555,45.685074],[2.126992,45.685802],[2.126792,45.685592],[2.126391,45.685508],[2.125611,45.684767],[2.124529,45.684403],[2.123528,45.684235],[2.122067,45.684305],[2.119584,45.684053],[2.118303,45.683732],[2.117482,45.683564],[2.117102,45.683256],[2.117142,45.68299],[2.118043,45.682431],[2.118743,45.681745],[2.118623,45.68113],[2.118263,45.680962],[2.118223,45.6805],[2.118523,45.680249],[2.119504,45.680095],[2.119845,45.679871],[2.119945,45.679284],[2.120826,45.678738],[2.121727,45.678962],[2.123428,45.678976],[2.125691,45.679172],[2.126051,45.679312],[2.127152,45.679409],[2.128133,45.679298],[2.129935,45.679409],[2.133238,45.679228],[2.13448,45.67927],[2.136442,45.679745],[2.137823,45.679857],[2.139165,45.679395],[2.140286,45.67927],[2.141107,45.678892],[2.141267,45.678528],[2.140486,45.677857],[2.140266,45.677395],[2.140426,45.676248],[2.140966,45.675689],[2.141027,45.674695],[2.140906,45.674094],[2.140566,45.673772],[2.141007,45.673786],[2.141467,45.673702],[2.141207,45.673366],[2.141827,45.672975],[2.141787,45.672527],[2.141327,45.671827],[2.142168,45.67152],[2.142028,45.671268],[2.142268,45.670904],[2.142668,45.670876],[2.143069,45.670065],[2.142848,45.669645],[2.142528,45.669463],[2.142608,45.668987],[2.142969,45.66889],[2.14427,45.669211],[2.14457,45.669141],[2.145571,45.669491],[2.146432,45.669561],[2.147513,45.669379],[2.148414,45.6684],[2.148594,45.667448],[2.148134,45.667057],[2.148795,45.665602],[2.149215,45.664972],[2.150376,45.665056],[2.150897,45.665196],[2.151357,45.664021],[2.151778,45.662188],[2.151698,45.661978],[2.151898,45.661586],[2.153059,45.66167],[2.15366,45.66153],[2.15424,45.661194],[2.154581,45.660523],[2.154581,45.660145],[2.154941,45.659375],[2.155702,45.659347],[2.157023,45.658871],[2.158865,45.657766],[2.159085,45.65785],[2.160166,45.656842],[2.160487,45.656017],[2.160286,45.655331],[2.159866,45.654617],[2.160026,45.654463],[2.161848,45.654072],[2.162289,45.65354],[2.162729,45.653274],[2.162829,45.65277],[2.161688,45.65249],[2.161007,45.652644],[2.160787,45.652518],[2.160667,45.651944],[2.158425,45.648935],[2.156803,45.649327],[2.155782,45.649103],[2.154801,45.649271],[2.1542,45.649327],[2.15382,45.649593],[2.153119,45.650391],[2.151377,45.650699],[2.150677,45.650727],[2.149876,45.651077],[2.149315,45.651664],[2.149215,45.652182],[2.149455,45.652812],[2.149355,45.65312],[2.148634,45.652882],[2.148094,45.652224],[2.147453,45.651846],[2.146712,45.651273],[2.145771,45.651077],[2.144931,45.650643],[2.14427,45.649887],[2.142668,45.647536],[2.142288,45.646794],[2.141327,45.646514],[2.140286,45.646528],[2.138604,45.646374],[2.136602,45.646374],[2.135961,45.646276],[2.13434,45.646444],[2.134019,45.646318],[2.133879,45.644639],[2.133859,45.643855],[2.133279,45.642735],[2.132758,45.642343],[2.132838,45.641839],[2.132778,45.641433],[2.132918,45.640342],[2.132678,45.640244],[2.132358,45.639978],[2.131577,45.639852],[2.129875,45.640286],[2.129014,45.639684],[2.127252,45.63918],[2.125951,45.639544],[2.12519,45.640453],[2.124069,45.640467],[2.123488,45.640635],[2.123188,45.640999],[2.122968,45.641629],[2.121847,45.642329],[2.120545,45.642623],[2.119484,45.642679],[2.118003,45.642357],[2.117342,45.642385],[2.116301,45.642721],[2.114359,45.642679],[2.113778,45.642749],[2.111976,45.642483],[2.108793,45.642567],[2.107952,45.641755],[2.10559,45.641979],[2.103648,45.642119],[2.103067,45.642721],[2.101205,45.643001],[2.100845,45.643141],[2.100905,45.642007],[2.101205,45.641475],[2.100705,45.640579],[2.100665,45.639026],[2.100525,45.63827],[2.100525,45.637024],[2.099744,45.63708],[2.099383,45.63736],[2.098202,45.63736],[2.098302,45.637724],[2.09612,45.637374],[2.094679,45.63778],[2.093517,45.63757],[2.092817,45.637584],[2.092316,45.637374],[2.091896,45.63652],[2.091675,45.635568],[2.091816,45.63491],[2.092436,45.633356],[2.092997,45.632404],[2.093157,45.631984],[2.094018,45.630976],[2.094098,45.630584],[2.093778,45.629828],[2.093197,45.62959],[2.093097,45.62917],[2.093317,45.628624],[2.092897,45.628302],[2.091175,45.62973],[2.089934,45.63036],[2.088953,45.630654],[2.088432,45.630556],[2.087751,45.630094],[2.087491,45.62952],[2.086951,45.628932],[2.08671,45.62833],[2.085769,45.628134],[2.085269,45.627826],[2.085069,45.627154],[2.084608,45.626706],[2.083367,45.626706],[2.082826,45.626524],[2.082346,45.626132],[2.081405,45.625866],[2.080704,45.62546],[2.079923,45.625054],[2.079283,45.624662],[2.077761,45.623416],[2.07718,45.623318],[2.076219,45.623416],[2.075559,45.62329],[2.07628,45.621315],[2.07636,45.620195],[2.077421,45.618851],[2.074538,45.617675],[2.072195,45.617423],[2.070974,45.617241],[2.069513,45.616806],[2.06687,45.615504],[2.066329,45.616022],[2.065168,45.616806],[2.063767,45.617409],[2.063026,45.618333],[2.062345,45.618907],[2.062285,45.620167],[2.062986,45.62182],[2.062726,45.622842],[2.061624,45.62413],[2.061104,45.625502],[2.05768,45.62875],[2.05696,45.62861],[2.055598,45.62875],[2.054597,45.62903],[2.054057,45.629268],[2.053136,45.629142],[2.051514,45.628204],[2.049452,45.629058],[2.04767,45.629072],[2.045908,45.629016],[2.044887,45.629184],[2.044326,45.629576],[2.043806,45.630178],[2.042465,45.630626],[2.041844,45.630724],[2.041103,45.630962],[2.040342,45.631032],[2.040262,45.631998],[2.039922,45.632516],[2.039061,45.63246],[2.03844,45.632446],[2.03758,45.632306],[2.036418,45.632012],[2.035778,45.632012],[2.034656,45.632488],[2.033355,45.633062],[2.032755,45.634126],[2.032214,45.634504],[2.031593,45.634574],[2.029591,45.634546],[2.02815,45.634994],[2.027349,45.6354],[2.026068,45.635778],[2.024786,45.635778],[2.023825,45.636058],[2.019661,45.636828],[2.017299,45.63617],[2.016618,45.636562],[2.015156,45.636618],[2.014716,45.6368],[2.014476,45.637234],[2.013555,45.637318],[2.012614,45.637654],[2.010572,45.638746],[2.00897,45.63883],[2.00893,45.63911],[2.007909,45.639264],[2.006828,45.63967],[2.006527,45.640006],[2.006968,45.640943],[2.006788,45.641979],[2.005827,45.643603],[2.005727,45.644499],[2.005987,45.645422],[2.006868,45.647032],[2.00931,45.649369],[2.00929,45.650279],[2.00909,45.651091],[2.00879,45.651664],[2.00869,45.652294],[2.008349,45.653442],[2.007749,45.654128],[2.007448,45.655933],[2.006988,45.657416],[2.006007,45.658186],[2.005286,45.658564],[2.005326,45.659739],[2.005626,45.659907],[2.005787,45.660299],[2.006067,45.660579],[2.006367,45.661446],[2.005727,45.662048],[2.005727,45.662593],[2.006067,45.662901],[2.006748,45.663335],[2.007048,45.663797],[2.007408,45.664412],[2.008169,45.664902],[2.00919,45.66577],[2.009951,45.666567],[2.010912,45.667323],[2.010952,45.667756],[2.011412,45.668596],[2.011653,45.669309],[2.012413,45.670009],[2.013555,45.670666],[2.014155,45.67089],[2.014496,45.671282],[2.014916,45.671758],[2.015757,45.672191],[2.017278,45.672667],[2.01834,45.672947],[2.019561,45.673674],[2.019541,45.674052],[2.01838,45.676892],[2.01844,45.678192],[2.01874,45.679829],[2.019761,45.681591],[2.019961,45.682738],[2.020962,45.683732],[2.020642,45.683885],[2.019881,45.684822],[2.019701,45.685382],[2.020161,45.686039],[2.021082,45.686473],[2.021583,45.687116],[2.022063,45.687508],[2.021803,45.688109],[2.022284,45.689787],[2.022984,45.690221],[2.024506,45.691088],[2.024626,45.691731],[2.025507,45.69285],[2.026108,45.693563],[2.026648,45.693759],[2.026668,45.694724],[2.027269,45.695605],[2.02855,45.696542],[2.030132,45.696948],[2.030592,45.697689],[2.031213,45.698122],[2.031653,45.698094],[2.031834,45.698653],[2.032374,45.699409],[2.035517,45.699437],[2.036959,45.699045],[2.03774,45.699003],[2.03812,45.699241],[2.038801,45.700024],[2.038621,45.700597],[2.038961,45.700961],[2.040002,45.701156],[2.043986,45.703869],[2.045047,45.704344],[2.046068,45.704582],[2.046789,45.705127],[2.04731,45.705826],[2.04725,45.707085],[2.04773,45.708105],[2.04799,45.708972],[2.04781,45.709378],[2.04787,45.710314],[2.04817,45.709797],[2.049171,45.709028],[2.049992,45.708077],[2.051634,45.706973],[2.052135,45.706442],[2.053116,45.706106],[2.053316,45.705701],[2.053956,45.705043],[2.054297,45.704512]]],"type":"MultiLineString"},"properties":{"geo_point":{"lon":2.082713854971118,"lat":45.6648163669901},"name":"Tour du plateau de Millevaches (Corrèze) (2019)","code_gr":null}}]}