{"type":"FeatureCollection","features":[{"type":"Feature","geometry":{"coordinates":[[[3.974381,44.303918],[3.974036,44.303573],[3.97353,44.303408],[3.972909,44.302947],[3.972725,44.303392],[3.972288,44.303589],[3.971805,44.303128],[3.971023,44.302651],[3.971506,44.302569],[3.971851,44.302256],[3.971943,44.30173],[3.971506,44.302092],[3.971322,44.302092],[3.971207,44.301318],[3.970977,44.301005],[3.971483,44.301071],[3.971943,44.300841],[3.971897,44.300676],[3.971437,44.300808],[3.971092,44.30061],[3.970701,44.300182],[3.971138,44.300298],[3.971437,44.300232],[3.971598,44.29931],[3.97146,44.299294],[3.971161,44.299508],[3.969506,44.298668],[3.968862,44.298948],[3.968379,44.298997],[3.96785,44.298964],[3.966838,44.298701],[3.966079,44.298619],[3.965458,44.298388],[3.965044,44.29801],[3.965159,44.297631],[3.96486,44.297713],[3.964469,44.297631],[3.963549,44.297779],[3.963365,44.297302],[3.963089,44.296775],[3.961709,44.296281],[3.960904,44.295639],[3.960628,44.295146],[3.960306,44.294059],[3.959617,44.2935],[3.959617,44.293137],[3.959364,44.292413],[3.959364,44.291788],[3.959525,44.290783],[3.960145,44.289219],[3.960077,44.288512],[3.960077,44.28782],[3.959824,44.28731],[3.959479,44.286997],[3.95941,44.286371],[3.959272,44.285927],[3.959479,44.285713],[3.958191,44.284692],[3.956351,44.283606],[3.955868,44.282947],[3.955063,44.282651],[3.954925,44.282387],[3.953476,44.282568],[3.953338,44.282371],[3.951751,44.282041],[3.949337,44.282651],[3.948141,44.282387],[3.947382,44.282437],[3.946163,44.282815],[3.945059,44.283293],[3.944852,44.283276],[3.944691,44.28382],[3.944323,44.284132],[3.94269,44.284988],[3.941425,44.285779],[3.940551,44.286421],[3.939608,44.287491],[3.938965,44.288429],[3.938689,44.28894],[3.938643,44.290092],[3.938321,44.290438],[3.938459,44.291146],[3.93862,44.291623],[3.938321,44.292051],[3.938022,44.292644],[3.937838,44.293055],[3.938068,44.293697],[3.937976,44.294026],[3.937539,44.294026],[3.936941,44.294141],[3.936136,44.294833],[3.935308,44.295146],[3.935285,44.294997],[3.934756,44.295376],[3.93402,44.295343],[3.933238,44.295804],[3.932778,44.296018],[3.93241,44.296347],[3.93172,44.29638],[3.93172,44.296611],[3.931191,44.297121],[3.930708,44.297368],[3.930179,44.297516],[3.929191,44.297927],[3.928731,44.298372],[3.928087,44.29875],[3.927535,44.29903],[3.927098,44.299689],[3.926454,44.300133],[3.926247,44.300396],[3.926063,44.301055],[3.925856,44.301516],[3.925787,44.302059],[3.92604,44.302273],[3.925902,44.302552],[3.925419,44.302997],[3.925028,44.303293],[3.924568,44.303408],[3.924361,44.303573],[3.923855,44.303705],[3.923533,44.303672],[3.923257,44.303573],[3.923199,44.303398],[3.92282,44.303344],[3.922699,44.303474],[3.92194,44.303811],[3.921383,44.304011],[3.92073,44.304025],[3.920113,44.304085],[3.918964,44.304312],[3.918852,44.304466],[3.91775,44.304706],[3.917246,44.304793],[3.917096,44.304974],[3.917012,44.305234],[3.916994,44.305482],[3.91687,44.305781],[3.916487,44.306018],[3.91617,44.306462],[3.915866,44.306519],[3.915813,44.306434],[3.914559,44.306746],[3.914321,44.30685],[3.913991,44.307124],[3.913819,44.307114],[3.91337,44.30736],[3.913238,44.307558],[3.91304,44.307634],[3.912802,44.307965],[3.911204,44.308192],[3.910609,44.308324],[3.910107,44.308343],[3.909222,44.308475],[3.908971,44.30856],[3.908466,44.308563],[3.907999,44.308596],[3.907569,44.308623],[3.907345,44.308543],[3.907383,44.30881],[3.906841,44.308683],[3.906458,44.30885],[3.905935,44.308964],[3.905673,44.309078],[3.905393,44.309098],[3.904431,44.309525],[3.904357,44.309712],[3.904011,44.30992],[3.903796,44.31014],[3.902605,44.310517],[3.901878,44.310838],[3.901535,44.31116],[3.900756,44.31132],[3.900491,44.31149],[3.900161,44.311632],[3.899752,44.311972],[3.899799,44.312098],[3.899621,44.312419],[3.899444,44.312626],[3.898837,44.313642],[3.898528,44.313836],[3.897211,44.314478],[3.896857,44.314798],[3.896632,44.315052],[3.896305,44.315259],[3.895894,44.315306],[3.893559,44.314758],[3.89284,44.314691],[3.891897,44.314745],[3.891243,44.314905],[3.890786,44.315253],[3.890375,44.315574],[3.890001,44.31556],[3.888535,44.315032],[3.887722,44.314845],[3.886414,44.314919],[3.886172,44.314858],[3.885322,44.314511],[3.885079,44.314484],[3.884789,44.314591],[3.884556,44.314598],[3.884033,44.314812],[3.883155,44.314932],[3.882669,44.314885],[3.881922,44.314631],[3.881408,44.314631],[3.880792,44.314865],[3.880297,44.314912],[3.880035,44.314885],[3.879792,44.314805],[3.879148,44.314825],[3.878877,44.314785],[3.878793,44.315012],[3.878569,44.315126],[3.878345,44.315607],[3.878233,44.316015],[3.878035,44.316219],[3.877494,44.316574],[3.87712,44.316705],[3.876928,44.316924],[3.876771,44.317023],[3.876701,44.317335],[3.876091,44.317391],[3.875995,44.317254],[3.875934,44.317005],[3.875237,44.316175],[3.874854,44.315633],[3.874427,44.315471],[3.874165,44.315309],[3.873939,44.314941],[3.873799,44.314723],[3.873529,44.314666],[3.873477,44.314411],[3.87244,44.314467],[3.871638,44.314467],[3.871124,44.314529],[3.870889,44.314417],[3.870383,44.314442],[3.870235,44.314305],[3.86993,44.314336],[3.869738,44.314542],[3.869451,44.315153],[3.869468,44.315839],[3.869294,44.316337],[3.868065,44.31736],[3.866601,44.318408],[3.866287,44.318426],[3.865494,44.317878],[3.864536,44.317104],[3.864048,44.316587],[3.863621,44.316443],[3.86207,44.3162],[3.861738,44.315864],[3.86166,44.315377],[3.86173,44.314916],[3.861939,44.314654],[3.861991,44.314386],[3.86166,44.313974],[3.861521,44.313588],[3.860449,44.313276],[3.85949,44.313419],[3.858985,44.313388],[3.858549,44.313288],[3.85807,44.313008],[3.857442,44.313126],[3.857094,44.313027],[3.85664,44.312808],[3.855824,44.313685],[3.855541,44.313764],[3.854998,44.313227],[3.854407,44.312733],[3.853088,44.312204],[3.852201,44.311965],[3.851486,44.312062],[3.848996,44.31223],[3.848454,44.312362],[3.848023,44.312345],[3.847715,44.312151],[3.847008,44.313768],[3.846698,44.31492],[3.846893,44.315348],[3.846778,44.315553],[3.846376,44.315701],[3.845858,44.315767],[3.845525,44.315866],[3.844832,44.316038],[3.844693,44.315938],[3.843508,44.315963],[3.84288,44.315926],[3.843229,44.315564],[3.84295,44.315302],[3.842741,44.315365],[3.842671,44.315589],[3.842166,44.316038],[3.841782,44.316125],[3.841503,44.316101],[3.841207,44.316392],[3.841134,44.316516],[3.840591,44.316648],[3.839182,44.317371],[3.83836,44.317732],[3.83751,44.318006],[3.837015,44.318313],[3.836679,44.318648],[3.836389,44.318768],[3.836184,44.318741],[3.835978,44.318607],[3.834512,44.318628],[3.832765,44.319276],[3.832261,44.319095],[3.830197,44.318641],[3.828964,44.318153],[3.828955,44.317933],[3.82871,44.317537],[3.828564,44.31756],[3.828279,44.317746],[3.82806,44.318025],[3.827954,44.31831],[3.827125,44.318968],[3.826734,44.319398],[3.826458,44.319765],[3.826133,44.320079],[3.825669,44.320195],[3.82532,44.32016],[3.825002,44.320021],[3.824295,44.319863],[3.823905,44.319637],[3.823157,44.318927],[3.822539,44.318118],[3.82186,44.317816],[3.820434,44.317026],[3.820492,44.316944],[3.821274,44.317133],[3.82194,44.317149],[3.822791,44.317092],[3.823102,44.317207],[3.823159,44.317125],[3.822872,44.316977],[3.822113,44.316508],[3.821216,44.316253],[3.820388,44.315792],[3.819698,44.315701],[3.819399,44.315611],[3.819227,44.315743],[3.818307,44.316063],[3.818249,44.31631],[3.817697,44.316861],[3.817065,44.317273],[3.816616,44.317396],[3.816843,44.318605],[3.81699,44.319858],[3.817163,44.320298],[3.817064,44.320651],[3.817237,44.32088],[3.817286,44.321586],[3.817607,44.322679],[3.817656,44.323825],[3.817483,44.324442],[3.817138,44.324866],[3.817015,44.325518],[3.816645,44.326065],[3.81667,44.326364],[3.816226,44.327087],[3.816103,44.327669],[3.816229,44.328321],[3.816392,44.328612],[3.816603,44.329101],[3.817449,44.329787],[3.818018,44.32995],[3.819449,44.329961],[3.820099,44.330008],[3.821108,44.329868],[3.823612,44.32931],[3.824116,44.32924],[3.82449,44.329077],[3.825287,44.329135],[3.825905,44.329008],[3.826718,44.329298],[3.827612,44.329473],[3.828068,44.329671],[3.828783,44.329775],[3.829938,44.330636],[3.831092,44.333509],[3.831775,44.334044],[3.832166,44.334149],[3.832312,44.334417],[3.832621,44.334649],[3.832767,44.334893],[3.832963,44.335033],[3.833093,44.335405],[3.833369,44.335673],[3.834068,44.336347],[3.83454,44.336545],[3.834784,44.336906],[3.835727,44.33772],[3.836491,44.338476],[3.837207,44.339511],[3.83763,44.340209],[3.838183,44.342698],[3.838313,44.342954],[3.838134,44.343779],[3.838183,44.344489],[3.838053,44.345314],[3.837711,44.346163],[3.837435,44.347152],[3.8375,44.347326],[3.837386,44.347547],[3.837337,44.347954],[3.837532,44.348512],[3.837353,44.34885],[3.837613,44.348873],[3.837402,44.349431],[3.837711,44.349606],[3.83763,44.350094],[3.837825,44.350257],[3.838004,44.350896],[3.838215,44.35121],[3.838166,44.351641],[3.838248,44.352385],[3.838703,44.352582],[3.839223,44.352943],[3.840085,44.353257],[3.840785,44.353582],[3.841842,44.353257],[3.843012,44.352524],[3.843338,44.352548],[3.843923,44.353129],[3.843874,44.353722],[3.843956,44.354908],[3.844313,44.355152],[3.844687,44.355199],[3.845842,44.355013],[3.846818,44.35571],[3.847647,44.356129],[3.848672,44.356175],[3.849777,44.356385],[3.850899,44.356373],[3.85129,44.356013],[3.851534,44.355443],[3.851452,44.354315],[3.851582,44.353943],[3.852444,44.353373],[3.853209,44.353071],[3.853778,44.352722],[3.854461,44.352106],[3.85516,44.351652],[3.855453,44.351675],[3.856185,44.352059],[3.857372,44.35235],[3.857973,44.352408],[3.858884,44.352652],[3.860006,44.352722],[3.861291,44.35321],[3.861632,44.353571],[3.86173,44.353827],[3.861681,44.35421],[3.861909,44.354536],[3.862949,44.355141],[3.864137,44.35542],[3.865324,44.355489],[3.865828,44.355338],[3.866982,44.355222],[3.867324,44.355036],[3.868235,44.354978],[3.868625,44.355117],[3.870088,44.356257],[3.871422,44.357152],[3.872446,44.35728],[3.873438,44.357268],[3.874317,44.356094],[3.875455,44.355222],[3.877406,44.353861],[3.879,44.35271],[3.879488,44.352734],[3.880008,44.35371],[3.880122,44.35442],[3.880398,44.35528],[3.880821,44.355827],[3.881,44.357059],[3.882252,44.357036],[3.882285,44.356757],[3.882529,44.356559],[3.882854,44.355792],[3.883439,44.355559],[3.883765,44.355059],[3.883813,44.354617],[3.883879,44.354257],[3.883748,44.353408],[3.883797,44.352768],[3.884025,44.352141],[3.884578,44.35114],[3.885033,44.350292],[3.885179,44.349861],[3.885375,44.349419],[3.885293,44.348605],[3.884984,44.348536],[3.884919,44.348419],[3.884545,44.348303],[3.885017,44.348001],[3.885293,44.34757],[3.885635,44.347175],[3.886285,44.346873],[3.886708,44.346756],[3.887489,44.347198],[3.887375,44.346547],[3.887391,44.346117],[3.888155,44.346942],[3.888627,44.347315],[3.888855,44.34778],[3.88905,44.348652],[3.889245,44.34928],[3.889554,44.348885],[3.889782,44.348768],[3.889944,44.348547],[3.890513,44.348466],[3.890741,44.348175],[3.891213,44.347222],[3.891375,44.346966],[3.891603,44.346338],[3.891912,44.345919],[3.892123,44.345524],[3.892318,44.345326],[3.892644,44.344582],[3.892758,44.344175],[3.892806,44.342954],[3.892237,44.342837],[3.892075,44.342651],[3.891961,44.342314],[3.891505,44.342046],[3.891326,44.341395],[3.890757,44.341139],[3.890595,44.3405],[3.890318,44.340232],[3.8897,44.340174],[3.889733,44.339906],[3.890123,44.339383],[3.890985,44.338592],[3.891148,44.33815],[3.891017,44.337231],[3.891099,44.336301],[3.891001,44.335801],[3.891392,44.336138],[3.891392,44.335173],[3.891245,44.334614],[3.890757,44.33387],[3.892188,44.334312],[3.891668,44.333556],[3.891574,44.333043],[3.891263,44.332406],[3.891735,44.332014],[3.891832,44.331707],[3.892078,44.331323],[3.892432,44.33137],[3.892862,44.331147],[3.89342,44.33094],[3.893301,44.331168],[3.893809,44.331032],[3.893544,44.331352],[3.893233,44.331635],[3.89318,44.332014],[3.893468,44.332345],[3.893468,44.332454],[3.893627,44.332503],[3.893923,44.332497],[3.894143,44.332562],[3.894401,44.332546],[3.894682,44.332595],[3.894879,44.332725],[3.895222,44.333066],[3.895894,44.333427],[3.896287,44.333307],[3.896604,44.333561],[3.897127,44.333521],[3.897445,44.333574],[3.898024,44.33332],[3.898734,44.332759],[3.898995,44.332545],[3.899425,44.332545],[3.899967,44.33332],[3.900359,44.333588],[3.900396,44.333828],[3.900154,44.334269],[3.900135,44.334723],[3.901013,44.335017],[3.901667,44.335512],[3.902134,44.335552],[3.902601,44.335191],[3.903254,44.334149],[3.903479,44.333748],[3.903852,44.333467],[3.904151,44.33316],[3.904693,44.332759],[3.904506,44.332425],[3.904824,44.332505],[3.905365,44.332946],[3.90587,44.333521],[3.906094,44.333467],[3.90615,44.333227],[3.906075,44.332773],[3.906934,44.330822],[3.906617,44.330568],[3.905963,44.329779],[3.905963,44.329405],[3.906355,44.329031],[3.906467,44.328457],[3.90671,44.328269],[3.907831,44.328122],[3.909157,44.327882],[3.911268,44.326933],[3.911772,44.32688],[3.912706,44.327254],[3.911829,44.326626],[3.9111,44.326639],[3.909531,44.327053],[3.909232,44.326973],[3.909269,44.326893],[3.909531,44.326572],[3.909512,44.326105],[3.910297,44.325984],[3.910745,44.325784],[3.912501,44.324541],[3.913117,44.324568],[3.913734,44.324929],[3.914257,44.325878],[3.914593,44.325931],[3.91633,44.325704],[3.916853,44.325557],[3.917339,44.325517],[3.918142,44.325236],[3.918647,44.324782],[3.918964,44.324675],[3.919188,44.324702],[3.919319,44.325009],[3.919674,44.325343],[3.920235,44.32541],[3.921262,44.32533],[3.922289,44.325116],[3.92257,44.324915],[3.9227,44.323967],[3.923055,44.32398],[3.924101,44.324327],[3.924979,44.324688],[3.925708,44.324715],[3.926642,44.324555],[3.926997,44.324354],[3.927557,44.323258],[3.927632,44.32398],[3.927669,44.324354],[3.927594,44.324955],[3.928136,44.324274],[3.928435,44.323566],[3.928491,44.32398],[3.928566,44.32422],[3.928584,44.324808],[3.929145,44.325958],[3.929229,44.32553],[3.929444,44.325731],[3.929453,44.325871],[3.929631,44.325811],[3.929724,44.325697],[3.929799,44.325871],[3.930144,44.326131],[3.930919,44.325904],[3.931256,44.325924],[3.931368,44.325991],[3.931872,44.326025],[3.931695,44.325811],[3.93247,44.325664],[3.932787,44.32551],[3.931386,44.324715],[3.931368,44.324408],[3.93162,44.324167],[3.932825,44.32386],[3.933903,44.323337],[3.934372,44.32285],[3.934709,44.322189],[3.934953,44.321787],[3.93496,44.321579],[3.935037,44.321392],[3.935723,44.321054],[3.93626,44.320578],[3.936625,44.320072],[3.936818,44.319672],[3.937247,44.319504],[3.938234,44.319396],[3.938583,44.319305],[3.93942,44.319143],[3.939786,44.319181],[3.940326,44.319081],[3.941476,44.319131],[3.942295,44.319043],[3.943707,44.319068],[3.944526,44.318819],[3.944997,44.318956],[3.946078,44.318994],[3.94681,44.318956],[3.947594,44.319206],[3.948239,44.31928],[3.949058,44.318994],[3.949511,44.318769],[3.950365,44.318707],[3.950818,44.318545],[3.951533,44.318669],[3.952317,44.318121],[3.952805,44.317934],[3.953816,44.317784],[3.955019,44.317859],[3.954147,44.31751],[3.953485,44.317435],[3.954147,44.317335],[3.954528,44.317372],[3.955212,44.317487],[3.955184,44.317425],[3.954166,44.317129],[3.953792,44.317063],[3.95362,44.317014],[3.952832,44.316993],[3.952591,44.316997],[3.952711,44.316927],[3.953758,44.316792],[3.954885,44.316734],[3.954879,44.31668],[3.954505,44.316627],[3.953879,44.316557],[3.953965,44.316524],[3.954632,44.316495],[3.955017,44.316487],[3.954988,44.316446],[3.95458,44.316368],[3.95408,44.316347],[3.954063,44.31631],[3.95527,44.316125],[3.956655,44.315497],[3.957476,44.315209],[3.957846,44.31514],[3.95813,44.315021],[3.958645,44.314971],[3.959177,44.314944],[3.959348,44.314852],[3.959342,44.314703],[3.95974,44.314564],[3.960155,44.314389],[3.960496,44.314331],[3.960732,44.314331],[3.960952,44.314436],[3.96122,44.3145],[3.961448,44.314674],[3.961862,44.31486],[3.96274,44.31518],[3.963407,44.3155],[3.963627,44.315518],[3.964541,44.315358],[3.964815,44.315408],[3.965356,44.315742],[3.965603,44.315593],[3.966204,44.315109],[3.966671,44.314587],[3.967298,44.314149],[3.967114,44.313993],[3.966626,44.313793],[3.966714,44.313133],[3.966522,44.312359],[3.966226,44.311723],[3.965685,44.311025],[3.965389,44.310464],[3.965528,44.309765],[3.965493,44.309192],[3.96565,44.308593],[3.965894,44.308244],[3.96633,44.307845],[3.9667,44.307819],[3.967114,44.307654],[3.967286,44.307473],[3.968586,44.306782],[3.970311,44.306009],[3.970219,44.30577],[3.970322,44.305556],[3.971886,44.304922]]],"type":"MultiLineString"},"properties":{"geo_point":{"lon":3.8958969115245465,"lat":44.32196283978923},"name":"Tour de la Vallée du Luech (Gard-Lozère) (2020)","code_gr":null}}]}