{"type":"FeatureCollection","features":[{"type":"Feature","geometry":{"coordinates":[[[0.533555,49.518951],[0.532997,49.519369],[0.531023,49.519341],[0.530508,49.519578],[0.528019,49.519898],[0.52774,49.519425],[0.527225,49.519481],[0.526367,49.519299],[0.525895,49.519104],[0.525144,49.519063],[0.524564,49.518826],[0.523856,49.518882],[0.523556,49.518714],[0.523256,49.518826],[0.523127,49.518673],[0.522826,49.5187],[0.522698,49.519063],[0.521088,49.519397],[0.519436,49.519564],[0.518386,49.519836],[0.516176,49.520087],[0.516154,49.518192],[0.516412,49.51744],[0.517399,49.51652],[0.514588,49.51496],[0.512936,49.514208],[0.51182,49.513915],[0.510957,49.51326],[0.50997,49.513149],[0.509562,49.513372],[0.509455,49.513706],[0.50894,49.51372],[0.508296,49.513065],[0.507116,49.513079],[0.503983,49.514208],[0.502223,49.514445],[0.500528,49.514723],[0.498683,49.514695],[0.4957,49.514347],[0.495443,49.514027],[0.495057,49.514013],[0.493962,49.513483],[0.493469,49.512926],[0.493147,49.512842],[0.492138,49.513163],[0.492439,49.512773],[0.491237,49.51177],[0.491623,49.511644],[0.490744,49.51014],[0.490293,49.510126],[0.490078,49.50961],[0.490593,49.508328],[0.49098,49.507938],[0.491023,49.507632],[0.490593,49.507478],[0.48937,49.506684],[0.488727,49.506127],[0.487954,49.505974],[0.486195,49.504873],[0.485856,49.504327],[0.483796,49.504021],[0.482681,49.504509],[0.481994,49.504523],[0.481629,49.504899],[0.481114,49.504801],[0.480427,49.505846],[0.479655,49.506236],[0.473325,49.50717],[0.47414,49.508117],[0.475192,49.509525],[0.475363,49.512381],[0.473346,49.512283],[0.473325,49.511712],[0.472166,49.511782],[0.471008,49.51206],[0.469849,49.512186],[0.468754,49.512729],[0.466888,49.513941],[0.466115,49.514122],[0.46545,49.513983],[0.46457,49.513342],[0.462596,49.512966],[0.460021,49.512367],[0.45927,49.512409],[0.45736,49.513078],[0.456524,49.51305],[0.455579,49.512715],[0.454448,49.512115],[0.45344,49.512379],[0.450886,49.512282],[0.449642,49.512407],[0.448848,49.512435],[0.44844,49.512867],[0.448461,49.513828],[0.449534,49.514302],[0.449577,49.514957],[0.448354,49.516085],[0.448247,49.517436],[0.448805,49.518481],[0.44977,49.519122],[0.449985,49.519596],[0.44917,49.520209],[0.447474,49.521016],[0.447496,49.522103],[0.447732,49.522451],[0.447625,49.522674],[0.447753,49.522981],[0.446895,49.523217],[0.446702,49.523566],[0.446552,49.524095],[0.448461,49.524847],[0.449127,49.524861],[0.449599,49.524972],[0.450779,49.525098],[0.451401,49.525418],[0.451551,49.526894],[0.452023,49.527452],[0.45301,49.52819],[0.453847,49.528608],[0.453139,49.530209],[0.449127,49.530195],[0.44874,49.531992],[0.449127,49.532563],[0.448633,49.533371],[0.448655,49.53383],[0.448182,49.534471],[0.450478,49.535334],[0.451916,49.5361],[0.452603,49.536629],[0.454813,49.53649],[0.456379,49.536546],[0.457559,49.536448],[0.461079,49.535752],[0.463417,49.535167],[0.467451,49.534972],[0.467323,49.536128],[0.469044,49.536793],[0.470439,49.5371],[0.471297,49.536362],[0.475975,49.539035],[0.479,49.540052],[0.482305,49.541778],[0.486038,49.539035],[0.486661,49.53898],[0.486961,49.538701],[0.486789,49.538283],[0.487219,49.537058],[0.487047,49.536766],[0.487669,49.536445],[0.488699,49.536877],[0.491896,49.534816],[0.496939,49.531181],[0.497089,49.53022],[0.498377,49.530193],[0.503333,49.528145],[0.5049,49.529468],[0.504535,49.529733],[0.506359,49.531571],[0.510736,49.531738],[0.512431,49.531683],[0.511895,49.532142],[0.510736,49.532198],[0.511423,49.532337],[0.51168,49.532518],[0.512968,49.53288],[0.514534,49.534426],[0.51535,49.534538],[0.515972,49.5349],[0.516616,49.535067],[0.516229,49.535387],[0.516766,49.535763],[0.514663,49.536083],[0.513998,49.536724],[0.515521,49.537963],[0.517173,49.538924],[0.517817,49.539119],[0.519148,49.540149],[0.519491,49.540525],[0.520542,49.540985],[0.522989,49.541221],[0.525263,49.541068],[0.526701,49.541221],[0.529168,49.542321],[0.530357,49.542753],[0.532846,49.544104],[0.534799,49.544897],[0.537353,49.545886],[0.53864,49.546777],[0.540056,49.547362],[0.54158,49.547417],[0.54718,49.546916],[0.547885,49.5473],[0.549409,49.548845],[0.550696,49.549903],[0.550868,49.550377],[0.551447,49.55092],[0.553486,49.552019],[0.554859,49.553286],[0.555589,49.553523],[0.556747,49.553467],[0.557648,49.553551],[0.558163,49.553342],[0.559151,49.55369],[0.559773,49.554024],[0.561253,49.554469],[0.562863,49.554483],[0.563185,49.554859],[0.564944,49.55536],[0.565717,49.55536],[0.567498,49.55685],[0.568656,49.55788],[0.57106,49.556975],[0.571274,49.556571],[0.574475,49.555444],[0.57396,49.554998],[0.577565,49.554302],[0.579131,49.554776],[0.581653,49.555861],[0.584388,49.556836],[0.58692,49.555625],[0.588122,49.555332],[0.590246,49.555527],[0.592113,49.555402],[0.593594,49.555374],[0.595117,49.555207],[0.595804,49.555541],[0.596812,49.555736],[0.597521,49.554205],[0.598572,49.553063],[0.598379,49.552729],[0.598615,49.552465],[0.598787,49.552701],[0.600267,49.552841],[0.601147,49.552687],[0.602928,49.553564],[0.603893,49.554511],[0.606189,49.555527],[0.609408,49.554288],[0.61061,49.554066],[0.610717,49.553425],[0.611854,49.55266],[0.612241,49.552186],[0.612412,49.551588],[0.613657,49.550349],[0.614322,49.549893],[0.614773,49.549809],[0.614708,49.549628],[0.613507,49.549336],[0.612713,49.548974],[0.614172,49.549016],[0.617026,49.548431],[0.619043,49.548208],[0.62048,49.548445],[0.622519,49.549238],[0.624257,49.549308],[0.623291,49.549656],[0.623055,49.550463],[0.622133,49.551104],[0.619794,49.551299],[0.618764,49.551452],[0.617734,49.551452],[0.618656,49.551702],[0.620201,49.551939],[0.620437,49.552398],[0.621682,49.553958],[0.62254,49.554709],[0.623227,49.555016],[0.623592,49.554946],[0.624665,49.555043],[0.62533,49.555377],[0.62636,49.556254],[0.627948,49.556616],[0.628033,49.556825],[0.627583,49.557465],[0.628591,49.558481],[0.627969,49.559511],[0.627325,49.560291],[0.626016,49.560848],[0.625051,49.562295],[0.625029,49.562838],[0.625222,49.564146],[0.624321,49.564578],[0.626338,49.565705],[0.627411,49.56654],[0.632239,49.567945],[0.634857,49.567556],[0.635586,49.567639],[0.636445,49.567973],[0.637174,49.568029],[0.63784,49.568641],[0.637797,49.56949],[0.638097,49.570144],[0.639427,49.570409],[0.641058,49.570506],[0.642153,49.572078],[0.643569,49.572064],[0.646187,49.571731],[0.648268,49.571369],[0.650693,49.571703],[0.652195,49.571786],[0.654791,49.572677],[0.660456,49.573359],[0.660776,49.573067],[0.660841,49.57233],[0.66112,49.571843],[0.660819,49.570618],[0.660905,49.569505],[0.662085,49.568948],[0.664617,49.568447],[0.66584,49.567654],[0.666763,49.566777],[0.667106,49.565845],[0.666591,49.56501],[0.66657,49.563757],[0.666978,49.562477],[0.668222,49.561632],[0.669939,49.560964],[0.671376,49.560254],[0.671248,49.560602],[0.672192,49.560922],[0.673243,49.56095],[0.674552,49.561437],[0.67541,49.561493],[0.676741,49.560853],[0.677942,49.560797],[0.677814,49.560338],[0.682663,49.559725],[0.684036,49.559363],[0.684466,49.558918],[0.684594,49.558528],[0.687684,49.558361],[0.688349,49.558612],[0.688435,49.559363],[0.688371,49.559739],[0.6891,49.559447],[0.690281,49.559572],[0.691053,49.560045],[0.693156,49.560783],[0.693499,49.560672],[0.692941,49.560017],[0.692276,49.559321],[0.691976,49.558333],[0.691718,49.557442],[0.69204,49.557011],[0.693735,49.557011],[0.694915,49.556663],[0.696181,49.555702],[0.696546,49.555174],[0.696568,49.55477],[0.697352,49.553712],[0.69806,49.553322],[0.699155,49.553197],[0.700206,49.553461],[0.702245,49.55445],[0.702717,49.554923],[0.702459,49.555396],[0.704734,49.557136],[0.705828,49.557596],[0.706557,49.557596],[0.708231,49.556941],[0.709218,49.556774],[0.710849,49.556913],[0.711729,49.556788],[0.713059,49.556273],[0.713724,49.555874],[0.714089,49.555721],[0.714132,49.55547],[0.71278,49.555832],[0.711643,49.55586],[0.711257,49.555526],[0.711321,49.554983],[0.712287,49.554023],[0.711064,49.552645],[0.710956,49.551941],[0.710184,49.551078],[0.710248,49.54995],[0.711107,49.549616],[0.71087,49.548739],[0.712437,49.547249],[0.713081,49.546985],[0.714239,49.54679],[0.715849,49.546261],[0.716171,49.543337],[0.718037,49.542696],[0.719282,49.542627],[0.722586,49.541986],[0.725226,49.542557],[0.726041,49.542446],[0.727758,49.540928],[0.72868,49.540664],[0.730097,49.540747],[0.729839,49.540302],[0.728273,49.539856],[0.728916,49.538199],[0.729968,49.536695],[0.730805,49.536138],[0.732757,49.535748],[0.733916,49.535581],[0.73441,49.535818],[0.734646,49.536236],[0.735397,49.535762],[0.736212,49.534216],[0.736877,49.533562],[0.73765,49.532002],[0.739774,49.530526],[0.741147,49.529941],[0.742735,49.528506],[0.742821,49.527921],[0.743615,49.527225],[0.744001,49.527169],[0.744087,49.526584],[0.743744,49.526264],[0.743674,49.525832],[0.743609,49.52547],[0.743416,49.525192],[0.743223,49.524676],[0.742987,49.524384],[0.743395,49.52398],[0.742622,49.524063],[0.741978,49.524648],[0.741614,49.524634],[0.741013,49.52423],[0.740391,49.524217],[0.731421,49.525164],[0.730606,49.525651],[0.729962,49.525261],[0.728525,49.52469],[0.72758,49.524175],[0.726443,49.524175],[0.725799,49.524314],[0.72449,49.52423],[0.724469,49.524481],[0.723053,49.524788],[0.721851,49.524802],[0.718933,49.524314],[0.718118,49.523994],[0.71595,49.524035],[0.715328,49.524314],[0.714212,49.524258],[0.709985,49.523799],[0.707239,49.523339],[0.706466,49.523325],[0.705651,49.522935],[0.700501,49.521946],[0.698269,49.521445],[0.696681,49.521333],[0.696317,49.521542],[0.695909,49.522266],[0.693677,49.522336],[0.693334,49.522489],[0.692111,49.522643],[0.691124,49.522253],[0.689772,49.522071],[0.688506,49.521514],[0.687197,49.521514],[0.68591,49.522016],[0.684858,49.521974],[0.68342,49.521598],[0.681554,49.521556],[0.679279,49.521904],[0.677005,49.522392],[0.674966,49.522587],[0.673915,49.522183],[0.675782,49.519843],[0.676318,49.519508],[0.676447,49.51909],[0.675331,49.518993],[0.674816,49.518519],[0.674945,49.517879],[0.675503,49.517015],[0.675546,49.516374],[0.674902,49.515843],[0.674344,49.514909],[0.67443,49.514157],[0.673829,49.513474],[0.675031,49.512959],[0.673099,49.510808],[0.672026,49.509108],[0.671211,49.507269],[0.670288,49.507199],[0.670009,49.50692],[0.66958,49.50706],[0.669258,49.50692],[0.669301,49.506502],[0.668894,49.505973],[0.66855,49.505736],[0.6684,49.505374],[0.667821,49.505248],[0.668027,49.504215],[0.667813,49.503769],[0.666954,49.503602],[0.666182,49.502947],[0.665216,49.504159],[0.662148,49.502599],[0.657019,49.502543],[0.655968,49.50154],[0.656461,49.500795],[0.658393,49.498524],[0.658629,49.498008],[0.65953,49.49729],[0.6585,49.495541],[0.6585,49.495221],[0.657998,49.494588],[0.655337,49.491773],[0.653084,49.489668],[0.652162,49.489333],[0.651647,49.4901],[0.650531,49.490072],[0.650059,49.489877],[0.649801,49.489738],[0.649801,49.490323],[0.649801,49.491145],[0.649565,49.491661],[0.648793,49.492121],[0.648321,49.492205],[0.647698,49.492957],[0.64654,49.493654],[0.646518,49.494309],[0.64669,49.494797],[0.646647,49.495661],[0.646862,49.496372],[0.646583,49.49679],[0.645317,49.497347],[0.644415,49.497459],[0.643686,49.497849],[0.643343,49.498239],[0.642871,49.499117],[0.641304,49.4998],[0.639201,49.499926],[0.63624,49.499563],[0.636283,49.49817],[0.636519,49.497682],[0.635811,49.496316],[0.635682,49.49247],[0.634888,49.490895],[0.636111,49.489975],[0.634502,49.489501],[0.63433,49.490518],[0.633429,49.492623],[0.633429,49.493097],[0.62991,49.492372],[0.629459,49.492846],[0.626863,49.491968],[0.626305,49.491438],[0.624953,49.490811],[0.619567,49.489152],[0.619203,49.488887],[0.61798,49.488511],[0.616284,49.487452],[0.614976,49.486783],[0.615233,49.487995],[0.615383,49.489361],[0.613109,49.488678],[0.61225,49.488581],[0.612444,49.490908],[0.61225,49.49148],[0.612079,49.492939],[0.609482,49.492828],[0.606822,49.49312],[0.604526,49.49312],[0.601157,49.492521],[0.600556,49.49234],[0.598389,49.492563],[0.597552,49.492535],[0.596758,49.492563],[0.593754,49.49266],[0.594162,49.493329],[0.595513,49.493984],[0.595964,49.494486],[0.598196,49.495392],[0.599204,49.495643],[0.599569,49.495977],[0.601157,49.496521],[0.601747,49.496981],[0.602251,49.497636],[0.601028,49.496939],[0.598904,49.496828],[0.597166,49.497315],[0.595428,49.496674],[0.594505,49.496758],[0.592917,49.497928],[0.59266,49.498667],[0.592187,49.499113],[0.59178,49.499155],[0.590643,49.499754],[0.589183,49.500827],[0.587231,49.501566],[0.586716,49.501231],[0.585664,49.500883],[0.585686,49.500325],[0.585321,49.499991],[0.583862,49.499824],[0.583476,49.500897],[0.58339,49.501663],[0.581137,49.501538],[0.580772,49.501022],[0.579721,49.500423],[0.577575,49.500033],[0.576566,49.500033],[0.576008,49.499824],[0.575665,49.499517],[0.574485,49.499294],[0.573691,49.498793],[0.572983,49.49882],[0.572189,49.498528],[0.570901,49.49889],[0.57,49.499308],[0.568734,49.499629],[0.567361,49.500646],[0.566588,49.500911],[0.566116,49.500911],[0.564185,49.501761],[0.561095,49.503712],[0.561181,49.504004],[0.555924,49.506429],[0.55734,49.506875],[0.559851,49.507836],[0.560473,49.508491],[0.562104,49.509731],[0.563799,49.510525],[0.567533,49.51164],[0.567897,49.511918],[0.565966,49.511793],[0.564443,49.511542],[0.563069,49.511459],[0.560945,49.510929],[0.560044,49.510386],[0.559808,49.509801],[0.559205,49.509381],[0.55869,49.509339],[0.558583,49.509116],[0.558132,49.509144],[0.557703,49.508963],[0.556094,49.508642],[0.554356,49.508935],[0.552982,49.509381],[0.552038,49.510035],[0.551459,49.510286],[0.550322,49.511331],[0.548369,49.510709],[0.547382,49.510319],[0.546137,49.510347],[0.541417,49.51142],[0.540945,49.511378],[0.540902,49.511754],[0.540365,49.512339],[0.540751,49.512952],[0.540794,49.513328],[0.539378,49.513551],[0.540043,49.51376],[0.540236,49.514295],[0.539314,49.514462],[0.539164,49.514811],[0.53852,49.514741],[0.538219,49.51541],[0.537168,49.516719],[0.535773,49.517583],[0.535065,49.517722],[0.534722,49.518516],[0.534593,49.518962]]],"type":"MultiLineString"},"properties":{"geo_point":{"lon":0.5950552124981697,"lat":49.52800289480435},"name":"Tour du Pays de Caux vallée de Seine (Seine-Maritime) (2019)","code_gr":null}}]}