{"type":"FeatureCollection","features":[{"type":"Feature","geometry":{"coordinates":[[[1.756909,45.95208],[1.75785,45.951551],[1.758611,45.951342],[1.758311,45.950897],[1.758451,45.950479],[1.758931,45.950089],[1.760353,45.949686],[1.761714,45.949143],[1.762415,45.948864],[1.762995,45.947987],[1.763376,45.947695],[1.763858,45.947427],[1.765324,45.947399],[1.76572,45.947656],[1.766803,45.948079],[1.767847,45.948465],[1.768296,45.948529],[1.768111,45.948703],[1.768362,45.948795],[1.767543,45.948722],[1.767318,45.948676],[1.766883,45.948667],[1.766077,45.948345],[1.765601,45.948419],[1.765931,45.948501],[1.76576,45.948593],[1.765998,45.948683],[1.766239,45.948892],[1.76712,45.949184],[1.768121,45.949477],[1.768621,45.950368],[1.768922,45.950674],[1.769722,45.951175],[1.770123,45.951384],[1.770623,45.951913],[1.771184,45.95176],[1.771064,45.951426],[1.771164,45.951203],[1.771464,45.951203],[1.772405,45.951523],[1.773426,45.951593],[1.773967,45.951509],[1.774728,45.95105],[1.775108,45.950493],[1.775228,45.949741],[1.775488,45.948725],[1.775689,45.948405],[1.775568,45.948224],[1.775488,45.947653],[1.775929,45.94718],[1.775909,45.946317],[1.776129,45.946122],[1.77709,45.946164],[1.778471,45.946317],[1.778972,45.946261],[1.779452,45.945871],[1.779833,45.945885],[1.782035,45.94679],[1.783156,45.94679],[1.783637,45.946609],[1.783797,45.946679],[1.784638,45.946456],[1.785419,45.946442],[1.786159,45.946122],[1.78676,45.94608],[1.78706,45.946178],[1.787301,45.946762],[1.788462,45.947124],[1.789783,45.948015],[1.790744,45.948266],[1.791605,45.948614],[1.791805,45.948864],[1.792274,45.949016],[1.792874,45.948539],[1.792939,45.948046],[1.793218,45.947703],[1.793411,45.946987],[1.794226,45.945958],[1.794698,45.945585],[1.79502,45.945212],[1.795599,45.944883],[1.796308,45.944988],[1.796544,45.944809],[1.798496,45.944242],[1.799569,45.944495],[1.800127,45.943928],[1.800814,45.943376],[1.801629,45.94263],[1.803002,45.941825],[1.805062,45.941466],[1.806328,45.941347],[1.806908,45.941079],[1.808302,45.942108],[1.808496,45.942317],[1.809053,45.942586],[1.80959,45.94269],[1.810491,45.943108],[1.811028,45.943869],[1.812508,45.945719],[1.812615,45.946047],[1.812766,45.94733],[1.813259,45.947032],[1.814032,45.946405],[1.814783,45.946017],[1.815898,45.946122],[1.816542,45.94651],[1.818044,45.946868],[1.818452,45.946808],[1.819739,45.945256],[1.819739,45.945018],[1.819997,45.944913],[1.820898,45.944854],[1.821048,45.944675],[1.820083,45.943809],[1.819761,45.943302],[1.819718,45.942974],[1.819975,45.942586],[1.822336,45.94087],[1.823709,45.940168],[1.824503,45.939586],[1.825147,45.939497],[1.825619,45.93887],[1.825426,45.938422],[1.823752,45.938616],[1.823044,45.938825],[1.821606,45.939691],[1.821349,45.939691],[1.820533,45.939288],[1.819417,45.938318],[1.819267,45.93793],[1.818838,45.9379],[1.818323,45.9379],[1.818023,45.937975],[1.817036,45.938064],[1.816649,45.938512],[1.816392,45.938542],[1.81459,45.937632],[1.814547,45.937438],[1.813645,45.936885],[1.813002,45.936333],[1.812508,45.935751],[1.812508,45.935005],[1.812358,45.934766],[1.811714,45.934662],[1.81107,45.934304],[1.810899,45.933886],[1.811242,45.93311],[1.811392,45.932886],[1.811285,45.932349],[1.810985,45.931901],[1.811392,45.931796],[1.811821,45.931588],[1.812594,45.930811],[1.812723,45.93008],[1.813216,45.929692],[1.813817,45.929543],[1.814418,45.928692],[1.814783,45.927647],[1.815255,45.927289],[1.815662,45.926364],[1.815984,45.925961],[1.816821,45.925632],[1.81725,45.925722],[1.817658,45.925603],[1.817722,45.925304],[1.817679,45.924856],[1.817937,45.924035],[1.818409,45.923319],[1.819611,45.922005],[1.820126,45.921289],[1.821198,45.92114],[1.821671,45.920781],[1.822078,45.919975],[1.822701,45.919528],[1.823151,45.919513],[1.824224,45.919199],[1.824975,45.918826],[1.825297,45.918811],[1.825554,45.919005],[1.824932,45.919438],[1.824052,45.919916],[1.823087,45.920393],[1.822357,45.921155],[1.821907,45.921573],[1.821971,45.922065],[1.822486,45.922632],[1.823194,45.923244],[1.824589,45.923752],[1.825426,45.924215],[1.826155,45.924513],[1.826606,45.925021],[1.826713,45.925603],[1.827421,45.92514],[1.828001,45.924991],[1.829245,45.924528],[1.830382,45.923453],[1.831005,45.922483],[1.831949,45.922289],[1.832657,45.921767],[1.833837,45.921468],[1.834073,45.921319],[1.834073,45.920916],[1.834395,45.920274],[1.835167,45.919736],[1.834824,45.919333],[1.835361,45.919184],[1.835511,45.918871],[1.835554,45.91799],[1.835983,45.916646],[1.836305,45.916303],[1.837142,45.91587],[1.837893,45.915706],[1.838708,45.915527],[1.839631,45.915109],[1.840618,45.914303],[1.841261,45.913825],[1.841884,45.913153],[1.842334,45.912959],[1.842463,45.912795],[1.842935,45.91278],[1.843429,45.912392],[1.844287,45.911914],[1.844738,45.911332],[1.844974,45.9106],[1.845145,45.909928],[1.845918,45.909525],[1.846733,45.909033],[1.846776,45.908779],[1.846969,45.908704],[1.847162,45.90848],[1.846175,45.907943],[1.846175,45.907584],[1.846604,45.906912],[1.846819,45.906688],[1.846862,45.906405],[1.847312,45.906151],[1.848128,45.905852],[1.8486,45.905419],[1.849093,45.904673],[1.849222,45.904464],[1.849737,45.904165],[1.849887,45.903881],[1.849759,45.903284],[1.849823,45.902896],[1.850445,45.902687],[1.850724,45.902224],[1.851454,45.901418],[1.851969,45.900283],[1.852784,45.899969],[1.853063,45.899611],[1.854694,45.898715],[1.85493,45.897998],[1.855123,45.89746],[1.855102,45.897042],[1.854544,45.896818],[1.853986,45.896564],[1.852162,45.896714],[1.851432,45.896624],[1.850703,45.896624],[1.850359,45.896325],[1.849265,45.895534],[1.848493,45.895414],[1.850317,45.894757],[1.850424,45.894474],[1.850617,45.894324],[1.850617,45.894115],[1.850274,45.893891],[1.850338,45.893488],[1.849844,45.8931],[1.849029,45.893189],[1.848707,45.893458],[1.848321,45.893593],[1.847205,45.8931],[1.847184,45.892861],[1.847613,45.892846],[1.848063,45.892696],[1.847484,45.892502],[1.84742,45.892338],[1.84757,45.892159],[1.847527,45.891905],[1.847184,45.891561],[1.847184,45.891173],[1.84772,45.891128],[1.847785,45.890471],[1.848128,45.890023],[1.848106,45.889695],[1.847484,45.889187],[1.847677,45.888813],[1.847506,45.888709],[1.846991,45.888604],[1.846991,45.88844],[1.847527,45.888231],[1.848042,45.887783],[1.849008,45.887424],[1.849179,45.8872],[1.848986,45.886767],[1.848943,45.886453],[1.848621,45.88608],[1.848385,45.885423],[1.848514,45.88502],[1.848471,45.884721],[1.848514,45.884407],[1.848407,45.884183],[1.8483,45.883765],[1.848342,45.883526],[1.847913,45.882839],[1.847548,45.882241],[1.847055,45.881644],[1.846583,45.88124],[1.845596,45.880075],[1.844866,45.879373],[1.844394,45.878686],[1.844072,45.877924],[1.844029,45.87764],[1.84433,45.877521],[1.844287,45.876983],[1.844802,45.87537],[1.844587,45.874697],[1.844888,45.873592],[1.845767,45.872187],[1.846347,45.871381],[1.848643,45.870977],[1.849093,45.871276],[1.848879,45.872307],[1.848879,45.8728],[1.848493,45.873144],[1.84845,45.874174],[1.848257,45.874384],[1.848257,45.874787],[1.848171,45.875116],[1.848536,45.875325],[1.848514,45.875624],[1.848965,45.876072],[1.849458,45.876341],[1.850317,45.876595],[1.851583,45.877401],[1.851561,45.877835],[1.851368,45.878208],[1.851432,45.878417],[1.851969,45.878761],[1.852312,45.879119],[1.852999,45.879298],[1.853449,45.879762],[1.853814,45.879732],[1.855338,45.879986],[1.855724,45.880598],[1.85684,45.880195],[1.857376,45.880733],[1.858599,45.880837],[1.859543,45.881181],[1.859457,45.881763],[1.859479,45.882435],[1.859672,45.882779],[1.860058,45.883182],[1.86008,45.882659],[1.860273,45.882152],[1.860552,45.881689],[1.860509,45.880688],[1.860788,45.880165],[1.860831,45.879418],[1.861153,45.879134],[1.861453,45.878462],[1.861775,45.878088],[1.861989,45.877491],[1.862376,45.877073],[1.863427,45.876654],[1.863556,45.876341],[1.863277,45.876042],[1.862612,45.874877],[1.863384,45.874324],[1.864049,45.874025],[1.864393,45.873562],[1.864307,45.873308],[1.86347,45.873054],[1.863427,45.872486],[1.863492,45.871978],[1.864049,45.871067],[1.864114,45.870469],[1.864371,45.870439],[1.864779,45.86905],[1.865101,45.868527],[1.864822,45.868094],[1.865745,45.868183],[1.866195,45.867974],[1.866646,45.868273],[1.867332,45.868363],[1.86832,45.868153],[1.869736,45.868228],[1.869757,45.868721],[1.870165,45.868945],[1.871667,45.868975],[1.872826,45.868796],[1.873877,45.868482],[1.874349,45.867018],[1.874392,45.866585],[1.874542,45.865897],[1.874907,45.86518],[1.87628,45.863507],[1.876838,45.863252],[1.879928,45.862117],[1.881559,45.861026],[1.883404,45.860608],[1.884649,45.860174],[1.885808,45.860428],[1.886859,45.860563],[1.888661,45.861116],[1.888812,45.861116],[1.889176,45.861101],[1.889799,45.861713],[1.890893,45.862042],[1.89276,45.863327],[1.893597,45.863492],[1.894133,45.863417],[1.894798,45.863193],[1.894948,45.863372],[1.895142,45.863058],[1.895185,45.861982],[1.895549,45.861878],[1.89585,45.861415],[1.896472,45.861415],[1.896751,45.86119],[1.896794,45.860877],[1.897094,45.860578],[1.897116,45.859651],[1.897223,45.859427],[1.897373,45.859801],[1.897953,45.859816],[1.898532,45.859577],[1.898789,45.859367],[1.899068,45.858964],[1.899927,45.858426],[1.900012,45.858172],[1.900227,45.857903],[1.900291,45.857634],[1.900678,45.857156],[1.900935,45.857111],[1.901429,45.85729],[1.901708,45.85729],[1.901793,45.856289],[1.901665,45.855422],[1.901793,45.855019],[1.902781,45.853539],[1.90218,45.853703],[1.902008,45.85333],[1.90203,45.852358],[1.902416,45.850789],[1.902287,45.85058],[1.902802,45.84922],[1.903553,45.8478],[1.900399,45.848233],[1.899734,45.848009],[1.89924,45.848099],[1.896214,45.848054],[1.89585,45.848263],[1.892867,45.848876],[1.891816,45.848921],[1.890206,45.849294],[1.888661,45.850042],[1.887567,45.849818],[1.886451,45.849743],[1.884627,45.849788],[1.882396,45.84925],[1.881945,45.84901],[1.88128,45.848951],[1.879478,45.848009],[1.878941,45.847904],[1.877503,45.84777],[1.876881,45.847516],[1.876645,45.847292],[1.87613,45.847202],[1.875658,45.847232],[1.87525,45.847052],[1.875036,45.847127],[1.874177,45.847934],[1.873791,45.847934],[1.87319,45.847531],[1.872783,45.847546],[1.871967,45.84786],[1.87083,45.847874],[1.869028,45.84765],[1.868556,45.847486],[1.868534,45.847949],[1.86862,45.848308],[1.868255,45.848502],[1.867719,45.848278],[1.866367,45.848069],[1.86538,45.848203],[1.864715,45.848577],[1.863792,45.848786],[1.863384,45.848831],[1.862526,45.847904],[1.86156,45.847217],[1.860745,45.846888],[1.859822,45.846335],[1.859457,45.845064],[1.859415,45.844197],[1.857011,45.844153],[1.854737,45.844496],[1.853235,45.845035],[1.852806,45.845558],[1.852849,45.846111],[1.853471,45.846768],[1.853235,45.847292],[1.853299,45.848577],[1.852934,45.849369],[1.852248,45.849578],[1.851346,45.849534],[1.851003,45.849324],[1.85066,45.849309],[1.850488,45.84922],[1.849737,45.849279],[1.849051,45.849145],[1.848664,45.848936],[1.84787,45.84786],[1.84772,45.846963],[1.847162,45.846544],[1.846862,45.845991],[1.845961,45.846529],[1.845381,45.847008],[1.84463,45.847127],[1.844115,45.846783],[1.844051,45.846634],[1.843235,45.846559],[1.843107,45.847023],[1.841927,45.847381],[1.84109,45.848054],[1.840725,45.848099],[1.839824,45.847815],[1.838965,45.847964],[1.838579,45.848936],[1.837978,45.848532],[1.837764,45.848218],[1.836841,45.847725],[1.836305,45.847785],[1.83624,45.848457],[1.835468,45.848487],[1.834631,45.848981],[1.83315,45.8491],[1.83182,45.850281],[1.83109,45.850655],[1.830361,45.850714],[1.82946,45.85064],[1.828301,45.851178],[1.824782,45.851073],[1.825511,45.850834],[1.826198,45.8504],[1.826348,45.849892],[1.825511,45.84904],[1.824653,45.848861],[1.823838,45.848472],[1.822701,45.848114],[1.821928,45.847501],[1.821156,45.847202],[1.820619,45.847112],[1.819954,45.846843],[1.81931,45.846843],[1.818688,45.847082],[1.817787,45.846903],[1.817014,45.846873],[1.815619,45.846425],[1.814632,45.846365],[1.814075,45.846126],[1.813731,45.845782],[1.813538,45.845782],[1.813538,45.846081],[1.812465,45.846455],[1.811886,45.846753],[1.81107,45.846888],[1.810019,45.847307],[1.809547,45.84786],[1.809418,45.848741],[1.809762,45.851058],[1.81047,45.852358],[1.810534,45.852672],[1.810126,45.853091],[1.809955,45.854361],[1.809525,45.854809],[1.809096,45.856827],[1.808946,45.858187],[1.808689,45.858157],[1.807938,45.857843],[1.807079,45.857828],[1.804826,45.858276],[1.804676,45.858904],[1.803839,45.859636],[1.803496,45.860443],[1.802959,45.85995],[1.801414,45.859337],[1.801479,45.858829],[1.801221,45.858725],[1.800363,45.858889],[1.799526,45.85871],[1.799119,45.858411],[1.799011,45.858097],[1.799263,45.857896],[1.798982,45.857687],[1.79901,45.85703],[1.799112,45.856705],[1.799038,45.856354],[1.798963,45.856308],[1.798786,45.856315],[1.798515,45.85623],[1.798421,45.855723],[1.798431,45.85556],[1.797351,45.855519],[1.79645,45.855645],[1.795889,45.855463],[1.795309,45.854864],[1.794228,45.853177],[1.793627,45.852675],[1.793087,45.852647],[1.792666,45.852814],[1.792626,45.853637],[1.792386,45.85379],[1.791305,45.853553],[1.790324,45.854153],[1.790083,45.854139],[1.789323,45.853665],[1.788902,45.853665],[1.788001,45.854069],[1.788121,45.854348],[1.788001,45.854613],[1.788181,45.854947],[1.787481,45.855812],[1.787401,45.856063],[1.787881,45.8563],[1.787721,45.856621],[1.787421,45.856913],[1.78672,45.857053],[1.78672,45.857555],[1.78708,45.85789],[1.7869,45.858294],[1.787701,45.85867],[1.788382,45.858838],[1.788221,45.859089],[1.788282,45.859646],[1.787921,45.860079],[1.787381,45.860413],[1.785939,45.861612],[1.785599,45.861612],[1.785078,45.860915],[1.785038,45.860511],[1.785439,45.860065],[1.785519,45.859563],[1.785038,45.859507],[1.784357,45.86058],[1.784658,45.860943],[1.784698,45.861375],[1.784197,45.862128],[1.783977,45.862031],[1.783717,45.861807],[1.783537,45.86178],[1.783477,45.8621],[1.782956,45.862379],[1.782896,45.862937],[1.782335,45.86369],[1.782275,45.864763],[1.781595,45.864958],[1.780954,45.86493],[1.780253,45.864652],[1.779933,45.864401],[1.779152,45.864261],[1.778772,45.864916],[1.778511,45.865237],[1.778231,45.865377],[1.777731,45.865767],[1.777851,45.866004],[1.778191,45.866143],[1.778291,45.866464],[1.778031,45.866966],[1.778011,45.867314],[1.778211,45.867593],[1.77703,45.868527],[1.77713,45.869029],[1.77701,45.869642],[1.777771,45.869921],[1.778371,45.870284],[1.777951,45.870827],[1.777991,45.871064],[1.778692,45.87211],[1.778712,45.872458],[1.778091,45.873392],[1.778051,45.873964],[1.778271,45.874368],[1.778672,45.874716],[1.778451,45.875399],[1.778211,45.875804],[1.778011,45.875971],[1.777611,45.875664],[1.77707,45.875399],[1.77695,45.874995],[1.776629,45.874828],[1.775588,45.874884],[1.773646,45.874145],[1.772846,45.873058],[1.772325,45.872681],[1.772065,45.872291],[1.771985,45.871789],[1.771604,45.87112],[1.771364,45.87059],[1.770723,45.870075],[1.769943,45.869601],[1.770063,45.86921],[1.769622,45.868918],[1.769462,45.868931],[1.768861,45.868681],[1.768121,45.868569],[1.76766,45.868583],[1.765838,45.869196],[1.766199,45.870019],[1.76722,45.870047],[1.768001,45.872472],[1.7678,45.874493],[1.76708,45.875929],[1.765918,45.876222],[1.764937,45.876556],[1.764036,45.876682],[1.763356,45.876905],[1.763496,45.876292],[1.761494,45.876682],[1.759752,45.876877],[1.758851,45.877574],[1.75767,45.878299],[1.75765,45.878633],[1.75779,45.878912],[1.758511,45.879456],[1.759852,45.8794],[1.760233,45.880083],[1.759912,45.88032],[1.759312,45.880612],[1.759352,45.881058],[1.760353,45.880584],[1.761414,45.880027],[1.762455,45.879776],[1.762715,45.879818],[1.763896,45.8794],[1.764217,45.879358],[1.765638,45.878731],[1.765858,45.879149],[1.76704,45.879456],[1.768101,45.879567],[1.76754,45.87972],[1.76738,45.879888],[1.76744,45.880083],[1.76794,45.880501],[1.768421,45.88149],[1.768581,45.882173],[1.768521,45.882926],[1.768241,45.883637],[1.768661,45.883665],[1.769242,45.884989],[1.769842,45.885365],[1.769582,45.885908],[1.769642,45.886285],[1.770763,45.887107],[1.771905,45.887274],[1.772325,45.887664],[1.773767,45.887692],[1.774788,45.888431],[1.775528,45.888375],[1.776589,45.888793],[1.779753,45.889796],[1.778872,45.8908],[1.776289,45.892765],[1.776009,45.893419],[1.775949,45.894367],[1.776569,45.895398],[1.77691,45.896903],[1.77685,45.897488],[1.776529,45.898352],[1.776409,45.899341],[1.776409,45.899871],[1.776029,45.900512],[1.775328,45.901055],[1.774928,45.901626],[1.771144,45.906447],[1.770151,45.907121],[1.770108,45.907554],[1.769164,45.908107],[1.768734,45.909062],[1.76852,45.90966],[1.768048,45.910018],[1.766138,45.910914],[1.76558,45.911391],[1.766524,45.911526],[1.767361,45.914616],[1.766567,45.915348],[1.765258,45.91599],[1.765044,45.916214],[1.764915,45.916676],[1.765258,45.917542],[1.764357,45.918378],[1.764057,45.919333],[1.763477,45.919931],[1.762705,45.920931],[1.762104,45.921095],[1.761675,45.921005],[1.76101,45.920528],[1.760709,45.919856],[1.759937,45.919319],[1.75895,45.919751],[1.758156,45.919722],[1.757126,45.919542],[1.756525,45.919587],[1.756246,45.919931],[1.755967,45.920632],[1.755946,45.921617],[1.756289,45.922901],[1.757426,45.923677],[1.757855,45.92414],[1.758606,45.925468],[1.7594,45.926618],[1.760237,45.927035],[1.760581,45.927513],[1.760902,45.9282],[1.760817,45.928886],[1.761117,45.928841],[1.762083,45.929424],[1.762898,45.930811],[1.763198,45.930991],[1.763563,45.931811],[1.764336,45.932453],[1.762984,45.933095],[1.762533,45.93311],[1.761889,45.932841],[1.76116,45.932483],[1.761203,45.933319],[1.760945,45.935587],[1.760581,45.936572],[1.760044,45.937214],[1.759658,45.937363],[1.758907,45.937363],[1.758134,45.937676],[1.75777,45.938915],[1.758542,45.939198],[1.758413,45.939795],[1.757276,45.941243],[1.756439,45.942571],[1.755795,45.944331],[1.755688,45.94648],[1.75586,45.947271],[1.755581,45.947524],[1.755345,45.948091],[1.754701,45.948763],[1.754787,45.949031],[1.75601,45.948584],[1.75601,45.949568],[1.755688,45.95021],[1.755087,45.951165],[1.754916,45.951657],[1.754959,45.952]]],"type":"MultiLineString"},"properties":{"geo_point":{"lon":1.8166272002017203,"lat":45.89162069763644},"name":"Tour des Cascades, Landes et Tourbières (Creuse) (2020)","code_gr":null}}]}