{"type":"FeatureCollection","features":[{"type":"Feature","geometry":{"coordinates":[[[1.773573,50.916196],[1.774474,50.915939],[1.775848,50.915236],[1.777371,50.91441],[1.778744,50.91345],[1.782049,50.911962],[1.783358,50.911163],[1.782414,50.910041],[1.781298,50.909202],[1.774174,50.905765],[1.771749,50.904087],[1.769818,50.903167],[1.768938,50.904263],[1.768488,50.904087],[1.769367,50.902964],[1.770741,50.901678],[1.771191,50.901123],[1.771599,50.900095],[1.771148,50.895805],[1.770805,50.895006],[1.771363,50.894127],[1.772693,50.892814],[1.772779,50.891447],[1.773959,50.890025],[1.775397,50.889998],[1.77735,50.889037],[1.778508,50.888834],[1.781362,50.888076],[1.781899,50.887846],[1.782542,50.887345],[1.782993,50.886736],[1.783551,50.886181],[1.783572,50.885883],[1.784388,50.88522],[1.785847,50.885031],[1.786533,50.884489],[1.805159,50.89345],[1.809085,50.895764],[1.814257,50.892435],[1.815287,50.892313],[1.815866,50.893734],[1.817454,50.894127],[1.818055,50.892733],[1.819192,50.890702],[1.819643,50.889091],[1.820823,50.888374],[1.821831,50.887399],[1.822067,50.887007],[1.83005,50.881443],[1.838289,50.876258],[1.8411,50.874565],[1.843225,50.87313],[1.843632,50.871397],[1.844019,50.870367],[1.843933,50.869812],[1.843396,50.869149],[1.841701,50.866075],[1.84065,50.865005],[1.839647,50.863658],[1.838655,50.863114],[1.835993,50.862391],[1.833988,50.86179],[1.833565,50.861841],[1.832703,50.861779],[1.832573,50.861533],[1.832946,50.861199],[1.833891,50.861551],[1.836144,50.862106],[1.836723,50.861632],[1.837581,50.860346],[1.837281,50.85979],[1.837646,50.859668],[1.836487,50.858436],[1.836186,50.857691],[1.841637,50.853871],[1.840907,50.853438],[1.847066,50.850484],[1.848804,50.851975],[1.848396,50.850701],[1.849469,50.84978],[1.850155,50.849373],[1.850499,50.84936],[1.852473,50.848479],[1.852666,50.848235],[1.854468,50.84787],[1.855906,50.84745],[1.858159,50.847856],[1.858824,50.847788],[1.859275,50.847423],[1.859168,50.847125],[1.866184,50.843792],[1.866335,50.843886],[1.866506,50.84371],[1.866892,50.84367],[1.878136,50.838629],[1.877256,50.837464],[1.877214,50.836922],[1.876806,50.836217],[1.876291,50.834035],[1.88335,50.830891],[1.882642,50.830403],[1.882535,50.829603],[1.881848,50.828682],[1.880647,50.827516],[1.880904,50.826893],[1.88481,50.825076],[1.876269,50.817417],[1.877139,50.817103],[1.878049,50.816476],[1.878367,50.816358],[1.87848,50.816224],[1.878562,50.815603],[1.878196,50.814247],[1.878222,50.813716],[1.875368,50.813743],[1.874403,50.813635],[1.873115,50.813716],[1.872707,50.813513],[1.872965,50.812537],[1.872321,50.811859],[1.870574,50.811537],[1.869446,50.811466],[1.868781,50.811005],[1.867987,50.811167],[1.867343,50.810611],[1.866699,50.809933],[1.865626,50.809608],[1.865669,50.80935],[1.866165,50.808894],[1.867246,50.808464],[1.868483,50.808068],[1.869768,50.80752],[1.871935,50.806883],[1.872922,50.806394],[1.873716,50.805744],[1.874746,50.804455],[1.875754,50.804537],[1.877214,50.805079],[1.878029,50.805676],[1.880325,50.801607],[1.880046,50.801336],[1.88069,50.800604],[1.881269,50.79941],[1.882213,50.799668],[1.882707,50.798909],[1.882728,50.798407],[1.882513,50.798033],[1.8832,50.797213],[1.883372,50.79644],[1.884295,50.795721],[1.884402,50.795125],[1.884616,50.794853],[1.885882,50.793836],[1.886633,50.793416],[1.887857,50.792358],[1.889273,50.791544],[1.890281,50.791069],[1.891826,50.791069],[1.893049,50.790798],[1.893822,50.790703],[1.895796,50.790649],[1.896525,50.790025],[1.897899,50.789591],[1.900517,50.789184],[1.901976,50.788383],[1.902855,50.78761],[1.902748,50.786728],[1.902276,50.786077],[1.90234,50.785819],[1.903113,50.785616],[1.903006,50.785548],[1.90234,50.785494],[1.901761,50.785182],[1.901654,50.784558],[1.901718,50.783947],[1.901145,50.782542],[1.900796,50.781288],[1.898349,50.781397],[1.896933,50.781193],[1.895174,50.781532],[1.894272,50.781193],[1.896053,50.778778],[1.896268,50.778018],[1.896933,50.777679],[1.898304,50.77723],[1.901225,50.776702],[1.901954,50.77639],[1.90234,50.776336],[1.903649,50.776648],[1.904379,50.776634],[1.905688,50.776797],[1.906267,50.776078],[1.906267,50.77525],[1.905473,50.774585],[1.905774,50.774138],[1.905752,50.773771],[1.905366,50.773554],[1.904615,50.773242],[1.904293,50.772808],[1.90425,50.772469],[1.904894,50.772767],[1.907447,50.773337],[1.907469,50.773079],[1.90807,50.772604],[1.908563,50.771736],[1.908156,50.771573],[1.907984,50.771234],[1.905559,50.770419],[1.904658,50.770324],[1.895946,50.765534],[1.895066,50.764855],[1.893886,50.764299],[1.886848,50.759453],[1.886033,50.758747],[1.885496,50.758028],[1.882986,50.757254],[1.881269,50.756983],[1.875111,50.754037],[1.873051,50.752965],[1.869618,50.75215],[1.867837,50.752028],[1.864682,50.752123],[1.863266,50.751974],[1.861893,50.751946],[1.859768,50.751648],[1.859232,50.751444],[1.857773,50.751091],[1.857215,50.75082],[1.865154,50.749014],[1.866335,50.748457],[1.867086,50.747724],[1.868459,50.746706],[1.871162,50.745823],[1.873973,50.745022],[1.875154,50.74452],[1.875797,50.743922],[1.876312,50.743094],[1.877085,50.742429],[1.877428,50.741736],[1.877493,50.740989],[1.877943,50.740854],[1.877943,50.74027],[1.878651,50.738559],[1.879273,50.738694],[1.879746,50.739292],[1.881205,50.740188],[1.885668,50.742049],[1.889423,50.744031],[1.891805,50.745199],[1.892406,50.745742],[1.894616,50.746611],[1.896204,50.746869],[1.897513,50.747005],[1.898907,50.747235],[1.899808,50.747507],[1.89983,50.7471],[1.89865,50.745837],[1.898178,50.745212],[1.898178,50.744506],[1.898392,50.744031],[1.897856,50.743909],[1.897791,50.743569],[1.896161,50.742646],[1.893457,50.741112],[1.892813,50.740365],[1.891976,50.738939],[1.890453,50.737459],[1.890367,50.736603],[1.890389,50.735938],[1.88968,50.735041],[1.88938,50.732868],[1.889123,50.732203],[1.887599,50.7317],[1.887256,50.730492],[1.885968,50.728848],[1.885539,50.728481],[1.885925,50.727612],[1.886569,50.727164],[1.886891,50.726539],[1.88599,50.726104],[1.88511,50.725615],[1.887127,50.724651],[1.888479,50.72385],[1.889123,50.723415],[1.890217,50.723021],[1.890989,50.722872],[1.891633,50.722926],[1.893371,50.721554],[1.89365,50.720752],[1.893736,50.720046],[1.893328,50.719801],[1.892942,50.718008],[1.89335,50.717791],[1.893521,50.716921],[1.892706,50.716799],[1.891998,50.716758],[1.890603,50.715889],[1.889144,50.715386],[1.888414,50.715277],[1.887685,50.715359],[1.887578,50.715155],[1.886805,50.715318],[1.882878,50.713742],[1.881891,50.71309],[1.877149,50.711364],[1.876098,50.710889],[1.875626,50.710277],[1.876012,50.70972],[1.875368,50.709204],[1.874488,50.70885],[1.873737,50.708456],[1.872922,50.708769],[1.8723,50.708878],[1.871399,50.70934],[1.870347,50.710291],[1.868738,50.711405],[1.86479,50.710563],[1.863223,50.710073],[1.862386,50.70972],[1.861549,50.709068],[1.859704,50.708443],[1.858674,50.708293],[1.857987,50.708117],[1.857086,50.707967],[1.856035,50.707641],[1.855455,50.707152],[1.854318,50.706839],[1.852988,50.706744],[1.852516,50.706568],[1.852194,50.706133],[1.852172,50.705548],[1.851872,50.70529],[1.850864,50.705073],[1.851357,50.703578],[1.851207,50.703415],[1.850799,50.702708],[1.850005,50.702178],[1.847023,50.701553],[1.845692,50.700411],[1.845006,50.700085],[1.844534,50.700357],[1.843546,50.701403],[1.842495,50.700982],[1.841529,50.70033],[1.840435,50.700642],[1.838676,50.700303],[1.838397,50.700004],[1.837216,50.699718],[1.836186,50.699365],[1.841723,50.686601],[1.842238,50.685391],[1.83673,50.684337],[1.839751,50.679936],[1.839751,50.679427],[1.830971,50.679037],[1.831158,50.678457],[1.831102,50.677889],[1.831476,50.677533],[1.832372,50.674029],[1.83084,50.669116],[1.830056,50.669187],[1.829122,50.66959],[1.825816,50.66869],[1.82505,50.66856],[1.823406,50.668536],[1.82236,50.668927],[1.819838,50.67017],[1.818811,50.67036],[1.817951,50.671022],[1.817466,50.67107],[1.816681,50.670715],[1.816251,50.670809],[1.815523,50.67062],[1.815261,50.670644],[1.813954,50.670348],[1.81231,50.670004],[1.812086,50.66959],[1.811768,50.669258],[1.811712,50.668738],[1.811955,50.668205],[1.809228,50.668809],[1.807266,50.669957],[1.806314,50.670288],[1.803456,50.671638],[1.803142,50.6714],[1.798421,50.667619],[1.796919,50.667565],[1.794945,50.668462],[1.794795,50.668421],[1.794709,50.667673],[1.794816,50.666517],[1.795567,50.664178],[1.798099,50.661512],[1.798571,50.66071],[1.798721,50.66022],[1.798829,50.658438],[1.798346,50.658017],[1.798306,50.657741],[1.797949,50.657622],[1.797048,50.656778],[1.796104,50.656411],[1.795305,50.655881],[1.795477,50.655709],[1.795803,50.655472],[1.795508,50.654951],[1.795348,50.654892],[1.795311,50.654834],[1.796761,50.654291],[1.797756,50.653867],[1.799472,50.653405],[1.799772,50.65342],[1.801168,50.652874],[1.800245,50.652194],[1.797949,50.651187],[1.792584,50.650139],[1.791018,50.649636],[1.789924,50.648847],[1.785117,50.647514],[1.783572,50.646629],[1.779882,50.645228],[1.779195,50.644697],[1.778422,50.644452],[1.7775,50.644343],[1.775976,50.644765],[1.775397,50.644683],[1.774818,50.644506],[1.772483,50.644266],[1.771298,50.644194],[1.769324,50.64384],[1.768724,50.64452],[1.767951,50.64501],[1.766084,50.645445],[1.764539,50.645581],[1.763402,50.645336],[1.762823,50.647078],[1.763187,50.647364],[1.764217,50.647976],[1.764883,50.648044],[1.765891,50.648017],[1.766149,50.648126],[1.766535,50.648684],[1.765741,50.649636],[1.764861,50.650194],[1.764325,50.651269],[1.762608,50.653758],[1.76175,50.654507],[1.759347,50.655282],[1.757372,50.65637],[1.756621,50.657091],[1.75381,50.658683],[1.752823,50.65954],[1.752287,50.659853],[1.751579,50.661145],[1.750763,50.662002],[1.750742,50.662247],[1.7513,50.663389],[1.750763,50.663716],[1.750227,50.664246],[1.748875,50.665348],[1.748768,50.665715],[1.748919,50.666022],[1.749421,50.666357],[1.749368,50.666842],[1.748919,50.668098],[1.748364,50.668835],[1.746987,50.669836],[1.745871,50.670189],[1.744155,50.670951],[1.743232,50.671631],[1.741987,50.673004],[1.741575,50.673171],[1.740657,50.672596],[1.739777,50.672311],[1.739112,50.671984],[1.738318,50.671495],[1.73746,50.671454],[1.736258,50.671087],[1.735142,50.672243],[1.732954,50.673467],[1.730121,50.675574],[1.729735,50.677397],[1.728297,50.678498],[1.726152,50.678566],[1.723255,50.680714],[1.727997,50.683746],[1.730336,50.686044],[1.731881,50.687498],[1.736687,50.689959],[1.739756,50.691373],[1.741751,50.695043],[1.740507,50.70139],[1.745785,50.706038],[1.736387,50.711052],[1.718362,50.719924],[1.716045,50.720481],[1.715294,50.720888],[1.714693,50.721119],[1.719071,50.724434],[1.719071,50.724434],[1.71965,50.727544],[1.71744,50.728699],[1.717032,50.728767],[1.714521,50.729364],[1.712333,50.729595],[1.707848,50.730858],[1.707634,50.731456],[1.708428,50.731171],[1.709114,50.731171],[1.714092,50.731646],[1.714576,50.731794],[1.715217,50.732442],[1.715302,50.732588],[1.715467,50.732705],[1.71553,50.732896],[1.716195,50.733059],[1.716901,50.732852],[1.717654,50.732705],[1.718122,50.73245],[1.71842,50.732793],[1.719166,50.733119],[1.719906,50.73327],[1.721023,50.733154],[1.721839,50.732977],[1.722395,50.733011],[1.722917,50.733115],[1.723393,50.733328],[1.723809,50.733654],[1.724073,50.734072],[1.724945,50.736948],[1.725149,50.737308],[1.725594,50.737567],[1.724242,50.743474],[1.723373,50.743819],[1.722654,50.744004],[1.722963,50.744204],[1.71922,50.744685],[1.719239,50.744839],[1.718948,50.745282],[1.718622,50.74566],[1.71807,50.746205],[1.717429,50.746761],[1.717059,50.746941],[1.716491,50.747095],[1.713869,50.74738],[1.712502,50.747091],[1.706849,50.749009],[1.706598,50.749122],[1.706334,50.749327],[1.70579,50.749429],[1.7049,50.750096],[1.704009,50.75066],[1.703745,50.751028],[1.703352,50.751321],[1.703355,50.751479],[1.703467,50.751845],[1.702939,50.751688],[1.702205,50.75124],[1.701981,50.751191],[1.701605,50.751195],[1.700575,50.751316],[1.700443,50.751466],[1.700853,50.753494],[1.70074,50.753627],[1.700555,50.753702],[1.700462,50.753965],[1.700423,50.754366],[1.700638,50.755123],[1.700574,50.755883],[1.700917,50.756752],[1.700991,50.757487],[1.701314,50.757897],[1.701671,50.758745],[1.701902,50.759518],[1.702952,50.759672],[1.705997,50.759931],[1.707291,50.760182],[1.708835,50.760593],[1.709781,50.761084],[1.708728,50.762114],[1.706552,50.763954],[1.704329,50.765751],[1.703256,50.767217],[1.70214,50.76771],[1.701704,50.767956],[1.701361,50.768353],[1.701132,50.768533],[1.700553,50.768791],[1.697972,50.769205],[1.69433,50.770039],[1.691497,50.770175],[1.689867,50.770324],[1.688878,50.770554],[1.688536,50.770908],[1.688158,50.771657],[1.688218,50.772601],[1.686943,50.77392],[1.686441,50.774133],[1.684609,50.775576],[1.681069,50.776363],[1.680022,50.776735],[1.677968,50.776919],[1.677829,50.776471],[1.676949,50.77582],[1.675447,50.775033],[1.674031,50.77445],[1.673237,50.773907],[1.671859,50.772308],[1.670769,50.770827],[1.670267,50.770458],[1.669782,50.769999],[1.669356,50.770537],[1.66923,50.770871],[1.669257,50.771473],[1.669098,50.772325],[1.668838,50.773052],[1.668675,50.773189],[1.66828,50.775562],[1.668266,50.776568],[1.66783,50.778683],[1.667336,50.780284],[1.666714,50.781099],[1.666349,50.781885],[1.66637,50.783011],[1.66604,50.782999],[1.665988,50.783112],[1.665756,50.783237],[1.664336,50.783801],[1.663366,50.784248],[1.662527,50.784686],[1.662236,50.784715],[1.662005,50.784653],[1.661734,50.784548],[1.661464,50.784544],[1.660592,50.784828],[1.660156,50.785175],[1.659204,50.785277],[1.656822,50.785738],[1.655813,50.786091],[1.653088,50.786484],[1.652158,50.786394],[1.651531,50.786436],[1.651035,50.78659],[1.650097,50.787062],[1.647832,50.787951],[1.646207,50.788486],[1.645501,50.788753],[1.644094,50.789179],[1.642767,50.789258],[1.641901,50.789333],[1.641565,50.789429],[1.64095,50.789705],[1.640364,50.790052],[1.640171,50.790302],[1.64002,50.790635],[1.639662,50.790895],[1.639352,50.791212],[1.63885,50.791463],[1.637617,50.791978],[1.635211,50.792661],[1.632725,50.793524],[1.631588,50.793782],[1.631308,50.794335],[1.630998,50.794769],[1.63078,50.795416],[1.630579,50.796128],[1.630773,50.797787],[1.631057,50.7982],[1.633534,50.800525],[1.633699,50.800809],[1.633605,50.801445],[1.633474,50.801869],[1.63323,50.80202],[1.632897,50.802014],[1.629776,50.801235],[1.629234,50.801206],[1.62796,50.801344],[1.627616,50.801448],[1.627468,50.801607],[1.627318,50.803099],[1.626888,50.805269],[1.628519,50.810584],[1.629016,50.811636],[1.629611,50.815404],[1.629624,50.815846],[1.629505,50.816689],[1.629617,50.817599],[1.63033,50.817778],[1.630885,50.817966],[1.631149,50.818379],[1.631163,50.818562],[1.631017,50.819142],[1.629635,50.820237],[1.629678,50.82101],[1.629261,50.822017],[1.629142,50.822643],[1.629181,50.823327],[1.628412,50.824751],[1.628217,50.826986],[1.628052,50.827332],[1.627748,50.827595],[1.627233,50.827929],[1.62706,50.828113],[1.62611,50.829773],[1.622795,50.840459],[1.622854,50.840734],[1.622293,50.841059],[1.621837,50.841414],[1.621524,50.841827],[1.62397,50.843263],[1.625027,50.843983],[1.62573,50.84455],[1.627468,50.846135],[1.62942,50.847084],[1.631486,50.84892],[1.631909,50.849238],[1.63245,50.849562],[1.632754,50.849658],[1.633157,50.849712],[1.633501,50.849729],[1.63428,50.849821],[1.634696,50.849979],[1.635383,50.850359],[1.635852,50.850504],[1.636294,50.850609],[1.636875,50.850963],[1.637126,50.851042],[1.6385,50.851001],[1.639405,50.851197],[1.639649,50.851197],[1.639847,50.851159],[1.640495,50.851534],[1.641142,50.851772],[1.643143,50.852068],[1.643955,50.852293],[1.644398,50.852516],[1.645705,50.853248],[1.647874,50.854603],[1.649959,50.856329],[1.651841,50.857163],[1.652237,50.857742],[1.652633,50.858268],[1.652931,50.858443],[1.653651,50.858664],[1.654945,50.859281],[1.655381,50.859585],[1.656757,50.860535],[1.658075,50.861899],[1.659264,50.863579],[1.660539,50.864704],[1.661306,50.865276],[1.661543,50.865396],[1.66182,50.866617],[1.663388,50.867469],[1.664632,50.86835],[1.666692,50.870137],[1.668081,50.871594],[1.669246,50.872548],[1.671773,50.875049],[1.672357,50.875838],[1.673688,50.874822],[1.675168,50.872791],[1.677335,50.870029],[1.677941,50.869352],[1.679639,50.867772],[1.680828,50.865759],[1.681884,50.86575],[1.684684,50.866213],[1.685028,50.866213],[1.685371,50.866167],[1.685602,50.866305],[1.686468,50.866638],[1.687564,50.866938],[1.688092,50.867005],[1.688865,50.867076],[1.691163,50.867472],[1.691652,50.86758],[1.691943,50.867568],[1.693409,50.86713],[1.693699,50.867088],[1.694393,50.867151],[1.695324,50.867309],[1.696288,50.867376],[1.69685,50.867451],[1.697477,50.867434],[1.698864,50.867263],[1.700092,50.867201],[1.701068,50.867009],[1.701856,50.866863],[1.702899,50.866267],[1.704266,50.865592],[1.705653,50.864875],[1.706499,50.864379],[1.706855,50.864467],[1.70776,50.864525],[1.709246,50.864683],[1.711254,50.864737],[1.712073,50.864867],[1.712958,50.865225],[1.714272,50.865271],[1.715474,50.865363],[1.716445,50.86545],[1.717145,50.8656],[1.717601,50.865763],[1.717847,50.865926],[1.717086,50.86613],[1.716504,50.866238],[1.714741,50.866701],[1.712354,50.867131],[1.711517,50.867375],[1.710766,50.867456],[1.707483,50.869189],[1.706499,50.869585],[1.705601,50.869868],[1.704359,50.870602],[1.704134,50.87066],[1.703923,50.870635],[1.703335,50.871035],[1.702999,50.871383],[1.701883,50.871803],[1.701803,50.872636],[1.697849,50.87313],[1.698098,50.873869],[1.698263,50.874478],[1.698422,50.875549],[1.69854,50.87587],[1.698686,50.876132],[1.698831,50.876778],[1.698851,50.877303],[1.698793,50.877612],[1.698593,50.877908],[1.697424,50.878979],[1.697055,50.880238],[1.696823,50.880658],[1.696467,50.881412],[1.696163,50.882179],[1.695753,50.883087],[1.695608,50.883541],[1.69543,50.883758],[1.694188,50.88455],[1.693884,50.884854],[1.693779,50.885166],[1.693376,50.886975],[1.693349,50.887258],[1.693389,50.887637],[1.693402,50.888016],[1.693198,50.888229],[1.692306,50.88837],[1.692055,50.888496],[1.691883,50.888741],[1.691698,50.889349],[1.691507,50.889608],[1.691362,50.889641],[1.691648,50.890729],[1.691507,50.890274],[1.691731,50.890828],[1.692098,50.891501],[1.691586,50.891762],[1.690113,50.893074],[1.689287,50.893734],[1.690443,50.89424],[1.691412,50.894749],[1.692999,50.895694],[1.694287,50.896603],[1.695331,50.897339],[1.695875,50.897821],[1.696111,50.898782],[1.696905,50.899459],[1.697613,50.900366],[1.698042,50.901056],[1.699544,50.902477],[1.700402,50.902991],[1.703235,50.90364],[1.704672,50.904398],[1.708063,50.905454],[1.710273,50.905873],[1.71789,50.910135],[1.718491,50.911448],[1.71892,50.911853],[1.719521,50.911921],[1.721045,50.912476],[1.721796,50.913328],[1.722997,50.914032],[1.723555,50.914208],[1.724349,50.914126],[1.725701,50.914126],[1.726388,50.914235],[1.726302,50.914708],[1.725894,50.914911],[1.725014,50.915195],[1.724177,50.915804],[1.724328,50.9174],[1.724886,50.918537],[1.724886,50.918537],[1.731623,50.924644],[1.731344,50.924968],[1.73113,50.925509],[1.732975,50.925753],[1.734241,50.926186],[1.734649,50.926767],[1.734842,50.927538],[1.735443,50.927782],[1.735829,50.927646],[1.736086,50.927795],[1.736537,50.927876],[1.739241,50.92931],[1.739455,50.92954],[1.740249,50.92981],[1.741708,50.930324],[1.742588,50.930459],[1.743833,50.930419],[1.745077,50.93004],[1.746257,50.929513],[1.74688,50.929405],[1.748124,50.929729],[1.748725,50.929567],[1.749734,50.929053],[1.750721,50.928282],[1.751557,50.928228],[1.752394,50.928458],[1.755591,50.929891],[1.757201,50.929594],[1.759239,50.929026],[1.762029,50.929337],[1.763896,50.92977],[1.766084,50.929864],[1.767565,50.930162],[1.770118,50.930148],[1.770955,50.93004],[1.772264,50.929959],[1.772801,50.929269],[1.773165,50.929175],[1.777264,50.929391],[1.777714,50.925131],[1.776684,50.924292],[1.772543,50.920329],[1.771921,50.919436],[1.771728,50.918773],[1.771792,50.917691],[1.771513,50.916622]]],"type":"MultiLineString"},"properties":{"geo_point":{"lon":1.7764287321745333,"lat":50.78919844349068},"name":"Tour du Parc Régional Boulonnais (Pas de Calais) (2020)","code_gr":null}}]}