{"type":"FeatureCollection","features":[{"type":"Feature","geometry":{"coordinates":[[[3.905632,44.591769],[3.905843,44.591834],[3.905843,44.591834],[3.90591,44.592261],[3.906073,44.592343],[3.906437,44.592724],[3.906706,44.592873],[3.90725,44.592941],[3.9082,44.593201],[3.90928,44.593971],[3.9098,44.594429],[3.911054,44.59532],[3.911705,44.595872],[3.911932,44.596106],[3.91292,44.596851],[3.913106,44.597107],[3.913144,44.59724],[3.913144,44.597511],[3.913299,44.597839],[3.913659,44.59819],[3.913911,44.598396],[3.913964,44.598518],[3.913948,44.598831],[3.914018,44.599842],[3.91449,44.600933],[3.914855,44.601268],[3.915601,44.60165],[3.915815,44.601864],[3.9164,44.60281],[3.91699,44.603302],[3.917328,44.603893],[3.918208,44.605125],[3.919753,44.606678],[3.920251,44.607422],[3.921062,44.608544],[3.920729,44.608686],[3.920364,44.608768],[3.919833,44.60907],[3.919356,44.609283],[3.918487,44.609436],[3.917553,44.6096],[3.915949,44.61021],[3.915617,44.610432],[3.915032,44.610859],[3.914678,44.611202],[3.914447,44.611469],[3.914125,44.611591],[3.913693,44.611732],[3.91309,44.611728],[3.912471,44.611723],[3.911765,44.6119],[3.91139,44.612058],[3.911143,44.612255],[3.910274,44.612885],[3.909965,44.613041],[3.909431,44.613113],[3.909126,44.613113],[3.908638,44.61306],[3.908177,44.613163],[3.907785,44.613422],[3.907479,44.613903],[3.907179,44.614226],[3.907028,44.614289],[3.906432,44.614357],[3.906148,44.61433],[3.906117,44.614407],[3.906822,44.614664],[3.9075,44.61483],[3.907865,44.614791],[3.908123,44.6147],[3.908208,44.614754],[3.908064,44.615124],[3.907886,44.615261],[3.907286,44.615524],[3.906851,44.615509],[3.906207,44.615429],[3.905888,44.615462],[3.906692,44.615741],[3.907569,44.615781],[3.908728,44.615502],[3.909157,44.615329],[3.909587,44.615529],[3.910222,44.615582],[3.910726,44.615489],[3.910913,44.615728],[3.912931,44.616366],[3.913248,44.616619],[3.913528,44.616725],[3.913622,44.616965],[3.913192,44.617005],[3.91379,44.617124],[3.913902,44.617364],[3.914537,44.617656],[3.915041,44.618082],[3.915434,44.618613],[3.916442,44.619012],[3.91676,44.619185],[3.917227,44.619331],[3.917433,44.619784],[3.916442,44.619877],[3.915957,44.620222],[3.915079,44.620342],[3.914593,44.620329],[3.914276,44.620528],[3.91364,44.620515],[3.913024,44.620608],[3.911548,44.620462],[3.911212,44.620674],[3.909643,44.62118],[3.908728,44.621445],[3.908429,44.621592],[3.907495,44.622509],[3.90686,44.622948],[3.906486,44.6234],[3.90572,44.624783],[3.905216,44.625235],[3.905122,44.625594],[3.902414,44.625753],[3.901405,44.625953],[3.900919,44.626019],[3.90021,44.626631],[3.899593,44.627016],[3.899051,44.627561],[3.898846,44.628066],[3.898491,44.628465],[3.897837,44.628864],[3.897445,44.629024],[3.897034,44.629449],[3.896193,44.629755],[3.895371,44.629967],[3.895409,44.6301],[3.895857,44.630127],[3.894904,44.630752],[3.894886,44.631323],[3.894921,44.631421],[3.894809,44.631771],[3.895768,44.631581],[3.896063,44.631409],[3.89616,44.631176],[3.896772,44.630917],[3.899332,44.630313],[3.90131,44.630043],[3.901664,44.630051],[3.901932,44.630165],[3.902415,44.630505],[3.903198,44.630981],[3.903793,44.631214],[3.904255,44.6315],[3.904518,44.631748],[3.904737,44.632141],[3.905231,44.632755],[3.906315,44.633827],[3.907361,44.634571],[3.907929,44.63472],[3.908444,44.634811],[3.908938,44.634823],[3.909764,44.635162],[3.910595,44.635414],[3.911566,44.635567],[3.912393,44.635505],[3.913455,44.635227],[3.914431,44.635052],[3.914876,44.635086],[3.916035,44.635281],[3.916802,44.635242],[3.918508,44.635464],[3.918948,44.635655],[3.919457,44.635952],[3.920557,44.636444],[3.921169,44.636635],[3.921678,44.636868],[3.92199,44.636898],[3.922177,44.636837],[3.923293,44.636044],[3.923888,44.635757],[3.924291,44.635239],[3.924468,44.635189],[3.924758,44.63522],[3.92516,44.635101],[3.925857,44.634731],[3.926469,44.634537],[3.928223,44.634094],[3.929194,44.633671],[3.930369,44.633297],[3.931254,44.632893],[3.93186,44.632748],[3.932386,44.632492],[3.932735,44.631782],[3.933051,44.631695],[3.93326,44.631542],[3.933249,44.631474],[3.932515,44.630711],[3.932316,44.630363],[3.932327,44.630249],[3.932542,44.629959],[3.932649,44.629725],[3.932638,44.629597],[3.931817,44.628955],[3.931731,44.628742],[3.931892,44.628555],[3.932413,44.62833],[3.933255,44.628112],[3.934043,44.628017],[3.935911,44.627388],[3.936131,44.627029],[3.936055,44.62598],[3.935755,44.625343],[3.935556,44.624668],[3.935422,44.624398],[3.935369,44.624012],[3.935492,44.623768],[3.935851,44.623402],[3.93597,44.6231],[3.936597,44.622746],[3.937429,44.622395],[3.93804,44.622222],[3.938447,44.622185],[3.938914,44.622057],[3.939762,44.621788],[3.940846,44.621773],[3.942015,44.621645],[3.945172,44.622456],[3.946023,44.62252],[3.947213,44.62286],[3.947948,44.623001],[3.948334,44.622997],[3.948834,44.622788],[3.949151,44.622483],[3.949562,44.622323],[3.94973,44.621831],[3.950888,44.6211],[3.950944,44.621299],[3.951449,44.621738],[3.951785,44.622177],[3.95269,44.622116],[3.952873,44.622184],[3.953404,44.623028],[3.95402,44.623718],[3.95489,44.624382],[3.955399,44.624695],[3.955544,44.624969],[3.955506,44.625332],[3.955523,44.625473],[3.955206,44.625767],[3.95512,44.625992],[3.954949,44.626175],[3.954638,44.626926],[3.953624,44.627693],[3.952626,44.628567],[3.951794,44.629063],[3.950974,44.629482],[3.950383,44.629879],[3.949809,44.630573],[3.949225,44.630913],[3.948758,44.631081],[3.948476,44.631273],[3.948034,44.631809],[3.947594,44.632496],[3.947143,44.633511],[3.946897,44.633816],[3.946838,44.634178],[3.946779,44.634304],[3.948163,44.634731],[3.948442,44.634922],[3.948586,44.635193],[3.948651,44.635502],[3.948753,44.635555],[3.949075,44.635483],[3.949144,44.635574],[3.949187,44.635941],[3.949284,44.635986],[3.94945,44.635952],[3.94937,44.636383],[3.949129,44.636947],[3.949284,44.637711],[3.949407,44.637745],[3.950019,44.637638],[3.950169,44.637688],[3.950239,44.637909],[3.950233,44.638165],[3.950389,44.63842],[3.950823,44.638508],[3.951151,44.638627],[3.951081,44.638706],[3.950501,44.639015],[3.950335,44.639157],[3.950169,44.639233],[3.949334,44.640009],[3.94879,44.640457],[3.9486,44.640612],[3.948397,44.640876],[3.948313,44.641171],[3.948302,44.641411],[3.948436,44.641533],[3.949096,44.641762],[3.949155,44.642044],[3.949058,44.642125],[3.947937,44.642689],[3.947868,44.642803],[3.947948,44.642864],[3.948388,44.642982],[3.948745,44.643123],[3.949101,44.64318],[3.949582,44.643505],[3.950175,44.644066],[3.950565,44.64433],[3.950729,44.644548],[3.951064,44.644737],[3.951528,44.645334],[3.951821,44.645908],[3.95283,44.645618],[3.954906,44.645393],[3.955807,44.645222],[3.956392,44.644981],[3.957451,44.644733],[3.958419,44.644577],[3.958307,44.644794],[3.956992,44.645592],[3.956638,44.645817],[3.956139,44.64595],[3.955901,44.646097],[3.954836,44.646564],[3.95438,44.646736],[3.953677,44.647144],[3.953146,44.647697],[3.953001,44.647991],[3.952945,44.648241],[3.953023,44.648556],[3.953142,44.648654],[3.953165,44.648767],[3.953693,44.6492],[3.953699,44.649307],[3.953382,44.649635],[3.953243,44.64999],[3.95357,44.650322],[3.953597,44.650508],[3.953318,44.650577],[3.953028,44.650536],[3.951966,44.650665],[3.951494,44.650715],[3.951475,44.650772],[3.951059,44.651024],[3.950147,44.651382],[3.949944,44.651409],[3.949482,44.651577],[3.949181,44.651749],[3.948919,44.652015],[3.948726,44.652404],[3.948501,44.652546],[3.948281,44.652815],[3.947825,44.653023],[3.946585,44.652924],[3.946006,44.652855],[3.945518,44.652973],[3.94526,44.653114],[3.944863,44.653343],[3.944536,44.653614],[3.944407,44.653678],[3.944311,44.653917],[3.943345,44.655656],[3.943222,44.656006],[3.942895,44.656444],[3.942715,44.65649],[3.942512,44.656734],[3.942165,44.65708],[3.942426,44.657612],[3.942183,44.657838],[3.941492,44.65805],[3.940764,44.657838],[3.940229,44.657879],[3.939891,44.657997],[3.939703,44.658203],[3.939682,44.658356],[3.939811,44.658542],[3.940379,44.658661],[3.94047,44.658772],[3.940558,44.659206],[3.939687,44.660286],[3.939298,44.660677],[3.93892,44.660961],[3.938437,44.661091],[3.938123,44.661405],[3.937686,44.661732],[3.936923,44.662178],[3.936205,44.662479],[3.933818,44.661167],[3.931473,44.660496],[3.929639,44.659886],[3.928308,44.659588],[3.927364,44.659431],[3.925958,44.659344],[3.924993,44.659202],[3.924553,44.659258],[3.923668,44.659263],[3.923523,44.659206],[3.922858,44.659221],[3.922466,44.659355],[3.921323,44.65937],[3.920626,44.659258],[3.918855,44.659081],[3.917971,44.658901],[3.91612,44.659084],[3.913899,44.658878],[3.913181,44.658909],[3.911356,44.65926],[3.910895,44.659229],[3.910305,44.659168],[3.909157,44.659153],[3.908121,44.659012],[3.907877,44.659017],[3.907043,44.659313],[3.906368,44.659412],[3.905992,44.659492],[3.905187,44.659779],[3.903986,44.660007],[3.903428,44.660229],[3.902527,44.661175],[3.902452,44.661785],[3.902151,44.662273],[3.902076,44.662773],[3.902762,44.66391],[3.90302,44.664928],[3.903214,44.665188],[3.903278,44.66547],[3.903707,44.666073],[3.903881,44.666567],[3.904087,44.666992],[3.90428,44.667907],[3.904195,44.668289],[3.904243,44.668484],[3.904114,44.669071],[3.90433,44.669438],[3.904361,44.669861],[3.90427,44.670297],[3.903868,44.671291],[3.903497,44.671772],[3.903039,44.672087],[3.902623,44.672325],[3.902545,44.672864],[3.902582,44.674166],[3.902382,44.674698],[3.902102,44.675213],[3.902076,44.675449],[3.901883,44.675682],[3.901545,44.675823],[3.901401,44.676037],[3.901442,44.676278],[3.901947,44.676225],[3.901536,44.676636],[3.90153,44.677162],[3.901256,44.677711],[3.901149,44.678009],[3.90109,44.67828],[3.901385,44.678631],[3.901391,44.678833],[3.902003,44.678523],[3.90232,44.678642],[3.903378,44.678223],[3.90407,44.678074],[3.904311,44.678104],[3.905105,44.678551],[3.905398,44.678612],[3.90609,44.678646],[3.907551,44.677965],[3.907831,44.677646],[3.909606,44.67738],[3.910726,44.677394],[3.912822,44.677738],[3.91309,44.677376],[3.91342,44.677162],[3.914021,44.67685],[3.914697,44.676422],[3.915126,44.676407],[3.915397,44.676041],[3.915928,44.675739],[3.916687,44.675411],[3.917143,44.675789],[3.917548,44.676205],[3.918023,44.676552],[3.919042,44.677028],[3.920201,44.67738],[3.920453,44.677429],[3.920885,44.677517],[3.921488,44.677834],[3.922038,44.678074],[3.922602,44.678272],[3.922996,44.678341],[3.923951,44.678474],[3.92456,44.678509],[3.925324,44.678448],[3.92618,44.678139],[3.927459,44.677471],[3.928197,44.676937],[3.928468,44.676571],[3.928693,44.676571],[3.929025,44.676716],[3.929103,44.676826],[3.929127,44.677006],[3.928824,44.677426],[3.928805,44.677505],[3.929157,44.677849],[3.929626,44.678161],[3.930104,44.678303],[3.930554,44.678295],[3.931029,44.678181],[3.932679,44.677486],[3.933196,44.677547],[3.933515,44.677517],[3.933899,44.677486],[3.934111,44.677551],[3.934186,44.677666],[3.93413,44.678379],[3.934183,44.678841],[3.934286,44.678948],[3.934746,44.67913],[3.935575,44.679313],[3.936426,44.679733],[3.937657,44.680202],[3.938024,44.680427],[3.938417,44.680553],[3.939883,44.680824],[3.940599,44.680992],[3.941117,44.681038],[3.941409,44.68098],[3.941787,44.680805],[3.942026,44.68055],[3.942182,44.680542],[3.942466,44.68063],[3.943263,44.680729],[3.94403,44.680786],[3.944593,44.680672],[3.944808,44.680695],[3.945384,44.680843],[3.945658,44.6814],[3.945714,44.681637],[3.945781,44.681793],[3.945929,44.6819],[3.946165,44.682152],[3.946597,44.682423],[3.947109,44.682568],[3.947297,44.682674],[3.947203,44.683086],[3.946975,44.683105],[3.946865,44.683224],[3.946889,44.68338],[3.947005,44.683681],[3.947011,44.684058],[3.947306,44.684365],[3.947824,44.685031],[3.947454,44.684961],[3.947257,44.685092],[3.947154,44.685585],[3.947195,44.685928],[3.947254,44.686386],[3.947144,44.68737],[3.947399,44.688694],[3.947407,44.688858],[3.947294,44.689117],[3.947002,44.6898],[3.946508,44.690262],[3.946293,44.690571],[3.946095,44.691014],[3.946012,44.691429],[3.946235,44.69204],[3.946175,44.692322],[3.946028,44.692681],[3.945218,44.694069],[3.944985,44.695429],[3.945303,44.696133],[3.946004,44.697182],[3.945977,44.697391],[3.945859,44.697647],[3.945221,44.697948],[3.945312,44.698414],[3.945172,44.69873],[3.944867,44.698998],[3.944716,44.699066],[3.944612,44.699223],[3.944574,44.699436],[3.944684,44.700348],[3.944858,44.700863],[3.945052,44.700985],[3.945462,44.701027],[3.945685,44.701019],[3.945722,44.701088],[3.945583,44.701168],[3.94547,44.701195],[3.945376,44.701332],[3.945196,44.701481],[3.944998,44.701733],[3.944901,44.702122],[3.944708,44.702556],[3.944504,44.702851],[3.943577,44.704006],[3.942989,44.704644],[3.942428,44.705196],[3.941854,44.705578],[3.941572,44.70591],[3.941108,44.706329],[3.940071,44.706993],[3.939843,44.707287],[3.939588,44.707432],[3.939438,44.707664],[3.939298,44.708103],[3.939304,44.708294],[3.938942,44.709156],[3.938891,44.70937],[3.938971,44.70958],[3.939164,44.709804],[3.939395,44.710049],[3.93933,44.710865],[3.939385,44.711952],[3.939646,44.712249],[3.940478,44.71434],[3.940511,44.71466],[3.940612,44.714867],[3.940841,44.715149],[3.940682,44.715618],[3.940631,44.716118],[3.940688,44.716892],[3.940711,44.717365],[3.940645,44.71764],[3.9405,44.718048],[3.940543,44.718388],[3.940661,44.719032],[3.939995,44.719779],[3.939559,44.720683],[3.939176,44.721253],[3.938984,44.721934],[3.938531,44.722615],[3.938356,44.723172],[3.938147,44.723494],[3.937886,44.724472],[3.938182,44.725636],[3.938688,44.725934],[3.939786,44.726107],[3.941842,44.72706],[3.942226,44.727333],[3.94355,44.727952],[3.944369,44.7282],[3.944422,44.72846],[3.945328,44.729079],[3.94613,44.729326],[3.946531,44.729562],[3.947019,44.729859],[3.947674,44.729999],[3.948291,44.729921],[3.948923,44.730256],[3.949675,44.730106],[3.950062,44.730259],[3.951183,44.731228],[3.951986,44.731679],[3.952997,44.731766],[3.953868,44.731815],[3.955839,44.73351],[3.956744,44.734007],[3.957075,44.735963],[3.957443,44.736233],[3.958049,44.736298],[3.959353,44.736095],[3.95953,44.736187],[3.959476,44.736549],[3.95909,44.736839],[3.958409,44.737167],[3.958006,44.737289],[3.958028,44.737316],[3.958993,44.737309],[3.959417,44.737347],[3.959927,44.737438],[3.960452,44.737438],[3.96086,44.737583],[3.961182,44.737453],[3.961938,44.736099],[3.962507,44.735619],[3.962099,44.735313],[3.96206,44.73496],[3.962234,44.734712],[3.962635,44.734576],[3.962944,44.73456],[3.963135,44.734349],[3.963425,44.734108],[3.964047,44.734008],[3.964546,44.733814],[3.965549,44.733315],[3.966568,44.733112],[3.967973,44.732609],[3.968612,44.732601],[3.96992,44.732433],[3.970114,44.732224],[3.970489,44.73151],[3.970908,44.730984],[3.971256,44.730354],[3.971412,44.729942],[3.971889,44.729149],[3.973128,44.728092],[3.973359,44.727688],[3.97352,44.727581],[3.974759,44.727383],[3.975515,44.727333],[3.976562,44.727046],[3.977029,44.72707],[3.977259,44.727177],[3.977275,44.727371],[3.977581,44.727478],[3.979088,44.727596],[3.980011,44.727638],[3.98044,44.727787],[3.979255,44.728436],[3.977822,44.72953],[3.977206,44.73008],[3.977128,44.730208],[3.977125,44.730419],[3.977501,44.731205],[3.977812,44.731659],[3.978091,44.731785],[3.97859,44.731728],[3.979217,44.731541],[3.980312,44.731331],[3.980934,44.731159],[3.981186,44.731178],[3.981889,44.731445],[3.982259,44.731445],[3.982688,44.731358],[3.983074,44.73106],[3.983267,44.730721],[3.983294,44.730408],[3.983117,44.730065],[3.983015,44.729652],[3.98308,44.728905],[3.983541,44.729366],[3.983863,44.729259],[3.984464,44.729343],[3.98493,44.729229],[3.985311,44.728985],[3.985483,44.728996],[3.986223,44.729385],[3.986792,44.729637],[3.987189,44.729782],[3.987441,44.729851],[3.988466,44.730304],[3.988745,44.730358],[3.990236,44.730247],[3.991625,44.730278],[3.992854,44.73011],[3.993159,44.729935],[3.99361,44.729534],[3.994221,44.729396],[3.995809,44.728748],[3.996356,44.728302],[3.996839,44.72789],[3.997113,44.727852],[3.997832,44.727524],[3.998856,44.727196],[3.9995,44.727051],[4.000187,44.726805],[4.001088,44.726631],[4.001582,44.726438],[4.002188,44.726024],[4.002746,44.725803],[4.003159,44.725498],[4.00333,44.725475],[4.003851,44.725643],[4.004087,44.72567],[4.004215,44.726128],[4.004215,44.726281],[4.003995,44.726662],[4.003384,44.727596],[4.003239,44.727974],[4.002925,44.728109],[4.002697,44.72826],[4.00241,44.728536],[4.002263,44.728767],[4.002131,44.72904],[4.002118,44.729297],[4.002231,44.729511],[4.002466,44.729637],[4.003475,44.729511],[4.005089,44.729435],[4.006694,44.728271],[4.006903,44.72834],[4.007171,44.728302],[4.007434,44.72797],[4.008024,44.72749],[4.008292,44.727353],[4.008726,44.727299],[4.009043,44.727358],[4.009515,44.727551],[4.009751,44.727531],[4.010041,44.726974],[4.011766,44.725992],[4.012364,44.725712],[4.012954,44.725616],[4.013517,44.725658],[4.014011,44.725796],[4.014451,44.72604],[4.01466,44.726032],[4.015292,44.725738],[4.015829,44.72573],[4.016146,44.725834],[4.016253,44.726006],[4.016237,44.726204],[4.016001,44.726482],[4.016033,44.726616],[4.016226,44.726681],[4.016436,44.72665],[4.017524,44.726292],[4.018072,44.726063],[4.018758,44.725578],[4.019858,44.725143],[4.020571,44.72509],[4.020952,44.724998],[4.02231,44.724323],[4.022878,44.723904],[4.023522,44.723534],[4.024461,44.723072],[4.024981,44.723014],[4.025903,44.72342],[4.026373,44.723662],[4.025501,44.72416],[4.024933,44.724747],[4.024579,44.725364],[4.024192,44.725745],[4.023881,44.726188],[4.023404,44.726942],[4.022669,44.727667],[4.021618,44.728368],[4.021092,44.728978],[4.020309,44.730654],[4.019523,44.731508],[4.019209,44.732042],[4.019204,44.732453],[4.018292,44.733894],[4.018463,44.734164],[4.017605,44.735311],[4.017315,44.736005],[4.016709,44.737194],[4.016307,44.73759],[4.015754,44.738428],[4.015062,44.738878],[4.014226,44.739259],[4.013399,44.739808],[4.012713,44.740052],[4.011114,44.740798],[4.01076,44.740791],[4.010513,44.740901],[4.010245,44.741317],[4.00928,44.741812],[4.007649,44.74249],[4.006383,44.742947],[4.006265,44.743847],[4.006512,44.744205],[4.007338,44.744891],[4.007831,44.745127],[4.008169,44.745588],[4.008217,44.746377],[4.00829,44.746622],[4.008545,44.746777],[4.00944,44.747169],[4.010288,44.748053],[4.010642,44.749032],[4.010878,44.749363],[4.010867,44.749935],[4.010642,44.75043],[4.010771,44.752381],[4.011061,44.753265],[4.011297,44.753684],[4.01157,44.754209],[4.012018,44.754556],[4.012208,44.754049],[4.012611,44.754628],[4.013196,44.755192],[4.014,44.755444],[4.01503,44.755931],[4.015556,44.756377],[4.015878,44.757341],[4.015771,44.757782],[4.014644,44.759062],[4.015363,44.760746],[4.015572,44.761085],[4.015545,44.761302],[4.014215,44.762262],[4.013281,44.762696],[4.01297,44.762963],[4.012788,44.763816],[4.012069,44.764753],[4.012112,44.765659],[4.012026,44.766292],[4.012498,44.766787],[4.012552,44.767358],[4.012665,44.767644],[4.012646,44.768632],[4.012895,44.769377],[4.012874,44.770397],[4.01304,44.771281],[4.013005,44.772623],[4.012756,44.7732],[4.012412,44.773733],[4.012863,44.774266],[4.012831,44.775188],[4.012665,44.775618],[4.012678,44.77594],[4.012455,44.776962],[4.01237,44.777549],[4.012622,44.778554],[4.012476,44.779114],[4.012286,44.779384],[4.012294,44.779849],[4.011748,44.780001],[4.011329,44.779963],[4.010771,44.780199],[4.010105,44.780238],[4.00987,44.780875],[4.008829,44.782322],[4.008609,44.782878],[4.00885,44.78329],[4.008636,44.783982],[4.007456,44.784752],[4.006935,44.784892],[4.006493,44.785245],[4.005628,44.786441],[4.005385,44.786983],[4.004269,44.787272],[4.004098,44.787858],[4.003604,44.7887],[4.003561,44.789084],[4.003089,44.789259],[4.002027,44.789313],[4.001635,44.789572],[4.001512,44.790226],[4.001885,44.79066],[4.002231,44.790889],[4.003158,44.790945],[4.003977,44.791254],[4.004709,44.791934],[4.005214,44.792726],[4.006442,44.793626],[4.0069,44.794058],[4.007617,44.794399],[4.008035,44.794513],[4.009548,44.795853],[4.009741,44.796405],[4.009827,44.797201],[4.01032,44.797368],[4.011329,44.797368],[4.012015,44.797574],[4.012187,44.797753],[4.013496,44.798175],[4.014065,44.798487],[4.015411,44.798674],[4.015652,44.798898],[4.016865,44.799142],[4.018871,44.799188],[4.019987,44.799797],[4.02099,44.800082],[4.022101,44.800177],[4.023763,44.800101],[4.024198,44.800303],[4.025148,44.80106],[4.026017,44.801353],[4.026312,44.801302],[4.026778,44.801502],[4.027036,44.802248],[4.0268,44.802872],[4.02725,44.803146],[4.027798,44.803371],[4.02776,44.803879],[4.02724,44.804395],[4.026682,44.804745],[4.026322,44.805106],[4.026006,44.805643],[4.024922,44.806073],[4.023678,44.806526],[4.022208,44.807637],[4.02209,44.807976],[4.022084,44.808404],[4.021932,44.809083],[4.021886,44.809715],[4.021543,44.810355],[4.02151,44.810903],[4.02121,44.811245],[4.021548,44.811401],[4.022658,44.811649],[4.024429,44.811786],[4.025249,44.811672],[4.026164,44.811295],[4.027207,44.810758],[4.028591,44.810332],[4.029042,44.810263],[4.030281,44.809715],[4.031051,44.809282],[4.032196,44.80881],[4.03284,44.808756],[4.033527,44.808429],[4.034165,44.807763],[4.034535,44.807158],[4.035705,44.806488],[4.03622,44.806442],[4.037786,44.806694],[4.038398,44.806945],[4.03895,44.807485],[4.039739,44.807949],[4.040801,44.808132],[4.041745,44.808102],[4.04211,44.807995],[4.042099,44.807816],[4.041917,44.807637],[4.042092,44.807593],[4.042418,44.80767],[4.043392,44.807459],[4.04414,44.807529],[4.044803,44.807508],[4.045168,44.807755],[4.045425,44.808185],[4.045843,44.808646],[4.046653,44.809028],[4.0487,44.809577],[4.049137,44.809594],[4.049341,44.809837],[4.04984,44.810172],[4.050564,44.810271],[4.051165,44.810895],[4.05109,44.811276],[4.051358,44.811432],[4.051111,44.81209],[4.050242,44.812501],[4.050068,44.812752],[4.050173,44.813308],[4.050006,44.813917],[4.050004,44.814564],[4.049743,44.814998],[4.049427,44.816329],[4.048805,44.816786],[4.048595,44.817231],[4.04877,44.817393],[4.04918,44.81738],[4.048504,44.817817],[4.047968,44.817981],[4.047324,44.818658],[4.048032,44.820005],[4.048756,44.819861],[4.049438,44.819998],[4.049845,44.819693],[4.050532,44.819849],[4.051047,44.819952],[4.051101,44.820135],[4.051422,44.820348],[4.052544,44.820032],[4.053523,44.819532],[4.053761,44.819305],[4.054528,44.818993],[4.055169,44.819461],[4.056186,44.820028],[4.056846,44.820192],[4.057452,44.820241],[4.057806,44.820835],[4.058922,44.821261],[4.059099,44.821084],[4.059319,44.820998],[4.059576,44.820736],[4.05985,44.820675],[4.060081,44.820858],[4.060445,44.820542],[4.06096,44.820241],[4.062419,44.818613],[4.063079,44.817605],[4.063192,44.816871],[4.063337,44.81678],[4.063398,44.817278],[4.063213,44.818142],[4.062725,44.819402],[4.062417,44.820549],[4.061829,44.821377],[4.062162,44.821833],[4.062055,44.822404],[4.061819,44.822868],[4.062152,44.823356],[4.062688,44.823719],[4.063321,44.824275],[4.064082,44.824526],[4.063766,44.824739],[4.063063,44.824571],[4.062613,44.824906],[4.062688,44.825302],[4.062929,44.82553],[4.063299,44.825591],[4.063364,44.825781],[4.062709,44.825751],[4.062194,44.825378],[4.062098,44.825515],[4.062516,44.826032],[4.062446,44.826367],[4.062194,44.826611],[4.061084,44.826907],[4.06052,44.827174],[4.059083,44.827242],[4.057994,44.827383],[4.057256,44.827187],[4.054856,44.826816],[4.053992,44.826945],[4.053214,44.827212],[4.052914,44.827832],[4.052431,44.82821],[4.052034,44.828376],[4.051637,44.828414],[4.051143,44.828711],[4.050527,44.828734],[4.049641,44.828581],[4.048429,44.828688],[4.047174,44.828981],[4.045972,44.829662],[4.045243,44.829845],[4.04483,44.830137],[4.044795,44.830375],[4.044352,44.830712],[4.043505,44.830704],[4.042265,44.830925],[4.04152,44.831283],[4.040855,44.832021],[4.040865,44.832412],[4.040618,44.832926],[4.039943,44.833268],[4.038902,44.833558],[4.038333,44.833637],[4.038017,44.833875],[4.037775,44.835072],[4.037389,44.835559],[4.03682,44.836228],[4.036638,44.836867],[4.036649,44.837209],[4.036509,44.837613],[4.03578,44.837871],[4.035474,44.838457],[4.034417,44.839598],[4.033784,44.840028],[4.03277,44.840357],[4.032789,44.840628],[4.032412,44.840672],[4.031993,44.840861],[4.032368,44.840937],[4.032679,44.841607],[4.031574,44.841736],[4.03152,44.842033],[4.031263,44.842151],[4.030791,44.843014],[4.030823,44.843714],[4.030791,44.844505],[4.031252,44.84522],[4.031488,44.846125],[4.031842,44.846916],[4.033334,44.847959],[4.033173,44.848552],[4.033291,44.849168],[4.034288,44.849282],[4.037185,44.848095],[4.037872,44.847662],[4.038365,44.847974],[4.0374,44.848795],[4.038301,44.84881],[4.039031,44.848925],[4.040372,44.848506],[4.042898,44.848042],[4.043691,44.847835],[4.044119,44.847643],[4.045007,44.847586],[4.045227,44.847711],[4.045315,44.847865],[4.045607,44.848027],[4.046074,44.848038],[4.046509,44.84821],[4.046868,44.848183],[4.047624,44.847761],[4.047919,44.847959],[4.048282,44.848445],[4.048611,44.848499],[4.048949,44.848327],[4.049802,44.848111],[4.050521,44.848103],[4.051025,44.848293],[4.050468,44.848788],[4.050779,44.848928],[4.05132,44.848999],[4.052654,44.849391],[4.053032,44.849373],[4.053488,44.849556],[4.054038,44.849951],[4.054641,44.85024],[4.055059,44.851168],[4.055821,44.852051],[4.056095,44.852302],[4.057487,44.852442],[4.058418,44.852705],[4.060134,44.852963],[4.061862,44.852325],[4.062484,44.852271],[4.063299,44.852328],[4.064222,44.852492],[4.065123,44.852066],[4.06566,44.852051],[4.065896,44.851959],[4.065295,44.850948],[4.066164,44.850385],[4.067011,44.849259],[4.067215,44.848616],[4.067006,44.848181],[4.066196,44.84732],[4.067398,44.84786],[4.06788,44.847624],[4.070069,44.848765],[4.070852,44.848955],[4.071603,44.849385],[4.07214,44.849891],[4.072837,44.849685],[4.073395,44.849883],[4.074849,44.850123],[4.075627,44.849815],[4.076614,44.848978],[4.076002,44.850689],[4.076989,44.851454],[4.077815,44.851731],[4.081388,44.852134],[4.082397,44.852458],[4.08465,44.853587],[4.085862,44.854553],[4.087911,44.855785],[4.090036,44.856348],[4.093179,44.857572],[4.094606,44.858219],[4.09599,44.858527],[4.097825,44.859474],[4.098812,44.860287],[4.099316,44.861344],[4.10004,44.862599],[4.100807,44.864105],[4.101483,44.86474],[4.103264,44.866012],[4.10511,44.867481],[4.105544,44.867523],[4.107296,44.866905],[4.108414,44.866211],[4.10909,44.866348],[4.111472,44.866333],[4.112373,44.866858],[4.113564,44.867458],[4.11439,44.867322],[4.114352,44.867082],[4.114508,44.866842],[4.114025,44.866759],[4.114122,44.866401],[4.114068,44.865957],[4.113821,44.865253],[4.114036,44.865078],[4.114098,44.864677],[4.113945,44.8642],[4.113961,44.863945],[4.113532,44.863322],[4.113081,44.863306],[4.112652,44.862128],[4.11351,44.861633],[4.113832,44.86104],[4.115002,44.860325],[4.115699,44.860181],[4.116053,44.85969],[4.116037,44.859468],[4.116343,44.859489],[4.1166,44.85974],[4.116911,44.859276],[4.116525,44.859055],[4.11653,44.858922],[4.117134,44.859008],[4.117405,44.859147],[4.117421,44.858976],[4.11674,44.858614],[4.116308,44.858544],[4.115597,44.858565],[4.117662,44.858112],[4.118075,44.8582],[4.118199,44.859215],[4.118982,44.85923],[4.11925,44.858158],[4.119631,44.857455],[4.119947,44.857154],[4.119819,44.856979],[4.119025,44.856994],[4.118553,44.856432],[4.117952,44.856416],[4.116879,44.856082],[4.115506,44.856264],[4.11483,44.856165],[4.114288,44.856116],[4.1138,44.855861],[4.11395,44.855565],[4.114519,44.855131],[4.114862,44.854568],[4.115077,44.855028],[4.115377,44.855161],[4.115356,44.854823],[4.115742,44.853739],[4.116922,44.853298],[4.117823,44.852811],[4.118177,44.852203],[4.118665,44.851777],[4.118939,44.851336],[4.119304,44.850689],[4.120098,44.850172],[4.120398,44.850366],[4.120688,44.85028],[4.120656,44.850469],[4.121214,44.850142],[4.122361,44.850214],[4.123649,44.850187],[4.125049,44.849674],[4.125234,44.84947],[4.125799,44.849369],[4.12631,44.849061],[4.127393,44.84881],[4.128166,44.849001],[4.128928,44.848731],[4.130161,44.848628],[4.130674,44.848655],[4.131422,44.84862],[4.134421,44.848917],[4.137328,44.84932],[4.139131,44.850252],[4.140139,44.851001],[4.14044,44.851473],[4.142414,44.852674],[4.143991,44.853146],[4.144989,44.853222],[4.14619,44.852918],[4.146748,44.852545],[4.147252,44.852382],[4.14759,44.852528],[4.14762,44.852305],[4.148239,44.852606],[4.148653,44.852735],[4.14913,44.853001],[4.149666,44.852979],[4.150353,44.852872],[4.153969,44.853123],[4.155151,44.853091],[4.155519,44.853165],[4.156487,44.853102],[4.157252,44.853176],[4.158067,44.852918],[4.158185,44.853519],[4.158582,44.854047],[4.159515,44.854507],[4.161114,44.854317],[4.161543,44.854492],[4.161613,44.854952],[4.161254,44.855489],[4.161264,44.855998],[4.161634,44.855941],[4.162198,44.856454],[4.162326,44.856945],[4.16282,44.857002],[4.163786,44.856295],[4.164311,44.856158],[4.164912,44.856264],[4.1654,44.856211],[4.165762,44.856268],[4.166124,44.856454],[4.167744,44.856477],[4.168297,44.856645],[4.16944,44.857268],[4.16966,44.857816],[4.17047,44.858766],[4.171532,44.858842],[4.172015,44.859451],[4.172658,44.85885],[4.174815,44.858302],[4.17592,44.859983],[4.177261,44.861497],[4.180158,44.86304],[4.182003,44.864151],[4.184685,44.865603],[4.184803,44.865998],[4.185533,44.866128],[4.186026,44.866546],[4.186767,44.86815],[4.186316,44.869245],[4.19359,44.866508],[4.193944,44.866154],[4.194593,44.865871],[4.194824,44.865869],[4.19653,44.863793],[4.197174,44.862379],[4.197485,44.861839],[4.197399,44.860805],[4.197801,44.860284],[4.198324,44.859947],[4.198747,44.85949],[4.198861,44.858972],[4.199288,44.858683],[4.199889,44.858881],[4.200468,44.858881],[4.200876,44.858744],[4.20182,44.859808],[4.202271,44.859991],[4.204609,44.860295],[4.205339,44.860751],[4.206283,44.861557],[4.207506,44.861618],[4.208815,44.862242],[4.209158,44.862835],[4.209523,44.86285],[4.210725,44.862044],[4.211755,44.861694],[4.21242,44.861588],[4.213192,44.86136],[4.213654,44.86109],[4.214008,44.861025],[4.213681,44.860884],[4.213965,44.860767],[4.214262,44.860794],[4.215193,44.860631],[4.215803,44.860602],[4.216274,44.860624],[4.217005,44.860553],[4.217385,44.860695],[4.218276,44.860404],[4.218738,44.860578],[4.219121,44.860578],[4.21947,44.860368],[4.220184,44.860393],[4.220637,44.860071],[4.221544,44.859985],[4.22177,44.859898],[4.222101,44.859861],[4.222729,44.859367],[4.223722,44.859602],[4.224001,44.859688],[4.224838,44.85975],[4.225256,44.859849],[4.226249,44.859763],[4.226737,44.859651],[4.227016,44.859503],[4.227731,44.859577],[4.228132,44.859528],[4.228498,44.859404],[4.229404,44.859268],[4.229857,44.859256],[4.230398,44.858774],[4.230973,44.858787],[4.231496,44.858428],[4.231217,44.858428],[4.230432,44.858144],[4.2297,44.858342],[4.227609,44.858305],[4.22665,44.858218],[4.225587,44.857823],[4.224995,44.857415],[4.224838,44.857193],[4.224803,44.856526],[4.224385,44.855723],[4.223653,44.855179],[4.223513,44.854858],[4.223844,44.854932],[4.224106,44.85529],[4.225099,44.855797],[4.225483,44.856204],[4.225918,44.85634],[4.226947,44.856118],[4.227679,44.855797],[4.228254,44.855661],[4.228289,44.855513],[4.227644,44.855574],[4.22672,44.855834],[4.226232,44.855698],[4.225796,44.855031],[4.225099,44.854475],[4.224977,44.854228],[4.224977,44.853943],[4.224489,44.853301],[4.224437,44.852807],[4.224942,44.851942],[4.224995,44.851052],[4.225674,44.849792],[4.225378,44.849693],[4.225256,44.850002],[4.224663,44.850138],[4.224001,44.85057],[4.223548,44.850644],[4.222066,44.849705],[4.221822,44.849656],[4.221648,44.849779],[4.221892,44.850187],[4.221544,44.850459],[4.221387,44.85078],[4.220602,44.851089],[4.220202,44.851361],[4.219626,44.85146],[4.219243,44.85146],[4.219278,44.852028],[4.2194,44.852535],[4.219295,44.853066],[4.218929,44.85361],[4.218511,44.853869],[4.218006,44.854487],[4.217552,44.854611],[4.216385,44.854536],[4.214955,44.854746],[4.21323,44.854697],[4.212376,44.854561],[4.211278,44.854141],[4.211295,44.853993],[4.211818,44.85419],[4.21255,44.854401],[4.213143,44.854413],[4.214781,44.854067],[4.215583,44.854055],[4.216123,44.853919],[4.217413,44.853116],[4.217918,44.85209],[4.217343,44.851818],[4.216942,44.851126],[4.216873,44.850694],[4.217535,44.850471],[4.218372,44.850348],[4.218755,44.849965],[4.219226,44.849767],[4.21926,44.849557],[4.218825,44.849285],[4.218459,44.848371],[4.218563,44.848124],[4.219051,44.848037],[4.220236,44.84753],[4.221073,44.847382],[4.221666,44.847666],[4.222398,44.847852],[4.22313,44.847852],[4.223565,44.847555],[4.223879,44.847049],[4.224053,44.846628],[4.224663,44.846616],[4.22543,44.846245],[4.225971,44.846208],[4.226337,44.846159],[4.228306,44.847011],[4.22916,44.846826],[4.229718,44.846876],[4.230084,44.847246],[4.230624,44.848408],[4.230816,44.848692],[4.230694,44.849112],[4.230886,44.849125],[4.231147,44.848729],[4.23099,44.848346],[4.230955,44.848],[4.230973,44.847716],[4.230746,44.847382],[4.230711,44.847073],[4.229997,44.846221],[4.229526,44.846072],[4.228097,44.846134],[4.227644,44.845862],[4.227295,44.84543],[4.226825,44.844528],[4.226894,44.844355],[4.227121,44.844182],[4.226912,44.843774],[4.227069,44.843193],[4.226371,44.842414],[4.22611,44.842303],[4.225692,44.841821],[4.225151,44.841673],[4.224524,44.841401],[4.222624,44.841142],[4.224228,44.840833],[4.226496,44.839644],[4.226737,44.839252],[4.226815,44.838296],[4.226367,44.834965],[4.226211,44.834592],[4.225562,44.833923],[4.225369,44.83328],[4.226077,44.830826],[4.228277,44.827988],[4.228765,44.827117],[4.229382,44.824762],[4.229682,44.824099],[4.230401,44.823582],[4.234317,44.822928],[4.235358,44.822479],[4.237541,44.821866],[4.239016,44.821231],[4.240304,44.820382],[4.241623,44.819077],[4.242428,44.818887],[4.243415,44.818327],[4.243758,44.817667],[4.243866,44.81378],[4.244037,44.813468],[4.244338,44.813323],[4.245196,44.81464],[4.245797,44.815245],[4.245947,44.815561],[4.246677,44.816094],[4.246902,44.816383],[4.247218,44.816497],[4.247967,44.816257],[4.249058,44.816474],[4.249681,44.817083],[4.250249,44.817235],[4.251145,44.817083],[4.252022,44.817623],[4.252652,44.817692],[4.255007,44.817692],[4.256472,44.817448],[4.257105,44.817129],[4.259514,44.81628],[4.260678,44.815949],[4.261852,44.815017],[4.262963,44.814526],[4.263467,44.814571],[4.264406,44.815112],[4.264851,44.815523],[4.265377,44.815665],[4.265709,44.815854],[4.268241,44.815911],[4.268874,44.815606],[4.2694,44.814313],[4.270173,44.813909],[4.270516,44.813898],[4.272383,44.813361],[4.273102,44.813506],[4.2755,44.813612],[4.277887,44.813483],[4.278074,44.814035],[4.278479,44.814151],[4.279163,44.813879],[4.280387,44.813765],[4.281288,44.81432],[4.282243,44.813681],[4.282707,44.813666],[4.28302,44.813757],[4.283884,44.813681],[4.28633,44.813491],[4.28735,44.813163],[4.288369,44.812166],[4.288685,44.811455],[4.288621,44.811302],[4.288621,44.811302],[4.288709,44.811],[4.288766,44.81061],[4.288959,44.810225],[4.289179,44.810115],[4.28824,44.809662],[4.288304,44.80884],[4.288079,44.808281],[4.285622,44.807318],[4.285375,44.806823],[4.284463,44.806655],[4.283584,44.80613],[4.282983,44.805959],[4.281749,44.806277],[4.280998,44.806351],[4.280998,44.805727],[4.280542,44.805011],[4.279099,44.803854],[4.278816,44.803947],[4.276256,44.804835],[4.275509,44.806028],[4.27564,44.806625],[4.275491,44.807367],[4.275117,44.807804],[4.274295,44.808188],[4.273772,44.808003],[4.273099,44.808056],[4.272745,44.808242],[4.272632,44.808639],[4.272222,44.808785],[4.271867,44.808772],[4.270279,44.808361],[4.268672,44.808454],[4.267776,44.808387],[4.267159,44.80844],[4.266524,44.808295],[4.266505,44.80787],[4.26686,44.807102],[4.266954,44.80624],[4.266748,44.805617],[4.266599,44.804822],[4.266281,44.804345],[4.265833,44.80408],[4.264843,44.804239],[4.265123,44.803563],[4.266076,44.803258],[4.265422,44.802914],[4.26475,44.802715],[4.263984,44.802238],[4.263442,44.801376],[4.262994,44.800978],[4.262433,44.800568],[4.262209,44.800223],[4.262097,44.799322],[4.26219,44.798593],[4.261481,44.797347],[4.260715,44.796193],[4.26206,44.796087],[4.262919,44.795889],[4.264619,44.795703],[4.265011,44.79557],[4.265001,44.795541],[4.264937,44.795099],[4.264679,44.794787],[4.263853,44.794441],[4.263263,44.793942],[4.262695,44.794292],[4.262126,44.794505],[4.261783,44.794353],[4.261278,44.793729],[4.261182,44.793272],[4.261246,44.792914],[4.261493,44.792724],[4.261402,44.792077],[4.261142,44.791837],[4.261085,44.791711],[4.261257,44.791498],[4.260844,44.791464],[4.26027,44.791247],[4.259514,44.791193],[4.259004,44.79133],[4.258843,44.791117],[4.258618,44.790851],[4.257759,44.790158],[4.257368,44.789438],[4.257438,44.789016],[4.257279,44.788827],[4.25637,44.788852],[4.255868,44.788725],[4.255435,44.788729],[4.254798,44.788536],[4.254058,44.788635],[4.253951,44.788429],[4.25306,44.788749],[4.253001,44.788985],[4.25261,44.789107],[4.252009,44.788795],[4.25048,44.788696],[4.250013,44.788742],[4.249919,44.788374],[4.249632,44.788677],[4.249485,44.788332],[4.249198,44.788589],[4.248651,44.788681],[4.248436,44.788572],[4.248071,44.788677],[4.247406,44.788576],[4.246494,44.788308],[4.245228,44.788231],[4.244971,44.787676],[4.242278,44.788445],[4.241891,44.788917],[4.241527,44.789648],[4.241419,44.791133],[4.240207,44.790363],[4.240137,44.789617],[4.240435,44.788902],[4.240411,44.788551],[4.240776,44.788231],[4.240765,44.787706],[4.240373,44.787146],[4.240003,44.786945],[4.23908,44.786613],[4.238909,44.78645],[4.238254,44.786191],[4.238211,44.78578],[4.237766,44.785323],[4.236803,44.784843],[4.23613,44.784698],[4.235642,44.78447],[4.235162,44.783518],[4.234611,44.782722],[4.234403,44.782932],[4.234113,44.783769],[4.233067,44.78463],[4.232364,44.785094],[4.231871,44.785711],[4.231484,44.786846],[4.230959,44.787234],[4.230299,44.787908],[4.228899,44.788772],[4.228888,44.789214],[4.228759,44.789511],[4.228416,44.789648],[4.228159,44.789853],[4.227011,44.790097],[4.225746,44.789912],[4.225168,44.790017],[4.225085,44.789891],[4.224768,44.789732],[4.224468,44.789857],[4.22435,44.79012],[4.22399,44.790127],[4.223783,44.790023],[4.22336,44.790009],[4.222934,44.789625],[4.222526,44.788902],[4.22163,44.788079],[4.220935,44.787744],[4.220572,44.787481],[4.220037,44.78728],[4.219227,44.786514],[4.219018,44.786214],[4.218878,44.786225],[4.218926,44.786809],[4.219286,44.787561],[4.220064,44.788155],[4.220595,44.788917],[4.220605,44.789785],[4.220412,44.790211],[4.220434,44.790645],[4.219189,44.791536],[4.2189,44.791833],[4.217398,44.792579],[4.217226,44.793455],[4.216984,44.793904],[4.216604,44.794079],[4.215906,44.793995],[4.214994,44.794513],[4.213009,44.795168],[4.21052,44.79513],[4.210102,44.795046],[4.209544,44.794551],[4.208991,44.794521],[4.20789,44.79501],[4.206682,44.795408],[4.206368,44.795244],[4.205714,44.792846],[4.205413,44.791018],[4.204598,44.78945],[4.203911,44.788277],[4.203826,44.78747],[4.203804,44.786122],[4.203901,44.785882],[4.203804,44.785719],[4.20286,44.785544],[4.20234,44.785275],[4.201691,44.784748],[4.200703,44.78422],[4.199974,44.783678],[4.199067,44.783236],[4.195865,44.782079],[4.195017,44.782079],[4.19373,44.781835],[4.193242,44.78166],[4.192719,44.781199],[4.192067,44.780502],[4.190533,44.779611],[4.189658,44.779261],[4.187679,44.778713],[4.186091,44.778157],[4.185302,44.777612],[4.184245,44.777083],[4.183283,44.776801],[4.182556,44.776474],[4.180383,44.775979],[4.179919,44.77598],[4.178725,44.776226],[4.178377,44.776047],[4.178269,44.775682],[4.177776,44.774928],[4.177143,44.774558],[4.176553,44.774486],[4.175802,44.77436],[4.175383,44.774541],[4.175094,44.774585],[4.175308,44.774798],[4.175908,44.775113],[4.176204,44.775666],[4.176253,44.776287],[4.176104,44.777334],[4.176134,44.777784],[4.175992,44.777719],[4.175777,44.776824],[4.175657,44.77674],[4.175772,44.778282],[4.175422,44.778604],[4.174922,44.778827],[4.17519,44.779889],[4.175201,44.781165],[4.172519,44.782406],[4.171457,44.782829],[4.170786,44.782972],[4.168292,44.783937],[4.169043,44.784272],[4.168807,44.784462],[4.168002,44.78479],[4.167079,44.784523],[4.16517,44.784912],[4.16384,44.78479],[4.162273,44.785307],[4.160814,44.785186],[4.160014,44.785688],[4.159161,44.785955],[4.158577,44.785959],[4.159505,44.788643],[4.159033,44.78881],[4.157832,44.788841],[4.157091,44.790668],[4.156468,44.791498],[4.155857,44.791726],[4.154956,44.791665],[4.154596,44.791471],[4.154065,44.790858],[4.153282,44.790601],[4.152735,44.790344],[4.15185,44.790327],[4.151694,44.790112],[4.150932,44.790002],[4.149763,44.790028],[4.148851,44.78964],[4.147966,44.789737],[4.147424,44.78956],[4.147078,44.789647],[4.146732,44.789581],[4.146171,44.789812],[4.145654,44.789876],[4.145547,44.78913],[4.142972,44.789046],[4.141212,44.789362],[4.140311,44.789328],[4.140021,44.789671],[4.139571,44.789785],[4.13927,44.789556],[4.138428,44.789473],[4.137159,44.789575],[4.135538,44.789878],[4.134678,44.789876],[4.133772,44.790333],[4.132848,44.790569],[4.132288,44.790866],[4.130655,44.791201],[4.13029,44.791201],[4.129206,44.791559],[4.128488,44.792252],[4.128026,44.792412],[4.126996,44.792503],[4.126562,44.79221],[4.126331,44.79194],[4.125733,44.791806],[4.124911,44.791746],[4.124304,44.791971],[4.123865,44.792011],[4.123753,44.791938],[4.124846,44.791633],[4.125584,44.791242],[4.124883,44.791282],[4.125014,44.791116],[4.124594,44.791169],[4.122083,44.790973],[4.121197,44.790379],[4.120688,44.789853],[4.118708,44.788768],[4.118083,44.788051],[4.116494,44.787326],[4.116333,44.787368],[4.115549,44.786868],[4.116203,44.786575],[4.116546,44.786275],[4.116509,44.785852],[4.116243,44.785458],[4.11601,44.784675],[4.115361,44.784146],[4.115002,44.783495],[4.114159,44.782909],[4.112931,44.782414],[4.1113,44.782147],[4.109659,44.78214],[4.109149,44.782025],[4.10497,44.781805],[4.10453,44.781279],[4.103699,44.780978],[4.102674,44.780776],[4.10262,44.779253],[4.10305,44.779356],[4.104037,44.779307],[4.104536,44.779459],[4.105246,44.779863],[4.106118,44.779786],[4.106724,44.779311],[4.107875,44.778974],[4.108343,44.778999],[4.109519,44.778675],[4.110098,44.778857],[4.111037,44.778916],[4.111839,44.778794],[4.112877,44.778823],[4.115286,44.77841],[4.117587,44.778164],[4.120495,44.778667],[4.121675,44.778774],[4.123483,44.77853],[4.12591,44.7777],[4.126898,44.777528],[4.127737,44.777121],[4.128134,44.77666],[4.128278,44.775782],[4.128681,44.775118],[4.129357,44.774212],[4.130612,44.773549],[4.131218,44.773065],[4.131846,44.772247],[4.132929,44.771675],[4.133466,44.771112],[4.134174,44.770533],[4.134785,44.770007],[4.13596,44.769569],[4.137232,44.768819],[4.140284,44.767612],[4.143723,44.766557],[4.14428,44.766526],[4.145192,44.766945],[4.146061,44.767105],[4.149184,44.766382],[4.149398,44.76613],[4.14935,44.765734],[4.149167,44.765357],[4.149149,44.765028],[4.149226,44.764645],[4.149575,44.764304],[4.149752,44.764047],[4.150114,44.76376],[4.150391,44.763545],[4.150707,44.762902],[4.150986,44.762645],[4.151242,44.762518],[4.151616,44.762485],[4.152086,44.762634],[4.152582,44.76265],[4.154425,44.7623],[4.154569,44.76215],[4.154978,44.761963],[4.155257,44.761712],[4.155527,44.761651],[4.156295,44.761137],[4.156592,44.761011],[4.157601,44.76098],[4.15794,44.760918],[4.158864,44.760847],[4.159456,44.761034],[4.161055,44.761866],[4.161586,44.762173],[4.162039,44.762161],[4.162224,44.762093],[4.161343,44.761468],[4.160709,44.761278],[4.160497,44.760699],[4.160637,44.760705],[4.16072,44.760864],[4.160814,44.760932],[4.160933,44.760921],[4.161524,44.760442],[4.161549,44.760246],[4.161235,44.760086],[4.16113,44.759983],[4.160958,44.759411],[4.161052,44.759332],[4.161386,44.759405],[4.162077,44.759451],[4.16216,44.759392],[4.162082,44.759234],[4.162042,44.758943],[4.161554,44.758627],[4.162167,44.758585],[4.162565,44.758482],[4.162643,44.75823],[4.162273,44.758032],[4.162734,44.757731],[4.163045,44.75737],[4.163107,44.757071],[4.16348,44.756185],[4.163592,44.755831],[4.163485,44.753979],[4.163847,44.753375],[4.16437,44.752168],[4.165105,44.750158],[4.164811,44.749166],[4.164486,44.748467],[4.16451,44.748196],[4.164848,44.74748],[4.165363,44.74809],[4.166715,44.748867],[4.167187,44.748912],[4.167938,44.748669],[4.168561,44.74876],[4.168925,44.749172],[4.169483,44.750177],[4.17002,44.750756],[4.17062,44.750985],[4.171951,44.751229],[4.172487,44.751716],[4.172251,44.752372],[4.172294,44.75292],[4.17268,44.75321],[4.172809,44.753591],[4.172702,44.75417],[4.172895,44.7542],[4.17444,44.753362],[4.175062,44.753454],[4.176393,44.752996],[4.176586,44.752555],[4.177809,44.751625],[4.178538,44.751381],[4.179804,44.751381],[4.180384,44.751168],[4.18107,44.751168],[4.181585,44.750833],[4.18195,44.750116],[4.180748,44.749568],[4.180405,44.748928],[4.179525,44.748699],[4.178967,44.747891],[4.177186,44.747602],[4.175212,44.74751],[4.173882,44.747267],[4.172831,44.746703],[4.171565,44.74588],[4.171028,44.745468],[4.170535,44.744874],[4.170084,44.742222],[4.170277,44.741109],[4.170148,44.740744],[4.170041,44.740119],[4.169505,44.740086],[4.169395,44.740484],[4.169015,44.740868],[4.168685,44.740683],[4.168394,44.741031],[4.168184,44.741081],[4.167754,44.741721],[4.167413,44.741529],[4.166873,44.741543],[4.166492,44.741664],[4.165802,44.741628],[4.165695,44.741613],[4.165336,44.741442],[4.164827,44.741609],[4.163765,44.742071],[4.162823,44.742575],[4.162499,44.742666],[4.160855,44.742871],[4.159737,44.743171],[4.159168,44.743397],[4.15892,44.743433],[4.158333,44.743219],[4.157364,44.742716],[4.15715,44.742663],[4.156399,44.742738],[4.155417,44.742951],[4.153593,44.743056],[4.153012,44.742949],[4.152206,44.742518],[4.151699,44.742374],[4.151061,44.742052],[4.150492,44.741768],[4.149707,44.741762],[4.148545,44.741905],[4.147822,44.742403],[4.146837,44.743134],[4.146099,44.743452],[4.144965,44.743692],[4.144126,44.7437],[4.143446,44.743732],[4.142376,44.743917],[4.140437,44.744521],[4.139111,44.745205],[4.13841,44.745719],[4.138224,44.745779],[4.138038,44.745923],[4.137881,44.745944],[4.137193,44.746298],[4.135802,44.747181],[4.135445,44.747333],[4.134806,44.747712],[4.133689,44.748153],[4.132101,44.748974],[4.130864,44.749738],[4.129388,44.750771],[4.12913,44.751016],[4.128926,44.751262],[4.128109,44.751792],[4.127248,44.752074],[4.126625,44.752197],[4.125438,44.752253],[4.124781,44.752211],[4.123987,44.751926],[4.123016,44.751435],[4.121514,44.751277],[4.120324,44.750976],[4.119693,44.750938],[4.118676,44.751036],[4.117866,44.751226],[4.117061,44.751666],[4.116587,44.751973],[4.115543,44.752802],[4.115152,44.753295],[4.114304,44.754013],[4.113929,44.754395],[4.113296,44.755176],[4.112813,44.75562],[4.111924,44.755984],[4.110423,44.756344],[4.109503,44.756645],[4.107464,44.758005],[4.107054,44.758136],[4.106494,44.758534],[4.10571,44.758951],[4.104938,44.75917],[4.104171,44.758883],[4.103908,44.758668],[4.103959,44.758415],[4.104332,44.757763],[4.104251,44.757517],[4.103543,44.756938],[4.103272,44.756388],[4.102873,44.755917],[4.102513,44.755739],[4.102116,44.755352],[4.102084,44.755155],[4.101655,44.754755],[4.101366,44.754752],[4.100982,44.754931],[4.100684,44.755045],[4.099445,44.755015],[4.099365,44.754948],[4.098716,44.754949],[4.098523,44.755006],[4.09795,44.755081],[4.097749,44.755231],[4.097054,44.755365],[4.096551,44.755403],[4.095954,44.755664],[4.095479,44.755767],[4.095307,44.756011],[4.095201,44.755871],[4.095281,44.75557],[4.096364,44.754679],[4.096232,44.754651],[4.097091,44.754191],[4.097355,44.753723],[4.098292,44.753066],[4.099428,44.75271],[4.100485,44.752287],[4.101198,44.752194],[4.101653,44.752179],[4.10176,44.752072],[4.101953,44.751965],[4.102433,44.751795],[4.102084,44.751464],[4.101483,44.751506],[4.100856,44.751695],[4.100786,44.75167],[4.102179,44.751078],[4.10324,44.750731],[4.103945,44.750294],[4.104584,44.749685],[4.104831,44.749331],[4.104762,44.749279],[4.104532,44.749333],[4.104019,44.749725],[4.103433,44.749982],[4.102519,44.750191],[4.102379,44.750164],[4.102724,44.750077],[4.103042,44.749922],[4.103559,44.749467],[4.103865,44.749069],[4.103822,44.748972],[4.103464,44.749179],[4.103009,44.74934],[4.10239,44.74953],[4.101987,44.749551],[4.101935,44.74945],[4.102054,44.749346],[4.102358,44.749183],[4.102631,44.748933],[4.102797,44.748351],[4.101844,44.748479],[4.10125,44.748653],[4.100523,44.748766],[4.099537,44.748769],[4.098181,44.748531],[4.097487,44.748556],[4.096911,44.748466],[4.096832,44.748278],[4.097267,44.747021],[4.09676,44.746545],[4.095148,44.745737],[4.093715,44.745184],[4.093383,44.745127],[4.091259,44.745325],[4.090835,44.745463],[4.090309,44.745503],[4.090046,44.745146],[4.089799,44.744617],[4.089617,44.743748],[4.089327,44.74307],[4.088858,44.742409],[4.088646,44.741915],[4.088394,44.741614],[4.087788,44.741454],[4.087686,44.741317],[4.087729,44.741012],[4.087353,44.74057],[4.087493,44.740008],[4.087847,44.739629],[4.088555,44.73913],[4.088491,44.738878],[4.087568,44.738452],[4.087021,44.737491],[4.086398,44.737366],[4.085637,44.737453],[4.085548,44.736771],[4.085674,44.736615],[4.085819,44.736577],[4.086141,44.736028],[4.086495,44.735723],[4.087254,44.735335],[4.087541,44.734954],[4.087533,44.734391],[4.08723,44.733601],[4.087084,44.733177],[4.086793,44.732589],[4.086811,44.732214],[4.087182,44.731609],[4.087289,44.731282],[4.087203,44.730971],[4.086948,44.730975],[4.086736,44.730952],[4.086565,44.730661],[4.086581,44.730415],[4.086817,44.729977],[4.086643,44.729701],[4.086672,44.729487],[4.086956,44.729302],[4.087199,44.729286],[4.087227,44.72945],[4.087337,44.729472],[4.087579,44.729142],[4.087807,44.72862],[4.087927,44.728574],[4.088324,44.728711],[4.088537,44.728305],[4.088851,44.728295],[4.088946,44.727993],[4.088901,44.727673],[4.088635,44.72732],[4.088684,44.727252],[4.088576,44.726829],[4.088751,44.726478],[4.088755,44.726203],[4.088997,44.725784],[4.089311,44.725495],[4.089759,44.72498],[4.090803,44.724374],[4.090658,44.724161],[4.090862,44.7236],[4.091205,44.723002],[4.09143,44.722735],[4.090872,44.722575],[4.091068,44.722165],[4.091198,44.721568],[4.091275,44.721352],[4.091169,44.721226],[4.090737,44.721211],[4.090258,44.721029],[4.089955,44.720749],[4.08996,44.720353],[4.090178,44.720242],[4.090481,44.719724],[4.090886,44.718289],[4.091316,44.717762],[4.0912,44.717627],[4.089883,44.717991],[4.088163,44.718415],[4.087782,44.718394],[4.087326,44.71807],[4.086484,44.717788],[4.085745,44.717116],[4.085607,44.716871],[4.085545,44.716404],[4.085154,44.716263],[4.08444,44.716172],[4.083866,44.716195],[4.082515,44.71615],[4.082107,44.71603],[4.082,44.715828],[4.082261,44.715062],[4.082523,44.714639],[4.08252,44.714403],[4.082256,44.714124],[4.081986,44.71335],[4.082069,44.713114],[4.082472,44.712647],[4.082697,44.71218],[4.082794,44.711799],[4.082434,44.711527],[4.081903,44.711579],[4.080927,44.711606],[4.08054,44.711509],[4.08039,44.71129],[4.08039,44.710861],[4.080632,44.71028],[4.081184,44.709626],[4.082182,44.709365],[4.082654,44.708988],[4.082904,44.709057],[4.083051,44.709001],[4.083408,44.708378],[4.08385,44.707943],[4.084178,44.707819],[4.084344,44.707686],[4.08355,44.707404],[4.082705,44.706868],[4.082187,44.706656],[4.081705,44.706662],[4.080669,44.706454],[4.079929,44.705726],[4.079688,44.705264],[4.079446,44.704658],[4.078003,44.703632],[4.077456,44.70332],[4.077011,44.703186],[4.075553,44.702533],[4.072067,44.700759],[4.070514,44.700132],[4.068794,44.699146],[4.068119,44.698716],[4.067151,44.698466],[4.066019,44.698085],[4.065437,44.697563],[4.065225,44.697553],[4.064844,44.697341],[4.064399,44.697215],[4.062305,44.697374],[4.061053,44.697575],[4.060073,44.697942],[4.059389,44.697989],[4.058974,44.698105],[4.058302,44.698054],[4.057897,44.698054],[4.057157,44.698264],[4.056615,44.698527],[4.055851,44.699058],[4.054711,44.699551],[4.054711,44.699551],[4.054496,44.699589],[4.054121,44.699707],[4.053782,44.69973],[4.053321,44.699543],[4.052892,44.699181],[4.052616,44.69908],[4.052339,44.699032],[4.05183,44.698631],[4.051438,44.698433],[4.050746,44.698147],[4.050454,44.69795],[4.050183,44.697598],[4.049915,44.697376],[4.049298,44.697041],[4.048627,44.696598],[4.048102,44.696552],[4.047469,44.696579],[4.046283,44.696449],[4.045771,44.696459],[4.045461,44.696425],[4.04499,44.696468],[4.044497,44.696388],[4.043853,44.696201],[4.043649,44.696053],[4.043129,44.695786],[4.042941,44.695759],[4.042555,44.69582],[4.042115,44.695916],[4.040302,44.695648],[4.039084,44.695576],[4.037528,44.695442],[4.035109,44.695377],[4.034213,44.695297],[4.03365,44.695206],[4.032904,44.695286],[4.032846,44.695472],[4.032905,44.695733],[4.03313,44.696062],[4.03328,44.696224],[4.03321,44.696362],[4.03299,44.696411],[4.032137,44.696057],[4.031633,44.69595],[4.031065,44.695908],[4.030351,44.696018],[4.028591,44.696804],[4.026794,44.697399],[4.025647,44.697857],[4.024659,44.698014],[4.024227,44.697964],[4.022819,44.697594],[4.021875,44.697464],[4.021189,44.697613],[4.020958,44.697582],[4.020845,44.697433],[4.020909,44.697205],[4.020985,44.697021],[4.020582,44.696316],[4.019981,44.695583],[4.019992,44.695393],[4.019879,44.695114],[4.019788,44.694988],[4.019585,44.694561],[4.019633,44.694378],[4.019606,44.694073],[4.019764,44.693852],[4.019874,44.693802],[4.01953,44.692787],[4.019525,44.692497],[4.020338,44.690901],[4.02063,44.690155],[4.020571,44.690029],[4.020824,44.68927],[4.020861,44.688858],[4.020829,44.688324],[4.020614,44.687714],[4.020207,44.687191],[4.019777,44.686799],[4.019461,44.686397],[4.019225,44.685901],[4.019295,44.685574],[4.019499,44.685101],[4.019654,44.684822],[4.019933,44.684677],[4.021054,44.68346],[4.021462,44.682881],[4.021607,44.682552],[4.02187,44.681789],[4.021998,44.681301],[4.022288,44.680702],[4.023248,44.679718],[4.023313,44.679577],[4.024541,44.678479],[4.02548,44.677292],[4.025769,44.676834],[4.026038,44.676644],[4.026311,44.676174],[4.026167,44.675117],[4.025694,44.674465],[4.02556,44.673534],[4.025319,44.673161],[4.024713,44.672668],[4.024227,44.672048],[4.02415,44.671799],[4.023973,44.671589],[4.023479,44.670803],[4.023458,44.670639],[4.023962,44.669864],[4.024761,44.668182],[4.024729,44.667252],[4.024568,44.666473],[4.02441,44.666159],[4.023994,44.665562],[4.023726,44.665223],[4.023672,44.664791],[4.023812,44.664646],[4.025002,44.664062],[4.025249,44.663792],[4.025593,44.66357],[4.025914,44.663113],[4.026054,44.662498],[4.025984,44.662079],[4.025848,44.661797],[4.02569,44.661659],[4.025491,44.661243],[4.02519,44.66095],[4.024804,44.660702],[4.025346,44.660366],[4.025823,44.65992],[4.02607,44.659576],[4.02651,44.659176],[4.027288,44.658783],[4.02784,44.658436],[4.02813,44.658138],[4.02828,44.657797],[4.028452,44.657532],[4.028709,44.656887],[4.028838,44.656155],[4.029165,44.655514],[4.029219,44.655132],[4.029256,44.654572],[4.029454,44.654144],[4.029755,44.653641],[4.030029,44.652912],[4.03034,44.652229],[4.030544,44.651944],[4.030925,44.651798],[4.031359,44.651764],[4.031853,44.651676],[4.032362,44.651714],[4.032749,44.651684],[4.034042,44.651802],[4.035881,44.651604],[4.037003,44.651653],[4.03844,44.651558],[4.039337,44.65136],[4.040098,44.651135],[4.040243,44.651154],[4.042474,44.650242],[4.043861,44.649673],[4.044068,44.649486],[4.044738,44.648563],[4.045479,44.647755],[4.04535,44.647629],[4.045669,44.647161],[4.045752,44.646992],[4.045307,44.646469],[4.045111,44.646322],[4.044808,44.646191],[4.044631,44.646019],[4.044255,44.645851],[4.04396,44.645817],[4.043788,44.645935],[4.04366,44.645939],[4.043601,44.645838],[4.043461,44.645908],[4.043171,44.645836],[4.042624,44.645756],[4.041954,44.645527],[4.041605,44.64542],[4.041241,44.645165],[4.041691,44.644879],[4.042475,44.644596],[4.043086,44.644363],[4.043799,44.644132],[4.044084,44.644091],[4.044492,44.64398],[4.044642,44.643978],[4.044835,44.643864],[4.045618,44.643761],[4.045774,44.643604],[4.045905,44.643545],[4.046144,44.643356],[4.046278,44.643036],[4.046696,44.642345],[4.046991,44.642185],[4.047351,44.642075],[4.04756,44.641895],[4.047887,44.641712],[4.048005,44.641541],[4.048249,44.641388],[4.048536,44.641319],[4.048799,44.641148],[4.049287,44.64106],[4.049497,44.640892],[4.050129,44.640694],[4.050339,44.64045],[4.050585,44.640266],[4.050773,44.639904],[4.050998,44.63969],[4.050741,44.638904],[4.050755,44.638698],[4.050827,44.638656],[4.05081,44.638511],[4.050529,44.638418],[4.050553,44.638267],[4.050902,44.637864],[4.051293,44.637283],[4.052023,44.636917],[4.052329,44.636665],[4.052543,44.6362],[4.052897,44.635682],[4.052946,44.635345],[4.052788,44.635078],[4.052533,44.634834],[4.052189,44.634701],[4.051776,44.634609],[4.051218,44.634537],[4.050323,44.634239],[4.050108,44.634057],[4.050049,44.633903],[4.050145,44.63385],[4.050467,44.633866],[4.051218,44.633522],[4.05183,44.633137],[4.051964,44.632793],[4.051942,44.632408],[4.052082,44.63176],[4.052254,44.631462],[4.05212,44.631073],[4.052227,44.63092],[4.052849,44.630569],[4.052972,44.630417],[4.053163,44.629749],[4.053268,44.629696],[4.053064,44.629051],[4.05286,44.628464],[4.052195,44.628487],[4.051916,44.628395],[4.051476,44.628555],[4.050854,44.627884],[4.05066,44.627731],[4.050419,44.627747],[4.049883,44.627968],[4.049427,44.628071],[4.04919,44.628147],[4.049046,44.628078],[4.049163,44.627834],[4.049427,44.627709],[4.049601,44.627495],[4.049808,44.627369],[4.049899,44.627262],[4.050253,44.627037],[4.050451,44.62675],[4.050537,44.626214],[4.050902,44.625183],[4.051197,44.624554],[4.051165,44.624332],[4.050977,44.624199],[4.050489,44.623962],[4.050049,44.623852],[4.049234,44.623429],[4.048617,44.623615],[4.048273,44.623844],[4.04801,44.623856],[4.047656,44.623802],[4.047002,44.624001],[4.046739,44.623993],[4.046208,44.623844],[4.045875,44.62368],[4.045468,44.623611],[4.045087,44.623588],[4.044808,44.623531],[4.044685,44.623314],[4.044443,44.623043],[4.044151,44.622912],[4.043676,44.622812],[4.043022,44.622608],[4.042737,44.622601],[4.042035,44.622772],[4.041697,44.622746],[4.041359,44.622581],[4.040903,44.622509],[4.040377,44.622551],[4.040184,44.622478],[4.039937,44.622425],[4.039696,44.622246],[4.039476,44.62204],[4.038424,44.621899],[4.037904,44.621906],[4.037319,44.621723],[4.03674,44.621437],[4.036482,44.621063],[4.036192,44.620788],[4.03593,44.620648],[4.03578,44.620713],[4.035656,44.621128],[4.03468,44.621845],[4.034353,44.621998],[4.033505,44.621937],[4.033242,44.621887],[4.033038,44.621887],[4.032749,44.621651],[4.032765,44.621593],[4.032706,44.621582],[4.032662,44.621521],[4.032556,44.62151],[4.032497,44.621452],[4.032544,44.62133],[4.0324,44.621182],[4.0324,44.62109],[4.032153,44.620937],[4.031719,44.621293],[4.031518,44.621708],[4.031241,44.621865],[4.030756,44.621894],[4.030518,44.621852],[4.030193,44.622024],[4.029437,44.621979],[4.028895,44.622196],[4.028908,44.621975],[4.029155,44.621815],[4.029646,44.621666],[4.029678,44.621597],[4.029635,44.621555],[4.029412,44.621487],[4.029542,44.621399],[4.029348,44.621284],[4.029007,44.621163],[4.028798,44.621154],[4.028393,44.621246],[4.02834,44.621219],[4.028613,44.621075],[4.028573,44.621037],[4.028235,44.621093],[4.027975,44.621109],[4.028216,44.620949],[4.028055,44.62093],[4.027865,44.620983],[4.027513,44.621159],[4.027385,44.621174],[4.027299,44.621094],[4.027255,44.620838],[4.027036,44.620533],[4.026586,44.620063],[4.026024,44.619796],[4.02573,44.619774],[4.025513,44.619576],[4.025201,44.619465],[4.025065,44.619446],[4.024914,44.619373],[4.024821,44.619251],[4.024694,44.619205],[4.024485,44.619202],[4.023951,44.61893],[4.023648,44.618805],[4.023538,44.618751],[4.023423,44.618588],[4.023209,44.618561],[4.023053,44.618458],[4.02283,44.618335],[4.022452,44.618217],[4.022168,44.618138],[4.021966,44.618042],[4.021669,44.617813],[4.021567,44.617802],[4.021417,44.617809],[4.021299,44.617744],[4.021307,44.617626],[4.021342,44.617493],[4.021167,44.617378],[4.021049,44.617344],[4.020784,44.617054],[4.020483,44.616787],[4.020322,44.616714],[4.0201,44.616566],[4.019888,44.616363],[4.019756,44.616131],[4.019657,44.61567],[4.019705,44.615276],[4.019619,44.61517],[4.019215,44.615131],[4.018922,44.615105],[4.018769,44.615128],[4.018609,44.615227],[4.018249,44.615322],[4.018,44.615444],[4.017785,44.615479],[4.017088,44.615681],[4.016755,44.615719],[4.016639,44.615597],[4.016508,44.615535],[4.016192,44.615524],[4.01599,44.615479],[4.01599,44.615479],[4.015619,44.615276],[4.015289,44.615013],[4.015143,44.614863],[4.015051,44.614496],[4.01473,44.614357],[4.01438,44.614319],[4.014161,44.614359],[4.014022,44.614345],[4.013657,44.614414],[4.013383,44.614525],[4.012938,44.614471],[4.01238,44.614265],[4.011784,44.614605],[4.011667,44.61504],[4.011591,44.614933],[4.011302,44.615166],[4.01091,44.615215],[4.01054,44.615352],[4.010208,44.61539],[4.0101,44.615322],[4.010078,44.61496],[4.009725,44.614414],[4.009435,44.614128],[4.009032,44.614041],[4.008603,44.614029],[4.007976,44.61414],[4.007713,44.61412],[4.006801,44.613842],[4.005733,44.613354],[4.005449,44.613316],[4.005229,44.613312],[4.004881,44.613163],[4.004478,44.61311],[4.00406,44.613152],[4.003612,44.613295],[4.002982,44.613567],[4.002633,44.613647],[4.002252,44.613842],[4.001866,44.613525],[4.001624,44.613159],[4.00141,44.612614],[4.001213,44.612706],[4.001231,44.612517],[4.001003,44.6126],[4.00096,44.612469],[4.00083,44.612499],[4.000818,44.612399],[4.00067,44.612341],[4.000461,44.612122],[4.00035,44.611754],[3.999801,44.611385],[3.998785,44.610955],[3.998631,44.610775],[3.998655,44.610157],[3.998742,44.609793],[3.998643,44.609578],[3.998501,44.60942],[3.997799,44.609152],[3.998119,44.608986],[3.998532,44.60892],[3.998852,44.608722],[3.999167,44.608626],[3.999543,44.608749],[3.99953,44.609025],[3.99966,44.609538],[3.999838,44.609587],[4.000005,44.609468],[4.000119,44.609245],[4.000079,44.608762],[4.000183,44.608626],[4.000288,44.6086],[4.00031,44.608376],[4.00053,44.608085],[4.000391,44.6078],[4.000385,44.607598],[4.001335,44.607586],[4.001716,44.607689],[4.002021,44.608028],[4.002322,44.608013],[4.002515,44.607766],[4.002687,44.607762],[4.002767,44.607986],[4.003298,44.60844],[4.003325,44.608188],[4.003491,44.608319],[4.003496,44.608223],[4.003603,44.608314],[4.003641,44.608131],[4.003749,44.6083],[4.004038,44.608372],[4.004102,44.608284],[4.004532,44.608116],[4.005455,44.608212],[4.006307,44.608128],[4.006854,44.608277],[4.007241,44.608253],[4.00797,44.608013],[4.008598,44.607914],[4.009293,44.607729],[4.009891,44.60762],[4.010374,44.607613],[4.010754,44.607697],[4.011001,44.607632],[4.011694,44.607632],[4.012868,44.60775],[4.013549,44.607689],[4.014456,44.60751],[4.015829,44.606987],[4.017117,44.606678],[4.017417,44.606693],[4.017567,44.606583],[4.017927,44.606556],[4.01798,44.606297],[4.01797,44.606186],[4.018061,44.605831],[4.018179,44.605671],[4.017975,44.605373],[4.018174,44.605206],[4.018469,44.605202],[4.018903,44.605526],[4.019531,44.605648],[4.020108,44.605867],[4.020108,44.605867],[4.020413,44.606288],[4.021036,44.606075],[4.022409,44.606151],[4.023546,44.6058],[4.024662,44.605341],[4.026185,44.605082],[4.026818,44.605157],[4.027529,44.605136],[4.02933,44.604758],[4.029811,44.604879],[4.030211,44.604673],[4.030291,44.604865],[4.030742,44.604808],[4.030542,44.605307],[4.030742,44.605371],[4.030992,44.605293],[4.030972,44.605478],[4.031052,44.605571],[4.031788,44.605232],[4.032057,44.605186],[4.032148,44.605015],[4.0321,44.604836],[4.032207,44.604706],[4.032504,44.604559],[4.032684,44.604409],[4.033234,44.604167],[4.033325,44.604046],[4.033465,44.604053],[4.034125,44.603739],[4.034296,44.603589],[4.034396,44.603739],[4.034626,44.60354],[4.034631,44.604171],[4.035109,44.603729],[4.035468,44.603321],[4.035699,44.603205],[4.036101,44.603104],[4.036423,44.603123],[4.036745,44.603306],[4.037389,44.604012],[4.038682,44.60453],[4.038808,44.604509],[4.03901,44.604362],[4.039266,44.604275],[4.040157,44.604179],[4.041074,44.604286],[4.0419,44.60471],[4.042158,44.604637],[4.042576,44.604271],[4.042737,44.603878],[4.043494,44.602837],[4.043794,44.602642],[4.044336,44.602463],[4.045157,44.601971],[4.0452,44.601871],[4.045141,44.601688],[4.04521,44.601494],[4.045478,44.601429],[4.045758,44.601314],[4.047308,44.601044],[4.047635,44.601193],[4.048735,44.60075],[4.049207,44.600456],[4.049496,44.600185],[4.04985,44.600014],[4.050006,44.599751],[4.049968,44.599556],[4.050097,44.598984],[4.050162,44.598675],[4.050076,44.598419],[4.050081,44.598156],[4.050044,44.597996],[4.051057,44.597523],[4.051873,44.59734],[4.052302,44.597115],[4.05249,44.59676],[4.052632,44.596627],[4.053016,44.596328],[4.053002,44.596239],[4.053326,44.596207],[4.053509,44.596031],[4.054169,44.595671],[4.054759,44.59544],[4.055547,44.594681],[4.055784,44.594265],[4.056309,44.593823],[4.056862,44.592323],[4.057076,44.592052],[4.057098,44.591881],[4.056827,44.591757],[4.056555,44.591521],[4.056347,44.591206],[4.056245,44.590949],[4.056548,44.59112],[4.05656,44.591064],[4.056068,44.590633],[4.055639,44.590343],[4.055467,44.590114],[4.055386,44.589878],[4.055483,44.589561],[4.055789,44.588692],[4.055789,44.588055],[4.055692,44.587696],[4.055542,44.586865],[4.055682,44.586613],[4.056223,44.586323],[4.056347,44.586212],[4.056363,44.58606],[4.056401,44.585522],[4.056452,44.585213],[4.056438,44.584339],[4.056529,44.583797],[4.056427,44.583081],[4.05676,44.582317],[4.057103,44.581745],[4.057168,44.581509],[4.057157,44.581276],[4.056958,44.581069],[4.056827,44.581169],[4.056831,44.581272],[4.056653,44.581318],[4.056355,44.581572],[4.056195,44.581626],[4.055918,44.581833],[4.055607,44.581944],[4.055091,44.582214],[4.054721,44.582378],[4.054517,44.582604],[4.054292,44.582687],[4.053686,44.582519],[4.053364,44.582382],[4.053783,44.582134],[4.054029,44.581925],[4.054153,44.581387],[4.054646,44.580875],[4.054775,44.580614],[4.054851,44.580177],[4.054705,44.579567],[4.054694,44.579254],[4.054614,44.579388],[4.054582,44.579495],[4.054426,44.579673],[4.054155,44.579758],[4.0539,44.579731],[4.053777,44.579632],[4.053627,44.579273],[4.052962,44.57803],[4.051926,44.576687],[4.051181,44.576218],[4.050027,44.575653],[4.049539,44.575375],[4.049491,44.575122],[4.049052,44.575142],[4.047871,44.574951],[4.047077,44.575027],[4.04646,44.575028],[4.045339,44.575127],[4.044333,44.575289],[4.043992,44.575318],[4.043183,44.575561],[4.042785,44.575531],[4.04237,44.575419],[4.041917,44.575245],[4.0416,44.575233],[4.040666,44.575505],[4.039883,44.575829],[4.038735,44.575725],[4.037501,44.575798],[4.037297,44.575733],[4.036434,44.574856],[4.035994,44.574013],[4.035764,44.573741],[4.035565,44.573322],[4.035074,44.57288],[4.034353,44.572442],[4.033666,44.571938],[4.033312,44.571541],[4.032864,44.571222],[4.032566,44.570927],[4.032577,44.570727],[4.032266,44.57031],[4.032148,44.570091],[4.03233,44.56929],[4.032346,44.568665],[4.032271,44.568275],[4.03188,44.567768],[4.031129,44.566555],[4.030759,44.566131],[4.030458,44.565742],[4.029509,44.565045],[4.0288,44.564484],[4.028414,44.563835],[4.028028,44.563561],[4.027792,44.563359],[4.027712,44.563152],[4.027459,44.563027],[4.026477,44.561931],[4.026172,44.561738],[4.025909,44.561701],[4.025518,44.561706],[4.025372,44.561672],[4.024772,44.561169],[4.024321,44.560883],[4.023924,44.56076],[4.023479,44.560589],[4.022846,44.560341],[4.022374,44.560196],[4.022149,44.560051],[4.021575,44.559967],[4.021569,44.55954],[4.021408,44.559238],[4.021339,44.559025],[4.019632,44.558091],[4.019499,44.557892],[4.019375,44.557842],[4.019327,44.557629],[4.019174,44.557465],[4.01827,44.556911],[4.017385,44.556477],[4.017128,44.556244],[4.017283,44.556087],[4.017707,44.555305],[4.017938,44.554752],[4.018056,44.554577],[4.018415,44.554359],[4.018517,44.554207],[4.018602,44.553581],[4.018844,44.552784],[4.018833,44.552371],[4.018742,44.551937],[4.018488,44.551626],[4.018389,44.55112],[4.018233,44.550651],[4.018345,44.549976],[4.018088,44.549671],[4.018109,44.549385],[4.017948,44.549194],[4.017803,44.54888],[4.017632,44.548466],[4.017621,44.548004],[4.017557,44.547337],[4.01764,44.547047],[4.018463,44.54598],[4.018766,44.545482],[4.019105,44.545046],[4.019155,44.544621],[4.019123,44.544241],[4.018973,44.54377],[4.019235,44.543102],[4.019101,44.542789],[4.019134,44.542435],[4.019655,44.542011],[4.019874,44.541694],[4.019869,44.541473],[4.019708,44.541417],[4.019799,44.541255],[4.019612,44.54102],[4.019595,44.540921],[4.019386,44.540707],[4.019343,44.540424],[4.019467,44.540004],[4.019225,44.539795],[4.01901,44.539715],[4.018882,44.53957],[4.019166,44.538795],[4.019853,44.538204],[4.019922,44.538033],[4.019772,44.53783],[4.019606,44.537693],[4.019547,44.537495],[4.019622,44.537247],[4.019831,44.537063],[4.020003,44.536724],[4.01996,44.536064],[4.019818,44.535902],[4.019536,44.535801],[4.018447,44.535469],[4.018284,44.535332],[4.018056,44.534935],[4.018023,44.534683],[4.017863,44.534397],[4.017331,44.534114],[4.017096,44.534016],[4.016956,44.533783],[4.016752,44.53297],[4.016661,44.532852],[4.016055,44.532745],[4.015845,44.532593],[4.015524,44.531895],[4.015583,44.531524],[4.015389,44.53088],[4.01488,44.530777],[4.014365,44.530846],[4.013893,44.530934],[4.013437,44.530819],[4.013185,44.530653],[4.012889,44.530311],[4.012525,44.530071],[4.012305,44.529758],[4.012262,44.52927],[4.012224,44.528564],[4.012235,44.528149],[4.012031,44.52776],[4.011683,44.527428],[4.011323,44.527202],[4.011237,44.52711],[4.011012,44.527025],[4.009918,44.52639],[4.009711,44.526173],[4.009104,44.525919],[4.008585,44.525769],[4.008001,44.525551],[4.007665,44.525497],[4.007504,44.525406],[4.007139,44.525295],[4.006796,44.525066],[4.006548,44.524986],[4.006409,44.524832],[4.006174,44.524662],[4.005975,44.524425],[4.005846,44.523998],[4.005873,44.523638],[4.005787,44.523506],[4.005562,44.52341],[4.005336,44.523384],[4.005235,44.523193],[4.005111,44.523102],[4.005208,44.522781],[4.005181,44.522682],[4.005079,44.522621],[4.004945,44.522152],[4.005068,44.521526],[4.004875,44.521332],[4.00348,44.520291],[4.00318,44.520016],[4.002998,44.519596],[4.002649,44.51915],[4.002515,44.519073],[4.002488,44.519174],[4.002064,44.519428],[4.00148,44.520145],[4.000916,44.520329],[4.00016,44.520477],[3.999639,44.520693],[3.999194,44.521],[3.998872,44.521416],[3.998395,44.522587],[3.998331,44.522896],[3.998352,44.523251],[3.998154,44.523609],[3.997901,44.524319],[3.997853,44.524853],[3.997869,44.525173],[3.998116,44.525906],[3.998487,44.526737],[3.998577,44.527118],[3.998502,44.527615],[3.998593,44.527952],[3.998848,44.528483],[3.999017,44.528789],[3.998915,44.529365],[3.998814,44.530731],[3.998931,44.531712],[3.99884,44.531993],[3.998105,44.532559],[3.997789,44.53294],[3.99781,44.533276],[3.997923,44.533566],[3.998003,44.533916],[3.998261,44.534226],[3.998722,44.534531],[3.999254,44.535313],[3.999613,44.535515],[3.999908,44.535568],[4.000922,44.535526],[4.001994,44.535336],[4.002724,44.535271],[4.003416,44.535256],[4.002837,44.536125],[4.002767,44.536564],[4.002724,44.53672],[4.002729,44.537224],[4.002649,44.537506],[4.002665,44.538101],[4.002619,44.538311],[4.002434,44.538533],[4.002075,44.538786],[4.001629,44.539009],[4.001463,44.539145],[4.001308,44.539188],[4.001072,44.53931],[4.000203,44.5396],[3.999805,44.539695],[3.999636,44.539852],[3.999618,44.540085],[3.999946,44.540531],[4.000401,44.540977],[4.000503,44.541209],[4.000551,44.541813],[4.000589,44.542225],[4.000841,44.542645],[4.000959,44.542736],[4.00104,44.543266],[4.000938,44.5434],[4.000959,44.54361],[4.000863,44.543785],[4.00067,44.543882],[4.000508,44.544079],[4.000219,44.544125],[4.00009,44.544176],[3.999886,44.544174],[3.999739,44.544212],[3.999527,44.544315],[3.999213,44.544235],[3.999093,44.544373],[3.998851,44.544342],[3.998543,44.544365],[3.997977,44.544384],[3.997679,44.544376],[3.997478,44.544498],[3.997301,44.544796],[3.997102,44.545025],[3.996989,44.545666],[3.997178,44.546917],[3.9971,44.547016],[3.99685,44.547115],[3.996416,44.547416],[3.99568,44.547615],[3.995498,44.547794],[3.995348,44.547951],[3.995208,44.548298],[3.995246,44.548954],[3.995391,44.549503],[3.995429,44.549892],[3.995155,44.550163],[3.995034,44.550741],[3.995085,44.551002],[3.994766,44.551201],[3.994457,44.551331],[3.994366,44.551449],[3.994173,44.55154],[3.994066,44.551662],[3.993964,44.551853],[3.993841,44.551987],[3.993578,44.552201],[3.993414,44.552485],[3.993261,44.552662],[3.993272,44.55283],[3.993916,44.55368],[3.994334,44.55405],[3.994071,44.554043],[3.993988,44.55407],[3.993755,44.553974],[3.99354,44.55394],[3.993417,44.554084],[3.99324,44.554122],[3.993012,44.554275],[3.992823,44.554344],[3.992687,44.554462],[3.992202,44.554649],[3.991899,44.554729],[3.991915,44.554852],[3.9917,44.554935],[3.991609,44.555107],[3.991539,44.555187],[3.991464,44.555351],[3.991153,44.555492],[3.990933,44.55584],[3.990831,44.556179],[3.990507,44.556593],[3.990472,44.556736],[3.99026,44.557052],[3.990144,44.557652],[3.990016,44.557804],[3.990015,44.558013],[3.989847,44.558471],[3.989614,44.558914],[3.989393,44.559497],[3.988798,44.559971],[3.98839,44.560276],[3.988138,44.560383],[3.987623,44.560787],[3.987344,44.561081],[3.986679,44.561546],[3.986095,44.562016],[3.986004,44.562225],[3.985923,44.562227],[3.985831,44.56216],[3.985708,44.562241],[3.98552,44.562271],[3.985333,44.562381],[3.984871,44.562389],[3.984783,44.562327],[3.984598,44.561546],[3.98456,44.56134],[3.984319,44.561028],[3.984195,44.560822],[3.984013,44.560669],[3.983895,44.560661],[3.983739,44.560501],[3.983568,44.56036],[3.983503,44.560112],[3.983375,44.559925],[3.983363,44.559197],[3.98345,44.558582],[3.983193,44.557823],[3.982854,44.557241],[3.982252,44.557586],[3.981797,44.558224],[3.980328,44.558315],[3.980574,44.55764],[3.980462,44.557674],[3.979598,44.558148],[3.979169,44.558314],[3.978751,44.558541],[3.978697,44.558467],[3.97888,44.55799],[3.979105,44.557682],[3.979179,44.557336],[3.979139,44.556565],[3.97904,44.555713],[3.978954,44.555586],[3.9786,44.55529],[3.978321,44.554889],[3.977726,44.554611],[3.977399,44.554514],[3.976696,44.554203],[3.97609,44.553982],[3.976036,44.554027],[3.976079,44.55418],[3.975693,44.554275],[3.975532,44.554177],[3.97535,44.553978],[3.975071,44.553868],[3.974727,44.553631],[3.974523,44.553597],[3.974266,44.553681],[3.973831,44.553604],[3.973514,44.553486],[3.973118,44.553261],[3.97257,44.553322],[3.972431,44.553288],[3.971959,44.55336],[3.971798,44.553562],[3.971557,44.553653],[3.971117,44.553918],[3.970055,44.554386],[3.969934,44.554463],[3.969681,44.554581],[3.969872,44.554718],[3.9699,44.554854],[3.969561,44.555257],[3.96898,44.555444],[3.968414,44.555721],[3.968081,44.555757],[3.967338,44.555984],[3.966927,44.556266],[3.966552,44.556412],[3.966149,44.556468],[3.965795,44.556649],[3.964996,44.557182],[3.96474,44.557482],[3.964875,44.557986],[3.964556,44.558758],[3.964301,44.558949],[3.96417,44.559276],[3.963976,44.559482],[3.963864,44.559711],[3.963784,44.560009],[3.963622,44.560238],[3.963617,44.560554],[3.963676,44.560917],[3.963811,44.561187],[3.963811,44.561317],[3.963167,44.561577],[3.962748,44.561867],[3.962414,44.562275],[3.962165,44.562527],[3.962081,44.562584],[3.962183,44.562752],[3.962189,44.562874],[3.961912,44.563347],[3.96174,44.564125],[3.961509,44.564298],[3.961375,44.564445],[3.961016,44.564686],[3.960726,44.565268],[3.960672,44.565521],[3.96019,44.566063],[3.96015,44.566172],[3.959959,44.566319],[3.959943,44.56657],[3.959766,44.566951],[3.959546,44.567583],[3.959573,44.567726],[3.959492,44.568043],[3.959359,44.568828],[3.959187,44.569076],[3.959267,44.569111],[3.959243,44.56924],[3.958941,44.569518],[3.958511,44.569843],[3.958301,44.57016],[3.958189,44.570412],[3.958028,44.57064],[3.957912,44.570902],[3.957904,44.571278],[3.958333,44.571582],[3.958709,44.572002],[3.959144,44.57235],[3.959449,44.572838],[3.959755,44.572887],[3.960206,44.572868],[3.960533,44.572957],[3.961461,44.573383],[3.962191,44.573624],[3.96263,44.573639],[3.962979,44.573723],[3.964106,44.574158],[3.96462,44.574257],[3.965248,44.574452],[3.965661,44.574688],[3.96615,44.575046],[3.966536,44.575138],[3.966541,44.575268],[3.966428,44.575401],[3.96652,44.575691],[3.966359,44.576515],[3.966182,44.576744],[3.966326,44.577156],[3.966525,44.577477],[3.966868,44.578411],[3.967002,44.578991],[3.967297,44.579285],[3.967346,44.579483],[3.967222,44.579685],[3.966697,44.580243],[3.966773,44.580587],[3.96686,44.581466],[3.966611,44.581974],[3.96675,44.58221],[3.967195,44.582473],[3.967429,44.582708],[3.967588,44.582989],[3.968,44.583118],[3.968274,44.583248],[3.968639,44.58363],[3.968987,44.584126],[3.969384,44.584057],[3.969475,44.58408],[3.969341,44.584282],[3.969277,44.584534],[3.969706,44.584431],[3.970135,44.584419],[3.970387,44.584332],[3.970774,44.584358],[3.971069,44.584534],[3.971203,44.584709],[3.971224,44.58493],[3.971521,44.584913],[3.971911,44.585099],[3.971628,44.585271],[3.971216,44.585401],[3.97078,44.585597],[3.970634,44.585716],[3.970902,44.585732],[3.970951,44.585781],[3.970902,44.585853],[3.971066,44.585968],[3.97124,44.586151],[3.971396,44.586349],[3.971498,44.586414],[3.971707,44.586807],[3.971744,44.587265],[3.971916,44.588017],[3.972045,44.58844],[3.972077,44.588669],[3.97219,44.588821],[3.972163,44.588932],[3.972023,44.589046],[3.972163,44.5891],[3.972061,44.589157],[3.972206,44.589245],[3.972367,44.589893],[3.972308,44.590061],[3.972517,44.590484],[3.97235,44.590473],[3.972313,44.590553],[3.97249,44.591114],[3.972589,44.591202],[3.973091,44.591313],[3.973633,44.591625],[3.973826,44.591915],[3.97447,44.592247],[3.974798,44.592537],[3.975002,44.592651],[3.975184,44.592842],[3.975183,44.593083],[3.974918,44.593447],[3.974856,44.59375],[3.974717,44.59409],[3.974813,44.594418],[3.9747,44.59481],[3.974792,44.595051],[3.974964,44.59523],[3.97499,44.595573],[3.97521,44.595982],[3.975269,44.596256],[3.975215,44.596493],[3.975307,44.596848],[3.975317,44.59721],[3.975301,44.597359],[3.975361,44.5975],[3.975479,44.597645],[3.975597,44.597908],[3.97576,44.598061],[3.975835,44.598251],[3.975819,44.598442],[3.975656,44.598736],[3.975567,44.599033],[3.97543,44.599285],[3.975224,44.599529],[3.974913,44.599735],[3.974722,44.599815],[3.974567,44.599892],[3.974172,44.60055],[3.973937,44.600518],[3.97374,44.600594],[3.97349,44.60088],[3.973171,44.601015],[3.972898,44.601334],[3.972936,44.601501],[3.97308,44.601539],[3.973437,44.60149],[3.974089,44.601425],[3.973687,44.601614],[3.973308,44.601728],[3.972572,44.601836],[3.972139,44.602079],[3.971881,44.602457],[3.971646,44.603111],[3.971434,44.603586],[3.971403,44.604153],[3.97113,44.603743],[3.970994,44.603834],[3.971039,44.604067],[3.970971,44.604261],[3.971009,44.60445],[3.97091,44.60452],[3.970925,44.604655],[3.970872,44.604866],[3.970918,44.605055],[3.970804,44.604947],[3.97069,44.604958],[3.970607,44.604774],[3.97025,44.604818],[3.970713,44.605487],[3.970668,44.605676],[3.970485,44.60593],[3.970265,44.605876],[3.970091,44.606117],[3.970091,44.606244],[3.969684,44.60662],[3.969546,44.606655],[3.969627,44.606968],[3.969506,44.607039],[3.969213,44.607197],[3.968757,44.607265],[3.968917,44.607136],[3.968944,44.607029],[3.968843,44.606972],[3.968606,44.607101],[3.968049,44.607185],[3.968102,44.607021],[3.967834,44.607128],[3.967619,44.607216],[3.967576,44.607101],[3.967684,44.607004],[3.967727,44.606907],[3.967861,44.606766],[3.967566,44.606831],[3.967206,44.606877],[3.966949,44.606972],[3.966911,44.606937],[3.967073,44.606816],[3.967158,44.606712],[3.96733,44.606625],[3.967301,44.606598],[3.967027,44.606651],[3.966705,44.606674],[3.96645,44.606705],[3.966279,44.606712],[3.966058,44.606743],[3.965849,44.606842],[3.965597,44.606934],[3.965552,44.606915],[3.965997,44.606475],[3.965727,44.606502],[3.965364,44.606601],[3.964997,44.606678],[3.964597,44.606782],[3.96439,44.606812],[3.964355,44.606773],[3.964589,44.606708],[3.964723,44.606587],[3.964843,44.606457],[3.965037,44.606369],[3.96519,44.606224],[3.965487,44.606102],[3.965501,44.60606],[3.965774,44.605942],[3.966131,44.605869],[3.966235,44.605808],[3.966257,44.605755],[3.965981,44.605675],[3.965726,44.605561],[3.965072,44.60561],[3.96445,44.605492],[3.964167,44.605499],[3.963173,44.605759],[3.962749,44.605793],[3.961188,44.60606],[3.960606,44.606125],[3.959705,44.605961],[3.959302,44.605846],[3.958956,44.60569],[3.958581,44.605717],[3.958331,44.605717],[3.958141,44.605659],[3.957618,44.605747],[3.957312,44.605721],[3.956952,44.605744],[3.956832,44.605721],[3.956741,44.605602],[3.956748,44.605449],[3.956824,44.605332],[3.956832,44.605095],[3.956714,44.604958],[3.956459,44.604813],[3.956196,44.604774],[3.955957,44.604771],[3.955434,44.6049],[3.955269,44.605095],[3.955032,44.605247],[3.954839,44.60543],[3.954641,44.605545],[3.954571,44.605503],[3.95442,44.605262],[3.954257,44.605026],[3.953951,44.604763],[3.953871,44.60477],[3.953919,44.605206],[3.953903,44.605526],[3.953839,44.60553],[3.953793,44.605377],[3.953651,44.605209],[3.95316,44.604698],[3.952844,44.604538],[3.952712,44.604374],[3.95243,44.604209],[3.95206,44.604115],[3.951674,44.604225],[3.951328,44.604236],[3.950993,44.604305],[3.950773,44.604313],[3.949824,44.604527],[3.948686,44.604947],[3.948082,44.605279],[3.947111,44.605858],[3.946596,44.606347],[3.946322,44.606549],[3.946226,44.606675],[3.946215,44.606556],[3.946521,44.606205],[3.946628,44.605824],[3.946602,44.605202],[3.94665,44.604702],[3.946548,44.604595],[3.946323,44.604553],[3.946151,44.604614],[3.9457,44.605075],[3.945298,44.605365],[3.944879,44.605556],[3.944493,44.605637],[3.943951,44.605694],[3.943469,44.605694],[3.94232,44.6055],[3.941403,44.605256],[3.940921,44.605204],[3.940116,44.605236],[3.939249,44.605162],[3.938522,44.604988],[3.937906,44.604798],[3.937458,44.604595],[3.937058,44.604244],[3.936878,44.604134],[3.936709,44.603954],[3.936489,44.603615],[3.936227,44.60294],[3.936152,44.602291],[3.936237,44.601708],[3.936152,44.600902],[3.935977,44.600855],[3.93547,44.600563],[3.934864,44.600136],[3.934392,44.599927],[3.933314,44.599517],[3.932187,44.599625],[3.931002,44.599487],[3.929844,44.599396],[3.929725,44.599304],[3.929425,44.598767],[3.929092,44.598392],[3.928631,44.598186],[3.927958,44.598183],[3.927456,44.598225],[3.926651,44.598439],[3.926356,44.598434],[3.926168,44.598289],[3.925975,44.597855],[3.925777,44.597676],[3.925423,44.597504],[3.924092,44.597256],[3.923722,44.597099],[3.922961,44.596741],[3.922408,44.596619],[3.922114,44.596673],[3.921985,44.596798],[3.921845,44.597012],[3.921743,44.597446],[3.921619,44.597469],[3.921582,44.597393],[3.921657,44.596448],[3.921636,44.596196],[3.921507,44.595982],[3.92133,44.595955],[3.920804,44.595836],[3.92023,44.59594],[3.919769,44.596024],[3.919125,44.596234],[3.918947,44.596508],[3.918593,44.59666],[3.91795,44.596828],[3.917392,44.597149],[3.917135,44.597404],[3.917027,44.5984],[3.917118,44.599118],[3.917022,44.599258],[3.916818,44.599306],[3.916416,44.59924],[3.916148,44.599259],[3.91585,44.599169],[3.915209,44.598728],[3.914914,44.59861],[3.914643,44.598433],[3.914222,44.598225],[3.913525,44.598068],[3.91316,44.597595],[3.913128,44.597122],[3.912801,44.596771],[3.911749,44.595959],[3.911653,44.595824],[3.910993,44.595261],[3.909732,44.594391],[3.909249,44.593945],[3.909126,44.593771],[3.908982,44.593765],[3.90829,44.593262],[3.907769,44.593082],[3.907178,44.592922],[3.906728,44.592876],[3.906432,44.592735],[3.906347,44.59261],[3.9061,44.592396],[3.906057,44.59232],[3.905891,44.592259],[3.905896,44.592106],[3.905816,44.591786],[3.905628,44.591782]]],"type":"MultiLineString"},"properties":{"geo_point":{"lon":4.062093000181304,"lat":44.71953436103803},"name":"Tour de la Montagne Ardéchoise (Ardèche) (2020)","code_gr":null}}]}