{"type":"FeatureCollection","features":[{"type":"Feature","geometry":{"coordinates":[[[5.373567,46.078836],[5.372416,46.07893],[5.372244,46.078438],[5.37248,46.077888],[5.373017,46.077143],[5.372137,46.077218],[5.371257,46.077724],[5.370613,46.077813],[5.369626,46.07823],[5.368832,46.079242],[5.368403,46.081162],[5.36703,46.081787],[5.365163,46.082204],[5.364047,46.082993],[5.362374,46.083544],[5.36055,46.083588],[5.358661,46.083901],[5.35673,46.083767],[5.354627,46.083082],[5.352052,46.082487],[5.350829,46.081787],[5.350379,46.081371],[5.348705,46.080924],[5.346867,46.080099],[5.34412,46.079935],[5.343369,46.080381],[5.342833,46.080605],[5.342018,46.081215],[5.34146,46.081334],[5.341181,46.081527],[5.340709,46.081661],[5.339979,46.082123],[5.338692,46.081051],[5.338137,46.080122],[5.338009,46.078752],[5.337579,46.077993],[5.336356,46.077041],[5.33552,46.076817],[5.335283,46.076505],[5.33361,46.075686],[5.333095,46.074786],[5.332087,46.074711],[5.330885,46.075575],[5.329447,46.076245],[5.329018,46.076334],[5.328761,46.076661],[5.327902,46.076706],[5.327902,46.077748],[5.328117,46.078016],[5.328203,46.078924],[5.327709,46.079415],[5.327516,46.079936],[5.326787,46.080844],[5.326814,46.081531],[5.326106,46.082632],[5.325291,46.08357],[5.324411,46.084031],[5.323188,46.084225],[5.322416,46.084284],[5.321815,46.084671],[5.320742,46.085118],[5.320055,46.085936],[5.32042,46.086041],[5.321107,46.085996],[5.321514,46.086204],[5.322201,46.086234],[5.323295,46.086963],[5.324797,46.087172],[5.32542,46.087514],[5.325098,46.087737],[5.324239,46.087752],[5.323274,46.08805],[5.322587,46.088169],[5.322973,46.088615],[5.323875,46.091011],[5.324282,46.091621],[5.324068,46.093228],[5.323081,46.094285],[5.323531,46.095014],[5.324411,46.095713],[5.32439,46.096919],[5.324776,46.09799],[5.325956,46.098734],[5.327716,46.099612],[5.328209,46.099552],[5.327716,46.100549],[5.327909,46.10165],[5.328166,46.102052],[5.328438,46.102042],[5.328717,46.101223],[5.329318,46.101313],[5.329919,46.101357],[5.330756,46.101551],[5.331314,46.101804],[5.332709,46.102101],[5.334554,46.102131],[5.336485,46.102577],[5.338502,46.103589],[5.339596,46.104541],[5.339875,46.105865],[5.339725,46.10716],[5.339854,46.10777],[5.340777,46.108766],[5.340884,46.110016],[5.340111,46.110388],[5.339832,46.111057],[5.339983,46.111504],[5.339403,46.112589],[5.33906,46.11366],[5.339017,46.114419],[5.338566,46.11485],[5.338588,46.115832],[5.338352,46.116234],[5.335541,46.116011],[5.335241,46.116293],[5.33509,46.117498],[5.335262,46.118985],[5.334962,46.119863],[5.335176,46.120384],[5.335884,46.121306],[5.336013,46.122228],[5.335906,46.123626],[5.334768,46.125797],[5.334726,46.126288],[5.334425,46.126704],[5.334211,46.127374],[5.334039,46.12773],[5.334253,46.130273],[5.333889,46.131493],[5.331528,46.133738],[5.330885,46.135017],[5.330842,46.137128],[5.330906,46.138437],[5.331443,46.139938],[5.332151,46.140831],[5.333674,46.141812],[5.334361,46.141708],[5.334962,46.142079],[5.334919,46.142436],[5.334554,46.142897],[5.334382,46.143968],[5.334575,46.144295],[5.334747,46.14483],[5.334361,46.145796],[5.334897,46.146242],[5.334404,46.14648],[5.333202,46.146331],[5.332987,46.146495],[5.332859,46.147179],[5.332666,46.147773],[5.332494,46.149096],[5.332923,46.150727],[5.333803,46.152689],[5.334125,46.154487],[5.334983,46.155468],[5.337,46.156672],[5.338588,46.157118],[5.338931,46.157475],[5.341549,46.157653],[5.341571,46.158084],[5.342279,46.158768],[5.342858,46.158976],[5.343909,46.158753],[5.344982,46.158738],[5.34539,46.159808],[5.345884,46.160447],[5.345562,46.161027],[5.345819,46.161651],[5.347021,46.161993],[5.346677,46.16232],[5.347729,46.162662],[5.348008,46.163256],[5.348051,46.164341],[5.348802,46.165827],[5.348866,46.166556],[5.348995,46.167343],[5.348802,46.167952],[5.349124,46.169171],[5.350282,46.169572],[5.350046,46.169973],[5.350132,46.170508],[5.349853,46.171014],[5.34951,46.171088],[5.349016,46.171014],[5.348265,46.171341],[5.347471,46.171341],[5.346527,46.171994],[5.346034,46.172054],[5.345283,46.172336],[5.34509,46.172604],[5.34466,46.173005],[5.344532,46.173703],[5.343051,46.173569],[5.341184,46.174491],[5.340026,46.174506],[5.338974,46.175174],[5.338266,46.175858],[5.336249,46.176838],[5.33627,46.178443],[5.33597,46.179349],[5.335863,46.180374],[5.335326,46.181578],[5.335305,46.183435],[5.335455,46.183985],[5.334575,46.185619],[5.333567,46.186139],[5.334854,46.186094],[5.338051,46.183985],[5.338245,46.185247],[5.337515,46.185916],[5.33685,46.187238],[5.336185,46.188946],[5.337386,46.191694],[5.337966,46.191769],[5.338588,46.194322],[5.338416,46.194529],[5.338931,46.195673],[5.339747,46.196787],[5.339983,46.197619],[5.341635,46.199371],[5.342558,46.201287],[5.341892,46.202728],[5.342086,46.205267],[5.342601,46.206337],[5.342858,46.207658],[5.343373,46.208623],[5.344564,46.21019],[5.346399,46.211994],[5.348458,46.21342],[5.346763,46.213464],[5.346613,46.213939],[5.346205,46.214251],[5.346742,46.214964],[5.347214,46.216077],[5.347085,46.216463],[5.349574,46.218408],[5.350776,46.219626],[5.352171,46.220635],[5.353415,46.222135],[5.353844,46.222936],[5.35496,46.223916],[5.355067,46.224332],[5.355818,46.225341],[5.356569,46.226737],[5.356634,46.22736],[5.356205,46.22785],[5.356398,46.228414],[5.356076,46.230359],[5.356741,46.231042],[5.35687,46.231472],[5.357514,46.231309],[5.357775,46.231439],[5.357067,46.231647],[5.356702,46.232344],[5.355264,46.232077],[5.352947,46.230548],[5.352668,46.230979],[5.35402,46.232879],[5.353333,46.234511],[5.353569,46.235298],[5.353312,46.236841],[5.352883,46.238103],[5.353441,46.238103],[5.353312,46.239736],[5.352647,46.240418],[5.351831,46.240923],[5.353226,46.242674],[5.353784,46.243594],[5.354449,46.244262],[5.351853,46.245405],[5.352303,46.245879],[5.352797,46.246057],[5.353784,46.24582],[5.353977,46.245954],[5.355243,46.245583],[5.355393,46.246414],[5.35593,46.247408],[5.356552,46.24809],[5.357303,46.247942],[5.358376,46.249159],[5.358934,46.249278],[5.359964,46.250316],[5.359878,46.250628],[5.360028,46.251399],[5.360564,46.251815],[5.361573,46.253239],[5.362024,46.254827],[5.361873,46.255702],[5.361401,46.257408],[5.361766,46.259129],[5.362796,46.261088],[5.363826,46.262378],[5.364298,46.264188],[5.365071,46.265716],[5.366937,46.268],[5.367367,46.268712],[5.367517,46.269068],[5.36801,46.269766],[5.368804,46.270611],[5.369062,46.27119],[5.369984,46.271709],[5.371079,46.27291],[5.371079,46.273592],[5.372795,46.275787],[5.375349,46.279184],[5.375885,46.279525],[5.376336,46.279451],[5.376765,46.279732],[5.37698,46.280444],[5.377173,46.281556],[5.377795,46.282995],[5.379104,46.28473],[5.380177,46.285976],[5.381614,46.288659],[5.382623,46.289813],[5.383267,46.291415],[5.383996,46.295136],[5.384876,46.295195],[5.385498,46.295136],[5.385906,46.295788],[5.385927,46.296144],[5.387344,46.297745],[5.388245,46.298409],[5.388524,46.299002],[5.388524,46.299595],[5.388932,46.300559],[5.389318,46.301122],[5.389275,46.301848],[5.389747,46.302945],[5.390734,46.303123],[5.391764,46.303168],[5.392668,46.303464],[5.393333,46.304324],[5.393462,46.305021],[5.394427,46.306814],[5.394728,46.307793],[5.39638,46.31052],[5.396766,46.310876],[5.397861,46.311187],[5.397732,46.311558],[5.398054,46.31298],[5.399363,46.31298],[5.401036,46.31344],[5.402259,46.315174],[5.402388,46.317797],[5.402646,46.318494],[5.402839,46.320776],[5.402131,46.323028],[5.402474,46.324777],[5.40183,46.324999],[5.401466,46.324881],[5.401165,46.324273],[5.400715,46.32408],[5.399577,46.323354],[5.397753,46.32285],[5.396938,46.323162],[5.395736,46.322954],[5.394621,46.323088],[5.394041,46.323428],[5.393827,46.323873],[5.394299,46.325755],[5.394535,46.329444],[5.39653,46.325933],[5.396509,46.327074],[5.396788,46.328955],[5.397324,46.33017],[5.398032,46.330893],[5.398419,46.331116],[5.398934,46.333634],[5.400178,46.335664],[5.400049,46.336775],[5.40018,46.337641],[5.400052,46.338308],[5.400502,46.338767],[5.400288,46.33936],[5.399751,46.339671],[5.397477,46.339152],[5.396897,46.338752],[5.396232,46.3385],[5.393035,46.33693],[5.39267,46.337908],[5.392005,46.338989],[5.392112,46.339774],[5.391941,46.340382],[5.390589,46.340145],[5.388186,46.339834],[5.387563,46.340056],[5.387156,46.339004],[5.386254,46.338412],[5.385439,46.338352],[5.384667,46.338604],[5.383207,46.338426],[5.380482,46.338678],[5.379431,46.339123],[5.377628,46.339656],[5.375697,46.339375],[5.372951,46.33973],[5.372243,46.339923],[5.371599,46.339863],[5.370569,46.340056],[5.370118,46.340367],[5.369346,46.340234],[5.36896,46.340012],[5.368681,46.339493],[5.368273,46.339241],[5.365913,46.339923],[5.36587,46.339537],[5.364904,46.339715],[5.363338,46.339537],[5.360977,46.339937],[5.358488,46.339049],[5.357694,46.339375],[5.357201,46.339849],[5.357179,46.340115],[5.356922,46.340397],[5.35675,46.34093],[5.356299,46.341182],[5.355119,46.340989],[5.353274,46.341552],[5.351364,46.3417],[5.351386,46.342367],[5.351622,46.343478],[5.351278,46.344519],[5.350248,46.344594],[5.350206,46.345275],[5.349884,46.345556],[5.350012,46.346104],[5.349755,46.346682],[5.349412,46.346889],[5.349412,46.347289],[5.349583,46.347615],[5.349669,46.34803],[5.349133,46.348889],[5.348875,46.349807],[5.347695,46.351377],[5.346493,46.352147],[5.344777,46.352147],[5.344412,46.352473],[5.342931,46.353169],[5.342567,46.353184],[5.342524,46.353584],[5.341043,46.353525],[5.341966,46.356531],[5.343339,46.356739],[5.344498,46.36127],[5.345378,46.361344],[5.345571,46.362218],[5.346021,46.363047],[5.345807,46.363758],[5.345292,46.363787],[5.344369,46.364113],[5.343232,46.363876],[5.343167,46.364335],[5.342502,46.364809],[5.341966,46.365801],[5.340914,46.366053],[5.340721,46.367311],[5.341193,46.368096],[5.341386,46.368999],[5.341858,46.371102],[5.342459,46.371427],[5.342846,46.372123],[5.343725,46.372804],[5.344627,46.374596],[5.345141,46.376402],[5.34542,46.377024],[5.345592,46.3784],[5.345549,46.379614],[5.345721,46.380073],[5.345528,46.380813],[5.34733,46.381405],[5.346558,46.383404],[5.345571,46.38333],[5.34585,46.384144],[5.345914,46.385106],[5.346365,46.38592],[5.346579,46.386571],[5.347652,46.386971],[5.349497,46.38663],[5.350742,46.386186],[5.351665,46.386349],[5.354282,46.386231],[5.355248,46.38629],[5.356621,46.386038],[5.357694,46.385343],[5.358896,46.38515],[5.359883,46.384662],[5.360763,46.384691],[5.36205,46.38367],[5.362694,46.382974],[5.363767,46.382442],[5.364539,46.382308],[5.36587,46.381775],[5.366642,46.381775],[5.368255,46.381551],[5.368941,46.381255],[5.370036,46.380041],[5.371066,46.379375],[5.371259,46.378916],[5.371688,46.378694],[5.371795,46.378398],[5.372267,46.37822],[5.371688,46.377317],[5.37098,46.376814],[5.370572,46.376133],[5.369542,46.3756],[5.37083,46.375318],[5.372031,46.3756],[5.373147,46.375437],[5.373469,46.374978],[5.37407,46.374993],[5.374413,46.374711],[5.373834,46.372861],[5.37422,46.372002],[5.376044,46.371662],[5.376752,46.370759],[5.377202,46.370507],[5.378941,46.370137],[5.379756,46.369767],[5.380121,46.370166],[5.383575,46.369174],[5.384477,46.36839],[5.384691,46.367901],[5.384562,46.367324],[5.383468,46.366539],[5.382309,46.365739],[5.380271,46.364777],[5.378983,46.363637],[5.378361,46.362319],[5.377868,46.36186],[5.377031,46.360112],[5.375679,46.359283],[5.375421,46.358972],[5.37452,46.358928],[5.374027,46.357891],[5.375314,46.357935],[5.376988,46.357684],[5.377932,46.357225],[5.378511,46.356795],[5.37864,46.356499],[5.379584,46.355877],[5.380056,46.35521],[5.380936,46.35484],[5.381279,46.354337],[5.382052,46.353833],[5.383339,46.352811],[5.384219,46.352634],[5.384992,46.352145],[5.385786,46.351508],[5.387373,46.351227],[5.389004,46.350501],[5.389863,46.350723],[5.391772,46.350693],[5.393467,46.350827],[5.396407,46.350797],[5.397287,46.350797],[5.399068,46.351434],[5.401342,46.352708],[5.402286,46.352559],[5.402694,46.351523],[5.40263,46.350086],[5.402973,46.348175],[5.402995,46.347139],[5.403488,46.345568],[5.404454,46.344221],[5.407265,46.341273],[5.408037,46.340636],[5.40823,46.340088],[5.409368,46.339214],[5.410183,46.33834],[5.410784,46.33831],[5.412758,46.337895],[5.413273,46.337095],[5.414131,46.336666],[5.414367,46.336354],[5.41647,46.336191],[5.416878,46.335851],[5.417757,46.335821],[5.418916,46.33511],[5.419667,46.334562],[5.420311,46.333732],[5.421255,46.333184],[5.422156,46.333139],[5.423809,46.332754],[5.424474,46.331999],[5.425375,46.331688],[5.426169,46.331732],[5.426748,46.330561],[5.428336,46.328828],[5.428551,46.328057],[5.428572,46.327687],[5.429924,46.327539],[5.429581,46.327154],[5.429194,46.325316],[5.429194,46.32459],[5.428873,46.324042],[5.429023,46.323049],[5.428701,46.322708],[5.428529,46.322264],[5.427821,46.321982],[5.427843,46.321419],[5.427714,46.320737],[5.42825,46.320041],[5.428358,46.319478],[5.428551,46.319063],[5.428358,46.317773],[5.428465,46.316721],[5.429216,46.31601],[5.429538,46.315269],[5.429388,46.314602],[5.429044,46.314128],[5.42913,46.313742],[5.430525,46.313535],[5.431405,46.312986],[5.431576,46.311661],[5.431769,46.310772],[5.431469,46.309542],[5.431769,46.308534],[5.434859,46.30886],[5.435503,46.308045],[5.436511,46.307526],[5.43722,46.305984],[5.437735,46.304176],[5.440073,46.30422],[5.442842,46.30385],[5.44282,46.303212],[5.444344,46.302856],[5.445288,46.302545],[5.446253,46.301863],[5.446876,46.301759],[5.44709,46.303138],[5.446747,46.304546],[5.447219,46.304487],[5.448506,46.303509],[5.448849,46.302791],[5.449321,46.302287],[5.449707,46.30116],[5.450501,46.300345],[5.451445,46.299826],[5.451424,46.299411],[5.452239,46.2995],[5.452733,46.299707],[5.45372,46.299351],[5.453849,46.298551],[5.454299,46.298269],[5.455093,46.29695],[5.454514,46.295853],[5.452883,46.293347],[5.452647,46.292739],[5.452432,46.291953],[5.451724,46.290574],[5.45196,46.289774],[5.45284,46.288825],[5.454128,46.288498],[5.454406,46.288143],[5.455394,46.287787],[5.455394,46.287431],[5.454621,46.285829],[5.454299,46.284643],[5.453591,46.284895],[5.452904,46.284747],[5.451724,46.28408],[5.451016,46.284035],[5.450222,46.282804],[5.450051,46.281796],[5.450372,46.280357],[5.450973,46.27966],[5.451231,46.278963],[5.450823,46.277629],[5.450394,46.27662],[5.45078,46.276042],[5.450823,46.275478],[5.449857,46.274855],[5.448978,46.275107],[5.448527,46.275033],[5.448119,46.274425],[5.447347,46.274381],[5.446124,46.272972],[5.44518,46.270628],[5.444772,46.269026],[5.444836,46.268507],[5.444622,46.265659],[5.444944,46.264591],[5.444772,46.263995],[5.445437,46.263817],[5.446124,46.263327],[5.446789,46.263238],[5.446768,46.262289],[5.446017,46.261577],[5.44563,46.26079],[5.445888,46.26036],[5.446338,46.260138],[5.446467,46.259589],[5.447283,46.257912],[5.447476,46.256844],[5.448334,46.255464],[5.448591,46.254648],[5.449192,46.253758],[5.449278,46.252957],[5.449128,46.252378],[5.448677,46.251785],[5.448935,46.251518],[5.448913,46.25048],[5.44917,46.248002],[5.449492,46.24818],[5.449964,46.248224],[5.453848,46.247097],[5.454642,46.24726],[5.458719,46.247393],[5.458805,46.246488],[5.458655,46.246102],[5.458934,46.245435],[5.458633,46.244173],[5.458225,46.243773],[5.4555,46.239111],[5.454277,46.236439],[5.453676,46.235741],[5.453011,46.234673],[5.451681,46.233797],[5.451466,46.234153],[5.451702,46.234673],[5.451617,46.23497],[5.450565,46.235489],[5.450501,46.235727],[5.450093,46.235682],[5.449385,46.23543],[5.448269,46.235504],[5.446853,46.23586],[5.445716,46.235326],[5.444643,46.235059],[5.443441,46.234228],[5.442797,46.233664],[5.442261,46.232921],[5.441446,46.232432],[5.44078,46.231882],[5.441338,46.233396],[5.440995,46.234747],[5.440459,46.235163],[5.439536,46.235148],[5.439235,46.234851],[5.438227,46.234806],[5.437798,46.23396],[5.436231,46.233307],[5.433077,46.230843],[5.429687,46.228691],[5.42915,46.228661],[5.428077,46.229151],[5.427605,46.229225],[5.426854,46.229686],[5.426125,46.229879],[5.425867,46.230383],[5.425803,46.230829],[5.424601,46.2316],[5.424344,46.232446],[5.424451,46.232921],[5.423099,46.233129],[5.423185,46.233352],[5.421447,46.233678],[5.420589,46.233723],[5.418808,46.234331],[5.418851,46.233233],[5.418486,46.232565],[5.417628,46.232016],[5.417821,46.230368],[5.418207,46.229448],[5.417735,46.228736],[5.417392,46.227014],[5.41737,46.225796],[5.416276,46.224876],[5.419516,46.224015],[5.419001,46.222916],[5.42076,46.221239],[5.420782,46.220615],[5.423078,46.220823],[5.4234,46.220482],[5.424322,46.220511],[5.424837,46.220111],[5.425116,46.218433],[5.42488,46.217364],[5.425052,46.214498],[5.425567,46.213147],[5.426211,46.211855],[5.425352,46.211336],[5.425009,46.210519],[5.425138,46.208024],[5.427155,46.206569],[5.427112,46.20547],[5.427799,46.205039],[5.429129,46.203614],[5.430159,46.203094],[5.431103,46.202262],[5.431854,46.201475],[5.431511,46.200525],[5.431918,46.200599],[5.432648,46.201148],[5.433249,46.201119],[5.433635,46.200822],[5.433828,46.200124],[5.434279,46.199797],[5.434386,46.199099],[5.434944,46.199084],[5.435759,46.199767],[5.436618,46.20045],[5.437884,46.202054],[5.439171,46.203064],[5.4396,46.202589],[5.440544,46.202544],[5.441188,46.202886],[5.441918,46.203569],[5.443269,46.204297],[5.443849,46.204282],[5.444257,46.204505],[5.444814,46.204594],[5.445244,46.204921],[5.446467,46.205529],[5.448784,46.205114],[5.450672,46.204802],[5.451617,46.203837],[5.453977,46.203242],[5.454878,46.202767],[5.45711,46.203569],[5.456294,46.202782],[5.455136,46.199723],[5.455028,46.19846],[5.455436,46.197361],[5.455329,46.195995],[5.455608,46.195772],[5.457689,46.195906],[5.458161,46.196218],[5.459663,46.196425],[5.460114,46.196128],[5.460457,46.19595],[5.460564,46.195623],[5.460886,46.195415],[5.461079,46.195074],[5.46168,46.194302],[5.460843,46.193559],[5.4605,46.192564],[5.461594,46.191955],[5.458912,46.190543],[5.457453,46.189667],[5.456874,46.189756],[5.456552,46.189637],[5.456466,46.189192],[5.453741,46.186993],[5.452732,46.185775],[5.451938,46.184408],[5.451745,46.183651],[5.45196,46.183413],[5.452539,46.181288],[5.453054,46.180115],[5.453698,46.179387],[5.454621,46.177901],[5.455415,46.177485],[5.455715,46.176742],[5.456402,46.175895],[5.457045,46.175553],[5.457496,46.175598],[5.458118,46.17536],[5.458462,46.175316],[5.456037,46.172374],[5.455393,46.170873],[5.455372,46.170219],[5.454985,46.169565],[5.455286,46.168599],[5.454535,46.167455],[5.453505,46.166549],[5.450823,46.164453],[5.449549,46.164765],[5.450021,46.165062],[5.450536,46.165568],[5.45191,46.167485],[5.45133,46.167871],[5.450536,46.168213],[5.450107,46.168599],[5.451051,46.169283],[5.451545,46.169803],[5.452017,46.169788],[5.452296,46.17007],[5.452682,46.17013],[5.453262,46.170947],[5.452768,46.171987],[5.453026,46.172909],[5.452511,46.173473],[5.452511,46.174053],[5.451609,46.17432],[5.451116,46.173265],[5.450408,46.173027],[5.449506,46.173087],[5.448391,46.172076],[5.447447,46.171928],[5.447039,46.171155],[5.447082,46.170397],[5.446202,46.169862],[5.445794,46.169803],[5.445344,46.16961],[5.444829,46.169758],[5.444271,46.170397],[5.443842,46.170546],[5.443927,46.171081],[5.443005,46.170903],[5.441889,46.170962],[5.44088,46.171586],[5.439078,46.171274],[5.438906,46.170843],[5.439872,46.168139],[5.442232,46.166979],[5.442168,46.166623],[5.441009,46.166058],[5.440666,46.165568],[5.440129,46.165568],[5.440172,46.166088],[5.439786,46.166266],[5.439293,46.165999],[5.438542,46.165464],[5.437361,46.164944],[5.436567,46.164854],[5.435216,46.164096],[5.433928,46.163012],[5.431503,46.162239],[5.430967,46.161481],[5.430924,46.161035],[5.430152,46.159876],[5.428843,46.159638],[5.428478,46.159326],[5.427427,46.159207],[5.425409,46.159549],[5.42335,46.159653],[5.421976,46.159831],[5.421054,46.160113],[5.419788,46.160009],[5.418822,46.160143],[5.418071,46.160009],[5.41747,46.160054],[5.417127,46.159355],[5.415711,46.159697],[5.41526,46.159207],[5.413994,46.159043],[5.413222,46.158746],[5.41202,46.157899],[5.411119,46.157825],[5.410518,46.157943],[5.409466,46.156591],[5.408651,46.156695],[5.40702,46.156085],[5.407879,46.153945],[5.408308,46.153737],[5.408823,46.152325],[5.408823,46.151879],[5.409316,46.150348],[5.409187,46.14956],[5.409338,46.148921],[5.409123,46.147746],[5.408866,46.147687],[5.408715,46.147375],[5.408329,46.146825],[5.408351,46.146171],[5.407643,46.145189],[5.407943,46.144877],[5.407857,46.144639],[5.4082,46.144446],[5.407728,46.143851],[5.406999,46.143495],[5.406763,46.143123],[5.405862,46.143331],[5.405347,46.143747],[5.40466,46.141696],[5.40393,46.14006],[5.400926,46.139971],[5.401076,46.139391],[5.402021,46.138529],[5.401892,46.137919],[5.402235,46.136908],[5.401334,46.135213],[5.401098,46.134336],[5.40024,46.133473],[5.400089,46.132759],[5.400497,46.131748],[5.39921,46.130856],[5.397944,46.131005],[5.397214,46.130767],[5.396871,46.13038],[5.39627,46.130514],[5.395583,46.130008],[5.394832,46.129994],[5.394146,46.129458],[5.393738,46.128789],[5.395369,46.128254],[5.395734,46.127763],[5.396077,46.126662],[5.395668,46.124475],[5.395968,46.123583],[5.395604,46.12162],[5.39511,46.121471],[5.395046,46.121159],[5.394144,46.120594],[5.393651,46.119731],[5.393737,46.119121],[5.392771,46.119017],[5.392707,46.11927],[5.391484,46.119434],[5.390819,46.120103],[5.390454,46.120876],[5.389681,46.121144],[5.389102,46.121516],[5.388844,46.121218],[5.388523,46.121471],[5.387407,46.121337],[5.387385,46.120594],[5.387128,46.120594],[5.38642,46.121352],[5.38584,46.121382],[5.385862,46.12046],[5.386248,46.120118],[5.38627,46.119761],[5.387171,46.118497],[5.387299,46.11744],[5.387686,46.116727],[5.387493,46.11628],[5.386506,46.116251],[5.386613,46.114748],[5.386892,46.113997],[5.386784,46.113521],[5.386441,46.113194],[5.386613,46.112643],[5.386312,46.11187],[5.385261,46.110992],[5.385368,46.110412],[5.38363,46.111349],[5.382193,46.111721],[5.381871,46.111587],[5.381463,46.110858],[5.380819,46.110189],[5.380304,46.109058],[5.380519,46.108627],[5.380154,46.107734],[5.380755,46.106693],[5.380819,46.105503],[5.381141,46.104789],[5.380691,46.104223],[5.379768,46.103821],[5.379167,46.103762],[5.377579,46.103063],[5.377,46.102468],[5.376871,46.101724],[5.377515,46.101292],[5.379682,46.100608],[5.380025,46.100355],[5.381527,46.100266],[5.382772,46.099224],[5.383845,46.09912],[5.385132,46.098212],[5.385197,46.097796],[5.385068,46.097379],[5.38524,46.097141],[5.385776,46.096962],[5.385583,46.096382],[5.386033,46.09598],[5.387278,46.09543],[5.388673,46.095117],[5.390239,46.095192],[5.391076,46.0954],[5.392021,46.09531],[5.392944,46.09537],[5.395604,46.094968],[5.396377,46.094522],[5.397192,46.094358],[5.39848,46.093673],[5.398651,46.092423],[5.399917,46.09162],[5.400304,46.091218],[5.401269,46.091784],[5.401934,46.091992],[5.40187,46.090534],[5.402428,46.090057],[5.401977,46.08906],[5.401441,46.088063],[5.40069,46.085831],[5.399853,46.085325],[5.398866,46.085221],[5.396849,46.085905],[5.395733,46.08595],[5.395047,46.085667],[5.394253,46.085102],[5.393781,46.085102],[5.392901,46.084923],[5.391098,46.084789],[5.390304,46.084566],[5.389017,46.084536],[5.386721,46.08406],[5.385541,46.083688],[5.379468,46.08342],[5.378138,46.083152],[5.377666,46.081932],[5.37655,46.080756],[5.376378,46.080026],[5.376486,46.079133]]],"type":"MultiLineString"},"properties":{"geo_point":{"lon":5.3907375580631545,"lat":46.22595257838167},"name":"Tour du Revermont (Ain, Jura) (2019)","code_gr":null}}]}