{"type":"FeatureCollection","features":[{"type":"Feature","geometry":{"coordinates":[[[6.798576,45.890398],[6.799112,45.891802],[6.799885,45.892354],[6.799735,45.892474],[6.799284,45.892384],[6.799091,45.892608],[6.799649,45.892996],[6.799606,45.893265],[6.799048,45.893653],[6.797846,45.893892],[6.798962,45.89449],[6.798748,45.894878],[6.799971,45.89679],[6.80025,45.897014],[6.800335,45.897282],[6.801365,45.897671],[6.802031,45.897671],[6.802524,45.89779],[6.802867,45.898089],[6.803039,45.898462],[6.803447,45.898806],[6.803661,45.899119],[6.804091,45.899343],[6.804198,45.899597],[6.804563,45.899851],[6.804498,45.89994],[6.803683,45.899702],[6.804005,45.90003],[6.804734,45.900598],[6.804091,45.900821],[6.803683,45.901045],[6.802846,45.900956],[6.803125,45.901389],[6.802782,45.901732],[6.802331,45.902001],[6.802395,45.902225],[6.801387,45.90236],[6.80055,45.902897],[6.801451,45.903002],[6.802073,45.902957],[6.802674,45.90345],[6.802202,45.903479],[6.80246,45.903897],[6.801859,45.903524],[6.801795,45.903703],[6.802031,45.904002],[6.802631,45.904047],[6.805056,45.90445],[6.805721,45.904331],[6.806386,45.904121],[6.806966,45.904211],[6.807695,45.90448],[6.810099,45.905032],[6.80924,45.905256],[6.809777,45.905376],[6.811021,45.90545],[6.811815,45.90557],[6.812974,45.905928],[6.81291,45.906107],[6.813553,45.906212],[6.813714,45.906388],[6.813929,45.906447],[6.813671,45.906627],[6.812985,45.906746],[6.812749,45.906642],[6.812641,45.906761],[6.811268,45.906925],[6.812813,45.907269],[6.813457,45.907373],[6.814079,45.907582],[6.813628,45.907761],[6.814058,45.907821],[6.8138,45.907926],[6.814508,45.908254],[6.814701,45.908254],[6.815388,45.908612],[6.81571,45.908627],[6.816197,45.908806],[6.817148,45.908687],[6.817583,45.908867],[6.818628,45.909194],[6.82013,45.909732],[6.820624,45.909807],[6.820946,45.91018],[6.820581,45.910285],[6.820881,45.910434],[6.820624,45.910523],[6.820774,45.910658],[6.820538,45.910718],[6.820731,45.910822],[6.820473,45.910852],[6.820846,45.911105],[6.821058,45.912372],[6.821212,45.912299],[6.821106,45.912553],[6.821708,45.912378],[6.822017,45.912412],[6.822098,45.912367],[6.822405,45.912464],[6.822726,45.912464],[6.823885,45.912942],[6.824722,45.9133],[6.825044,45.913912],[6.825473,45.914525],[6.825495,45.914734],[6.825816,45.914898],[6.826095,45.915196],[6.826696,45.915614],[6.826825,45.915868],[6.827297,45.916137],[6.827361,45.916241],[6.82749,45.916286],[6.827447,45.916391],[6.827748,45.916465],[6.827705,45.916629],[6.827512,45.916644],[6.827512,45.916883],[6.827297,45.917077],[6.827533,45.917197],[6.827533,45.91757],[6.82719,45.918092],[6.827318,45.918689],[6.82719,45.919182],[6.827211,45.919287],[6.827211,45.919481],[6.827597,45.919869],[6.82749,45.919988],[6.827383,45.919869],[6.827125,45.919854],[6.827276,45.920108],[6.827104,45.920063],[6.82719,45.920242],[6.826997,45.920152],[6.827072,45.920361],[6.826836,45.920317],[6.826932,45.920443],[6.826836,45.920593],[6.827082,45.920578],[6.827115,45.920727],[6.827125,45.920899],[6.827318,45.921093],[6.827168,45.921123],[6.827415,45.92122],[6.827554,45.921235],[6.827769,45.921391],[6.828155,45.921309],[6.828048,45.921451],[6.828112,45.921541],[6.82778,45.92169],[6.827962,45.921772],[6.827833,45.921839],[6.828091,45.921906],[6.827994,45.922011],[6.82822,45.922108],[6.828069,45.92222],[6.828241,45.922242],[6.828177,45.922317],[6.828445,45.922242],[6.828434,45.922339],[6.828735,45.92207],[6.828842,45.922212],[6.829314,45.92207],[6.829518,45.922078],[6.8294,45.92219],[6.829421,45.922436],[6.829335,45.922548],[6.829293,45.922921],[6.828735,45.92322],[6.829614,45.923205],[6.829378,45.923369],[6.829657,45.923444],[6.829657,45.923578],[6.829443,45.923518],[6.829185,45.923712],[6.829529,45.923847],[6.829378,45.924086],[6.829808,45.92416],[6.83073,45.925011],[6.83131,45.925101],[6.831782,45.925295],[6.83191,45.925265],[6.832232,45.925533],[6.832704,45.925653],[6.833327,45.926071],[6.833777,45.926563],[6.833112,45.926504],[6.833563,45.927384],[6.833863,45.927698],[6.833863,45.928115],[6.834099,45.928742],[6.834378,45.928936],[6.834786,45.929489],[6.834636,45.929951],[6.834657,45.930414],[6.834936,45.930489],[6.834872,45.930847],[6.835129,45.930832],[6.834786,45.931787],[6.834786,45.932041],[6.835022,45.931951],[6.835065,45.932235],[6.835472,45.932026],[6.835665,45.931787],[6.835966,45.931623],[6.836095,45.931459],[6.836438,45.931459],[6.836159,45.931921],[6.836631,45.931712],[6.836545,45.931936],[6.836824,45.931802],[6.836738,45.932056],[6.836996,45.931951],[6.836588,45.932488],[6.836502,45.932847],[6.836695,45.932727],[6.836416,45.933279],[6.836674,45.933145],[6.836717,45.933712],[6.83706,45.933414],[6.837146,45.933682],[6.837275,45.93404],[6.837489,45.934294],[6.83691,45.934115],[6.83691,45.934428],[6.837682,45.935204],[6.837253,45.935861],[6.837296,45.93607],[6.837468,45.936219],[6.837339,45.936473],[6.83721,45.936876],[6.837168,45.937368],[6.837296,45.937712],[6.837253,45.938129],[6.837446,45.938338],[6.837597,45.938801],[6.838131,45.939364],[6.838314,45.939407],[6.83841,45.939649],[6.83868,45.939946],[6.839249,45.93998],[6.839543,45.94017],[6.840223,45.940376],[6.840528,45.940601],[6.841051,45.940825],[6.841312,45.940843],[6.842339,45.941188],[6.84354,45.941338],[6.843927,45.941203],[6.84442,45.940815],[6.844699,45.94083],[6.844685,45.940522],[6.844935,45.940621],[6.844981,45.940413],[6.845171,45.94083],[6.845085,45.941054],[6.845214,45.941323],[6.845565,45.940801],[6.845686,45.941293],[6.845944,45.940532],[6.846137,45.94086],[6.846266,45.941233],[6.846115,45.941621],[6.846459,45.942084],[6.846673,45.942367],[6.846866,45.941696],[6.847424,45.941173],[6.847381,45.940756],[6.848047,45.939383],[6.848411,45.938905],[6.848529,45.938719],[6.84868,45.938629],[6.848744,45.93839],[6.848808,45.938443],[6.848862,45.938167],[6.849034,45.938159],[6.849248,45.938025],[6.849248,45.938211],[6.849152,45.938525],[6.849377,45.938905],[6.849291,45.939316],[6.849141,45.939525],[6.84913,45.939935],[6.84942,45.940375],[6.849227,45.940972],[6.849291,45.941315],[6.849184,45.941643],[6.849613,45.942166],[6.849935,45.94318],[6.850278,45.943434],[6.850428,45.943658],[6.850707,45.943807],[6.851351,45.943792],[6.851651,45.944076],[6.85193,45.944001],[6.852209,45.944449],[6.85266,45.944195],[6.852853,45.944807],[6.854119,45.94506],[6.856072,45.945911],[6.856994,45.94615],[6.857488,45.946463],[6.858582,45.946523],[6.859998,45.946821],[6.861458,45.946717],[6.862659,45.946463],[6.863024,45.946179],[6.863668,45.946254],[6.864097,45.945971],[6.864311,45.946045],[6.86429,45.946284],[6.864805,45.946597],[6.865062,45.946657],[6.865256,45.94694],[6.865792,45.946925],[6.866307,45.947119],[6.866328,45.947448],[6.866607,45.947865],[6.866715,45.948313],[6.867165,45.948462],[6.867745,45.94882],[6.868775,45.950059],[6.869354,45.950446],[6.869268,45.951073],[6.869397,45.951192],[6.869848,45.951207],[6.870191,45.951342],[6.870599,45.951327],[6.870813,45.951371],[6.871028,45.951342],[6.870749,45.951565],[6.870942,45.951834],[6.870749,45.952147],[6.870942,45.952281],[6.870856,45.952669],[6.871071,45.952804],[6.871135,45.952983],[6.871586,45.953042],[6.871972,45.953251],[6.871822,45.95346],[6.871907,45.953624],[6.871865,45.953982],[6.872508,45.954176],[6.873002,45.954549],[6.873345,45.954624],[6.873431,45.955429],[6.873753,45.956071],[6.873731,45.956414],[6.873624,45.956817],[6.874225,45.957115],[6.874418,45.957577],[6.874783,45.957891],[6.874912,45.958219],[6.874912,45.958442],[6.875598,45.958726],[6.876349,45.958786],[6.877358,45.958368],[6.87783,45.95895],[6.878195,45.959248],[6.879074,45.959263],[6.879697,45.959039],[6.879954,45.958815],[6.880255,45.958741],[6.880769,45.958353],[6.881306,45.958293],[6.882143,45.958353],[6.883709,45.95889],[6.884589,45.95895],[6.885211,45.959397],[6.886005,45.959695],[6.886155,45.959934],[6.886606,45.959994],[6.887035,45.959949],[6.887121,45.960053],[6.887786,45.960039],[6.887657,45.960262],[6.887722,45.960352],[6.887647,45.960613],[6.887625,45.961127],[6.887368,45.961478],[6.887454,45.961948],[6.887046,45.962187],[6.886831,45.962813],[6.887196,45.963499],[6.887647,45.963991],[6.888205,45.96417],[6.888569,45.964707],[6.889041,45.964931],[6.889363,45.965229],[6.889428,45.965557],[6.8899,45.966139],[6.890329,45.966631],[6.890715,45.966885],[6.891101,45.967183],[6.891316,45.967452],[6.891938,45.96769],[6.892303,45.968794],[6.89329,45.969182],[6.894041,45.969211],[6.894449,45.969972],[6.894835,45.970315],[6.895114,45.970837],[6.89565,45.971329],[6.896101,45.971613],[6.896938,45.972403],[6.897861,45.97297],[6.897882,45.973223],[6.89771,45.973432],[6.897861,45.973656],[6.89771,45.974014],[6.897818,45.974297],[6.898376,45.974998],[6.898676,45.975684],[6.898848,45.97634],[6.899127,45.976981],[6.899277,45.977786],[6.899534,45.977846],[6.899813,45.978189],[6.902088,45.978771],[6.902538,45.978681],[6.903246,45.978875],[6.90359,45.979099],[6.903482,45.97974],[6.903525,45.980247],[6.903869,45.980291],[6.904319,45.980157],[6.904341,45.980411],[6.904727,45.9805],[6.904834,45.980813],[6.904984,45.981007],[6.904888,45.981149],[6.905006,45.981268],[6.904845,45.98141],[6.905188,45.981432],[6.905188,45.981574],[6.905435,45.981581],[6.905553,45.981648],[6.905575,45.98173],[6.905896,45.98182],[6.906175,45.981991],[6.906132,45.982111],[6.906326,45.982118],[6.906551,45.982342],[6.906637,45.98255],[6.90683,45.982416],[6.907152,45.982565],[6.907409,45.982446],[6.907581,45.982595],[6.907667,45.982446],[6.907881,45.982536],[6.908031,45.982401],[6.90816,45.982536],[6.908568,45.982342],[6.908461,45.982655],[6.908461,45.982849],[6.908675,45.983043],[6.908933,45.982774],[6.909877,45.983236],[6.910714,45.983907],[6.911765,45.98437],[6.912001,45.984847],[6.912366,45.985175],[6.912688,45.985294],[6.913053,45.985726],[6.913739,45.985935],[6.914662,45.987023],[6.914919,45.987158],[6.915456,45.987635],[6.915928,45.987829],[6.91655,45.98838],[6.916786,45.988246],[6.917087,45.988321],[6.917215,45.987858],[6.917473,45.987799],[6.91773,45.987888],[6.917838,45.987724],[6.918202,45.987709],[6.918417,45.987978],[6.918632,45.988007],[6.918653,45.988261],[6.919018,45.98838],[6.919297,45.988723],[6.919662,45.988976],[6.91994,45.989409],[6.920241,45.989513],[6.92082,45.990587],[6.920756,45.991004],[6.921164,45.991213],[6.921443,45.991615],[6.921421,45.991973],[6.921721,45.992122],[6.922043,45.992361],[6.922365,45.992465],[6.92258,45.993121],[6.923138,45.993792],[6.923588,45.99415],[6.924039,45.994269],[6.92464,45.994552],[6.925326,45.994612],[6.92582,45.994776],[6.926378,45.995506],[6.926421,45.995909],[6.926142,45.996341],[6.926528,45.996788],[6.926421,45.997116],[6.925949,45.997653],[6.925348,45.9981],[6.924618,45.998443],[6.924876,45.998681],[6.925198,45.998607],[6.925434,45.998398],[6.92582,45.998562],[6.92627,45.998517],[6.9267,45.998711],[6.927322,45.99883],[6.927901,45.999277],[6.928545,45.999561],[6.929655,45.99933],[6.929422,45.999518],[6.929263,45.999726],[6.929779,45.999747],[6.929457,45.999896],[6.929435,46.000067],[6.930047,46.000299],[6.930111,46.000477],[6.929832,46.000775],[6.930455,46.000984],[6.930669,46.001342],[6.930841,46.001402],[6.930884,46.001715],[6.931206,46.001834],[6.931313,46.002221],[6.931699,46.002415],[6.931678,46.002728],[6.932107,46.003294],[6.932279,46.003831],[6.932837,46.004561],[6.932622,46.004546],[6.932901,46.00483],[6.933137,46.005085],[6.933329,46.005152],[6.933242,46.005212],[6.933573,46.005545],[6.933233,46.005497],[6.932708,46.005307],[6.932806,46.005587],[6.932353,46.005406],[6.932429,46.005575],[6.931399,46.005277],[6.93127,46.005172],[6.930798,46.005098],[6.930798,46.005232],[6.931163,46.005426],[6.93097,46.00553],[6.930691,46.005485],[6.930605,46.005694],[6.930712,46.005828],[6.930433,46.006007],[6.93082,46.006603],[6.931313,46.006901],[6.931849,46.00705],[6.931957,46.007497],[6.932279,46.007796],[6.932536,46.007885],[6.932622,46.008094],[6.933545,46.008839],[6.934124,46.009226],[6.934253,46.009584],[6.934896,46.010359],[6.935133,46.010955],[6.935884,46.011775],[6.936098,46.012222],[6.937042,46.013026],[6.937278,46.013563],[6.937858,46.014025],[6.937879,46.014457],[6.938287,46.014904],[6.938458,46.015217],[6.938802,46.015351],[6.938802,46.015619],[6.939081,46.01632],[6.939167,46.016558],[6.939596,46.017259],[6.939703,46.017691],[6.940046,46.017944],[6.940368,46.018138],[6.940754,46.018242],[6.941677,46.019136],[6.94187,46.019121],[6.942149,46.019583],[6.942514,46.019836],[6.942771,46.019926],[6.943007,46.020194],[6.943394,46.020328],[6.943673,46.02085],[6.944788,46.021982],[6.945668,46.023517],[6.946119,46.023561],[6.946591,46.023144],[6.946848,46.02371],[6.947406,46.023248],[6.947878,46.023546],[6.948093,46.023546],[6.94835,46.023725],[6.948973,46.023472],[6.949552,46.023815],[6.94996,46.024098],[6.95114,46.024277],[6.951548,46.024545],[6.951805,46.024485],[6.952256,46.0245],[6.952706,46.024351],[6.953093,46.024351],[6.953093,46.024664],[6.953243,46.024873],[6.953436,46.024887],[6.953457,46.025334],[6.953972,46.025036],[6.955002,46.0245],[6.954981,46.025126],[6.955131,46.025796],[6.955517,46.026139],[6.955582,46.026333],[6.955367,46.026496],[6.955324,46.026705],[6.955474,46.026973],[6.955389,46.027241],[6.955732,46.027152],[6.956354,46.02745],[6.95659,46.027942],[6.957105,46.027659],[6.957427,46.027659],[6.957685,46.02748],[6.958006,46.02897],[6.957448,46.02958],[6.958028,46.029476],[6.958757,46.029193],[6.959444,46.029566],[6.960174,46.029685],[6.960646,46.029268],[6.961246,46.02891],[6.961955,46.029059],[6.963328,46.028865],[6.964358,46.028657],[6.965881,46.028761],[6.966117,46.028955],[6.966525,46.028538],[6.967748,46.028165],[6.967748,46.028165],[6.969513,46.027729],[6.969706,46.027416],[6.970473,46.027448],[6.970557,46.0273],[6.970769,46.027301],[6.970892,46.027578],[6.971168,46.027471],[6.971337,46.027692],[6.971863,46.027331],[6.972045,46.027456],[6.972384,46.027102],[6.973106,46.027259],[6.973579,46.027334],[6.974239,46.027524],[6.974777,46.02779],[6.974366,46.02778],[6.974749,46.028006],[6.975478,46.028236],[6.975977,46.028362],[6.97624,46.02831],[6.976047,46.028616],[6.97638,46.028951],[6.975833,46.028891],[6.975543,46.028981],[6.976208,46.02939],[6.975736,46.029465],[6.975961,46.02961],[6.976803,46.029906],[6.977131,46.030232],[6.97683,46.030396],[6.976981,46.030679],[6.977345,46.030768],[6.978772,46.030426],[6.980832,46.030657],[6.982176,46.030979],[6.982876,46.03139],[6.983549,46.0314],[6.984544,46.032064],[6.984984,46.032109],[6.98845,46.034828],[6.989496,46.035286],[6.990198,46.035372],[6.990113,46.035662],[6.990544,46.035511],[6.990966,46.035494],[6.990636,46.035954],[6.989984,46.036131],[6.990316,46.036236],[6.989694,46.036474],[6.989893,46.036586],[6.990563,46.036481],[6.991175,46.036455],[6.990472,46.036829],[6.990968,46.036875],[6.990349,46.037204],[6.990266,46.037356],[6.990826,46.037375],[6.990571,46.037565],[6.990574,46.0378],[6.991419,46.037755],[6.990805,46.038083],[6.990821,46.038224],[6.992226,46.037986],[6.991979,46.038239],[6.992452,46.038235],[6.991754,46.038753],[6.992795,46.038634],[6.99258,46.038846],[6.992881,46.038835],[6.99272,46.03911],[6.992132,46.039453],[6.991931,46.039676],[6.99155,46.039803],[6.991894,46.040038],[6.993299,46.040393],[6.993095,46.0406],[6.99361,46.04162],[6.994061,46.045068],[6.9939,46.04556],[6.993927,46.04626],[6.994187,46.046582],[6.993899,46.047635],[6.993611,46.049857],[6.993914,46.050868],[6.993717,46.051205],[6.993717,46.051847],[6.993838,46.052131],[6.993793,46.052363],[6.994081,46.052479],[6.993747,46.0539],[6.993853,46.05468],[6.993762,46.055459],[6.994096,46.056438],[6.994794,46.05647],[6.994976,46.055469],[6.995249,46.055533],[6.995492,46.054364],[6.995887,46.054374],[6.996524,46.05469],[6.9971,46.054827],[6.997343,46.054195],[6.997373,46.053521],[6.997282,46.05289],[6.997389,46.0527],[6.997358,46.052405],[6.997814,46.051521],[6.997783,46.050889],[6.997965,46.050299],[6.998224,46.050817],[6.998792,46.051427],[6.99901,46.052064],[6.998883,46.052313],[6.999125,46.052872],[6.999425,46.052663],[7.000058,46.052663],[7.000364,46.052902],[7.000734,46.052827],[7.000568,46.053345],[7.000616,46.054785],[7.000171,46.055288],[7.000906,46.056446],[7.000788,46.057041],[7.001244,46.057555],[7.00171,46.057696],[7.002708,46.057615],[7.003384,46.05728],[7.008116,46.057763],[7.009972,46.057704],[7.010508,46.057339],[7.011082,46.057183],[7.012034,46.057268],[7.012847,46.057488],[7.014086,46.057309],[7.014405,46.056863],[7.01481,46.057056],[7.015476,46.057071],[7.015969,46.057265],[7.018329,46.057294],[7.018887,46.057123],[7.019145,46.056818],[7.019703,46.056632],[7.020057,46.056717],[7.022428,46.055515],[7.023115,46.055697],[7.023737,46.055669],[7.024273,46.055835],[7.02555,46.057756],[7.026784,46.058426],[7.028291,46.058393],[7.029284,46.058121],[7.029718,46.05738],[7.030925,46.056528],[7.031397,46.056481],[7.031934,46.056226],[7.03261,46.056191],[7.034187,46.055723],[7.034895,46.055962],[7.035335,46.056479],[7.035871,46.057577],[7.037888,46.057615],[7.039894,46.057406],[7.040839,46.057897],[7.041997,46.057812],[7.042276,46.057568],[7.042738,46.057502],[7.043049,46.057585],[7.04336,46.057332],[7.043886,46.057168],[7.044615,46.05751],[7.045001,46.056918],[7.046321,46.05617],[7.046289,46.055723],[7.046536,46.055396],[7.047179,46.055135],[7.048381,46.055187],[7.048617,46.054905],[7.049153,46.054906],[7.049475,46.054804],[7.050183,46.054837],[7.050548,46.055463],[7.05303,46.055342],[7.054381,46.055253],[7.054496,46.053155],[7.054553,46.05261],[7.054368,46.051755],[7.052866,46.05037],[7.053005,46.049097],[7.052595,46.048618],[7.051755,46.048036],[7.051034,46.047743],[7.05072,46.047391],[7.050988,46.04722],[7.051318,46.047227],[7.052141,46.046876],[7.052029,46.046665],[7.052541,46.046512],[7.052946,46.046239],[7.053541,46.046394],[7.053649,46.046075],[7.054056,46.046144],[7.053851,46.045565],[7.053499,46.044971],[7.054175,46.045023],[7.054405,46.044923],[7.054808,46.045061],[7.054818,46.044301],[7.05635,46.044244],[7.056821,46.043907],[7.057413,46.044054],[7.057853,46.044139],[7.058186,46.044307],[7.058842,46.044104],[7.059483,46.043779],[7.059716,46.043945],[7.060247,46.043698],[7.060957,46.044709],[7.061706,46.045334],[7.062339,46.045831],[7.06412,46.046237],[7.065075,46.046956],[7.06566,46.047122],[7.065858,46.047548],[7.068101,46.048665],[7.069012,46.049469],[7.069903,46.050065],[7.071325,46.051345],[7.072424,46.05209],[7.073293,46.05212],[7.074076,46.052358],[7.07516,46.052056],[7.075772,46.051561],[7.076351,46.051338],[7.077714,46.050444],[7.078668,46.050087],[7.079473,46.049968],[7.080018,46.04964],[7.08082,46.04964],[7.081546,46.049335],[7.082552,46.049149],[7.082944,46.048467],[7.083486,46.048084],[7.084025,46.048071],[7.0845,46.048415],[7.085352,46.048136],[7.085786,46.047551],[7.086834,46.047345],[7.089533,46.046268],[7.090272,46.046353],[7.090961,46.046703],[7.091725,46.046855],[7.092401,46.045843],[7.092584,46.044785],[7.092814,46.044368],[7.093045,46.043534],[7.093407,46.043093],[7.094048,46.042786],[7.094429,46.042231],[7.094569,46.041702],[7.095384,46.040853],[7.095609,46.040131],[7.096729,46.039601],[7.096841,46.038991],[7.09757,46.038537],[7.097901,46.037867],[7.09747,46.037131],[7.098148,46.036849],[7.098209,46.036164],[7.099146,46.035702],[7.099466,46.035198],[7.099787,46.034932],[7.09912,46.034764],[7.098702,46.034547],[7.099161,46.034046],[7.100051,46.033956],[7.101414,46.034195],[7.102937,46.033629],[7.103184,46.033234],[7.104267,46.032482],[7.106006,46.032482],[7.106478,46.032266],[7.106799,46.031696],[7.107325,46.03147],[7.10798,46.031498],[7.108301,46.031945],[7.1099,46.031938],[7.112051,46.031457],[7.115576,46.030575],[7.117185,46.029726],[7.117217,46.029316],[7.117711,46.029037],[7.118236,46.02845],[7.118633,46.028221],[7.120146,46.028072],[7.120779,46.026902],[7.121841,46.026433],[7.121713,46.026239],[7.121058,46.026396],[7.120648,46.026353],[7.120001,46.026146],[7.119398,46.026107],[7.119288,46.025979],[7.119459,46.025865],[7.120253,46.0259],[7.120736,46.025345],[7.121332,46.024995],[7.121358,46.024675],[7.120801,46.024429],[7.120801,46.02396],[7.120554,46.023846],[7.120565,46.023464],[7.120178,46.022895],[7.120072,46.022601],[7.120211,46.022357],[7.120002,46.022027],[7.119557,46.021592],[7.119665,46.021514],[7.120256,46.021982],[7.120766,46.022052],[7.121039,46.022375],[7.121214,46.022392],[7.121112,46.022023],[7.120511,46.021598],[7.120114,46.020999],[7.120076,46.020483],[7.120648,46.020307],[7.120768,46.020071],[7.120339,46.019617],[7.120232,46.019196],[7.120468,46.018911],[7.120221,46.018402],[7.119073,46.017925],[7.118794,46.017523],[7.11903,46.01677],[7.119331,46.01623],[7.119631,46.016063],[7.119814,46.015645],[7.119529,46.014856],[7.119545,46.014185],[7.120146,46.01382],[7.120908,46.013865],[7.119953,46.013049],[7.119556,46.012382],[7.119567,46.011808],[7.11859,46.011603],[7.118279,46.011601],[7.117839,46.011495],[7.117827,46.011273],[7.118379,46.011184],[7.118824,46.010975],[7.119808,46.011007],[7.120235,46.01042],[7.121993,46.00962],[7.122765,46.009555],[7.122796,46.009352],[7.123215,46.009372],[7.12343,46.009278],[7.123239,46.008932],[7.12322,46.008567],[7.122925,46.007762],[7.123354,46.007058],[7.123483,46.006333],[7.123021,46.006157],[7.123869,46.005802],[7.124258,46.004958],[7.124518,46.004904],[7.125403,46.003551],[7.125795,46.002545],[7.126422,46.002568],[7.126948,46.00227],[7.127549,46.001584],[7.127817,46.000924],[7.128209,46.000602],[7.128364,45.999892],[7.12801,45.999177],[7.127992,45.998327],[7.128358,45.9982],[7.128123,45.997954],[7.128287,45.997381],[7.128107,45.996136],[7.128144,45.995551],[7.128024,45.995273],[7.127839,45.995204],[7.127651,45.994589],[7.126701,45.992797],[7.126921,45.991172],[7.126667,45.990628],[7.126884,45.990158],[7.12638,45.988958],[7.125988,45.98876],[7.125771,45.988837],[7.125382,45.989122],[7.12492,45.98907],[7.124212,45.989189],[7.124014,45.988958],[7.123968,45.988589],[7.123591,45.9883],[7.123086,45.988115],[7.1227,45.987564],[7.122131,45.987184],[7.121809,45.987057],[7.121544,45.986684],[7.121879,45.986132],[7.121367,45.985216],[7.121641,45.984791],[7.121702,45.9845],[7.122541,45.983827],[7.122887,45.982439],[7.123389,45.982194],[7.123726,45.981521],[7.124423,45.981151],[7.124262,45.980354],[7.123449,45.980003],[7.122968,45.979549],[7.119789,45.978025],[7.118224,45.977425],[7.117694,45.977331],[7.11725,45.977023],[7.116609,45.976886],[7.116005,45.976398],[7.115451,45.976021],[7.114268,45.975044],[7.114046,45.974693],[7.113208,45.974128],[7.112604,45.972817],[7.112431,45.972843],[7.111285,45.971498],[7.11078,45.971164],[7.110367,45.970158],[7.110458,45.968991],[7.110187,45.968132],[7.109444,45.967526],[7.108205,45.965994],[7.108146,45.965326],[7.108398,45.964487],[7.108178,45.963499],[7.108583,45.962073],[7.1087,45.960763],[7.108838,45.960423],[7.108409,45.959804],[7.106971,45.959099],[7.106145,45.958849],[7.105941,45.95823],[7.105523,45.957663],[7.105233,45.957484],[7.105147,45.956358],[7.104772,45.955854],[7.103152,45.954568],[7.102572,45.953397],[7.102497,45.952822],[7.102658,45.952229],[7.10224,45.951621],[7.102256,45.951412],[7.102615,45.95092],[7.102057,45.94963],[7.101556,45.949331],[7.10084,45.948675],[7.099794,45.948391],[7.099638,45.947574],[7.098882,45.946086],[7.096264,45.944139],[7.095971,45.943641],[7.096065,45.943322],[7.095859,45.942481],[7.095609,45.942117],[7.095899,45.94189],[7.096087,45.941507],[7.096317,45.941304],[7.095679,45.940535],[7.095671,45.940017],[7.095448,45.939603],[7.095503,45.939217],[7.095687,45.938876],[7.095604,45.938254],[7.095725,45.937968],[7.095502,45.937473],[7.094783,45.93708],[7.094598,45.936711],[7.094352,45.93648],[7.094401,45.936231],[7.094302,45.93576],[7.094056,45.935597],[7.094056,45.934817],[7.09482,45.934097],[7.09535,45.933814],[7.09551,45.933609],[7.095473,45.933429],[7.095818,45.933334],[7.095572,45.933034],[7.095596,45.932683],[7.096755,45.9318],[7.097125,45.931174],[7.097864,45.931072],[7.096961,45.930164],[7.096071,45.929552],[7.095741,45.929007],[7.095797,45.928559],[7.096736,45.927679],[7.096961,45.926477],[7.097256,45.926015],[7.096392,45.925649],[7.096671,45.925123],[7.096661,45.924716],[7.096307,45.924474],[7.09636,45.9235],[7.096234,45.923117],[7.096323,45.922511],[7.099053,45.921007],[7.099976,45.919738],[7.101671,45.919328],[7.101467,45.918835],[7.101215,45.918559],[7.10125,45.91832],[7.101564,45.918126],[7.101896,45.91763],[7.102653,45.916881],[7.103602,45.915573],[7.103978,45.915428],[7.10452,45.915489],[7.105104,45.915797],[7.105576,45.914394],[7.106832,45.912785],[7.107765,45.911802],[7.10784,45.911266],[7.108588,45.911109],[7.109445,45.910419],[7.109938,45.909758],[7.111874,45.908213],[7.113344,45.908026],[7.114197,45.907116],[7.115492,45.906003],[7.115604,45.905514],[7.115994,45.905204],[7.115824,45.90497],[7.115246,45.905094],[7.114605,45.905566],[7.114009,45.90554],[7.114344,45.905288],[7.115602,45.903304],[7.116788,45.901875],[7.116547,45.901781],[7.115855,45.902151],[7.115946,45.901932],[7.116638,45.901356],[7.11685,45.900709],[7.117383,45.900615],[7.117346,45.899933],[7.117182,45.899874],[7.11704,45.900322],[7.116863,45.900351],[7.116917,45.899635],[7.116209,45.898395],[7.115181,45.897619],[7.114884,45.897216],[7.114975,45.898007],[7.115243,45.898455],[7.115133,45.898746],[7.114937,45.898769],[7.114473,45.897723],[7.113666,45.897178],[7.113006,45.897154],[7.11226,45.89701],[7.112657,45.898336],[7.11292,45.89875],[7.112625,45.899179],[7.112142,45.899291],[7.11185,45.899118],[7.111493,45.898556],[7.111123,45.898343],[7.111027,45.898642],[7.109846,45.897708],[7.108516,45.896853],[7.10637,45.895774],[7.100899,45.894826],[7.099997,45.894221],[7.0996,45.89418],[7.098646,45.893512],[7.097717,45.893385],[7.096996,45.893068],[7.095159,45.892661],[7.094493,45.892297],[7.093163,45.891977],[7.092541,45.89216],[7.091484,45.892007],[7.089784,45.892063],[7.089333,45.891944],[7.087176,45.891944],[7.086087,45.891578],[7.085717,45.891317],[7.085412,45.891287],[7.084529,45.89166],[7.084215,45.892101],[7.083738,45.892142],[7.082445,45.891817],[7.081501,45.891914],[7.078904,45.891137],[7.0784,45.890704],[7.078094,45.889845],[7.07821,45.889185],[7.077649,45.888374],[7.077402,45.88703],[7.077317,45.886276],[7.076845,45.88593],[7.075739,45.885533],[7.075106,45.885439],[7.07525,45.885172],[7.075917,45.884219],[7.076032,45.883787],[7.076181,45.883539],[7.076101,45.883179],[7.075572,45.882914],[7.075779,45.882482],[7.075653,45.882274],[7.07525,45.882466],[7.074445,45.882602],[7.074112,45.882794],[7.073629,45.882802],[7.07241,45.883163],[7.072272,45.883347],[7.071743,45.883459],[7.07103,45.883427],[7.070662,45.883131],[7.070524,45.883379],[7.070041,45.883395],[7.069903,45.883491],[7.069558,45.883499],[7.069489,45.883651],[7.069087,45.883267],[7.068914,45.883018],[7.068776,45.883075],[7.068822,45.883515],[7.068201,45.883083],[7.068098,45.884475],[7.067638,45.88498],[7.067201,45.884908],[7.066867,45.885284],[7.06635,45.885308],[7.066315,45.884852],[7.065947,45.884531],[7.065534,45.883443],[7.064742,45.882623],[7.064335,45.882192],[7.063519,45.881914],[7.063369,45.880973],[7.064227,45.881474],[7.06404,45.881085],[7.063916,45.880383],[7.063466,45.880185],[7.063064,45.879629],[7.062834,45.879357],[7.062497,45.878995],[7.062224,45.878864],[7.061819,45.878342],[7.061907,45.878074],[7.061438,45.878068],[7.061087,45.877474],[7.060499,45.877044],[7.060161,45.876686],[7.059957,45.876439],[7.059666,45.876207],[7.059289,45.875646],[7.059072,45.875255],[7.058917,45.874714],[7.057919,45.874572],[7.057672,45.874258],[7.057479,45.8739],[7.057082,45.873765],[7.0569,45.873563],[7.056352,45.872936],[7.055827,45.87248],[7.055349,45.87251],[7.054743,45.872421],[7.054362,45.872182],[7.053145,45.871748],[7.052862,45.871531],[7.052944,45.871321],[7.053452,45.871003],[7.054317,45.871007],[7.05466,45.870559],[7.054542,45.869939],[7.05554,45.870141],[7.055175,45.869812],[7.05569,45.869513],[7.055111,45.869065],[7.05459,45.86757],[7.054955,45.867686],[7.055106,45.867475],[7.055516,45.86777],[7.055895,45.867961],[7.055986,45.868151],[7.05632,45.868288],[7.057291,45.868499],[7.057397,45.86869],[7.057716,45.868806],[7.058566,45.869567],[7.058778,45.86963],[7.057928,45.868056],[7.057792,45.867982],[7.057701,45.867802],[7.057246,45.86739],[7.057321,45.867063],[7.057094,45.866524],[7.057079,45.866038],[7.057488,45.865837],[7.056912,45.865488],[7.056897,45.864664],[7.056699,45.864643],[7.055956,45.864062],[7.055152,45.864051],[7.054833,45.86383],[7.054074,45.863713],[7.053392,45.863861],[7.052478,45.863331],[7.051345,45.862929],[7.049509,45.862374],[7.048789,45.861939],[7.048186,45.860967],[7.047327,45.860368],[7.046637,45.859604],[7.046149,45.858487],[7.045237,45.857859],[7.045376,45.857664],[7.044924,45.857544],[7.044384,45.857094],[7.043289,45.856798],[7.042762,45.856425],[7.041978,45.856262],[7.04113,45.855787],[7.039251,45.854983],[7.038382,45.854422],[7.038307,45.852427],[7.037502,45.851441],[7.037185,45.850572],[7.036826,45.849972],[7.036107,45.849371],[7.036139,45.849001],[7.036906,45.848442],[7.037287,45.847779],[7.036748,45.847539],[7.036897,45.847357],[7.036692,45.847002],[7.035965,45.84671],[7.035925,45.846269],[7.034294,45.84609],[7.03335,45.846815],[7.031982,45.847005],[7.03191,45.847084],[7.031685,45.847071],[7.03148,45.847305],[7.030938,45.847487],[7.029967,45.847266],[7.028972,45.846598],[7.027964,45.845727],[7.027224,45.845412],[7.026875,45.845015],[7.026226,45.844543],[7.025745,45.844182],[7.024961,45.843869],[7.023989,45.843167],[7.023448,45.842464],[7.023578,45.841957],[7.023836,45.841467],[7.023237,45.840725],[7.022058,45.839954],[7.021312,45.839004],[7.020974,45.838089],[7.021108,45.837113],[7.021645,45.836142],[7.020588,45.836512],[7.020145,45.836106],[7.019831,45.835521],[7.01863,45.835678],[7.016645,45.83653],[7.016087,45.836448],[7.014655,45.835856],[7.013113,45.835739],[7.011914,45.835458],[7.011286,45.834948],[7.010658,45.834796],[7.009643,45.834161],[7.008634,45.832899],[7.007532,45.833667],[7.00686,45.83351],[7.006169,45.833224],[7.005664,45.833068],[7.00575,45.831743],[7.004435,45.830776],[7.004191,45.830141],[7.003361,45.829745],[7.002857,45.829189],[7.00276,45.828645],[7.002304,45.828306],[7.001491,45.828238],[6.998578,45.826947],[6.997088,45.826703],[6.99607,45.825966],[6.993346,45.825497],[6.991931,45.824909],[6.990198,45.82433],[6.989095,45.824243],[6.98874,45.824633],[6.988367,45.824855],[6.987619,45.824737],[6.987582,45.823982],[6.987171,45.823227],[6.986536,45.82298],[6.98586,45.822418],[6.98471,45.821835],[6.984274,45.821179],[6.983385,45.82096],[6.982862,45.820608],[6.982287,45.819928],[6.981626,45.819919],[6.980054,45.818767],[6.980039,45.818531],[6.979359,45.817668],[6.978697,45.816487],[6.977773,45.815944],[6.977738,45.815555],[6.978096,45.815574],[6.977877,45.814984],[6.977982,45.814158],[6.977407,45.813125],[6.977496,45.81206],[6.978139,45.811013],[6.978191,45.810647],[6.978784,45.810161],[6.978847,45.809622],[6.978161,45.809353],[6.978654,45.809113],[6.978483,45.808769],[6.977174,45.808201],[6.978096,45.807947],[6.977345,45.807483],[6.978268,45.807423],[6.978204,45.807139],[6.97859,45.807229],[6.979019,45.806974],[6.980264,45.807229],[6.981165,45.807109],[6.981851,45.807274],[6.982216,45.806959],[6.982066,45.806526],[6.983418,45.80693],[6.983611,45.806615],[6.983482,45.806421],[6.983826,45.806301],[6.983482,45.806077],[6.984802,45.805718],[6.983783,45.804888],[6.985456,45.804525],[6.985059,45.8042],[6.985902,45.804233],[6.985388,45.803698],[6.985947,45.803641],[6.985478,45.803407],[6.986299,45.803141],[6.985446,45.80319],[6.984877,45.803093],[6.984609,45.802592],[6.98288,45.802155],[6.983783,45.801784],[6.984619,45.801769],[6.984255,45.801515],[6.98463,45.801451],[6.985102,45.801318],[6.984673,45.801036],[6.983729,45.800722],[6.982769,45.800654],[6.981913,45.801122],[6.980424,45.800841],[6.979443,45.799858],[6.978869,45.799697],[6.97808,45.799162],[6.977343,45.798453],[6.976169,45.797703],[6.975425,45.797101],[6.975281,45.796176],[6.974234,45.79494],[6.973719,45.793776],[6.97307,45.793057],[6.972981,45.792107],[6.972764,45.791964],[6.972367,45.792441],[6.971917,45.792374],[6.971981,45.790638],[6.971187,45.790878],[6.969191,45.791416],[6.968848,45.791977],[6.96799,45.792748],[6.967089,45.792763],[6.965501,45.791775],[6.965844,45.790653],[6.965726,45.790205],[6.96483,45.790622],[6.964456,45.790622],[6.964449,45.789976],[6.963441,45.789733],[6.962507,45.789183],[6.961355,45.788863],[6.960201,45.788768],[6.959114,45.788889],[6.959072,45.789334],[6.958688,45.789772],[6.95827,45.790452],[6.957799,45.790914],[6.957712,45.790647],[6.95752,45.790781],[6.957398,45.790404],[6.957259,45.790513],[6.957032,45.790537],[6.956527,45.791254],[6.956213,45.79106],[6.956196,45.791303],[6.955969,45.7914],[6.955708,45.790926],[6.955045,45.790501],[6.953756,45.791716],[6.95278,45.791972],[6.950235,45.792202],[6.948196,45.792324],[6.947899,45.792445],[6.947533,45.792373],[6.947115,45.791899],[6.946505,45.791814],[6.944135,45.79219],[6.942322,45.792154],[6.941032,45.792032],[6.940004,45.791874],[6.939394,45.79168],[6.938331,45.791801],[6.937808,45.791643],[6.937599,45.791777],[6.937547,45.792093],[6.937215,45.792531],[6.936675,45.792834],[6.936274,45.792798],[6.936048,45.792543],[6.935891,45.792215],[6.935428,45.792011],[6.935117,45.791521],[6.933668,45.791345],[6.931962,45.790735],[6.931201,45.790874],[6.930459,45.790505],[6.929973,45.789971],[6.929338,45.789697],[6.927918,45.78915],[6.925882,45.78803],[6.924481,45.787365],[6.9228,45.786649],[6.921586,45.785815],[6.920894,45.785216],[6.920409,45.784513],[6.91798,45.7839],[6.91699,45.783601],[6.916579,45.783197],[6.915739,45.782871],[6.914244,45.781438],[6.913068,45.780878],[6.912078,45.780917],[6.911797,45.780826],[6.911704,45.780409],[6.911237,45.780162],[6.911069,45.779927],[6.909892,45.780057],[6.909219,45.779823],[6.907762,45.779093],[6.906922,45.77852],[6.906324,45.777725],[6.906175,45.776839],[6.905876,45.776501],[6.905502,45.77637],[6.905297,45.775628],[6.904998,45.775276],[6.904157,45.775081],[6.90369,45.774807],[6.903429,45.773869],[6.902812,45.773283],[6.901561,45.77267],[6.901449,45.772449],[6.900926,45.772214],[6.900459,45.771745],[6.899693,45.771341],[6.898889,45.771133],[6.89831,45.77112],[6.898068,45.770989],[6.897582,45.770598],[6.897096,45.770351],[6.894967,45.770377],[6.893659,45.770585],[6.892295,45.771315],[6.891081,45.772253],[6.890782,45.771927],[6.890035,45.772175],[6.889605,45.77198],[6.889232,45.770768],[6.888074,45.769921],[6.887214,45.769439],[6.886635,45.769361],[6.886878,45.768318],[6.886841,45.767992],[6.886822,45.767641],[6.886635,45.767601],[6.885328,45.768253],[6.88331,45.768865],[6.882339,45.770598],[6.881592,45.771028],[6.881031,45.771719],[6.880284,45.772162],[6.879756,45.77289],[6.878383,45.77322],[6.877913,45.773706],[6.877444,45.773833],[6.877232,45.774245],[6.876591,45.774357],[6.876988,45.774956],[6.87665,45.774992],[6.875935,45.774809],[6.875443,45.774514],[6.874544,45.774549],[6.873517,45.774853],[6.87275,45.774922],[6.871859,45.77533],[6.870143,45.775345],[6.868812,45.775038],[6.866366,45.773923],[6.864923,45.773725],[6.864145,45.772838],[6.863019,45.772471],[6.861131,45.772471],[6.85868,45.771357],[6.855466,45.770406],[6.848052,45.768303],[6.847109,45.768344],[6.846436,45.767797],[6.846025,45.767601],[6.845521,45.767119],[6.845399,45.767223],[6.845382,45.767576],[6.8444,45.767614],[6.843746,45.767523],[6.842906,45.767588],[6.842158,45.767458],[6.841318,45.76725],[6.840795,45.767745],[6.840627,45.767315],[6.840253,45.768018],[6.84016,45.767315],[6.840216,45.766846],[6.840458,45.766468],[6.841218,45.76599],[6.838772,45.76635],[6.838364,45.765234],[6.836883,45.763984],[6.836368,45.763221],[6.834802,45.762068],[6.833751,45.760976],[6.831154,45.759508],[6.829931,45.75876],[6.828783,45.758318],[6.826863,45.757248],[6.826176,45.756559],[6.824545,45.755706],[6.823365,45.755317],[6.822464,45.754748],[6.821348,45.754388],[6.819513,45.754313],[6.818752,45.754059],[6.818129,45.75343],[6.81814,45.752906],[6.817722,45.752652],[6.816649,45.752697],[6.812494,45.751376],[6.812027,45.751532],[6.811673,45.751689],[6.810328,45.751454],[6.809001,45.751076],[6.808001,45.751094],[6.808001,45.751094],[6.806971,45.751304],[6.805813,45.751184],[6.805233,45.750735],[6.804375,45.7506],[6.803667,45.750166],[6.802315,45.749612],[6.801199,45.749388],[6.799247,45.748639],[6.79826,45.748549],[6.797637,45.74819],[6.797466,45.74789],[6.796371,45.747336],[6.795749,45.747261],[6.795041,45.746782],[6.794268,45.746632],[6.793281,45.746243],[6.791736,45.745974],[6.791157,45.74542],[6.7915,45.745015],[6.791736,45.744551],[6.792273,45.743922],[6.792788,45.743787],[6.792917,45.743398],[6.793024,45.743218],[6.792938,45.742934],[6.793024,45.742709],[6.792638,45.742514],[6.792187,45.74196],[6.79135,45.741841],[6.790642,45.741511],[6.789891,45.741421],[6.789419,45.741122],[6.789269,45.740777],[6.78884,45.740643],[6.789097,45.740253],[6.789097,45.739939],[6.78929,45.739669],[6.788411,45.739385],[6.788067,45.7394],[6.787166,45.73895],[6.786737,45.73898],[6.786243,45.738621],[6.785921,45.738172],[6.785642,45.737692],[6.785106,45.737363],[6.784677,45.736629],[6.78472,45.736419],[6.784591,45.73621],[6.784462,45.736165],[6.784334,45.735835],[6.783475,45.735581],[6.782896,45.735131],[6.782939,45.734847],[6.78281,45.734697],[6.782595,45.735206],[6.782467,45.734697],[6.782338,45.734832],[6.782209,45.734577],[6.782166,45.734802],[6.781952,45.734682],[6.782059,45.734997],[6.782038,45.735461],[6.782166,45.73588],[6.781802,45.735611],[6.781179,45.734952],[6.781158,45.735251],[6.781394,45.73627],[6.781394,45.736614],[6.780514,45.736045],[6.780149,45.735985],[6.780021,45.735775],[6.779141,45.735446],[6.779441,45.73615],[6.779076,45.736165],[6.779205,45.736344],[6.779527,45.736479],[6.779527,45.736764],[6.779248,45.736779],[6.779119,45.737018],[6.778154,45.735715],[6.778282,45.735476],[6.778497,45.735296],[6.778476,45.735041],[6.777853,45.734952],[6.777703,45.734532],[6.777467,45.734323],[6.777167,45.733454],[6.775987,45.73266],[6.775622,45.73251],[6.775021,45.732166],[6.774613,45.731447],[6.773605,45.730848],[6.772982,45.730279],[6.772489,45.730039],[6.771437,45.729979],[6.771201,45.729769],[6.770944,45.729605],[6.770665,45.729245],[6.76985,45.728751],[6.769721,45.728346],[6.769614,45.728137],[6.769635,45.727912],[6.769292,45.727687],[6.769099,45.727448],[6.769056,45.727223],[6.768498,45.727253],[6.767747,45.727433],[6.767489,45.727373],[6.767489,45.727043],[6.767167,45.726609],[6.76661,45.72598],[6.765472,45.725141],[6.764829,45.725246],[6.764635,45.724946],[6.764914,45.724736],[6.765022,45.724602],[6.765258,45.724497],[6.765215,45.724152],[6.764936,45.724032],[6.764035,45.723343],[6.763391,45.722399],[6.761996,45.721381],[6.761031,45.720122],[6.759443,45.718789],[6.75764,45.717036],[6.755237,45.714085],[6.755054,45.713394],[6.754792,45.713107],[6.753839,45.712429],[6.753466,45.711972],[6.752961,45.711542],[6.752812,45.710746],[6.752438,45.709689],[6.751635,45.708868],[6.751149,45.707824],[6.750384,45.707159],[6.749599,45.706781],[6.748814,45.706233],[6.748235,45.705372],[6.74775,45.705033],[6.747525,45.704772],[6.746274,45.704028],[6.744937,45.703281],[6.744487,45.702787],[6.743976,45.702215],[6.743491,45.701915],[6.742641,45.701738],[6.741783,45.701393],[6.740931,45.701262],[6.740296,45.701119],[6.739979,45.700897],[6.73968,45.70048],[6.738951,45.699827],[6.738391,45.699775],[6.737625,45.699279],[6.737233,45.698744],[6.736392,45.698131],[6.734991,45.697322],[6.734552,45.697347],[6.734123,45.697152],[6.733736,45.696837],[6.733608,45.696432],[6.733054,45.696295],[6.733345,45.696747],[6.733372,45.697032],[6.73283,45.696682],[6.732792,45.697122],[6.732235,45.696719],[6.732084,45.697257],[6.731741,45.696942],[6.731698,45.697242],[6.731333,45.697332],[6.731161,45.696957],[6.731033,45.697092],[6.730968,45.697317],[6.730433,45.696931],[6.730346,45.696537],[6.730131,45.696343],[6.729874,45.696522],[6.729481,45.69637],[6.728846,45.696461],[6.728285,45.696161],[6.727949,45.696709],[6.72835,45.697152],[6.72808,45.697557],[6.728415,45.698111],[6.729574,45.69892],[6.727295,45.698195],[6.727097,45.698251],[6.727762,45.698744],[6.727706,45.699044],[6.727814,45.699355],[6.72717,45.699025],[6.726956,45.69919],[6.727164,45.69941],[6.727183,45.699723],[6.727407,45.700219],[6.7279,45.700179],[6.728865,45.700854],[6.729423,45.701168],[6.729531,45.701535],[6.729777,45.701776],[6.730061,45.70262],[6.73011,45.70336],[6.73027,45.703876],[6.730283,45.704367],[6.729987,45.704944],[6.729716,45.705167],[6.729371,45.705262],[6.729346,45.705469],[6.729716,45.705589],[6.729814,45.705856],[6.729408,45.706432],[6.729851,45.706665],[6.729925,45.706837],[6.729574,45.706953],[6.729166,45.706953],[6.72857,45.70731],[6.729087,45.707371],[6.729099,45.707508],[6.72878,45.707807],[6.72821,45.70832],[6.728304,45.708802],[6.728072,45.70926],[6.727256,45.710429],[6.725698,45.711519],[6.725446,45.711959],[6.724923,45.71222],[6.724703,45.712601],[6.724638,45.712811],[6.724939,45.712961],[6.724595,45.713171],[6.724488,45.713411],[6.724703,45.713411],[6.724853,45.713665],[6.725368,45.713545],[6.725261,45.713815],[6.725282,45.713995],[6.725132,45.714085],[6.725282,45.714354],[6.725132,45.714459],[6.725132,45.714594],[6.725346,45.714669],[6.725389,45.714849],[6.725218,45.714939],[6.725432,45.715148],[6.725346,45.715583],[6.725818,45.715763],[6.725754,45.716287],[6.725861,45.716632],[6.725776,45.716931],[6.726076,45.717351],[6.726012,45.717531],[6.725647,45.717665],[6.725969,45.71792],[6.725625,45.71804],[6.725497,45.718474],[6.725475,45.718834],[6.72466,45.718804],[6.723844,45.719074],[6.723523,45.719508],[6.722943,45.719658],[6.722557,45.719688],[6.722106,45.720122],[6.721849,45.720227],[6.721591,45.720497],[6.721162,45.720512],[6.721248,45.720812],[6.720819,45.720961],[6.720518,45.720946],[6.720476,45.721111],[6.720261,45.721141],[6.720197,45.721336],[6.719961,45.721291],[6.71981,45.721471],[6.719381,45.721516],[6.719016,45.72174],[6.718716,45.722205],[6.717922,45.721995],[6.717579,45.722025],[6.717557,45.72222],[6.717214,45.722624],[6.71715,45.723508],[6.717235,45.723987],[6.716956,45.724287],[6.71642,45.724077],[6.716399,45.724332],[6.716205,45.724646],[6.716334,45.725006],[6.71612,45.725261],[6.716184,45.7255],[6.715755,45.725575],[6.715068,45.725365],[6.714682,45.72538],[6.714467,45.72553],[6.713695,45.72553],[6.712751,45.725785],[6.712622,45.726084],[6.712322,45.726249],[6.71215,45.726639],[6.711335,45.727058],[6.711227,45.727448],[6.710884,45.727792],[6.710326,45.728092],[6.710176,45.728871],[6.710305,45.72953],[6.709875,45.729605],[6.709639,45.729814],[6.70936,45.729964],[6.708888,45.730758],[6.708545,45.730893],[6.708481,45.731207],[6.708373,45.731462],[6.708245,45.73269],[6.708652,45.733289],[6.708373,45.733918],[6.707815,45.734323],[6.707429,45.734353],[6.70715,45.734667],[6.706442,45.735056],[6.706957,45.735626],[6.707386,45.735955],[6.70773,45.736584],[6.707622,45.737213],[6.707858,45.737468],[6.707815,45.737647],[6.708202,45.737887],[6.708567,45.737587],[6.70876,45.737303],[6.709403,45.737752],[6.709961,45.738396],[6.711678,45.739205],[6.712429,45.73943],[6.712879,45.739999],[6.712965,45.740073],[6.713201,45.740418],[6.713781,45.740732],[6.713845,45.741047],[6.714103,45.741631],[6.714467,45.741886],[6.714918,45.742529],[6.715283,45.742739],[6.715562,45.743158],[6.715562,45.743578],[6.715926,45.744102],[6.716034,45.744746],[6.716313,45.744865],[6.716678,45.744925],[6.716978,45.745225],[6.717257,45.745899],[6.718158,45.746632],[6.717343,45.746528],[6.716506,45.746857],[6.715884,45.747112],[6.715369,45.747216],[6.715047,45.747726],[6.714746,45.747636],[6.714253,45.74816],[6.714124,45.748624],[6.713173,45.749251],[6.712343,45.749492],[6.712021,45.749747],[6.710927,45.750166],[6.710755,45.750331],[6.710412,45.750481],[6.710197,45.75087],[6.709875,45.751229],[6.709446,45.751244],[6.708609,45.752098],[6.707687,45.752382],[6.707365,45.752607],[6.706635,45.752846],[6.706099,45.753206],[6.704897,45.753595],[6.704103,45.753715],[6.70303,45.753715],[6.702837,45.753984],[6.703181,45.754493],[6.703181,45.754493],[6.703374,45.754785],[6.703331,45.75492],[6.703588,45.755055],[6.703095,45.755444],[6.702473,45.755594],[6.702837,45.755668],[6.703395,45.755833],[6.703975,45.755803],[6.704232,45.755773],[6.704511,45.755788],[6.704575,45.756028],[6.704919,45.755938],[6.704897,45.755683],[6.705262,45.755893],[6.705176,45.756222],[6.70567,45.755968],[6.705627,45.755728],[6.706077,45.755534],[6.706485,45.755459],[6.706786,45.755534],[6.706979,45.75507],[6.707258,45.75504],[6.70803,45.755983],[6.70891,45.756671],[6.710219,45.756986],[6.710605,45.75721],[6.711077,45.757989],[6.710734,45.758049],[6.710777,45.758483],[6.710734,45.758708],[6.710412,45.758872],[6.710476,45.759097],[6.71127,45.76007],[6.710991,45.760624],[6.710948,45.761073],[6.71127,45.761417],[6.711335,45.762151],[6.711828,45.763184],[6.711978,45.763543],[6.7123,45.764231],[6.712407,45.764561],[6.713158,45.766746],[6.714038,45.767809],[6.714703,45.769021],[6.714811,45.769979],[6.71539,45.770773],[6.715433,45.771371],[6.715755,45.771566],[6.715733,45.772673],[6.715969,45.773571],[6.715926,45.774125],[6.715755,45.774529],[6.715798,45.775218],[6.715476,45.775637],[6.715154,45.775816],[6.714897,45.77637],[6.714832,45.776864],[6.714467,45.777253],[6.7142,45.77779],[6.714219,45.778012],[6.714875,45.778555],[6.714961,45.779199],[6.714596,45.779692],[6.714939,45.780052],[6.715218,45.781159],[6.715454,45.781623],[6.715133,45.782087],[6.715068,45.7827],[6.714317,45.783179],[6.713201,45.783793],[6.713094,45.784242],[6.712686,45.784601],[6.712601,45.785005],[6.712879,45.785977],[6.712944,45.786621],[6.71318,45.78692],[6.71333,45.787429],[6.713609,45.787803],[6.713781,45.788162],[6.714103,45.788476],[6.714403,45.789314],[6.715047,45.790287],[6.715841,45.791409],[6.717514,45.792755],[6.718265,45.793264],[6.718587,45.793668],[6.718437,45.793877],[6.718544,45.794356],[6.718888,45.7947],[6.719875,45.796002],[6.720518,45.79663],[6.72099,45.797348],[6.723008,45.799398],[6.723909,45.799697],[6.724188,45.800116],[6.72408,45.800535],[6.724359,45.800984],[6.724595,45.801866],[6.72466,45.802375],[6.72481,45.802988],[6.724488,45.803467],[6.724917,45.80411],[6.724917,45.804888],[6.725089,45.805456],[6.726012,45.806997],[6.72672,45.808149],[6.727449,45.808911],[6.727192,45.809315],[6.727321,45.809599],[6.727321,45.810228],[6.727514,45.810631],[6.727514,45.81102],[6.727127,45.81099],[6.726806,45.811604],[6.726763,45.8128],[6.726827,45.813234],[6.72672,45.813982],[6.72614,45.81452],[6.72614,45.815731],[6.726677,45.816374],[6.726977,45.816345],[6.727599,45.816943],[6.727621,45.817362],[6.72717,45.818842],[6.726999,45.819964],[6.72599,45.821025],[6.725389,45.822566],[6.725733,45.823463],[6.725797,45.823837],[6.726291,45.824853],[6.726097,45.825511],[6.726312,45.825736],[6.726333,45.82608],[6.725926,45.826468],[6.725861,45.826992],[6.725647,45.827306],[6.725325,45.827575],[6.725411,45.827844],[6.726612,45.828741],[6.726677,45.82901],[6.726333,45.829414],[6.726548,45.829862],[6.726183,45.831238],[6.726226,45.831597],[6.726419,45.831956],[6.726441,45.832359],[6.726806,45.832957],[6.726291,45.833017],[6.725883,45.833271],[6.725711,45.83375],[6.725582,45.833914],[6.725411,45.834363],[6.725561,45.835095],[6.725153,45.836336],[6.724767,45.837741],[6.725303,45.83798],[6.725089,45.838504],[6.724638,45.838758],[6.724188,45.838773],[6.724209,45.838892],[6.724789,45.839012],[6.725132,45.839012],[6.725389,45.839191],[6.72496,45.839625],[6.725089,45.840118],[6.725604,45.840776],[6.72554,45.841628],[6.726183,45.843168],[6.726569,45.843467],[6.726548,45.843817],[6.726977,45.844259],[6.727235,45.844289],[6.727642,45.843781],[6.727707,45.843332],[6.727921,45.843272],[6.728651,45.843317],[6.729144,45.843661],[6.729595,45.843781],[6.73026,45.843795],[6.730496,45.84399],[6.731848,45.844289],[6.732427,45.844139],[6.732878,45.844289],[6.733522,45.84526],[6.733693,45.845783],[6.734144,45.845843],[6.734316,45.846157],[6.73453,45.846097],[6.735002,45.845754],[6.735753,45.845739],[6.735796,45.845156],[6.737062,45.84547],[6.738865,45.845664],[6.739004,45.845802],[6.739219,45.845862],[6.739219,45.846034],[6.73879,45.846183],[6.738006,45.8464],[6.73762,45.846497],[6.737513,45.846624],[6.73762,45.846845],[6.737384,45.847009],[6.73717,45.847547],[6.736891,45.84807],[6.736397,45.84819],[6.735882,45.848444],[6.735882,45.849027],[6.73556,45.849849],[6.735131,45.850656],[6.735067,45.851269],[6.735153,45.851642],[6.735024,45.852181],[6.733651,45.853227],[6.733672,45.853615],[6.733908,45.85372],[6.734251,45.854527],[6.735195,45.854781],[6.73556,45.855005],[6.735732,45.856111],[6.735753,45.856903],[6.73557,45.857258],[6.735367,45.859324],[6.735174,45.859877],[6.735367,45.859967],[6.735668,45.859698],[6.736161,45.859548],[6.736805,45.859488],[6.737277,45.859249],[6.738328,45.859219],[6.739873,45.859787],[6.740839,45.859892],[6.742277,45.8604],[6.742942,45.860908],[6.744229,45.861476],[6.744487,45.861715],[6.744937,45.861715],[6.745452,45.861386],[6.746826,45.861222],[6.747469,45.860923],[6.748177,45.860863],[6.748521,45.860774],[6.748671,45.860938],[6.748971,45.860968],[6.749293,45.861282],[6.751353,45.861566],[6.752254,45.861476],[6.752748,45.861252],[6.753134,45.861521],[6.753971,45.861566],[6.754765,45.861491],[6.756739,45.861924],[6.757233,45.862074],[6.758048,45.862133],[6.758262,45.862328],[6.75882,45.862283],[6.759292,45.862118],[6.758949,45.862537],[6.758606,45.862791],[6.758134,45.862985],[6.758262,45.863105],[6.758091,45.863209],[6.758112,45.863448],[6.757941,45.863568],[6.757125,45.863598],[6.756288,45.863807],[6.755473,45.864225],[6.755516,45.864464],[6.755409,45.864718],[6.755666,45.864957],[6.75631,45.865137],[6.756846,45.86572],[6.757511,45.865824],[6.758091,45.86569],[6.758434,45.865734],[6.758563,45.865884],[6.758541,45.866108],[6.758863,45.866198],[6.759486,45.866272],[6.759786,45.866526],[6.76058,45.866706],[6.760451,45.867184],[6.760194,45.867587],[6.760279,45.867856],[6.760816,45.868514],[6.761309,45.869291],[6.761953,45.869455],[6.762339,45.869694],[6.761309,45.869888],[6.761224,45.870082],[6.761524,45.870381],[6.761867,45.87056],[6.762125,45.871397],[6.761653,45.871502],[6.76146,45.871905],[6.76088,45.87201],[6.760108,45.872652],[6.760065,45.87307],[6.760537,45.87322],[6.761116,45.873608],[6.761288,45.874086],[6.761567,45.874221],[6.761953,45.874191],[6.762254,45.874355],[6.76249,45.874639],[6.762425,45.874774],[6.761975,45.875117],[6.762168,45.875177],[6.76206,45.875625],[6.761889,45.875819],[6.761438,45.875745],[6.761202,45.875745],[6.760794,45.875804],[6.760344,45.875999],[6.760365,45.876193],[6.761267,45.876521],[6.761417,45.876835],[6.760344,45.877134],[6.759979,45.87806],[6.760108,45.87927],[6.760301,45.879599],[6.760687,45.87936],[6.760837,45.879449],[6.761073,45.880166],[6.760794,45.880674],[6.760837,45.881063],[6.760108,45.881227],[6.759936,45.881541],[6.760258,45.881929],[6.760859,45.882482],[6.760945,45.883288],[6.761374,45.883811],[6.761696,45.883976],[6.762404,45.88402],[6.76279,45.884125],[6.763155,45.88405],[6.763648,45.8842],[6.764035,45.885156],[6.764356,45.885305],[6.764914,45.885813],[6.765966,45.886589],[6.766695,45.886679],[6.767103,45.886739],[6.767167,45.886455],[6.76779,45.886604],[6.769077,45.886604],[6.769163,45.886873],[6.769442,45.886948],[6.769893,45.886604],[6.770107,45.886858],[6.770408,45.886784],[6.771116,45.886799],[6.770922,45.886515],[6.771201,45.885678],[6.771502,45.885947],[6.771931,45.886022],[6.772446,45.885932],[6.772746,45.886156],[6.773176,45.886395],[6.773669,45.887038],[6.773991,45.88647],[6.774227,45.886515],[6.774206,45.887964],[6.774506,45.888083],[6.775085,45.887829],[6.775686,45.887889],[6.776244,45.888292],[6.776995,45.888173],[6.777124,45.888471],[6.77736,45.888516],[6.777789,45.888337],[6.777896,45.888621],[6.777725,45.888904],[6.776823,45.889382],[6.776823,45.889577],[6.777274,45.889606],[6.778411,45.889158],[6.778561,45.88877],[6.778819,45.888606],[6.778969,45.888815],[6.77884,45.889203],[6.778261,45.88986],[6.778733,45.889875],[6.779699,45.889636],[6.779892,45.889278],[6.779892,45.88889],[6.780021,45.8888],[6.780278,45.888949],[6.780471,45.889965],[6.780235,45.890308],[6.780536,45.890756],[6.779999,45.890921],[6.779677,45.8911],[6.779463,45.891458],[6.77854,45.891862],[6.777789,45.891996],[6.778561,45.89216],[6.778948,45.892384],[6.780171,45.892534],[6.781158,45.892444],[6.782123,45.892101],[6.782982,45.892056],[6.783754,45.891981],[6.785943,45.892145],[6.786072,45.891682],[6.785964,45.89119],[6.786501,45.890652],[6.787595,45.890234],[6.790642,45.889338],[6.792273,45.889233],[6.793904,45.889368],[6.795363,45.889233],[6.797401,45.889517]]],"type":"MultiLineString"},"properties":{"geo_point":{"lon":6.9136284672828054,"lat":45.884185149205884},"name":"Tour du Mont-Blanc (Haute-Savoie, Suisse et Italie) (2020)","code_gr":null}}]}