{"type":"FeatureCollection","features":[{"type":"Feature","geometry":{"coordinates":[[[2.021375,45.133266],[2.020993,45.133106],[2.020582,45.133017],[2.020285,45.132817],[2.020186,45.132497],[2.019803,45.132997],[2.019874,45.133206],[2.020299,45.133516],[2.020341,45.133666],[2.020115,45.133606],[2.020242,45.133955],[2.020072,45.134005],[2.019633,45.133746],[2.019209,45.133596],[2.018855,45.133256],[2.018501,45.133027],[2.018388,45.132747],[2.0186,45.132537],[2.018572,45.132178],[2.018345,45.131788],[2.01683,45.131618],[2.015519,45.131756],[2.015176,45.132089],[2.014403,45.132603],[2.014146,45.132921],[2.013416,45.133118],[2.012966,45.133436],[2.012622,45.133254],[2.012236,45.133285],[2.011828,45.133179],[2.011228,45.133163],[2.010863,45.133254],[2.010391,45.133239],[2.010069,45.13336],[2.009597,45.133391],[2.008996,45.133708],[2.008352,45.133845],[2.007709,45.134677],[2.007837,45.135162],[2.008481,45.134844],[2.009017,45.134692],[2.008889,45.13498],[2.009232,45.135752],[2.009897,45.135283],[2.010112,45.135283],[2.009983,45.13554],[2.010026,45.1361],[2.010369,45.137114],[2.010777,45.137508],[2.01112,45.138764],[2.011764,45.139808],[2.011378,45.140671],[2.011335,45.141337],[2.011592,45.141519],[2.011957,45.142139],[2.011871,45.142457],[2.012107,45.143607],[2.012064,45.144016],[2.012408,45.144077],[2.013266,45.143956],[2.013524,45.143774],[2.014232,45.143668],[2.014468,45.143441],[2.014511,45.143063],[2.015069,45.142896],[2.015541,45.142942],[2.015648,45.142851],[2.015476,45.142003],[2.01494,45.141897],[2.015026,45.140777],[2.015927,45.140141],[2.016656,45.139733],[2.01745,45.139839],[2.018266,45.140096],[2.018802,45.140777],[2.018931,45.141171],[2.020304,45.142805],[2.020111,45.144031],[2.019424,45.144758],[2.019403,45.145242],[2.017858,45.146029],[2.017729,45.146241],[2.017729,45.146453],[2.018051,45.146771],[2.018244,45.147194],[2.018609,45.147875],[2.01848,45.147906],[2.017708,45.14727],[2.017193,45.147103],[2.017622,45.147921],[2.017772,45.147966],[2.017536,45.148208],[2.017837,45.148783],[2.017772,45.149389],[2.017944,45.15013],[2.018244,45.150781],[2.018738,45.151189],[2.019553,45.15128],[2.02024,45.15122],[2.020605,45.150554],[2.021699,45.149858],[2.022686,45.14951],[2.023652,45.148647],[2.024059,45.148617],[2.025776,45.148254],[2.026205,45.149146],[2.027428,45.150599],[2.027943,45.151416],[2.029853,45.15302],[2.030647,45.154579],[2.030668,45.155124],[2.030025,45.155729],[2.029445,45.155986],[2.027149,45.156561],[2.025926,45.157242],[2.025647,45.157621],[2.025647,45.158498],[2.02599,45.158997],[2.025111,45.160253],[2.025518,45.16104],[2.025239,45.161433],[2.025154,45.161751],[2.025454,45.162008],[2.025111,45.163067],[2.02539,45.164021],[2.025325,45.164278],[2.024853,45.164611],[2.024488,45.164959],[2.023673,45.165186],[2.024038,45.165866],[2.024167,45.16629],[2.024381,45.166593],[2.024682,45.166638],[2.025476,45.166517],[2.025905,45.166003],[2.026613,45.165851],[2.027256,45.165624],[2.028351,45.165549],[2.028673,45.165307],[2.028801,45.16508],[2.029338,45.16511],[2.02951,45.165397],[2.030025,45.165549],[2.030153,45.166018],[2.030067,45.166547],[2.030497,45.166986],[2.030368,45.16747],[2.029531,45.167727],[2.028737,45.16806],[2.027428,45.168423],[2.027321,45.168711],[2.027407,45.16921],[2.027192,45.170435],[2.027664,45.171555],[2.027922,45.171766],[2.027965,45.172402],[2.028179,45.172855],[2.02908,45.173733],[2.02893,45.174202],[2.028694,45.174656],[2.028651,45.1752],[2.028286,45.176259],[2.028501,45.177015],[2.02878,45.17703],[2.029424,45.176531],[2.029767,45.176153],[2.030346,45.176108],[2.030797,45.175926],[2.030926,45.175699],[2.031505,45.175775],[2.032857,45.175124],[2.033436,45.175276],[2.033694,45.175488],[2.035067,45.175488],[2.035646,45.175306],[2.03599,45.175064],[2.036462,45.174958],[2.036805,45.174565],[2.037685,45.174565],[2.037857,45.174368],[2.038414,45.17396],[2.038801,45.174308],[2.03968,45.174898],[2.040174,45.175003],[2.041504,45.174943],[2.042942,45.175185],[2.043307,45.175427],[2.043908,45.176168],[2.044444,45.176546],[2.04438,45.176788],[2.04556,45.177],[2.04689,45.17753],[2.046375,45.177711],[2.046461,45.178482],[2.046397,45.178815],[2.046461,45.179178],[2.046397,45.179526],[2.047577,45.180025],[2.04777,45.180479],[2.048328,45.181069],[2.049594,45.181704],[2.050495,45.182475],[2.051053,45.182869],[2.051246,45.183292],[2.051396,45.183776],[2.051547,45.184124],[2.051482,45.184442],[2.050688,45.184805],[2.051461,45.185954],[2.052083,45.186438],[2.052469,45.186514],[2.052448,45.186846],[2.055237,45.187376],[2.056053,45.187013],[2.05704,45.186892],[2.057619,45.186952],[2.057726,45.18668],[2.058113,45.186544],[2.058756,45.186151],[2.059593,45.185939],[2.060838,45.184699],[2.061353,45.184578],[2.061481,45.184245],[2.061825,45.184048],[2.062747,45.184003],[2.062855,45.183459],[2.063198,45.183201],[2.064142,45.183413],[2.064614,45.182536],[2.065773,45.182324],[2.066073,45.181175],[2.066181,45.180449],[2.066545,45.179632],[2.067919,45.179072],[2.068713,45.178982],[2.069249,45.178845],[2.069829,45.178573],[2.071095,45.178407],[2.071695,45.178513],[2.072339,45.178573],[2.076395,45.180086],[2.076352,45.179284],[2.077854,45.178845],[2.078583,45.177454],[2.078969,45.177121],[2.07972,45.176652],[2.080193,45.176289],[2.080686,45.176214],[2.081501,45.175684],[2.082295,45.175488],[2.082789,45.175457],[2.083411,45.175533],[2.083797,45.175427],[2.084076,45.175079],[2.084548,45.175079],[2.084806,45.17517],[2.085042,45.174928],[2.085986,45.174686],[2.086716,45.174837],[2.087531,45.174807],[2.088003,45.174489],[2.088926,45.174141],[2.089548,45.174141],[2.090492,45.173929],[2.091157,45.173219],[2.092316,45.172629],[2.092187,45.172084],[2.092252,45.171464],[2.09223,45.170995],[2.092381,45.170465],[2.092209,45.169785],[2.091887,45.169058],[2.092681,45.167606],[2.093153,45.166411],[2.093067,45.165942],[2.093647,45.165534],[2.093389,45.165125],[2.092788,45.164641],[2.092724,45.164202],[2.094333,45.162659],[2.09384,45.161645],[2.096908,45.159603],[2.096844,45.158634],[2.097616,45.157454],[2.097402,45.156123],[2.098646,45.155623],[2.098432,45.154836],[2.097938,45.154503],[2.097402,45.153399],[2.097917,45.153369],[2.098711,45.153081],[2.10022,45.152147],[2.101666,45.151459],[2.102973,45.150783],[2.104246,45.150427],[2.104856,45.150365],[2.105675,45.150341],[2.106111,45.150144],[2.10679,45.150156],[2.108185,45.150009],[2.109021,45.149812],[2.109649,45.149554],[2.110869,45.148767],[2.112211,45.147784],[2.113135,45.147341],[2.114233,45.14712],[2.115592,45.147108],[2.11615,45.147378],[2.117596,45.147759],[2.11859,45.147858],[2.119217,45.147772],[2.119566,45.147403],[2.11981,45.146764],[2.120699,45.145829],[2.120943,45.144563],[2.121012,45.143703],[2.120646,45.143358],[2.120664,45.143014],[2.121256,45.142621],[2.121448,45.141527],[2.121344,45.141146],[2.121169,45.139228],[2.121169,45.137162],[2.120786,45.136388],[2.12035,45.134654],[2.11967,45.132822],[2.120507,45.132687],[2.121954,45.132269],[2.123121,45.131863],[2.123278,45.131162],[2.123662,45.130707],[2.124219,45.130326],[2.124341,45.129158],[2.125422,45.126858],[2.125823,45.126502],[2.126328,45.125629],[2.12652,45.124546],[2.128716,45.123243],[2.130006,45.121226],[2.13079,45.120476],[2.13133,45.119504],[2.13154,45.119295],[2.131958,45.118533],[2.131522,45.117032],[2.131226,45.115556],[2.130633,45.114203],[2.12964,45.112346],[2.128577,45.111584],[2.127792,45.111362],[2.127409,45.111042],[2.125945,45.112998],[2.125492,45.113379],[2.125509,45.114326],[2.124585,45.115089],[2.124359,45.115397],[2.124063,45.11536],[2.123313,45.114671],[2.122389,45.1144],[2.121274,45.113921],[2.119967,45.113724],[2.118607,45.113699],[2.118015,45.113502],[2.117283,45.113465],[2.116115,45.113552],[2.116219,45.112432],[2.11676,45.111879],[2.117073,45.111128],[2.117161,45.109087],[2.116272,45.107241],[2.115261,45.105618],[2.114233,45.104351],[2.113309,45.103526],[2.112978,45.103022],[2.112246,45.102555],[2.111723,45.101829],[2.110398,45.100845],[2.109736,45.100008],[2.109527,45.099381],[2.108934,45.098101],[2.108115,45.09783],[2.107697,45.09724],[2.108045,45.097031],[2.109108,45.097092],[2.109962,45.097363],[2.110276,45.097351],[2.110904,45.097092],[2.111339,45.096883],[2.112106,45.096071],[2.112594,45.09585],[2.113013,45.094976],[2.113187,45.094533],[2.112908,45.094065],[2.1131,45.093832],[2.113152,45.09329],[2.113361,45.093032],[2.113361,45.092564],[2.113466,45.092331],[2.113901,45.092257],[2.114145,45.09206],[2.11425,45.091248],[2.114163,45.089968],[2.113884,45.088861],[2.112856,45.087741],[2.111444,45.08731],[2.110816,45.086633],[2.110363,45.085563],[2.109509,45.085095],[2.109544,45.084726],[2.109422,45.084381],[2.109823,45.084295],[2.110154,45.084],[2.110468,45.083028],[2.111304,45.082732],[2.111984,45.082376],[2.112542,45.081932],[2.112978,45.081859],[2.112403,45.081403],[2.111217,45.081526],[2.110503,45.081477],[2.110224,45.081342],[2.110102,45.080911],[2.110189,45.080296],[2.109108,45.079102],[2.107505,45.077416],[2.105901,45.077059],[2.104803,45.076567],[2.104525,45.076616],[2.104263,45.07717],[2.103583,45.077477],[2.102886,45.077576],[2.101928,45.077539],[2.10083,45.077723],[2.099679,45.078523],[2.098878,45.078548],[2.098947,45.078154],[2.099296,45.077477],[2.099801,45.07712],[2.100498,45.077034],[2.100899,45.07664],[2.100882,45.076443],[2.100516,45.076296],[2.099732,45.076111],[2.099139,45.07616],[2.098512,45.075865],[2.097954,45.075939],[2.097361,45.075865],[2.096908,45.075594],[2.096594,45.07493],[2.096751,45.074511],[2.096193,45.074413],[2.095984,45.074228],[2.096193,45.073896],[2.096037,45.073674],[2.095531,45.073588],[2.094991,45.0736],[2.094433,45.073342],[2.094032,45.073576],[2.093492,45.073699],[2.092865,45.073674],[2.092133,45.073773],[2.091418,45.07333],[2.091313,45.07312],[2.091348,45.072788],[2.090703,45.072616],[2.08971,45.072246],[2.089326,45.071471],[2.089222,45.070991],[2.089623,45.069723],[2.089518,45.069341],[2.090668,45.068591],[2.088037,45.067581],[2.08774,45.067286],[2.087549,45.066904],[2.08713,45.066843],[2.086172,45.067409],[2.085736,45.067815],[2.084917,45.067926],[2.084673,45.068086],[2.084307,45.068726],[2.083749,45.069268],[2.08354,45.069662],[2.083383,45.070326],[2.082947,45.070597],[2.081815,45.070572],[2.081117,45.070843],[2.080228,45.070412],[2.079078,45.070142],[2.078032,45.070105],[2.07737,45.069711],[2.076708,45.069575],[2.076098,45.069268],[2.075941,45.069021],[2.075889,45.068406],[2.075348,45.067827],[2.075348,45.067483],[2.074651,45.066756],[2.072717,45.067864],[2.072351,45.067889],[2.071741,45.068086],[2.071427,45.068394],[2.070322,45.068732],[2.069639,45.06887],[2.069216,45.068916],[2.06907,45.069192],[2.069704,45.069559],[2.070745,45.070501],[2.070501,45.070524],[2.06959,45.069674],[2.068874,45.069272],[2.068988,45.068767],[2.068826,45.068778],[2.068614,45.069364],[2.068891,45.069743],[2.068939,45.069961],[2.069151,45.07011],[2.069444,45.070191],[2.069444,45.070547],[2.069265,45.071167],[2.069671,45.0715],[2.070322,45.071339],[2.070728,45.071374],[2.072013,45.071718],[2.072127,45.071913],[2.071948,45.072017],[2.07133,45.07189],[2.070712,45.071925],[2.069915,45.072488],[2.069395,45.072637],[2.069102,45.072522],[2.068744,45.072109],[2.068484,45.07189],[2.06837,45.071764],[2.067931,45.071718],[2.067004,45.072143],[2.066516,45.072189],[2.066874,45.072292],[2.06759,45.072396],[2.067704,45.072557],[2.067313,45.072545],[2.066728,45.072717],[2.067053,45.072752],[2.067232,45.073073],[2.066614,45.072901],[2.067053,45.073475],[2.06689,45.073441],[2.067021,45.0739],[2.067021,45.074394],[2.06772,45.074371],[2.067882,45.074647],[2.067882,45.074934],[2.068273,45.075267],[2.068419,45.075623],[2.068696,45.076036],[2.067948,45.075474],[2.067606,45.075519],[2.06733,45.075405],[2.067199,45.075152],[2.066825,45.075106],[2.066403,45.075301],[2.066045,45.075301],[2.066061,45.074957],[2.065899,45.074899],[2.065476,45.074957],[2.06476,45.074773],[2.064565,45.074578],[2.064256,45.074497],[2.064012,45.074566],[2.064354,45.074819],[2.064858,45.075083],[2.065248,45.075623],[2.065524,45.076254],[2.06598,45.076335],[2.0665,45.076541],[2.066825,45.076829],[2.066939,45.077345],[2.06733,45.077621],[2.067346,45.077736],[2.067492,45.077965],[2.067151,45.077828],[2.066191,45.077506],[2.065606,45.077506],[2.064386,45.077828],[2.06398,45.078092],[2.06341,45.07893],[2.063297,45.079366],[2.062971,45.079872],[2.062662,45.080572],[2.062288,45.080825],[2.062061,45.080871],[2.061996,45.081341],[2.061573,45.082122],[2.059865,45.081812],[2.05832,45.081192],[2.057784,45.080882],[2.05728,45.080469],[2.056857,45.079665],[2.056776,45.079091],[2.056515,45.079125],[2.056239,45.079343],[2.055881,45.079366],[2.055068,45.079125],[2.055019,45.07932],[2.055166,45.079826],[2.055767,45.080882],[2.056093,45.08125],[2.056239,45.081801],[2.056304,45.082134],[2.056678,45.08218],[2.05728,45.082765],[2.058044,45.08257],[2.057946,45.083489],[2.057946,45.08404],[2.058369,45.084292],[2.058386,45.084763],[2.058532,45.084901],[2.058451,45.08505],[2.057263,45.085395],[2.056889,45.08528],[2.056532,45.084958],[2.055393,45.084981],[2.055198,45.085142],[2.055263,45.085532],[2.055117,45.086118],[2.054271,45.0866],[2.053621,45.086439],[2.052661,45.086784],[2.052239,45.087186],[2.052239,45.087553],[2.052417,45.088127],[2.05297,45.088782],[2.052938,45.089264],[2.052157,45.090228],[2.051328,45.0904],[2.05071,45.090722],[2.049442,45.090917],[2.049149,45.091514],[2.048498,45.092157],[2.047555,45.0921],[2.046905,45.092249],[2.046449,45.092478],[2.045978,45.092892],[2.0451,45.093259],[2.044254,45.093397],[2.043896,45.093867],[2.043376,45.09358],[2.043278,45.093098],[2.043116,45.092972],[2.042855,45.093075],[2.042514,45.093592],[2.042351,45.093167],[2.041912,45.092685],[2.04188,45.092283],[2.041912,45.091181],[2.041132,45.090722],[2.040595,45.090596],[2.040107,45.089654],[2.039701,45.089735],[2.038741,45.089585],[2.037278,45.090067],[2.036286,45.090182],[2.035863,45.090366],[2.035733,45.090573],[2.035668,45.091112],[2.034936,45.091594],[2.03479,45.092432],[2.034741,45.093236],[2.034302,45.093856],[2.034302,45.094855],[2.034058,45.095153],[2.032676,45.095578],[2.031277,45.096818],[2.030594,45.097828],[2.030269,45.097966],[2.029569,45.097656],[2.028789,45.097346],[2.02796,45.096611],[2.027358,45.096244],[2.027277,45.095853],[2.027764,45.095211],[2.027781,45.09474],[2.027212,45.093443],[2.026496,45.093649],[2.026529,45.094292],[2.026252,45.09466],[2.025325,45.09466],[2.024349,45.095119],[2.023162,45.096049],[2.022252,45.096037],[2.021471,45.096152],[2.021032,45.096129],[2.020186,45.096956],[2.020333,45.097931],[2.020512,45.09839],[2.02043,45.09862],[2.020268,45.098643],[2.019666,45.098195],[2.019325,45.098012],[2.019016,45.097426],[2.018869,45.096657],[2.018755,45.096382],[2.018121,45.096221],[2.017422,45.096967],[2.017292,45.097311],[2.016869,45.097851],[2.016918,45.098184],[2.017097,45.098517],[2.016999,45.098689],[2.016739,45.098666],[2.016218,45.09831],[2.015405,45.097185],[2.014462,45.096783],[2.013763,45.096806],[2.013129,45.096692],[2.012641,45.09668],[2.012332,45.0966],[2.012364,45.095865],[2.012218,45.095486],[2.012169,45.095119],[2.010478,45.094843],[2.009811,45.094476],[2.009389,45.094579],[2.008998,45.094832],[2.008771,45.095084],[2.008201,45.095211],[2.006982,45.095038],[2.007827,45.096669],[2.008006,45.097667],[2.006396,45.098],[2.005372,45.098126],[2.005047,45.098276],[2.004494,45.098723],[2.003648,45.098884],[2.002363,45.099688],[2.001111,45.101031],[1.999713,45.101272],[1.999322,45.101478],[1.998867,45.101386],[1.996639,45.101295],[1.995761,45.101157],[1.994818,45.100709],[1.994867,45.101834],[1.994379,45.102741],[1.99433,45.103177],[1.994606,45.103694],[1.994997,45.104279],[1.995176,45.105587],[1.995582,45.106161],[1.995712,45.107527],[1.995907,45.108204],[1.996395,45.108204],[1.996753,45.108101],[1.997176,45.108089],[1.997566,45.107906],[1.997712,45.107688],[1.998021,45.107057],[1.998265,45.106965],[1.998477,45.107183],[1.998477,45.107447],[1.999078,45.107688],[1.999469,45.107653],[1.999534,45.107814],[1.999176,45.108021],[1.998152,45.109088],[1.997582,45.109926],[1.997712,45.110603],[1.997924,45.111085],[1.997534,45.111533],[1.997355,45.11198],[1.997273,45.112451],[1.997046,45.112841],[1.997029,45.113082],[1.99755,45.113874],[1.998005,45.114138],[1.99833,45.114757],[1.998623,45.114964],[1.998607,45.115366],[1.999176,45.115492],[1.999761,45.115285],[2.000835,45.115216],[2.001339,45.115331],[2.001583,45.115549],[2.00168,45.116088],[2.002022,45.116502],[2.003095,45.117225],[2.002461,45.118016],[2.002542,45.11828],[2.002867,45.118338],[2.003111,45.118475],[2.003144,45.118613],[2.004299,45.119497],[2.00464,45.120495],[2.004786,45.12139],[2.005177,45.122067],[2.005925,45.122973],[2.006087,45.123627],[2.006006,45.124511],[2.006055,45.124958],[2.00651,45.125383],[2.006591,45.125785],[2.006494,45.126117],[2.007697,45.125532],[2.008575,45.125222],[2.009258,45.125222],[2.009323,45.125004],[2.010267,45.125188],[2.010527,45.125119],[2.011096,45.12458],[2.011275,45.124109],[2.011812,45.123524],[2.012202,45.12279],[2.012202,45.122354],[2.012332,45.12201],[2.01308,45.12209],[2.013421,45.122078],[2.014592,45.1231],[2.015275,45.123111],[2.015438,45.123513],[2.015682,45.123639],[2.015796,45.123926],[2.015796,45.124213],[2.016251,45.124385],[2.016593,45.124454],[2.01721,45.124293],[2.017991,45.124626],[2.018316,45.12458],[2.018446,45.124798],[2.019032,45.124867],[2.019666,45.124649],[2.02043,45.124786],[2.021959,45.124786],[2.022024,45.125062],[2.022268,45.125131],[2.021422,45.125578],[2.021374,45.126163],[2.021439,45.126622],[2.021585,45.126897],[2.021422,45.127506],[2.021878,45.128102],[2.022333,45.128251],[2.022674,45.128205],[2.023309,45.127861],[2.023748,45.127896],[2.023211,45.128699],[2.022528,45.129181],[2.021894,45.129594],[2.021439,45.130339],[2.021325,45.130821],[2.021406,45.131165],[2.021845,45.131498],[2.0223,45.13159],[2.022691,45.131842],[2.022788,45.132244],[2.02217,45.13237],[2.022073,45.132519],[2.021796,45.13268]]],"type":"MultiLineString"},"properties":{"geo_point":{"lon":2.0588445846819887,"lat":45.12149748240327},"name":"Tour de la Xaintrie Blanche (Corrèze) (2020)","code_gr":null}}]}