{"type":"FeatureCollection","features":[{"type":"Feature","geometry":{"coordinates":[[[3.37085,45.550268],[3.370458,45.549436],[3.370796,45.548273],[3.370142,45.547188],[3.369391,45.546305],[3.369214,45.545598],[3.369604,45.545479],[3.370557,45.544586],[3.372046,45.543949],[3.372748,45.543277],[3.37291,45.542548],[3.373602,45.541777],[3.374329,45.542061],[3.375421,45.542322],[3.376198,45.541102],[3.377336,45.540166],[3.379047,45.538941],[3.378698,45.538708],[3.376996,45.538995],[3.376598,45.539162],[3.376295,45.539144],[3.375651,45.538324],[3.374857,45.536851],[3.373854,45.536175],[3.373727,45.535895],[3.373932,45.53554],[3.373956,45.535273],[3.373462,45.535037],[3.37387,45.534891],[3.374455,45.535046],[3.374733,45.534977],[3.374669,45.534402],[3.374927,45.53362],[3.373596,45.533981],[3.371891,45.533346],[3.372132,45.532669],[3.373849,45.531421],[3.373897,45.52972],[3.37417,45.528712],[3.374003,45.528443],[3.372977,45.528015],[3.372733,45.527634],[3.371448,45.529796],[3.370823,45.530362],[3.370861,45.53126],[3.37041,45.531271],[3.369184,45.53064],[3.368709,45.530532],[3.366531,45.53086],[3.36599,45.530775],[3.364885,45.530264],[3.362685,45.529896],[3.362325,45.52975],[3.360336,45.529201],[3.359692,45.52872],[3.359424,45.528898],[3.359263,45.529212],[3.359048,45.529885],[3.358748,45.530403],[3.35598,45.530524],[3.355197,45.530465],[3.354424,45.53055],[3.353432,45.531254],[3.353094,45.531271],[3.352882,45.53091],[3.35252,45.530702],[3.351817,45.530686],[3.351163,45.530921],[3.3506,45.530942],[3.349908,45.530768],[3.348684,45.530753],[3.345911,45.531455],[3.345833,45.530916],[3.34595,45.530331],[3.345916,45.529835],[3.34531,45.529911],[3.344021,45.529406],[3.343489,45.52925],[3.343153,45.529261],[3.342027,45.528498],[3.341582,45.527998],[3.341091,45.527107],[3.340836,45.527201],[3.340401,45.527041],[3.339994,45.526664],[3.338846,45.526964],[3.338621,45.527033],[3.338271,45.527614],[3.338331,45.52827],[3.338438,45.528571],[3.338674,45.528901],[3.337445,45.528725],[3.337424,45.529157],[3.33597,45.529833],[3.335563,45.528876],[3.335262,45.528913],[3.334739,45.529168],[3.333948,45.529984],[3.333401,45.531724],[3.332535,45.533501],[3.332296,45.533659],[3.331845,45.53372],[3.331577,45.534159],[3.331212,45.534568],[3.330614,45.534818],[3.329807,45.534918],[3.327071,45.536248],[3.3264,45.535556],[3.323665,45.535764],[3.322318,45.535163],[3.322001,45.535173],[3.321819,45.534858],[3.320156,45.534673],[3.318713,45.534669],[3.318252,45.536015],[3.318053,45.537856],[3.317305,45.539859],[3.317172,45.54055],[3.316599,45.541467],[3.314486,45.543736],[3.311951,45.543222],[3.310259,45.542799],[3.309931,45.542605],[3.309749,45.542248],[3.308483,45.542068],[3.307754,45.541617],[3.307668,45.540881],[3.307303,45.54055],[3.306509,45.540685],[3.305779,45.5404],[3.304986,45.540445],[3.304385,45.540107],[3.30313,45.539822],[3.302346,45.539874],[3.301917,45.540205],[3.301026,45.540348],[3.297604,45.538536],[3.296574,45.539438],[3.296553,45.539754],[3.296231,45.539769],[3.295609,45.539243],[3.295158,45.539228],[3.294407,45.538867],[3.292218,45.538762],[3.291521,45.538961],[3.289904,45.539004],[3.288512,45.539216],[3.287712,45.539558],[3.287305,45.540017],[3.287572,45.54081],[3.286768,45.540851],[3.285835,45.540392],[3.285679,45.540039],[3.284853,45.541057],[3.283764,45.542113],[3.283565,45.542804],[3.283341,45.543139],[3.283716,45.543482],[3.283989,45.543884],[3.284349,45.544045],[3.286849,45.543605],[3.288319,45.543588],[3.288834,45.543714],[3.289285,45.543445],[3.289892,45.543476],[3.290226,45.543253],[3.291902,45.542801],[3.292272,45.542774],[3.292326,45.543319],[3.29158,45.544169],[3.290781,45.546076],[3.290893,45.546586],[3.290813,45.546791],[3.290345,45.547094],[3.289932,45.547663],[3.28919,45.548314],[3.288458,45.549382],[3.288618,45.550476],[3.288254,45.55208],[3.288238,45.55332],[3.288455,45.554017],[3.288243,45.555604],[3.287889,45.556137],[3.287626,45.55702],[3.287433,45.558064],[3.287583,45.559318],[3.287385,45.560182],[3.287025,45.56049],[3.284708,45.56055],[3.283587,45.560494],[3.282541,45.56031],[3.281806,45.560486],[3.279955,45.560588],[3.279623,45.5604],[3.27959,45.560629],[3.279708,45.560866],[3.280186,45.561185],[3.280416,45.561402],[3.280193,45.561653],[3.279454,45.561788],[3.279415,45.561937],[3.278488,45.562558],[3.278351,45.56277],[3.27767,45.56327],[3.277276,45.563708],[3.276914,45.563935],[3.276007,45.564115],[3.275277,45.564419],[3.274425,45.56508],[3.273207,45.565838],[3.273054,45.565997],[3.273019,45.566711],[3.272831,45.567457],[3.273094,45.568302],[3.272579,45.56846],[3.271683,45.568257],[3.270653,45.568351],[3.270246,45.567896],[3.269902,45.567333],[3.269393,45.567122],[3.268894,45.567164],[3.268443,45.567386],[3.268143,45.568362],[3.267735,45.568674],[3.267564,45.568986],[3.267322,45.568584],[3.267038,45.567562],[3.266163,45.565763],[3.265718,45.565512],[3.263132,45.566161],[3.261899,45.565718],[3.260397,45.565808],[3.259924,45.565673],[3.259608,45.565912],[3.259099,45.566105],[3.258693,45.566017],[3.258353,45.565699],[3.254474,45.566439],[3.252489,45.566935],[3.251491,45.567565],[3.251277,45.567956],[3.251416,45.568827],[3.251572,45.569308],[3.251456,45.569774],[3.251538,45.57057],[3.252221,45.570765],[3.251929,45.571779],[3.251315,45.572534],[3.250735,45.573174],[3.249867,45.573851],[3.249073,45.574242],[3.247994,45.57449],[3.247361,45.57475],[3.247002,45.574982],[3.246704,45.575538],[3.246487,45.57606],[3.24602,45.576608],[3.245687,45.577291],[3.245065,45.577536],[3.244582,45.57799],[3.244513,45.578437],[3.244745,45.579049],[3.244748,45.579492],[3.245011,45.579627],[3.245918,45.579789],[3.246605,45.579404],[3.247716,45.578992],[3.247965,45.578452],[3.248386,45.578065],[3.248771,45.578058],[3.249603,45.577483],[3.25014,45.577303],[3.250536,45.57707],[3.251465,45.576917],[3.252055,45.57668],[3.253487,45.57784],[3.254179,45.578103],[3.254952,45.578084],[3.255697,45.57787],[3.257822,45.578306],[3.257757,45.579507],[3.258101,45.580678],[3.257929,45.581595],[3.258052,45.582353],[3.257907,45.583201],[3.257264,45.584358],[3.25695,45.584769],[3.256786,45.585173],[3.257006,45.585496],[3.257907,45.58604],[3.258364,45.586123],[3.260279,45.585848],[3.260729,45.585863],[3.261239,45.5856],[3.263041,45.585642],[3.263408,45.585544],[3.263846,45.585612],[3.264689,45.58606],[3.265361,45.586531],[3.265787,45.586715],[3.266286,45.586648],[3.26671,45.586408],[3.267145,45.586344],[3.267534,45.586518],[3.268181,45.586666],[3.268792,45.586648],[3.269323,45.586284],[3.270074,45.586945],[3.270814,45.587198],[3.271147,45.587451],[3.270675,45.589413],[3.270493,45.589662],[3.270653,45.589899],[3.272163,45.590451],[3.273856,45.590913],[3.273701,45.591994],[3.273886,45.59239],[3.274189,45.592756],[3.273893,45.592853],[3.273261,45.593923],[3.272555,45.593878],[3.271999,45.593729],[3.271627,45.593715],[3.269951,45.593469],[3.269672,45.593818],[3.270404,45.594141],[3.271464,45.595132],[3.271721,45.595879],[3.271329,45.59646],[3.271125,45.597196],[3.271393,45.597669],[3.271404,45.597917],[3.27119,45.59827],[3.269666,45.599523],[3.268958,45.599568],[3.26891,45.599932],[3.268946,45.600436],[3.268679,45.600865],[3.268548,45.601369],[3.268459,45.601798],[3.268522,45.60207],[3.268586,45.602319],[3.268406,45.602785],[3.268244,45.602908],[3.26796,45.60298],[3.26774,45.603314],[3.267051,45.603558],[3.266732,45.603873],[3.266311,45.604791],[3.266178,45.605533],[3.265938,45.606253],[3.266507,45.606613],[3.267582,45.606922],[3.267993,45.606984],[3.268798,45.6068],[3.270557,45.607044],[3.271724,45.607526],[3.272891,45.608166],[3.274428,45.608694],[3.276077,45.609172],[3.277456,45.608531],[3.278255,45.607852],[3.278526,45.60749],[3.279848,45.606298],[3.280159,45.605778],[3.280036,45.604711],[3.280455,45.603461],[3.280481,45.602999],[3.28062,45.602278],[3.281103,45.601978],[3.281339,45.60146],[3.281253,45.600105],[3.28201,45.599754],[3.282412,45.599433],[3.283034,45.597436],[3.283431,45.597113],[3.283828,45.597031],[3.284901,45.597031],[3.285309,45.596769],[3.288892,45.597106],[3.290615,45.59776],[3.29063,45.598457],[3.290947,45.599261],[3.291001,45.599576],[3.291508,45.600278],[3.291811,45.600439],[3.292331,45.600492],[3.292894,45.600825],[3.293222,45.600572],[3.293592,45.600484],[3.293913,45.60107],[3.294557,45.601419],[3.294659,45.601571],[3.295292,45.601741],[3.29607,45.601794],[3.296644,45.602035],[3.296781,45.601976],[3.296967,45.601245],[3.297282,45.600679],[3.297888,45.599992],[3.298554,45.598765],[3.298717,45.598791],[3.298778,45.599841],[3.29877,45.600459],[3.298832,45.60092],[3.29842,45.602312],[3.298616,45.602888],[3.299047,45.603501],[3.299578,45.603945],[3.300184,45.604328],[3.30059,45.605206],[3.300535,45.606024],[3.300587,45.606639],[3.300796,45.607397],[3.301048,45.607967],[3.301536,45.609619],[3.302695,45.61103],[3.304071,45.611791],[3.305715,45.612358],[3.306702,45.612456],[3.309148,45.612403],[3.311187,45.612373],[3.312678,45.612148],[3.313568,45.612253],[3.314073,45.611901],[3.314019,45.610933],[3.31447,45.610482],[3.315715,45.609581],[3.31565,45.60784],[3.315328,45.6073],[3.315393,45.606909],[3.314792,45.606009],[3.315135,45.605288],[3.314808,45.604921],[3.31418,45.604842],[3.314791,45.600004],[3.31565,45.60009],[3.317576,45.600092],[3.318504,45.600184],[3.31919,45.600045],[3.321015,45.60012],[3.321111,45.598214],[3.321315,45.597164],[3.321653,45.596408],[3.321063,45.595942],[3.320596,45.595394],[3.321932,45.595023],[3.322331,45.595024],[3.326023,45.594053],[3.328733,45.593352],[3.33037,45.593488],[3.334404,45.593277],[3.336995,45.594174],[3.337344,45.594629],[3.338084,45.595305],[3.338347,45.595905],[3.338433,45.59684],[3.338256,45.598705],[3.338159,45.599028],[3.338202,45.599289],[3.338406,45.599542],[3.340246,45.599634],[3.34068,45.599857],[3.341657,45.600529],[3.341663,45.600796],[3.341475,45.600984],[3.341676,45.601222],[3.341995,45.601385],[3.343722,45.601584],[3.344285,45.601861],[3.345278,45.602545],[3.345981,45.602882],[3.346855,45.60283],[3.347215,45.602927],[3.34869,45.602971],[3.349339,45.603495],[3.349832,45.603352],[3.351334,45.603607],[3.351801,45.603795],[3.352365,45.603551],[3.3526,45.604027],[3.353651,45.605002],[3.354151,45.605847],[3.354628,45.606107],[3.353276,45.607157],[3.353818,45.607844],[3.353717,45.609231],[3.354092,45.609709],[3.354504,45.609589],[3.354788,45.609236],[3.355111,45.608646],[3.356178,45.608086],[3.357163,45.607265],[3.359177,45.606114],[3.360073,45.606148],[3.361025,45.605883],[3.361934,45.605513],[3.363157,45.605288],[3.364554,45.604731],[3.365995,45.604301],[3.366225,45.605007],[3.366649,45.605082],[3.367363,45.605018],[3.367937,45.604666],[3.368715,45.604707],[3.369943,45.604288],[3.370774,45.604046],[3.371901,45.604143],[3.372706,45.604428],[3.3735,45.604477],[3.373329,45.603134],[3.374433,45.602804],[3.375619,45.604124],[3.378194,45.604218],[3.380548,45.603532],[3.381611,45.603555],[3.383053,45.603329],[3.383215,45.60307],[3.38487,45.602445],[3.387317,45.601784],[3.389421,45.601092],[3.391782,45.599959],[3.392683,45.599332],[3.393563,45.598397],[3.396502,45.599572],[3.398675,45.598472],[3.400249,45.598376],[3.401309,45.598401],[3.401352,45.598617],[3.401942,45.598806],[3.402704,45.599193],[3.403733,45.600023],[3.404837,45.599384],[3.405083,45.599353],[3.405842,45.598754],[3.405901,45.597556],[3.406449,45.596581],[3.406319,45.595368],[3.406416,45.594118],[3.40412,45.591806],[3.403434,45.590665],[3.401159,45.590019],[3.399485,45.589223],[3.398498,45.588487],[3.396035,45.586783],[3.395311,45.586055],[3.394464,45.586265],[3.393069,45.585454],[3.392018,45.584148],[3.391889,45.582586],[3.391374,45.581324],[3.391181,45.580273],[3.390752,45.579222],[3.389808,45.577224],[3.389014,45.576128],[3.384808,45.574385],[3.383864,45.573529],[3.382727,45.572268],[3.380796,45.570811],[3.379165,45.569879],[3.378049,45.568828],[3.378318,45.569504],[3.3785,45.572433],[3.373832,45.573311],[3.37086,45.573591],[3.36953,45.573563],[3.368548,45.57321],[3.368565,45.570961],[3.369916,45.56695],[3.370796,45.562428],[3.372063,45.559468],[3.371998,45.558026],[3.371225,45.555788],[3.371875,45.552444],[3.372215,45.552589],[3.373409,45.552591],[3.373929,45.552512],[3.374181,45.552354],[3.374251,45.552121],[3.373924,45.551622],[3.373511,45.551772],[3.371837,45.551419],[3.372191,45.551006],[3.37247,45.550559]]],"type":"MultiLineString"},"properties":{"geo_point":{"lon":3.32433595160586,"lat":45.57339658723667},"name":"Tour de la Reine Margot (Puy-de-Dôme) (2017)","code_gr":null}}]}