{"type":"FeatureCollection","features":[{"type":"Feature","geometry":{"coordinates":[[[-0.838283,43.711863],[-0.838151,43.712057],[-0.837719,43.712406],[-0.837914,43.712681],[-0.838365,43.712956],[-0.838325,43.713257],[-0.836696,43.711992],[-0.835111,43.711317],[-0.833935,43.711066],[-0.83306,43.711003],[-0.831353,43.711061],[-0.827088,43.711772],[-0.825826,43.711832],[-0.824021,43.711607],[-0.822389,43.710999],[-0.821186,43.710266],[-0.81951,43.709529],[-0.817963,43.709192],[-0.816503,43.709133],[-0.814915,43.709413],[-0.813177,43.710111],[-0.81189,43.711072],[-0.811203,43.712065],[-0.810838,43.713523],[-0.811074,43.715291],[-0.811611,43.716268],[-0.81292,43.717478],[-0.814636,43.718749],[-0.815559,43.719602],[-0.81615,43.720822],[-0.816235,43.722093],[-0.815763,43.723473],[-0.814755,43.724605],[-0.813489,43.725443],[-0.812008,43.725939],[-0.809262,43.726342],[-0.801623,43.727365],[-0.798747,43.728141],[-0.796688,43.729102],[-0.794778,43.730529],[-0.790422,43.734885],[-0.787439,43.738374],[-0.785615,43.739785],[-0.783834,43.740451],[-0.781732,43.740839],[-0.779951,43.74073],[-0.774736,43.74011],[-0.772591,43.740079],[-0.770338,43.740482],[-0.762935,43.743257],[-0.761154,43.744311],[-0.760252,43.745179],[-0.759008,43.745241],[-0.758386,43.745815],[-0.757828,43.746807],[-0.756712,43.747799],[-0.755596,43.748419],[-0.753364,43.748667],[-0.751734,43.748357],[-0.75079,43.748043],[-0.749958,43.747808],[-0.745559,43.747002],[-0.74322,43.746366],[-0.741037,43.74513],[-0.738483,43.743487],[-0.736681,43.742805],[-0.734106,43.742464],[-0.731745,43.742727],[-0.727669,43.743782],[-0.725115,43.745301],[-0.723313,43.746122],[-0.720523,43.746758],[-0.717455,43.747192],[-0.714772,43.747176],[-0.712562,43.746897],[-0.71179,43.746618],[-0.710653,43.746572],[-0.707734,43.746882],[-0.706404,43.746727],[-0.703164,43.745704],[-0.701748,43.745425],[-0.699838,43.745208],[-0.698615,43.744929],[-0.697006,43.744185],[-0.695525,43.743115],[-0.694066,43.742533],[-0.692693,43.742238],[-0.690976,43.742161],[-0.689324,43.742486],[-0.686513,43.743354],[-0.685054,43.743416],[-0.68338,43.743323],[-0.680912,43.742641],[-0.678402,43.742207],[-0.676084,43.742145],[-0.669883,43.743075],[-0.668596,43.743215],[-0.662652,43.743556],[-0.661085,43.743866],[-0.659068,43.744408],[-0.657287,43.744532],[-0.657223,43.7443],[-0.656729,43.7443],[-0.656429,43.744021],[-0.655957,43.743897],[-0.655893,43.743602],[-0.653811,43.744067],[-0.652459,43.744098],[-0.651537,43.7443],[-0.651344,43.744486],[-0.649434,43.744455],[-0.645915,43.743881],[-0.646172,43.743292],[-0.64673,43.742796],[-0.648103,43.742207],[-0.650979,43.741571],[-0.652974,43.740796],[-0.65424,43.740595],[-0.654841,43.740626],[-0.656365,43.740471],[-0.656965,43.740982],[-0.658897,43.741013],[-0.658961,43.741246],[-0.659605,43.74123],[-0.65939,43.740796],[-0.659433,43.740192],[-0.659304,43.739975],[-0.658682,43.740006],[-0.658425,43.738471],[-0.657287,43.738486],[-0.657244,43.73768],[-0.654927,43.737634],[-0.655914,43.736781],[-0.656837,43.735076],[-0.657159,43.733804],[-0.657223,43.732703],[-0.656794,43.732269],[-0.656429,43.731355],[-0.656472,43.729013],[-0.655721,43.728703],[-0.652889,43.728393],[-0.650399,43.724516],[-0.650399,43.722578],[-0.648962,43.720578],[-0.64864,43.718887],[-0.649713,43.718717],[-0.650764,43.718732],[-0.651751,43.718468],[-0.65276,43.71836],[-0.653554,43.717988],[-0.654305,43.718143],[-0.65482,43.718174],[-0.654906,43.718422],[-0.655699,43.718391],[-0.658038,43.718841],[-0.658167,43.718468],[-0.659326,43.718577],[-0.660721,43.719197],[-0.663467,43.719197],[-0.665119,43.719414],[-0.665828,43.719647],[-0.665849,43.719042],[-0.666557,43.719306],[-0.667265,43.719694],[-0.668596,43.719383],[-0.670892,43.719073],[-0.671771,43.719058],[-0.672029,43.718561],[-0.672565,43.718003],[-0.672673,43.717352],[-0.672522,43.716685],[-0.672608,43.716049],[-0.672479,43.714467],[-0.6719,43.713878],[-0.672286,43.71259],[-0.672243,43.711799],[-0.672844,43.711799],[-0.674818,43.71197],[-0.67735,43.711892],[-0.677329,43.71152],[-0.6775,43.710931],[-0.677479,43.709659],[-0.677801,43.706634],[-0.67838,43.706758],[-0.680483,43.706945],[-0.681384,43.706681],[-0.683079,43.707518],[-0.684324,43.707255],[-0.684517,43.706945],[-0.684582,43.706169],[-0.684796,43.704959],[-0.684603,43.704788],[-0.683723,43.704261],[-0.683466,43.702865],[-0.68368,43.701128],[-0.684324,43.700305],[-0.684946,43.700011],[-0.684474,43.698568],[-0.684067,43.698164],[-0.682951,43.697559],[-0.680569,43.697203],[-0.679518,43.696722],[-0.678702,43.695993],[-0.677179,43.694581],[-0.677264,43.694239],[-0.677865,43.693743],[-0.678402,43.693184],[-0.679239,43.692672],[-0.679281,43.692347],[-0.679131,43.691819],[-0.679582,43.691524],[-0.680505,43.691229],[-0.681363,43.690361],[-0.681728,43.6896],[-0.682307,43.689119],[-0.684968,43.689569],[-0.688573,43.690671],[-0.688701,43.689647],[-0.689066,43.688871],[-0.689538,43.688281],[-0.689452,43.687769],[-0.689495,43.687382],[-0.689924,43.687599],[-0.690161,43.687583],[-0.692297,43.683578],[-0.69322,43.68288],[-0.693993,43.682632],[-0.695645,43.681747],[-0.697211,43.680708],[-0.698348,43.679311],[-0.699164,43.681096],[-0.699765,43.681328],[-0.703434,43.68198],[-0.703455,43.682182],[-0.705966,43.682678],[-0.705043,43.683563],[-0.705258,43.68378],[-0.705558,43.683904],[-0.705773,43.686744],[-0.706052,43.686434],[-0.71015,43.683796],[-0.714935,43.681204],[-0.715021,43.680521],[-0.714935,43.679994],[-0.715085,43.679497],[-0.71545,43.679482],[-0.716158,43.679683],[-0.716931,43.679466],[-0.717231,43.679202],[-0.719141,43.678504],[-0.719248,43.676688],[-0.719463,43.676518],[-0.720321,43.676704],[-0.720986,43.676999],[-0.722467,43.675742],[-0.72266,43.675385],[-0.723647,43.674935],[-0.72399,43.674531],[-0.724226,43.674112],[-0.724806,43.673398],[-0.725149,43.672188],[-0.725492,43.671986],[-0.725814,43.670946],[-0.727488,43.671551],[-0.729505,43.671318],[-0.730535,43.670636],[-0.730921,43.670232],[-0.731136,43.669704],[-0.731093,43.668866],[-0.731715,43.667919],[-0.733367,43.667438],[-0.733925,43.667764],[-0.734269,43.66778],[-0.734526,43.667702],[-0.735127,43.668338],[-0.735749,43.668494],[-0.735985,43.66899],[-0.736414,43.669347],[-0.736779,43.669425],[-0.73708,43.669782],[-0.737294,43.670077],[-0.738067,43.670216],[-0.739075,43.67017],[-0.739783,43.670046],[-0.740255,43.670294],[-0.741537,43.670775],[-0.742975,43.671256],[-0.744713,43.671939],[-0.746236,43.672141],[-0.746065,43.672979],[-0.746236,43.673879],[-0.746687,43.674438],[-0.747459,43.674981],[-0.749197,43.675473],[-0.750957,43.676559],[-0.750592,43.678965],[-0.750313,43.679508],[-0.750099,43.680268],[-0.750056,43.680827],[-0.749498,43.681789],[-0.74894,43.68241],[-0.748318,43.682844],[-0.746901,43.683092],[-0.746,43.68376],[-0.746107,43.684023],[-0.747824,43.685327],[-0.748189,43.68452],[-0.749455,43.685234],[-0.750206,43.685451],[-0.750935,43.68542],[-0.751493,43.686072],[-0.751493,43.686599],[-0.751772,43.687034],[-0.752395,43.688337],[-0.752352,43.688554],[-0.752502,43.68888],[-0.752974,43.688911],[-0.753446,43.688989],[-0.753875,43.688927],[-0.754412,43.689439],[-0.754755,43.68947],[-0.755785,43.689082],[-0.756622,43.688399],[-0.757416,43.687903],[-0.758295,43.687654],[-0.759819,43.687173],[-0.760227,43.687949],[-0.760956,43.688663],[-0.763038,43.689501],[-0.763331,43.690347],[-0.763395,43.690921],[-0.76376,43.691371],[-0.765048,43.691992],[-0.766743,43.692643],[-0.76861,43.693171],[-0.769425,43.693279],[-0.771635,43.693497],[-0.772944,43.693977],[-0.774188,43.694676],[-0.775691,43.695048],[-0.776678,43.695405],[-0.777235,43.695793],[-0.777407,43.695389],[-0.778008,43.695064],[-0.77878,43.695032],[-0.779961,43.695126],[-0.780218,43.694877],[-0.780175,43.694117],[-0.780561,43.693403],[-0.780669,43.692473],[-0.785432,43.690704],[-0.785883,43.69075],[-0.786462,43.689075],[-0.787321,43.688547],[-0.787535,43.687849],[-0.787149,43.686468],[-0.788436,43.686359],[-0.789252,43.686561],[-0.790303,43.686639],[-0.791226,43.686825],[-0.792277,43.686995],[-0.794316,43.686545],[-0.797234,43.685459],[-0.798393,43.68549],[-0.801182,43.686313],[-0.803006,43.688407],[-0.803156,43.688718],[-0.803907,43.689618],[-0.804852,43.691681],[-0.808328,43.690843],[-0.809272,43.690921],[-0.810087,43.69134],[-0.810752,43.693202],[-0.813563,43.69345],[-0.816503,43.694629],[-0.817104,43.695638],[-0.816975,43.696165],[-0.817383,43.696863],[-0.817855,43.697267],[-0.818069,43.698089],[-0.818863,43.698756],[-0.820065,43.699438],[-0.820194,43.699888],[-0.820709,43.700478],[-0.820494,43.700959],[-0.819443,43.701703],[-0.818971,43.702262],[-0.819164,43.704666],[-0.819593,43.704992],[-0.819915,43.706466],[-0.819121,43.706667],[-0.818069,43.707148],[-0.81734,43.707365],[-0.817469,43.708249],[-0.817812,43.708451],[-0.81764,43.708583],[-0.817812,43.708746],[-0.81764,43.708947],[-0.817773,43.709121],[-0.818412,43.709245],[-0.819844,43.709613],[-0.820863,43.71004],[-0.821915,43.710672],[-0.822869,43.711226],[-0.824372,43.711691],[-0.825407,43.711808],[-0.827054,43.711746],[-0.831195,43.711114],[-0.832504,43.71097],[-0.83414,43.711087],[-0.835733,43.711544],[-0.836731,43.712048],[-0.838357,43.713327],[-0.838383,43.713021],[-0.838126,43.712843],[-0.837793,43.712563],[-0.837729,43.71237],[-0.838228,43.712017],[-0.838324,43.711854]]],"type":"MultiLineString"},"properties":{"geo_point":{"lon":-0.7370410654266109,"lat":43.712829503775275},"name":"Tour de la Haute Chalosse (Landes) (2020)","code_gr":null}}]}