{"type":"FeatureCollection","features":[{"type":"Feature","geometry":{"coordinates":[[[4.29177,44.542404],[4.290718,44.541466],[4.290268,44.541054],[4.289769,44.539692],[4.290101,44.538612],[4.290139,44.538181],[4.290895,44.537384],[4.291303,44.536739],[4.291373,44.536175],[4.291303,44.535999],[4.291716,44.535469],[4.293062,44.534969],[4.293642,44.534187],[4.293685,44.533916],[4.293551,44.533695],[4.293835,44.533646],[4.29398,44.533379],[4.294361,44.53318],[4.294742,44.532902],[4.295138,44.532658],[4.295348,44.532619],[4.295611,44.53196],[4.295954,44.531689],[4.296072,44.531731],[4.296018,44.531113],[4.295552,44.530987],[4.295208,44.531353],[4.294988,44.531773],[4.294548,44.531998],[4.293926,44.532005],[4.293154,44.531841],[4.292547,44.53159],[4.292193,44.531509],[4.291603,44.531132],[4.290992,44.530964],[4.290053,44.531025],[4.289602,44.531265],[4.288835,44.53149],[4.288851,44.53194],[4.288707,44.532112],[4.288648,44.532497],[4.288106,44.532551],[4.287972,44.532784],[4.287886,44.533134],[4.286459,44.533787],[4.284527,44.534519],[4.283958,44.535133],[4.283808,44.535622],[4.282962,44.536026],[4.282168,44.536026],[4.281288,44.536156],[4.279937,44.536869],[4.279143,44.537159],[4.278188,44.537914],[4.276932,44.539158],[4.276347,44.539902],[4.275725,44.540874],[4.275231,44.541229],[4.274856,44.541359],[4.274115,44.541428],[4.273236,44.541664],[4.272511,44.541702],[4.271621,44.541092],[4.271202,44.540859],[4.270639,44.540703],[4.269829,44.540409],[4.2691,44.540531],[4.268606,44.540554],[4.267351,44.541031],[4.266981,44.541245],[4.266342,44.541298],[4.265935,44.541622],[4.265371,44.541611],[4.264395,44.541336],[4.263376,44.541271],[4.261793,44.541378],[4.260844,44.541206],[4.259782,44.54105],[4.259213,44.541019],[4.258816,44.540993],[4.258124,44.541225],[4.257046,44.541813],[4.256869,44.542053],[4.255796,44.542702],[4.255072,44.542896],[4.254589,44.543098],[4.254433,44.543255],[4.254026,44.543453],[4.253709,44.544258],[4.252352,44.545078],[4.252046,44.545422],[4.251461,44.545826],[4.250802,44.546165],[4.250233,44.546257],[4.249562,44.546185],[4.248876,44.546143],[4.248157,44.546051],[4.247406,44.54615],[4.246773,44.546379],[4.245668,44.546429],[4.24481,44.546429],[4.243833,44.546265],[4.243045,44.545902],[4.242369,44.545441],[4.241902,44.544987],[4.241462,44.544426],[4.24128,44.543953],[4.241237,44.543453],[4.240818,44.543217],[4.2407,44.542942],[4.24069,44.542439],[4.240792,44.542141],[4.240727,44.542007],[4.240303,44.541794],[4.239627,44.541588],[4.239418,44.541676],[4.239306,44.541859],[4.239139,44.542],[4.23878,44.542042],[4.238243,44.542149],[4.23812,44.542446],[4.23775,44.542408],[4.23679,44.542168],[4.236232,44.542263],[4.236044,44.542217],[4.234258,44.542526],[4.234124,44.542656],[4.233153,44.542782],[4.232954,44.543163],[4.23274,44.543362],[4.232316,44.543365],[4.231452,44.54388],[4.23128,44.543919],[4.230798,44.543732],[4.230331,44.543648],[4.22988,44.543716],[4.229124,44.543613],[4.228888,44.543816],[4.22863,44.543922],[4.227402,44.54414],[4.226356,44.543663],[4.226324,44.543304],[4.226077,44.543152],[4.22539,44.543278],[4.224484,44.543434],[4.223481,44.543453],[4.222285,44.543566],[4.221303,44.543219],[4.22034,44.543386],[4.219977,44.543384],[4.219248,44.543911],[4.218953,44.544048],[4.21854,44.544147],[4.218073,44.544395],[4.217477,44.544815],[4.2174,44.54501],[4.216893,44.544899],[4.217055,44.54506],[4.217045,44.545405],[4.21681,44.545467],[4.216533,44.5454],[4.216255,44.546158],[4.216271,44.546337],[4.216056,44.547058],[4.216174,44.547344],[4.215799,44.547577],[4.215343,44.547604],[4.214957,44.547695],[4.214415,44.548077],[4.214388,44.548267],[4.214286,44.548534],[4.214018,44.548874],[4.213937,44.548763],[4.213964,44.548592],[4.213782,44.548386],[4.21383,44.547569],[4.214087,44.547234],[4.213803,44.547073],[4.21376,44.546906],[4.21332,44.546867],[4.212945,44.546555],[4.212537,44.546665],[4.212296,44.546589],[4.212113,44.546326],[4.21207,44.546028],[4.21192,44.545952],[4.211706,44.545982],[4.210987,44.54599],[4.210654,44.545872],[4.210263,44.545528],[4.209941,44.545261],[4.209109,44.545055],[4.207473,44.544842],[4.206754,44.544842],[4.204839,44.544762],[4.203863,44.544605],[4.203493,44.544647],[4.202897,44.544792],[4.20205,44.544846],[4.200575,44.544773],[4.199405,44.544605],[4.198043,44.544498],[4.197501,44.544361],[4.197501,44.544361],[4.196028,44.543633],[4.195234,44.543403],[4.194333,44.543067],[4.193582,44.542746],[4.192702,44.542639],[4.191908,44.542715],[4.191707,44.542427],[4.191707,44.542427],[4.191632,44.542065],[4.191391,44.542007],[4.191026,44.542255],[4.190387,44.542469],[4.190066,44.542149],[4.189808,44.541988],[4.189749,44.541767],[4.188848,44.541744],[4.188574,44.54211],[4.187957,44.542305],[4.188344,44.542347],[4.188923,44.542347],[4.189079,44.542507],[4.188826,44.542492],[4.188311,44.542629],[4.187716,44.542694],[4.18851,44.542862],[4.187813,44.542973],[4.187121,44.542927],[4.187721,44.543262],[4.187657,44.543404],[4.187603,44.54332],[4.187453,44.543266],[4.187094,44.543247],[4.187367,44.543392],[4.187292,44.54353],[4.187099,44.543453],[4.186793,44.543495],[4.187088,44.543602],[4.186944,44.543816],[4.186922,44.544071],[4.186675,44.543835],[4.186648,44.544117],[4.186536,44.544292],[4.186273,44.54427],[4.185935,44.544098],[4.185672,44.544128],[4.185517,44.544128],[4.185645,44.544239],[4.18556,44.544426],[4.185318,44.544617],[4.185109,44.544456],[4.184401,44.54459],[4.183902,44.544594],[4.182872,44.545059],[4.182464,44.545052],[4.182207,44.545166],[4.182421,44.545254],[4.182099,44.545422],[4.181826,44.545826],[4.181407,44.546291],[4.181155,44.546425],[4.180844,44.546871],[4.180318,44.547256],[4.180141,44.547501],[4.180136,44.547951],[4.179948,44.548122],[4.179814,44.548401],[4.179669,44.548805],[4.179487,44.548969],[4.178371,44.5495],[4.177754,44.549736],[4.177062,44.549938],[4.176816,44.549847],[4.176311,44.549839],[4.175995,44.549896],[4.175769,44.549831],[4.175587,44.549931],[4.175024,44.550079],[4.174857,44.550198],[4.174756,44.550156],[4.174241,44.550339],[4.174047,44.550316],[4.173736,44.550442],[4.173452,44.550446],[4.172889,44.550591],[4.172637,44.550556],[4.172342,44.550564],[4.171902,44.550503],[4.171859,44.550533],[4.172084,44.550671],[4.17187,44.550674],[4.171988,44.550877],[4.171934,44.550961],[4.171628,44.550934],[4.170941,44.550705],[4.170689,44.550785],[4.170571,44.550922],[4.170453,44.551014],[4.170469,44.551109],[4.170217,44.551407],[4.169981,44.551579],[4.168764,44.551743],[4.168275,44.551907],[4.167889,44.55201],[4.167031,44.551998],[4.16621,44.552101],[4.16591,44.552429],[4.165599,44.552963],[4.16532,44.553783],[4.165218,44.553909],[4.164837,44.553608],[4.164461,44.553631],[4.164241,44.554058],[4.163705,44.554329],[4.163163,44.554462],[4.1629,44.554462],[4.162852,44.554543],[4.163077,44.554798],[4.162975,44.555077],[4.162493,44.555504],[4.162149,44.556202],[4.161784,44.556767],[4.161382,44.557182],[4.160792,44.557549],[4.160116,44.557697],[4.158743,44.558727],[4.158314,44.559303],[4.158019,44.559547],[4.15797,44.559753],[4.157665,44.559898],[4.156093,44.56036],[4.155626,44.56065],[4.154076,44.56102],[4.152949,44.561302],[4.152461,44.561481],[4.152359,44.561604],[4.152375,44.561916],[4.152305,44.562092],[4.152032,44.562294],[4.151227,44.562595],[4.15038,44.562672],[4.150015,44.562847],[4.149677,44.563164],[4.149103,44.563358],[4.148518,44.563698],[4.147837,44.564198],[4.147746,44.564743],[4.147815,44.564987],[4.147746,44.565098],[4.147494,44.56514],[4.147107,44.56506],[4.14649,44.564739],[4.145847,44.56422],[4.144935,44.563702],[4.144688,44.563675],[4.144264,44.563747],[4.143663,44.564022],[4.14243,44.564873],[4.142038,44.56525],[4.141684,44.565434],[4.140987,44.565899],[4.140746,44.56588],[4.140622,44.565941],[4.139951,44.566521],[4.139474,44.566795],[4.139307,44.56694],[4.139291,44.566956],[4.138991,44.567055],[4.138701,44.567608],[4.138347,44.56789],[4.137795,44.568127],[4.137065,44.568363],[4.136459,44.568417],[4.136035,44.568508],[4.135853,44.56842],[4.135547,44.568455],[4.135231,44.568707],[4.134941,44.569046],[4.134437,44.56942],[4.13412,44.569424],[4.1336,44.569702],[4.132859,44.56995],[4.132071,44.570248],[4.131792,44.570419],[4.131529,44.570507],[4.130547,44.570545],[4.129705,44.570442],[4.129222,44.570652],[4.128863,44.57093],[4.128788,44.57119],[4.128595,44.571442],[4.12831,44.571651],[4.127495,44.572002],[4.126454,44.572346],[4.125752,44.572666],[4.125419,44.572762],[4.125156,44.572712],[4.124952,44.572548],[4.124765,44.57251],[4.12425,44.572632],[4.123649,44.572662],[4.122908,44.572933],[4.121841,44.57304],[4.121267,44.573223],[4.119835,44.574215],[4.118917,44.574509],[4.117989,44.574585],[4.11601,44.575409],[4.115382,44.575443],[4.11462,44.575508],[4.114245,44.575443],[4.113891,44.575287],[4.113526,44.575264],[4.113188,44.575516],[4.112882,44.575668],[4.112496,44.575665],[4.112153,44.575752],[4.112024,44.575951],[4.112008,44.576405],[4.111895,44.576736],[4.111407,44.577053],[4.111252,44.577389],[4.110833,44.577843],[4.110318,44.578114],[4.109573,44.57806],[4.109433,44.578213],[4.109363,44.578419],[4.109192,44.578552],[4.108875,44.578644],[4.108183,44.578587],[4.107899,44.57848],[4.107561,44.57851],[4.107228,44.57869],[4.106987,44.579128],[4.106729,44.579487],[4.106268,44.579727],[4.106091,44.579872],[4.105893,44.5802],[4.105211,44.580544],[4.104857,44.580605],[4.104498,44.580795],[4.104428,44.581013],[4.104138,44.58115],[4.103902,44.581322],[4.103559,44.581436],[4.103098,44.581409],[4.102717,44.581501],[4.102293,44.58186],[4.101977,44.582043],[4.101333,44.582085],[4.100941,44.58263],[4.10048,44.582848],[4.099536,44.583427],[4.098951,44.583672],[4.098715,44.583721],[4.098329,44.58363],[4.097594,44.583855],[4.096542,44.584133],[4.095223,44.584805],[4.094048,44.58519],[4.093694,44.585239],[4.093329,44.585506],[4.093168,44.585587],[4.092718,44.585548],[4.092262,44.585686],[4.091484,44.585819],[4.090239,44.586174],[4.090008,44.586155],[4.089949,44.585663],[4.089799,44.585083],[4.089976,44.584038],[4.089864,44.583824],[4.090202,44.583447],[4.090277,44.583267],[4.090202,44.583141],[4.089461,44.58289],[4.08908,44.582687],[4.088614,44.582615],[4.088555,44.582676],[4.088909,44.583019],[4.088941,44.583393],[4.088861,44.583557],[4.088673,44.583595],[4.088002,44.583366],[4.087605,44.583305],[4.087144,44.583435],[4.086554,44.58363],[4.08643,44.583733],[4.086039,44.583923],[4.085272,44.584114],[4.082482,44.58461],[4.081651,44.584846],[4.080932,44.585228],[4.07958,44.585838],[4.078008,44.586338],[4.077263,44.586693],[4.076694,44.586914],[4.076141,44.5872],[4.075653,44.587696],[4.075267,44.588474],[4.075036,44.588829],[4.074623,44.589104],[4.074237,44.589199],[4.072912,44.589176],[4.071662,44.589066],[4.07052,44.589191],[4.069634,44.589588],[4.068025,44.589954],[4.066722,44.589714],[4.066271,44.589664],[4.064967,44.58997],[4.06317,44.589966],[4.062988,44.590046],[4.062682,44.590618],[4.062017,44.59148],[4.061577,44.592319],[4.061448,44.59269],[4.061014,44.592957],[4.060611,44.593353],[4.060359,44.593761],[4.059029,44.594528],[4.058825,44.594791],[4.057527,44.59523],[4.056996,44.595371],[4.054898,44.596066],[4.053901,44.596294],[4.053316,44.596603],[4.052549,44.596916],[4.052028,44.597294],[4.050988,44.597546],[4.050054,44.597973],[4.050086,44.598469],[4.050167,44.598694],[4.050033,44.599136],[4.050038,44.599346],[4.049936,44.599533],[4.050001,44.599743],[4.049936,44.599842],[4.049995,44.600266],[4.050215,44.600277],[4.050403,44.600155],[4.050612,44.600311],[4.050601,44.600464],[4.050848,44.600708],[4.050816,44.60078],[4.051009,44.600857],[4.051095,44.601051],[4.0511,44.601364],[4.051277,44.601547],[4.051819,44.601971],[4.052002,44.602238],[4.051975,44.602978],[4.052146,44.603275],[4.052452,44.603596],[4.052538,44.603836],[4.052796,44.604107],[4.053005,44.604172],[4.053235,44.604137],[4.053488,44.60413],[4.053965,44.604233],[4.055065,44.604916],[4.05521,44.605145],[4.055269,44.605839],[4.055188,44.606094],[4.055279,44.606838],[4.055472,44.606964],[4.055601,44.607128],[4.05632,44.607616],[4.056685,44.607758],[4.056797,44.607876],[4.057479,44.608257],[4.057784,44.608517],[4.058063,44.608829],[4.058358,44.60865],[4.058938,44.608711],[4.06022,44.609116],[4.060778,44.609898],[4.061105,44.610165],[4.062291,44.610638],[4.06309,44.611012],[4.063449,44.611008],[4.065498,44.61055],[4.066523,44.610226],[4.067542,44.609802],[4.068819,44.609089],[4.069248,44.609051],[4.069549,44.608971],[4.070171,44.609001],[4.072343,44.608589],[4.07332,44.608383],[4.073931,44.608032],[4.074028,44.607838],[4.074366,44.607635],[4.074446,44.607525],[4.076141,44.608482],[4.076689,44.608891],[4.076882,44.609127],[4.077236,44.609219],[4.077901,44.609669],[4.07833,44.610241],[4.078641,44.610374],[4.07929,44.610279],[4.079966,44.610149],[4.080294,44.610264],[4.080599,44.610512],[4.081023,44.61116],[4.082117,44.611675],[4.082284,44.612003],[4.082632,44.61232],[4.08311,44.612457],[4.083249,44.612411],[4.083303,44.612305],[4.082933,44.612003],[4.082777,44.61171],[4.082831,44.611347],[4.083083,44.611076],[4.083346,44.610962],[4.083957,44.610874],[4.084478,44.610737],[4.085229,44.61063],[4.085771,44.610546],[4.086532,44.610546],[4.087525,44.610317],[4.088576,44.610332],[4.089622,44.610443],[4.091114,44.610489],[4.092492,44.610748],[4.092814,44.61092],[4.093018,44.61097],[4.093517,44.610893],[4.094643,44.610943],[4.095539,44.611115],[4.096237,44.611443],[4.096934,44.611565],[4.097883,44.611652],[4.098951,44.612305],[4.100909,44.612457],[4.101349,44.612427],[4.101649,44.612232],[4.101762,44.612194],[4.101773,44.612331],[4.101585,44.612545],[4.100609,44.613014],[4.100174,44.613171],[4.100249,44.613243],[4.101177,44.613113],[4.102164,44.612766],[4.102486,44.612591],[4.10321,44.611835],[4.103935,44.611206],[4.104401,44.610535],[4.104884,44.610123],[4.105013,44.609924],[4.105109,44.609859],[4.105174,44.609921],[4.105029,44.610172],[4.105007,44.610359],[4.104932,44.610638],[4.104627,44.61124],[4.104535,44.611698],[4.104294,44.612747],[4.104358,44.613407],[4.104208,44.614151],[4.103902,44.614311],[4.103881,44.614464],[4.104031,44.614563],[4.104294,44.614758],[4.104551,44.61504],[4.104632,44.615341],[4.104492,44.615543],[4.103473,44.616131],[4.103452,44.616238],[4.103597,44.616322],[4.104004,44.616272],[4.104423,44.616131],[4.104728,44.616356],[4.105871,44.616055],[4.106263,44.616093],[4.10659,44.616234],[4.106821,44.616425],[4.106976,44.616348],[4.107008,44.616039],[4.10711,44.615692],[4.107598,44.615269],[4.108183,44.614712],[4.109004,44.613651],[4.10991,44.61282],[4.110699,44.612312],[4.111176,44.611774],[4.111756,44.611378],[4.112099,44.611286],[4.113285,44.611561],[4.114132,44.61211],[4.114524,44.612553],[4.114883,44.61274],[4.115152,44.61269],[4.115688,44.612694],[4.116385,44.61264],[4.117383,44.61235],[4.117603,44.612217],[4.117678,44.611858],[4.118054,44.611397],[4.118263,44.611309],[4.118338,44.611237],[4.118064,44.610996],[4.118595,44.610905],[4.119068,44.610775],[4.120194,44.610573],[4.120612,44.610279],[4.120811,44.610027],[4.121321,44.609932],[4.122372,44.609962],[4.123386,44.610191],[4.124019,44.610569],[4.124614,44.610607],[4.125103,44.610588],[4.125955,44.610458],[4.126926,44.610683],[4.127549,44.610661],[4.127994,44.610519],[4.12882,44.610428],[4.129222,44.610348],[4.130091,44.610378],[4.130724,44.610504],[4.131229,44.610542],[4.132184,44.610298],[4.132881,44.610027],[4.133476,44.609707],[4.13426,44.609913],[4.133734,44.610611],[4.133353,44.61132],[4.133186,44.611958],[4.133422,44.612529],[4.133916,44.61298],[4.135246,44.613399],[4.137338,44.613812],[4.138358,44.613643],[4.139323,44.613361],[4.13972,44.613316],[4.140363,44.61311],[4.141447,44.613186],[4.14282,44.613605],[4.143293,44.613667],[4.144558,44.613651],[4.146178,44.61343],[4.146725,44.613575],[4.148249,44.614109],[4.149269,44.614307],[4.150041,44.614292],[4.150395,44.61438],[4.151693,44.613949],[4.153635,44.61298],[4.153753,44.612652],[4.153843,44.612648],[4.15421,44.612473],[4.15495,44.611893],[4.155556,44.611706],[4.155894,44.611542],[4.156302,44.611107],[4.156618,44.610573],[4.15686,44.610596],[4.157032,44.611042],[4.157364,44.611439],[4.158002,44.611588],[4.158067,44.611534],[4.158115,44.610764],[4.158228,44.610771],[4.158716,44.611172],[4.160111,44.611687],[4.160771,44.6119],[4.161092,44.611965],[4.161366,44.611904],[4.161978,44.611393],[4.163024,44.610573],[4.163244,44.610458],[4.163517,44.610435],[4.16386,44.610611],[4.164392,44.611179],[4.164724,44.611382],[4.165202,44.6115],[4.166156,44.611774],[4.16695,44.612244],[4.167025,44.612373],[4.166988,44.61256],[4.16709,44.612633],[4.167369,44.612606],[4.167814,44.612648],[4.168415,44.612541],[4.169305,44.612537],[4.169606,44.612617],[4.169869,44.612858],[4.170421,44.61293],[4.171322,44.613171],[4.172325,44.613377],[4.172631,44.613297],[4.173152,44.612797],[4.173779,44.612679],[4.174697,44.612579],[4.175346,44.612598],[4.175496,44.612492],[4.175957,44.612583],[4.177137,44.612366],[4.177652,44.612381],[4.17806,44.61227],[4.178312,44.612045],[4.178575,44.612095],[4.178795,44.61208],[4.179208,44.611912],[4.17938,44.611553],[4.179557,44.611477],[4.180426,44.611546],[4.181332,44.611458],[4.181686,44.611229],[4.182223,44.61113],[4.182743,44.611107],[4.183301,44.611031],[4.184353,44.610725],[4.185334,44.610256],[4.185602,44.609795],[4.185554,44.609318],[4.185372,44.608795],[4.185034,44.608082],[4.185061,44.607983],[4.185624,44.607922],[4.186418,44.607616],[4.186965,44.606956],[4.18844,44.606689],[4.190455,44.605621],[4.19149,44.605255],[4.192628,44.604797],[4.193424,44.604198],[4.193695,44.604099],[4.194588,44.604065],[4.195535,44.603821],[4.19587,44.603844],[4.196181,44.60379],[4.196495,44.60379],[4.197311,44.603699],[4.198064,44.603561],[4.200033,44.604046],[4.200256,44.604042],[4.200331,44.603924],[4.200296,44.603745],[4.200285,44.603561],[4.200452,44.602947],[4.200562,44.602554],[4.201146,44.601871],[4.202978,44.601128],[4.203507,44.601116],[4.204191,44.601185],[4.205309,44.601372],[4.206234,44.601376],[4.206575,44.601273],[4.206953,44.600971],[4.207353,44.600758],[4.20779,44.600655],[4.208399,44.600571],[4.208909,44.600456],[4.209238,44.600346],[4.209491,44.600105],[4.209601,44.599888],[4.21081,44.599667],[4.21147,44.599636],[4.211647,44.599579],[4.211752,44.599491],[4.211765,44.599342],[4.211945,44.599342],[4.212395,44.599213],[4.212471,44.599228],[4.212524,44.599201],[4.212631,44.59922],[4.212822,44.599117],[4.212889,44.599052],[4.213181,44.598907],[4.213299,44.59882],[4.213468,44.598732],[4.213479,44.598587],[4.213549,44.598442],[4.21356,44.598373],[4.213766,44.598225],[4.213962,44.598213],[4.214176,44.598145],[4.214375,44.59808],[4.214557,44.597984],[4.214702,44.597954],[4.215094,44.597839],[4.215188,44.597775],[4.21526,44.597633],[4.215281,44.597511],[4.21541,44.597412],[4.215646,44.597321],[4.216051,44.597107],[4.2167,44.597019],[4.216832,44.596931],[4.216931,44.596741],[4.21695,44.59655],[4.217025,44.596169],[4.217025,44.596043],[4.217049,44.595825],[4.217132,44.595665],[4.217138,44.595474],[4.217105,44.595329],[4.217003,44.595123],[4.217006,44.59494],[4.216904,44.594578],[4.216974,44.594452],[4.216987,44.594337],[4.217215,44.594025],[4.21739,44.593662],[4.217384,44.593571],[4.217395,44.593388],[4.217223,44.593018],[4.217073,44.592892],[4.216867,44.59264],[4.216767,44.592388],[4.216679,44.591904],[4.217014,44.591602],[4.217325,44.591377],[4.217704,44.591251],[4.217956,44.591133],[4.218076,44.59108],[4.218135,44.591],[4.218243,44.590935],[4.218468,44.590763],[4.218535,44.590641],[4.21865,44.590504],[4.21876,44.590263],[4.218766,44.590107],[4.218841,44.589962],[4.218817,44.589672],[4.218878,44.589523],[4.218881,44.589375],[4.218945,44.589211],[4.218937,44.589073],[4.218809,44.58876],[4.218892,44.588524],[4.21898,44.588436],[4.219189,44.58839],[4.219345,44.588329],[4.219884,44.5882],[4.220718,44.588161],[4.221008,44.588169],[4.221448,44.588245],[4.221652,44.588333],[4.221869,44.588352],[4.222129,44.588497],[4.222376,44.588535],[4.22265,44.588486],[4.223055,44.588493],[4.223647,44.588367],[4.224304,44.58807],[4.224833,44.587772],[4.225477,44.587688],[4.225608,44.587593],[4.226501,44.587193],[4.226737,44.587128],[4.226952,44.587135],[4.226997,44.587093],[4.227086,44.587086],[4.227295,44.586983],[4.227378,44.587051],[4.227655,44.587082],[4.227974,44.587166],[4.228124,44.587227],[4.228218,44.587303],[4.228298,44.587315],[4.228446,44.587257],[4.228636,44.587246],[4.22876,44.587269],[4.228819,44.587238],[4.22932,44.5872],[4.229588,44.587212],[4.22972,44.58717],[4.229897,44.587158],[4.229881,44.586983],[4.2298,44.586933],[4.229672,44.586887],[4.229242,44.586494],[4.229068,44.586128],[4.229106,44.585899],[4.228998,44.585732],[4.228816,44.585609],[4.228456,44.585613],[4.228406,44.585533],[4.227789,44.585533],[4.227866,44.585445],[4.22781,44.5854],[4.227348,44.585354],[4.22671,44.58519],[4.226533,44.584961],[4.226721,44.584583],[4.226651,44.584362],[4.225948,44.584156],[4.225412,44.583969],[4.224779,44.58363],[4.224473,44.583286],[4.224387,44.582676],[4.224366,44.581894],[4.224264,44.580887],[4.224108,44.580425],[4.22384,44.580067],[4.223379,44.579704],[4.223153,44.579262],[4.22289,44.579044],[4.222515,44.578854],[4.222311,44.578533],[4.222027,44.578381],[4.221887,44.577709],[4.222102,44.577572],[4.222048,44.577457],[4.222134,44.577324],[4.222445,44.577103],[4.222917,44.576927],[4.223223,44.576771],[4.223196,44.576504],[4.222831,44.576244],[4.222772,44.576122],[4.222365,44.57597],[4.222038,44.575993],[4.221587,44.575912],[4.220595,44.575748],[4.220455,44.575546],[4.220364,44.575535],[4.220257,44.575428],[4.220562,44.575245],[4.221523,44.574978],[4.222107,44.575031],[4.222842,44.57444],[4.222976,44.574226],[4.223143,44.574142],[4.223261,44.573978],[4.223239,44.573856],[4.222874,44.573704],[4.222858,44.573536],[4.223438,44.573532],[4.223743,44.573647],[4.223743,44.573647],[4.224299,44.574055],[4.225436,44.573918],[4.226122,44.573642],[4.226337,44.573321],[4.226745,44.573291],[4.227002,44.573184],[4.227603,44.573291],[4.227968,44.573077],[4.228848,44.573077],[4.230028,44.57352],[4.231758,44.573196],[4.232702,44.572819],[4.233271,44.572762],[4.23466,44.572407],[4.235314,44.57238],[4.236291,44.572433],[4.23694,44.572765],[4.237246,44.572796],[4.237718,44.572754],[4.238179,44.572674],[4.238034,44.572426],[4.238088,44.572128],[4.237669,44.571594],[4.237669,44.571377],[4.2379,44.57103],[4.238211,44.570885],[4.238603,44.570602],[4.238834,44.570343],[4.239472,44.570293],[4.240116,44.569878],[4.240336,44.569607],[4.240438,44.569294],[4.239418,44.568584],[4.239102,44.568451],[4.238625,44.56823],[4.238592,44.567879],[4.238249,44.567432],[4.238415,44.567104],[4.238463,44.566795],[4.23841,44.566494],[4.238174,44.566284],[4.237675,44.566032],[4.236924,44.565575],[4.237085,44.565353],[4.237391,44.565434],[4.237707,44.565399],[4.23797,44.565269],[4.237959,44.56496],[4.238142,44.564648],[4.238243,44.564331],[4.238571,44.563889],[4.238657,44.563534],[4.238748,44.563515],[4.239225,44.56369],[4.238941,44.563351],[4.238442,44.562386],[4.239102,44.562588],[4.240094,44.562767],[4.240625,44.562759],[4.241312,44.563148],[4.241886,44.563244],[4.242578,44.562992],[4.243248,44.56245],[4.243731,44.562317],[4.244547,44.562305],[4.245603,44.562374],[4.246623,44.562252],[4.247658,44.56205],[4.247851,44.562054],[4.247781,44.56245],[4.247819,44.562935],[4.248087,44.563671],[4.248312,44.563782],[4.248554,44.563801],[4.248908,44.5639],[4.249348,44.564163],[4.249487,44.564785],[4.249723,44.564907],[4.250206,44.56501],[4.250378,44.565388],[4.250464,44.565594],[4.250705,44.565823],[4.250946,44.565659],[4.251172,44.56575],[4.25211,44.565697],[4.252277,44.565765],[4.252475,44.565712],[4.252824,44.565834],[4.25343,44.565502],[4.253613,44.565308],[4.25379,44.565266],[4.254009,44.565338],[4.254009,44.565338],[4.254404,44.565051],[4.254854,44.56499],[4.255841,44.56525],[4.256206,44.565036],[4.2567,44.564455],[4.257107,44.564379],[4.257536,44.564425],[4.259039,44.564134],[4.259275,44.563889],[4.260455,44.563782],[4.261313,44.563905],[4.261785,44.564042],[4.262364,44.563981],[4.262815,44.564073],[4.263716,44.564073],[4.264231,44.564272],[4.264618,44.564669],[4.266656,44.564746],[4.267128,44.564623],[4.268244,44.564654],[4.26951,44.565296],[4.270089,44.565464],[4.270647,44.565739],[4.272042,44.565693],[4.272235,44.565892],[4.273737,44.566305],[4.27393,44.566611],[4.274552,44.566855],[4.274917,44.566886],[4.275518,44.567115],[4.275883,44.566886],[4.276376,44.566779],[4.277363,44.567085],[4.2782,44.567176],[4.278157,44.566779],[4.27835,44.566764],[4.279788,44.56739],[4.280367,44.566825],[4.28026,44.566687],[4.280475,44.566121],[4.280496,44.565816],[4.280153,44.56551],[4.280432,44.565189],[4.281312,44.56473],[4.282213,44.56447],[4.282749,44.564577],[4.283157,44.563798],[4.283887,44.56314],[4.285171,44.56216],[4.285847,44.561928],[4.286625,44.561928],[4.286384,44.561157],[4.286909,44.561161],[4.287376,44.561226],[4.28743,44.561172],[4.287108,44.561054],[4.287129,44.560303],[4.287183,44.559608],[4.287467,44.559368],[4.287601,44.559109],[4.287902,44.558716],[4.288009,44.558414],[4.288605,44.557735],[4.288696,44.557491],[4.288873,44.557087],[4.288766,44.556675],[4.288814,44.555889],[4.28868,44.555744],[4.28861,44.555405],[4.288245,44.55518],[4.287838,44.554905],[4.288057,44.55452],[4.287982,44.553909],[4.288127,44.553566],[4.28832,44.553486],[4.288648,44.553406],[4.289066,44.55315],[4.289404,44.553139],[4.289822,44.552959],[4.290058,44.552761],[4.290171,44.552513],[4.290691,44.552029],[4.290718,44.551655],[4.290825,44.551056],[4.290911,44.550804],[4.291185,44.550407],[4.291818,44.549896],[4.291984,44.549534],[4.292145,44.549114],[4.292569,44.548599],[4.292767,44.547718],[4.292896,44.546825],[4.292552,44.545979],[4.29244,44.545338],[4.292564,44.544843],[4.292869,44.544071],[4.293197,44.543812],[4.293782,44.543533],[4.293449,44.543247],[4.293197,44.542793]]],"type":"MultiLineString"},"properties":{"geo_point":{"lon":4.179841938135989,"lat":44.576623523093325},"name":"Tour du Tanargue (Ardèche) (2020)","code_gr":null}}]}