{"type":"FeatureCollection","features":[{"type":"Feature","geometry":{"coordinates":[[[2.385468,48.897422],[2.384154,48.896212],[2.388275,48.892426],[2.392043,48.888886],[2.392865,48.889058],[2.393164,48.8888],[2.394602,48.889132],[2.394845,48.888677],[2.394677,48.888026],[2.393612,48.886798],[2.393407,48.886282],[2.392828,48.885606],[2.391969,48.885029],[2.39081,48.884525],[2.390325,48.884415],[2.386421,48.884034],[2.385543,48.883015],[2.385281,48.882671],[2.385449,48.88245],[2.385431,48.881737],[2.3853,48.880767],[2.385842,48.880017],[2.385001,48.87971],[2.384198,48.87971],[2.383637,48.879686],[2.383276,48.879806],[2.383049,48.880104],[2.383049,48.88027],[2.382683,48.880259],[2.38203,48.880156],[2.381786,48.880156],[2.381481,48.880127],[2.380966,48.88014],[2.380443,48.879735],[2.379733,48.879047],[2.379504,48.878876],[2.379478,48.878694],[2.379148,48.878807],[2.378923,48.878555],[2.378685,48.878833],[2.378408,48.878885],[2.378295,48.87842],[2.378332,48.877708],[2.376651,48.877757],[2.375885,48.877671],[2.375736,48.877327],[2.37624,48.877069],[2.37695,48.876848],[2.378276,48.876811],[2.378164,48.876369],[2.37893,48.874673],[2.376987,48.874133],[2.376147,48.874133],[2.375605,48.874096],[2.375194,48.873936],[2.375007,48.873666],[2.374335,48.874194],[2.373233,48.87455],[2.370599,48.873371],[2.371533,48.87224],[2.369795,48.871724],[2.369534,48.872093],[2.36789,48.871737],[2.365929,48.871036],[2.369142,48.866834],[2.368637,48.866662],[2.36888,48.86633],[2.367162,48.866662],[2.367759,48.865704],[2.366358,48.865445],[2.366526,48.864843],[2.365817,48.864671],[2.365873,48.864548],[2.36421,48.863234],[2.364397,48.862644],[2.363668,48.862275],[2.363183,48.86155],[2.363145,48.86123],[2.364117,48.860419],[2.36279,48.859768],[2.362174,48.859227],[2.362267,48.858908],[2.362865,48.858711],[2.361389,48.85672],[2.360717,48.856364],[2.360101,48.855479],[2.36011,48.855255],[2.359297,48.854379],[2.359128,48.854365],[2.359076,48.853918],[2.359337,48.853333],[2.35871,48.853333],[2.35796,48.853563],[2.357403,48.85292],[2.357089,48.852404],[2.353289,48.853631],[2.353206,48.853448],[2.353306,48.852868],[2.352185,48.852644],[2.351244,48.852947],[2.350663,48.852091],[2.349682,48.852354],[2.348601,48.852802],[2.348462,48.853075],[2.347933,48.853272],[2.347542,48.85359],[2.347128,48.853574],[2.346323,48.852167],[2.346668,48.852091],[2.346898,48.851653],[2.347841,48.851229],[2.348807,48.851698],[2.349267,48.851305],[2.349474,48.851365],[2.350256,48.851229],[2.349497,48.850427],[2.348692,48.850381],[2.349037,48.849821],[2.348508,48.848626],[2.348531,48.847476],[2.348347,48.84737],[2.347082,48.848096],[2.34676,48.847476],[2.348094,48.847158],[2.347841,48.84678],[2.348991,48.846613],[2.349106,48.846144],[2.350601,48.845932],[2.349796,48.845054],[2.349543,48.844494],[2.348117,48.844419],[2.347243,48.84463],[2.347082,48.843435],[2.348117,48.843586],[2.348232,48.842845],[2.349589,48.843162],[2.349796,48.842315],[2.349635,48.841376],[2.348255,48.841649],[2.3486,48.841013],[2.349635,48.841089],[2.349819,48.840075],[2.350946,48.840287],[2.351199,48.839802],[2.350118,48.839333],[2.350647,48.838485],[2.349796,48.838788],[2.348485,48.835988],[2.348531,48.835715],[2.349635,48.836063],[2.350279,48.835322],[2.351429,48.834353],[2.351682,48.833868],[2.351636,48.833475],[2.351337,48.833066],[2.350831,48.833036],[2.349221,48.831779],[2.348922,48.831885],[2.348255,48.831416],[2.34814,48.830992],[2.347726,48.831522],[2.347059,48.831128],[2.347013,48.830402],[2.347381,48.83022],[2.347289,48.829925],[2.348291,48.829648],[2.34765,48.828772],[2.347015,48.827294],[2.348148,48.826915],[2.346492,48.824689],[2.344767,48.823197],[2.34522,48.822796],[2.344854,48.822761],[2.344923,48.822337],[2.344401,48.822429],[2.344035,48.822578],[2.342954,48.821602],[2.34278,48.821281],[2.342483,48.821292],[2.340862,48.821155]]],"type":"MultiLineString"},"properties":{"geo_point":{"lon":2.3637332989971385,"lat":48.85932681336627},"name":"Traversée de Paris (Nord-Sud) (2020)","code_gr":null}},{"type":"Feature","geometry":{"coordinates":[[[2.273884,48.871176],[2.273243,48.870991],[2.272362,48.87111],[2.271802,48.870899],[2.271401,48.87032],[2.266957,48.868173],[2.266236,48.868134],[2.265776,48.868292],[2.265455,48.868226],[2.265535,48.867936],[2.265315,48.867646],[2.264634,48.867488],[2.264374,48.867304],[2.264214,48.866804],[2.263193,48.866145],[2.262813,48.865671],[2.262692,48.865144],[2.262672,48.864854],[2.262432,48.864486],[2.262032,48.864314],[2.261651,48.864011],[2.261952,48.86384],[2.262873,48.863695],[2.263693,48.863313],[2.263553,48.862721],[2.264114,48.862813],[2.264514,48.862668],[2.265175,48.862787],[2.265696,48.862668],[2.267337,48.8628],[2.268258,48.862391],[2.267998,48.861799],[2.26974,48.860166],[2.26982,48.859863],[2.26978,48.859494],[2.2701,48.859296],[2.27042,48.859204],[2.271562,48.858335],[2.272583,48.858256],[2.272583,48.857966],[2.273023,48.857294],[2.276467,48.855476],[2.277588,48.854699],[2.278309,48.854317],[2.278809,48.854462],[2.27921,48.854515],[2.280751,48.854962],[2.281472,48.855292],[2.281812,48.855595],[2.282553,48.855186],[2.282713,48.855318],[2.282793,48.855647],[2.282713,48.855753],[2.283494,48.856332],[2.283614,48.85628],[2.284935,48.857241],[2.285576,48.856952],[2.286117,48.857439],[2.288619,48.854936],[2.28894,48.8552],[2.28932,48.855753],[2.28968,48.856649],[2.289941,48.85707],[2.290621,48.857716],[2.291142,48.857413],[2.291783,48.857834],[2.292683,48.857268],[2.293164,48.857254],[2.292744,48.857518],[2.292543,48.857966],[2.293124,48.858032],[2.293604,48.858032],[2.294686,48.858664],[2.294986,48.85923],[2.295206,48.859217],[2.295727,48.858993],[2.296027,48.859059],[2.296127,48.858782],[2.296387,48.858611],[2.296112,48.858428],[2.296196,48.858195],[2.296402,48.858054],[2.296619,48.857998],[2.296659,48.857815],[2.296857,48.857728],[2.297095,48.857763],[2.297109,48.857582],[2.29701,48.857339],[2.296715,48.857128],[2.297859,48.856388],[2.298232,48.85645],[2.298494,48.856302],[2.298419,48.856019],[2.299521,48.855344],[2.299652,48.855565],[2.3001,48.855651],[2.300474,48.855528],[2.30061,48.855283],[2.300906,48.855231],[2.300959,48.855088],[2.301272,48.854818],[2.301773,48.855121],[2.303915,48.853803],[2.305436,48.854727],[2.305696,48.854396],[2.306363,48.854107],[2.311372,48.85385],[2.311664,48.853304],[2.311973,48.853187],[2.311778,48.85155],[2.313957,48.851774],[2.31612,48.851774],[2.316673,48.84988],[2.317746,48.850158],[2.319112,48.84774],[2.320218,48.848222],[2.32147,48.846873],[2.326593,48.849623],[2.326999,48.846937],[2.327894,48.845568],[2.330073,48.84438],[2.330593,48.843973],[2.332935,48.845107],[2.333634,48.845396],[2.333661,48.845655],[2.333329,48.845669],[2.333372,48.84581],[2.333447,48.84593],[2.333457,48.846206],[2.333286,48.846389],[2.333479,48.846573],[2.333479,48.846721],[2.333372,48.846813],[2.333447,48.846933],[2.333404,48.847208],[2.33349,48.847357],[2.333404,48.847667],[2.333515,48.847857],[2.333485,48.847991],[2.333348,48.848131],[2.333683,48.848147],[2.33622,48.848115],[2.336399,48.847836],[2.336691,48.847772],[2.337974,48.847738],[2.338318,48.847837],[2.338301,48.847901],[2.338529,48.847847],[2.338643,48.848179],[2.338935,48.848157],[2.339326,48.8482],[2.339835,48.847657],[2.340138,48.847667],[2.340932,48.847369],[2.341908,48.847106],[2.341629,48.846635],[2.342553,48.846417],[2.342989,48.846096],[2.343808,48.845878],[2.344557,48.845465],[2.345185,48.845202],[2.348165,48.844422],[2.349594,48.844548],[2.349751,48.844858],[2.350117,48.844754],[2.351163,48.844685],[2.3524,48.844479],[2.352238,48.845129],[2.352501,48.845168],[2.353027,48.844843],[2.353343,48.84437],[2.353587,48.844422],[2.353734,48.843673],[2.354937,48.843663],[2.355018,48.84377],[2.355392,48.84377],[2.355246,48.843524],[2.355441,48.843149],[2.355718,48.842913],[2.35587,48.842965],[2.356095,48.842979],[2.356246,48.84305],[2.356482,48.843092],[2.356535,48.843212],[2.356514,48.843353],[2.356879,48.843283],[2.356986,48.843487],[2.357318,48.843671],[2.357769,48.843734],[2.358016,48.84365],[2.360402,48.844217],[2.361115,48.843091],[2.357037,48.842036],[2.357089,48.841829],[2.355834,48.841508],[2.356583,48.839696],[2.358239,48.840005],[2.359302,48.840269],[2.361987,48.84034],[2.361946,48.840227],[2.362239,48.840114],[2.362989,48.840332],[2.36302,48.840192],[2.36312,48.840015],[2.363297,48.840062],[2.364125,48.838964],[2.363393,48.838697],[2.364515,48.837241],[2.365475,48.836181],[2.366028,48.835507],[2.367361,48.835935],[2.368012,48.8351],[2.3698,48.835721],[2.371313,48.836406],[2.372565,48.83708],[2.373882,48.83769],[2.378988,48.840409],[2.380354,48.839253],[2.380159,48.838279],[2.380745,48.837808],[2.380306,48.837541],[2.383672,48.834886],[2.384095,48.835132],[2.384534,48.834854],[2.386631,48.836021],[2.387119,48.836064],[2.387672,48.836363],[2.388095,48.836674],[2.389396,48.83692],[2.390404,48.837038],[2.391478,48.837016],[2.393169,48.836631],[2.393055,48.836417],[2.396096,48.834929],[2.397738,48.834222],[2.39821,48.833901],[2.398958,48.83328],[2.399862,48.832684],[2.401714,48.833323],[2.402122,48.833494],[2.402622,48.833664],[2.402962,48.833759],[2.404444,48.83431],[2.405184,48.834717],[2.405463,48.834929],[2.406544,48.835589]]],"type":"MultiLineString"},"properties":{"geo_point":{"lon":2.3293060642959142,"lat":48.848507669979924},"name":"Traversée de Paris (Ouest-Est) (2020)","code_gr":null}}]}