{"type":"FeatureCollection","features":[{"type":"Feature","geometry":{"coordinates":[[[1.515195,45.378889],[1.515055,45.378659],[1.514756,45.378594],[1.514317,45.378056],[1.514747,45.37782],[1.515494,45.377623],[1.515699,45.377017],[1.51634,45.376229],[1.516685,45.375952],[1.517167,45.375157],[1.517535,45.374908],[1.517337,45.374391],[1.517054,45.373705],[1.518129,45.373526],[1.519757,45.373416],[1.520989,45.373496],[1.521938,45.373476],[1.523721,45.374083],[1.52416,45.374103],[1.524698,45.37455],[1.524967,45.374679],[1.525142,45.374036],[1.525321,45.373624],[1.525159,45.372733],[1.524801,45.37182],[1.523939,45.370769],[1.523516,45.370666],[1.523402,45.370403],[1.5235,45.37014],[1.523289,45.369535],[1.522671,45.368826],[1.522719,45.368004],[1.522492,45.367375],[1.522541,45.36709],[1.522329,45.366393],[1.522541,45.365719],[1.522557,45.365365],[1.522817,45.364805],[1.522784,45.364176],[1.523224,45.363628],[1.522378,45.363194],[1.521614,45.3614],[1.521711,45.36124],[1.52028,45.361137],[1.519353,45.361137],[1.518573,45.360966],[1.518199,45.360429],[1.517581,45.360531],[1.516946,45.360429],[1.516898,45.360246],[1.517239,45.359892],[1.517808,45.359709],[1.518312,45.35972],[1.518817,45.3598],[1.519207,45.359686],[1.519581,45.359389],[1.519516,45.358863],[1.519126,45.35812],[1.518524,45.357241],[1.518231,45.357046],[1.517971,45.356989],[1.517629,45.356406],[1.517142,45.355926],[1.516865,45.355904],[1.516735,45.355824],[1.516524,45.355881],[1.516198,45.355709],[1.515402,45.354018],[1.515125,45.35403],[1.515044,45.353835],[1.515548,45.353435],[1.515711,45.352464],[1.51519,45.352064],[1.515304,45.350955],[1.515467,45.350498],[1.515597,45.349858],[1.515743,45.34963],[1.515694,45.349321],[1.51532,45.349013],[1.515141,45.348498],[1.514653,45.34787],[1.514523,45.347298],[1.51506,45.346281],[1.513824,45.345812],[1.513401,45.345755],[1.513011,45.345435],[1.511613,45.344727],[1.511401,45.344064],[1.511889,45.343447],[1.512637,45.342909],[1.513499,45.343058],[1.513678,45.343092],[1.514198,45.342624],[1.514328,45.342166],[1.513775,45.341926],[1.513531,45.341549],[1.51371,45.341035],[1.514345,45.340635],[1.51532,45.340235],[1.515206,45.340018],[1.514621,45.339938],[1.514214,45.339755],[1.514166,45.33948],[1.51358,45.338943],[1.51319,45.338794],[1.513125,45.338554],[1.51319,45.338086],[1.512214,45.337274],[1.51158,45.336611],[1.510637,45.336748],[1.51023,45.33692],[1.509742,45.336954],[1.509385,45.337046],[1.508815,45.336954],[1.508165,45.336988],[1.507661,45.336657],[1.506994,45.336691],[1.506327,45.336874],[1.506197,45.337034],[1.505157,45.336977],[1.504652,45.33628],[1.504311,45.335971],[1.504067,45.335628],[1.503823,45.335388],[1.504018,45.334839],[1.503839,45.334576],[1.503173,45.334496],[1.503286,45.334371],[1.503953,45.334199],[1.504848,45.333559],[1.505628,45.332873],[1.505628,45.332667],[1.505108,45.332153],[1.50436,45.332416],[1.503351,45.33253],[1.501872,45.332176],[1.5014,45.332313],[1.500896,45.332176],[1.499806,45.332164],[1.499367,45.331993],[1.499188,45.33133],[1.498977,45.331181],[1.498636,45.331204],[1.498294,45.33133],[1.497676,45.331387],[1.497074,45.331501],[1.497221,45.331661],[1.496489,45.331798],[1.495643,45.331707],[1.495318,45.33157],[1.495123,45.331913],[1.494603,45.332221],[1.494342,45.332107],[1.49418,45.331936],[1.494212,45.331467],[1.493253,45.330827],[1.492879,45.33077],[1.49283,45.33069],[1.492814,45.330278],[1.492391,45.329992],[1.491968,45.330095],[1.491497,45.330347],[1.490765,45.330621],[1.490488,45.330449],[1.490098,45.330461],[1.489789,45.330347],[1.489545,45.330106],[1.489025,45.329912],[1.488813,45.329489],[1.488521,45.329112],[1.488521,45.328769],[1.488748,45.328346],[1.488293,45.328197],[1.486878,45.327969],[1.486488,45.32782],[1.486,45.327809],[1.485886,45.328003],[1.485886,45.32822],[1.485756,45.328403],[1.485463,45.328506],[1.485089,45.328757],[1.484699,45.32878],[1.484179,45.328563],[1.483545,45.328529],[1.482634,45.328129],[1.481707,45.328014],[1.481528,45.327911],[1.481317,45.327648],[1.480585,45.327248],[1.480048,45.327225],[1.47852,45.327591],[1.476991,45.328071],[1.476471,45.328106],[1.476097,45.32806],[1.475853,45.327934],[1.475479,45.32798],[1.47504,45.327763],[1.475072,45.327557],[1.474893,45.327443],[1.474682,45.327088],[1.473348,45.326882],[1.471901,45.326482],[1.471218,45.326345],[1.47021,45.325853],[1.470047,45.325533],[1.469608,45.325488],[1.469641,45.325362],[1.470031,45.324973],[1.471023,45.324779],[1.471413,45.324824],[1.472047,45.325145],[1.472243,45.325099],[1.473186,45.325602],[1.473934,45.325716],[1.474682,45.325648],[1.476406,45.324939],[1.477056,45.324584],[1.477235,45.324253],[1.477528,45.32399],[1.47744,45.323719],[1.477455,45.32334],[1.477531,45.323137],[1.47747,45.322961],[1.47772,45.32239],[1.478365,45.321745],[1.479253,45.321014],[1.479814,45.320257],[1.480785,45.318779],[1.481286,45.317877],[1.482484,45.317259],[1.48107,45.316308],[1.481192,45.316149],[1.482308,45.316014],[1.482674,45.31572],[1.482865,45.315401],[1.48365,45.314997],[1.483894,45.314506],[1.484155,45.314433],[1.484242,45.314188],[1.484626,45.313894],[1.485584,45.31393],[1.486316,45.31333],[1.486508,45.312668],[1.486229,45.312496],[1.485393,45.312386],[1.484817,45.312129],[1.484347,45.311393],[1.483963,45.311075],[1.483057,45.310707],[1.482552,45.310278],[1.482569,45.309444],[1.482221,45.30893],[1.481959,45.308353],[1.481576,45.307888],[1.480321,45.307287],[1.47992,45.30649],[1.479432,45.305902],[1.478874,45.305767],[1.478404,45.305473],[1.47816,45.304921],[1.47816,45.304321],[1.478421,45.303928],[1.478177,45.30345],[1.478212,45.302874],[1.478316,45.302543],[1.478055,45.302384],[1.476992,45.302408],[1.476835,45.302286],[1.477323,45.302065],[1.477445,45.301857],[1.477375,45.301317],[1.477619,45.301244],[1.477741,45.301121],[1.47877,45.300618],[1.478839,45.30014],[1.479449,45.299478],[1.480077,45.298976],[1.480059,45.298718],[1.479728,45.298179],[1.480042,45.297701],[1.480216,45.297222],[1.481122,45.296511],[1.480861,45.296217],[1.480913,45.295947],[1.482011,45.295739],[1.482168,45.295383],[1.482569,45.295187],[1.482395,45.294734],[1.482587,45.294439],[1.48182,45.294182],[1.48161,45.293336],[1.481279,45.292796],[1.481314,45.29233],[1.48114,45.292196],[1.481053,45.290785],[1.480809,45.289608],[1.480896,45.288824],[1.480913,45.287965],[1.480495,45.286862],[1.480756,45.286432],[1.48053,45.286052],[1.480286,45.285145],[1.479972,45.284691],[1.479815,45.284372],[1.479519,45.284164],[1.47938,45.283759],[1.478717,45.283342],[1.478264,45.283342],[1.478107,45.283489],[1.477637,45.283624],[1.476417,45.28306],[1.475876,45.28306],[1.475406,45.282999],[1.474604,45.283269],[1.474308,45.283612],[1.474011,45.283673],[1.473419,45.283686],[1.473227,45.28409],[1.472147,45.28452],[1.471502,45.28409],[1.471205,45.283563],[1.471955,45.283355],[1.471903,45.283256],[1.470874,45.283183],[1.470979,45.283048],[1.471711,45.282508],[1.472059,45.282067],[1.472181,45.281748],[1.471223,45.282079],[1.470665,45.282079],[1.470369,45.282018],[1.470229,45.281846],[1.469881,45.281809],[1.469323,45.281957],[1.469253,45.281662],[1.469393,45.280902],[1.468643,45.280693],[1.468051,45.280853],[1.467789,45.281147],[1.46765,45.281478],[1.467615,45.282067],[1.467232,45.281478],[1.466953,45.280988],[1.466796,45.28089],[1.466622,45.280828],[1.466308,45.28154],[1.46643,45.282337],[1.466186,45.282202],[1.466029,45.281883],[1.465297,45.281454],[1.465175,45.281098],[1.465245,45.280755],[1.46521,45.280325],[1.465018,45.279823],[1.465035,45.279259],[1.465035,45.278866],[1.465541,45.278743],[1.465576,45.278584],[1.465349,45.27851],[1.464791,45.277725],[1.464757,45.276266],[1.464077,45.276278],[1.464129,45.276769],[1.463903,45.277272],[1.463885,45.277627],[1.463188,45.278106],[1.462578,45.278179],[1.46209,45.278523],[1.461585,45.278192],[1.461515,45.277652],[1.461253,45.277358],[1.460173,45.277002],[1.458883,45.275714],[1.456652,45.276266],[1.454404,45.278719],[1.45355,45.279602],[1.453393,45.280092],[1.453567,45.280473],[1.454229,45.281],[1.453968,45.280571],[1.454787,45.279982],[1.45538,45.279945],[1.455606,45.280203],[1.455659,45.281135],[1.455868,45.281858],[1.456687,45.283195],[1.456948,45.283318],[1.456931,45.284225],[1.456792,45.284728],[1.456896,45.285133],[1.457227,45.285635],[1.45721,45.286126],[1.457436,45.286506],[1.45768,45.286187],[1.458238,45.286028],[1.45897,45.286052],[1.459772,45.286923],[1.460277,45.28799],[1.46073,45.288591],[1.461166,45.289829],[1.461253,45.290307],[1.461619,45.290283],[1.462351,45.289952],[1.462683,45.289682],[1.463258,45.289535],[1.463815,45.289608],[1.464251,45.289866],[1.464652,45.290172],[1.465123,45.291092],[1.46514,45.291607],[1.465001,45.292232],[1.465105,45.293581],[1.464826,45.294329],[1.465123,45.294599],[1.465105,45.295629],[1.465785,45.295776],[1.465994,45.296107],[1.466395,45.296413],[1.466761,45.297075],[1.466622,45.297566],[1.465628,45.298559],[1.465977,45.298596],[1.465977,45.298828],[1.465802,45.299405],[1.466151,45.300103],[1.466186,45.300655],[1.465942,45.301084],[1.466569,45.30155],[1.466552,45.302163],[1.466273,45.30269],[1.466046,45.302899],[1.465907,45.30242],[1.465698,45.302469],[1.465279,45.302776],[1.46453,45.302825],[1.463955,45.302555],[1.463293,45.302531],[1.462805,45.302261],[1.461863,45.301844],[1.461741,45.301293],[1.460835,45.301084],[1.460608,45.300729],[1.459754,45.300385],[1.45972,45.300913],[1.459894,45.301268],[1.459859,45.301575],[1.458691,45.302531],[1.458674,45.30269],[1.458256,45.303156],[1.458221,45.303364],[1.458238,45.303671],[1.457837,45.304786],[1.457454,45.305166],[1.457419,45.305399],[1.457663,45.306662],[1.45721,45.306784],[1.456635,45.30665],[1.456147,45.306662],[1.455833,45.306907],[1.454961,45.307189],[1.454264,45.307189],[1.454526,45.306748],[1.45341,45.306294],[1.452382,45.306135],[1.451929,45.305902],[1.45172,45.305485],[1.451023,45.305681],[1.450412,45.305743],[1.450012,45.306],[1.449314,45.306012],[1.448722,45.306135],[1.44867,45.307348],[1.447763,45.307471],[1.444504,45.305252],[1.443981,45.304737],[1.442256,45.303855],[1.441332,45.304811],[1.442099,45.30573],[1.441646,45.305828],[1.440286,45.306576],[1.439589,45.306674],[1.438735,45.306968],[1.438752,45.307152],[1.439711,45.307593],[1.439728,45.307777],[1.439258,45.307888],[1.43884,45.308084],[1.437776,45.308304],[1.436922,45.308268],[1.435615,45.308795],[1.436086,45.309089],[1.4368,45.309297],[1.437829,45.309763],[1.438718,45.310633],[1.440042,45.311209],[1.440739,45.311847],[1.441402,45.313158],[1.442465,45.314237],[1.442691,45.314764],[1.442587,45.315744],[1.44295,45.316536],[1.442278,45.316759],[1.441587,45.317731],[1.441792,45.318401],[1.441568,45.318966],[1.440877,45.31911],[1.43899,45.31978],[1.438542,45.320095],[1.438,45.320214],[1.437907,45.320595],[1.438579,45.321067],[1.43914,45.321146],[1.439962,45.321028],[1.44041,45.321186],[1.440522,45.321396],[1.440615,45.321842],[1.44112,45.322919],[1.442073,45.323248],[1.4431,45.323169],[1.443399,45.323327],[1.44282,45.323944],[1.442558,45.324509],[1.442745,45.32485],[1.442427,45.325021],[1.442297,45.325467],[1.441288,45.325546],[1.441606,45.326295],[1.4414,45.326807],[1.442016,45.326846],[1.441979,45.327148],[1.442502,45.327267],[1.442689,45.328225],[1.442371,45.328856],[1.442502,45.329407],[1.442409,45.329919],[1.44211,45.330327],[1.441886,45.33051],[1.441699,45.330839],[1.441456,45.330957],[1.440858,45.330931],[1.440522,45.331246],[1.439644,45.33181],[1.440111,45.332401],[1.440914,45.332953],[1.442129,45.333478],[1.442091,45.33378],[1.441755,45.334476],[1.441325,45.334949],[1.440989,45.335317],[1.44097,45.335527],[1.441026,45.335999],[1.440858,45.336446],[1.44041,45.336406],[1.440373,45.33663],[1.441456,45.337037],[1.441587,45.337431],[1.441662,45.338337],[1.441886,45.338823],[1.442446,45.339269],[1.442558,45.339689],[1.442203,45.340385],[1.441979,45.34116],[1.442035,45.341711],[1.442353,45.342],[1.442894,45.342197],[1.443156,45.342473],[1.443399,45.343339],[1.443604,45.343746],[1.444333,45.343878],[1.444762,45.34414],[1.446462,45.344613],[1.447471,45.344508],[1.448181,45.344219],[1.448312,45.343707],[1.449769,45.342906],[1.45102,45.341764],[1.451207,45.340635],[1.451581,45.339965],[1.452048,45.339689],[1.452832,45.338954],[1.455578,45.337654],[1.456512,45.337313],[1.456904,45.337076],[1.459987,45.337864],[1.460229,45.338363],[1.460939,45.339125],[1.461761,45.340398],[1.464395,45.343169],[1.464806,45.343772],[1.466525,45.345007],[1.467403,45.345899],[1.467309,45.346661],[1.467832,45.347133],[1.468299,45.347265],[1.468654,45.34754],[1.470242,45.347961],[1.470559,45.348328],[1.470578,45.349129],[1.471942,45.350901],[1.471699,45.351479],[1.472297,45.352266],[1.472558,45.352792],[1.473436,45.354026],[1.473735,45.354314],[1.473847,45.354958],[1.474127,45.355404],[1.473791,45.356034],[1.473754,45.356638],[1.474146,45.35883],[1.473436,45.362597],[1.47254,45.364067],[1.47254,45.364382],[1.473231,45.365248],[1.473735,45.366088],[1.476761,45.367938],[1.477228,45.368043],[1.478256,45.367951],[1.481282,45.368201],[1.481562,45.368384],[1.481898,45.36929],[1.482216,45.369762],[1.482758,45.369972],[1.483187,45.369946],[1.483953,45.369697],[1.485149,45.369789],[1.48612,45.369999],[1.48668,45.369894],[1.487521,45.369513],[1.489221,45.3695],[1.489482,45.369644],[1.489837,45.370261],[1.490323,45.370274],[1.491107,45.370025],[1.491518,45.369238],[1.492228,45.368726],[1.492303,45.36824],[1.492714,45.367833],[1.493312,45.367728],[1.494246,45.368004],[1.494694,45.368555],[1.49531,45.368804],[1.496132,45.368686],[1.496487,45.368739],[1.496749,45.368017],[1.497216,45.367833],[1.497832,45.367768],[1.499233,45.367361],[1.49957,45.36765],[1.501083,45.368306],[1.502017,45.368962],[1.502166,45.369749],[1.502315,45.369999],[1.502409,45.370471],[1.503137,45.370589],[1.503567,45.370878],[1.503586,45.371626],[1.504314,45.372177],[1.504987,45.3724],[1.505678,45.372938],[1.506313,45.373279],[1.506873,45.374224],[1.507191,45.37446],[1.507677,45.374985],[1.5082,45.375458],[1.508536,45.375576],[1.508891,45.375996],[1.508966,45.376586],[1.509358,45.376835],[1.510012,45.377085],[1.510385,45.377163],[1.510535,45.378462],[1.510834,45.379748],[1.511469,45.379788],[1.511095,45.380431],[1.511151,45.380982],[1.511413,45.381454],[1.512664,45.38253],[1.512945,45.382526],[1.5135,45.382085],[1.513413,45.382016],[1.513007,45.381808],[1.512785,45.381306],[1.513011,45.380805],[1.512884,45.380547],[1.513333,45.38045],[1.513666,45.38049],[1.514264,45.380434],[1.514414,45.380345],[1.51445,45.380233],[1.514841,45.379793],[1.514873,45.37969],[1.514979,45.379627]]],"type":"MultiLineString"},"properties":{"geo_point":{"lon":1.4774402156551862,"lat":45.32782548568791},"name":"Tour des Gorges de la Vézère (Corrèze) (2020)","code_gr":null}}]}