{"type":"FeatureCollection","features":[{"type":"Feature","geometry":{"coordinates":[[[3.945331,47.185961],[3.94715,47.18534],[3.949983,47.186142],[3.952901,47.186478],[3.954811,47.186463],[3.956463,47.186638],[3.957879,47.186682],[3.958308,47.1869],[3.959446,47.187032],[3.961227,47.187717],[3.962235,47.187703],[3.963115,47.187921],[3.963866,47.188927],[3.964231,47.188913],[3.964767,47.188607],[3.966291,47.189117],[3.967685,47.190109],[3.967621,47.190867],[3.968329,47.19199],[3.968694,47.192325],[3.969252,47.193492],[3.970797,47.194031],[3.972234,47.195197],[3.97453,47.195985],[3.97511,47.195868],[3.975367,47.196145],[3.975196,47.196408],[3.975668,47.19683],[3.976676,47.197049],[3.977577,47.197734],[3.978285,47.197632],[3.979358,47.198216],[3.980217,47.19823],[3.981011,47.198507],[3.981547,47.199717],[3.98262,47.200869],[3.983113,47.201263],[3.983736,47.202196],[3.983864,47.202618],[3.984444,47.203027],[3.985045,47.203639],[3.98601,47.204062],[3.986482,47.204805],[3.987748,47.207225],[3.987534,47.207823],[3.986826,47.207954],[3.986353,47.208158],[3.985989,47.209076],[3.986053,47.209295],[3.98689,47.209922],[3.986568,47.210199],[3.985281,47.210403],[3.983371,47.210621],[3.982448,47.211015],[3.982062,47.21084],[3.980839,47.210986],[3.977942,47.211642],[3.97717,47.212108],[3.976183,47.212545],[3.976183,47.212545],[3.975582,47.212575],[3.975582,47.212575],[3.974434,47.212986],[3.972889,47.213905],[3.972889,47.213905],[3.973683,47.214575],[3.973854,47.215231],[3.973018,47.215858],[3.973082,47.217082],[3.972352,47.218204],[3.97173,47.21902],[3.971794,47.220245],[3.971558,47.220682],[3.970464,47.220784],[3.969493,47.221338],[3.968973,47.221673],[3.968372,47.221877],[3.965389,47.223276],[3.966398,47.22399],[3.967835,47.224849],[3.968222,47.224952],[3.968522,47.225433],[3.96848,47.226438],[3.967878,47.227269],[3.968973,47.228099],[3.970582,47.228653],[3.971483,47.228667],[3.971891,47.228981],[3.97187,47.229527],[3.973243,47.230839],[3.974273,47.231786],[3.972878,47.232085],[3.971741,47.232383],[3.971719,47.232631],[3.970475,47.232908],[3.969938,47.233942],[3.96938,47.233913],[3.968608,47.235195],[3.967814,47.235909],[3.966011,47.236667],[3.965732,47.237089],[3.965968,47.237555],[3.966204,47.237773],[3.96657,47.238531],[3.967471,47.239012],[3.96893,47.239653],[3.96893,47.239653],[3.968856,47.240145],[3.968191,47.240057],[3.967397,47.240174],[3.965723,47.240596],[3.9648,47.240989],[3.963663,47.24163],[3.96229,47.243306],[3.961431,47.244121],[3.961045,47.244544],[3.960788,47.245272],[3.960788,47.245607],[3.960058,47.245928],[3.958985,47.247137],[3.95832,47.247661],[3.955831,47.247996],[3.954629,47.248521],[3.953428,47.248783],[3.95302,47.24938],[3.951475,47.249511],[3.951132,47.24989],[3.950531,47.250385],[3.950316,47.25088],[3.94993,47.25123],[3.949866,47.251565],[3.949994,47.251929],[3.949758,47.252002],[3.9489,47.251798],[3.948063,47.251463],[3.947505,47.251506],[3.944909,47.252293],[3.943965,47.252803],[3.943386,47.252672],[3.942956,47.252861],[3.942613,47.25289],[3.942398,47.252978],[3.942248,47.253385],[3.94169,47.253604],[3.941669,47.254361],[3.94109,47.254871],[3.941776,47.255599],[3.942012,47.255759],[3.942398,47.255818],[3.942506,47.256546],[3.942828,47.257085],[3.943021,47.258628],[3.942828,47.258847],[3.94021,47.259852],[3.939223,47.260609],[3.938493,47.260842],[3.937871,47.260827],[3.937678,47.26122],[3.936927,47.261672],[3.936176,47.261949],[3.934931,47.261963],[3.934094,47.262051],[3.933858,47.26224],[3.933665,47.262953],[3.933322,47.263361],[3.932678,47.263842],[3.932185,47.264817],[3.932313,47.265735],[3.93315,47.266477],[3.933579,47.267162],[3.933515,47.268443],[3.933322,47.269229],[3.933515,47.269579],[3.933987,47.270015],[3.93388,47.271384],[3.934459,47.272403],[3.934996,47.273015],[3.936562,47.273932],[3.937249,47.274674],[3.937849,47.275533],[3.938407,47.275781],[3.939652,47.275985],[3.940296,47.276276],[3.940596,47.276596],[3.940167,47.276858],[3.939137,47.27696],[3.9383,47.277149],[3.937914,47.277513],[3.936455,47.278343],[3.935489,47.279115],[3.934287,47.279624],[3.933751,47.279988],[3.933515,47.280265],[3.933343,47.28025],[3.933021,47.279886],[3.932335,47.279741],[3.931906,47.279959],[3.932356,47.280381],[3.932335,47.280731],[3.931541,47.280527],[3.930811,47.280468],[3.930103,47.280468],[3.929331,47.279944],[3.929052,47.279391],[3.928258,47.278911],[3.927442,47.278518],[3.926455,47.278168],[3.925898,47.278052],[3.925447,47.277892],[3.924438,47.278867],[3.922979,47.279886],[3.922421,47.279653],[3.921606,47.279799],[3.920941,47.280148],[3.920533,47.281022],[3.919825,47.282303],[3.918988,47.283569],[3.918795,47.28469],[3.918366,47.285651],[3.918151,47.286276],[3.917787,47.286771],[3.918108,47.287121],[3.918602,47.287164],[3.919353,47.287426],[3.920319,47.28715],[3.921971,47.287383],[3.922164,47.287645],[3.922014,47.287994],[3.920791,47.288038],[3.920319,47.28878],[3.920276,47.289115],[3.920361,47.289915],[3.92152,47.28977],[3.922336,47.289784],[3.923172,47.290119],[3.923537,47.290468],[3.924095,47.292608],[3.92446,47.293263],[3.924868,47.293714],[3.925297,47.294616],[3.925726,47.295155],[3.926541,47.295562],[3.928022,47.295693],[3.929245,47.296814],[3.929631,47.297439],[3.931198,47.298865],[3.931348,47.299622],[3.930532,47.301194],[3.929824,47.301849],[3.929417,47.303245],[3.92903,47.303711],[3.928344,47.303886],[3.928387,47.304235],[3.928859,47.305501],[3.928344,47.305617],[3.928172,47.305806],[3.929545,47.306636],[3.930275,47.306752],[3.931541,47.307741],[3.932807,47.308469],[3.933064,47.309182],[3.933451,47.309749],[3.933365,47.310098],[3.934051,47.310986],[3.935511,47.31199],[3.936283,47.312848],[3.936476,47.313445],[3.936476,47.313837],[3.937442,47.314681],[3.937721,47.314798],[3.937721,47.315409],[3.938021,47.315801],[3.937785,47.316049],[3.938128,47.31618],[3.938729,47.316092],[3.939223,47.315787],[3.940188,47.315656],[3.940296,47.31583],[3.939888,47.316674],[3.94021,47.317925],[3.940446,47.318216],[3.941132,47.318493],[3.941411,47.318842],[3.94139,47.319234],[3.942184,47.319598],[3.94257,47.319627],[3.942935,47.319758],[3.943364,47.319802],[3.943536,47.319889],[3.944308,47.320194],[3.943986,47.320631],[3.944373,47.321285],[3.945081,47.321722],[3.945574,47.322275],[3.94596,47.322885],[3.947977,47.322929],[3.950059,47.322769],[3.950273,47.323453],[3.95096,47.324311],[3.951432,47.324762],[3.951947,47.325009],[3.952505,47.326216],[3.953363,47.326871],[3.954801,47.326943],[3.95581,47.327133],[3.95596,47.327743],[3.956282,47.327991],[3.956775,47.328805],[3.957612,47.32927],[3.958127,47.329707],[3.958856,47.330114],[3.959586,47.330754],[3.960401,47.331132],[3.961431,47.33119],[3.963105,47.331627],[3.963878,47.331597],[3.964693,47.331088],[3.964822,47.330841],[3.965487,47.330332],[3.966131,47.330332],[3.96656,47.330201],[3.966967,47.330187],[3.967289,47.330085],[3.968019,47.330623],[3.96862,47.330667],[3.969371,47.330885],[3.970079,47.330725],[3.970336,47.330972],[3.972139,47.331641],[3.971506,47.332132],[3.970948,47.332336],[3.970347,47.33238],[3.969961,47.333281],[3.969939,47.33379],[3.970519,47.33491],[3.970969,47.336131],[3.97127,47.337935],[3.972643,47.337586],[3.972793,47.3384],[3.972729,47.338749],[3.972364,47.339389],[3.972428,47.339927],[3.972278,47.340101],[3.972214,47.340756],[3.971956,47.341192],[3.971592,47.341657],[3.970798,47.342399],[3.97024,47.343664],[3.969875,47.343925],[3.96966,47.344318],[3.969403,47.344274],[3.968824,47.345001],[3.968373,47.34535],[3.967364,47.345728],[3.967086,47.345379],[3.966678,47.345379],[3.965412,47.346339],[3.965326,47.346659],[3.965154,47.346935],[3.965068,47.347458],[3.964489,47.348098],[3.964425,47.348999],[3.964146,47.349261],[3.963974,47.349537],[3.963416,47.34977],[3.963352,47.350555],[3.963073,47.350918],[3.962064,47.350991],[3.962021,47.351616],[3.96215,47.351762],[3.962,47.352343],[3.960219,47.352547],[3.95979,47.352329],[3.959125,47.352169],[3.957558,47.351427],[3.956679,47.351355],[3.955691,47.351776],[3.955885,47.352212],[3.955713,47.352474],[3.954876,47.352532],[3.953996,47.352794],[3.953245,47.352692],[3.951958,47.352895],[3.950542,47.353099],[3.949018,47.353535],[3.948224,47.353506],[3.947731,47.353579],[3.946958,47.353855],[3.945864,47.353884],[3.944297,47.354204],[3.943353,47.35464],[3.942023,47.354974],[3.940242,47.35512],[3.940049,47.354785],[3.938847,47.354349],[3.937109,47.355439],[3.936508,47.355556],[3.935993,47.355454],[3.935779,47.355759],[3.934942,47.35589],[3.933826,47.356297],[3.931895,47.357213],[3.930586,47.357416],[3.929577,47.358012],[3.928784,47.358332],[3.927882,47.358536],[3.927496,47.359277],[3.926981,47.35996],[3.92608,47.360585],[3.924235,47.361501],[3.923655,47.361661],[3.922604,47.362358],[3.922003,47.362533],[3.920758,47.362562],[3.919578,47.363041],[3.918012,47.362954],[3.917046,47.362751],[3.916338,47.362664],[3.915802,47.362518],[3.915115,47.36262],[3.914579,47.362823],[3.914321,47.362431],[3.91372,47.362344],[3.913162,47.361835],[3.912519,47.361399],[3.911961,47.361254],[3.910738,47.361515],[3.910566,47.361297],[3.910437,47.360541],[3.910051,47.360367],[3.909364,47.360382],[3.909279,47.359902],[3.909622,47.359539],[3.909622,47.359059],[3.909364,47.358666],[3.909064,47.358579],[3.907948,47.358797],[3.907262,47.358841],[3.907025,47.358725],[3.907047,47.358448],[3.906704,47.358347],[3.906382,47.357765],[3.905824,47.357373],[3.905073,47.35666],[3.903185,47.356631],[3.901511,47.35605],[3.900824,47.356341],[3.900052,47.355905],[3.899344,47.356631],[3.899172,47.357126],[3.89885,47.357097],[3.897799,47.357387],[3.897455,47.357693],[3.897112,47.358187],[3.896769,47.358347],[3.895567,47.358259],[3.895031,47.358347],[3.892992,47.359321],[3.892928,47.359539],[3.892284,47.359815],[3.892112,47.360643],[3.892735,47.361196],[3.891619,47.363187],[3.891361,47.364262],[3.891018,47.365004],[3.890975,47.365614],[3.89061,47.366893],[3.890803,47.368041],[3.89119,47.36871],[3.892177,47.369814],[3.895889,47.370526],[3.897648,47.371122],[3.89855,47.371631],[3.899151,47.372517],[3.898764,47.373796],[3.898163,47.374232],[3.898056,47.374886],[3.898271,47.375627],[3.898721,47.376252],[3.899065,47.378228],[3.899279,47.378576],[3.90106,47.379593],[3.901854,47.379492],[3.903142,47.379521],[3.903485,47.379695],[3.903399,47.379899],[3.902498,47.380683],[3.902455,47.380872],[3.902798,47.381584],[3.902648,47.381729],[3.902112,47.381773],[3.901489,47.381962],[3.901404,47.382151],[3.901468,47.382674],[3.901253,47.383444],[3.90179,47.383429],[3.902455,47.383575],[3.903485,47.383691],[3.904772,47.384127],[3.905888,47.384388],[3.906425,47.384751],[3.906553,47.385303],[3.906704,47.385536],[3.907562,47.386161],[3.907905,47.387294],[3.908699,47.387512],[3.908978,47.388122],[3.909429,47.388601],[3.91003,47.388369],[3.91121,47.388165],[3.911639,47.38834],[3.912111,47.388877],[3.912862,47.388979],[3.91357,47.388877],[3.913849,47.388587],[3.913892,47.387555],[3.913785,47.386858],[3.914021,47.386117],[3.914879,47.385332],[3.914793,47.384635],[3.915158,47.384214],[3.91563,47.383865],[3.917003,47.383647],[3.918248,47.383618],[3.9196,47.383429],[3.920029,47.383589],[3.920351,47.384315],[3.920286,47.384621],[3.920072,47.384838],[3.920415,47.384998],[3.920887,47.385463],[3.921359,47.385768],[3.922046,47.386567],[3.923076,47.386887],[3.924106,47.387047],[3.925028,47.38773],[3.925844,47.388325],[3.926402,47.388848],[3.926724,47.389531],[3.92696,47.390374],[3.927346,47.39078],[3.928848,47.391565],[3.930371,47.391754],[3.930736,47.393395],[3.931509,47.393322],[3.932152,47.393787],[3.932818,47.394034],[3.935414,47.394949],[3.936015,47.394775],[3.937688,47.394586],[3.938311,47.394746],[3.939469,47.395196],[3.940199,47.395109],[3.940821,47.394208],[3.941723,47.393918],[3.941594,47.393482],[3.942023,47.393075],[3.942087,47.392611],[3.941658,47.392349],[3.941723,47.392131],[3.942109,47.391986],[3.942366,47.391623],[3.942109,47.391158],[3.942216,47.39065],[3.942495,47.390068],[3.942409,47.388645],[3.942516,47.388151],[3.942924,47.387279],[3.94316,47.386102],[3.943654,47.385202],[3.944684,47.384345],[3.945349,47.383647],[3.945671,47.382892],[3.945842,47.382383],[3.948246,47.381628],[3.948525,47.381163],[3.949383,47.380858],[3.950306,47.380887],[3.950799,47.381134],[3.9511,47.381497],[3.951808,47.381729],[3.952516,47.382078],[3.953074,47.382078],[3.955198,47.382514],[3.956357,47.382892],[3.957258,47.382993],[3.958073,47.38324],[3.958481,47.383749],[3.958996,47.384301],[3.959189,47.385318],[3.960798,47.385972],[3.961335,47.386102],[3.962365,47.386771],[3.962923,47.38741],[3.963781,47.388093],[3.964468,47.388383],[3.965648,47.388732],[3.966764,47.389255],[3.968201,47.3894],[3.96906,47.389618],[3.970712,47.390475],[3.971527,47.39062],[3.972493,47.391071],[3.973501,47.391986],[3.974596,47.392756],[3.975003,47.392727],[3.975261,47.392916],[3.975518,47.393468],[3.976184,47.393802],[3.976656,47.393787],[3.977321,47.393932],[3.978201,47.395341],[3.979552,47.396503],[3.981655,47.3963],[3.98335,47.396402],[3.985453,47.395835],[3.986247,47.395952],[3.986719,47.395922],[3.986912,47.395792],[3.988844,47.39553],[3.989852,47.395559],[3.990667,47.395734],[3.991354,47.395676],[3.991762,47.395501],[3.99217,47.394848],[3.992448,47.394601],[3.992792,47.394484],[3.993521,47.394572],[3.994294,47.394601],[3.996354,47.394891],[3.997727,47.394819],[4.000774,47.394296],[4.002684,47.393845],[4.003628,47.393453],[4.005323,47.392509],[4.006589,47.391695],[4.007984,47.391274],[4.009121,47.391013],[4.010301,47.390998],[4.011181,47.390882],[4.012104,47.391013],[4.012812,47.390562],[4.013069,47.389938],[4.01382,47.390097],[4.0144,47.389836],[4.015086,47.389647],[4.01588,47.389647],[4.016309,47.389734],[4.017532,47.390374],[4.018391,47.39033],[4.023283,47.390214],[4.025643,47.3894],[4.027124,47.389763],[4.028454,47.38956],[4.029742,47.38972],[4.030858,47.389516],[4.031823,47.389124],[4.032789,47.388979],[4.034119,47.389269],[4.035278,47.389371],[4.03663,47.389168],[4.037617,47.388688],[4.038733,47.388543],[4.040836,47.388151],[4.041179,47.387323],[4.041544,47.386916],[4.041587,47.385797],[4.043174,47.385696],[4.04547,47.385289],[4.049762,47.386277],[4.050964,47.386713],[4.052423,47.38619],[4.053238,47.385623],[4.053925,47.385347],[4.054526,47.38542],[4.053581,47.383676],[4.053474,47.382659],[4.054118,47.381802],[4.054311,47.381076],[4.054225,47.379521],[4.05386,47.378823],[4.052766,47.378053],[4.051479,47.377574],[4.048346,47.375496],[4.047874,47.374944],[4.046908,47.37413],[4.045664,47.373549],[4.044676,47.372851],[4.044634,47.372604],[4.045427,47.371747],[4.045642,47.37118],[4.045106,47.370323],[4.044891,47.369567],[4.045084,47.368913],[4.046114,47.367925],[4.046522,47.367373],[4.047938,47.366399],[4.048839,47.365919],[4.049462,47.365062],[4.050406,47.364466],[4.051479,47.364117],[4.052723,47.363986],[4.053174,47.363754],[4.054268,47.362228],[4.055212,47.361341],[4.055663,47.360716],[4.055877,47.359931],[4.056392,47.359509],[4.056585,47.359161],[4.056972,47.35871],[4.057208,47.358303],[4.057208,47.357969],[4.057637,47.358201],[4.058066,47.359132],[4.058839,47.359916],[4.060169,47.359233],[4.059954,47.358259],[4.061435,47.359044],[4.063409,47.358056],[4.063752,47.35746],[4.064224,47.3573],[4.064632,47.35653],[4.064632,47.355832],[4.064203,47.355672],[4.06446,47.355512],[4.064868,47.355425],[4.066306,47.354742],[4.066971,47.354538],[4.067701,47.353608],[4.067979,47.352939],[4.068151,47.351544],[4.068602,47.350758],[4.069052,47.35038],[4.068859,47.35009],[4.068773,47.349319],[4.067486,47.348738],[4.06695,47.348578],[4.066327,47.34788],[4.066198,47.347487],[4.06549,47.347168],[4.065147,47.346717],[4.06489,47.346528],[4.064847,47.34599],[4.063817,47.345161],[4.063237,47.344899],[4.062658,47.343664],[4.061714,47.343794],[4.061306,47.343707],[4.059868,47.344085],[4.059311,47.342777],[4.05901,47.342297],[4.059032,47.341948],[4.059568,47.341032],[4.059761,47.34029],[4.059783,47.33968],[4.060577,47.337935],[4.061392,47.337775],[4.063173,47.336539],[4.064096,47.336015],[4.06431,47.336015],[4.06534,47.335448],[4.066585,47.335186],[4.067658,47.33475],[4.067937,47.334328],[4.068731,47.334474],[4.069245,47.334765],[4.069696,47.335622],[4.072786,47.338153],[4.073451,47.338124],[4.074031,47.337862],[4.074503,47.336859],[4.074889,47.336248],[4.075275,47.335957],[4.075618,47.33603],[4.07609,47.336568],[4.078429,47.33635],[4.078451,47.335942],[4.078987,47.335739],[4.079502,47.335521],[4.08006,47.335346],[4.080403,47.335041],[4.080682,47.335012],[4.080768,47.334663],[4.081154,47.334299],[4.082871,47.333994],[4.084073,47.333368],[4.085038,47.333049],[4.085618,47.333005],[4.087356,47.333877],[4.087957,47.334735],[4.088557,47.334881],[4.089094,47.334823],[4.089695,47.334575],[4.09051,47.334488],[4.091154,47.334648],[4.091712,47.334532],[4.092076,47.334561],[4.092978,47.334314],[4.0936,47.333427],[4.094265,47.333194],[4.094587,47.332569],[4.095081,47.332307],[4.095703,47.332147],[4.096175,47.331754],[4.096819,47.330591],[4.097055,47.330358],[4.097269,47.330038],[4.09787,47.329791],[4.09787,47.329515],[4.097248,47.328831],[4.097462,47.328307],[4.097977,47.327711],[4.098728,47.327173],[4.099415,47.326998],[4.100059,47.326606],[4.101303,47.326417],[4.102848,47.325733],[4.103599,47.325515],[4.104522,47.32502],[4.10611,47.32454],[4.107762,47.32438],[4.107912,47.323959],[4.10729,47.322766],[4.106217,47.322635],[4.105681,47.322402],[4.101239,47.318038],[4.099265,47.318388],[4.098514,47.318329],[4.097591,47.317835],[4.096862,47.317631],[4.096325,47.317646],[4.095102,47.318082],[4.094716,47.317849],[4.093793,47.316235],[4.093686,47.314605],[4.093385,47.314125],[4.091712,47.312889],[4.090446,47.31251],[4.089931,47.312758],[4.089287,47.312539],[4.088708,47.312627],[4.08845,47.312889],[4.087442,47.31315],[4.086583,47.312918],[4.085038,47.312976],[4.084523,47.313107],[4.084137,47.313107],[4.084008,47.313267],[4.083257,47.313529],[4.081197,47.313325],[4.080382,47.31331],[4.078665,47.311812],[4.078601,47.311448],[4.077893,47.310023],[4.078022,47.309222],[4.07755,47.307855],[4.077764,47.306341],[4.077657,47.305832],[4.078129,47.304872],[4.078537,47.303548],[4.078408,47.303257],[4.078558,47.302486],[4.079095,47.30154],[4.080189,47.299139],[4.080597,47.298528],[4.081112,47.297014],[4.081197,47.296374],[4.081541,47.295923],[4.081884,47.294744],[4.082657,47.293914],[4.083322,47.292896],[4.084824,47.291979],[4.08594,47.290902],[4.086648,47.289941],[4.087549,47.28901],[4.088042,47.288136],[4.088622,47.287787],[4.089265,47.286841],[4.089437,47.285968],[4.08948,47.285094],[4.089673,47.284701],[4.088987,47.283784],[4.088622,47.283551],[4.088493,47.283115],[4.088686,47.281994],[4.088815,47.281674],[4.087978,47.280946],[4.088407,47.280334],[4.088386,47.279868],[4.087999,47.27965],[4.087506,47.279825],[4.086819,47.280436],[4.086047,47.280524],[4.084867,47.280087],[4.083601,47.279985],[4.081562,47.279999],[4.081326,47.279839],[4.079738,47.279097],[4.079202,47.279039],[4.078944,47.278806],[4.079652,47.278485],[4.079502,47.278238],[4.078987,47.27783],[4.078901,47.277132],[4.079459,47.276564],[4.079717,47.276142],[4.080167,47.275763],[4.081305,47.27454],[4.082184,47.274118],[4.083365,47.273244],[4.083558,47.272749],[4.084824,47.272371],[4.088257,47.27173],[4.0886,47.27192],[4.089351,47.271978],[4.089652,47.272196],[4.090124,47.272123],[4.090553,47.272924],[4.091283,47.273157],[4.092141,47.274322],[4.093321,47.274234],[4.094973,47.274293],[4.096089,47.274016],[4.097334,47.273608],[4.098256,47.273929],[4.098642,47.274351],[4.098514,47.274802],[4.098557,47.275021],[4.099329,47.275152],[4.099844,47.275414],[4.100402,47.27588],[4.100981,47.275952],[4.101368,47.27569],[4.102054,47.274861],[4.102526,47.275123],[4.103664,47.274642],[4.105273,47.274395],[4.106775,47.274555],[4.110037,47.274919],[4.111324,47.274686],[4.113234,47.274278],[4.114607,47.274147],[4.115787,47.274293],[4.116603,47.274147],[4.117203,47.27422],[4.118169,47.274467],[4.119242,47.274307],[4.12113,47.273696],[4.121752,47.273841],[4.123061,47.273914],[4.123855,47.274118],[4.12613,47.273841],[4.126795,47.273463],[4.128018,47.273463],[4.12849,47.273987],[4.129048,47.274264],[4.129971,47.274584],[4.131086,47.274526],[4.131838,47.274773],[4.132825,47.275588],[4.133597,47.275865],[4.134563,47.276593],[4.135249,47.276724],[4.136151,47.276273],[4.136601,47.276287],[4.137524,47.276447],[4.138125,47.276113],[4.138725,47.275152],[4.139305,47.275021],[4.140721,47.275472],[4.141451,47.27537],[4.141944,47.275341],[4.141493,47.274992],[4.141279,47.274074],[4.140742,47.273172],[4.140185,47.27256],[4.139584,47.272138],[4.139305,47.271454],[4.139476,47.271206],[4.140206,47.270624],[4.140614,47.270158],[4.140635,47.269517],[4.140528,47.269066],[4.140828,47.268294],[4.141021,47.267755],[4.141408,47.267508],[4.141966,47.267391],[4.143553,47.268221],[4.144476,47.268382],[4.145442,47.268571],[4.146,47.268338],[4.147373,47.268687],[4.14851,47.267217],[4.149089,47.266925],[4.149991,47.266692],[4.150141,47.266591],[4.150119,47.266241],[4.149411,47.266139],[4.149991,47.264829],[4.150892,47.263504],[4.151557,47.263081],[4.1519,47.262339],[4.151836,47.261377],[4.150956,47.261159],[4.148381,47.259834],[4.148017,47.259339],[4.148038,47.258436],[4.147931,47.257999],[4.148274,47.256426],[4.147802,47.255654],[4.147673,47.254911],[4.14733,47.254693],[4.146236,47.254504],[4.145678,47.254562],[4.145055,47.254416],[4.144519,47.254416],[4.143897,47.254518],[4.142588,47.2543],[4.141708,47.254576],[4.141,47.254606],[4.141708,47.254052],[4.14218,47.253528],[4.142824,47.253076],[4.143553,47.25229],[4.143682,47.251532],[4.143253,47.250906],[4.143768,47.249989],[4.143961,47.249289],[4.144948,47.248838],[4.145463,47.248153],[4.145892,47.247702],[4.145742,47.246988],[4.146171,47.246813],[4.145914,47.246172],[4.144819,47.24508],[4.144626,47.244614],[4.144798,47.24355],[4.145356,47.243113],[4.145291,47.242734],[4.145013,47.24221],[4.145055,47.241686],[4.144433,47.240899],[4.14394,47.239967],[4.143575,47.239602],[4.144047,47.239311],[4.145034,47.239063],[4.145914,47.239092],[4.148081,47.238874],[4.14866,47.238641],[4.149068,47.238568],[4.151858,47.239136],[4.155999,47.240316],[4.156535,47.23985],[4.156943,47.239675],[4.15823,47.238539],[4.158552,47.237912],[4.159411,47.23781],[4.159754,47.237883],[4.160762,47.237577],[4.161041,47.237359],[4.161878,47.237504],[4.162286,47.237825],[4.162887,47.237869],[4.163509,47.238073],[4.164324,47.237402],[4.165054,47.237126],[4.166148,47.236893],[4.166921,47.237111],[4.16765,47.236383],[4.167822,47.236426],[4.1675,47.236761],[4.167586,47.236878],[4.169753,47.236455],[4.170311,47.236004],[4.171127,47.236091],[4.171706,47.235902],[4.172049,47.235625],[4.172049,47.235625],[4.172128,47.235152],[4.172879,47.235166],[4.173115,47.234992],[4.172836,47.234861],[4.17245,47.234802],[4.171999,47.234423],[4.171462,47.234307],[4.170497,47.234351],[4.170175,47.233491],[4.170411,47.232529],[4.169939,47.232617],[4.169274,47.232835],[4.168652,47.232777],[4.167901,47.232471],[4.165647,47.231626],[4.164961,47.231233],[4.16495,47.230632],[4.165744,47.230588],[4.166259,47.230253],[4.165959,47.229758],[4.16598,47.229452],[4.167289,47.229233],[4.168147,47.229189],[4.168598,47.228927],[4.168941,47.228373],[4.168469,47.228257],[4.168297,47.227266],[4.167439,47.225867],[4.167482,47.223565],[4.167675,47.222472],[4.167568,47.221889],[4.166452,47.221364],[4.165851,47.22081],[4.165401,47.21998],[4.164328,47.219586],[4.164049,47.21877],[4.164156,47.218362],[4.164049,47.218041],[4.165572,47.217575],[4.166366,47.217429],[4.167546,47.216832],[4.168104,47.216263],[4.169478,47.216278],[4.170336,47.216074],[4.170379,47.215913],[4.169907,47.21568],[4.168169,47.214135],[4.167804,47.213508],[4.166989,47.212692],[4.167439,47.211934],[4.167911,47.211716],[4.167933,47.21138],[4.167096,47.210127],[4.16628,47.209719],[4.165444,47.208859],[4.165229,47.208305],[4.163834,47.207576],[4.163598,47.206701],[4.162976,47.20641],[4.162676,47.205958],[4.162869,47.205564],[4.162525,47.204631],[4.163663,47.204704],[4.164864,47.204296],[4.164778,47.203975],[4.165293,47.204194],[4.165765,47.203902],[4.166238,47.204077],[4.166452,47.204019],[4.166474,47.203815],[4.16583,47.203159],[4.16583,47.203159],[4.165959,47.202882],[4.166645,47.202999],[4.167847,47.202999],[4.168362,47.203334],[4.170229,47.20364],[4.170872,47.203567],[4.172031,47.202867],[4.172782,47.202838],[4.17467,47.202357],[4.175936,47.201278],[4.176494,47.201278],[4.17673,47.200345],[4.177138,47.199747],[4.176881,47.198946],[4.176087,47.198916],[4.170701,47.197925],[4.170036,47.197721],[4.1704,47.197138],[4.170572,47.196482],[4.170765,47.19584],[4.170808,47.194746],[4.172546,47.193536],[4.171817,47.19272],[4.171902,47.192341],[4.172374,47.191918],[4.172718,47.191057],[4.173276,47.190533],[4.173125,47.189935],[4.172332,47.190153],[4.171602,47.189803],[4.171302,47.189381],[4.170465,47.187149],[4.169778,47.18626],[4.169027,47.185677],[4.167933,47.184947],[4.165959,47.184116],[4.164478,47.183795],[4.164972,47.183431],[4.165358,47.182862],[4.166023,47.182424],[4.166388,47.181914],[4.166366,47.181403],[4.166688,47.181039],[4.167375,47.180528],[4.167568,47.179858],[4.167396,47.178341],[4.167096,47.177203],[4.166667,47.176853],[4.166023,47.175803],[4.164328,47.173936],[4.163083,47.172244],[4.16259,47.171762],[4.162268,47.171733],[4.160337,47.172433],[4.160058,47.173017],[4.159457,47.173134],[4.157783,47.172842],[4.157118,47.172827],[4.155273,47.17236],[4.154329,47.171952],[4.152988,47.170925],[4.152602,47.169364],[4.152108,47.168722],[4.151765,47.168182],[4.151786,47.167395],[4.152258,47.166242],[4.151615,47.165979],[4.151078,47.165513],[4.150349,47.165469],[4.149104,47.165498],[4.148332,47.165367],[4.147752,47.165381],[4.146636,47.165031],[4.14625,47.164579],[4.145757,47.164127],[4.145027,47.163864],[4.146079,47.162405],[4.146486,47.161077],[4.146872,47.160611],[4.145993,47.160844],[4.145649,47.161019],[4.145006,47.161121],[4.143847,47.160713],[4.143246,47.16029],[4.142302,47.160071],[4.13977,47.159049],[4.137646,47.158583],[4.136551,47.158553],[4.135908,47.158918],[4.134878,47.159239],[4.134663,47.159049],[4.136187,47.157532],[4.136852,47.157357],[4.138246,47.156627],[4.141251,47.155402],[4.141808,47.155445],[4.142538,47.155022],[4.142774,47.15473],[4.143547,47.154278],[4.142152,47.154161],[4.142023,47.153855],[4.14153,47.153446],[4.139985,47.152936],[4.139985,47.152381],[4.140349,47.152075],[4.141036,47.151943],[4.141143,47.151564],[4.139448,47.150703],[4.138912,47.150134],[4.138976,47.149609],[4.138719,47.149025],[4.13889,47.148164],[4.139706,47.147244],[4.140821,47.1465],[4.143675,47.145522],[4.144619,47.144939],[4.144748,47.144486],[4.143976,47.144442],[4.143568,47.144296],[4.144684,47.143465],[4.144555,47.142968],[4.143933,47.142472],[4.14316,47.142166],[4.141551,47.141013],[4.140736,47.140181],[4.139899,47.138984],[4.139899,47.138502],[4.140306,47.137845],[4.140564,47.13767],[4.1408,47.137378],[4.140585,47.136736],[4.140693,47.1364],[4.141594,47.135685],[4.141315,47.135101],[4.141379,47.134765],[4.141808,47.134546],[4.143547,47.134955],[4.144147,47.134926],[4.144555,47.134503],[4.143461,47.134152],[4.142946,47.134094],[4.140435,47.133583],[4.138826,47.133583],[4.137152,47.13313],[4.134835,47.132853],[4.133891,47.132532],[4.133161,47.13186],[4.132796,47.131773],[4.132582,47.131349],[4.131831,47.130868],[4.130629,47.130736],[4.129706,47.130795],[4.127196,47.130649],[4.122175,47.130795],[4.121939,47.129846],[4.121831,47.129087],[4.121359,47.128955],[4.120372,47.128328],[4.119428,47.127977],[4.118763,47.127452],[4.118355,47.126357],[4.117948,47.125714],[4.117733,47.12497],[4.117111,47.123919],[4.116209,47.12297],[4.11533,47.120925],[4.115051,47.120575],[4.114922,47.120137],[4.114493,47.119509],[4.114428,47.119232],[4.114128,47.118954],[4.114021,47.118107],[4.114364,47.117655],[4.114128,47.117085],[4.114557,47.116516],[4.114707,47.115829],[4.114386,47.11488],[4.11357,47.114209],[4.113077,47.113727],[4.112369,47.113478],[4.111832,47.112617],[4.111639,47.111507],[4.111145,47.110791],[4.111703,47.110251],[4.111746,47.109156],[4.111124,47.108688],[4.110824,47.108031],[4.110716,47.106731],[4.110974,47.105943],[4.111167,47.105432],[4.110588,47.105052],[4.11106,47.104088],[4.111274,47.10273],[4.111017,47.102423],[4.111145,47.102116],[4.111639,47.101853],[4.112411,47.101342],[4.113999,47.099838],[4.114364,47.099487],[4.114557,47.098917],[4.115416,47.097617],[4.116274,47.096814],[4.117025,47.095499],[4.117905,47.094564],[4.118205,47.093425],[4.11887,47.092431],[4.1199,47.091526],[4.120565,47.090868],[4.121338,47.090503],[4.120372,47.090284],[4.119557,47.089919],[4.118312,47.0891],[4.117862,47.088472],[4.117132,47.088019],[4.116424,47.087669],[4.114085,47.086777],[4.109558,47.085433],[4.107541,47.084776],[4.105867,47.083344],[4.104644,47.081737],[4.10385,47.08143],[4.103163,47.081065],[4.102841,47.080509],[4.102584,47.079896],[4.101897,47.079676],[4.101661,47.07937],[4.101339,47.078493],[4.100867,47.078186],[4.100481,47.077806],[4.101017,47.077061],[4.101532,47.076812],[4.102069,47.076023],[4.10267,47.075804],[4.104794,47.075351],[4.106425,47.074825],[4.107326,47.074357],[4.108399,47.073495],[4.109257,47.072004],[4.109858,47.071595],[4.111017,47.07104],[4.112304,47.070894],[4.113399,47.070938],[4.114085,47.070864],[4.116295,47.07028],[4.117025,47.06971],[4.117905,47.069198],[4.118656,47.069023],[4.11872,47.068307],[4.118441,47.067561],[4.117969,47.066977],[4.117948,47.065501],[4.11769,47.065121],[4.117883,47.064551],[4.118269,47.064507],[4.119385,47.06477],[4.118999,47.063571],[4.119085,47.063147],[4.118892,47.061861],[4.118913,47.061145],[4.118634,47.061013],[4.118076,47.061276],[4.116832,47.061466],[4.116682,47.061159],[4.116875,47.060721],[4.117089,47.060092],[4.116703,47.059639],[4.116445,47.059215],[4.115909,47.059113],[4.114064,47.058543],[4.112712,47.057856],[4.110845,47.056409],[4.109901,47.05616],[4.108528,47.055444],[4.107305,47.055444],[4.104815,47.054903],[4.104086,47.054874],[4.103013,47.054581],[4.103013,47.054581],[4.101189,47.053909],[4.099301,47.054289],[4.093293,47.053236],[4.090782,47.052535],[4.090417,47.052008],[4.090353,47.051277],[4.090095,47.050941],[4.088765,47.049684],[4.08795,47.04907],[4.087156,47.04828],[4.084903,47.047315],[4.085289,47.046789],[4.08516,47.04578],[4.085225,47.045531],[4.086684,47.045692],[4.086898,47.045063],[4.087499,47.044478],[4.088014,47.044142],[4.088336,47.043426],[4.08943,47.043089],[4.090031,47.042665],[4.090374,47.042051],[4.090696,47.041759],[4.09104,47.041101],[4.092134,47.040677],[4.092434,47.039785],[4.093378,47.038308],[4.093808,47.037796],[4.094151,47.036992],[4.094258,47.036187],[4.094151,47.035895],[4.094301,47.035427],[4.095074,47.035807],[4.096297,47.036056],[4.096297,47.036056],[4.097777,47.036524],[4.098335,47.036787],[4.099172,47.036948],[4.100138,47.036684],[4.100932,47.035675],[4.100889,47.034988],[4.101146,47.034579],[4.101876,47.033833],[4.101983,47.033452],[4.101618,47.032941],[4.102884,47.033511],[4.105459,47.033335],[4.108485,47.033204],[4.110158,47.032867],[4.11445,47.032677],[4.114321,47.031259],[4.113162,47.030454],[4.113184,47.030206],[4.114815,47.028992],[4.115373,47.02649],[4.116896,47.02671],[4.118033,47.026549],[4.118741,47.026359],[4.117475,47.025481],[4.116982,47.024457],[4.117218,47.02396],[4.118441,47.0226],[4.11887,47.021737],[4.119042,47.02083],[4.119686,47.019967],[4.119557,47.019615],[4.118827,47.018972],[4.11696,47.018416],[4.116059,47.018416],[4.115952,47.018123],[4.116102,47.017582],[4.11666,47.017085],[4.116403,47.016514],[4.115094,47.016338],[4.1146,47.016426],[4.112776,47.016207],[4.112519,47.0159],[4.112154,47.015856],[4.11166,47.01609],[4.110759,47.015943],[4.109901,47.015417],[4.108463,47.015402],[4.107841,47.015139],[4.10724,47.0141],[4.107369,47.013325],[4.105717,47.013032],[4.105202,47.01252],[4.10518,47.011906],[4.105652,47.011101],[4.105416,47.010369],[4.105781,47.009784],[4.105652,47.008891],[4.104086,47.008672],[4.104043,47.007926],[4.104386,47.008204],[4.104773,47.008292],[4.10503,47.007911],[4.106275,47.008072],[4.107133,47.008248],[4.107541,47.008628],[4.107884,47.010735],[4.10812,47.011145],[4.108742,47.011262],[4.109343,47.011086],[4.110244,47.010194],[4.110781,47.009521],[4.112819,47.008687],[4.113656,47.008584],[4.114815,47.008716],[4.115716,47.008731],[4.116445,47.008379],[4.116746,47.007955],[4.118784,47.007136],[4.119407,47.006448],[4.120544,47.006331],[4.118806,47.005321],[4.118162,47.004297],[4.118162,47.003756],[4.118505,47.003024],[4.11887,47.001663],[4.119664,47.000712],[4.120394,46.999292],[4.119857,46.998443],[4.119192,46.997931],[4.117733,46.997302],[4.116939,46.997317],[4.116467,46.996248],[4.116531,46.995765],[4.117626,46.995663],[4.118913,46.995751],[4.120093,46.99556],[4.121359,46.995048],[4.122303,46.994346],[4.122883,46.993746],[4.123827,46.993453],[4.124664,46.992853],[4.124814,46.992223],[4.125415,46.991155],[4.126101,46.988945],[4.12608,46.988418],[4.126252,46.98811],[4.126938,46.987745],[4.127067,46.987466],[4.126209,46.985739],[4.125393,46.984861],[4.124385,46.983763],[4.124106,46.983265],[4.123784,46.98306],[4.123484,46.98268],[4.123805,46.982299],[4.124084,46.981801],[4.123355,46.980982],[4.123312,46.980703],[4.122883,46.980396],[4.121445,46.979796],[4.121724,46.979474],[4.121982,46.979298],[4.122089,46.979078],[4.121638,46.978727],[4.120608,46.978215],[4.119428,46.977966],[4.118591,46.977483],[4.118527,46.976692],[4.119729,46.976502],[4.119471,46.976311],[4.118484,46.976209],[4.116381,46.975579],[4.114557,46.975228],[4.113742,46.974921],[4.113334,46.974423],[4.113399,46.973954],[4.112519,46.973076],[4.111403,46.972344],[4.111081,46.971246],[4.110695,46.97088],[4.109772,46.970001],[4.109171,46.969562],[4.107583,46.969386],[4.106618,46.969152],[4.10621,46.968698],[4.10473,46.96842],[4.10297,46.968376],[4.10297,46.968376],[4.102498,46.969005],[4.10194,46.969401],[4.100889,46.969708],[4.099966,46.969781],[4.099065,46.970191],[4.098786,46.97148],[4.097627,46.972153],[4.094623,46.973281],[4.093314,46.973676],[4.090761,46.974584],[4.089066,46.974423],[4.087478,46.973954],[4.086791,46.974027],[4.086169,46.971597],[4.083701,46.969093],[4.082521,46.968537],[4.081233,46.968112],[4.080504,46.967526],[4.080525,46.966999],[4.080268,46.966955],[4.079388,46.967746],[4.078959,46.967819],[4.078144,46.967644],[4.077285,46.967087],[4.07692,46.966399],[4.076556,46.964847],[4.076642,46.964481],[4.075912,46.964671],[4.073981,46.963748],[4.073959,46.96306],[4.073509,46.962855],[4.073208,46.96243],[4.073165,46.961215],[4.072758,46.960014],[4.072672,46.959106],[4.071749,46.958462],[4.070698,46.958154],[4.069088,46.958139],[4.068123,46.957993],[4.067951,46.957803],[4.067243,46.957641],[4.065956,46.957612],[4.06484,46.957861],[4.063939,46.958213],[4.06278,46.95896],[4.062479,46.958945],[4.061342,46.958608],[4.060441,46.958842],[4.05999,46.958623],[4.059497,46.95855],[4.059132,46.95833],[4.059218,46.957671],[4.05896,46.957158],[4.058102,46.95666],[4.05557,46.956528],[4.052888,46.957202],[4.051407,46.957158],[4.048532,46.957363],[4.047523,46.958008],[4.047202,46.957612],[4.046622,46.957436],[4.046279,46.957173],[4.046107,46.957378],[4.046472,46.957949],[4.046172,46.958198],[4.045206,46.957436],[4.043747,46.956074],[4.042309,46.955547],[4.040957,46.955342],[4.039112,46.95603],[4.03776,46.957583],[4.035808,46.959077],[4.03437,46.95956],[4.033576,46.959589],[4.032224,46.959326],[4.031387,46.959194],[4.030143,46.958198],[4.029993,46.957627],[4.030078,46.95688],[4.03055,46.956411],[4.031237,46.956074],[4.031623,46.955781],[4.031645,46.955474],[4.031044,46.955283],[4.029885,46.955327],[4.029349,46.955122],[4.029134,46.954683],[4.029413,46.954317],[4.030057,46.953174],[4.029778,46.952501],[4.029778,46.951461],[4.029435,46.950596],[4.029606,46.949849],[4.028727,46.94878],[4.028297,46.947989],[4.027782,46.947857],[4.028018,46.94752],[4.029306,46.947183],[4.029799,46.94692],[4.029821,46.946041],[4.029692,46.945572],[4.030765,46.943975],[4.031602,46.943931],[4.031838,46.944268],[4.032482,46.944473],[4.032954,46.94355],[4.033619,46.942803],[4.03422,46.941763],[4.034434,46.940796],[4.034069,46.939522],[4.034456,46.939199],[4.034306,46.938833],[4.034327,46.938394],[4.032739,46.937265],[4.033533,46.936855],[4.036258,46.936196],[4.037245,46.93561],[4.037717,46.935156],[4.039134,46.934848],[4.042417,46.934496],[4.043103,46.934276],[4.043511,46.933749],[4.043425,46.933705],[4.043768,46.933119],[4.044112,46.93265],[4.041451,46.932928],[4.04188,46.932167],[4.042653,46.931229],[4.042588,46.930775],[4.041601,46.930481],[4.041258,46.930232],[4.039885,46.929969],[4.038876,46.929353],[4.038297,46.928723],[4.037653,46.928503],[4.036194,46.927565],[4.036022,46.926657],[4.035979,46.925763],[4.036172,46.924385],[4.036451,46.923023],[4.036237,46.92207],[4.035421,46.922099],[4.034799,46.922378],[4.033962,46.921747],[4.033404,46.921542],[4.032761,46.92163],[4.031731,46.921513],[4.030465,46.921205],[4.028941,46.920355],[4.028555,46.920033],[4.028126,46.920106],[4.027139,46.919769],[4.026001,46.919109],[4.025272,46.91949],[4.023984,46.918758],[4.023577,46.919271],[4.023148,46.918948],[4.022783,46.918377],[4.022418,46.918069],[4.021924,46.916867],[4.021088,46.916632],[4.019242,46.915372],[4.019242,46.914903],[4.018105,46.912807],[4.016903,46.912572],[4.016281,46.912177],[4.015981,46.911356],[4.015144,46.91055],[4.015079,46.909758],[4.014071,46.90926],[4.014028,46.908966],[4.013706,46.908908],[4.012547,46.90775],[4.012118,46.907061],[4.011153,46.906782],[4.011067,46.906284],[4.010573,46.905741],[4.010608,46.905392],[4.010608,46.905392],[4.011703,46.904249],[4.011724,46.903692],[4.011016,46.902695],[4.010737,46.901991],[4.011102,46.899807],[4.011059,46.899],[4.011574,46.898253],[4.01211,46.897285],[4.01211,46.895892],[4.012432,46.894968],[4.01226,46.893736],[4.012539,46.893414],[4.012411,46.893091],[4.012733,46.89271],[4.012647,46.891816],[4.01299,46.890818],[4.012604,46.890247],[4.012368,46.889279],[4.012432,46.888149],[4.012561,46.887182],[4.013355,46.886346],[4.013505,46.885979],[4.013269,46.885524],[4.012969,46.884952],[4.012926,46.884234],[4.01329,46.883574],[4.013505,46.882826],[4.013076,46.881301],[4.013441,46.880553],[4.01329,46.880069],[4.012711,46.879482],[4.012389,46.878793],[4.011874,46.878397],[4.010372,46.877971],[4.009643,46.878103],[4.009492,46.87781],[4.009149,46.877502],[4.00902,46.877047],[4.008677,46.877032],[4.006832,46.877649],[4.005973,46.878059],[4.004836,46.878118],[4.003098,46.877546],[4.00224,46.877722],[4.002132,46.877517],[4.00136,46.877942],[4.001553,46.878191],[4.002175,46.878646],[4.002025,46.879159],[4.002669,46.879453],[4.00254,46.879658],[4.001768,46.879907],[3.999579,46.880113],[3.999493,46.880318],[3.999643,46.880655],[3.999214,46.881506],[3.998077,46.881873],[3.997991,46.882606],[3.997562,46.882562],[3.996854,46.882723],[3.995631,46.882767],[3.99503,46.882562],[3.994021,46.882797],[3.992219,46.882489],[3.99282,46.883178],[3.992691,46.883383],[3.991275,46.883251],[3.989537,46.883237],[3.988721,46.883574],[3.986983,46.884791],[3.98591,46.885187],[3.985031,46.88573],[3.983057,46.886522],[3.982155,46.88705],[3.980503,46.887548],[3.979559,46.887695],[3.978143,46.887915],[3.977005,46.888487],[3.976426,46.889088],[3.975439,46.889616],[3.975632,46.890848],[3.97619,46.892226],[3.976641,46.892549],[3.976963,46.893531],[3.977478,46.893883],[3.977885,46.894411],[3.978658,46.894807],[3.979044,46.895393],[3.979709,46.895936],[3.980396,46.897373],[3.980975,46.898282],[3.981769,46.89922],[3.982306,46.900115],[3.98252,46.900892],[3.982928,46.901463],[3.983872,46.902314],[3.985138,46.902856],[3.985631,46.903325],[3.986018,46.903897],[3.986425,46.90422],[3.987155,46.906037],[3.987434,46.907357],[3.987327,46.908324],[3.987627,46.908676],[3.988485,46.909057],[3.989408,46.910113],[3.989623,46.910992],[3.989666,46.91193],[3.989129,46.912663],[3.988614,46.913103],[3.988357,46.913557],[3.989451,46.913953],[3.990288,46.915009],[3.991425,46.917031],[3.991146,46.918937],[3.991382,46.919728],[3.991489,46.921208],[3.991575,46.92175],[3.990588,46.922469],[3.98988,46.92326],[3.989365,46.923963],[3.987949,46.924857],[3.986318,46.925121],[3.985825,46.925063],[3.98546,46.924887],[3.984387,46.925165],[3.984129,46.925737],[3.982456,46.927612],[3.982306,46.928008],[3.980954,46.929268],[3.980095,46.929532],[3.98031,46.929693],[3.980911,46.929898],[3.981082,46.930426],[3.98149,46.931202],[3.981619,46.931891],[3.981512,46.932521],[3.980739,46.933474],[3.980052,46.934866],[3.979688,46.935188],[3.979645,46.935862],[3.97943,46.936301],[3.979516,46.936961],[3.979387,46.937239],[3.978958,46.937239],[3.978229,46.936785],[3.977928,46.936873],[3.977692,46.937547],[3.976254,46.938792],[3.975418,46.939041],[3.974087,46.939964],[3.973379,46.940506],[3.972971,46.941297],[3.97001,46.942279],[3.963337,46.943539],[3.962693,46.944198],[3.960805,46.944476],[3.960719,46.944887],[3.960955,46.945341],[3.961577,46.945531],[3.96162,46.946015],[3.962092,46.946337],[3.962178,46.946659],[3.961685,46.947142],[3.961213,46.94789],[3.960955,46.948139],[3.960826,46.948915],[3.960032,46.948856],[3.959668,46.949003],[3.959711,46.949398],[3.958702,46.949691],[3.957458,46.950365],[3.956964,46.950497],[3.955998,46.950057],[3.955376,46.948973],[3.955226,46.94808],[3.955033,46.947728],[3.954625,46.94849],[3.953187,46.949149],[3.952994,46.949105],[3.951063,46.949413],[3.95087,46.949266],[3.950098,46.949398],[3.94969,46.949926],[3.948424,46.951127],[3.948338,46.95161],[3.947501,46.951683],[3.946342,46.951434],[3.945742,46.950936],[3.945076,46.950673],[3.944604,46.950819],[3.944111,46.951332],[3.943017,46.951757],[3.942437,46.952123],[3.942072,46.952196],[3.941579,46.951918],[3.941278,46.95098],[3.941064,46.950819],[3.941407,46.950336],[3.940506,46.950219],[3.939412,46.949852],[3.93909,46.949515],[3.938231,46.94893],[3.937094,46.948651],[3.936558,46.948461],[3.936043,46.948461],[3.935184,46.948827],[3.93364,46.949091],[3.933404,46.948681],[3.932781,46.948519],[3.932738,46.948256],[3.93218,46.947509],[3.931644,46.94767],[3.930571,46.947714],[3.928854,46.947684],[3.927288,46.948139],[3.926923,46.948783],[3.926601,46.9489],[3.925228,46.948637],[3.924541,46.948783],[3.92437,46.948563],[3.924499,46.948241],[3.923855,46.948021],[3.923297,46.947948],[3.922288,46.947567],[3.921666,46.949281],[3.9201,46.950526],[3.91952,46.951244],[3.918448,46.951522],[3.917997,46.951962],[3.917525,46.951991],[3.916881,46.952284],[3.916216,46.952474],[3.912718,46.952255],[3.911538,46.952064],[3.910122,46.952284],[3.909521,46.952694],[3.908641,46.953031],[3.907826,46.953412],[3.907053,46.953426],[3.906024,46.953031],[3.905573,46.952225],[3.905272,46.951639],[3.904886,46.951478],[3.90435,46.95161],[3.903835,46.951639],[3.902655,46.95142],[3.901732,46.95183],[3.90156,46.952137],[3.900681,46.95243],[3.900208,46.952943],[3.899307,46.953807],[3.898535,46.954759],[3.897805,46.955096],[3.896325,46.955491],[3.895316,46.955872],[3.8939,46.956766],[3.891003,46.957571],[3.890724,46.95719],[3.888428,46.957806],[3.887141,46.958421],[3.888171,46.958904],[3.889093,46.959592],[3.89008,46.960574],[3.89008,46.961525],[3.891089,46.962258],[3.891261,46.962551],[3.892226,46.962419],[3.895488,46.964484],[3.896153,46.965186],[3.895938,46.965348],[3.895745,46.965992],[3.896174,46.966812],[3.895895,46.9675],[3.896067,46.967778],[3.896153,46.968437],[3.896282,46.96895],[3.895895,46.969682],[3.895702,46.971395],[3.895531,46.972493],[3.895552,46.973943],[3.89596,46.975861],[3.896024,46.976373],[3.895252,46.977588],[3.895187,46.978159],[3.895724,46.980165],[3.895874,46.9828],[3.896239,46.983459],[3.89699,46.984234],[3.897655,46.985508],[3.897913,46.986781],[3.898878,46.98826],[3.89905,46.988377],[3.899071,46.988787],[3.900101,46.98965],[3.902333,46.989577],[3.903813,46.989841],[3.904843,46.99025],[3.906453,46.990616],[3.907719,46.99028],[3.909886,46.990851],[3.910658,46.991304],[3.911281,46.991509],[3.91216,46.99129],[3.913963,46.991465],[3.914413,46.991392],[3.914928,46.991582],[3.91495,46.992051],[3.915229,46.992402],[3.915293,46.993163],[3.91643,46.993485],[3.916452,46.994188],[3.916924,46.994393],[3.91789,46.994012],[3.917975,46.994319],[3.917546,46.994788],[3.91804,46.995373],[3.918405,46.995534],[3.918726,46.996412],[3.918512,46.996646],[3.917997,46.996851],[3.917632,46.997451],[3.918684,46.997744],[3.919284,46.998081],[3.920572,46.998168],[3.921173,46.998329],[3.922739,46.999573],[3.922825,46.999924],[3.924005,47.001066],[3.925056,47.001783],[3.925743,47.001812],[3.927031,47.000612],[3.929241,47.000422],[3.929648,47.000217],[3.930078,47.000203],[3.930614,47.000422],[3.932331,47.000466],[3.933404,47.000085],[3.935421,46.999515],[3.936901,46.999251],[3.937652,46.999061],[3.940163,46.999017],[3.941193,46.998637],[3.944776,46.998432],[3.946407,46.998403],[3.947608,46.998534],[3.949025,46.998359],[3.950012,46.998168],[3.951278,46.99789],[3.952351,46.997832],[3.953702,46.997495],[3.955591,46.997363],[3.956814,46.997759],[3.957737,46.998315],[3.958638,46.998768],[3.959517,46.998988],[3.960719,46.998827],[3.961706,46.998681],[3.962715,46.998929],[3.963401,46.999559],[3.965161,46.999939],[3.965611,47.001212],[3.966234,47.001695],[3.966856,47.002281],[3.967156,47.003129],[3.967006,47.003919],[3.967907,47.004563],[3.968208,47.005207],[3.968916,47.006158],[3.969667,47.006612],[3.970225,47.00768],[3.973444,47.009143],[3.974345,47.009304],[3.974495,47.010094],[3.975332,47.010679],[3.975546,47.011133],[3.977392,47.011294],[3.979044,47.011748],[3.979967,47.011645],[3.980567,47.011016],[3.981404,47.010519],[3.983443,47.010562],[3.983657,47.011089],[3.984022,47.011499],[3.984408,47.011704],[3.984988,47.011689],[3.98576,47.012333],[3.985739,47.012977],[3.984966,47.013913],[3.984666,47.014908],[3.983636,47.015888],[3.983464,47.016619],[3.983185,47.016853],[3.983829,47.017205],[3.983786,47.01779],[3.98443,47.018507],[3.984966,47.01915],[3.985567,47.019267],[3.986361,47.019121],[3.987219,47.01915],[3.987992,47.019399],[3.988743,47.020028],[3.988915,47.020759],[3.988528,47.02111],[3.987713,47.022295],[3.987756,47.023041],[3.987949,47.02389],[3.988314,47.024168],[3.989472,47.025674],[3.989644,47.026333],[3.990009,47.02683],[3.990052,47.027225],[3.989537,47.028161],[3.989451,47.028556],[3.989515,47.029433],[3.990266,47.029858],[3.990502,47.030457],[3.990524,47.031817],[3.990116,47.033294],[3.989987,47.034772],[3.991232,47.034918],[3.993163,47.035342],[3.995888,47.036205],[3.997197,47.036439],[3.998528,47.03638],[3.997991,47.037126],[3.998034,47.037638],[3.998678,47.038603],[3.998849,47.0391],[3.999085,47.039422],[4.000952,47.040139],[4.001789,47.040387],[4.001296,47.040606],[4.001961,47.04068],[4.002604,47.040621],[4.003656,47.040899],[4.003098,47.042668],[4.004385,47.043721],[4.0043,47.044087],[4.004622,47.044364],[4.004729,47.044876],[4.005072,47.045622],[4.005029,47.046704],[4.00445,47.047581],[4.003999,47.048005],[4.003441,47.048868],[4.00342,47.04916],[4.003613,47.049497],[4.003484,47.050052],[4.003506,47.050871],[4.0046,47.051616],[4.005222,47.052216],[4.004643,47.052684],[4.004192,47.052801],[4.003806,47.053108],[4.004321,47.05397],[4.003227,47.054073],[4.003205,47.054672],[4.004643,47.055447],[4.005394,47.055491],[4.006574,47.055827],[4.007819,47.055651],[4.008141,47.055798],[4.008677,47.056426],[4.009535,47.056762],[4.010887,47.057011],[4.01093,47.057142],[4.009664,47.057523],[4.00872,47.058093],[4.007883,47.058941],[4.007218,47.059145],[4.006681,47.059525],[4.006166,47.059993],[4.005888,47.060446],[4.005158,47.060651],[4.004943,47.060812],[4.006274,47.061455],[4.007862,47.061586],[4.009128,47.062069],[4.010179,47.062332],[4.010694,47.062814],[4.011552,47.064554],[4.011981,47.064904],[4.012196,47.06432],[4.012733,47.064042],[4.013269,47.06394],[4.012861,47.064597],[4.013205,47.065226],[4.013634,47.065504],[4.014106,47.06565],[4.014664,47.065986],[4.015114,47.067067],[4.016294,47.067345],[4.016638,47.067871],[4.016917,47.068076],[4.018247,47.068061],[4.019105,47.068295],[4.019277,47.067944],[4.01947,47.06774],[4.020264,47.067871],[4.020758,47.068324],[4.021702,47.070005],[4.021938,47.070254],[4.022324,47.070444],[4.022088,47.070853],[4.022067,47.071379],[4.022539,47.071496],[4.02329,47.071525],[4.02271,47.072621],[4.022088,47.072913],[4.021637,47.072694],[4.020929,47.072884],[4.021359,47.07363],[4.021058,47.074214],[4.020908,47.075222],[4.020436,47.075924],[4.020243,47.076508],[4.019642,47.077444],[4.018848,47.077926],[4.017067,47.078437],[4.015994,47.078949],[4.015179,47.079241],[4.014127,47.079694],[4.012883,47.079884],[4.012883,47.080176],[4.01329,47.080688],[4.014213,47.081535],[4.015136,47.081389],[4.015887,47.081725],[4.016638,47.081857],[4.016101,47.082222],[4.016466,47.082689],[4.016337,47.083961],[4.017239,47.085626],[4.017153,47.086401],[4.016595,47.08735],[4.014878,47.088168],[4.013612,47.089176],[4.012218,47.089936],[4.011209,47.090272],[4.011273,47.090973],[4.011574,47.091383],[4.01211,47.091324],[4.012496,47.091441],[4.012582,47.091952],[4.012196,47.092756],[4.012454,47.093121],[4.012368,47.094027],[4.012003,47.094699],[4.011917,47.095531],[4.011359,47.096159],[4.01123,47.097167],[4.011617,47.097503],[4.010029,47.098204],[4.009793,47.098497],[4.009171,47.098949],[4.009213,47.099242],[4.010415,47.100629],[4.011252,47.101067],[4.01211,47.101213],[4.011831,47.101593],[4.011295,47.101915],[4.011295,47.102119],[4.012132,47.102251],[4.013205,47.102601],[4.013591,47.103536],[4.013913,47.104003],[4.012153,47.106355],[4.011338,47.106837],[4.010823,47.107026],[4.010994,47.107684],[4.011574,47.108034],[4.011016,47.108253],[4.01093,47.108677],[4.011681,47.108881],[4.013848,47.109217],[4.014514,47.109874],[4.015844,47.110093],[4.016273,47.110385],[4.017303,47.110648],[4.019964,47.111583],[4.019878,47.111933],[4.017839,47.112167],[4.017088,47.112649],[4.015758,47.113058],[4.014728,47.113671],[4.013913,47.113569],[4.012754,47.114752],[4.011745,47.115161],[4.010608,47.115482],[4.009192,47.115453],[4.007347,47.116022],[4.006252,47.116563],[4.005952,47.117249],[4.004815,47.117293],[4.002604,47.117249],[4.000373,47.119614],[3.999579,47.119454],[3.998764,47.119804],[3.998141,47.119877],[3.99812,47.12033],[3.997841,47.120198],[3.997626,47.119775],[3.997304,47.12033],[3.997068,47.12033],[3.996403,47.119775],[3.994966,47.119717],[3.994558,47.119775],[3.99415,47.120111],[3.992863,47.120213],[3.992434,47.120023],[3.991897,47.119702],[3.991103,47.119497],[3.990331,47.119381],[3.990223,47.11922],[3.989043,47.11887],[3.984559,47.118037],[3.983572,47.118286],[3.982842,47.118242],[3.981168,47.118359],[3.978336,47.119059],[3.977327,47.11884],[3.977005,47.118899],[3.975954,47.118753],[3.975546,47.118943],[3.975461,47.119717],[3.975632,47.120286],[3.975997,47.120622],[3.976319,47.12141],[3.976083,47.121629],[3.975074,47.121293],[3.973851,47.12068],[3.970997,47.118578],[3.970246,47.117804],[3.969216,47.117424],[3.967779,47.117526],[3.96647,47.117409],[3.964753,47.116387],[3.96368,47.116081],[3.961964,47.115789],[3.959174,47.117424],[3.958337,47.117672],[3.956363,47.118008],[3.95484,47.118621],[3.95396,47.119293],[3.953209,47.120038],[3.952909,47.120739],[3.952436,47.121016],[3.951557,47.121498],[3.951106,47.122009],[3.95072,47.120257],[3.950505,47.120301],[3.948638,47.122169],[3.948081,47.122651],[3.946085,47.12363],[3.944669,47.124812],[3.944433,47.125236],[3.943832,47.125528],[3.943253,47.125455],[3.941643,47.12563],[3.941278,47.12598],[3.941472,47.126199],[3.941515,47.126768],[3.942051,47.127148],[3.942008,47.127265],[3.941579,47.127279],[3.940227,47.128331],[3.939862,47.128812],[3.938575,47.129615],[3.93821,47.129951],[3.938189,47.130345],[3.937974,47.130608],[3.937287,47.130929],[3.936923,47.131265],[3.93615,47.131484],[3.933876,47.132841],[3.93306,47.133732],[3.93261,47.134506],[3.932395,47.135586],[3.931966,47.136155],[3.931537,47.137002],[3.930914,47.13744],[3.929327,47.137819],[3.92688,47.138169],[3.926108,47.138126],[3.925486,47.138228],[3.924778,47.138272],[3.923833,47.13852],[3.924134,47.139133],[3.924799,47.13922],[3.925164,47.13941],[3.925743,47.139498],[3.9257,47.139819],[3.92658,47.140052],[3.927567,47.140067],[3.928297,47.140242],[3.928511,47.140607],[3.928146,47.141264],[3.928211,47.14157],[3.928683,47.142023],[3.928146,47.143263],[3.926795,47.143234],[3.923597,47.143584],[3.923018,47.144007],[3.922696,47.14408],[3.921795,47.143832],[3.921044,47.143978],[3.921323,47.144139],[3.921409,47.144372],[3.922074,47.144606],[3.922203,47.144825],[3.921452,47.145146],[3.920872,47.14624],[3.919477,47.146167],[3.918448,47.146737],[3.918147,47.147058],[3.918469,47.147218],[3.918469,47.147612],[3.918211,47.147744],[3.917933,47.148138],[3.917911,47.149933],[3.917203,47.150764],[3.917696,47.15129],[3.918126,47.151932],[3.919413,47.152472],[3.920658,47.153172],[3.921881,47.153668],[3.922546,47.154062],[3.92364,47.1545],[3.924906,47.154719],[3.926344,47.154733],[3.928747,47.154967],[3.930228,47.155565],[3.931279,47.155901],[3.932824,47.156017],[3.933725,47.155769],[3.934391,47.15574],[3.935163,47.155492],[3.937459,47.155434],[3.938832,47.155638],[3.939798,47.156076],[3.943274,47.158658],[3.944776,47.159009],[3.944604,47.159257],[3.943961,47.159417],[3.943746,47.159636],[3.94263,47.16019],[3.942266,47.160497],[3.942437,47.16162],[3.941407,47.162145],[3.941622,47.163094],[3.94115,47.163371],[3.942072,47.164845],[3.942008,47.165253],[3.9413,47.165909],[3.941429,47.167222],[3.941622,47.167762],[3.94218,47.168185],[3.942609,47.168302],[3.943403,47.168214],[3.944325,47.167821],[3.945055,47.167587],[3.945763,47.167529],[3.946385,47.167806],[3.946772,47.168462],[3.947673,47.16925],[3.948917,47.170621],[3.950098,47.171103],[3.951685,47.171613],[3.952072,47.171978],[3.952072,47.172912],[3.952372,47.173247],[3.952501,47.173874],[3.951557,47.174968],[3.950677,47.175522],[3.950076,47.176048],[3.947587,47.177783],[3.947222,47.178396],[3.947308,47.179198],[3.946793,47.179358],[3.946471,47.179898],[3.945892,47.18054],[3.946664,47.181123],[3.946557,47.181532],[3.945849,47.182377],[3.945849,47.182377],[3.944945,47.183526],[3.945009,47.184313],[3.944559,47.184999],[3.944602,47.185494]]],"type":"MultiLineString"},"properties":{"geo_point":{"lon":4.023897044290299,"lat":47.15098302878773},"name":"Tour du Morvan (Nièvre-Yonne-Côte-d'Or) (2017)","code_gr":null}}]}