{"type":"FeatureCollection","features":[{"type":"Feature","geometry":{"coordinates":[[[0.777974,46.060321],[0.779476,46.059889],[0.779498,46.060053],[0.780227,46.060395],[0.780807,46.060723],[0.782845,46.060604],[0.783982,46.061095],[0.785291,46.062122],[0.785635,46.062465],[0.789154,46.063715],[0.790656,46.064117],[0.791471,46.064892],[0.79308,46.065651],[0.798209,46.06714],[0.803359,46.068584],[0.804947,46.069268],[0.806041,46.069641],[0.809581,46.071635],[0.810375,46.072335],[0.817499,46.070043],[0.817521,46.069477],[0.817306,46.069001],[0.816641,46.068405],[0.81662,46.067646],[0.816813,46.067393],[0.817499,46.067199],[0.818079,46.066827],[0.817864,46.066127],[0.817928,46.065829],[0.818508,46.065651],[0.819409,46.06504],[0.820525,46.066231],[0.820804,46.067184],[0.821061,46.067527],[0.820825,46.067735],[0.820739,46.068152],[0.820589,46.068375],[0.82222,46.070504],[0.823615,46.069804],[0.825589,46.069522],[0.827928,46.068747],[0.82928,46.068509],[0.829687,46.068241],[0.830138,46.068182],[0.831769,46.068554],[0.831854,46.068896],[0.832498,46.069135],[0.832992,46.06912],[0.833142,46.068718],[0.834215,46.068167],[0.835674,46.067705],[0.836489,46.067601],[0.836618,46.067378],[0.836682,46.066753],[0.837262,46.06577],[0.838657,46.064877],[0.838657,46.064132],[0.838378,46.064147],[0.838099,46.063343],[0.837283,46.062822],[0.836382,46.062628],[0.836189,46.061839],[0.835481,46.061199],[0.836167,46.060857],[0.836167,46.060499],[0.83576,46.059308],[0.83518,46.059293],[0.834365,46.059457],[0.833593,46.059442],[0.832927,46.058757],[0.832563,46.058221],[0.835481,46.055094],[0.835116,46.053739],[0.834601,46.052429],[0.834494,46.051505],[0.834623,46.051014],[0.835352,46.051029],[0.837262,46.050582],[0.837648,46.050135],[0.838421,46.04948],[0.838978,46.049361],[0.839944,46.049435],[0.84003,46.049212],[0.839837,46.048586],[0.840566,46.048333],[0.841296,46.048452],[0.843399,46.049137],[0.84548,46.048825],[0.848055,46.047946],[0.849836,46.047931],[0.85048,46.047842],[0.85063,46.047916],[0.852389,46.047201],[0.853098,46.046338],[0.85314,46.045787],[0.852883,46.044848],[0.853548,46.04327],[0.855093,46.043493],[0.856788,46.043523],[0.857325,46.043672],[0.862174,46.041825],[0.866938,46.040008],[0.868354,46.039144],[0.86889,46.038995],[0.869041,46.039144],[0.869362,46.039054],[0.870028,46.038533],[0.871186,46.038086],[0.871616,46.037833],[0.873354,46.037267],[0.874491,46.03682],[0.8761,46.035762],[0.877559,46.035345],[0.878267,46.035018],[0.878031,46.033871],[0.877516,46.032724],[0.87801,46.030697],[0.876765,46.028791],[0.876358,46.027867],[0.875564,46.027807],[0.874963,46.027584],[0.874555,46.027018],[0.874212,46.026079],[0.874448,46.025736],[0.874298,46.025528],[0.874105,46.025409],[0.873912,46.024991],[0.876572,46.023993],[0.878096,46.023412],[0.879233,46.023084],[0.879555,46.022757],[0.879898,46.021907],[0.879963,46.021192],[0.880091,46.020626],[0.87831,46.020238],[0.876808,46.019136],[0.875886,46.018883],[0.87462,46.017914],[0.873268,46.019374],[0.871895,46.019836],[0.870757,46.020671],[0.870607,46.020805],[0.869577,46.020209],[0.868654,46.019866],[0.868032,46.018927],[0.866873,46.018376],[0.866294,46.01857],[0.865865,46.018421],[0.865586,46.017735],[0.866079,46.016513],[0.865865,46.015783],[0.866616,46.0155],[0.867818,46.014502],[0.869513,46.01395],[0.870671,46.013444],[0.871594,46.012713],[0.872688,46.012967],[0.873354,46.01252],[0.874276,46.012311],[0.875693,46.011387],[0.876079,46.010597],[0.876873,46.01021],[0.877581,46.009703],[0.878439,46.009509],[0.878675,46.009032],[0.879169,46.008719],[0.879576,46.008347],[0.882516,46.006678],[0.881143,46.005694],[0.881465,46.005023],[0.882216,46.004665],[0.882065,46.004352],[0.881186,46.004189],[0.880671,46.003995],[0.879834,46.004636],[0.87919,46.00474],[0.878289,46.002713],[0.876808,46.000924],[0.875735,46.00003],[0.876036,45.999806],[0.876873,46.000254],[0.877903,45.999493],[0.878074,45.999136],[0.878246,45.998569],[0.87874,45.998361],[0.879426,45.998316],[0.880091,45.998495],[0.88198,45.99839],[0.885906,45.998823],[0.885735,45.99772],[0.885263,45.996646],[0.885112,45.995722],[0.884555,45.9952],[0.884318,45.994574],[0.884855,45.993844],[0.88522,45.993739],[0.886786,45.994082],[0.888674,45.994291],[0.889447,45.994529],[0.890176,45.995245],[0.891528,45.995975],[0.89258,45.995886],[0.892902,45.995975],[0.893116,45.996661],[0.894232,45.996915],[0.895519,45.995752],[0.89612,45.995633],[0.89715,45.996035],[0.895176,45.998524],[0.895884,45.998599],[0.897644,45.999508],[0.899747,46.000104],[0.900519,46.00003],[0.901292,45.999836],[0.9023,46.000701],[0.902643,46.000298],[0.90318,46.000343],[0.903587,45.999806],[0.904145,45.999941],[0.904317,46.000328],[0.905626,46.000447],[0.907343,46.000477],[0.909145,46.000954],[0.912728,46.002176],[0.912063,46.003011],[0.912836,46.003175],[0.913844,46.002892],[0.914574,46.00322],[0.914145,46.003846],[0.914681,46.004665],[0.914896,46.00556],[0.914831,46.006335],[0.913415,46.007125],[0.913887,46.00869],[0.914574,46.009226],[0.914617,46.010284],[0.914853,46.010523],[0.915067,46.011774],[0.913758,46.011894],[0.913007,46.0117],[0.911527,46.012773],[0.911849,46.01319],[0.914917,46.014591],[0.91599,46.014278],[0.91775,46.01401],[0.919144,46.013041],[0.917878,46.011223],[0.917578,46.010433],[0.917835,46.010344],[0.918629,46.009971],[0.920603,46.009807],[0.920668,46.009956],[0.920518,46.01021],[0.921805,46.011417],[0.923586,46.010985],[0.92423,46.01094],[0.925281,46.010448],[0.926569,46.009196],[0.925281,46.007929],[0.923135,46.003473],[0.922899,46.002087],[0.922921,46.001282],[0.922792,46.000984],[0.922878,46.000611],[0.923329,46.000239],[0.924015,46.00006],[0.924509,45.999598],[0.92438,45.999165],[0.923736,45.99851],[0.92262,45.99763],[0.920754,45.996721],[0.920239,45.996587],[0.922749,45.995424],[0.924037,45.994649],[0.92571,45.993829],[0.924852,45.991891],[0.924938,45.991295],[0.924552,45.990668],[0.923844,45.990251],[0.9235,45.989923],[0.923264,45.98964],[0.922642,45.989371],[0.921741,45.989312],[0.921483,45.989192],[0.921655,45.988656],[0.921719,45.988089],[0.922277,45.987567],[0.920775,45.986867],[0.920797,45.986166],[0.921505,45.984764],[0.921998,45.984585],[0.922427,45.984123],[0.924745,45.983631],[0.926011,45.98293],[0.926333,45.983005],[0.926976,45.982901],[0.926848,45.982558],[0.928028,45.982051],[0.92835,45.981767],[0.928543,45.979695],[0.928028,45.979233],[0.927599,45.978606],[0.926805,45.978129],[0.92526,45.976772],[0.924959,45.976131],[0.924401,45.975952],[0.924144,45.975982],[0.923371,45.975713],[0.922363,45.975743],[0.920496,45.975341],[0.91893,45.974669],[0.918372,45.973894],[0.917535,45.973611],[0.916612,45.973521],[0.915969,45.973447],[0.914402,45.973223],[0.91157,45.972492],[0.91054,45.971926],[0.907021,45.972254],[0.907149,45.97282],[0.906913,45.973417],[0.907321,45.975579],[0.906677,45.976146],[0.905841,45.975221],[0.900455,45.977384],[0.901141,45.979128],[0.899274,45.979158],[0.898674,45.978919],[0.898245,45.978502],[0.897107,45.978666],[0.897,45.979083],[0.894253,45.980306],[0.893824,45.980082],[0.893095,45.979933],[0.892644,45.980396],[0.889876,45.980873],[0.889146,45.980589],[0.888739,45.980589],[0.885735,45.980977],[0.88507,45.980918],[0.88404,45.980962],[0.882044,45.980783],[0.880993,45.980425],[0.879126,45.980411],[0.877366,45.980276],[0.875864,45.98053],[0.875349,45.980739],[0.874555,45.980858],[0.873397,45.981141],[0.872796,45.981111],[0.871766,45.98056],[0.870307,45.981395],[0.869212,45.981812],[0.868461,45.982379],[0.867732,45.982513],[0.86623,45.982394],[0.865543,45.982528],[0.864556,45.982826],[0.862496,45.982901],[0.861423,45.982856],[0.860737,45.982916],[0.859041,45.982886],[0.858011,45.982617],[0.85726,45.982334],[0.856145,45.982185],[0.856724,45.982617],[0.857389,45.984392],[0.857046,45.985316],[0.857411,45.986091],[0.857647,45.987627],[0.858376,45.988671],[0.858805,45.990311],[0.859234,45.99125],[0.860586,45.99116],[0.861402,45.990996],[0.861681,45.991324],[0.861037,45.992741],[0.860093,45.993814],[0.857797,45.998331],[0.856939,45.998599],[0.855158,45.999344],[0.85357,46.000447],[0.850802,46.003086],[0.850265,46.003041],[0.850008,46.002698],[0.849493,46.0024],[0.849021,46.001863],[0.845995,46.000477],[0.843871,45.998987],[0.842905,45.999508],[0.841618,45.999404],[0.839558,45.999374],[0.836597,45.999538],[0.835867,45.999821],[0.833979,46.000313],[0.832691,46.000134],[0.829365,45.999225],[0.828293,45.998793],[0.827413,45.998688],[0.827048,45.998972],[0.826919,45.999225],[0.82649,45.999344],[0.824688,45.997869],[0.82104,45.999121],[0.819731,45.999031],[0.817242,45.999389],[0.816405,45.999672],[0.815096,46.000298],[0.81413,46.000939],[0.8128,46.001222],[0.81192,46.001252],[0.810998,46.002102],[0.809946,46.003667],[0.810397,46.004427],[0.810526,46.004949],[0.811083,46.005798],[0.811298,46.00635],[0.812006,46.007289],[0.8125,46.008451],[0.812478,46.009494],[0.812907,46.010627],[0.812693,46.011909],[0.813165,46.012818],[0.813573,46.012922],[0.813658,46.013607],[0.813637,46.014218],[0.813809,46.015232],[0.814688,46.017571],[0.813744,46.017825],[0.812864,46.018778],[0.812006,46.0193],[0.810805,46.020402],[0.809345,46.021401],[0.80838,46.023874],[0.8072,46.025185],[0.804539,46.027331],[0.802157,46.028701],[0.80132,46.02888],[0.79999,46.029327],[0.798338,46.029684],[0.795827,46.030414],[0.793295,46.031934],[0.792029,46.032217],[0.79072,46.032306],[0.787845,46.032977],[0.786214,46.033185],[0.784412,46.034213],[0.784068,46.033975],[0.784154,46.033379],[0.784004,46.032724],[0.783639,46.033051],[0.781944,46.033081],[0.780528,46.033021],[0.779734,46.033111],[0.778318,46.033081],[0.777717,46.033364],[0.776966,46.034005],[0.775871,46.033826],[0.774541,46.033781],[0.773468,46.032843],[0.77188,46.03393],[0.769177,46.034913],[0.767031,46.034913],[0.766151,46.03466],[0.765357,46.03469],[0.761473,46.033975],[0.763233,46.033126],[0.761259,46.030906],[0.760358,46.02955],[0.757246,46.030116],[0.756195,46.030221],[0.754671,46.030697],[0.752332,46.03101],[0.751195,46.030936],[0.750852,46.031636],[0.750272,46.032187],[0.748727,46.032038],[0.748942,46.030891],[0.7495,46.030534],[0.749521,46.030116],[0.74935,46.02955],[0.749092,46.028061],[0.746775,46.02675],[0.746539,46.025632],[0.746775,46.0252],[0.746153,46.023695],[0.744672,46.022697],[0.743899,46.022086],[0.743127,46.021788],[0.741646,46.021043],[0.739608,46.021579],[0.736754,46.022518],[0.735831,46.023055],[0.731626,46.024306],[0.73081,46.024723],[0.724716,46.026407],[0.722871,46.026347],[0.718,46.026496],[0.716713,46.026496],[0.716262,46.026779],[0.719652,46.029476],[0.719867,46.030221],[0.720253,46.030265],[0.720618,46.030936],[0.720725,46.032008],[0.720918,46.032381],[0.720725,46.03323],[0.72109,46.033602],[0.721283,46.035003],[0.720232,46.036865],[0.720296,46.03828],[0.719652,46.03889],[0.718537,46.041199],[0.719223,46.042346],[0.719352,46.042897],[0.719674,46.043374],[0.719266,46.044506],[0.716241,46.044312],[0.714159,46.04394],[0.71285,46.043076],[0.71167,46.042852],[0.71049,46.042972],[0.709374,46.042614],[0.708559,46.042212],[0.708087,46.042212],[0.707572,46.042495],[0.705834,46.043076],[0.704074,46.043016],[0.702572,46.04315],[0.701392,46.043687],[0.698388,46.04461],[0.697229,46.044416],[0.696092,46.044014],[0.694997,46.043999],[0.694053,46.04394],[0.693324,46.044089],[0.692315,46.044148],[0.6918,46.044416],[0.690148,46.045995],[0.690363,46.047499],[0.689719,46.048363],[0.687831,46.048467],[0.687337,46.048304],[0.687165,46.048855],[0.687037,46.049912],[0.686264,46.050254],[0.685964,46.050776],[0.685878,46.051654],[0.68605,46.052205],[0.685599,46.053084],[0.684934,46.053069],[0.684869,46.053605],[0.685041,46.054111],[0.684805,46.054677],[0.684376,46.054886],[0.684204,46.055705],[0.68429,46.056107],[0.683603,46.056479],[0.683475,46.056941],[0.683689,46.057506],[0.683239,46.057655],[0.683518,46.057923],[0.683539,46.05907],[0.683947,46.062018],[0.684011,46.06443],[0.683882,46.065442],[0.68429,46.066336],[0.68459,46.067363],[0.684698,46.069075],[0.68444,46.070102],[0.684762,46.071576],[0.685105,46.072231],[0.68562,46.072618],[0.687058,46.073035],[0.687809,46.073333],[0.687637,46.076205],[0.687959,46.076965],[0.688732,46.078542],[0.68914,46.079763],[0.689054,46.080835],[0.68871,46.081802],[0.688346,46.082278],[0.68871,46.083454],[0.688431,46.083886],[0.688539,46.084734],[0.688903,46.085195],[0.689569,46.085672],[0.689461,46.087368],[0.689633,46.088053],[0.689376,46.089288],[0.688968,46.090196],[0.689011,46.091758],[0.689354,46.092428],[0.689654,46.092458],[0.690642,46.093083],[0.692208,46.093351],[0.692637,46.093291],[0.695191,46.093693],[0.694783,46.095255],[0.694955,46.095791],[0.694525,46.096446],[0.694139,46.09646],[0.693302,46.097026],[0.692487,46.098276],[0.691221,46.098945],[0.690491,46.100136],[0.688689,46.101281],[0.687959,46.102129],[0.687938,46.103156],[0.687745,46.103751],[0.687745,46.104688],[0.686822,46.106236],[0.686135,46.106965],[0.687487,46.107322],[0.688796,46.107173],[0.690792,46.106563],[0.693174,46.106503],[0.694418,46.10628],[0.697143,46.10637],[0.697873,46.106831],[0.698409,46.10753],[0.699225,46.108363],[0.699675,46.109018],[0.699976,46.109687],[0.701478,46.10933],[0.704868,46.108854],[0.709052,46.107783],[0.71343,46.105998],[0.714567,46.10512],[0.717721,46.10634],[0.721905,46.107396],[0.723729,46.109077],[0.725424,46.109122],[0.7283,46.108973],[0.730596,46.108631],[0.732076,46.108571],[0.733278,46.10817],[0.735059,46.107292],[0.737741,46.106191],[0.739544,46.105536],[0.739007,46.105016],[0.737934,46.104554],[0.737355,46.104064],[0.73978,46.104138],[0.741346,46.103245],[0.742204,46.103096],[0.742719,46.10265],[0.743191,46.102442],[0.744801,46.098425],[0.743535,46.09771],[0.743106,46.09716],[0.738857,46.094734],[0.737419,46.093351],[0.736303,46.092904],[0.732398,46.090627],[0.729265,46.088946],[0.728514,46.088157],[0.726648,46.086594],[0.725188,46.08594],[0.725317,46.085553],[0.726283,46.084674],[0.727677,46.083811],[0.729029,46.080968],[0.730703,46.0789],[0.731197,46.078423],[0.733063,46.077084],[0.733943,46.075178],[0.734522,46.07369],[0.734973,46.073169],[0.735574,46.072678],[0.73654,46.071561],[0.738964,46.070117],[0.73905,46.068911],[0.740509,46.066827],[0.740402,46.066306],[0.741604,46.063998],[0.74214,46.063224],[0.74229,46.062762],[0.743621,46.061676],[0.744672,46.05971],[0.745487,46.059531],[0.745917,46.060023],[0.747397,46.059948],[0.749092,46.060142],[0.749178,46.059308],[0.749586,46.059338],[0.750272,46.059487],[0.75201,46.059338],[0.752247,46.059814],[0.752826,46.059934],[0.754371,46.059963],[0.756066,46.060827],[0.75671,46.061378],[0.758083,46.061482],[0.759542,46.060678],[0.760121,46.060023],[0.760358,46.059383],[0.761345,46.058787],[0.765464,46.057894],[0.766945,46.056122],[0.768039,46.055109],[0.769391,46.05493],[0.769885,46.055079],[0.76982,46.054216],[0.770464,46.053769],[0.770207,46.052622],[0.769305,46.051773],[0.769713,46.051759],[0.771194,46.052071],[0.772245,46.051997],[0.77276,46.052369],[0.774949,46.05496],[0.775442,46.055809],[0.77497,46.057387],[0.774648,46.057998],[0.774477,46.058593],[0.774841,46.058981],[0.775228,46.059576],[0.775807,46.060261],[0.776665,46.060604]]],"type":"MultiLineString"},"properties":{"geo_point":{"lon":0.8077184653897977,"lat":46.03579982729496},"name":"Tour de la Mandragore (Charente, Haute-Vienne) (2020)","code_gr":null}}]}