{"type":"FeatureCollection","features":[{"type":"Feature","geometry":{"coordinates":[[[5.367653,49.516617],[5.370915,49.515809],[5.371473,49.51546],[5.372353,49.515488],[5.376644,49.515864],[5.378747,49.515558],[5.381408,49.514541],[5.38321,49.514276],[5.38585,49.513398],[5.387416,49.513134],[5.388124,49.512855],[5.390442,49.511573],[5.391665,49.511434],[5.395033,49.512381],[5.395763,49.51273],[5.395956,49.513022],[5.396686,49.512562],[5.397222,49.511573],[5.397841,49.511015],[5.398789,49.510967],[5.39984,49.511134],[5.402737,49.511329],[5.404625,49.510884],[5.40617,49.510006],[5.407393,49.509031],[5.408423,49.508069],[5.408703,49.507498],[5.409282,49.507205],[5.409969,49.507191],[5.411085,49.507804],[5.415634,49.50708],[5.416878,49.507261],[5.421535,49.505798],[5.423058,49.504739],[5.42471,49.50244],[5.425282,49.502005],[5.426312,49.50075],[5.427084,49.500123],[5.428886,49.49827],[5.429616,49.49774],[5.429466,49.497197],[5.429144,49.497211],[5.429058,49.49689],[5.429273,49.496542],[5.428693,49.495831],[5.428329,49.495678],[5.427921,49.495092],[5.427256,49.4942],[5.429015,49.493949],[5.431247,49.493768],[5.433972,49.49381],[5.434744,49.493713],[5.435023,49.492305],[5.435495,49.491218],[5.43541,49.490758],[5.434659,49.490507],[5.426161,49.486214],[5.42481,49.482561],[5.425947,49.480665],[5.427277,49.476706],[5.427084,49.474921],[5.427942,49.475116],[5.429294,49.475144],[5.431547,49.474865],[5.433157,49.474391],[5.435388,49.474294],[5.436676,49.474322],[5.437555,49.474085],[5.439111,49.472716],[5.439562,49.472548],[5.439798,49.472576],[5.4413,49.471712],[5.442072,49.471489],[5.445591,49.471363],[5.446514,49.471238],[5.4472,49.470833],[5.447565,49.470108],[5.447501,49.468282],[5.446578,49.466929],[5.446106,49.465925],[5.445677,49.464279],[5.445784,49.463666],[5.448703,49.460109],[5.449539,49.459775],[5.451363,49.458868],[5.454196,49.457947],[5.454925,49.458059],[5.45705,49.457529],[5.457758,49.45778],[5.457972,49.457403],[5.458766,49.456399],[5.45853,49.455758],[5.458873,49.455242],[5.458165,49.454586],[5.457586,49.45414],[5.456985,49.453484],[5.455397,49.452368],[5.454088,49.452605],[5.453445,49.452033],[5.451835,49.449522],[5.45175,49.448574],[5.451256,49.447639],[5.451192,49.446607],[5.450655,49.445407],[5.450612,49.443342],[5.450741,49.442924],[5.450419,49.442352],[5.449496,49.441724],[5.448445,49.441347],[5.448273,49.441026],[5.448273,49.440398],[5.447887,49.439826],[5.447029,49.438654],[5.44675,49.437496],[5.445784,49.436184],[5.445076,49.435682],[5.444261,49.435194],[5.443939,49.43444],[5.443424,49.433659],[5.44248,49.432459],[5.441922,49.431998],[5.441943,49.431524],[5.44278,49.430365],[5.443231,49.429472],[5.444132,49.428872],[5.446106,49.426081],[5.454496,49.422675],[5.455097,49.422912],[5.455333,49.422703],[5.458251,49.421461],[5.456878,49.418292],[5.456234,49.417706],[5.456213,49.416827],[5.455676,49.415459],[5.451149,49.416478],[5.446385,49.416212],[5.441858,49.415263],[5.442501,49.416589],[5.436257,49.415277],[5.435356,49.414886],[5.434219,49.413993],[5.433811,49.412555],[5.431837,49.410852],[5.431236,49.411033],[5.431043,49.410503],[5.430614,49.41],[5.430871,49.408827],[5.431558,49.407948],[5.431172,49.407627],[5.430077,49.407641],[5.42967,49.407445],[5.430142,49.406593],[5.429627,49.405686],[5.428897,49.405323],[5.42864,49.40496],[5.428951,49.404226],[5.428415,49.403668],[5.427578,49.403179],[5.426634,49.402439],[5.426333,49.402551],[5.423608,49.400973],[5.422128,49.40054],[5.419531,49.400065],[5.418694,49.399981],[5.4176,49.399618],[5.417364,49.399087],[5.416227,49.398501],[5.415969,49.398669],[5.415218,49.398724],[5.414231,49.399227],[5.412965,49.398138],[5.411184,49.397328],[5.412107,49.396029],[5.412944,49.395052],[5.413094,49.393962],[5.41303,49.393571],[5.41318,49.39339],[5.411592,49.392789],[5.411828,49.392244],[5.41245,49.391057],[5.412493,49.389214],[5.412858,49.38804],[5.413609,49.386434],[5.413137,49.384534],[5.414553,49.382509],[5.415926,49.381783],[5.418743,49.379114],[5.41973,49.376684],[5.42031,49.376181],[5.421447,49.375482],[5.424065,49.375105],[5.42488,49.374658],[5.425717,49.374308],[5.426597,49.373708],[5.427691,49.372408],[5.424837,49.370452],[5.42252,49.368119],[5.420782,49.367057],[5.418829,49.365338],[5.418314,49.363549],[5.418743,49.358686],[5.415203,49.351865],[5.414489,49.351306],[5.413738,49.349866],[5.412923,49.349293],[5.411206,49.34865],[5.409447,49.347742],[5.408266,49.346134],[5.408112,49.344963],[5.407103,49.343649],[5.403176,49.343956],[5.401717,49.34376],[5.399829,49.343173],[5.398778,49.343802],[5.397705,49.345033],[5.395795,49.344501],[5.393864,49.344641],[5.39292,49.343788],[5.39116,49.343327],[5.389744,49.343173],[5.387705,49.343089],[5.382427,49.342446],[5.378114,49.343481],[5.377041,49.343635],[5.376075,49.343691],[5.374402,49.344012],[5.370732,49.344501],[5.368286,49.344585],[5.366462,49.344501],[5.364359,49.344543],[5.361585,49.34439],[5.357873,49.344753],[5.357744,49.345843],[5.357143,49.345843],[5.35695,49.346542],[5.357101,49.346948],[5.357079,49.347311],[5.356178,49.34692],[5.355084,49.346319],[5.353024,49.346039],[5.351908,49.345746],[5.350084,49.346794],[5.349075,49.347787],[5.348217,49.348458],[5.347445,49.349184],[5.347058,49.349744],[5.346114,49.350121],[5.344269,49.350484],[5.341587,49.350806],[5.339141,49.35082],[5.337917,49.350582],[5.336609,49.35054],[5.336394,49.350694],[5.336394,49.351085],[5.335729,49.352106],[5.3353,49.352525],[5.335064,49.352623],[5.33427,49.354119],[5.333261,49.355251],[5.332403,49.356215],[5.331952,49.356928],[5.331351,49.356998],[5.330751,49.357012],[5.33045,49.357263],[5.330321,49.357948],[5.330557,49.358899],[5.33045,49.359583],[5.329806,49.359667],[5.326609,49.359667],[5.325987,49.360114],[5.324635,49.362406],[5.32015,49.365928],[5.319013,49.368764],[5.320215,49.372565],[5.320258,49.373166],[5.314271,49.375932],[5.313949,49.376309],[5.312554,49.377902],[5.311761,49.378489],[5.311246,49.379243],[5.311095,49.380095],[5.310452,49.38064],[5.309765,49.381227],[5.30925,49.381408],[5.307769,49.381744],[5.307233,49.382191],[5.306074,49.384719],[5.306182,49.385948],[5.306353,49.386577],[5.306375,49.387624],[5.30616,49.38789],[5.304529,49.388337],[5.303993,49.389049],[5.30322,49.389971],[5.302705,49.389985],[5.301826,49.388798],[5.301611,49.387946],[5.300924,49.387275],[5.299143,49.386647],[5.297341,49.386242],[5.296611,49.386004],[5.295882,49.385906],[5.294337,49.38518],[5.293607,49.38511],[5.291848,49.384509],[5.290753,49.383671],[5.289831,49.382442],[5.287985,49.381534],[5.286162,49.379648],[5.28526,49.378405],[5.284273,49.376393],[5.276849,49.370749],[5.276484,49.370357],[5.275046,49.37012],[5.273995,49.369617],[5.273416,49.36917],[5.272235,49.368597],[5.270969,49.367465],[5.270197,49.366249],[5.269425,49.365858],[5.264682,49.365243],[5.259962,49.365243],[5.25743,49.365075],[5.255799,49.365173],[5.253911,49.365285],[5.251937,49.365984],[5.251186,49.366068],[5.248932,49.365914],[5.247323,49.366096],[5.245392,49.365914],[5.243353,49.366068],[5.241809,49.366417],[5.239105,49.367675],[5.236938,49.36903],[5.235908,49.369868],[5.234148,49.37121],[5.233633,49.37188],[5.233204,49.372272],[5.231852,49.372789],[5.229749,49.374172],[5.228269,49.374256],[5.227325,49.374479],[5.224943,49.374745],[5.220351,49.374842],[5.21975,49.37515],[5.218935,49.377385],[5.2196,49.378503],[5.219578,49.378922],[5.21872,49.380626],[5.217733,49.380235],[5.216295,49.380514],[5.215287,49.380528],[5.213012,49.38085],[5.210609,49.381394],[5.209064,49.381534],[5.20812,49.381897],[5.206189,49.381939],[5.203399,49.382749],[5.197477,49.383406],[5.196297,49.383895],[5.19576,49.38444],[5.195009,49.385459],[5.194387,49.386675],[5.194172,49.386912],[5.193443,49.386758],[5.192585,49.386311],[5.191834,49.386269],[5.190804,49.386996],[5.189752,49.388197],[5.189323,49.388434],[5.188572,49.388281],[5.187628,49.388798],[5.185697,49.389482],[5.184066,49.389133],[5.182242,49.388812],[5.18147,49.38856],[5.181362,49.388057],[5.181341,49.387024],[5.180804,49.386968],[5.179774,49.387108],[5.179731,49.386479],[5.180697,49.384817],[5.175461,49.383629],[5.174303,49.384803],[5.172007,49.384174],[5.16808,49.382596],[5.167265,49.383727],[5.166921,49.385264],[5.167286,49.386228],[5.166857,49.387582],[5.166921,49.388434],[5.166728,49.389566],[5.166857,49.392303],[5.166664,49.393602],[5.167029,49.394496],[5.168187,49.39592],[5.170269,49.396898],[5.171299,49.397959],[5.173251,49.399426],[5.173444,49.40071],[5.173423,49.401911],[5.17353,49.402749],[5.173766,49.403754],[5.173423,49.404234],[5.172586,49.404681],[5.172371,49.404932],[5.16999,49.406719],[5.168702,49.407655],[5.168337,49.408437],[5.167822,49.40887],[5.167458,49.40933],[5.166514,49.408981],[5.165698,49.407487],[5.164239,49.406217],[5.15969,49.404332],[5.156965,49.404067],[5.155484,49.404248],[5.149648,49.405644],[5.149068,49.406203],[5.148446,49.406817],[5.146751,49.407348],[5.145893,49.407138],[5.145356,49.406692],[5.144627,49.406552],[5.142395,49.406775],[5.141344,49.406678],[5.139756,49.406273],[5.136044,49.407138],[5.135271,49.407166],[5.134585,49.407348],[5.133533,49.407432],[5.132267,49.407292],[5.130915,49.407459],[5.129842,49.407822],[5.129885,49.408381],[5.129585,49.410322],[5.129821,49.410852],[5.130379,49.410978],[5.130057,49.411201],[5.12907,49.411369],[5.128276,49.411187],[5.127654,49.411117],[5.125637,49.410629],[5.125122,49.410726],[5.125122,49.410922],[5.125401,49.411327],[5.122053,49.414286],[5.117848,49.416729],[5.115723,49.418698],[5.115337,49.419354],[5.115981,49.419647],[5.117697,49.420903],[5.121774,49.424881],[5.122375,49.425216],[5.123148,49.426053],[5.124371,49.428454],[5.12525,49.429291],[5.125444,49.429696],[5.125229,49.430087],[5.12525,49.431287],[5.124757,49.432347],[5.124092,49.433422],[5.123448,49.434259],[5.123427,49.435166],[5.122568,49.436185],[5.122439,49.436952],[5.12259,49.437678],[5.122354,49.438501],[5.121924,49.438934],[5.121946,49.439478],[5.121581,49.439715],[5.121259,49.440175],[5.120294,49.440301],[5.119993,49.440468],[5.12259,49.443426],[5.12314,49.445714],[5.122647,49.446663],[5.122089,49.447402],[5.122132,49.448532],[5.121274,49.448923],[5.120759,49.449844],[5.11975,49.449676],[5.116145,49.448086],[5.115695,49.448644],[5.114214,49.449314],[5.113077,49.449648],[5.112562,49.449662],[5.112519,49.450709],[5.113806,49.453108],[5.114579,49.454307],[5.114278,49.455242],[5.113549,49.455744],[5.112111,49.456497],[5.114944,49.458841],[5.111296,49.463108],[5.111897,49.464838],[5.112476,49.465856],[5.11151,49.466985],[5.109622,49.468059],[5.108721,49.468505],[5.108742,49.468812],[5.110888,49.470011],[5.112283,49.470388],[5.113141,49.472409],[5.113763,49.473176],[5.114429,49.474445],[5.114343,49.474947],[5.113442,49.475561],[5.111832,49.477749],[5.110931,49.478795],[5.110008,49.480858],[5.109901,49.482434],[5.110073,49.483535],[5.109922,49.484218],[5.109064,49.484776],[5.108206,49.485152],[5.10709,49.485487],[5.105867,49.486198],[5.104708,49.48663],[5.102863,49.486727],[5.099773,49.487159],[5.097992,49.487675],[5.096404,49.488344],[5.095095,49.488498],[5.092263,49.488595],[5.091555,49.488776],[5.090761,49.489334],[5.090181,49.489613],[5.089988,49.490114],[5.089516,49.490742],[5.089752,49.492637],[5.089623,49.493111],[5.090181,49.493947],[5.090353,49.494798],[5.090804,49.495759],[5.09149,49.496777],[5.091855,49.497585],[5.092413,49.498491],[5.091855,49.499856],[5.091812,49.500762],[5.090954,49.505096],[5.092949,49.505472],[5.093593,49.50543],[5.095052,49.50511],[5.097134,49.504957],[5.099194,49.504985],[5.100739,49.504664],[5.101575,49.504748],[5.107433,49.506266],[5.108871,49.506448],[5.110888,49.506462],[5.11121,49.506698],[5.112562,49.507158],[5.113656,49.507702],[5.116896,49.509053],[5.11857,49.509165],[5.121145,49.509652],[5.123269,49.509694],[5.124514,49.509987],[5.125351,49.510335],[5.1302,49.509053],[5.133848,49.509875],[5.136015,49.51021],[5.138268,49.510837],[5.140521,49.511199],[5.142495,49.51138],[5.143911,49.512021],[5.147044,49.512286],[5.147881,49.511826],[5.148246,49.511338],[5.148546,49.510892],[5.149319,49.510642],[5.150971,49.510851],[5.151593,49.510697],[5.153632,49.509764],[5.155048,49.510168],[5.159275,49.510906],[5.159533,49.510655],[5.159576,49.509387],[5.159511,49.509095],[5.161721,49.508426],[5.163416,49.507743],[5.165605,49.506183],[5.168416,49.505583],[5.168116,49.505068],[5.171415,49.496689],[5.171212,49.495868],[5.171749,49.494126],[5.171427,49.493666],[5.171985,49.492816],[5.17207,49.492287],[5.1731,49.492105],[5.179881,49.489025],[5.182177,49.488844],[5.184237,49.490363],[5.185331,49.490642],[5.187134,49.490614],[5.188679,49.491032],[5.188829,49.49198],[5.192713,49.492175],[5.191704,49.494001],[5.193528,49.495227],[5.197927,49.497415],[5.198935,49.498419],[5.199708,49.498767],[5.200652,49.498851],[5.204858,49.500523],[5.2096,49.502767],[5.211359,49.503923],[5.214921,49.505261],[5.217775,49.506055],[5.219428,49.50678],[5.223011,49.507671],[5.225286,49.508424],[5.227131,49.509413],[5.228075,49.510388],[5.228225,49.510946],[5.228569,49.511085],[5.22859,49.511447],[5.228096,49.511754],[5.227775,49.513342],[5.228139,49.514429],[5.227946,49.515348],[5.228161,49.516282],[5.229062,49.518079],[5.232088,49.518385],[5.233482,49.518176],[5.236336,49.517995],[5.239834,49.517368],[5.24052,49.517048],[5.240842,49.517243],[5.24037,49.517716],[5.240478,49.517981],[5.242087,49.516978],[5.242473,49.516003],[5.244233,49.515794],[5.246486,49.516532],[5.247494,49.516602],[5.250112,49.516323],[5.253009,49.516323],[5.2567,49.516755],[5.261141,49.516895],[5.260948,49.516602],[5.259532,49.516184],[5.258588,49.515557],[5.257236,49.515028],[5.256635,49.514136],[5.256614,49.513523],[5.257021,49.512102],[5.257322,49.509257],[5.257708,49.509021],[5.25803,49.508756],[5.260819,49.508282],[5.261828,49.508853],[5.263394,49.509132],[5.264639,49.509257],[5.266441,49.509648],[5.270154,49.51171],[5.27187,49.512197],[5.272213,49.511724],[5.274166,49.510233],[5.275647,49.509536],[5.276355,49.508853],[5.276612,49.507808],[5.276569,49.506722],[5.278093,49.50537],[5.278501,49.504771],[5.278179,49.504172],[5.278286,49.503921],[5.279402,49.503377],[5.279981,49.502416],[5.280603,49.501036],[5.282642,49.502151],[5.28423,49.503726],[5.285367,49.503001],[5.286247,49.502987],[5.286805,49.50314],[5.289058,49.502165],[5.290452,49.50093],[5.291997,49.499968],[5.292899,49.49948],[5.293263,49.498714],[5.293499,49.497975],[5.294401,49.496874],[5.295431,49.496456],[5.295602,49.495885],[5.295431,49.495271],[5.29616,49.494547],[5.296868,49.494324],[5.297383,49.49477],[5.29822,49.494923],[5.300666,49.494993],[5.301804,49.495202],[5.302812,49.495871],[5.30307,49.496219],[5.306331,49.498574],[5.309228,49.500205],[5.310773,49.500665],[5.313949,49.501362],[5.316438,49.502323],[5.32221,49.505932],[5.325815,49.506573],[5.327081,49.507325],[5.328437,49.507818],[5.328759,49.50818],[5.328931,49.509044],[5.329338,49.509838],[5.331613,49.510187],[5.332085,49.50995],[5.332793,49.509894],[5.33275,49.508654],[5.333544,49.508445],[5.334982,49.508891],[5.337299,49.508947],[5.339037,49.509936],[5.341526,49.511204],[5.343114,49.511719],[5.344616,49.511705],[5.348951,49.513321],[5.350367,49.513252],[5.353993,49.512597],[5.356225,49.513948],[5.356783,49.515035],[5.356847,49.516066],[5.357233,49.517041],[5.35762,49.518267],[5.358113,49.518908],[5.358971,49.519548],[5.360237,49.520245],[5.361461,49.521986],[5.361933,49.521819],[5.36307,49.52012],[5.363757,49.519465],[5.363885,49.519214],[5.365538,49.519312],[5.36601,49.519019],[5.366567,49.518002],[5.366997,49.51757],[5.36749,49.517487]]],"type":"MultiLineString"},"properties":{"geo_point":{"lon":5.281031194641754,"lat":49.44202314585786},"name":"Tour aux Marches de Meuse (Meuse) (2020)","code_gr":null}}]}