{"type":"FeatureCollection","features":[{"type":"Feature","geometry":{"coordinates":[[[4.455343,45.630702],[4.454892,45.630777],[4.454291,45.630657],[4.453411,45.630807],[4.452596,45.631273],[4.452167,45.631708],[4.451845,45.631858],[4.450944,45.631828],[4.450858,45.631993],[4.450579,45.632248],[4.450643,45.632683],[4.450064,45.632608],[4.448905,45.632728],[4.448262,45.632938],[4.448068,45.633553],[4.446824,45.636029],[4.447146,45.636254],[4.44721,45.636719],[4.446759,45.637244],[4.446438,45.637334],[4.445665,45.637949],[4.4453,45.638114],[4.445064,45.638865],[4.444807,45.63918],[4.444614,45.640365],[4.444528,45.64122],[4.444635,45.6414],[4.444142,45.64254],[4.443712,45.643125],[4.443069,45.64308],[4.44279,45.643215],[4.44279,45.643575],[4.441417,45.64398],[4.440515,45.64437],[4.439485,45.64473],[4.439936,45.646275],[4.441717,45.64803],[4.443197,45.64911],[4.443627,45.64923],[4.443498,45.64995],[4.442876,45.65019],[4.442168,45.65079],[4.441588,45.65091],[4.440944,45.651345],[4.439893,45.65154],[4.439357,45.65151],[4.438262,45.65148],[4.437704,45.65139],[4.437168,45.65136],[4.436803,45.651765],[4.436975,45.652575],[4.439056,45.655125],[4.440086,45.655485],[4.440665,45.65595],[4.440794,45.656385],[4.441781,45.656775],[4.441545,45.65745],[4.441717,45.65778],[4.441674,45.658245],[4.442168,45.658545],[4.44264,45.65874],[4.442854,45.659744],[4.442833,45.660299],[4.443047,45.660689],[4.444013,45.661454],[4.444742,45.661664],[4.445021,45.661904],[4.445708,45.662999],[4.44633,45.663314],[4.447403,45.663689],[4.447875,45.663809],[4.447875,45.663944],[4.447403,45.664243],[4.448304,45.664393],[4.449399,45.665143],[4.449871,45.665218],[4.450686,45.665173],[4.451223,45.665368],[4.452553,45.665548],[4.452939,45.665368],[4.453175,45.665803],[4.453905,45.665998],[4.454355,45.666253],[4.454913,45.666238],[4.455707,45.665893],[4.45736,45.665878],[4.457789,45.666403],[4.457681,45.666853],[4.457338,45.667138],[4.456051,45.667572],[4.454999,45.668097],[4.454377,45.668142],[4.454055,45.668367],[4.453604,45.668832],[4.453068,45.669342],[4.452703,45.669792],[4.452553,45.670706],[4.452768,45.671171],[4.453261,45.671411],[4.452961,45.671816],[4.452918,45.672161],[4.45251,45.672371],[4.451738,45.672191],[4.450751,45.672221],[4.450279,45.672671],[4.450064,45.67324],[4.450429,45.674785],[4.450858,45.675354],[4.450665,45.675624],[4.449249,45.676104],[4.448819,45.676164],[4.44854,45.676614],[4.448583,45.676974],[4.449077,45.677648],[4.448562,45.678593],[4.448648,45.679387],[4.448819,45.679717],[4.448755,45.680167],[4.447038,45.680572],[4.447661,45.681246],[4.448219,45.681891],[4.448712,45.682056],[4.449656,45.681591],[4.449978,45.681696],[4.450407,45.682386],[4.451266,45.682685],[4.451308,45.683105],[4.451974,45.684214],[4.452038,45.684664],[4.452145,45.685159],[4.45163,45.686238],[4.451673,45.687183],[4.451223,45.687213],[4.451201,45.687527],[4.450343,45.687857],[4.450407,45.688696],[4.451051,45.688966],[4.451909,45.689041],[4.452918,45.689926],[4.452939,45.69024],[4.452768,45.690915],[4.453283,45.691994],[4.453175,45.693313],[4.453519,45.693838],[4.455235,45.695801],[4.455128,45.696221],[4.455343,45.699083],[4.454527,45.701631],[4.453476,45.703039],[4.452639,45.703774],[4.452961,45.704088],[4.454227,45.704328],[4.455986,45.704883],[4.456716,45.705287],[4.457081,45.705872],[4.458776,45.706576],[4.460213,45.70734],[4.464784,45.706126],[4.465857,45.706231],[4.466114,45.706666],[4.466715,45.709813],[4.467058,45.709962],[4.467023,45.710331],[4.467516,45.71135],[4.466872,45.712144],[4.465692,45.712983],[4.46507,45.713043],[4.464791,45.713238],[4.464533,45.714331],[4.463675,45.715036],[4.462924,45.715755],[4.462345,45.716009],[4.461615,45.716264],[4.460735,45.717178],[4.460371,45.717238],[4.459963,45.717403],[4.459062,45.717672],[4.459019,45.718302],[4.458847,45.719021],[4.458461,45.719365],[4.458461,45.71956],[4.458954,45.719665],[4.458869,45.720699],[4.458547,45.720893],[4.458225,45.721133],[4.457517,45.721508],[4.457195,45.722481],[4.456294,45.723365],[4.455779,45.72359],[4.455178,45.724009],[4.454641,45.724234],[4.454277,45.724219],[4.454105,45.724549],[4.45359,45.724279],[4.453268,45.724189],[4.450672,45.724309],[4.451187,45.725043],[4.451144,45.725462],[4.451573,45.725927],[4.452088,45.727559],[4.451895,45.728054],[4.452088,45.728159],[4.452109,45.728488],[4.45168,45.729462],[4.451616,45.73036],[4.451122,45.73087],[4.450178,45.731888],[4.450028,45.732218],[4.449771,45.733581],[4.449685,45.736037],[4.448333,45.738598],[4.44808,45.741245],[4.447694,45.741215],[4.448402,45.742324],[4.447844,45.743132],[4.446964,45.744675],[4.443703,45.74731],[4.443853,45.748463],[4.444518,45.748912],[4.445097,45.749182],[4.445805,45.749421],[4.446084,45.75008],[4.447093,45.751098],[4.4469,45.751652],[4.446964,45.752596],[4.447243,45.75296],[4.446385,45.753379],[4.44602,45.753873],[4.44632,45.75549],[4.447114,45.756928],[4.447114,45.757257],[4.446621,45.757302],[4.446385,45.757467],[4.446428,45.758065],[4.446406,45.759368],[4.44587,45.760056],[4.445441,45.760236],[4.445548,45.760431],[4.447908,45.761793],[4.44926,45.762227],[4.449732,45.762512],[4.45014,45.763769],[4.450655,45.764068],[4.449947,45.764428],[4.44926,45.765266],[4.447393,45.76582],[4.447179,45.766254],[4.446814,45.766314],[4.446149,45.765984],[4.445805,45.765984],[4.44514,45.766359],[4.444518,45.766493],[4.443552,45.767092],[4.444046,45.767347],[4.443939,45.768155],[4.444067,45.768544],[4.444003,45.769068],[4.444132,45.769517],[4.444411,45.769607],[4.44514,45.770161],[4.445612,45.770984],[4.44587,45.771253],[4.445827,45.771672],[4.445763,45.771897],[4.446127,45.772316],[4.446492,45.772555],[4.446943,45.773169],[4.446299,45.773827],[4.446149,45.775489],[4.446299,45.776387],[4.445999,45.776836],[4.445505,45.777075],[4.444904,45.7773],[4.444539,45.777599],[4.443831,45.777719],[4.443703,45.779455],[4.443445,45.779829],[4.443359,45.780278],[4.442651,45.780981],[4.442093,45.782822],[4.443102,45.784258],[4.443853,45.784812],[4.444454,45.784692],[4.445805,45.784587],[4.446728,45.784812],[4.448767,45.784902],[4.44838,45.785725],[4.448445,45.786218],[4.448809,45.786682],[4.449024,45.78767],[4.449303,45.788448],[4.449475,45.788642],[4.450033,45.78951],[4.450354,45.789645],[4.451127,45.789645],[4.454346,45.789346],[4.454732,45.789316],[4.455397,45.789196],[4.454732,45.789839],[4.453037,45.790827],[4.452586,45.791351],[4.451749,45.792428],[4.45147,45.792712],[4.451127,45.793355],[4.450784,45.79358],[4.451676,45.793443],[4.452191,45.794146],[4.452491,45.794775],[4.453221,45.795089],[4.454251,45.795164],[4.455367,45.795014],[4.456869,45.794266],[4.457362,45.794132],[4.457791,45.793802],[4.458006,45.793518],[4.458671,45.793309],[4.459422,45.793219],[4.459937,45.792965],[4.461032,45.79268],[4.461568,45.792695],[4.46322,45.793054],[4.46483,45.79271],[4.46528,45.792366],[4.465645,45.791109],[4.465774,45.792157],[4.465495,45.79262],[4.464272,45.793832],[4.464486,45.794446],[4.463928,45.795044],[4.464229,45.795403],[4.46425,45.795643],[4.464443,45.796106],[4.463499,45.797423],[4.463049,45.797632],[4.462791,45.798141],[4.46292,45.798485],[4.46395,45.799113],[4.464894,45.799413],[4.465688,45.799577],[4.466138,45.799846],[4.466482,45.800355],[4.466417,45.800609],[4.466181,45.800983],[4.466246,45.801268],[4.466804,45.801612],[4.467705,45.801926],[4.468885,45.802719],[4.469486,45.802584],[4.469808,45.802644],[4.470494,45.802614],[4.471159,45.803272],[4.471825,45.804259],[4.472619,45.804723],[4.473241,45.804902],[4.473262,45.805396],[4.472533,45.806742],[4.472683,45.807355],[4.472104,45.808417],[4.472254,45.808986],[4.473241,45.809599],[4.474035,45.809749],[4.475043,45.810646],[4.475129,45.811648],[4.474957,45.812336],[4.474206,45.813039],[4.47367,45.814146],[4.473584,45.814983],[4.473412,45.815611],[4.473606,45.81603],[4.473906,45.816598],[4.475365,45.817765],[4.476717,45.818528],[4.478155,45.819754],[4.478841,45.820068],[4.48088,45.820382],[4.48191,45.820472],[4.482897,45.820935],[4.483691,45.821085],[4.484914,45.820741],[4.485794,45.820681],[4.486008,45.821444],[4.48663,45.82267],[4.487102,45.822535],[4.488326,45.822999],[4.489356,45.824285],[4.489677,45.824928],[4.490343,45.825436],[4.4909,45.82566],[4.491351,45.825511],[4.492982,45.82581],[4.493626,45.826169],[4.494055,45.826378],[4.494634,45.826303],[4.495793,45.826408],[4.495964,45.826109],[4.495707,45.82572],[4.495836,45.825346],[4.496694,45.824838],[4.498582,45.823761],[4.499097,45.822924],[4.498947,45.822326],[4.498368,45.821922],[4.499076,45.821503],[4.499655,45.821369],[4.499977,45.82113],[4.500599,45.821518],[4.501608,45.821967],[4.502788,45.822266],[4.503217,45.822266],[4.502938,45.821758],[4.50311,45.821683],[4.503174,45.821249],[4.503582,45.820576],[4.504161,45.820382],[4.506157,45.818782],[4.506951,45.818348],[4.507208,45.818004],[4.507487,45.817436],[4.50826,45.817047],[4.508689,45.816598],[4.509107,45.816964],[4.509794,45.817413],[4.510287,45.817203],[4.511231,45.817188],[4.511789,45.816979],[4.51239,45.816829],[4.51327,45.815992],[4.515094,45.815558],[4.515866,45.815573],[4.51651,45.815424],[4.51769,45.815573],[4.517497,45.815289],[4.518141,45.815468],[4.518441,45.816082],[4.519192,45.816336],[4.52005,45.816725],[4.521037,45.816889],[4.521788,45.816919],[4.522454,45.817069],[4.524428,45.817308],[4.524986,45.817099],[4.52608,45.816934],[4.528183,45.816545],[4.528891,45.81653],[4.530028,45.816231],[4.529814,45.815902],[4.530479,45.815738],[4.531187,45.815753],[4.531616,45.815947],[4.531874,45.815783],[4.532453,45.815887],[4.532904,45.815648],[4.533676,45.815379],[4.535414,45.815169],[4.53668,45.814825],[4.537753,45.814422],[4.538204,45.814137],[4.539427,45.813524],[4.540135,45.81324],[4.540263,45.813061],[4.540607,45.812941],[4.541015,45.812881],[4.542946,45.811341],[4.543933,45.811041],[4.547044,45.810428],[4.547323,45.810892],[4.547731,45.810877],[4.548396,45.810309],[4.548653,45.809396],[4.549233,45.808858],[4.551078,45.808035],[4.551357,45.807811],[4.551979,45.807527],[4.552602,45.807078],[4.554318,45.8063],[4.555069,45.806136],[4.556357,45.805941],[4.557279,45.805717],[4.559017,45.805163],[4.560863,45.804999],[4.561271,45.806554],[4.561614,45.806659],[4.562258,45.807272],[4.563202,45.807796],[4.564554,45.80814],[4.565412,45.809277],[4.566099,45.810548],[4.566828,45.811221],[4.567086,45.811924],[4.567086,45.812358],[4.568008,45.812567],[4.568673,45.812567],[4.569446,45.812253],[4.570175,45.812193],[4.57142,45.812552],[4.572622,45.812657],[4.573523,45.813046],[4.573952,45.81342],[4.574124,45.813599],[4.574832,45.813659],[4.575433,45.814227],[4.575282,45.814975],[4.57466,45.815708],[4.574982,45.816441],[4.575111,45.817143],[4.575561,45.817099],[4.575604,45.817383],[4.575819,45.817592],[4.575969,45.818026],[4.576377,45.818504],[4.576742,45.818744],[4.577214,45.81834],[4.57775,45.818534],[4.578394,45.818609],[4.579102,45.818459],[4.581848,45.819237],[4.582621,45.819536],[4.584617,45.819207],[4.588114,45.817637],[4.590131,45.81647],[4.591204,45.816007],[4.591848,45.815468],[4.59262,45.815065],[4.5932,45.814706],[4.594444,45.814437],[4.597255,45.813375],[4.598478,45.81324],[4.598349,45.812986],[4.597834,45.812881],[4.598178,45.812537],[4.598028,45.811759],[4.598156,45.81161],[4.59792,45.811176],[4.598135,45.811027],[4.5985,45.811041],[4.598285,45.810862],[4.598349,45.810473],[4.599916,45.811131],[4.60056,45.811101],[4.601182,45.810668],[4.601568,45.810683],[4.60174,45.80986],[4.602319,45.808858],[4.602298,45.809351],[4.602641,45.809695],[4.602984,45.80965],[4.603714,45.808379],[4.603821,45.807901],[4.604486,45.807123],[4.60513,45.806734],[4.607083,45.80618],[4.607726,45.805836],[4.60792,45.805492],[4.607962,45.805208],[4.608349,45.804969],[4.609464,45.80467],[4.611685,45.802896],[4.613809,45.801609],[4.614732,45.800906],[4.615526,45.80122],[4.615676,45.801669],[4.616813,45.801549],[4.616963,45.802013],[4.617264,45.801609],[4.618036,45.80113],[4.618701,45.800233],[4.619538,45.799859],[4.620375,45.799949],[4.620997,45.799231],[4.621598,45.799141],[4.622714,45.799395],[4.623637,45.798976],[4.624989,45.798916],[4.625225,45.798707],[4.625868,45.798662],[4.627049,45.798722],[4.627864,45.798094],[4.628036,45.79769],[4.629044,45.797615],[4.629924,45.797331],[4.630696,45.796942],[4.63104,45.796672],[4.631726,45.796478],[4.632048,45.796164],[4.632649,45.795984],[4.6334,45.795386],[4.635245,45.794922],[4.635353,45.795116],[4.635932,45.795146],[4.636855,45.79582],[4.638335,45.796523],[4.63943,45.796927],[4.64046,45.796882],[4.641189,45.796279],[4.643356,45.795696],[4.64385,45.795022],[4.6443,45.794768],[4.644987,45.794813],[4.646811,45.794499],[4.647047,45.793586],[4.647734,45.793287],[4.648356,45.793182],[4.648957,45.793377],[4.649837,45.793422],[4.650051,45.793706],[4.650394,45.794005],[4.65063,45.794304],[4.651553,45.794753],[4.651982,45.794663],[4.652326,45.794753],[4.653077,45.794514],[4.653635,45.793347],[4.654214,45.792898],[4.65533,45.792569],[4.656295,45.792075],[4.656724,45.791536],[4.657325,45.791103],[4.656381,45.79016],[4.654943,45.789861],[4.654021,45.789786],[4.65327,45.789517],[4.652047,45.789008],[4.651489,45.78817],[4.650545,45.787706],[4.650158,45.787182],[4.650266,45.786823],[4.650158,45.78618],[4.649622,45.785551],[4.649965,45.784833],[4.649837,45.784025],[4.649515,45.783846],[4.648764,45.783771],[4.64812,45.783756],[4.647541,45.783501],[4.646232,45.782454],[4.645438,45.781362],[4.645009,45.780583],[4.643721,45.7797],[4.641318,45.778578],[4.640309,45.778234],[4.639816,45.777845],[4.639344,45.777366],[4.639301,45.776962],[4.638443,45.775675],[4.638142,45.77548],[4.637391,45.774672],[4.638421,45.773325],[4.638142,45.772891],[4.638078,45.772487],[4.637284,45.772232],[4.636833,45.770766],[4.636898,45.770032],[4.636597,45.769538],[4.635653,45.769044],[4.633357,45.768266],[4.631211,45.766904],[4.630739,45.76626],[4.630675,45.765736],[4.630761,45.764988],[4.63061,45.764329],[4.629302,45.762922],[4.628765,45.762728],[4.628658,45.762009],[4.6284,45.76144],[4.629023,45.761051],[4.629967,45.760886],[4.630761,45.760557],[4.630997,45.760093],[4.630889,45.759764],[4.630274,45.75921],[4.629888,45.758596],[4.62948,45.758162],[4.629201,45.757308],[4.6283,45.755991],[4.628579,45.754883],[4.627098,45.755317],[4.625725,45.755961],[4.624566,45.756066],[4.623644,45.756096],[4.6227,45.755901],[4.620575,45.755961],[4.618472,45.755871],[4.618043,45.755946],[4.61697,45.755257],[4.61653,45.754763],[4.616305,45.754089],[4.61594,45.75361],[4.61579,45.752907],[4.614739,45.752712],[4.613816,45.752712],[4.612035,45.752383],[4.611155,45.751694],[4.610297,45.751335],[4.610297,45.750316],[4.610683,45.749328],[4.611091,45.748879],[4.610984,45.74843],[4.611627,45.747801],[4.611348,45.747472],[4.61137,45.746678],[4.611627,45.746259],[4.611563,45.745764],[4.611692,45.74518],[4.611284,45.744102],[4.611091,45.743803],[4.611069,45.743219],[4.61167,45.742335],[4.611649,45.741781],[4.612335,45.741452],[4.612829,45.741047],[4.613902,45.740478],[4.614224,45.739999],[4.614267,45.739415],[4.614524,45.739071],[4.615361,45.738517],[4.615576,45.738097],[4.615533,45.737423],[4.61564,45.737124],[4.616434,45.736704],[4.616005,45.735941],[4.61534,45.735731],[4.613902,45.735626],[4.613151,45.735357],[4.612872,45.735117],[4.611885,45.734683],[4.61122,45.734653],[4.610855,45.734503],[4.610919,45.734158],[4.610512,45.733335],[4.610061,45.73293],[4.608688,45.732616],[4.607615,45.732226],[4.605147,45.730549],[4.605233,45.730309],[4.605855,45.72998],[4.604804,45.729605],[4.603409,45.728347],[4.601907,45.727268],[4.601285,45.727433],[4.60092,45.727718],[4.601027,45.726894],[4.600641,45.72589],[4.599675,45.725007],[4.598109,45.724302],[4.596586,45.723494],[4.594526,45.722954],[4.59326,45.722745],[4.592273,45.722999],[4.591178,45.723149],[4.589161,45.724362],[4.588324,45.724632],[4.587359,45.724527],[4.58517,45.723703],[4.58399,45.723613],[4.580578,45.723104],[4.580278,45.722894],[4.579312,45.722625],[4.578218,45.721861],[4.577145,45.721411],[4.576587,45.721247],[4.575407,45.721007],[4.574506,45.720722],[4.573583,45.720393],[4.572381,45.720677],[4.570514,45.720857],[4.569678,45.720812],[4.56824,45.720872],[4.565901,45.721291],[4.564678,45.721606],[4.56309,45.72228],[4.562146,45.722849],[4.561481,45.723359],[4.560386,45.723449],[4.559721,45.723344],[4.558777,45.723134],[4.557704,45.723179],[4.556824,45.723389],[4.556009,45.723958],[4.555129,45.724887],[4.554185,45.725426],[4.553177,45.725621],[4.550688,45.726175],[4.549979,45.726205],[4.549014,45.725995],[4.549443,45.725651],[4.549293,45.724258],[4.548992,45.723763],[4.548907,45.723404],[4.548263,45.722535],[4.547362,45.721861],[4.546696,45.721486],[4.545967,45.720273],[4.545945,45.719524],[4.545388,45.719434],[4.545151,45.719134],[4.545473,45.718939],[4.545109,45.718595],[4.544765,45.717981],[4.544658,45.717501],[4.543928,45.716782],[4.543006,45.716333],[4.542856,45.715613],[4.543499,45.715464],[4.544679,45.715688],[4.545666,45.715733],[4.547877,45.715254],[4.5493,45.714663],[4.55003,45.714183],[4.55091,45.713779],[4.552047,45.713],[4.552798,45.712071],[4.5543,45.710827],[4.554643,45.710677],[4.555502,45.709778],[4.55578,45.709224],[4.556059,45.708894],[4.556467,45.70801],[4.559578,45.706362],[4.561359,45.705118],[4.562111,45.704758],[4.562518,45.704414],[4.562733,45.703949],[4.563398,45.703185],[4.563677,45.702481],[4.563698,45.701986],[4.564063,45.701551],[4.564535,45.701447],[4.564471,45.700817],[4.564793,45.700338],[4.5649,45.699813],[4.564728,45.699378],[4.564793,45.698329],[4.564557,45.697475],[4.564256,45.696816],[4.564514,45.695542],[4.565436,45.694103],[4.565436,45.693638],[4.565651,45.693294],[4.56578,45.692814],[4.566423,45.692229],[4.566574,45.69202],[4.567282,45.69172],[4.567496,45.69133],[4.568526,45.690401],[4.569707,45.690101],[4.570672,45.688992],[4.571852,45.688662],[4.572882,45.688227],[4.575243,45.686803],[4.575865,45.686264],[4.576573,45.685934],[4.577345,45.685649],[4.577989,45.685589],[4.57844,45.685439],[4.579577,45.685559],[4.582281,45.684945],[4.582924,45.68436],[4.583139,45.68394],[4.583633,45.683506],[4.583332,45.682291],[4.58286,45.682126],[4.581101,45.681092],[4.58035,45.680387],[4.580049,45.679908],[4.579684,45.679143],[4.579835,45.678783],[4.579813,45.678408],[4.579899,45.677884],[4.57932,45.676879],[4.578633,45.676354],[4.577045,45.67604],[4.57565,45.675545],[4.573075,45.673071],[4.572131,45.671766],[4.572389,45.671452],[4.572711,45.669952],[4.572432,45.669682],[4.571638,45.669787],[4.57196,45.669217],[4.572839,45.669142],[4.573118,45.668888],[4.572839,45.668408],[4.57314,45.667688],[4.57299,45.666263],[4.573183,45.665859],[4.572839,45.665529],[4.572002,45.665079],[4.570822,45.664989],[4.570007,45.664809],[4.569578,45.664494],[4.568376,45.664209],[4.567282,45.664059],[4.566638,45.664089],[4.564986,45.663459],[4.563441,45.662994],[4.562904,45.662979],[4.56314,45.66163],[4.563655,45.66046],[4.564299,45.659178],[4.564707,45.658713],[4.5646,45.658488],[4.564986,45.657453],[4.566724,45.655143],[4.566402,45.654258],[4.566853,45.653868],[4.566402,45.653358],[4.566681,45.651289],[4.56799,45.649999],[4.569878,45.648964],[4.570436,45.648439],[4.571337,45.647884],[4.571938,45.647194],[4.573848,45.644553],[4.573655,45.643743],[4.574127,45.643428],[4.57432,45.642828],[4.574663,45.642933],[4.575243,45.643308],[4.575843,45.643413],[4.577732,45.643188],[4.579599,45.643353],[4.579792,45.642513],[4.580135,45.642438],[4.580371,45.642198],[4.581015,45.642183],[4.582903,45.641913],[4.584319,45.641553],[4.585306,45.642093],[4.586229,45.642048],[4.586615,45.642183],[4.586958,45.642513],[4.587516,45.642363],[4.588117,45.641073],[4.58801,45.640773],[4.588825,45.640443],[4.589598,45.640503],[4.590392,45.640293],[4.591207,45.639903],[4.59155,45.639438],[4.59331,45.639813],[4.594147,45.639558],[4.59419,45.639213],[4.594533,45.638913],[4.594576,45.638057],[4.593803,45.637562],[4.593439,45.637217],[4.593181,45.637187],[4.592602,45.636872],[4.592259,45.636857],[4.591829,45.636572],[4.591937,45.636257],[4.592774,45.635672],[4.594018,45.635147],[4.594683,45.635042],[4.595027,45.635162],[4.595778,45.635237],[4.596207,45.635582],[4.596722,45.635747],[4.596765,45.635237],[4.596572,45.634547],[4.596657,45.633676],[4.596636,45.633166],[4.596979,45.631861],[4.596872,45.631201],[4.597623,45.630796],[4.598524,45.630315],[4.599404,45.63015],[4.600327,45.62979],[4.600305,45.629535],[4.599962,45.629205],[4.599897,45.62826],[4.59994,45.626276],[4.600091,45.625541],[4.60037,45.624941],[4.60037,45.624506],[4.59994,45.624085],[4.599211,45.62338],[4.598116,45.62278],[4.597172,45.622224],[4.596207,45.622194],[4.595241,45.621969],[4.59404,45.621039],[4.593417,45.620334],[4.593288,45.619778],[4.593567,45.619268],[4.593482,45.618833],[4.593632,45.618067],[4.593374,45.616867],[4.59301,45.613985],[4.592495,45.612514],[4.592452,45.612289],[4.591186,45.611253],[4.590928,45.610758],[4.590542,45.610428],[4.590263,45.608972],[4.590327,45.608521],[4.589984,45.608206],[4.589748,45.60633],[4.589362,45.605534],[4.589469,45.604048],[4.589619,45.603657],[4.589319,45.602381],[4.58904,45.602066],[4.588997,45.601316],[4.589267,45.601278],[4.588988,45.600227],[4.589053,45.599986],[4.589203,45.599821],[4.589117,45.599671],[4.58946,45.599356],[4.589525,45.599011],[4.58886,45.59829],[4.58798,45.597915],[4.587422,45.59802],[4.586553,45.598441],[4.586403,45.598636],[4.586982,45.599402],[4.587679,45.60133],[4.58798,45.60157],[4.587615,45.60172],[4.586606,45.601856],[4.585512,45.601811],[4.585255,45.601555],[4.583195,45.60112],[4.581693,45.60088],[4.579783,45.60076],[4.578817,45.600625],[4.578195,45.600805],[4.577873,45.601045],[4.577122,45.60097],[4.575856,45.600264],[4.574676,45.600024],[4.573904,45.599964],[4.573002,45.599694],[4.572273,45.599709],[4.570985,45.599318],[4.570771,45.598583],[4.571221,45.597922],[4.571028,45.596946],[4.571007,45.59567],[4.570792,45.594769],[4.571135,45.594409],[4.5712,45.594124],[4.57062,45.594079],[4.570041,45.593553],[4.571629,45.592937],[4.57208,45.591811],[4.571629,45.591331],[4.572208,45.590625],[4.572788,45.589484],[4.572745,45.588283],[4.572745,45.587832],[4.572595,45.587487],[4.572423,45.587051],[4.571608,45.586435],[4.570234,45.58573],[4.569312,45.584739],[4.569333,45.584468],[4.568775,45.584063],[4.568432,45.583582],[4.567488,45.583672],[4.566029,45.582786],[4.564763,45.58211],[4.564398,45.58181],[4.563969,45.58163],[4.564012,45.581285],[4.561866,45.580474],[4.560943,45.580323],[4.560557,45.580413],[4.558604,45.579828],[4.557875,45.579768],[4.555815,45.579227],[4.554463,45.579017],[4.553712,45.578626],[4.55266,45.578461],[4.551373,45.578566],[4.549764,45.578897],[4.54779,45.578972],[4.546159,45.579062],[4.545129,45.578897],[4.544228,45.578476],[4.543498,45.57789],[4.542296,45.576779],[4.541717,45.576148],[4.541138,45.575908],[4.540043,45.575667],[4.538885,45.575142],[4.53794,45.574601],[4.536803,45.57373],[4.535859,45.573294],[4.535366,45.573219],[4.534529,45.572844],[4.533627,45.572708],[4.53264,45.572844],[4.530752,45.572889],[4.529357,45.572754],[4.528842,45.572603],[4.528113,45.572754],[4.52631,45.573444],[4.525624,45.573324],[4.524765,45.573114],[4.524143,45.572423],[4.52204,45.571657],[4.52144,45.571612],[4.519701,45.571897],[4.518156,45.572168],[4.517234,45.571567],[4.516397,45.570951],[4.515174,45.570395],[4.514165,45.570185],[4.513808,45.570468],[4.512971,45.570858],[4.512263,45.570963],[4.510804,45.570873],[4.509774,45.571339],[4.509495,45.57197],[4.509088,45.572601],[4.508894,45.573562],[4.508358,45.574929],[4.508036,45.575469],[4.507886,45.575935],[4.507328,45.576491],[4.506963,45.577542],[4.50589,45.578924],[4.505976,45.579254],[4.505096,45.580516],[4.505333,45.581747],[4.504903,45.583309],[4.504753,45.584556],[4.505054,45.585051],[4.504818,45.586207],[4.504968,45.587199],[4.504646,45.588175],[4.504109,45.588445],[4.503273,45.58891],[4.501899,45.590142],[4.501041,45.590697],[4.500762,45.590938],[4.500612,45.591358],[4.500268,45.591658],[4.500161,45.591989],[4.499689,45.592845],[4.499088,45.59367],[4.498659,45.594106],[4.498488,45.594631],[4.498488,45.595292],[4.497736,45.595547],[4.496256,45.595667],[4.495033,45.595667],[4.493896,45.596118],[4.492265,45.597379],[4.491213,45.597739],[4.490291,45.597919],[4.490226,45.59843],[4.490849,45.599481],[4.491685,45.600547],[4.492672,45.601402],[4.493102,45.601793],[4.493531,45.602618],[4.494496,45.603774],[4.49514,45.605005],[4.495998,45.605606],[4.495977,45.606056],[4.495612,45.606552],[4.495612,45.606867],[4.495333,45.607347],[4.496084,45.607587],[4.496084,45.608173],[4.496985,45.608788],[4.497522,45.609539],[4.498166,45.610218],[4.498573,45.610984],[4.49896,45.611539],[4.49823,45.611599],[4.496041,45.611164],[4.495419,45.611134],[4.49426,45.610909],[4.493187,45.610894],[4.492415,45.611134],[4.491857,45.610834],[4.490913,45.611044],[4.490055,45.610834],[4.488853,45.610894],[4.487973,45.610804],[4.487136,45.610969],[4.486836,45.611299],[4.486385,45.611494],[4.485613,45.611494],[4.48424,45.611149],[4.483467,45.610819],[4.482544,45.610894],[4.482459,45.611284],[4.481193,45.61247],[4.480742,45.61271],[4.480613,45.613325],[4.479927,45.613355],[4.479497,45.612905],[4.47894,45.61295],[4.478575,45.612875],[4.477824,45.61349],[4.477352,45.61352],[4.476493,45.613385],[4.476064,45.61292],[4.474841,45.613595],[4.473897,45.613851],[4.474283,45.614436],[4.474863,45.614871],[4.476558,45.615847],[4.474712,45.616777],[4.474326,45.616807],[4.473661,45.617153],[4.473253,45.617993],[4.472674,45.618428],[4.472524,45.618984],[4.47158,45.619749],[4.470979,45.620064],[4.471344,45.62092],[4.47115,45.621475],[4.469691,45.622555],[4.469091,45.623501],[4.467524,45.624476],[4.465743,45.624821],[4.465228,45.624836],[4.465142,45.625107],[4.464799,45.625527],[4.464778,45.626322],[4.464563,45.626712],[4.463984,45.627012],[4.464391,45.627117],[4.464305,45.627778],[4.464112,45.628168],[4.464026,45.628528],[4.463876,45.629308],[4.463469,45.629563],[4.46334,45.630089],[4.462353,45.630179],[4.461452,45.630134],[4.461044,45.629683],[4.460658,45.629533],[4.459585,45.629668],[4.456109,45.630569]]],"type":"MultiLineString"},"properties":{"geo_point":{"lon":4.533383784735061,"lat":45.709031875870586},"name":"Tour des Monts du Lyonnais (Rhône-Loire) (2020)","code_gr":null}}]}