{"type":"FeatureCollection","features":[{"type":"Feature","geometry":{"coordinates":[[[1.939819,45.092211],[1.941557,45.092949],[1.942528,45.093015],[1.942995,45.093279],[1.943294,45.093635],[1.943443,45.094505],[1.94335,45.094901],[1.943443,45.095969],[1.943929,45.096576],[1.944284,45.097393],[1.944695,45.099793],[1.944209,45.099912],[1.944095,45.100162],[1.943897,45.100249],[1.944267,45.101119],[1.944107,45.101398],[1.944501,45.10158],[1.944452,45.102085],[1.943885,45.102207],[1.942591,45.102772],[1.943102,45.10305],[1.944083,45.103304],[1.945304,45.103785],[1.946325,45.104364],[1.947026,45.104378],[1.949528,45.104293],[1.950349,45.104421],[1.95143,45.104958],[1.951719,45.104962],[1.952391,45.104823],[1.953112,45.104986],[1.953362,45.104668],[1.953762,45.104826],[1.954541,45.103707],[1.955404,45.103987],[1.955928,45.104276],[1.957301,45.104526],[1.958094,45.104746],[1.958773,45.105226],[1.959193,45.105576],[1.959257,45.105955],[1.959901,45.105894],[1.960416,45.105743],[1.959987,45.106364],[1.959944,45.106833],[1.960566,45.107545],[1.960995,45.107439],[1.961832,45.106924],[1.962647,45.106742],[1.963634,45.10703],[1.963785,45.10647],[1.9643,45.106061],[1.964536,45.105531],[1.964836,45.10544],[1.965287,45.106288],[1.965566,45.106137],[1.965995,45.106243],[1.965866,45.105879],[1.966081,45.105349],[1.966317,45.105622],[1.966488,45.105394],[1.967025,45.105304],[1.967324,45.104986],[1.966999,45.104646],[1.966857,45.103987],[1.967013,45.103197],[1.967282,45.103197],[1.96789,45.103687],[1.96806,45.104057],[1.968485,45.104266],[1.969108,45.104336],[1.969235,45.104476],[1.969264,45.104966],[1.969419,45.104996],[1.969462,45.104816],[1.969646,45.104816],[1.970637,45.105056],[1.970524,45.104856],[1.970679,45.104836],[1.971331,45.105186],[1.971472,45.105356],[1.97218,45.105406],[1.973029,45.105296],[1.973171,45.105106],[1.973044,45.104676],[1.973199,45.104157],[1.973581,45.104017],[1.974558,45.104176],[1.974672,45.103837],[1.974813,45.103697],[1.975011,45.103817],[1.975195,45.104476],[1.975634,45.104486],[1.976229,45.104366],[1.977163,45.104226],[1.977637,45.103601],[1.978038,45.103573],[1.978318,45.103884],[1.978759,45.103898],[1.981902,45.102456],[1.981682,45.102216],[1.981642,45.101623],[1.982803,45.100987],[1.983223,45.100662],[1.983644,45.100534],[1.984064,45.100096],[1.984565,45.099446],[1.985245,45.099135],[1.986346,45.098867],[1.987988,45.098683],[1.98943,45.097524],[1.991151,45.098726],[1.992873,45.099573],[1.994818,45.100709],[1.995761,45.101157],[1.996639,45.101295],[1.998867,45.101386],[1.999322,45.101478],[1.999713,45.101272],[2.001111,45.101031],[2.002363,45.099688],[2.003648,45.098884],[2.004494,45.098723],[2.005047,45.098276],[2.005372,45.098126],[2.006396,45.098],[2.008006,45.097667],[2.007827,45.096669],[2.006982,45.095038],[2.008201,45.095211],[2.008771,45.095084],[2.008998,45.094832],[2.009389,45.094579],[2.009811,45.094476],[2.010478,45.094843],[2.012169,45.095119],[2.012218,45.095486],[2.012364,45.095865],[2.012332,45.0966],[2.012641,45.09668],[2.013129,45.096692],[2.013763,45.096806],[2.014462,45.096783],[2.015405,45.097185],[2.016218,45.09831],[2.016739,45.098666],[2.016999,45.098689],[2.017097,45.098517],[2.016918,45.098184],[2.016869,45.097851],[2.017292,45.097311],[2.017422,45.096967],[2.018121,45.096221],[2.018755,45.096382],[2.018869,45.096657],[2.019016,45.097426],[2.019325,45.098012],[2.019666,45.098195],[2.020268,45.098643],[2.02043,45.09862],[2.020512,45.09839],[2.020333,45.097931],[2.020186,45.096956],[2.021032,45.096129],[2.021471,45.096152],[2.022252,45.096037],[2.023162,45.096049],[2.024349,45.095119],[2.025325,45.09466],[2.026252,45.09466],[2.026529,45.094292],[2.026496,45.093649],[2.027212,45.093443],[2.027781,45.09474],[2.027764,45.095211],[2.027277,45.095853],[2.027358,45.096244],[2.02796,45.096611],[2.028789,45.097346],[2.029569,45.097656],[2.030269,45.097966],[2.030594,45.097828],[2.031277,45.096818],[2.032676,45.095578],[2.034058,45.095153],[2.034302,45.094855],[2.034302,45.093856],[2.034741,45.093236],[2.03479,45.092432],[2.034936,45.091594],[2.035668,45.091112],[2.035733,45.090573],[2.035863,45.090366],[2.036286,45.090182],[2.037278,45.090067],[2.038741,45.089585],[2.039701,45.089735],[2.040107,45.089654],[2.040595,45.090596],[2.041132,45.090722],[2.041912,45.091181],[2.04188,45.092283],[2.041912,45.092685],[2.042351,45.093167],[2.042514,45.093592],[2.042855,45.093075],[2.043116,45.092972],[2.043278,45.093098],[2.043376,45.09358],[2.043896,45.093867],[2.044254,45.093397],[2.0451,45.093259],[2.045978,45.092892],[2.046449,45.092478],[2.046905,45.092249],[2.047555,45.0921],[2.048498,45.092157],[2.049149,45.091514],[2.049442,45.090917],[2.05071,45.090722],[2.051328,45.0904],[2.052157,45.090228],[2.052938,45.089264],[2.05297,45.088782],[2.052417,45.088127],[2.052239,45.087553],[2.052239,45.087186],[2.052661,45.086784],[2.053621,45.086439],[2.054271,45.0866],[2.055117,45.086118],[2.055263,45.085532],[2.055198,45.085142],[2.055393,45.084981],[2.056532,45.084958],[2.056889,45.08528],[2.057263,45.085395],[2.058451,45.08505],[2.058532,45.084901],[2.058386,45.084763],[2.058369,45.084292],[2.057946,45.08404],[2.057946,45.083489],[2.058044,45.08257],[2.05728,45.082765],[2.056678,45.08218],[2.056304,45.082134],[2.056239,45.081801],[2.056093,45.08125],[2.055767,45.080882],[2.055166,45.079826],[2.055019,45.07932],[2.055068,45.079125],[2.055881,45.079366],[2.056239,45.079343],[2.056515,45.079125],[2.056776,45.079091],[2.056857,45.079665],[2.05728,45.080469],[2.057784,45.080882],[2.05832,45.081192],[2.059865,45.081812],[2.061573,45.082122],[2.061996,45.081341],[2.062061,45.080871],[2.062288,45.080825],[2.062662,45.080572],[2.062971,45.079872],[2.063297,45.079366],[2.06341,45.07893],[2.06398,45.078092],[2.064386,45.077828],[2.065606,45.077506],[2.066191,45.077506],[2.067151,45.077828],[2.067492,45.077965],[2.067346,45.077736],[2.06733,45.077621],[2.066939,45.077345],[2.066825,45.076829],[2.0665,45.076541],[2.06598,45.076335],[2.065524,45.076254],[2.065248,45.075623],[2.064858,45.075083],[2.064354,45.074819],[2.064012,45.074566],[2.064256,45.074497],[2.064565,45.074578],[2.06476,45.074773],[2.065476,45.074957],[2.065899,45.074899],[2.066061,45.074957],[2.066045,45.075301],[2.066403,45.075301],[2.066825,45.075106],[2.067199,45.075152],[2.06733,45.075405],[2.067606,45.075519],[2.067948,45.075474],[2.068696,45.076036],[2.068419,45.075623],[2.068273,45.075267],[2.067882,45.074934],[2.067882,45.074647],[2.06772,45.074371],[2.067021,45.074394],[2.067021,45.0739],[2.06689,45.073441],[2.067053,45.073475],[2.066614,45.072901],[2.067232,45.073073],[2.067053,45.072752],[2.066728,45.072717],[2.067313,45.072545],[2.067704,45.072557],[2.06759,45.072396],[2.066874,45.072292],[2.066516,45.072189],[2.067004,45.072143],[2.067931,45.071718],[2.06837,45.071764],[2.068484,45.07189],[2.068744,45.072109],[2.069102,45.072522],[2.069395,45.072637],[2.069915,45.072488],[2.070712,45.071925],[2.07133,45.07189],[2.071948,45.072017],[2.072127,45.071913],[2.072013,45.071718],[2.070728,45.071374],[2.070322,45.071339],[2.069671,45.0715],[2.069265,45.071167],[2.069444,45.070547],[2.069444,45.070191],[2.069151,45.07011],[2.068939,45.069961],[2.068891,45.069743],[2.068614,45.069364],[2.068826,45.068778],[2.068988,45.068767],[2.068874,45.069272],[2.06959,45.069674],[2.070501,45.070524],[2.070745,45.070501],[2.069704,45.069559],[2.06907,45.069192],[2.069216,45.068916],[2.069639,45.06887],[2.070322,45.068732],[2.071427,45.068394],[2.071741,45.068086],[2.072351,45.067889],[2.072826,45.067802],[2.073574,45.06709],[2.073981,45.066814],[2.074469,45.066251],[2.075005,45.066033],[2.075347,45.066068],[2.076209,45.066228],[2.076843,45.065999],[2.077884,45.065367],[2.078485,45.064793],[2.078827,45.064035],[2.078859,45.063529],[2.079347,45.06284],[2.080746,45.062082],[2.080046,45.061531],[2.079006,45.062013],[2.078111,45.062254],[2.07707,45.062943],[2.07668,45.062725],[2.076436,45.062369],[2.07642,45.061898],[2.076648,45.062047],[2.076761,45.062323],[2.076989,45.062404],[2.077038,45.06176],[2.076387,45.0616],[2.076095,45.06137],[2.076713,45.061209],[2.075444,45.060531],[2.075526,45.060382],[2.07681,45.060267],[2.076843,45.060106],[2.076306,45.060049],[2.076176,45.059739],[2.076339,45.059532],[2.076745,45.059509],[2.077282,45.059693],[2.077266,45.059141],[2.077981,45.058395],[2.078664,45.057981],[2.079054,45.057418],[2.079363,45.057372],[2.079558,45.057005],[2.080518,45.057062],[2.080502,45.057292],[2.080664,45.057349],[2.081152,45.057143],[2.081982,45.057223],[2.082518,45.055844],[2.082567,45.054788],[2.082762,45.053892],[2.082437,45.05326],[2.082404,45.052766],[2.08177,45.052295],[2.0819,45.051801],[2.081591,45.051467],[2.080762,45.05118],[2.080518,45.051008],[2.080388,45.050721],[2.080485,45.050181],[2.080372,45.049537],[2.079477,45.04724],[2.079477,45.046768],[2.078989,45.0457],[2.078339,45.044965],[2.078615,45.044011],[2.079461,45.043023],[2.079867,45.043046],[2.080095,45.042954],[2.080388,45.043161],[2.080648,45.042931],[2.081071,45.04246],[2.081738,45.041943],[2.082193,45.041943],[2.082567,45.042425],[2.083266,45.042437],[2.083965,45.042793],[2.084437,45.042827],[2.085608,45.042333],[2.086161,45.042276],[2.086746,45.042483],[2.087283,45.042931],[2.087624,45.043149],[2.087901,45.04339],[2.088226,45.04339],[2.089722,45.043218],[2.09047,45.042793],[2.091235,45.042575],[2.092096,45.042678],[2.093381,45.043011],[2.094698,45.042827],[2.095511,45.042954],[2.095885,45.042586],[2.096471,45.042425],[2.097853,45.042598],[2.098406,45.042873],[2.098813,45.042942],[2.098894,45.043161],[2.098731,45.043287],[2.098292,45.043436],[2.098373,45.043505],[2.099073,45.043505],[2.099821,45.043747],[2.100374,45.043712],[2.100764,45.043276],[2.101496,45.042862],[2.101187,45.041081],[2.101008,45.040759],[2.10013,45.040242],[2.099642,45.040162],[2.099349,45.039668],[2.099821,45.039518],[2.099707,45.03907],[2.099154,45.038427],[2.099122,45.037886],[2.099317,45.037048],[2.099658,45.036312],[2.099317,45.035393],[2.09917,45.034588],[2.096081,45.033301],[2.095479,45.033324],[2.095007,45.032899],[2.093576,45.032899],[2.093251,45.032485],[2.092454,45.032163],[2.0933,45.03152],[2.094097,45.030463],[2.094568,45.02975],[2.095398,45.029474],[2.095381,45.028946],[2.095089,45.028313],[2.095788,45.026992],[2.096357,45.026325],[2.096373,45.026095],[2.095576,45.025773],[2.095398,45.025452],[2.094747,45.025095],[2.094471,45.024647],[2.09421,45.023911],[2.09395,45.023544],[2.093609,45.023314],[2.093723,45.022969],[2.093072,45.022417],[2.092877,45.022141],[2.092682,45.021291],[2.092031,45.020739],[2.091787,45.020291],[2.091592,45.019601],[2.091674,45.018969],[2.091495,45.018566],[2.090161,45.01752],[2.08995,45.01721],[2.08956,45.017831],[2.08899,45.018221],[2.087397,45.019118],[2.086177,45.019348],[2.085982,45.020199],[2.086258,45.020727],[2.08608,45.020992],[2.085104,45.021038],[2.084421,45.02098],[2.083852,45.020704],[2.083591,45.020429],[2.083022,45.019635],[2.081282,45.018612],[2.078648,45.018244],[2.076566,45.017486],[2.075835,45.017348],[2.073786,45.017497],[2.07294,45.017382],[2.072647,45.017313],[2.072273,45.017382],[2.071932,45.017601],[2.071119,45.017739],[2.069509,45.017451],[2.068468,45.017371],[2.068029,45.017244],[2.067086,45.016831],[2.065915,45.016463],[2.06398,45.015911],[2.063606,45.015646],[2.06289,45.014922],[2.06224,45.014692],[2.059849,45.014129],[2.056678,45.013796],[2.055995,45.013635],[2.054662,45.012772],[2.052678,45.01229],[2.050043,45.011117],[2.050157,45.009622],[2.050027,45.008565],[2.049718,45.0083],[2.048189,45.008047],[2.047897,45.00776],[2.047067,45.005713],[2.045652,45.006438],[2.044286,45.008024],[2.040579,45.009335],[2.039522,45.009565],[2.038644,45.009852],[2.03731,45.010082],[2.034871,45.010795],[2.03344,45.011197],[2.031342,45.012554],[2.030464,45.012887],[2.029537,45.013094],[2.029017,45.013106],[2.028366,45.013439],[2.027586,45.013635],[2.026366,45.014129],[2.023731,45.014922],[2.022414,45.015497],[2.021975,45.01575],[2.021455,45.016267],[2.021048,45.017106],[2.020235,45.017888],[2.019585,45.018198],[2.018723,45.018221],[2.017942,45.018084],[2.016869,45.017658],[2.016218,45.017532],[2.015714,45.017555],[2.015015,45.017796],[2.014169,45.017647],[2.013991,45.017141],[2.013503,45.016888],[2.012852,45.016762],[2.012462,45.016819],[2.011795,45.017325],[2.01173,45.017532],[2.011616,45.017543],[2.011177,45.01706],[2.011096,45.016785],[2.010836,45.016865],[2.010234,45.017486],[2.009275,45.017842],[2.008982,45.018244],[2.008624,45.018279],[2.00825,45.018072],[2.007372,45.018302],[2.007128,45.018198],[2.006315,45.018325],[2.005957,45.018072],[2.006071,45.017532],[2.006429,45.016854],[2.005697,45.016911],[2.004786,45.016509],[2.004315,45.016486],[2.004136,45.017095],[2.004006,45.017072],[2.003794,45.016762],[2.003583,45.017106],[2.003225,45.016727],[2.002851,45.016658],[2.002624,45.016325],[2.002136,45.016279],[2.001908,45.016359],[2.001095,45.016267],[2.00051,45.016382],[2.000331,45.01629],[2.000249,45.016095],[1.999631,45.015934],[1.998802,45.015853],[1.998282,45.015853],[1.997647,45.016083],[1.996769,45.016716],[1.995208,45.017003],[1.994785,45.017129],[1.994639,45.017256],[1.994574,45.01767],[1.994363,45.017831],[1.993826,45.018061],[1.993452,45.018118],[1.992671,45.0189],[1.99259,45.018325],[1.992297,45.018072],[1.990736,45.017451],[1.990476,45.017152],[1.99033,45.015899],[1.989338,45.014439],[1.988996,45.014232],[1.987419,45.014175],[1.988183,45.013715],[1.985646,45.01291],[1.984101,45.011876],[1.983288,45.011519],[1.981272,45.009898],[1.980003,45.009128],[1.979467,45.008668],[1.978312,45.008254],[1.977662,45.007714],[1.976751,45.006714],[1.976198,45.003862],[1.97584,45.003023],[1.975661,45.002333],[1.975336,45.001919],[1.972555,45.001401],[1.971368,45.001999],[1.97049,45.002666],[1.96888,45.003908],[1.967579,45.004713],[1.966864,45.004736],[1.965742,45.004897],[1.964896,45.005161],[1.964506,45.005449],[1.964115,45.005978],[1.963644,45.006288],[1.96288,45.006346],[1.962538,45.00615],[1.962099,45.006196],[1.961774,45.006484],[1.959871,45.007208],[1.958538,45.008381],[1.957058,45.009634],[1.956635,45.010082],[1.956521,45.010381],[1.956668,45.010945],[1.955432,45.011025],[1.95535,45.011209],[1.955741,45.011427],[1.955806,45.011864],[1.955627,45.012784],[1.955741,45.013715],[1.955578,45.014221],[1.954911,45.015313],[1.954261,45.016141],[1.954212,45.017118],[1.953708,45.017129],[1.951935,45.016647],[1.951155,45.016647],[1.950797,45.016831],[1.949919,45.016991],[1.949642,45.016428],[1.947675,45.015428],[1.947203,45.014773],[1.946748,45.014382],[1.946374,45.014164],[1.946162,45.013842],[1.946114,45.013152],[1.945902,45.012876],[1.944975,45.012703],[1.944455,45.012531],[1.94426,45.012382],[1.942455,45.013048],[1.941349,45.013094],[1.940259,45.012956],[1.940064,45.013083],[1.939853,45.014152],[1.938861,45.013692],[1.939023,45.014382],[1.939007,45.014899],[1.938649,45.015451],[1.938714,45.016543],[1.937901,45.017198],[1.93673,45.017578],[1.936161,45.018095],[1.935413,45.018302],[1.93486,45.018739],[1.93447,45.01944],[1.933917,45.019819],[1.933413,45.020141],[1.93286,45.020624],[1.932307,45.020693],[1.932242,45.020796],[1.932763,45.020992],[1.93325,45.021383],[1.933624,45.022038],[1.935039,45.023647],[1.935186,45.024199],[1.935218,45.02521],[1.93499,45.026302],[1.934031,45.028302],[1.93421,45.028497],[1.935186,45.029175],[1.935332,45.029486],[1.935234,45.031336],[1.935722,45.034278],[1.935787,45.035726],[1.935186,45.036841],[1.93608,45.037381],[1.936617,45.037599],[1.937316,45.037794],[1.938405,45.038576],[1.938991,45.039219],[1.939397,45.040472],[1.939544,45.041678],[1.939381,45.042322],[1.93891,45.043195],[1.939137,45.044126],[1.939105,45.044494],[1.938178,45.045344],[1.938178,45.045987],[1.937885,45.047251],[1.937121,45.048423],[1.936747,45.049308],[1.936503,45.049675],[1.93673,45.050456],[1.936617,45.05087],[1.936178,45.051284],[1.935641,45.051743],[1.935885,45.052674],[1.936096,45.052927],[1.936031,45.053375],[1.934714,45.054271],[1.934568,45.054627],[1.9346,45.055109],[1.934194,45.055741],[1.933559,45.055913],[1.933104,45.056465],[1.932161,45.05697],[1.93138,45.057682],[1.9306,45.058636],[1.93034,45.059164],[1.930193,45.060083],[1.929835,45.060899],[1.929835,45.061243],[1.929608,45.06168],[1.92938,45.06191],[1.929169,45.062335],[1.929201,45.062576],[1.928892,45.062817],[1.928567,45.063254],[1.928681,45.063724],[1.928713,45.064138],[1.929022,45.064379],[1.929559,45.064437],[1.929608,45.064609],[1.929006,45.06508],[1.9286,45.065183],[1.928242,45.065631],[1.928567,45.065757],[1.929526,45.065355],[1.93034,45.065608],[1.930746,45.065562],[1.930941,45.065424],[1.931006,45.065022],[1.932584,45.066091],[1.933462,45.067216],[1.933836,45.067193],[1.933966,45.067549],[1.934616,45.068238],[1.935446,45.068089],[1.937186,45.068962],[1.938096,45.069708],[1.939804,45.070616],[1.93995,45.070972],[1.939202,45.072143],[1.93782,45.072281],[1.937039,45.07328],[1.937023,45.07359],[1.936779,45.073648],[1.935999,45.074371],[1.935787,45.075175],[1.935413,45.076002],[1.935755,45.076806],[1.936698,45.077782],[1.936633,45.078815],[1.937088,45.08125],[1.937039,45.082582],[1.937397,45.084419],[1.937966,45.085349],[1.937235,45.085567],[1.936942,45.085842],[1.937072,45.086152],[1.935657,45.086738],[1.934259,45.088162],[1.933689,45.088529],[1.933885,45.08869],[1.933738,45.08931],[1.933055,45.0904],[1.934779,45.090871],[1.935462,45.090825],[1.937999,45.091468],[1.938747,45.091721]]],"type":"MultiLineString"},"properties":{"geo_point":{"lon":2.012613316281133,"lat":45.05499716370292},"name":"Tour de la Xaintrie Noire (Corrèze) (2020)","code_gr":null}}]}