{"type":"FeatureCollection","features":[{"type":"Feature","geometry":{"coordinates":[[[0.592331,43.655811],[0.595324,43.664497],[0.594713,43.664613],[0.593875,43.662067],[0.592438,43.662036],[0.592433,43.661388],[0.591741,43.658846],[0.591371,43.659587],[0.590957,43.660018],[0.590099,43.660189],[0.588694,43.662719],[0.588125,43.664256],[0.588146,43.665001],[0.587331,43.6657],[0.581323,43.666973],[0.580335,43.666988],[0.579091,43.667376],[0.577847,43.667609],[0.576967,43.667982],[0.575937,43.669239],[0.575701,43.669906],[0.574993,43.670092],[0.574177,43.669658],[0.572783,43.670527],[0.571624,43.670605],[0.57171,43.671365],[0.570229,43.672064],[0.569382,43.672327],[0.568335,43.673115],[0.567697,43.675505],[0.56729,43.675784],[0.566968,43.676379],[0.566646,43.676634],[0.566668,43.677367],[0.565927,43.677402],[0.565568,43.67788],[0.565149,43.677868],[0.562021,43.679381],[0.561834,43.67978],[0.562526,43.680723],[0.562354,43.681449],[0.562333,43.682042],[0.5617,43.682585],[0.561174,43.682865],[0.560761,43.683501],[0.559538,43.684386],[0.559044,43.685053],[0.559068,43.685324],[0.55971,43.685499],[0.560616,43.686298],[0.56038,43.686511],[0.560498,43.686787],[0.559758,43.687287],[0.55911,43.687482],[0.558355,43.687607],[0.557714,43.687857],[0.557356,43.688041],[0.556161,43.688705],[0.555572,43.689086],[0.554265,43.689521],[0.553235,43.689832],[0.551781,43.690487],[0.551454,43.69098],[0.549651,43.691352],[0.548879,43.691306],[0.547398,43.691779],[0.547033,43.692024],[0.546427,43.692187],[0.546261,43.692438],[0.545639,43.692594],[0.544748,43.69323],[0.543788,43.693373],[0.544064,43.694065],[0.544297,43.695312],[0.543622,43.695623],[0.543171,43.695768],[0.542564,43.695806],[0.541862,43.697868],[0.54102,43.699288],[0.540132,43.700091],[0.539566,43.700413],[0.538064,43.701964],[0.536584,43.702895],[0.535478,43.703387],[0.533724,43.703915],[0.533022,43.706819],[0.532421,43.707595],[0.532099,43.708607],[0.531616,43.709782],[0.529545,43.710511],[0.529543,43.710664],[0.529336,43.710817],[0.529116,43.711674],[0.527872,43.712248],[0.5274,43.712698],[0.527239,43.713144],[0.525485,43.713753],[0.52431,43.714497],[0.522679,43.715598],[0.52122,43.7163],[0.518865,43.717862],[0.517508,43.718483],[0.517658,43.719165],[0.518151,43.71963],[0.51901,43.720065],[0.519095,43.720894],[0.518377,43.721328],[0.5182,43.722535],[0.517765,43.722763],[0.51637,43.723135],[0.515641,43.723724],[0.515598,43.724159],[0.515212,43.724577],[0.515239,43.725004],[0.515515,43.725558],[0.515448,43.725694],[0.513455,43.726589],[0.512652,43.72685],[0.510432,43.727763],[0.510298,43.728035],[0.511457,43.72957],[0.511264,43.730314],[0.511306,43.732764],[0.511607,43.733344],[0.511585,43.733887],[0.510695,43.734228],[0.509891,43.734686],[0.509118,43.735468],[0.509268,43.735887],[0.508774,43.736212],[0.509053,43.737453],[0.509182,43.739143],[0.508538,43.740042],[0.508689,43.741654],[0.508603,43.742693],[0.50871,43.743359],[0.508538,43.744522],[0.509568,43.745623],[0.509246,43.747049],[0.508624,43.748335],[0.508689,43.7488],[0.509568,43.749777],[0.509912,43.752032],[0.510062,43.752536],[0.509933,43.753171],[0.50944,43.753559],[0.50901,43.754334],[0.50886,43.755388],[0.508335,43.756364],[0.507423,43.75765],[0.507637,43.758131],[0.508629,43.758615],[0.50974,43.758999],[0.509998,43.759433],[0.509885,43.759828],[0.51042,43.759896],[0.511191,43.760126],[0.512594,43.760223],[0.513774,43.760657],[0.51342,43.760975],[0.51313,43.761455],[0.512894,43.762455],[0.513302,43.763323],[0.512819,43.763776],[0.510255,43.765662],[0.510512,43.767584],[0.510169,43.768963],[0.51026,43.769935],[0.510193,43.77034],[0.510519,43.771464],[0.510512,43.772418],[0.511264,43.773178],[0.511306,43.774727],[0.512487,43.776493],[0.513452,43.777005],[0.512637,43.7775],[0.511714,43.777284],[0.50973,43.777671],[0.508839,43.778368],[0.508088,43.778507],[0.507466,43.778817],[0.506478,43.778926],[0.505363,43.780444],[0.504483,43.784611],[0.504054,43.785417],[0.504204,43.78616],[0.504193,43.787346],[0.503544,43.787416],[0.500583,43.788178],[0.499108,43.788182],[0.49487,43.789243],[0.491989,43.789746],[0.490023,43.78958],[0.489656,43.789475],[0.488905,43.789894],[0.488712,43.790281],[0.487403,43.790281],[0.486823,43.79042],[0.486265,43.790219],[0.485766,43.789518],[0.483393,43.789481],[0.482339,43.789274],[0.47942,43.789615],[0.477923,43.789611],[0.476481,43.789727],[0.475424,43.789333],[0.474077,43.7885],[0.473584,43.788019],[0.473058,43.787899],[0.467962,43.788763],[0.467061,43.788732],[0.465408,43.789057],[0.463735,43.789181],[0.462576,43.790203],[0.461257,43.790931],[0.45998,43.791474],[0.459014,43.791427],[0.458252,43.791869],[0.456761,43.793007],[0.454787,43.794126],[0.454208,43.793905],[0.453542,43.793394],[0.453135,43.793255],[0.452298,43.793553],[0.448929,43.79437],[0.446987,43.79444],[0.445909,43.794567],[0.444788,43.794633],[0.443822,43.795052],[0.442749,43.795253],[0.441387,43.796097],[0.440877,43.796318],[0.440239,43.796693],[0.439166,43.796771],[0.43775,43.796569],[0.435926,43.796569],[0.435861,43.796895],[0.435089,43.796895],[0.434467,43.796554],[0.434552,43.795826],[0.434016,43.795253],[0.433069,43.795842],[0.432465,43.79643],[0.432224,43.796856],[0.431548,43.797511],[0.430905,43.799229],[0.430808,43.800416],[0.430507,43.801284],[0.430529,43.802094],[0.430245,43.802573],[0.430111,43.803136],[0.429564,43.80376],[0.428909,43.804685],[0.423592,43.804124],[0.423437,43.803632],[0.422321,43.803446],[0.421141,43.803616],[0.421334,43.803972],[0.420948,43.804437],[0.419854,43.804871],[0.416399,43.804762],[0.416416,43.805285],[0.415734,43.805536],[0.415026,43.806682],[0.415176,43.808649],[0.413314,43.80921],[0.412537,43.809857],[0.4114,43.810414],[0.411614,43.811916],[0.409855,43.812381],[0.408696,43.813155],[0.407494,43.813589],[0.4067,43.814084],[0.406228,43.814951],[0.406421,43.815586],[0.407087,43.81605],[0.408843,43.816494],[0.410622,43.816752],[0.410584,43.817243],[0.410713,43.817661],[0.411421,43.817723],[0.412451,43.81811],[0.41391,43.818261],[0.415133,43.818206],[0.414871,43.818744],[0.414833,43.819812],[0.413717,43.820753],[0.412751,43.821779],[0.412751,43.822955],[0.412236,43.824875],[0.411743,43.825696],[0.411678,43.826098],[0.411163,43.826593],[0.411271,43.827491],[0.410219,43.828219],[0.410005,43.828807],[0.410262,43.829628],[0.410734,43.830123],[0.411464,43.830154],[0.411485,43.830897],[0.410284,43.831361],[0.408567,43.8326],[0.406915,43.833544],[0.4064,43.83359],[0.406078,43.833822],[0.404082,43.83438],[0.403396,43.834906],[0.402468,43.834182],[0.399249,43.836365],[0.397109,43.8352],[0.396035,43.83481],[0.395386,43.835413],[0.39433,43.836802],[0.393783,43.836732],[0.392688,43.838682],[0.392924,43.839503],[0.391658,43.843357],[0.391063,43.844165],[0.390907,43.844718],[0.392071,43.845639],[0.391744,43.846235],[0.392131,43.846452],[0.392082,43.848232],[0.392426,43.848638],[0.392603,43.850367],[0.392646,43.852053],[0.392989,43.853214],[0.393429,43.85323],[0.393718,43.852889],[0.394765,43.8528],[0.397833,43.852931],[0.400456,43.852579],[0.401357,43.854003],[0.400821,43.854204],[0.40095,43.854575],[0.401336,43.854591],[0.401486,43.854916],[0.400757,43.855117],[0.399705,43.85586],[0.399061,43.856664],[0.399576,43.858072],[0.395585,43.85849],[0.396486,43.861089],[0.396229,43.861321],[0.395692,43.861259],[0.394169,43.862656],[0.393268,43.862992],[0.393203,43.863224],[0.391122,43.86392],[0.38926,43.864794],[0.388375,43.865328],[0.387292,43.865503],[0.386605,43.865323],[0.38579,43.865244],[0.384813,43.865003],[0.384363,43.865916],[0.384443,43.866438],[0.384865,43.867461],[0.385114,43.868376],[0.385307,43.869753],[0.385264,43.871145],[0.385404,43.872046],[0.385667,43.872893],[0.38484,43.873163],[0.385049,43.873589],[0.385629,43.873929],[0.385843,43.874548],[0.386358,43.875074],[0.386466,43.876033],[0.385891,43.876887],[0.385564,43.877858],[0.384856,43.878662],[0.383048,43.879308],[0.381037,43.879853],[0.380339,43.880325],[0.380768,43.880785],[0.381648,43.880916],[0.380726,43.881752],[0.382061,43.882842],[0.379642,43.88457],[0.378934,43.884524],[0.379198,43.88502],[0.379149,43.885359],[0.377389,43.886581],[0.375329,43.888421],[0.378108,43.889658],[0.378071,43.890926],[0.382367,43.890509],[0.383204,43.890602],[0.383183,43.891127],[0.382947,43.891344],[0.382646,43.892504],[0.381895,43.892705],[0.382265,43.895244],[0.383333,43.897761],[0.382861,43.89923],[0.383097,43.900405],[0.384298,43.900513],[0.384406,43.901564],[0.386423,43.902136],[0.387088,43.904548],[0.388048,43.905441],[0.388611,43.906218],[0.390586,43.907996],[0.390522,43.908669],[0.390006,43.909263],[0.390071,43.910361],[0.390822,43.911706],[0.390414,43.912448],[0.388993,43.913445],[0.388233,43.914199],[0.38653,43.915447],[0.385264,43.916003],[0.384835,43.916606],[0.38381,43.917297],[0.382426,43.917653],[0.382218,43.917863],[0.382075,43.918273],[0.381867,43.919551],[0.381659,43.919929],[0.381702,43.92047],[0.382003,43.92086],[0.381659,43.921799],[0.382861,43.922325],[0.383698,43.923295],[0.383736,43.923513],[0.384964,43.924674],[0.384449,43.924906],[0.383987,43.925987],[0.383016,43.926459],[0.383698,43.926776],[0.383955,43.92744],[0.387324,43.929944],[0.385532,43.931262],[0.384878,43.932025],[0.384406,43.932293],[0.384562,43.933019],[0.384556,43.933714],[0.384341,43.93497],[0.385393,43.93896],[0.386225,43.939803],[0.385994,43.940482],[0.386584,43.941676],[0.387195,43.942614],[0.385629,43.944916],[0.385543,43.945473],[0.385039,43.945724],[0.381788,43.950355],[0.383526,43.95122],[0.385071,43.952255],[0.385286,43.95278],[0.38545,43.952985],[0.385795,43.95305],[0.384449,43.953537],[0.382786,43.955147],[0.381364,43.956193],[0.3802,43.956437],[0.380222,43.956786],[0.380565,43.95763],[0.382625,43.959144],[0.382196,43.959916],[0.383719,43.960673],[0.383483,43.96082],[0.382887,43.960797],[0.382619,43.960886],[0.383612,43.962233],[0.38417,43.963978],[0.385924,43.964774],[0.38653,43.965245],[0.387238,43.965585],[0.388247,43.966496],[0.389599,43.968303],[0.389599,43.968589],[0.389422,43.969017],[0.38947,43.969237],[0.389824,43.969473],[0.390671,43.969739],[0.391439,43.970608],[0.392367,43.971391],[0.392581,43.971855],[0.392045,43.972094],[0.391911,43.972376],[0.391379,43.972642],[0.391616,43.973924],[0.391648,43.975066],[0.392409,43.976935],[0.392077,43.977985],[0.393579,43.978649],[0.395006,43.979059],[0.395515,43.97956],[0.395821,43.98027],[0.39801,43.981336],[0.398632,43.982077],[0.400113,43.983312],[0.400188,43.983756],[0.400606,43.983991],[0.401486,43.985319],[0.401722,43.986369],[0.402323,43.987002],[0.403074,43.988237],[0.4036,43.988723],[0.404694,43.989248],[0.405091,43.989626],[0.405413,43.989673],[0.406099,43.990321],[0.4064,43.990954],[0.407365,43.991371],[0.407918,43.991846],[0.408337,43.99239],[0.409061,43.992699],[0.409013,43.993385],[0.409254,43.994551],[0.410034,43.996105],[0.409995,43.996418],[0.410557,43.997411],[0.410713,43.998611],[0.411335,43.999645],[0.412687,44.000957],[0.413631,44.001003],[0.414747,44.000849],[0.417257,44.000926],[0.420369,44.000478],[0.426227,43.998858],[0.426592,43.998595],[0.431854,43.996959],[0.431698,43.996249],[0.432272,43.99594],[0.434654,43.996087],[0.436484,43.995844],[0.438114,43.996928],[0.438887,43.996851],[0.439294,43.997175],[0.440153,43.998317],[0.44217,43.999429],[0.442326,43.9999],[0.443286,44.000707],[0.444358,44.000988],[0.444637,44.001621],[0.445539,44.00176],[0.448221,44.002933],[0.448586,44.003781],[0.44953,44.005109],[0.449755,44.005749],[0.449959,44.006872],[0.450302,44.007748],[0.450753,44.007779],[0.451161,44.008304],[0.452555,44.008257],[0.454905,44.007717],[0.457566,44.008006],[0.457587,44.007744],[0.462447,44.006776],[0.463649,44.006015],[0.465923,44.005664],[0.467297,44.005217],[0.468584,44.005016],[0.468777,44.004383],[0.469292,44.004044],[0.469292,44.003303],[0.471223,44.002454],[0.471677,44.002437],[0.4733,44.001972],[0.473466,44.002553],[0.473739,44.002925],[0.475413,44.001764],[0.475971,44.00115],[0.476481,44.000803],[0.477457,44.000614],[0.478353,44.000739],[0.482503,44.000412],[0.484549,44.000386],[0.485707,44.000957],[0.484806,43.998935],[0.485707,43.998734],[0.485938,43.998406],[0.485944,43.997719],[0.48575,43.996496],[0.484828,43.996511],[0.484677,43.995771],[0.485482,43.995446],[0.485976,43.995122],[0.48626,43.995095],[0.486711,43.99523],[0.487445,43.994428],[0.488819,43.994335],[0.489361,43.993826],[0.49178,43.995462],[0.492123,43.994335],[0.492741,43.993339],[0.492172,43.992818],[0.492102,43.991807],[0.492424,43.991047],[0.49324,43.990669],[0.49311,43.989735],[0.493947,43.988932],[0.494527,43.98887],[0.495192,43.988299],[0.495954,43.988137],[0.496351,43.9875],[0.496753,43.987018],[0.496871,43.986408],[0.497391,43.985837],[0.497638,43.985211],[0.498453,43.984038],[0.498249,43.983598],[0.498297,43.983423],[0.498297,43.983423],[0.498565,43.983285],[0.498863,43.983606],[0.499145,43.984208],[0.500487,43.984875],[0.500888,43.985302],[0.500988,43.986029],[0.501409,43.986585],[0.501028,43.988098],[0.501218,43.989798],[0.501141,43.990718],[0.501589,43.991365],[0.502981,43.992621],[0.503429,43.993845],[0.503683,43.994235],[0.503474,43.995709],[0.504655,43.997438],[0.503968,43.997793],[0.504451,43.998495],[0.504628,43.999232],[0.505062,44.000216],[0.505717,44.00355],[0.505921,44.00389],[0.506001,44.004402],[0.510534,44.003519],[0.512336,44.0037],[0.512942,44.003592],[0.514472,44.003936],[0.515233,44.00436],[0.515915,44.005078],[0.516772,44.005372],[0.518371,44.005287],[0.519096,44.005417],[0.520619,44.005109],[0.520785,44.005321],[0.529514,44.003006],[0.529736,44.001298],[0.529701,44.000756],[0.531686,43.999769],[0.53226,44.000162],[0.536476,43.998009],[0.537699,43.997904],[0.537528,43.997021],[0.538628,43.996068],[0.540003,43.99546],[0.540535,43.995391],[0.541638,43.994709],[0.542012,43.994304],[0.543627,43.993818],[0.545859,43.993444],[0.546416,43.993601],[0.545875,43.994628],[0.546819,43.995415],[0.546331,43.995895],[0.548117,43.997372],[0.548707,43.997438],[0.548965,43.997777],[0.549319,43.997866],[0.549378,43.99802],[0.549268,43.998211],[0.549315,43.99843],[0.549553,43.998513],[0.55,43.998437],[0.550271,43.998547],[0.550498,43.998945],[0.55029,43.999197],[0.54959,43.99955],[0.54934,43.999903],[0.551497,44.000787],[0.555059,44.001621],[0.556078,44.002018],[0.556604,44.002058],[0.557146,44.002005],[0.557698,44.002083],[0.559281,44.0026],[0.562226,44.00355],[0.563084,44.003786],[0.564076,44.003755],[0.564769,44.003515],[0.565702,44.00348],[0.565991,44.002489],[0.566206,44.002313],[0.566715,44.002299],[0.566999,44.00213],[0.567252,44.001609],[0.567332,44.001254],[0.567579,44.001187],[0.568207,44.001185],[0.569414,43.999788],[0.569661,43.999688],[0.570369,43.999656],[0.571769,43.998641],[0.57201,43.998202],[0.574317,43.997245],[0.574746,43.998596],[0.575365,43.999298],[0.575482,43.999617],[0.576285,44.00074],[0.577482,44.001941],[0.578576,44.002811],[0.580116,44.00362],[0.581127,44.003944],[0.581811,44.004453],[0.582149,44.005757],[0.583114,44.00551],[0.589332,44.00286],[0.59136,44.002181],[0.591816,44.001574],[0.590957,44.000309],[0.59261,43.999568],[0.594069,44.000181],[0.594819,44.000158],[0.595914,44.000405],[0.596086,44.000101],[0.597169,43.999846],[0.599444,43.998881],[0.600457,43.998263],[0.600589,43.997978],[0.600592,43.997353],[0.601445,43.996669],[0.60156,43.996475],[0.602846,43.996374],[0.604233,43.996063],[0.604664,43.996037],[0.605809,43.995734],[0.606568,43.995693],[0.607759,43.995412],[0.608397,43.994709],[0.61031,43.9937],[0.611197,43.992988],[0.613295,43.992393],[0.613542,43.993465],[0.616428,43.998167],[0.616127,43.999784],[0.619576,43.999676],[0.622208,44.000023],[0.622693,44.0],[0.624104,44.000336],[0.625419,44.000942],[0.62382,44.001941],[0.623229,44.002712],[0.623117,44.003306],[0.623203,44.004611],[0.623959,44.006],[0.623914,44.0067],[0.623698,44.007037],[0.623741,44.007219],[0.623782,44.007739],[0.624223,44.007891],[0.624621,44.008474],[0.625077,44.008527],[0.626134,44.00895],[0.62709,44.009611],[0.627767,44.009814],[0.629861,44.010109],[0.631346,44.010268],[0.632355,44.010039],[0.634967,44.009708],[0.635839,44.009814],[0.639064,44.009512],[0.63877,44.008284],[0.640417,44.007007],[0.642531,44.005768],[0.642767,44.00545],[0.642611,44.004912],[0.645438,44.004816],[0.647487,44.005267],[0.649001,44.00534],[0.649193,44.00598],[0.64995,44.006267],[0.650062,44.006463],[0.651151,44.006436],[0.651588,44.006528],[0.652562,44.007084],[0.65297,44.00803],[0.654542,44.007382],[0.654668,44.006938],[0.654612,44.006517],[0.655282,44.00541],[0.659064,44.003673],[0.66114,44.002701],[0.661604,44.002281],[0.661954,44.001769],[0.662369,44.001625],[0.663967,44.001381],[0.668484,44.000494],[0.668741,43.999985],[0.668248,43.999012],[0.665314,43.995701],[0.664712,43.995161],[0.66441,43.995122],[0.66224,43.994242],[0.661231,43.993536],[0.66063,43.992904],[0.660309,43.991896],[0.6596,43.990947],[0.659354,43.988087],[0.658174,43.988007],[0.65754,43.988103],[0.65709,43.988009],[0.655555,43.987126],[0.654477,43.988075],[0.652863,43.986122],[0.651768,43.985242],[0.649966,43.983127],[0.64878,43.982235],[0.651484,43.980919],[0.651725,43.978676],[0.652455,43.978062],[0.652079,43.977595],[0.65312,43.975514],[0.653024,43.974727],[0.652579,43.974727],[0.651133,43.973665],[0.649961,43.97329],[0.649738,43.973055],[0.649819,43.972775],[0.650397,43.972207],[0.650974,43.971175],[0.650797,43.971017],[0.651524,43.969389],[0.651622,43.968867],[0.651934,43.968357],[0.651379,43.967438],[0.650873,43.967002],[0.651557,43.965363],[0.651892,43.964785],[0.651725,43.963577],[0.651897,43.962743],[0.651624,43.962094],[0.651184,43.961646],[0.651353,43.961098],[0.651211,43.960684],[0.650089,43.95973],[0.648211,43.958804],[0.647737,43.958302],[0.647273,43.957476],[0.646484,43.955414],[0.645219,43.954877],[0.645508,43.953],[0.644816,43.951374],[0.643765,43.950532],[0.643395,43.949818],[0.642252,43.94888],[0.642112,43.947836],[0.641914,43.947369],[0.640688,43.94622],[0.639548,43.94545],[0.63825,43.945341],[0.637011,43.945724],[0.635522,43.945842],[0.63222,43.946307],[0.63104,43.946261],[0.631024,43.945442],[0.630756,43.945106],[0.630702,43.942718],[0.63119,43.942537],[0.631394,43.942329],[0.631384,43.942043],[0.631062,43.941085],[0.630525,43.940621],[0.630493,43.940386],[0.630252,43.940198],[0.629882,43.939061],[0.629533,43.93886],[0.629345,43.938535],[0.629281,43.938338],[0.628476,43.938367],[0.628079,43.93849],[0.626502,43.93864],[0.625611,43.938862],[0.625166,43.939088],[0.623666,43.93868],[0.623142,43.938699],[0.622704,43.938578],[0.623026,43.93809],[0.623122,43.937532],[0.623364,43.937126],[0.623562,43.935839],[0.624962,43.936051],[0.625343,43.935392],[0.626539,43.934184],[0.626405,43.933872],[0.624935,43.934159],[0.624593,43.932474],[0.625475,43.932357],[0.626153,43.932181],[0.626424,43.931777],[0.626362,43.931334],[0.627709,43.929859],[0.627709,43.929859],[0.627902,43.929501],[0.628545,43.929501],[0.629962,43.929656],[0.630927,43.929084],[0.63112,43.928574],[0.632536,43.928821],[0.633631,43.929517],[0.63509,43.929285],[0.635991,43.929455],[0.636334,43.929347],[0.636442,43.92893],[0.636764,43.928327],[0.637322,43.927616],[0.637579,43.927106],[0.638073,43.926395],[0.638931,43.926411],[0.639424,43.925792],[0.640283,43.925221],[0.640841,43.925035],[0.641012,43.92485],[0.64142,43.924633],[0.641398,43.924386],[0.642686,43.923721],[0.64378,43.922918],[0.644531,43.922562],[0.644918,43.921996],[0.645527,43.921183],[0.645927,43.920864],[0.647198,43.918461],[0.648319,43.917159],[0.648941,43.916981],[0.649462,43.916915],[0.64958,43.916645],[0.651446,43.916374],[0.652106,43.916042],[0.654504,43.915118],[0.656923,43.914627],[0.657831,43.91399],[0.658216,43.913568],[0.658963,43.913174],[0.66004,43.913008],[0.660765,43.912718],[0.660925,43.912355],[0.660695,43.91198],[0.660781,43.911464],[0.661242,43.910639],[0.661865,43.910156],[0.662986,43.909538],[0.663205,43.909654],[0.663667,43.909321],[0.6646,43.908923],[0.665684,43.908204],[0.66541,43.907543],[0.665121,43.906376],[0.66526,43.905383],[0.664842,43.904436],[0.664839,43.903789],[0.664579,43.902554],[0.665034,43.900714],[0.664885,43.900262],[0.665887,43.899925],[0.666724,43.899848],[0.666585,43.89933],[0.665622,43.898541],[0.665491,43.898232],[0.665163,43.896544],[0.664826,43.89611],[0.664079,43.894394],[0.663041,43.893729],[0.661547,43.892511],[0.662111,43.892032],[0.661188,43.891638],[0.660043,43.890907],[0.659724,43.890447],[0.659552,43.889874],[0.658358,43.889036],[0.657418,43.888728],[0.656811,43.888236],[0.655159,43.888236],[0.653946,43.887954],[0.650524,43.886689],[0.648201,43.88648],[0.64355,43.884508],[0.652734,43.865839],[0.653453,43.862211],[0.651259,43.861894],[0.648829,43.861894],[0.647117,43.862157],[0.643765,43.863364],[0.643529,43.861844],[0.645331,43.858892],[0.644923,43.858072],[0.643137,43.858749],[0.641941,43.85897],[0.641367,43.859287],[0.640954,43.858332],[0.640954,43.857159],[0.641533,43.855937],[0.64223,43.855918],[0.641613,43.85362],[0.641941,43.851268],[0.644044,43.85085],[0.643894,43.850336],[0.644425,43.850352],[0.644011,43.849814],[0.643341,43.848162],[0.642944,43.847837],[0.642124,43.846227],[0.642362,43.845185],[0.642353,43.84473],[0.642729,43.84408],[0.643513,43.842954],[0.643255,43.842838],[0.643727,43.841434],[0.646082,43.840261],[0.649027,43.83804],[0.649155,43.838059],[0.650261,43.837413],[0.651489,43.837135],[0.650841,43.836341],[0.650186,43.834871],[0.649252,43.833706],[0.648185,43.832893],[0.645781,43.830703],[0.645052,43.829869],[0.643947,43.828857],[0.64274,43.828122],[0.642198,43.827457],[0.64226,43.825891],[0.642,43.824786],[0.64149,43.823838],[0.640417,43.822429],[0.640052,43.821469],[0.639012,43.820463],[0.637413,43.819286],[0.634731,43.816486],[0.633991,43.815853],[0.63317,43.814649],[0.63302,43.812965],[0.633357,43.811657],[0.634109,43.810995],[0.634044,43.810445],[0.63376,43.810112],[0.633529,43.808153],[0.632993,43.806636],[0.632177,43.804731],[0.631534,43.804063],[0.630279,43.802459],[0.629667,43.800798],[0.628631,43.799876],[0.627886,43.798567],[0.627602,43.797584],[0.624861,43.798571],[0.624405,43.797785],[0.623916,43.79787],[0.618144,43.797127],[0.616487,43.796465],[0.61682,43.796086],[0.617085,43.79595],[0.617593,43.795396],[0.618176,43.795017],[0.617909,43.794606],[0.618289,43.792713],[0.617061,43.792395],[0.616556,43.792077],[0.615897,43.791307],[0.614668,43.790501],[0.613911,43.789046],[0.613724,43.788255],[0.614003,43.787709],[0.613944,43.787345],[0.613278,43.78661],[0.612995,43.785375],[0.611176,43.783809],[0.610151,43.782043],[0.609288,43.78159],[0.609164,43.78118],[0.608229,43.780991],[0.60797,43.780771],[0.607195,43.780642],[0.606181,43.780603],[0.606246,43.779743],[0.606514,43.777593],[0.606284,43.777156],[0.605823,43.776958],[0.603757,43.776811],[0.601295,43.775552],[0.60247,43.773631],[0.602201,43.772933],[0.602158,43.771907],[0.601793,43.770575],[0.60248,43.770311],[0.601927,43.76839],[0.601107,43.767054],[0.601193,43.766065],[0.599798,43.762563],[0.599814,43.762164],[0.60093,43.761033],[0.602153,43.760375],[0.601986,43.75975],[0.602813,43.759297],[0.603167,43.758875],[0.607388,43.758324],[0.608714,43.757337],[0.610141,43.757429],[0.613322,43.758612],[0.61426,43.759634],[0.615247,43.760254],[0.616798,43.761897],[0.616701,43.763451],[0.617967,43.763404],[0.619115,43.763965],[0.619292,43.764194],[0.619726,43.764178],[0.621483,43.762979],[0.623246,43.761668],[0.624413,43.761006],[0.625639,43.760549],[0.626749,43.759929],[0.627118,43.759576],[0.626856,43.758692],[0.627028,43.758396],[0.627607,43.758119],[0.629592,43.757871],[0.632124,43.756964],[0.632564,43.756023],[0.631856,43.755698],[0.631577,43.755341],[0.632157,43.754454],[0.63302,43.754454],[0.634302,43.754004],[0.634988,43.755],[0.635503,43.754892],[0.636362,43.753427],[0.637799,43.75235],[0.63833,43.75164],[0.638674,43.750622],[0.63854,43.749703],[0.638829,43.748425],[0.639511,43.746967],[0.640154,43.74656],[0.641753,43.744696],[0.641941,43.744359],[0.642863,43.743437],[0.642965,43.74301],[0.642675,43.742213],[0.642751,43.74177],[0.647627,43.738771],[0.64914,43.738154],[0.650588,43.736662],[0.652949,43.735096],[0.654253,43.733538],[0.651811,43.730259],[0.651554,43.729328],[0.652213,43.729045],[0.652836,43.729018],[0.655867,43.726832],[0.655888,43.725762],[0.656156,43.724945],[0.657171,43.724002],[0.658828,43.722149],[0.661714,43.720711],[0.663227,43.719792],[0.667985,43.719171],[0.668454,43.718706],[0.668741,43.718194],[0.668377,43.716333],[0.667336,43.713111],[0.66681,43.711898],[0.665458,43.707601],[0.662256,43.708269],[0.65878,43.709641],[0.657991,43.707322],[0.657605,43.706841],[0.657562,43.70574],[0.659279,43.703925],[0.659451,43.703467],[0.659472,43.702637],[0.659,43.701908],[0.659708,43.700698],[0.659118,43.699651],[0.658879,43.699369],[0.659284,43.698095],[0.659053,43.697836],[0.657664,43.697142],[0.657412,43.695579],[0.656832,43.69471],[0.656832,43.694198],[0.654343,43.694415],[0.652991,43.694369],[0.650395,43.695439],[0.648662,43.695932],[0.648239,43.695412],[0.647778,43.695249],[0.647512,43.694693],[0.64716,43.694536],[0.646651,43.694651],[0.646249,43.693798],[0.644108,43.692844],[0.643368,43.692903],[0.642252,43.692771],[0.64148,43.692499],[0.640026,43.691553],[0.638684,43.691118],[0.637874,43.689655],[0.636968,43.68954],[0.635627,43.689831],[0.635074,43.690567],[0.633626,43.691304],[0.633014,43.690614],[0.632735,43.689931],[0.633637,43.689357],[0.633336,43.688612],[0.632435,43.688442],[0.631641,43.687992],[0.63067,43.687786],[0.629688,43.687728],[0.628508,43.687247],[0.627602,43.687352],[0.626674,43.687348],[0.625638,43.686995],[0.625032,43.687806],[0.623101,43.688643],[0.621921,43.688868],[0.621846,43.688054],[0.620387,43.685463],[0.619118,43.682538],[0.61889,43.681444],[0.619152,43.679038],[0.618745,43.67711],[0.617576,43.676693],[0.616578,43.676136],[0.615505,43.673746],[0.614689,43.673032],[0.612812,43.670386],[0.610076,43.666839],[0.609314,43.66666],[0.607201,43.666544],[0.607308,43.666032],[0.60911,43.665753],[0.608317,43.66462],[0.607115,43.663952],[0.603752,43.662951],[0.60248,43.662679],[0.601885,43.662322],[0.601471,43.661872],[0.601172,43.661138],[0.600565,43.661041],[0.599921,43.65907],[0.599412,43.657122],[0.597309,43.657258],[0.596536,43.655771],[0.595625,43.656],[0.595501,43.655746],[0.595142,43.655709],[0.594831,43.655492],[0.594015,43.655601]]],"type":"MultiLineString"},"properties":{"geo_point":{"lon":0.5445567250760511,"lat":43.85842850876093},"name":"Tour de Gascogne (Gers) (2020)","code_gr":null}}]}