{"type":"FeatureCollection","features":[{"type":"Feature","geometry":{"coordinates":[[[4.58379,45.948971],[4.58461,45.949039],[4.5862,45.949539],[4.58696,45.949478],[4.58843,45.948589],[4.58908,45.948349],[4.58973,45.948399],[4.59047,45.948799],[4.59106,45.948769],[4.59178,45.94886],[4.59274,45.94878],[4.59356,45.949261],[4.59372,45.949451],[4.59493,45.94994],[4.59851,45.950062],[4.60053,45.950062],[4.60135,45.949989],[4.60259,45.950279],[4.60284,45.950001],[4.60571,45.948219],[4.60643,45.94812],[4.60864,45.948738],[4.60932,45.948738],[4.61079,45.948181],[4.61138,45.94799],[4.61293,45.947182],[4.61306,45.94722],[4.61433,45.945019],[4.61469,45.944221],[4.61474,45.94376],[4.61467,45.942959],[4.61497,45.942471],[4.61494,45.942219],[4.616,45.941959],[4.61623,45.941551],[4.61621,45.941341],[4.61632,45.941059],[4.61656,45.940739],[4.61651,45.940479],[4.61673,45.940239],[4.61717,45.94014],[4.61799,45.940788],[4.61816,45.941219],[4.61784,45.941311],[4.61802,45.943008],[4.61742,45.943161],[4.61746,45.943439],[4.61731,45.943508],[4.61747,45.944698],[4.61686,45.945831],[4.61686,45.945831],[4.616018,45.948078],[4.616233,45.948645],[4.616683,45.949197],[4.616791,45.950316],[4.616426,45.950764],[4.615889,45.951137],[4.615868,45.952017],[4.615568,45.952435],[4.615138,45.953971],[4.614645,45.954911],[4.614044,45.955478],[4.61361,45.95541],[4.61225,45.954842],[4.61116,45.954842],[4.6099,45.954632],[4.60926,45.954651],[4.60838,45.954929],[4.60781,45.955311],[4.60763,45.955669],[4.60773,45.956619],[4.60811,45.958858],[4.60842,45.959358],[4.60853,45.959751],[4.60853,45.959751],[4.608272,45.960162],[4.607929,45.960296],[4.607199,45.960505],[4.606105,45.961131],[4.605032,45.961579],[4.604238,45.962116],[4.603959,45.962563],[4.604281,45.9631],[4.60544,45.96401],[4.606298,45.964368],[4.6078,45.964726],[4.608422,45.964711],[4.609474,45.964353],[4.610225,45.964234],[4.610933,45.964309],[4.612156,45.964607],[4.613486,45.965248],[4.615353,45.966993],[4.615439,45.967515],[4.614473,45.968574],[4.61398,45.968962],[4.610332,45.97008],[4.609066,45.970349],[4.608872,45.970741],[4.609441,45.9706],[4.610546,45.970474],[4.610953,45.970898],[4.611501,45.971027],[4.613196,45.970779],[4.614891,45.970383],[4.614923,45.970139],[4.617101,45.969593],[4.619687,45.968796],[4.621392,45.967937],[4.622616,45.967453],[4.623474,45.967236],[4.624375,45.967072],[4.625062,45.966671],[4.626349,45.966282],[4.628034,45.965916],[4.629107,45.965759],[4.62975,45.965523],[4.63093,45.964962],[4.6321,45.964874],[4.633334,45.964596],[4.633226,45.964516],[4.63401,45.964218],[4.63578,45.963867],[4.638494,45.963428],[4.640189,45.963001],[4.641595,45.962914],[4.643848,45.96204],[4.644663,45.961876],[4.645822,45.961845],[4.64712,45.961689],[4.647614,45.961712],[4.648848,45.962086],[4.649416,45.962196],[4.649695,45.962212],[4.64932,45.961979],[4.649009,45.961391],[4.648547,45.961033],[4.648204,45.960285],[4.64815,45.959869],[4.647571,45.95966],[4.64756,45.959511],[4.647367,45.959408],[4.647421,45.959072],[4.646702,45.958744],[4.646702,45.958309],[4.646466,45.958065],[4.646863,45.957535],[4.647624,45.956894],[4.647603,45.956436],[4.647582,45.955894],[4.647785,45.955208],[4.648193,45.95488],[4.648654,45.954777],[4.649491,45.955139],[4.650049,45.955193],[4.650757,45.955193],[4.651208,45.954967],[4.651412,45.954754],[4.65256,45.954201],[4.653761,45.953827],[4.655349,45.95343],[4.656508,45.953342],[4.657431,45.953053],[4.658128,45.952648],[4.658514,45.952297],[4.658761,45.951717],[4.659287,45.951103],[4.659748,45.950764],[4.660263,45.9505],[4.660456,45.950268],[4.660832,45.950085],[4.661304,45.950089],[4.6614,45.94986],[4.661754,45.949516],[4.661872,45.948978],[4.66228,45.948898],[4.662505,45.948578],[4.662902,45.948353],[4.663578,45.948345],[4.664243,45.947727],[4.665048,45.9473],[4.665896,45.94672],[4.667859,45.946175],[4.668181,45.945629],[4.668932,45.945206],[4.669511,45.945026],[4.669898,45.944489],[4.67037,45.944122],[4.670992,45.943764],[4.671464,45.943398],[4.671979,45.943108],[4.67258,45.942703],[4.673631,45.942162],[4.673878,45.941929],[4.674425,45.941711],[4.675605,45.941376],[4.675605,45.941376],[4.676207,45.940513],[4.676422,45.938842],[4.676636,45.938305],[4.676743,45.937798],[4.677409,45.93644],[4.678031,45.936455],[4.678245,45.936684],[4.67877,45.936981],[4.679725,45.937138],[4.680755,45.935528],[4.681163,45.935387],[4.681914,45.934856],[4.682815,45.933811],[4.683663,45.933739],[4.684306,45.933601],[4.6845,45.933071],[4.685272,45.932991],[4.685401,45.932564],[4.685497,45.931423],[4.685819,45.931534],[4.686012,45.931854],[4.686506,45.931961],[4.686677,45.932335],[4.687675,45.931923],[4.688147,45.931866],[4.688931,45.931602],[4.6898,45.931095],[4.690486,45.930752],[4.690926,45.930012],[4.692181,45.929924],[4.692407,45.930229],[4.692804,45.930298],[4.692997,45.931126],[4.693877,45.933163],[4.694327,45.933632],[4.693941,45.934303],[4.694188,45.935287],[4.694295,45.935833],[4.695818,45.935944],[4.696805,45.936192],[4.698769,45.935326],[4.699734,45.934505],[4.700496,45.933907],[4.700625,45.933537],[4.701365,45.933243],[4.702792,45.932529],[4.703479,45.931892],[4.704798,45.931705],[4.705592,45.932369],[4.706569,45.932873],[4.706805,45.93367],[4.707878,45.934582],[4.708639,45.935059],[4.709219,45.935787],[4.710302,45.935459],[4.711086,45.935371],[4.711128,45.936737],[4.711204,45.937153],[4.711214,45.937675],[4.711365,45.938362],[4.711783,45.938721],[4.711665,45.938995],[4.711783,45.939468],[4.711794,45.939884],[4.71468,45.939571],[4.714787,45.940399],[4.716407,45.940384],[4.716675,45.940025],[4.717104,45.94014],[4.717255,45.940353],[4.725087,45.94381],[4.730129,45.944519],[4.730312,45.944286],[4.730816,45.943886],[4.732468,45.941849],[4.732929,45.941437],[4.734335,45.940498],[4.735976,45.939781],[4.737768,45.939487],[4.740407,45.939205],[4.743208,45.939018],[4.744817,45.939102],[4.745868,45.938969],[4.747349,45.938477],[4.748368,45.937996],[4.749291,45.937447],[4.751887,45.936348],[4.752992,45.936028],[4.75781,45.935249],[4.758604,45.93528],[4.765427,45.93758],[4.766693,45.938049],[4.769053,45.939445],[4.769632,45.939982],[4.769837,45.940333],[4.771747,45.940005],[4.772744,45.939938],[4.773141,45.940102],[4.776231,45.93969],[4.777894,45.939125],[4.778731,45.938766],[4.779997,45.937916],[4.781306,45.93681],[4.782014,45.935513],[4.78299,45.93449],[4.786187,45.929981],[4.788376,45.926975],[4.789084,45.925766],[4.789299,45.925251],[4.789835,45.924671],[4.790543,45.924126],[4.791788,45.923409],[4.792786,45.923168],[4.794234,45.923191],[4.795532,45.92334],[4.798858,45.923626],[4.801337,45.923752],[4.80242,45.923626],[4.807216,45.922775],[4.808471,45.922245],[4.808493,45.922237],[4.80949,45.921631],[4.809834,45.92131],[4.810199,45.921059],[4.811336,45.919537],[4.811454,45.919178],[4.811969,45.918976],[4.812312,45.9184],[4.813063,45.915085],[4.815853,45.915356],[4.820541,45.91523],[4.821764,45.91523],[4.821539,45.914608],[4.822708,45.914474],[4.822955,45.914787],[4.823878,45.914707],[4.823738,45.914265],[4.823545,45.913498],[4.823867,45.913509],[4.824489,45.913841],[4.824468,45.913437],[4.824951,45.913288],[4.825358,45.912804],[4.825691,45.912727],[4.826152,45.91272],[4.826721,45.912003],[4.828244,45.912407],[4.829392,45.912853],[4.830015,45.91325],[4.830701,45.913498],[4.831109,45.913876],[4.831635,45.914139],[4.834038,45.915295],[4.837557,45.916855],[4.839102,45.917465],[4.840432,45.9179],[4.841344,45.918331],[4.842095,45.918507],[4.843297,45.91864],[4.844477,45.918991],[4.845303,45.919392],[4.846526,45.920139],[4.848168,45.920773],[4.848737,45.921253],[4.849445,45.922253],[4.85041,45.923252],[4.851022,45.923634],[4.851633,45.923946],[4.851419,45.925179],[4.851505,45.92535],[4.851912,45.925655],[4.85158,45.926804],[4.851451,45.927647],[4.851537,45.92952],[4.852384,45.930954],[4.853371,45.933037],[4.854069,45.933296],[4.854198,45.933506],[4.854616,45.934437],[4.855152,45.935131],[4.855689,45.935616],[4.857202,45.936832],[4.858682,45.937595],[4.859283,45.938026],[4.859347,45.938461],[4.859133,45.938629],[4.859358,45.939205],[4.859294,45.93993],[4.85909,45.941132],[4.859176,45.941586],[4.858897,45.942982],[4.858693,45.944443],[4.865044,45.945614],[4.867212,45.945801],[4.868263,45.946041],[4.869894,45.94669],[4.870441,45.947079],[4.873649,45.948158],[4.874765,45.948391],[4.875516,45.948338],[4.876363,45.948391],[4.877822,45.948368],[4.878176,45.948502],[4.878649,45.948753],[4.88102,45.949268],[4.882865,45.94957],[4.882393,45.951023],[4.882715,45.951187],[4.884689,45.950939],[4.885526,45.951126],[4.886792,45.951054],[4.887908,45.951061],[4.891791,45.950733],[4.893776,45.950665],[4.894956,45.950813],[4.895267,45.950024],[4.89575,45.949829],[4.898111,45.949203],[4.898819,45.949226],[4.899559,45.949776],[4.900514,45.950298],[4.901501,45.951077],[4.901726,45.951462],[4.901662,45.951977],[4.901855,45.952084],[4.902853,45.952133],[4.904022,45.951897],[4.907831,45.951759],[4.908153,45.95182],[4.909354,45.951656],[4.909998,45.95171],[4.910803,45.952045],[4.912251,45.95285],[4.914805,45.953396],[4.915974,45.95364],[4.91709,45.95409],[4.91798,45.954426],[4.918388,45.954777],[4.919354,45.95602],[4.920287,45.956684],[4.923742,45.95649],[4.926478,45.956104],[4.929965,45.955498],[4.930823,45.955433],[4.931788,45.954437],[4.932035,45.954411],[4.935114,45.955669],[4.935554,45.955662],[4.936692,45.955566],[4.937904,45.955631],[4.938269,45.955311],[4.939964,45.955238],[4.939889,45.954632],[4.940232,45.953522],[4.940243,45.953075],[4.941176,45.952656],[4.942088,45.952351],[4.943172,45.952274],[4.944373,45.951889],[4.945199,45.951859],[4.946187,45.951733],[4.946766,45.951397],[4.947721,45.952053],[4.948204,45.951157],[4.94903,45.950405],[4.949759,45.949867],[4.950392,45.950024],[4.951798,45.94997],[4.953128,45.950157],[4.954995,45.950111],[4.955832,45.950306],[4.957312,45.950813],[4.960885,45.951633],[4.962462,45.951591],[4.965037,45.950657],[4.966013,45.950424],[4.966861,45.950375],[4.97539,45.950748],[4.978158,45.950634],[4.979231,45.950928],[4.98039,45.950985],[4.981678,45.950836],[4.982783,45.950462],[4.986151,45.948792],[4.986323,45.948555],[4.986999,45.948322],[4.987321,45.948166],[4.990325,45.947922],[4.991323,45.947308],[4.991956,45.946621],[4.993415,45.945572],[4.993951,45.945362],[4.99702,45.944504],[5.000024,45.943233],[5.001107,45.943317],[5.002384,45.943092],[5.003543,45.943005],[5.004433,45.942757],[5.007137,45.942795],[5.007727,45.942936],[5.00851,45.942867],[5.009358,45.942974],[5.01072,45.942974],[5.010849,45.943436],[5.011257,45.94371],[5.011665,45.943771],[5.013167,45.943489],[5.013821,45.943233],[5.014969,45.942631],[5.019583,45.941689],[5.021696,45.94125],[5.024271,45.94051],[5.025923,45.940296],[5.028412,45.94014],[5.029871,45.940243],[5.031599,45.939983],[5.033734,45.940056],[5.040257,45.941063],[5.041898,45.941257],[5.042317,45.944332],[5.04222,45.944935],[5.040944,45.948032],[5.039485,45.951233],[5.039474,45.95171],[5.03957,45.953239],[5.041684,45.953098],[5.042682,45.952843],[5.044473,45.952843],[5.044677,45.952381],[5.04516,45.950424],[5.045621,45.950085],[5.046405,45.94965],[5.047209,45.948368],[5.04855,45.947197],[5.04972,45.946472],[5.051125,45.945263],[5.052359,45.944702],[5.053368,45.944489],[5.0562,45.943542],[5.057691,45.942669],[5.058925,45.942421],[5.06061,45.941967],[5.062788,45.941742],[5.06489,45.940796],[5.064976,45.940289],[5.065942,45.940197],[5.067959,45.940765],[5.068431,45.941227],[5.069729,45.941341],[5.071489,45.940624],[5.075212,45.940346],[5.076252,45.940563],[5.078055,45.941593],[5.078484,45.942055],[5.079846,45.942116],[5.08314,45.941525],[5.086766,45.940765],[5.093193,45.940819],[5.094395,45.940639],[5.095811,45.940243],[5.097356,45.939651],[5.09845,45.939384],[5.099598,45.939461],[5.10125,45.939125],[5.101733,45.939735],[5.10184,45.939781],[5.10493,45.941048],[5.107591,45.941467],[5.109705,45.941555],[5.111614,45.941586],[5.112966,45.942146],[5.112956,45.943375],[5.113385,45.943779],[5.113964,45.944481],[5.114779,45.944714],[5.115917,45.944756],[5.117848,45.945637],[5.118856,45.945755],[5.120176,45.946278],[5.12141,45.944069],[5.121968,45.943504],[5.122869,45.942966],[5.123878,45.942234],[5.127332,45.940125],[5.128405,45.939011],[5.129918,45.938377],[5.130948,45.937542],[5.131967,45.936592],[5.13539,45.936104],[5.135722,45.936073],[5.136012,45.935787],[5.1379,45.93214],[5.140464,45.931774],[5.139756,45.931065],[5.139477,45.930088],[5.139359,45.929169],[5.138426,45.928497],[5.137385,45.926773],[5.137997,45.925709],[5.138061,45.925194],[5.138909,45.924408],[5.139413,45.923485],[5.139885,45.922825],[5.140346,45.921803],[5.140765,45.921131],[5.142235,45.920296],[5.143061,45.919437],[5.144209,45.918743],[5.146397,45.916916],[5.147545,45.91637],[5.148919,45.915237],[5.150367,45.914265],[5.151612,45.913452],[5.152534,45.91293],[5.153543,45.9123],[5.154058,45.912151],[5.154487,45.912167],[5.156976,45.911446],[5.159765,45.910892],[5.160978,45.910748],[5.163027,45.910324],[5.165334,45.909801],[5.168359,45.909615],[5.169636,45.909039],[5.170687,45.908718],[5.171417,45.908226],[5.172275,45.908226],[5.173509,45.907936],[5.174539,45.90836],[5.175333,45.908508],[5.176224,45.908772],[5.177618,45.908913],[5.178401,45.908875],[5.179764,45.908436],[5.180773,45.907494],[5.181867,45.906883],[5.181931,45.906128],[5.18338,45.906921],[5.183798,45.90694],[5.184925,45.906292],[5.185536,45.905762],[5.187424,45.905388],[5.187639,45.904636],[5.18736,45.904022],[5.187371,45.902851],[5.187553,45.9025],[5.188519,45.901939],[5.188905,45.901829],[5.189495,45.901798],[5.191029,45.900955],[5.191448,45.900993],[5.192617,45.901455],[5.192896,45.901196],[5.194098,45.901649],[5.194677,45.900822],[5.195364,45.900021],[5.199387,45.902164],[5.200235,45.902344],[5.201973,45.899841],[5.202466,45.899349],[5.204666,45.900028],[5.205953,45.900238],[5.207133,45.900082],[5.208238,45.899792],[5.209343,45.898968],[5.209697,45.898952],[5.213195,45.900299],[5.214075,45.900333],[5.217057,45.902157],[5.219074,45.903],[5.221081,45.901894],[5.221692,45.902267],[5.22284,45.902649],[5.224321,45.903133],[5.225801,45.903748],[5.227196,45.904121],[5.229224,45.904675],[5.231338,45.905682],[5.231413,45.906807],[5.235679,45.907076],[5.235698,45.906842],[5.235026,45.90653],[5.234615,45.905945],[5.234783,45.9051],[5.235007,45.90497],[5.235212,45.904268],[5.236016,45.90315],[5.237342,45.902032],[5.238444,45.901343],[5.239471,45.901499],[5.239789,45.901174],[5.240382,45.900909],[5.240918,45.900482],[5.241455,45.900291],[5.242002,45.900021],[5.242313,45.900074],[5.242732,45.900253],[5.243998,45.899998],[5.244845,45.899654],[5.245972,45.898914],[5.246422,45.898529],[5.246969,45.898327],[5.24756,45.899044],[5.2486,45.899963],[5.24816,45.900604],[5.247999,45.901096],[5.248504,45.901894],[5.249577,45.902344],[5.250349,45.902603],[5.250778,45.902905],[5.251079,45.903263],[5.251626,45.903545],[5.252774,45.903973],[5.253654,45.904083],[5.254501,45.904091],[5.256829,45.904411],[5.258685,45.904816],[5.260627,45.905338],[5.262226,45.905369],[5.266281,45.905418],[5.268148,45.905807],[5.268427,45.906017],[5.270863,45.90675],[5.271571,45.907135],[5.271893,45.907837],[5.272708,45.908203],[5.274339,45.908859],[5.275208,45.909561],[5.275637,45.910145],[5.276796,45.909458],[5.277257,45.909458],[5.278351,45.910069],[5.280862,45.910839],[5.282332,45.910721],[5.284381,45.910286],[5.28452,45.909809],[5.284317,45.909576],[5.284424,45.90934],[5.28511,45.909912],[5.285368,45.910309],[5.286419,45.910233],[5.294455,45.909451],[5.296783,45.909897],[5.29717,45.910019],[5.298876,45.910316],[5.299648,45.910519],[5.300517,45.910511],[5.300721,45.910378],[5.303671,45.909683],[5.304111,45.909637],[5.305506,45.908997],[5.30659,45.908913],[5.307845,45.908672],[5.310313,45.907837],[5.310677,45.907524],[5.311224,45.906853],[5.312201,45.906837],[5.312941,45.907078],[5.314078,45.907101],[5.315387,45.906883],[5.315967,45.90662],[5.316997,45.906002],[5.317973,45.905613],[5.319797,45.905411],[5.321642,45.905441],[5.322865,45.905323],[5.323552,45.905807],[5.324357,45.906189],[5.325118,45.906174],[5.325859,45.905838],[5.326116,45.905376],[5.327135,45.904919],[5.32838,45.904747],[5.329045,45.904434],[5.329968,45.904411],[5.330311,45.904186],[5.330408,45.903755],[5.33044,45.903278],[5.331384,45.902649],[5.332114,45.902416],[5.332478,45.902065],[5.332983,45.901798],[5.333261,45.901424],[5.334238,45.901012],[5.334656,45.900707],[5.336115,45.900814],[5.336888,45.900604],[5.338025,45.9007],[5.338894,45.900635],[5.339785,45.900799],[5.341254,45.901375],[5.344484,45.903812],[5.34546,45.904129],[5.347091,45.902367],[5.347434,45.902359],[5.34752,45.898773],[5.348872,45.898811],[5.348432,45.898311],[5.34855,45.897916],[5.348083,45.897364],[5.348689,45.896991],[5.349087,45.896652],[5.349591,45.896114],[5.349859,45.89558],[5.349945,45.894718],[5.350063,45.892414],[5.350556,45.891106],[5.350513,45.890778],[5.351018,45.889515],[5.351104,45.888485],[5.351071,45.886776],[5.350964,45.886505],[5.351114,45.885864],[5.35134,45.885429],[5.352756,45.885723],[5.353711,45.885357],[5.354118,45.885086],[5.354548,45.884663],[5.355062,45.884338],[5.356039,45.883316],[5.357423,45.882435],[5.358571,45.882004],[5.359515,45.881733],[5.360395,45.881336],[5.362562,45.88068],[5.363785,45.879993],[5.364708,45.879368],[5.365963,45.878254],[5.366446,45.877934],[5.368913,45.880821],[5.369182,45.880962],[5.370362,45.882435],[5.371392,45.883278],[5.372626,45.883823],[5.373087,45.883434],[5.373484,45.882809],[5.373892,45.882599],[5.374042,45.882713],[5.373827,45.883018],[5.373838,45.883286],[5.374256,45.883629],[5.375061,45.883915],[5.375855,45.883965],[5.37696,45.883781],[5.37726,45.883953],[5.378011,45.884033],[5.378516,45.883854],[5.378816,45.883152],[5.378559,45.882717],[5.378784,45.882202],[5.379546,45.881958],[5.379937,45.882122],[5.380007,45.882343],[5.379991,45.882915],[5.380307,45.883213],[5.381048,45.883247],[5.381573,45.882996],[5.38197,45.882847],[5.382625,45.882805],[5.38182,45.883682],[5.381509,45.884312],[5.381445,45.885006],[5.382131,45.885765],[5.38241,45.886206],[5.382485,45.887005],[5.383118,45.887478],[5.384331,45.887512],[5.38505,45.887829],[5.385436,45.88829],[5.385779,45.888229],[5.387024,45.887535],[5.388408,45.887341],[5.388976,45.887138],[5.389309,45.886604],[5.390124,45.886147],[5.390956,45.886141],[5.391638,45.885915],[5.392496,45.885914],[5.393375,45.885774],[5.392582,45.886438],[5.392582,45.8866],[5.39344,45.886276],[5.394298,45.885773],[5.396712,45.884586],[5.398064,45.883781],[5.400939,45.882584],[5.401411,45.88266],[5.402291,45.88242],[5.403256,45.881866],[5.404029,45.881912],[5.405145,45.881287],[5.405552,45.881676],[5.405896,45.881413],[5.406078,45.880806],[5.406657,45.881622],[5.407301,45.882076],[5.407913,45.882584],[5.409039,45.882847],[5.410767,45.882982],[5.411453,45.883136],[5.411957,45.883645],[5.412569,45.884525],[5.413481,45.884832],[5.414242,45.885214]]],"type":"MultiLineString"},"properties":{"geo_point":{"lon":4.9781928220061,"lat":45.92985711552541},"name":"Traversée de la Dombes (Rhône-Ain) (2020)","code_gr":null}}]}