{"type":"FeatureCollection","features":[{"type":"Feature","geometry":{"coordinates":[[[3.494554,45.098912],[3.493717,45.099094],[3.492858,45.098988],[3.49112,45.098685],[3.490798,45.099442],[3.490305,45.100093],[3.488696,45.100412],[3.486958,45.100911],[3.486078,45.101048],[3.485391,45.101229],[3.484511,45.101033],[3.483052,45.100184],[3.482945,45.100321],[3.482838,45.100836],[3.482344,45.101563],[3.481872,45.101972],[3.481228,45.102093],[3.480413,45.102002],[3.479748,45.102017],[3.479619,45.101744],[3.479083,45.10176],[3.478568,45.101638],[3.476787,45.10185],[3.475735,45.101805],[3.475199,45.101972],[3.474212,45.102396],[3.473847,45.102411],[3.473353,45.102608],[3.472753,45.102623],[3.472538,45.102411],[3.471208,45.101729],[3.470607,45.101638],[3.47007,45.101835],[3.469384,45.101911],[3.468933,45.101866],[3.466423,45.102502],[3.46595,45.102835],[3.46595,45.103456],[3.465521,45.104001],[3.465586,45.104773],[3.464513,45.105955],[3.463182,45.106863],[3.463054,45.1075],[3.46241,45.107772],[3.461938,45.108226],[3.461895,45.108741],[3.461938,45.109271],[3.461659,45.110013],[3.462045,45.110922],[3.462002,45.111407],[3.462131,45.111785],[3.461852,45.112436],[3.462045,45.112951],[3.463097,45.114238],[3.463354,45.114738],[3.463483,45.115313],[3.464062,45.115995],[3.464513,45.117025],[3.466294,45.118857],[3.466787,45.119614],[3.46741,45.120129],[3.467474,45.120341],[3.468354,45.121461],[3.468204,45.121915],[3.468461,45.122748],[3.468826,45.123187],[3.469126,45.124095],[3.469512,45.124338],[3.469341,45.124701],[3.470521,45.126245],[3.4711,45.12788],[3.471937,45.129303],[3.471701,45.129909],[3.471465,45.130136],[3.470843,45.130363],[3.470564,45.131059],[3.469963,45.13168],[3.469427,45.131862],[3.469083,45.132497],[3.46904,45.133042],[3.469362,45.133572],[3.469598,45.134223],[3.470221,45.134602],[3.470328,45.135041],[3.469748,45.135676],[3.469427,45.135782],[3.467689,45.137372],[3.465092,45.136206],[3.464835,45.135646],[3.464513,45.135374],[3.464406,45.134602],[3.464127,45.134087],[3.464384,45.133133],[3.462882,45.132679],[3.46271,45.131922],[3.462367,45.131695],[3.461959,45.130863],[3.461895,45.131226],[3.461401,45.131907],[3.460779,45.133133],[3.46065,45.133724],[3.460071,45.134223],[3.459663,45.134314],[3.459556,45.134556],[3.459721,45.134815],[3.459481,45.135168],[3.459351,45.135119],[3.459281,45.134893],[3.45883,45.134682],[3.458064,45.134579],[3.457688,45.134677],[3.457292,45.134537],[3.456988,45.134579],[3.456869,45.134551],[3.455822,45.134647],[3.454642,45.134602],[3.453548,45.134738],[3.453054,45.134919],[3.452625,45.135101],[3.451338,45.13551],[3.450844,45.135918],[3.45078,45.135434],[3.450758,45.134829],[3.449991,45.133876],[3.450081,45.134293],[3.449761,45.134625],[3.44929,45.134773],[3.44939,45.134505],[3.44933,45.13442],[3.44942,45.134328],[3.44945,45.13377],[3.44936,45.133466],[3.44919,45.133318],[3.44919,45.133007],[3.448744,45.132306],[3.448445,45.131105],[3.44741,45.131105],[3.446904,45.131982],[3.446536,45.132793],[3.44603,45.133442],[3.445686,45.134253],[3.445732,45.134594],[3.44564,45.134934],[3.44587,45.13521],[3.445778,45.135486],[3.444513,45.135567],[3.443202,45.136427],[3.44242,45.136849],[3.44173,45.1374],[3.440626,45.137952],[3.440074,45.138049],[3.439568,45.137936],[3.439407,45.138163],[3.439269,45.138731],[3.43759,45.139509],[3.436256,45.141407],[3.437107,45.141342],[3.437797,45.141407],[3.437889,45.141683],[3.437084,45.142153],[3.438073,45.142705],[3.437958,45.142916],[3.438096,45.142948],[3.438878,45.142526],[3.439729,45.142267],[3.440258,45.142218],[3.440672,45.142332],[3.440235,45.142705],[3.439936,45.143159],[3.439499,45.143646],[3.439384,45.143905],[3.438786,45.144668],[3.438487,45.144668],[3.437705,45.145917],[3.437636,45.146209],[3.437337,45.146922],[3.437337,45.147458],[3.437521,45.147798],[3.43782,45.147831],[3.438188,45.14869],[3.437958,45.149371],[3.438096,45.149712],[3.43736,45.151804],[3.437268,45.152469],[3.437383,45.152891],[3.438234,45.152972],[3.439246,45.153199],[3.439499,45.153378],[3.438786,45.153864],[3.437337,45.154156],[3.436953,45.155104],[3.436677,45.155126],[3.437197,45.155379],[3.435978,45.155287],[3.435766,45.155448],[3.436124,45.155837],[3.436644,45.157191],[3.436888,45.157397],[3.436872,45.157959],[3.436628,45.158223],[3.43588,45.158246],[3.435457,45.158119],[3.433522,45.158291],[3.433116,45.158418],[3.432514,45.158418],[3.430188,45.158131],[3.429473,45.158349],[3.428839,45.158429],[3.427814,45.15867],[3.427115,45.158349],[3.4257,45.158314],[3.424773,45.158085],[3.423619,45.158062],[3.423082,45.157753],[3.422188,45.157431],[3.421635,45.15711],[3.420919,45.15687],[3.420513,45.156881],[3.420415,45.156331],[3.420041,45.155849],[3.419374,45.155585],[3.418675,45.155069],[3.417862,45.15461],[3.416724,45.153464],[3.416122,45.152523],[3.415325,45.152294],[3.41404,45.152271],[3.412154,45.151892],[3.411894,45.151698],[3.41165,45.151331],[3.41139,45.151285],[3.411016,45.151445],[3.410024,45.150665],[3.409276,45.150425],[3.408544,45.150447],[3.40708,45.149908],[3.406641,45.149863],[3.406088,45.149622],[3.405568,45.149438],[3.403861,45.148624],[3.403503,45.14828],[3.40308,45.148096],[3.402625,45.148073],[3.40186,45.148945],[3.402852,45.149817],[3.40347,45.150493],[3.403909,45.1507],[3.403877,45.15086],[3.404348,45.151353],[3.404332,45.151686],[3.404169,45.151938],[3.403974,45.152363],[3.403714,45.152821],[3.403145,45.153337],[3.402413,45.153773],[3.401112,45.154301],[3.400624,45.155746],[3.400673,45.156204],[3.400641,45.156537],[3.401112,45.156904],[3.401112,45.157191],[3.400608,45.158097],[3.400771,45.158429],[3.400803,45.158911],[3.401746,45.158578],[3.402803,45.15867],[3.403112,45.158979],[3.40308,45.159438],[3.403324,45.159645],[3.403926,45.159794],[3.404592,45.159748],[3.404934,45.160012],[3.405243,45.16047],[3.406251,45.16094],[3.406381,45.161307],[3.406609,45.161628],[3.407308,45.161949],[3.407666,45.1625],[3.408333,45.162958],[3.40882,45.163715],[3.408495,45.164197],[3.407926,45.164621],[3.407438,45.164816],[3.406771,45.165034],[3.405568,45.165848],[3.404739,45.166696],[3.403877,45.167407],[3.403373,45.167568],[3.401047,45.167923],[3.400478,45.167877],[3.399584,45.167373],[3.398624,45.16704],[3.398331,45.166926],[3.398153,45.166948],[3.398283,45.167224],[3.398787,45.167694],[3.398998,45.168462],[3.399323,45.169058],[3.399291,45.169551],[3.399454,45.169929],[3.399714,45.170055],[3.400332,45.170067],[3.400478,45.170136],[3.400836,45.17064],[3.399925,45.170847],[3.399242,45.17111],[3.398819,45.171351],[3.398836,45.1715],[3.398413,45.171615],[3.398462,45.171741],[3.398689,45.171855],[3.398705,45.172303],[3.398494,45.172658],[3.397795,45.17393],[3.397047,45.174057],[3.39612,45.174297],[3.395014,45.174435],[3.393908,45.174251],[3.393355,45.174366],[3.392933,45.174309],[3.392103,45.173816],[3.391046,45.173885],[3.390526,45.173781],[3.388948,45.172303],[3.388509,45.172268],[3.387859,45.172474],[3.386981,45.172383],[3.38646,45.17283],[3.386281,45.173678],[3.38607,45.173736],[3.384606,45.173609],[3.384184,45.173644],[3.383728,45.173506],[3.383371,45.17322],[3.383273,45.172394],[3.382866,45.171362],[3.382437,45.170949],[3.382244,45.170541],[3.381257,45.169694],[3.380892,45.1698],[3.380613,45.170889],[3.380678,45.171358],[3.380957,45.17222],[3.380914,45.172734],[3.38057,45.173415],[3.380206,45.173975],[3.38027,45.174414],[3.380644,45.174797],[3.380794,45.175021],[3.381055,45.175324],[3.380999,45.175521],[3.380476,45.175403],[3.380308,45.175455],[3.380402,45.175719],[3.380402,45.176127],[3.380551,45.176403],[3.3807,45.177075],[3.380831,45.177378],[3.380738,45.177668],[3.380794,45.177891],[3.380644,45.1783],[3.380626,45.178655],[3.380663,45.178905],[3.380252,45.178971],[3.380196,45.179142],[3.3807,45.179722],[3.381037,45.180222],[3.380999,45.180459],[3.381541,45.18038],[3.382045,45.180604],[3.382494,45.181131],[3.38326,45.181881],[3.383334,45.182513],[3.384025,45.182829],[3.384063,45.183106],[3.383969,45.183777],[3.383988,45.184159],[3.383708,45.184646],[3.383372,45.184936],[3.383222,45.185199],[3.382213,45.185476],[3.381578,45.185963],[3.381018,45.186279],[3.380588,45.186713],[3.379505,45.187529],[3.378702,45.187569],[3.378067,45.187898],[3.37788,45.187832],[3.377786,45.187464],[3.377506,45.186911],[3.376609,45.186305],[3.375918,45.186437],[3.375433,45.186292],[3.374947,45.185225],[3.375377,45.184409],[3.375227,45.184238],[3.374779,45.184185],[3.374368,45.18383],[3.374256,45.183356],[3.37334,45.182671],[3.372238,45.182184],[3.37207,45.181934],[3.371958,45.181407],[3.371678,45.181262],[3.370352,45.181249],[3.370538,45.181473],[3.370333,45.181499],[3.370015,45.181117],[3.369847,45.181605],[3.370314,45.182276],[3.3708,45.182289],[3.370856,45.182921],[3.371267,45.183066],[3.371715,45.183395],[3.37222,45.183856],[3.371958,45.183869],[3.371491,45.183777],[3.370875,45.18354],[3.370053,45.183632],[3.369866,45.183856],[3.370128,45.184054],[3.370445,45.184212],[3.370333,45.18462],[3.370613,45.18591],[3.370165,45.185686],[3.370053,45.18591],[3.36981,45.185726],[3.369231,45.185634],[3.369156,45.185778],[3.369455,45.186239],[3.369474,45.186595],[3.370165,45.187082],[3.369997,45.187753],[3.369773,45.188082],[3.369791,45.188372],[3.369455,45.188859],[3.369137,45.18907],[3.368633,45.189083],[3.368241,45.188978],[3.367512,45.189517],[3.367213,45.190044],[3.367045,45.190426],[3.366616,45.190597],[3.366373,45.190821],[3.367008,45.191229],[3.367643,45.191913],[3.367699,45.192506],[3.368185,45.193124],[3.368372,45.193519],[3.368465,45.193954],[3.368951,45.194033],[3.369754,45.194493],[3.370258,45.194467],[3.370595,45.194809],[3.370893,45.195007],[3.371342,45.195639],[3.371454,45.196547],[3.371827,45.196547],[3.372332,45.19631],[3.372873,45.196113],[3.373359,45.196034],[3.374293,45.196218],[3.375022,45.196626],[3.376236,45.197324],[3.377263,45.1976],[3.377861,45.196823],[3.378646,45.19602],[3.379187,45.196139],[3.379673,45.196415],[3.380084,45.196876],[3.380588,45.197442],[3.381672,45.198048],[3.382045,45.198074],[3.38354,45.197455],[3.384156,45.198403],[3.383969,45.199101],[3.384324,45.199324],[3.384754,45.199377],[3.385445,45.199061],[3.385539,45.198798],[3.385856,45.198758],[3.386342,45.198903],[3.388434,45.197455],[3.389742,45.197666],[3.389891,45.197534],[3.3892,45.196823],[3.389186,45.196725],[3.389234,45.196608],[3.389127,45.196509],[3.388976,45.196437],[3.387877,45.195712],[3.388113,45.195666],[3.388263,45.19553],[3.388016,45.195383],[3.388059,45.195266],[3.388183,45.195133],[3.388268,45.195114],[3.388354,45.195008],[3.388714,45.194922],[3.389094,45.194407],[3.388971,45.194294],[3.388789,45.19429],[3.38866,45.194162],[3.388708,45.194003],[3.388901,45.193825],[3.389127,45.193738],[3.389363,45.193738],[3.389915,45.193598],[3.390108,45.193708],[3.390419,45.19375],[3.390859,45.193901],[3.39094,45.193984],[3.39116,45.194143],[3.391895,45.195046],[3.392147,45.194982],[3.392732,45.194411],[3.393327,45.194158],[3.393826,45.194037],[3.394867,45.194033],[3.395808,45.193984],[3.396731,45.194033],[3.397394,45.194033],[3.398039,45.193726],[3.398474,45.193591],[3.398771,45.193211],[3.398561,45.192732],[3.399625,45.191872],[3.400548,45.191626],[3.401734,45.191565],[3.401995,45.191737],[3.402047,45.192142],[3.401978,45.192695],[3.402187,45.193161],[3.402814,45.194058],[3.403442,45.1945],[3.403842,45.194942],[3.404435,45.19536],[3.404784,45.195876],[3.404784,45.197178],[3.40562,45.197374],[3.406178,45.197374],[3.406422,45.197558],[3.406195,45.197853],[3.406509,45.198492],[3.406387,45.198639],[3.40515,45.198799],[3.404435,45.198971],[3.404156,45.19918],[3.404017,45.199745],[3.40372,45.20015],[3.403633,45.200924],[3.403895,45.20128],[3.404261,45.202373],[3.404243,45.203416],[3.404679,45.203711],[3.404662,45.204116],[3.404836,45.204546],[3.404522,45.205246],[3.407137,45.203834],[3.407137,45.204092],[3.406317,45.204522],[3.40623,45.204853],[3.405673,45.205381],[3.405603,45.206143],[3.405638,45.206401],[3.405376,45.207113],[3.405289,45.208218],[3.404505,45.208869],[3.404627,45.209237],[3.404557,45.209495],[3.405219,45.209348],[3.405324,45.209421],[3.405341,45.2099],[3.405446,45.210109],[3.404662,45.21141],[3.4044,45.212098],[3.404487,45.213043],[3.404731,45.213277],[3.404784,45.213449],[3.405045,45.213547],[3.405812,45.213498],[3.406248,45.213424],[3.406439,45.213596],[3.406283,45.213903],[3.406283,45.214247],[3.406736,45.214861],[3.407415,45.215155],[3.407869,45.215217],[3.408304,45.215229],[3.408635,45.215855],[3.409298,45.216334],[3.410431,45.217856],[3.41003,45.218397],[3.40989,45.21874],[3.4101,45.2189],[3.411633,45.219268],[3.412139,45.219366],[3.412226,45.219637],[3.412086,45.219821],[3.411372,45.219993],[3.410866,45.220029],[3.410065,45.220435],[3.410152,45.22095],[3.410012,45.221294],[3.409298,45.221601],[3.408879,45.221932],[3.408409,45.221969],[3.407154,45.221883],[3.405899,45.221687],[3.405411,45.221871],[3.404975,45.221846],[3.404871,45.222092],[3.406753,45.22289],[3.407694,45.223086],[3.408322,45.223454],[3.408949,45.224252],[3.409821,45.224756],[3.410779,45.225014],[3.412365,45.225222],[3.413446,45.225566],[3.414736,45.226155],[3.415206,45.226511],[3.415921,45.226425],[3.416601,45.226204],[3.417664,45.226266],[3.417855,45.225873],[3.419877,45.225087],[3.420348,45.225075],[3.42094,45.225099],[3.421603,45.225038],[3.422091,45.225149],[3.422509,45.225149],[3.422736,45.225026],[3.422805,45.224535],[3.423415,45.224044],[3.423834,45.223946],[3.424566,45.224265],[3.425315,45.224363],[3.425768,45.224596],[3.426431,45.22451],[3.427023,45.22451],[3.428139,45.224093],[3.428435,45.22413],[3.428923,45.224142],[3.430073,45.224486],[3.431555,45.225762],[3.431956,45.225713],[3.433001,45.225259],[3.433629,45.225173],[3.434866,45.225664],[3.43518,45.226315],[3.435337,45.227137],[3.435651,45.228168],[3.436261,45.228966],[3.439084,45.229408],[3.440513,45.229384],[3.44243,45.229825],[3.444417,45.230599],[3.445428,45.230476],[3.446544,45.230501],[3.447711,45.230771],[3.449385,45.23109],[3.450378,45.231041],[3.451267,45.231188],[3.452104,45.231667],[3.453202,45.231888],[3.453707,45.231875],[3.454143,45.232145],[3.45613,45.232452],[3.457367,45.23271],[3.458605,45.23271],[3.459337,45.23282],[3.460278,45.23309],[3.460992,45.233618],[3.46148,45.234391],[3.462073,45.234895],[3.462422,45.235054],[3.462822,45.235422],[3.463537,45.235827],[3.465071,45.23638],[3.46406,45.236858],[3.464548,45.237754],[3.465524,45.238552],[3.465594,45.239092],[3.466779,45.242148],[3.466448,45.242872],[3.465977,45.243007],[3.465524,45.245694],[3.466116,45.247032],[3.466395,45.247829],[3.466378,45.248811],[3.464496,45.249682],[3.462108,45.249461],[3.461079,45.250247],[3.460138,45.250787],[3.458883,45.250873],[3.458082,45.250836],[3.457942,45.251449],[3.457489,45.25205],[3.45735,45.252382],[3.45735,45.252762],[3.457228,45.253167],[3.457402,45.253842],[3.457803,45.254443],[3.458204,45.254676],[3.458308,45.255253],[3.457419,45.256725],[3.457123,45.257363],[3.456339,45.258467],[3.456356,45.258627],[3.456635,45.258897],[3.455694,45.259731],[3.455258,45.260246],[3.455328,45.260528],[3.455729,45.260909],[3.456008,45.261387],[3.455014,45.260933],[3.454683,45.261056],[3.454093,45.261516],[3.45385,45.261505],[3.453638,45.261665],[3.453394,45.261665],[3.453199,45.261894],[3.453378,45.26202],[3.453898,45.262191],[3.45411,45.262489],[3.455037,45.262787],[3.455346,45.263199],[3.455638,45.26329],[3.456191,45.263382],[3.456219,45.26315],[3.456173,45.262778],[3.456688,45.262397],[3.457048,45.262609],[3.457449,45.262961],[3.45853,45.263328],[3.459271,45.263483],[3.459931,45.263384],[3.460492,45.263384],[3.461893,45.263201],[3.462794,45.263257],[3.463315,45.263215],[3.464756,45.262919],[3.465217,45.262792],[3.465917,45.263215],[3.466458,45.263736],[3.467019,45.263877],[3.467511,45.263742],[3.469323,45.26297],[3.470404,45.263031],[3.473384,45.262724],[3.474308,45.262368],[3.475702,45.262393],[3.47619,45.262319],[3.47701,45.261878],[3.479119,45.261731],[3.480687,45.261706],[3.48121,45.26178],[3.482413,45.262258],[3.482918,45.262896],[3.483441,45.262835],[3.483981,45.262552],[3.484208,45.262197],[3.484208,45.261927],[3.484434,45.261583],[3.484539,45.261289],[3.485585,45.260528],[3.486665,45.259461],[3.486996,45.259044],[3.486927,45.258749],[3.48663,45.258332],[3.487118,45.257977],[3.48731,45.257707],[3.48799,45.257265],[3.488844,45.257314],[3.490988,45.257069],[3.49172,45.25702],[3.492086,45.256909],[3.49233,45.257437],[3.492591,45.256799],[3.4928,45.256811],[3.493027,45.257302],[3.493515,45.257412],[3.493829,45.257326],[3.494003,45.257105],[3.493689,45.256799],[3.493672,45.256173],[3.493898,45.254897],[3.494073,45.254333],[3.494526,45.254198],[3.495554,45.253547],[3.496129,45.253449],[3.497489,45.252897],[3.498343,45.252468],[3.499249,45.252296],[3.50148,45.251425],[3.501393,45.252198],[3.501497,45.252296],[3.501724,45.251842],[3.502456,45.251032],[3.502752,45.250676],[3.503938,45.25059],[3.504373,45.250897],[3.504826,45.250836],[3.505001,45.250554],[3.505524,45.250173],[3.506622,45.250333],[3.507144,45.249977],[3.507929,45.24967],[3.508486,45.249719],[3.508382,45.249461],[3.509114,45.249523],[3.511345,45.249228],[3.511885,45.249596],[3.512652,45.249989],[3.513419,45.2501],[3.514064,45.250296],[3.514744,45.250394],[3.515406,45.250566],[3.515371,45.250971],[3.51558,45.251339],[3.515179,45.251486],[3.514744,45.25194],[3.514604,45.252455],[3.514151,45.25383],[3.51382,45.254553],[3.514011,45.255891],[3.514238,45.256382],[3.514866,45.256529],[3.515545,45.256578],[3.516626,45.256529],[3.517532,45.256799],[3.518299,45.257204],[3.519205,45.259375],[3.519118,45.259731],[3.518421,45.260185],[3.517637,45.261093],[3.517166,45.262111],[3.516922,45.262871],[3.516591,45.263325],[3.515807,45.264699],[3.516364,45.264822],[3.517445,45.264773],[3.517985,45.264994],[3.518142,45.265374],[3.518194,45.265791],[3.518072,45.26638],[3.518125,45.266785],[3.518351,45.267067],[3.518247,45.267521],[3.518421,45.268159],[3.518247,45.26887],[3.518282,45.269569],[3.518107,45.269949],[3.517672,45.270452],[3.517741,45.270599],[3.5187,45.270685],[3.520059,45.271041],[3.520181,45.270661],[3.520879,45.269864],[3.52114,45.269532],[3.522081,45.270035],[3.522604,45.270072],[3.523685,45.270354],[3.523963,45.270624],[3.523789,45.270845],[3.524451,45.271335],[3.524887,45.271752],[3.525654,45.271973],[3.526473,45.272611],[3.527693,45.273371],[3.528268,45.273899],[3.528722,45.274439],[3.529401,45.275003],[3.529942,45.275236],[3.531946,45.27488],[3.532347,45.273678],[3.533183,45.27331],[3.533793,45.273445],[3.534456,45.274206],[3.534874,45.274218],[3.535153,45.273936],[3.535013,45.273543],[3.535048,45.27293],[3.535258,45.272353],[3.534961,45.271041],[3.534717,45.270624],[3.535013,45.270035],[3.53578,45.269483],[3.536286,45.268686],[3.536791,45.268514],[3.53775,45.268612],[3.539371,45.26768],[3.540138,45.266748],[3.541096,45.265877],[3.542003,45.265227],[3.542909,45.264822],[3.543885,45.264662],[3.544355,45.264662],[3.544477,45.264883],[3.545384,45.265215],[3.546046,45.265681],[3.546726,45.265705],[3.54683,45.265877],[3.54683,45.266269],[3.547074,45.266736],[3.547388,45.266699],[3.547754,45.26638],[3.548277,45.265865],[3.548451,45.265926],[3.548469,45.26622],[3.548835,45.266576],[3.549497,45.266772],[3.549602,45.267214],[3.550264,45.267631],[3.551327,45.268146],[3.552251,45.268109],[3.552077,45.268379],[3.551728,45.268649],[3.551432,45.26871],[3.550961,45.268588],[3.550508,45.26898],[3.549288,45.26925],[3.549079,45.269667],[3.548172,45.269949],[3.547493,45.269913],[3.546952,45.26968],[3.545924,45.269851],[3.546674,45.269913],[3.547615,45.270465],[3.547406,45.271017],[3.547057,45.271556],[3.547318,45.271703],[3.548451,45.271765],[3.548329,45.27239],[3.548904,45.272415],[3.54934,45.272672],[3.549619,45.273126],[3.549497,45.274169],[3.549706,45.274377],[3.550595,45.274598],[3.550839,45.274782],[3.550926,45.275052],[3.551275,45.275211],[3.551606,45.275309],[3.552355,45.276401],[3.552704,45.277787],[3.552721,45.278339],[3.553314,45.279111],[3.553767,45.279418],[3.554203,45.279504],[3.554848,45.279835],[3.555301,45.280497],[3.555214,45.280632],[3.555353,45.281123],[3.555615,45.281736],[3.555667,45.282226],[3.556068,45.283146],[3.556015,45.283293],[3.555161,45.283735],[3.554604,45.284274],[3.554307,45.284998],[3.554377,45.285513],[3.554342,45.285844],[3.553314,45.28669],[3.552878,45.28718],[3.552321,45.287291],[3.551275,45.287119],[3.55056,45.286898],[3.550177,45.287009],[3.54934,45.287463],[3.548922,45.28745],[3.548225,45.28734],[3.547632,45.287303],[3.547301,45.287475],[3.546534,45.287475],[3.545366,45.287855],[3.544739,45.288002],[3.544268,45.287953],[3.543711,45.287622],[3.543327,45.287046],[3.542787,45.286555],[3.542595,45.286028],[3.542299,45.285697],[3.542212,45.285439],[3.541584,45.285439],[3.541497,45.285341],[3.540783,45.285476],[3.541061,45.286187],[3.541497,45.286886],[3.541358,45.287217],[3.541375,45.287512],[3.541305,45.288345],[3.540939,45.288848],[3.541009,45.289694],[3.54087,45.290013],[3.540695,45.290307],[3.540957,45.290884],[3.541445,45.291055],[3.541393,45.291215],[3.541009,45.291448],[3.5408,45.29184],[3.540207,45.292379],[3.540242,45.292649],[3.540382,45.292943],[3.540347,45.293213],[3.540103,45.29336],[3.539963,45.293814],[3.540016,45.294966],[3.540277,45.295322],[3.540783,45.295629],[3.540661,45.295739],[3.539876,45.296094],[3.53965,45.297259],[3.53965,45.297762],[3.53958,45.298448],[3.540068,45.299392],[3.541009,45.299956],[3.540103,45.300447],[3.540138,45.300545],[3.53944,45.301329],[3.538796,45.301354],[3.538081,45.30144],[3.538029,45.301562],[3.538534,45.301832],[3.53883,45.302114],[3.539109,45.302188],[3.539545,45.302188],[3.540661,45.302396],[3.541584,45.302813],[3.54195,45.303328],[3.542822,45.304051],[3.543676,45.304272],[3.544233,45.304615],[3.545471,45.305571],[3.545785,45.305387],[3.546238,45.305363],[3.547684,45.305693],[3.549079,45.307336],[3.549619,45.307336],[3.550734,45.306944],[3.551798,45.307299],[3.552896,45.306809],[3.553593,45.306846],[3.554011,45.306674],[3.55497,45.305865],[3.555493,45.305436],[3.555981,45.305473],[3.55687,45.305706],[3.558246,45.305792],[3.559188,45.305399],[3.560129,45.305424],[3.561035,45.304958],[3.562185,45.304615],[3.563179,45.304492],[3.564347,45.304137],[3.564573,45.304222],[3.564782,45.304615],[3.56466,45.30513],[3.564991,45.305448],[3.565636,45.305522],[3.566421,45.305289],[3.566752,45.304995],[3.566996,45.304933],[3.567989,45.30497],[3.56846,45.30524],[3.569052,45.305424],[3.569767,45.306135],[3.570848,45.306833],[3.571004,45.306404],[3.571545,45.305767],[3.572242,45.305375],[3.57273,45.305277],[3.572939,45.305767],[3.573201,45.306073],[3.573619,45.306],[3.574177,45.305473],[3.574856,45.304983],[3.575083,45.30513],[3.57571,45.305363],[3.576198,45.305473],[3.576111,45.306147],[3.576669,45.306257],[3.577035,45.306552],[3.577645,45.306601],[3.578116,45.30649],[3.578778,45.306098],[3.580834,45.306478],[3.583153,45.30665],[3.585122,45.307569],[3.585749,45.307667],[3.585906,45.307986],[3.586464,45.308096],[3.586882,45.308341],[3.587126,45.308353],[3.587579,45.308746],[3.587824,45.309101],[3.588329,45.309469],[3.589305,45.309788],[3.59049,45.310033],[3.591937,45.310928],[3.592738,45.31116],[3.59286,45.311516],[3.592791,45.312631],[3.593331,45.313612],[3.59361,45.31371],[3.594011,45.313232],[3.593941,45.312239],[3.594098,45.311724],[3.594464,45.311357],[3.595022,45.311001],[3.595632,45.310388],[3.596242,45.310168],[3.597619,45.310033],[3.598856,45.30969],[3.599832,45.309187],[3.601139,45.308329],[3.601767,45.308084],[3.603248,45.307777],[3.604451,45.307385],[3.605636,45.306944],[3.607414,45.306723],[3.609819,45.306735],[3.612834,45.30611],[3.613601,45.305608],[3.61395,45.304848],[3.613932,45.304112],[3.613758,45.303511],[3.613793,45.303168],[3.61456,45.303561],[3.615205,45.304039],[3.615449,45.304382],[3.616303,45.304247],[3.619283,45.304296],[3.620276,45.304553],[3.621008,45.304639],[3.621444,45.304382],[3.622124,45.304333],[3.622716,45.304455],[3.623431,45.304259],[3.624494,45.304186],[3.625157,45.304259],[3.626133,45.30448],[3.627753,45.304468],[3.628729,45.304602],[3.631292,45.304333],[3.634638,45.304394],[3.636886,45.304161],[3.638281,45.303622],[3.638594,45.303217],[3.639326,45.302886],[3.640163,45.302666],[3.64384,45.300716],[3.644381,45.300202],[3.645043,45.299809],[3.646298,45.299785],[3.646559,45.299821],[3.646908,45.299478],[3.647274,45.299515],[3.647379,45.299846],[3.648337,45.30052],[3.648564,45.301734],[3.649365,45.301342],[3.650463,45.30193],[3.650952,45.30204],[3.651928,45.30242],[3.652276,45.302457],[3.654315,45.30345],[3.654664,45.303487],[3.654699,45.303891],[3.655483,45.303597],[3.656407,45.303585],[3.657871,45.303891],[3.658568,45.303659],[3.659213,45.303303],[3.659387,45.303793],[3.659736,45.304161],[3.660049,45.305007],[3.660241,45.305363],[3.660293,45.305816],[3.660642,45.306478],[3.660938,45.306993],[3.660973,45.307532],[3.661165,45.30801],[3.661531,45.309971],[3.661514,45.3104],[3.661409,45.310621],[3.661374,45.311185],[3.66242,45.311099],[3.66289,45.311173],[3.662716,45.311835],[3.662873,45.313097],[3.66357,45.315107],[3.6635,45.315524],[3.663117,45.316124],[3.663117,45.31648],[3.663378,45.316676],[3.664337,45.316958],[3.664564,45.317595],[3.665243,45.317718],[3.665923,45.317742],[3.666394,45.317901],[3.667108,45.317889],[3.669949,45.31871],[3.670472,45.319102],[3.670611,45.319384],[3.670664,45.319776],[3.671187,45.320647],[3.671012,45.320879],[3.671065,45.321897],[3.671065,45.322411],[3.671187,45.322914],[3.671396,45.32333],[3.671727,45.323539],[3.671797,45.32409],[3.672808,45.323821],[3.677426,45.322227],[3.679396,45.32224],[3.680006,45.322411],[3.681139,45.322938],[3.68201,45.323196],[3.683997,45.323073],[3.686454,45.322791],[3.688215,45.322828],[3.689034,45.32295],[3.69001,45.322975],[3.690393,45.322852],[3.690864,45.322509],[3.692363,45.321823],[3.69313,45.321639],[3.693374,45.321284],[3.69381,45.321254],[3.693852,45.320968],[3.694196,45.32056],[3.695161,45.320349],[3.695183,45.319866],[3.694346,45.31795],[3.693123,45.317196],[3.691556,45.316607],[3.690183,45.315626],[3.689818,45.31543],[3.689988,45.315208],[3.690476,45.314876],[3.690899,45.314328],[3.691679,45.313756],[3.692118,45.313447],[3.69207,45.313173],[3.691517,45.312978],[3.69072,45.312475],[3.690297,45.31196],[3.689468,45.311377],[3.689094,45.310942],[3.688248,45.310577],[3.687256,45.310542],[3.686655,45.310336],[3.68615,45.309879],[3.685841,45.309467],[3.684849,45.308907],[3.684378,45.308209],[3.684166,45.307992],[3.685809,45.307123],[3.687029,45.306882],[3.688378,45.306494],[3.68898,45.306231],[3.690818,45.304858],[3.691582,45.304195],[3.692102,45.303554],[3.693354,45.302479],[3.694346,45.301324],[3.69459,45.301392],[3.694476,45.300214],[3.694688,45.299414],[3.694932,45.299128],[3.695371,45.298762],[3.695973,45.298704],[3.696737,45.298407],[3.697225,45.297995],[3.69768,45.297938],[3.6982,45.297824],[3.698883,45.297824],[3.699745,45.298041],[3.700314,45.297972],[3.700754,45.297801],[3.701437,45.297721],[3.702136,45.297538],[3.702396,45.297549],[3.70264,45.296096],[3.703112,45.295902],[3.70477,45.295822],[3.705193,45.295627],[3.70533,45.291031],[3.703518,45.290896],[3.701775,45.290614],[3.700171,45.29016],[3.698637,45.289621],[3.697801,45.289351],[3.697487,45.288211],[3.697365,45.287315],[3.697173,45.286997],[3.696441,45.286298],[3.695605,45.285868],[3.693792,45.284703],[3.693444,45.283894],[3.692607,45.28241],[3.691509,45.280608],[3.691038,45.279614],[3.690463,45.278866],[3.690498,45.278106],[3.689679,45.277002],[3.688372,45.275628],[3.687849,45.275358],[3.687605,45.274843],[3.687204,45.274561],[3.688058,45.273531],[3.689051,45.272832],[3.68994,45.272378],[3.691613,45.271777],[3.692311,45.271654],[3.692555,45.271434],[3.693356,45.271446],[3.693496,45.271225],[3.693287,45.270783],[3.692834,45.270281],[3.693252,45.270035],[3.694263,45.270391],[3.694942,45.270379],[3.695413,45.270305],[3.696284,45.269532],[3.696598,45.268858],[3.696807,45.268183],[3.697138,45.267545],[3.697522,45.267925],[3.697993,45.268036],[3.698446,45.267999],[3.699666,45.267275],[3.701008,45.266883],[3.701949,45.266503],[3.702315,45.266233],[3.702873,45.266821],[3.703762,45.267582],[3.704337,45.268612],[3.705208,45.269839],[3.708851,45.270231],[3.709862,45.269925],[3.711361,45.270011],[3.71218,45.269814],[3.712459,45.269839],[3.71279,45.269545],[3.712964,45.268747],[3.713121,45.268477],[3.713016,45.268146],[3.713103,45.267521],[3.713382,45.267226],[3.713295,45.266797],[3.713365,45.266441],[3.712912,45.265889],[3.711988,45.26519],[3.7115,45.26438],[3.710716,45.263669],[3.710245,45.263019],[3.710071,45.262184],[3.710123,45.261363],[3.708101,45.261669],[3.707613,45.260516],[3.707422,45.259854],[3.707439,45.259387],[3.708084,45.257891],[3.707944,45.257289],[3.707788,45.256332],[3.707735,45.255044],[3.707526,45.254517],[3.706759,45.253682],[3.70655,45.253241],[3.706341,45.252603],[3.706358,45.252271],[3.706812,45.251633],[3.706968,45.250333],[3.707369,45.249314],[3.707788,45.248872],[3.707753,45.247731],[3.7096,45.244541],[3.709862,45.24367],[3.710681,45.243805],[3.711291,45.244025],[3.712354,45.244651],[3.712459,45.245032],[3.71272,45.245142],[3.713138,45.245265],[3.7134,45.245547],[3.71387,45.245756],[3.713923,45.245523],[3.7134,45.244516],[3.713435,45.243927],[3.713191,45.243093],[3.712894,45.242013],[3.712685,45.241718],[3.712197,45.24151],[3.711517,45.240724],[3.711605,45.240123],[3.710977,45.239583],[3.710507,45.239129],[3.709391,45.239006],[3.70899,45.23881],[3.708241,45.23827],[3.707439,45.23811],[3.706672,45.237877],[3.705818,45.237705],[3.70526,45.236993],[3.704337,45.236331],[3.703762,45.236085],[3.702524,45.234465],[3.701879,45.23406],[3.702106,45.233594],[3.698324,45.232501],[3.698585,45.232317],[3.698219,45.231986],[3.698027,45.231605],[3.697609,45.230513],[3.696982,45.230034],[3.696877,45.229727],[3.697034,45.229163],[3.696633,45.228021],[3.695413,45.226744],[3.695152,45.225701],[3.694977,45.22548],[3.693757,45.225271],[3.693932,45.224449],[3.69381,45.22386],[3.693897,45.22316],[3.693409,45.222276],[3.693182,45.221994],[3.692101,45.220471],[3.691701,45.219747],[3.69123,45.219354],[3.690881,45.219158],[3.691369,45.218446],[3.691648,45.217513],[3.691823,45.217279],[3.692032,45.216457],[3.692467,45.215413],[3.692903,45.21491],[3.693932,45.214001],[3.693862,45.213694],[3.69435,45.213547],[3.694803,45.213363],[3.695134,45.212921],[3.69543,45.212945],[3.696075,45.212835],[3.696459,45.21254],[3.696703,45.212503],[3.697138,45.212221],[3.698149,45.211153],[3.698428,45.210244],[3.699091,45.209741],[3.699474,45.209127],[3.700241,45.208451],[3.700781,45.207162],[3.701147,45.206769],[3.701513,45.206658],[3.701374,45.205885],[3.701478,45.205037],[3.70167,45.20446],[3.701687,45.203883],[3.701897,45.203073],[3.702036,45.20268],[3.702402,45.202127],[3.702785,45.201746],[3.703204,45.20085],[3.703692,45.200334],[3.704232,45.200138],[3.704616,45.199904],[3.704598,45.200138],[3.705522,45.20015],[3.706846,45.200039],[3.708467,45.200211],[3.709705,45.200187],[3.711047,45.200629],[3.711308,45.199978],[3.710751,45.199032],[3.710175,45.198713],[3.710053,45.19848],[3.709687,45.198406],[3.708084,45.197215],[3.706446,45.195483],[3.706167,45.19509],[3.70411,45.193788],[3.703274,45.193419],[3.701879,45.192977],[3.70099,45.19256],[3.700276,45.192363],[3.699474,45.192253],[3.69916,45.192044],[3.698864,45.191688],[3.698637,45.191356],[3.698132,45.191196],[3.697557,45.191208],[3.695796,45.190926],[3.694629,45.191172],[3.693722,45.19111],[3.692502,45.191135],[3.691875,45.191086],[3.69116,45.190987],[3.690533,45.191012],[3.689522,45.190766],[3.688093,45.190975],[3.68757,45.191135],[3.685932,45.19181],[3.685653,45.192081],[3.685287,45.192977],[3.684903,45.193346],[3.684956,45.193911],[3.685322,45.194377],[3.6856,45.194869],[3.686019,45.195176],[3.686141,45.19579],[3.686071,45.196207],[3.685496,45.196772],[3.685461,45.196613],[3.685496,45.196293],[3.684973,45.195864],[3.683945,45.196048],[3.68337,45.196293],[3.682969,45.196195],[3.682777,45.195986],[3.682446,45.195925],[3.681731,45.196121],[3.681261,45.195974],[3.680459,45.196121],[3.680093,45.19649],[3.680006,45.196686],[3.679988,45.197165],[3.679762,45.19762],[3.679448,45.198025],[3.678925,45.199229],[3.678472,45.199695],[3.677932,45.200322],[3.67774,45.201157],[3.677479,45.201709],[3.676415,45.202667],[3.675823,45.203085],[3.674289,45.203723],[3.672912,45.204215],[3.671465,45.204448],[3.670908,45.204583],[3.66981,45.204988],[3.668747,45.205197],[3.668241,45.205308],[3.667683,45.205344],[3.666533,45.205001],[3.665836,45.204644],[3.664041,45.204399],[3.66235,45.203932],[3.659509,45.202422],[3.659004,45.202225],[3.657923,45.200457],[3.656999,45.199646],[3.656564,45.19945],[3.656267,45.199167],[3.655989,45.198615],[3.655222,45.197816],[3.654734,45.197509],[3.654158,45.197288],[3.65327,45.197067],[3.652346,45.197043],[3.650603,45.196723],[3.65008,45.196588],[3.648703,45.196699],[3.647762,45.196588],[3.64459,45.195765],[3.643562,45.195053],[3.641592,45.194033],[3.640912,45.193604],[3.640023,45.193395],[3.639169,45.1931],[3.638699,45.192744],[3.638368,45.192314],[3.638159,45.191663],[3.63788,45.191294],[3.637427,45.19084],[3.636939,45.18874],[3.635631,45.188273],[3.635248,45.188003],[3.634742,45.188101],[3.631326,45.188089],[3.629531,45.187941],[3.629862,45.18729],[3.630455,45.186664],[3.630629,45.186246],[3.631204,45.186037],[3.631257,45.185853],[3.630298,45.185411],[3.630072,45.185128],[3.629984,45.184624],[3.630141,45.184256],[3.631518,45.183064],[3.632302,45.183457],[3.63293,45.18347],[3.633488,45.183322],[3.635004,45.182499],[3.635719,45.181529],[3.636695,45.18057],[3.638368,45.178728],[3.638821,45.179158],[3.639222,45.179121],[3.640268,45.17928],[3.641313,45.179182],[3.642342,45.179244],[3.64445,45.179661],[3.645688,45.179354],[3.645479,45.178973],[3.645566,45.178212],[3.646246,45.177794],[3.647692,45.176479],[3.647675,45.175963],[3.647483,45.175324],[3.647553,45.174894],[3.648006,45.174194],[3.647971,45.173469],[3.647117,45.171331],[3.647082,45.170815],[3.647588,45.169648],[3.647832,45.168788],[3.648337,45.16794],[3.648459,45.167362],[3.648302,45.166944],[3.648023,45.165457],[3.647588,45.165089],[3.647065,45.164573],[3.646664,45.163872],[3.646891,45.16327],[3.646995,45.162815],[3.647222,45.162139],[3.647117,45.161464],[3.646908,45.160825],[3.646333,45.160652],[3.644764,45.159952],[3.644294,45.15951],[3.644084,45.158883],[3.644119,45.158047],[3.644224,45.157654],[3.643457,45.156646],[3.643021,45.156388],[3.642498,45.155749],[3.642185,45.15479],[3.641679,45.154679],[3.641,45.15479],[3.640756,45.154729],[3.640407,45.153991],[3.640041,45.153647],[3.639692,45.153549],[3.639065,45.153512],[3.638333,45.153278],[3.637339,45.153291],[3.636764,45.153463],[3.635753,45.154003],[3.634464,45.154839],[3.6334,45.15538],[3.63279,45.156007],[3.631013,45.158133],[3.629636,45.159313],[3.62866,45.160013],[3.62805,45.160394],[3.627492,45.160861],[3.626621,45.16123],[3.625976,45.162004],[3.625453,45.162459],[3.624529,45.162901],[3.623936,45.163418],[3.623692,45.163958],[3.622908,45.165015],[3.622769,45.165433],[3.622908,45.166342],[3.622734,45.167018],[3.621584,45.167841],[3.620956,45.167915],[3.62005,45.167645],[3.619841,45.167473],[3.619475,45.167436],[3.619492,45.16778],[3.619405,45.16837],[3.618882,45.16848],[3.618115,45.168517],[3.617749,45.168628],[3.61693,45.168394],[3.616547,45.168468],[3.616355,45.168517],[3.615518,45.168407],[3.61517,45.168493],[3.614804,45.168271],[3.614682,45.168566],[3.614542,45.168665],[3.614019,45.168542],[3.613496,45.168198],[3.613183,45.168173],[3.612677,45.168222],[3.611544,45.168001],[3.611231,45.168185],[3.610394,45.169046],[3.609802,45.169316],[3.608802,45.169569],[3.607121,45.170162],[3.606261,45.170767],[3.605028,45.170807],[3.603646,45.17003],[3.60288,45.169714],[3.601797,45.169608],[3.601292,45.169806],[3.600639,45.169753],[3.599555,45.168976],[3.598939,45.168766],[3.598173,45.168963],[3.597687,45.168713],[3.597612,45.16837],[3.597837,45.167264],[3.597743,45.166592],[3.597295,45.165144],[3.597164,45.164301],[3.596847,45.163695],[3.596211,45.163221],[3.595128,45.163142],[3.594362,45.162826],[3.594007,45.162259],[3.593783,45.160916],[3.593522,45.160679],[3.592849,45.160547],[3.592008,45.160244],[3.591728,45.16002],[3.589972,45.159954],[3.589206,45.160191],[3.585059,45.162233],[3.583453,45.162971],[3.583154,45.162944],[3.582762,45.162246],[3.582668,45.161192],[3.582332,45.160916],[3.581884,45.160521],[3.580053,45.158848],[3.579736,45.158334],[3.579941,45.157952],[3.580502,45.157886],[3.580838,45.157517],[3.581174,45.157438],[3.581155,45.157254],[3.581753,45.157004],[3.582071,45.156991],[3.582127,45.156095],[3.582295,45.155581],[3.582407,45.155212],[3.58336,45.154751],[3.583752,45.153882],[3.583098,45.152946],[3.583005,45.152393],[3.583229,45.151379],[3.583061,45.149666],[3.582799,45.148955],[3.582874,45.148533],[3.582631,45.147795],[3.583266,45.146504],[3.584256,45.14632],[3.585526,45.145938],[3.587077,45.1452],[3.587264,45.145029],[3.586554,45.144607],[3.584985,45.144791],[3.584611,45.144699],[3.584443,45.144423],[3.584499,45.143961],[3.584312,45.14383],[3.584256,45.142841],[3.582463,45.141247],[3.582276,45.140826],[3.582257,45.139561],[3.582351,45.138915],[3.581977,45.138045],[3.581716,45.136978],[3.581753,45.136095],[3.582668,45.13653],[3.58349,45.136675],[3.584107,45.136609],[3.584798,45.136451],[3.584219,45.136121],[3.583715,45.135647],[3.582276,45.135344],[3.580502,45.134118],[3.579773,45.13371],[3.580128,45.133539],[3.578615,45.13313],[3.578167,45.13288],[3.577961,45.132511],[3.57699,45.132234],[3.577139,45.131918],[3.576822,45.131312],[3.576093,45.130982],[3.575084,45.130191],[3.574524,45.129677],[3.574337,45.129348],[3.57387,45.129427],[3.574132,45.128821],[3.574206,45.128359],[3.574094,45.128083],[3.573665,45.12774],[3.573534,45.126923],[3.57359,45.126343],[3.573833,45.125552],[3.574132,45.125144],[3.573403,45.124366],[3.572936,45.123747],[3.572693,45.123193],[3.573104,45.122481],[3.57331,45.121954],[3.573534,45.121572],[3.573777,45.120834],[3.574318,45.120175],[3.574561,45.119305],[3.57514,45.118237],[3.57529,45.117552],[3.575215,45.117051],[3.574318,45.11655],[3.573908,45.116167],[3.57387,45.115798],[3.574487,45.115442],[3.575159,45.115258],[3.575813,45.114678],[3.576261,45.114507],[3.576056,45.114256],[3.576186,45.113676],[3.576467,45.112859],[3.576784,45.112608],[3.5777,45.112424],[3.577793,45.111804],[3.578148,45.111158],[3.57854,45.110987],[3.578652,45.11067],[3.578895,45.110156],[3.578652,45.109497],[3.578279,45.109075],[3.578073,45.108561],[3.578148,45.108152],[3.57882,45.107546],[3.579343,45.106531],[3.579568,45.105661],[3.579866,45.105357],[3.580707,45.104698],[3.581473,45.103683],[3.582071,45.102509],[3.582295,45.101956],[3.583117,45.100782],[3.583285,45.100373],[3.583472,45.09945],[3.583453,45.099213],[3.583864,45.098883],[3.583621,45.098738],[3.58336,45.098395],[3.583285,45.098158],[3.583416,45.097828],[3.583789,45.09767],[3.584107,45.097327],[3.584499,45.097182],[3.584424,45.096536],[3.584125,45.096048],[3.584238,45.094875],[3.584312,45.094294],[3.584144,45.09353],[3.583789,45.092897],[3.582986,45.092382],[3.5808,45.091486],[3.577924,45.090496],[3.577307,45.090088],[3.576784,45.089573],[3.576541,45.089587],[3.576261,45.089837],[3.575103,45.08985],[3.574561,45.090048],[3.574132,45.090048],[3.573086,45.09047],[3.571778,45.09109],[3.57118,45.091116],[3.570713,45.091077],[3.569723,45.091129],[3.569013,45.091261],[3.567724,45.0908],[3.567164,45.090668],[3.566566,45.090496],[3.565072,45.089705],[3.564306,45.089441],[3.563316,45.08832],[3.562513,45.088057],[3.562326,45.087819],[3.562158,45.087358],[3.56184,45.087068],[3.56128,45.086909],[3.560607,45.086883],[3.558086,45.086342],[3.55689,45.085313],[3.556703,45.084825],[3.555582,45.083981],[3.554574,45.083388],[3.553079,45.082873],[3.551323,45.082399],[3.550651,45.082425],[3.550389,45.082135],[3.550427,45.081581],[3.55067,45.081093],[3.551193,45.080829],[3.551678,45.080275],[3.55166,45.079655],[3.551398,45.079048],[3.551155,45.078824],[3.550352,45.07823],[3.550128,45.078046],[3.549306,45.07798],[3.548858,45.077822],[3.54826,45.077703],[3.548521,45.076476],[3.548802,45.07608],[3.549138,45.075777],[3.549287,45.075526],[3.548764,45.07521],[3.548428,45.074814],[3.548391,45.074445],[3.548652,45.073706],[3.54882,45.073086],[3.548746,45.072743],[3.548764,45.072255],[3.548596,45.07211],[3.547699,45.072044],[3.547625,45.071872],[3.547793,45.071727],[3.548615,45.071384],[3.549437,45.071292],[3.550315,45.07079],[3.551379,45.069682],[3.551249,45.069511],[3.550576,45.069181],[3.549848,45.069366],[3.54925,45.069339],[3.549194,45.069155],[3.549381,45.068917],[3.549848,45.068614],[3.55003,45.068353],[3.550091,45.06814],[3.550005,45.068123],[3.549771,45.068288],[3.548699,45.06881],[3.548637,45.068627],[3.547282,45.068036],[3.546541,45.068517],[3.54608,45.068559],[3.5456,45.068276],[3.546201,45.068092],[3.546981,45.067697],[3.546941,45.06747],[3.547141,45.06723],[3.547167,45.066945],[3.547298,45.066628],[3.54656,45.06676],[3.546513,45.066542],[3.54685,45.065586],[3.546803,45.065243],[3.54642,45.06488],[3.546205,45.064339],[3.545981,45.063462],[3.54571,45.063165],[3.54557,45.062406],[3.545635,45.06203],[3.54557,45.06172],[3.545131,45.06108],[3.544823,45.060856],[3.544132,45.060598],[3.544029,45.060513],[3.544138,45.060018],[3.544038,45.059834],[3.544018,45.059523],[3.543718,45.059466],[3.543277,45.059608],[3.541315,45.059226],[3.540795,45.05842],[3.540595,45.058222],[3.540254,45.05825],[3.539874,45.057755],[3.538312,45.057006],[3.537772,45.056709],[3.536911,45.056596],[3.53603,45.056313],[3.535349,45.056369],[3.534849,45.056383],[3.534348,45.056581],[3.534468,45.056977],[3.533928,45.056695],[3.533928,45.056185],[3.534288,45.055012],[3.534168,45.05446],[3.534408,45.053767],[3.534709,45.053583],[3.534749,45.052833],[3.534348,45.052338],[3.534528,45.051504],[3.534368,45.050882],[3.533547,45.050443],[3.532927,45.050669],[3.532486,45.050443],[3.531946,45.050429],[3.531505,45.050188],[3.531125,45.049439],[3.531025,45.048816],[3.530624,45.04842],[3.530304,45.04777],[3.529723,45.047317],[3.529203,45.047077],[3.529183,45.047317],[3.529243,45.047713],[3.529023,45.047883],[3.528602,45.047869],[3.52622,45.047331],[3.522296,45.046765],[3.521355,45.046765],[3.519593,45.04661],[3.518872,45.046652],[3.518232,45.046553],[3.51687,45.045959],[3.516189,45.045379],[3.515529,45.045139],[3.514968,45.045096],[3.514508,45.044644],[3.514348,45.044262],[3.513947,45.044078],[3.513647,45.043385],[3.513407,45.042479],[3.512986,45.041899],[3.512666,45.041263],[3.512726,45.040994],[3.512566,45.040852],[3.511785,45.040909],[3.511445,45.040782],[3.511224,45.039933],[3.511324,45.039254],[3.511104,45.038306],[3.511064,45.037471],[3.510564,45.036707],[3.510423,45.036269],[3.510223,45.03583],[3.509723,45.035377],[3.509122,45.034981],[3.508882,45.034712],[3.508582,45.034076],[3.509342,45.033411],[3.509382,45.03317],[3.509643,45.033],[3.509903,45.032534],[3.509302,45.03235],[3.509082,45.032435],[3.508962,45.032958],[3.508542,45.03317],[3.508181,45.033609],[3.507621,45.033849],[3.507581,45.035717],[3.5069,45.035618],[3.505218,45.03501],[3.505478,45.035321],[3.505238,45.035448],[3.505438,45.03583],[3.505018,45.036325],[3.504678,45.036495],[3.505218,45.037514],[3.505158,45.038065],[3.505258,45.038646],[3.505078,45.038886],[3.504157,45.038985],[3.504017,45.039268],[3.504137,45.039537],[3.504778,45.039961],[3.505098,45.040485],[3.505138,45.040838],[3.505538,45.041404],[3.505879,45.04255],[3.505098,45.043385],[3.505098,45.04371],[3.505939,45.044347],[3.506319,45.045407],[3.506359,45.045747],[3.505558,45.046369],[3.505298,45.046794],[3.505258,45.047275],[3.504878,45.047572],[3.504517,45.047798],[3.504617,45.04818],[3.504818,45.048364],[3.504597,45.049227],[3.504337,45.049637],[3.504237,45.0505],[3.503977,45.050783],[3.503336,45.051532],[3.502856,45.052041],[3.502796,45.052423],[3.503036,45.053046],[3.503456,45.053371],[3.503516,45.053852],[3.504037,45.054545],[3.504277,45.05487],[3.504097,45.05504],[3.503636,45.055309],[3.503737,45.055846],[3.504237,45.056242],[3.505599,45.057091],[3.505839,45.058095],[3.505398,45.058618],[3.505418,45.059297],[3.505639,45.060145],[3.506159,45.061121],[3.505979,45.061531],[3.506159,45.063454],[3.505979,45.064218],[3.505979,45.064699],[3.505759,45.065208],[3.505298,45.065689],[3.504437,45.066947],[3.503616,45.067555],[3.503276,45.068262],[3.502876,45.06887],[3.502675,45.06962],[3.502635,45.070157],[3.502415,45.070666],[3.502375,45.071132],[3.502675,45.071712],[3.502155,45.072744],[3.502255,45.073211],[3.502015,45.073847],[3.501975,45.074314],[3.501494,45.075473],[3.500894,45.07618],[3.500914,45.076986],[3.500373,45.077523],[3.500553,45.078032],[3.500433,45.078527],[3.500794,45.079234],[3.500613,45.079587],[3.499933,45.079842],[3.499552,45.079827],[3.499352,45.079912],[3.499492,45.080237],[3.499873,45.080563],[3.500033,45.081043],[3.500934,45.081524],[3.501334,45.082245],[3.501875,45.082513],[3.502996,45.083574],[3.503196,45.085185],[3.503336,45.086231],[3.502856,45.087362],[3.502155,45.08797],[3.501574,45.088818],[3.501194,45.089581],[3.501134,45.089935],[3.500814,45.090684],[3.500513,45.091136],[3.500273,45.092083],[3.500653,45.092408],[3.501434,45.093553],[3.502175,45.093581],[3.502255,45.094033],[3.503777,45.093694],[3.503797,45.09385],[3.503496,45.094019],[3.502783,45.094246],[3.501904,45.094763],[3.501303,45.095006],[3.500821,45.095295],[3.499989,45.095645],[3.498589,45.096493],[3.498254,45.09676],[3.497413,45.097828],[3.496993,45.097934],[3.496896,45.098255],[3.496652,45.09831],[3.495711,45.098236],[3.49477,45.098445]]],"type":"MultiLineString"},"properties":{"geo_point":{"lon":3.5456867978992404,"lat":45.19751220896961},"name":"Tour de Robe de Bure et Cotte de Mailles (Haute-Loire) (2020)","code_gr":null}}]}