{"type":"FeatureCollection","features":[{"type":"Feature","geometry":{"coordinates":[[[1.562132,47.159885],[1.552197,47.156427],[1.553978,47.154136],[1.551939,47.152662],[1.552583,47.15221],[1.554686,47.151159],[1.555222,47.150444],[1.555973,47.149934],[1.556209,47.149248],[1.553484,47.147657],[1.550974,47.147467],[1.548141,47.14557],[1.547626,47.144986],[1.547583,47.144242],[1.54842,47.142461],[1.548248,47.139484],[1.542605,47.135864],[1.543463,47.135645],[1.54327,47.134696],[1.542884,47.133864],[1.542927,47.133018],[1.543935,47.131061],[1.543485,47.129835],[1.541146,47.130069],[1.539537,47.130653],[1.538807,47.129529],[1.539043,47.127967],[1.537906,47.12639],[1.536854,47.125616],[1.53576,47.125733],[1.534644,47.12639],[1.534022,47.126244],[1.53267,47.126229],[1.532456,47.126375],[1.531275,47.126215],[1.530396,47.125733],[1.529902,47.12528],[1.52913,47.124433],[1.528422,47.123966],[1.528143,47.123484],[1.527885,47.122871],[1.527434,47.122477],[1.52707,47.122389],[1.526641,47.121805],[1.525911,47.121499],[1.525675,47.121178],[1.528314,47.12128],[1.529688,47.121075],[1.537734,47.119192],[1.541275,47.117834],[1.536962,47.113088],[1.537756,47.113073],[1.537992,47.113409],[1.542519,47.113935],[1.543335,47.113774],[1.544386,47.113424],[1.545116,47.114826],[1.545373,47.114826],[1.546146,47.114008],[1.549686,47.113366],[1.551403,47.113],[1.552046,47.113103],[1.553055,47.113701],[1.554214,47.114154],[1.556874,47.112022],[1.559664,47.10913],[1.562153,47.107247],[1.562046,47.106312],[1.562539,47.104545],[1.562432,47.103493],[1.562217,47.102836],[1.56432,47.101799],[1.562604,47.099637],[1.562518,47.099082],[1.563054,47.097271],[1.56299,47.09654],[1.562196,47.095649],[1.561617,47.094656],[1.561166,47.094261],[1.561166,47.093911],[1.560243,47.093034],[1.56299,47.091471],[1.562668,47.091179],[1.562067,47.089908],[1.562561,47.08665],[1.566809,47.08139],[1.568998,47.082559],[1.57153,47.084166],[1.572474,47.083333],[1.595091,47.084692],[1.607064,47.08516],[1.607107,47.084838],[1.60921,47.083962],[1.610626,47.084882],[1.611441,47.08646],[1.613158,47.087556],[1.614531,47.087921],[1.615368,47.089703],[1.615862,47.090259],[1.616763,47.091486],[1.617836,47.092041],[1.620303,47.093122],[1.626462,47.08944],[1.627513,47.08925],[1.632534,47.083859],[1.634658,47.082676],[1.637148,47.081653],[1.638735,47.081215],[1.639594,47.080849],[1.641182,47.081507],[1.64292,47.082544],[1.644701,47.083158],[1.648005,47.080703],[1.64749,47.078774],[1.647576,47.076202],[1.647812,47.075428],[1.649228,47.075486],[1.649357,47.075764],[1.651846,47.07591],[1.652833,47.076246],[1.654786,47.076319],[1.655472,47.073601],[1.654678,47.072812],[1.65558,47.072418],[1.655923,47.071906],[1.657854,47.070941],[1.660451,47.070123],[1.66294,47.068442],[1.665622,47.068223],[1.664935,47.06587],[1.665407,47.065329],[1.666545,47.064306],[1.667725,47.061061],[1.668433,47.058708],[1.666802,47.056559],[1.664871,47.055258],[1.665236,47.053913],[1.666566,47.053664],[1.669184,47.054454],[1.670965,47.053489],[1.671952,47.05229],[1.676565,47.046164],[1.676887,47.045038],[1.675707,47.043517],[1.67472,47.042859],[1.674162,47.042728],[1.673969,47.042274],[1.673454,47.041865],[1.673025,47.040768],[1.673454,47.040198],[1.673411,47.039672],[1.673583,47.038955],[1.673518,47.036454],[1.672531,47.036498],[1.671694,47.036761],[1.671501,47.036469],[1.669785,47.036454],[1.668562,47.036703],[1.667617,47.037039],[1.666394,47.03565],[1.664764,47.034246],[1.664184,47.033954],[1.663841,47.03372],[1.663777,47.033383],[1.660257,47.034626],[1.659721,47.034963],[1.659442,47.035226],[1.659013,47.035416],[1.656502,47.035124],[1.655966,47.034436],[1.655043,47.034071],[1.652962,47.033281],[1.652855,47.03252],[1.652254,47.031277],[1.652125,47.030019],[1.651524,47.029654],[1.650773,47.027986],[1.649271,47.02825],[1.648177,47.02746],[1.647683,47.027211],[1.646889,47.026392],[1.646911,47.025588],[1.645902,47.02509],[1.645216,47.023072],[1.645216,47.022633],[1.644636,47.022881],[1.644207,47.02335],[1.643006,47.023818],[1.642147,47.024242],[1.640388,47.025544],[1.63895,47.026743],[1.63719,47.027314],[1.635603,47.02844],[1.635002,47.029083],[1.634508,47.028323],[1.632813,47.026524],[1.632277,47.025748],[1.63159,47.025134],[1.629659,47.021463],[1.626934,47.01229],[1.629895,47.00812],[1.633843,47.007608],[1.633671,47.006467],[1.633907,47.005472],[1.634551,47.004989],[1.631097,47.002647],[1.629659,47.001901],[1.628972,47.001418],[1.627577,46.999589],[1.625754,46.996413],[1.624445,46.99533],[1.623586,46.995272],[1.622363,46.994759],[1.621398,46.994569],[1.620561,46.994276],[1.619466,46.994628],[1.615947,46.992125],[1.615432,46.991378],[1.613823,46.990193],[1.612707,46.989359],[1.611935,46.988144],[1.611184,46.987456],[1.61069,46.985904],[1.611098,46.984001],[1.611119,46.982815],[1.611677,46.981381],[1.612128,46.981439],[1.612707,46.98163],[1.613759,46.981088],[1.614381,46.980283],[1.614531,46.979404],[1.613866,46.979448],[1.613802,46.979112],[1.614402,46.977384],[1.614617,46.97737],[1.61496,46.97693],[1.615153,46.976315],[1.61599,46.975144],[1.618265,46.976067],[1.625818,46.974617],[1.625775,46.974412],[1.627105,46.974149],[1.627084,46.973973],[1.625131,46.971455],[1.635088,46.96961],[1.64101,46.967237],[1.650709,46.965802],[1.645709,46.958436],[1.644722,46.957748],[1.642662,46.954936],[1.640173,46.952285],[1.638092,46.946557],[1.636289,46.943423],[1.63174,46.938822],[1.630195,46.937621],[1.626977,46.935072],[1.625818,46.933797],[1.622943,46.928947],[1.622084,46.928112],[1.618243,46.925005],[1.616205,46.923847],[1.61378,46.923056],[1.609982,46.920813],[1.606871,46.918952],[1.603931,46.920286],[1.601249,46.917443],[1.600691,46.917692],[1.59758,46.917545],[1.593803,46.916944],[1.593481,46.916695],[1.593717,46.913353],[1.59052,46.911873],[1.582645,46.909176],[1.574062,46.9062],[1.57153,46.90595],[1.571358,46.909439],[1.573139,46.91007],[1.573225,46.910876],[1.573096,46.911404],[1.573311,46.913969],[1.573182,46.917662],[1.578718,46.922616],[1.576165,46.92329],[1.575113,46.922352],[1.565136,46.925488],[1.547948,46.930984],[1.538163,46.933973],[1.533335,46.937225],[1.536382,46.938603],[1.538013,46.939833],[1.538271,46.939921],[1.539193,46.940668],[1.539365,46.941093],[1.541189,46.9425],[1.54312,46.944433],[1.543184,46.944726],[1.543656,46.945473],[1.544665,46.947568],[1.544858,46.947759],[1.544536,46.947832],[1.543313,46.947861],[1.542348,46.94811],[1.541811,46.94814],[1.541532,46.949121],[1.541039,46.949956],[1.541253,46.950556],[1.540846,46.951084],[1.540266,46.950893],[1.539944,46.9506],[1.539258,46.950161],[1.5387,46.950044],[1.537734,46.949399],[1.537026,46.948799],[1.535631,46.94792],[1.524645,46.956195],[1.52692,46.958495],[1.525439,46.959066],[1.526533,46.960897],[1.524109,46.96242],[1.522735,46.963093],[1.519474,46.964397],[1.517671,46.966007],[1.516169,46.966608],[1.513272,46.967647],[1.511749,46.96838],[1.511878,46.969668],[1.512071,46.970049],[1.511921,46.971484],[1.512049,46.971703],[1.511685,46.972348],[1.511449,46.973168],[1.509796,46.973724],[1.508852,46.973783],[1.504711,46.975701],[1.504282,46.976154],[1.504003,46.977677],[1.50381,46.978145],[1.503423,46.97838],[1.503016,46.977999],[1.501878,46.976476],[1.501342,46.975452],[1.500269,46.974632],[1.49954,46.974749],[1.498231,46.974588],[1.496857,46.974559],[1.495291,46.974661],[1.493939,46.974617],[1.491815,46.975027],[1.490527,46.97513],[1.48851,46.975012],[1.483575,46.97491],[1.483339,46.974559],[1.483275,46.974192],[1.482888,46.973607],[1.482245,46.973226],[1.482073,46.972919],[1.480828,46.972362],[1.480614,46.973007],[1.47894,46.975012],[1.477717,46.977194],[1.476365,46.978775],[1.476194,46.979932],[1.475443,46.981264],[1.468404,46.980693],[1.4651,46.981454],[1.464285,46.981732],[1.46128,46.983869],[1.460637,46.984601],[1.460444,46.985084],[1.460143,46.985245],[1.459671,46.985494],[1.45847,46.986373],[1.457654,46.986548],[1.457504,46.987646],[1.457332,46.988012],[1.457053,46.988949],[1.455916,46.98949],[1.455315,46.9899],[1.455101,46.989827],[1.454221,46.989856],[1.453599,46.990339],[1.452397,46.991686],[1.451195,46.992666],[1.45008,46.994935],[1.442183,46.99274],[1.443063,46.990559],[1.443278,46.988978],[1.443514,46.988422],[1.443406,46.987485],[1.442805,46.986621],[1.442655,46.985509],[1.442119,46.985026],[1.440402,46.984938],[1.439351,46.985026],[1.437184,46.984982],[1.433815,46.984338],[1.430124,46.983533],[1.427206,46.984177],[1.426347,46.984455],[1.425189,46.984382],[1.424545,46.984411],[1.424545,46.984411],[1.42373,46.98408],[1.42315,46.98408],[1.422034,46.984519],[1.42006,46.985003],[1.418172,46.98449],[1.416906,46.984315],[1.416348,46.983217],[1.415232,46.983202],[1.413323,46.983012],[1.412228,46.9831],[1.411306,46.982587],[1.409761,46.982104],[1.410147,46.98124],[1.410104,46.980889],[1.409868,46.980699],[1.410061,46.980406],[1.410919,46.98004],[1.411627,46.978444],[1.41137,46.977712],[1.410125,46.977551],[1.409696,46.97758],[1.407808,46.973642],[1.405169,46.974037],[1.404847,46.973466],[1.404461,46.973071],[1.404031,46.972236],[1.403903,46.970772],[1.402186,46.969572],[1.403688,46.968913],[1.405083,46.966907],[1.403538,46.966921],[1.402787,46.966702],[1.401113,46.965545],[1.400255,46.965354],[1.39871,46.965808],[1.398474,46.966365],[1.39768,46.966526],[1.397444,46.966262],[1.397358,46.965823],[1.396178,46.964915],[1.395384,46.963714],[1.394247,46.962411],[1.393281,46.960698],[1.390771,46.958969],[1.390062,46.959218],[1.389311,46.959848],[1.38753,46.959541],[1.386844,46.960976],[1.387037,46.962821],[1.387638,46.96329],[1.387123,46.963539],[1.386543,46.964315],[1.385599,46.964915],[1.385063,46.965852],[1.385277,46.966087],[1.385342,46.966921],[1.385063,46.96758],[1.385428,46.968093],[1.385127,46.968151],[1.38472,46.968547],[1.382917,46.969293],[1.37957,46.970977],[1.37781,46.972017],[1.375965,46.972559],[1.37442,46.973437],[1.373583,46.972017],[1.372467,46.971153],[1.371823,46.970318],[1.369914,46.968473],[1.369892,46.967932],[1.369356,46.967976],[1.36751,46.965764],[1.366523,46.965486],[1.365751,46.965706],[1.364893,46.966336],[1.363863,46.967243],[1.363155,46.967639],[1.362253,46.967595],[1.361159,46.967141],[1.360258,46.967024],[1.359421,46.966453],[1.356803,46.966379],[1.35558,46.966174],[1.354571,46.966043],[1.353241,46.965618],[1.352297,46.965091],[1.351761,46.963831],[1.352125,46.962484],[1.352018,46.961855],[1.351718,46.960873],[1.352168,46.959555],[1.353091,46.958618],[1.353434,46.957871],[1.351696,46.956802],[1.350366,46.956714],[1.350108,46.955967],[1.347834,46.954898],[1.347405,46.95418],[1.346267,46.953257],[1.34586,46.952774],[1.346182,46.952525],[1.34586,46.951998],[1.344958,46.951661],[1.344401,46.950313],[1.343671,46.949127],[1.342384,46.947896],[1.341547,46.947354],[1.341053,46.947267],[1.34086,46.947061],[1.339766,46.947354],[1.337663,46.948746],[1.336568,46.950196],[1.335388,46.951046],[1.335174,46.952042],[1.334487,46.952496],[1.332599,46.95314],[1.331762,46.953741],[1.331075,46.954781],[1.330324,46.95648],[1.325775,46.960449],[1.325003,46.960917],[1.324187,46.962001],[1.323436,46.961357],[1.322127,46.960698],[1.321806,46.960331],[1.321162,46.95872],[1.320647,46.95812],[1.316098,46.955059],[1.315175,46.954385],[1.314489,46.95317],[1.313459,46.951763],[1.312429,46.950709],[1.311163,46.949713],[1.31024,46.948819],[1.309811,46.947721],[1.309553,46.94816],[1.307279,46.949361],[1.303974,46.950958],[1.302601,46.951427],[1.302429,46.951324],[1.301228,46.951485],[1.299919,46.951529],[1.298095,46.952159],[1.296528,46.952027],[1.294597,46.952672],[1.294147,46.952994],[1.293782,46.953609],[1.292409,46.953477],[1.292494,46.951485],[1.292044,46.95068],[1.291851,46.949845],[1.291121,46.948878],[1.290778,46.948966],[1.290241,46.948761],[1.290134,46.948468],[1.289962,46.946827],[1.290177,46.946432],[1.289576,46.946681],[1.287902,46.946842],[1.285907,46.946856],[1.284341,46.947237],[1.281272,46.9486],[1.280328,46.948761],[1.278289,46.949859],[1.27623,46.95065],[1.275242,46.951178],[1.274041,46.952232],[1.273268,46.953052],[1.272796,46.953433],[1.272389,46.953668],[1.272067,46.954048],[1.271552,46.954297],[1.270887,46.954502],[1.269964,46.955542],[1.268977,46.95607],[1.26814,46.956685],[1.266853,46.957446],[1.264793,46.958384],[1.261595,46.959057],[1.257926,46.959174],[1.255802,46.959482],[1.254901,46.95938],[1.254793,46.959013],[1.25415,46.957944],[1.253763,46.957578],[1.250738,46.955703],[1.249558,46.955821],[1.247047,46.955821],[1.24164,46.957139],[1.240567,46.957227],[1.240867,46.958325],[1.241296,46.959218],[1.240631,46.959306],[1.239966,46.95976],[1.240009,46.960273],[1.240824,46.960859],[1.241962,46.961708],[1.239773,46.962265],[1.238507,46.962103],[1.234623,46.962396],[1.232692,46.962133],[1.23119,46.962221],[1.229066,46.962719],[1.227349,46.963597],[1.22604,46.963875],[1.224667,46.963055],[1.224195,46.962616],[1.223014,46.963495],[1.222263,46.963744],[1.224281,46.965062],[1.22574,46.965633],[1.226941,46.966218],[1.228894,46.966614],[1.230224,46.967053],[1.230525,46.967361],[1.230353,46.967697],[1.228937,46.968386],[1.226748,46.970128],[1.224538,46.970948],[1.225203,46.973422],[1.224238,46.974184],[1.222693,46.97455],[1.221942,46.975135],[1.221191,46.975355],[1.220096,46.975209],[1.218723,46.973964],[1.215912,46.974813],[1.211942,46.97578],[1.209325,46.977258],[1.208316,46.978283],[1.20705,46.978869],[1.204282,46.980464],[1.198939,46.981504],[1.197137,46.981782],[1.195935,46.982133],[1.195527,46.982382],[1.201728,46.984519],[1.202201,46.985237],[1.199626,46.986671],[1.199325,46.986627],[1.198488,46.985954],[1.197737,46.985559],[1.197351,46.985647],[1.197008,46.986071],[1.196278,46.987301],[1.194905,46.986964],[1.19351,46.987476],[1.192008,46.987506],[1.19145,46.987432],[1.190227,46.989233],[1.191193,46.989569],[1.194025,46.991004],[1.19542,46.991399],[1.196664,46.991516],[1.198875,46.992365],[1.19733,46.993272],[1.196622,46.99396],[1.196557,46.994546],[1.195956,46.99497],[1.19763,46.995863],[1.199475,46.997458],[1.201171,46.998146],[1.20145,46.998497],[1.202222,46.998995],[1.203037,46.999946],[1.204497,47.001],[1.207265,47.002565],[1.208337,47.003751],[1.211041,47.004643],[1.212758,47.005785],[1.214303,47.006941],[1.214882,47.006151],[1.216985,47.006604],[1.219002,47.00678],[1.221706,47.007277],[1.222993,47.007497],[1.224345,47.007965],[1.22516,47.008345],[1.227134,47.009194],[1.229774,47.00994],[1.232349,47.010452],[1.233593,47.010935],[1.234752,47.010906],[1.236812,47.009955],[1.237842,47.011038],[1.240266,47.012047],[1.242541,47.012501],[1.244966,47.012808],[1.246511,47.013437],[1.248978,47.01411],[1.250974,47.014607],[1.251575,47.014827],[1.253055,47.014856],[1.253635,47.014988],[1.253806,47.015236],[1.253935,47.01806],[1.253785,47.019055],[1.253978,47.020035],[1.253098,47.020635],[1.253077,47.021717],[1.257433,47.025096],[1.261295,47.0271],[1.262196,47.027363],[1.262904,47.027393],[1.264621,47.027992],[1.266016,47.028314],[1.267668,47.028943],[1.268762,47.030069],[1.271895,47.032073],[1.272796,47.032424],[1.274298,47.034047],[1.276659,47.035729],[1.277388,47.036124],[1.278826,47.036504],[1.280821,47.03725],[1.281229,47.037557],[1.283182,47.037221],[1.283611,47.037469],[1.282581,47.038244],[1.283868,47.038771],[1.285285,47.040321],[1.285993,47.040365],[1.286293,47.040774],[1.289169,47.042514],[1.292494,47.04386],[1.294318,47.045117],[1.295391,47.046287],[1.295348,47.047647],[1.299382,47.050074],[1.300756,47.050644],[1.302215,47.050907],[1.303481,47.050863],[1.30582,47.051784],[1.306399,47.051696],[1.306742,47.051916],[1.307,47.052267],[1.308373,47.052194],[1.310605,47.052457],[1.312901,47.051726],[1.315411,47.0506],[1.317149,47.050907],[1.317364,47.051229],[1.317407,47.051813],[1.317729,47.053144],[1.318201,47.053509],[1.319274,47.053933],[1.322106,47.056214],[1.322492,47.056272],[1.323737,47.060512],[1.331891,47.064268],[1.335152,47.063479],[1.335152,47.063479],[1.33689,47.063376],[1.338199,47.065467],[1.338929,47.066081],[1.339594,47.067279],[1.339937,47.068331],[1.340817,47.070158],[1.342684,47.071517],[1.34322,47.072394],[1.343757,47.072803],[1.345388,47.075639],[1.345216,47.077714],[1.346289,47.08106],[1.346482,47.082273],[1.346396,47.083734],[1.345216,47.084274],[1.345581,47.08442],[1.345323,47.085692],[1.344808,47.086437],[1.34513,47.087532],[1.346439,47.087912],[1.348971,47.088117],[1.349636,47.088044],[1.350194,47.088526],[1.350731,47.089271],[1.352361,47.090498],[1.350387,47.091857],[1.349615,47.091959],[1.347104,47.091842],[1.345988,47.092061],[1.346182,47.092485],[1.34807,47.093946],[1.349143,47.094998],[1.35116,47.097554],[1.352619,47.098854],[1.352018,47.100709],[1.351761,47.100914],[1.351482,47.101688],[1.350902,47.102389],[1.348885,47.103908],[1.348306,47.104215],[1.35101,47.105675],[1.353413,47.107457],[1.355601,47.108611],[1.357554,47.112276],[1.358949,47.111882],[1.361781,47.111692],[1.363262,47.11102],[1.369098,47.107749],[1.369313,47.10753],[1.370386,47.106829],[1.370965,47.106697],[1.371673,47.106887],[1.372059,47.106332],[1.373755,47.104536],[1.37663,47.107574],[1.377703,47.1081],[1.382188,47.110042],[1.382874,47.11067],[1.383089,47.111911],[1.383582,47.112904],[1.385277,47.11454],[1.38532,47.115401],[1.385749,47.116584],[1.387294,47.118541],[1.388904,47.120351],[1.391629,47.12295],[1.393067,47.125067],[1.398152,47.129462],[1.398882,47.12987],[1.396779,47.140088],[1.398109,47.144452],[1.398753,47.144963],[1.399525,47.145372],[1.401671,47.147867],[1.4021,47.149268],[1.402765,47.150538],[1.406585,47.153077],[1.411928,47.156462],[1.411477,47.156987],[1.411391,47.158972],[1.410898,47.15976],[1.411177,47.160372],[1.41152,47.160635],[1.411585,47.16224],[1.411627,47.163276],[1.411155,47.163801],[1.410619,47.164137],[1.410276,47.16456],[1.409718,47.165026],[1.409975,47.166121],[1.409825,47.166806],[1.409439,47.167302],[1.409546,47.16755],[1.409267,47.168002],[1.409567,47.168382],[1.410082,47.168703],[1.408602,47.170234],[1.408151,47.17092],[1.40798,47.171489],[1.407615,47.171635],[1.407765,47.17216],[1.408044,47.172525],[1.409868,47.172393],[1.411155,47.173444],[1.411456,47.174012],[1.411348,47.174377],[1.411778,47.175296],[1.414288,47.177703],[1.416584,47.179992],[1.417464,47.181816],[1.418279,47.183201],[1.418387,47.183741],[1.417957,47.185184],[1.417936,47.185724],[1.417614,47.186132],[1.416305,47.18657],[1.416198,47.18743],[1.416777,47.188393],[1.417206,47.189428],[1.419481,47.189165],[1.421519,47.188728],[1.422828,47.188947],[1.424481,47.189938],[1.424888,47.190332],[1.425339,47.189836],[1.42521,47.189399],[1.425639,47.188961],[1.42609,47.188203],[1.427141,47.18778],[1.427549,47.187299],[1.426562,47.184353],[1.429824,47.183814],[1.430317,47.183843],[1.432999,47.182122],[1.434072,47.180824],[1.442269,47.183639],[1.443127,47.183566],[1.44375,47.183697],[1.444029,47.184018],[1.445016,47.184164],[1.44832,47.18498],[1.448878,47.186249],[1.449393,47.186643],[1.449586,47.187197],[1.449307,47.188509],[1.45023,47.190303],[1.450895,47.190813],[1.45229,47.191615],[1.455337,47.192738],[1.456538,47.193219],[1.457719,47.194371],[1.458663,47.195115],[1.459714,47.196237],[1.460336,47.196616],[1.461087,47.197593],[1.462375,47.198351],[1.462825,47.198526],[1.463169,47.199285],[1.462825,47.200334],[1.462911,47.201122],[1.464692,47.202856],[1.464006,47.203177],[1.463855,47.20341],[1.462611,47.203527],[1.462418,47.203833],[1.461795,47.203964],[1.461259,47.204416],[1.461366,47.205131],[1.460787,47.205364],[1.460036,47.20618],[1.458748,47.206443],[1.457783,47.206311],[1.456946,47.206443],[1.455787,47.206428],[1.454672,47.207376],[1.453127,47.209431],[1.451195,47.210451],[1.449908,47.21051],[1.446453,47.211282],[1.445874,47.211122],[1.444994,47.211238],[1.4442,47.210961],[1.444093,47.211297],[1.444887,47.211719],[1.444029,47.212055],[1.443363,47.212623],[1.44332,47.213192],[1.442355,47.213964],[1.44287,47.21462],[1.442419,47.215509],[1.442376,47.216048],[1.44199,47.216442],[1.442333,47.217447],[1.442677,47.218016],[1.442441,47.219109],[1.442999,47.220129],[1.443256,47.221397],[1.444114,47.222344],[1.444694,47.223248],[1.445681,47.223583],[1.446754,47.224545],[1.448084,47.22555],[1.44862,47.226395],[1.449758,47.227853],[1.450788,47.227882],[1.451367,47.228741],[1.451603,47.229397],[1.452826,47.22947],[1.454822,47.228843],[1.455423,47.228858],[1.456388,47.229106],[1.457096,47.228858],[1.459371,47.228669],[1.45995,47.228465],[1.46274,47.22845],[1.462911,47.228537],[1.463576,47.228348],[1.466538,47.228013],[1.468383,47.227649],[1.469263,47.227241],[1.470593,47.227357],[1.473125,47.227372],[1.473061,47.228013],[1.474434,47.228508],[1.477696,47.229106],[1.479605,47.22931],[1.482996,47.22998],[1.483403,47.230024],[1.485335,47.230971],[1.486665,47.231233],[1.48718,47.231044],[1.492759,47.23183],[1.494239,47.232005],[1.498788,47.232253],[1.50072,47.232122],[1.508015,47.232297],[1.509174,47.231495],[1.510011,47.231189],[1.511449,47.230883],[1.512285,47.230854],[1.514131,47.230024],[1.515375,47.229179],[1.516191,47.229004],[1.516663,47.228567],[1.518401,47.229251],[1.522006,47.231087],[1.522585,47.232049],[1.524388,47.233083],[1.524945,47.233768],[1.525782,47.234482],[1.527027,47.2354],[1.528271,47.237032],[1.529001,47.237192],[1.530696,47.236944],[1.531297,47.237032],[1.532155,47.237396],[1.534902,47.238343],[1.536747,47.239173],[1.537884,47.239567],[1.539365,47.241067],[1.540073,47.241635],[1.540438,47.242495],[1.542412,47.242495],[1.542326,47.247054],[1.542455,47.248351],[1.542455,47.248351],[1.543034,47.250594],[1.544365,47.252487],[1.542734,47.252924],[1.54076,47.253623],[1.539816,47.253623],[1.538592,47.253507],[1.537713,47.253318],[1.536683,47.253492],[1.538099,47.253915],[1.539129,47.254628],[1.540095,47.255022],[1.541039,47.255094],[1.542305,47.255604],[1.544,47.256522],[1.545266,47.256594],[1.546489,47.256522],[1.546296,47.25607],[1.548248,47.255371],[1.549214,47.255153],[1.550029,47.254832],[1.551188,47.254468],[1.55121,47.253973],[1.553785,47.253259],[1.55357,47.252706],[1.554643,47.2524],[1.555973,47.252298],[1.556874,47.252094],[1.556767,47.251686],[1.557346,47.251337],[1.558248,47.250987],[1.558655,47.250652],[1.559535,47.251876],[1.560436,47.252415],[1.561702,47.252779],[1.563162,47.252953],[1.563784,47.253172],[1.563827,47.254818],[1.567196,47.254046],[1.567432,47.254395],[1.576637,47.251293],[1.578289,47.250623],[1.578804,47.250842],[1.580392,47.250812],[1.581679,47.252356],[1.582581,47.253361],[1.583868,47.254454],[1.58404,47.255473],[1.584684,47.255167],[1.587001,47.254526],[1.586829,47.253929],[1.588396,47.253419],[1.589233,47.252939],[1.589662,47.252196],[1.590928,47.25157],[1.591593,47.251468],[1.592494,47.25074],[1.593074,47.250623],[1.594554,47.249953],[1.598374,47.24921],[1.600991,47.249225],[1.604789,47.249021],[1.606613,47.249531],[1.608909,47.250055],[1.611463,47.250536],[1.612343,47.250798],[1.613051,47.251249],[1.611034,47.253186],[1.610798,47.253988],[1.611119,47.255255],[1.609467,47.2554],[1.610454,47.258561],[1.610368,47.259303],[1.610068,47.260541],[1.610283,47.261779],[1.609639,47.261881],[1.60951,47.263046],[1.608394,47.263104],[1.608223,47.263439],[1.607622,47.263483],[1.607493,47.264007],[1.6076,47.265012],[1.607321,47.267298],[1.611699,47.267239],[1.613222,47.267021],[1.616377,47.265914],[1.61672,47.266948],[1.61775,47.267167],[1.618651,47.26839],[1.618758,47.271753],[1.620539,47.271899],[1.623629,47.271345],[1.624166,47.271083],[1.629251,47.269962],[1.631526,47.26906],[1.633607,47.268521],[1.637748,47.267705],[1.639014,47.267239],[1.644765,47.261793],[1.646117,47.261357],[1.646975,47.261196],[1.648863,47.25974],[1.649786,47.261007],[1.651331,47.260658],[1.652146,47.260031],[1.65455,47.259609],[1.656138,47.259682],[1.656223,47.25958],[1.656674,47.25958],[1.657833,47.259318],[1.656824,47.258517],[1.656738,47.257628],[1.655215,47.256478],[1.655944,47.256172],[1.656073,47.255954],[1.656567,47.255808],[1.656653,47.255662],[1.658369,47.25559],[1.658713,47.253696],[1.659228,47.252779],[1.660322,47.252094],[1.661202,47.251308],[1.662553,47.251613],[1.662832,47.251934],[1.664485,47.251686],[1.667725,47.251948],[1.669849,47.252516],[1.671201,47.253128],[1.674784,47.251162],[1.676072,47.250623],[1.677359,47.249618],[1.678947,47.249997],[1.680041,47.250128],[1.68032,47.250871],[1.67987,47.252123],[1.679999,47.252531],[1.682445,47.253434],[1.683539,47.253638],[1.685599,47.254381],[1.687423,47.255444],[1.688045,47.256201],[1.68768,47.258939],[1.687316,47.259027],[1.686822,47.259638],[1.688861,47.260643],[1.690491,47.261196],[1.691393,47.261298],[1.693538,47.261983],[1.694268,47.262056],[1.695233,47.262376],[1.696285,47.262536],[1.69916,47.263352],[1.700276,47.263599],[1.703216,47.263788],[1.706692,47.26424],[1.711305,47.264444],[1.712507,47.264152],[1.714052,47.263949],[1.716627,47.263861],[1.717571,47.263687],[1.71991,47.263089],[1.720382,47.262318],[1.72109,47.262682],[1.724716,47.263643],[1.725145,47.262012],[1.726004,47.261051],[1.725982,47.260672],[1.726454,47.26057],[1.726948,47.260337],[1.727742,47.260381],[1.729287,47.259187],[1.729737,47.259041],[1.730703,47.259085],[1.731304,47.259012],[1.732312,47.259332],[1.732441,47.259711],[1.73405,47.261051],[1.734673,47.260294],[1.735274,47.259813],[1.736175,47.258735],[1.737312,47.25776],[1.738878,47.255837],[1.739007,47.255167],[1.738406,47.252706],[1.738878,47.249327],[1.738621,47.248045],[1.739286,47.24669],[1.739093,47.243748],[1.740037,47.241228],[1.740402,47.23913],[1.740016,47.238037],[1.739994,47.236974],[1.74081,47.236274],[1.742033,47.23473],[1.742483,47.233695],[1.742269,47.232894],[1.741389,47.231699],[1.74111,47.230752],[1.741325,47.230432],[1.743427,47.230927],[1.745058,47.231568],[1.745938,47.23202],[1.747118,47.232253],[1.750616,47.231437],[1.753169,47.232107],[1.753191,47.230213],[1.751817,47.228071],[1.750938,47.225812],[1.75053,47.225346],[1.750401,47.224982],[1.7498,47.224545],[1.748792,47.222869],[1.750637,47.222694],[1.750702,47.220829],[1.750444,47.220085],[1.751903,47.219677],[1.753534,47.220173],[1.754886,47.220187],[1.75701,47.219634],[1.75774,47.218905],[1.757225,47.218307],[1.755959,47.217535],[1.755294,47.216602],[1.754714,47.215188],[1.75465,47.214562],[1.754779,47.214051],[1.753942,47.213104],[1.753749,47.211967],[1.75392,47.209533],[1.752933,47.208206],[1.751817,47.20637],[1.752697,47.204679],[1.756195,47.204547],[1.756474,47.204183],[1.758405,47.203323],[1.759843,47.202784],[1.760207,47.202244],[1.761151,47.201457],[1.761602,47.200742],[1.762353,47.200116],[1.762825,47.199941],[1.763126,47.19943],[1.762847,47.197885],[1.762804,47.197156],[1.762246,47.196427],[1.76216,47.195625],[1.763598,47.196135],[1.764263,47.195129],[1.765207,47.194415],[1.766194,47.194167],[1.767052,47.194021],[1.767589,47.193175],[1.767782,47.192301],[1.769198,47.189443],[1.769863,47.188553],[1.770121,47.187868],[1.771301,47.18743],[1.767632,47.186511],[1.768511,47.186089],[1.76819,47.185316],[1.76819,47.184426],[1.768597,47.18253],[1.769091,47.180518],[1.768898,47.179817],[1.769262,47.178855],[1.767353,47.178607],[1.765014,47.178184],[1.764134,47.178169],[1.763061,47.179409],[1.760229,47.180051],[1.757396,47.180518],[1.754392,47.181363],[1.752225,47.182676],[1.750594,47.181247],[1.74626,47.181509],[1.74611,47.179599],[1.742183,47.177528],[1.741239,47.177732],[1.738492,47.17744],[1.734372,47.175807],[1.730703,47.174917],[1.726454,47.174888],[1.725081,47.174246],[1.724352,47.174961],[1.7233,47.174377],[1.722635,47.175004],[1.72197,47.176652],[1.721347,47.178184],[1.721605,47.178607],[1.721069,47.179701],[1.720661,47.180736],[1.71873,47.181932],[1.717592,47.182953],[1.717292,47.183624],[1.715661,47.185024],[1.712807,47.18603],[1.712292,47.185082],[1.711928,47.182238],[1.711627,47.181276],[1.710297,47.181568],[1.709717,47.18113],[1.708172,47.179307],[1.707121,47.178403],[1.706263,47.178228],[1.704503,47.176667],[1.702958,47.17569],[1.701842,47.175194],[1.699911,47.173925],[1.698087,47.171795],[1.69474,47.169855],[1.697186,47.166646],[1.693088,47.165843],[1.692122,47.165172],[1.69077,47.164735],[1.688088,47.164122],[1.680771,47.163465],[1.676758,47.163568],[1.674505,47.162663],[1.673969,47.1617],[1.676329,47.157921],[1.676844,47.156024],[1.678175,47.155616],[1.67869,47.154901],[1.679226,47.154507],[1.679741,47.1535],[1.680685,47.152989],[1.681136,47.152391],[1.680621,47.151837],[1.68002,47.14902],[1.680127,47.148159],[1.679526,47.147867],[1.679526,47.147298],[1.680728,47.146379],[1.681479,47.145532],[1.680556,47.144832],[1.680235,47.144846],[1.679891,47.145197],[1.679398,47.145021],[1.678604,47.144511],[1.677874,47.144832],[1.676479,47.14508],[1.675964,47.145707],[1.675106,47.146014],[1.674098,47.146816],[1.673733,47.148714],[1.672488,47.148495],[1.669077,47.150188],[1.667918,47.151165],[1.666866,47.151092],[1.666309,47.15137],[1.665321,47.151472],[1.663476,47.152493],[1.663412,47.152814],[1.663541,47.153412],[1.661996,47.154988],[1.66103,47.155484],[1.657618,47.15601],[1.655966,47.156156],[1.653155,47.157688],[1.6494,47.15709],[1.645859,47.157717],[1.644765,47.158111],[1.644658,47.157571],[1.643327,47.156652],[1.643027,47.15617],[1.642963,47.155762],[1.642576,47.155339],[1.642297,47.154317],[1.641697,47.153485],[1.638113,47.15404],[1.636697,47.154011],[1.635088,47.154507],[1.635023,47.154303],[1.633435,47.154609],[1.63335,47.154842],[1.631397,47.155207],[1.630324,47.153573],[1.629745,47.15404],[1.627277,47.152931],[1.625303,47.152216],[1.623307,47.151749],[1.621269,47.150684],[1.619595,47.149866],[1.61878,47.149035],[1.617814,47.145591],[1.606806,47.14886],[1.605905,47.14813],[1.604682,47.145445],[1.604983,47.143153],[1.604811,47.142482],[1.60406,47.142248],[1.601893,47.142132],[1.597344,47.143445],[1.595176,47.144306],[1.596121,47.145197],[1.597065,47.147298],[1.59818,47.148947],[1.598052,47.149516],[1.597708,47.149721],[1.596893,47.149954],[1.595863,47.150669],[1.595455,47.150786],[1.600927,47.15617],[1.601528,47.157338],[1.597193,47.158082],[1.594876,47.158811],[1.593846,47.15887],[1.590499,47.159833],[1.587452,47.158432],[1.584898,47.157119],[1.583053,47.157702],[1.581486,47.158374],[1.580821,47.158228],[1.580027,47.158271],[1.579791,47.158884],[1.578761,47.160066],[1.578182,47.160241],[1.573547,47.156929],[1.572646,47.156739],[1.571466,47.156885],[1.571466,47.156885],[1.568816,47.159341],[1.56888,47.159749],[1.569974,47.161026],[1.569931,47.161281],[1.569481,47.16188],[1.568998,47.161974],[1.567657,47.161909]]],"type":"MultiLineString"},"properties":{"geo_point":{"lon":1.5159887734682076,"lat":47.090029483390865},"name":"Tour du Pays de Valençay (Indre, Loir-et-Cher) (2020)","code_gr":null}}]}