{"type":"FeatureCollection","features":[{"type":"Feature","geometry":{"coordinates":[[[5.69005,45.869565],[5.68887,45.869221],[5.688355,45.868833],[5.688334,45.86834],[5.68857,45.867369],[5.688226,45.866622],[5.687325,45.866891],[5.686896,45.866651],[5.685759,45.866412],[5.685222,45.866218],[5.684342,45.866158],[5.68357,45.866158],[5.683377,45.865904],[5.683098,45.865904],[5.682733,45.866114],[5.681317,45.866173],[5.681167,45.866607],[5.680523,45.866666],[5.679922,45.866472],[5.679386,45.866965],[5.679278,45.867443],[5.678635,45.868101],[5.678034,45.868295],[5.677948,45.868952],[5.677669,45.869371],[5.678206,45.870357],[5.678399,45.87094],[5.677841,45.871238],[5.678034,45.871522],[5.678206,45.872075],[5.678635,45.872478],[5.677819,45.872493],[5.674772,45.872239],[5.671811,45.872419],[5.670438,45.872299],[5.669301,45.872538],[5.669429,45.873121],[5.669022,45.874286],[5.669601,45.875362],[5.669901,45.876452],[5.670331,45.877214],[5.669515,45.877528],[5.66812,45.877364],[5.667048,45.876871],[5.665696,45.876079],[5.664451,45.876019],[5.663807,45.875377],[5.663292,45.875168],[5.662885,45.87466],[5.662541,45.873778],[5.661426,45.873091],[5.660245,45.87203],[5.659559,45.871926],[5.657413,45.86967],[5.656018,45.869057],[5.655696,45.869281],[5.655997,45.869565],[5.65589,45.870118],[5.656705,45.870641],[5.657284,45.871448],[5.658164,45.87212],[5.65825,45.872493],[5.660203,45.873748],[5.661061,45.87454],[5.662069,45.87584],[5.662262,45.876841],[5.662112,45.877797],[5.66164,45.87817],[5.661984,45.878813],[5.661898,45.879276],[5.66164,45.879843],[5.661275,45.879769],[5.660825,45.879276],[5.659645,45.879246],[5.658979,45.878902],[5.657005,45.878589],[5.655203,45.878574],[5.653422,45.879067],[5.652113,45.879679],[5.652456,45.880725],[5.65222,45.881233],[5.652542,45.881606],[5.653164,45.881546],[5.653486,45.881322],[5.654151,45.881696],[5.654216,45.882054],[5.654902,45.882607],[5.655096,45.88313],[5.654945,45.883951],[5.655053,45.88422],[5.655053,45.884937],[5.655224,45.886416],[5.65546,45.886909],[5.655589,45.887446],[5.656447,45.889015],[5.655804,45.889195],[5.655396,45.889524],[5.655954,45.890495],[5.655353,45.891944],[5.654838,45.892272],[5.654173,45.892392],[5.654087,45.8916],[5.654173,45.891286],[5.654151,45.890719],[5.652971,45.890345],[5.650954,45.890196],[5.650439,45.88936],[5.65059,45.888643],[5.650075,45.887881],[5.649924,45.887328],[5.649087,45.886328],[5.648615,45.886223],[5.6481,45.88591],[5.647049,45.885895],[5.644388,45.885133],[5.641384,45.88461],[5.64055,45.88499],[5.640035,45.885393],[5.638897,45.886707],[5.638575,45.886991],[5.638232,45.887589],[5.638103,45.888156],[5.637352,45.888783],[5.637417,45.888186],[5.637352,45.887768],[5.63673,45.88844],[5.636537,45.889202],[5.636601,45.890859],[5.636365,45.891293],[5.636537,45.892069],[5.63643,45.892547],[5.6354,45.893369],[5.635357,45.894429],[5.635443,45.895041],[5.635207,45.895833],[5.635314,45.896355],[5.634992,45.89746],[5.63452,45.898341],[5.634284,45.899611],[5.633104,45.902552],[5.631559,45.904449],[5.630722,45.905076],[5.630357,45.905718],[5.630271,45.906196],[5.629842,45.906868],[5.629435,45.908182],[5.628812,45.909033],[5.628769,45.90957],[5.629606,45.9096],[5.631087,45.909047],[5.632095,45.907883],[5.632439,45.907793],[5.632718,45.907316],[5.633705,45.909898],[5.633962,45.909928],[5.634198,45.910764],[5.634112,45.911212],[5.634069,45.911705],[5.633812,45.912228],[5.633426,45.912675],[5.633275,45.913168],[5.633039,45.913631],[5.633018,45.91481],[5.63319,45.915676],[5.633104,45.916557],[5.633383,45.918438],[5.63334,45.919229],[5.633554,45.920005],[5.633447,45.920871],[5.63349,45.922826],[5.633962,45.924229],[5.634692,45.925543],[5.635593,45.926841],[5.63628,45.927513],[5.637331,45.92811],[5.637503,45.929229],[5.637996,45.930155],[5.638323,45.931095],[5.638344,45.931976],[5.639396,45.933647],[5.640168,45.933796],[5.64064,45.933662],[5.641563,45.934274],[5.643022,45.934736],[5.643988,45.936378],[5.643859,45.938363],[5.644181,45.938676],[5.644739,45.939855],[5.645554,45.940765],[5.646584,45.942556],[5.647121,45.942899],[5.647185,45.943511],[5.648022,45.943943],[5.64858,45.944645],[5.649181,45.946047],[5.650082,45.947002],[5.650768,45.948345],[5.651884,45.949583],[5.651734,45.950657],[5.651348,45.951299],[5.651841,45.953566],[5.651927,45.955327],[5.65227,45.956043],[5.652034,45.957878],[5.652549,45.959161],[5.653322,45.95922],[5.65373,45.959683],[5.654953,45.960876],[5.656648,45.96104],[5.657292,45.961174],[5.655865,45.961577],[5.655124,45.962039],[5.655789,45.96368],[5.655768,45.964172],[5.656026,45.966275],[5.656347,45.966395],[5.65609,45.966902],[5.656476,45.967871],[5.656819,45.968095],[5.657356,45.969557],[5.657935,45.96981],[5.657849,45.970243],[5.657914,45.97069],[5.658085,45.970899],[5.658107,45.971704],[5.6583,45.973732],[5.658772,45.974687],[5.658987,45.975328],[5.659502,45.975865],[5.659523,45.976402],[5.658965,45.976938],[5.657978,45.977043],[5.657742,45.977341],[5.658515,45.977654],[5.658772,45.984826],[5.659223,45.984931],[5.659759,45.984722],[5.660296,45.984707],[5.661819,45.984185],[5.662634,45.984126],[5.66375,45.993369],[5.663579,45.994144],[5.663943,45.994845],[5.664201,45.995978],[5.664179,45.996678],[5.663815,45.996634],[5.663214,45.996365],[5.662956,45.996067],[5.661712,45.995709],[5.661583,45.995978],[5.661712,45.996574],[5.66139,45.996455],[5.661304,45.996172],[5.660832,45.996067],[5.660424,45.995724],[5.659523,45.996022],[5.658343,45.995918],[5.657742,45.996097],[5.656991,45.996738],[5.656433,45.996783],[5.656133,45.99644],[5.65639,45.996172],[5.656197,45.995262],[5.655575,45.995635],[5.654459,45.99562],[5.654545,45.997781],[5.654438,45.998706],[5.65491,45.99957],[5.653429,45.99963],[5.6527,45.999406],[5.651949,45.999034],[5.650489,45.998825],[5.649459,45.99887],[5.649588,45.999451],[5.650339,45.999898],[5.650575,46.001419],[5.651047,46.001493],[5.651176,46.002372],[5.651562,46.002611],[5.650919,46.002775],[5.65021,46.002998],[5.648923,46.002939],[5.648129,46.003058],[5.649266,46.003624],[5.650532,46.004355],[5.65021,46.004832],[5.648966,46.005771],[5.64858,46.00586],[5.648859,46.007067],[5.648472,46.0075],[5.649374,46.00817],[5.648601,46.00826],[5.648215,46.008573],[5.648408,46.009318],[5.647807,46.009974],[5.646091,46.010555],[5.646756,46.011345],[5.64697,46.012239],[5.64858,46.012894],[5.649524,46.014146],[5.650489,46.014549],[5.650962,46.014862],[5.650532,46.01516],[5.650511,46.015562],[5.65006,46.016009],[5.649331,46.016083],[5.648966,46.016456],[5.648344,46.017946],[5.647721,46.018378],[5.6474,46.019004],[5.646713,46.019987],[5.645383,46.021284],[5.644846,46.021433],[5.644138,46.022163],[5.644546,46.022997],[5.644481,46.023742],[5.644353,46.024443],[5.644889,46.024696],[5.644996,46.025068],[5.645211,46.025411],[5.645061,46.025828],[5.644567,46.026424],[5.644953,46.026752],[5.645146,46.027437],[5.644589,46.028197],[5.643966,46.028912],[5.643988,46.029493],[5.643795,46.030357],[5.64431,46.030417],[5.645039,46.031743],[5.645876,46.032487],[5.646069,46.03359],[5.645297,46.034945],[5.645661,46.035273],[5.650339,46.035526],[5.651069,46.036673],[5.650554,46.037195],[5.650404,46.03785],[5.651434,46.038774],[5.652549,46.038937],[5.653064,46.03928],[5.652828,46.039608],[5.652614,46.040174],[5.651455,46.040353],[5.651262,46.040829],[5.650919,46.041291],[5.651133,46.042989],[5.651927,46.04427],[5.652356,46.044761],[5.652571,46.045536],[5.652056,46.04631],[5.652979,46.047129],[5.65315,46.048678],[5.652592,46.049631],[5.652421,46.050197],[5.652828,46.051091],[5.65476,46.052893],[5.653815,46.052997],[5.652464,46.053623],[5.648816,46.053682],[5.648022,46.053965],[5.646477,46.053995],[5.646155,46.054129],[5.645189,46.053995],[5.644674,46.054561],[5.64446,46.055142],[5.644653,46.055544],[5.644331,46.05669],[5.644524,46.057182],[5.64358,46.057211],[5.642829,46.056958],[5.64167,46.057122],[5.641713,46.057301],[5.641155,46.057554],[5.639889,46.05742],[5.638988,46.057539],[5.639267,46.058358],[5.641928,46.059356],[5.644674,46.06013],[5.645962,46.060011],[5.646541,46.060413],[5.647249,46.060755],[5.646284,46.061381],[5.644202,46.061991],[5.646176,46.062453],[5.647163,46.062512],[5.647893,46.062333],[5.648644,46.062631],[5.650146,46.063897],[5.650768,46.064105],[5.651305,46.064254],[5.652635,46.064924],[5.652979,46.06546],[5.653815,46.065594],[5.655124,46.066204],[5.656691,46.066636],[5.658107,46.06674],[5.658643,46.067098],[5.658944,46.067544],[5.66036,46.067991],[5.661647,46.067917],[5.661862,46.068929],[5.661733,46.069763],[5.661776,46.070477],[5.661411,46.072502],[5.66154,46.072829],[5.662999,46.071936],[5.664222,46.069852],[5.664566,46.069361],[5.665724,46.06872],[5.666175,46.067708],[5.666239,46.066279],[5.666524,46.065162],[5.666867,46.064239],[5.667039,46.063257],[5.66794,46.064492],[5.669184,46.06744],[5.670236,46.068586],[5.670794,46.068408],[5.671352,46.068661],[5.671545,46.069331],[5.672081,46.070135],[5.673283,46.07015],[5.673648,46.069837],[5.673261,46.069197],[5.67266,46.06741],[5.672854,46.066994],[5.673648,46.066562],[5.67412,46.066443],[5.673841,46.065624],[5.67412,46.065326],[5.675493,46.065356],[5.67751,46.064984],[5.679248,46.065311],[5.681544,46.065639],[5.682231,46.065847],[5.68266,46.065564],[5.682533,46.065248],[5.681718,46.065144],[5.680924,46.064876],[5.680859,46.064653],[5.681954,46.064519],[5.68367,46.064117],[5.684507,46.064117],[5.686052,46.063596],[5.68676,46.063506],[5.688155,46.063298],[5.689614,46.063119],[5.690215,46.063164],[5.691545,46.06294],[5.692446,46.062196],[5.692618,46.061794],[5.693305,46.06163],[5.694056,46.061615],[5.694764,46.061839],[5.695365,46.06172],[5.695601,46.060841],[5.69648,46.059814],[5.694935,46.057848],[5.694957,46.057268],[5.694764,46.055436],[5.694378,46.05484],[5.694313,46.05417],[5.694077,46.05347],[5.694099,46.052785],[5.693112,46.052502],[5.691931,46.052532],[5.691395,46.052294],[5.690987,46.052264],[5.690236,46.051966],[5.690065,46.051668],[5.690515,46.051683],[5.690966,46.051564],[5.691266,46.051311],[5.692039,46.051073],[5.692425,46.050745],[5.693026,46.050864],[5.693734,46.050805],[5.694635,46.049271],[5.696159,46.047707],[5.69601,46.047505],[5.696224,46.047267],[5.696031,46.046969],[5.695838,46.045942],[5.696203,46.045644],[5.696117,46.045316],[5.695902,46.044959],[5.696031,46.044378],[5.696031,46.043886],[5.696525,46.043365],[5.697061,46.043067],[5.697104,46.042799],[5.696804,46.042293],[5.696675,46.04131],[5.697405,46.040267],[5.698349,46.039999],[5.698821,46.039388],[5.699743,46.038912],[5.700816,46.038763],[5.702833,46.039373],[5.703499,46.039701],[5.704464,46.039731],[5.705794,46.039492],[5.706975,46.040163],[5.707704,46.040058],[5.708219,46.039775],[5.708756,46.039537],[5.708648,46.039299],[5.707962,46.038852],[5.708026,46.038405],[5.709077,46.03845],[5.709528,46.038122],[5.709635,46.037765],[5.709914,46.037377],[5.71088,46.037452],[5.711095,46.037556],[5.712232,46.037452],[5.713047,46.037243],[5.71324,46.036916],[5.713884,46.037064],[5.714356,46.037347],[5.715729,46.037199],[5.716738,46.036364],[5.717661,46.036081],[5.718712,46.035485],[5.719914,46.034547],[5.719721,46.0341],[5.719678,46.033072],[5.720107,46.03264],[5.720193,46.032029],[5.718176,46.031031],[5.718176,46.030704],[5.717897,46.030376],[5.717532,46.029691],[5.717725,46.029527],[5.718025,46.029497],[5.718455,46.028871],[5.718476,46.028499],[5.718789,46.028032],[5.718295,46.027749],[5.717802,46.027198],[5.71778,46.02693],[5.716965,46.026214],[5.718016,46.025991],[5.718102,46.025544],[5.71851,46.025216],[5.71733,46.023101],[5.717394,46.022654],[5.717931,46.022519],[5.717931,46.022132],[5.71821,46.022013],[5.71866,46.021909],[5.719497,46.020776],[5.71984,46.020478],[5.720162,46.019703],[5.720827,46.019018],[5.720055,46.018586],[5.720291,46.017476],[5.720548,46.017207],[5.72057,46.016895],[5.720784,46.016626],[5.72087,46.016209],[5.721407,46.015747],[5.721514,46.015047],[5.721857,46.014674],[5.722608,46.011247],[5.723145,46.008683],[5.723746,46.007655],[5.725784,46.006865],[5.72628,46.005762],[5.727009,46.005151],[5.727138,46.004719],[5.727031,46.004316],[5.727868,46.00381],[5.727546,46.003422],[5.727674,46.003094],[5.728125,46.002796],[5.728511,46.002245],[5.728361,46.001693],[5.728898,46.001216],[5.729842,46.000903],[5.72952,46.000605],[5.72937,46.000073],[5.729048,45.999879],[5.728511,46.000102],[5.728962,45.999327],[5.729906,45.999596],[5.730678,45.999253],[5.731129,45.998835],[5.731451,45.998254],[5.731945,45.997866],[5.731902,45.99733],[5.732524,45.997047],[5.732631,45.996704],[5.733232,45.996391],[5.733468,45.996003],[5.733455,45.994408],[5.732982,45.994006],[5.732661,45.992753],[5.732725,45.989951],[5.732489,45.989682],[5.732489,45.989354],[5.731759,45.988415],[5.731845,45.987715],[5.731566,45.986984],[5.731266,45.985612],[5.73148,45.984315],[5.731695,45.98348],[5.731287,45.982168],[5.730923,45.982108],[5.730751,45.981855],[5.729978,45.981557],[5.729764,45.981184],[5.729099,45.980602],[5.728305,45.979499],[5.728069,45.978604],[5.728369,45.978053],[5.727811,45.975532],[5.728069,45.974235],[5.727382,45.973653],[5.726438,45.973355],[5.726459,45.972624],[5.726095,45.971223],[5.726266,45.970611],[5.728669,45.970522],[5.72912,45.970566],[5.729378,45.970253],[5.729506,45.969508],[5.730343,45.968994],[5.730794,45.968099],[5.730751,45.967652],[5.731201,45.967383],[5.730965,45.966787],[5.731545,45.966429],[5.731416,45.966175],[5.731609,45.965415],[5.730686,45.964579],[5.730601,45.963893],[5.729571,45.963312],[5.729163,45.962611],[5.728519,45.962282],[5.728004,45.961552],[5.728326,45.960925],[5.728669,45.960239],[5.72945,45.959639],[5.729901,45.959445],[5.729793,45.959102],[5.729965,45.958699],[5.730008,45.957893],[5.729407,45.957237],[5.730201,45.957491],[5.731188,45.95767],[5.731725,45.958058],[5.732046,45.958072],[5.732218,45.957565],[5.73284,45.957222],[5.732776,45.956521],[5.733076,45.956282],[5.734342,45.956238],[5.734621,45.956044],[5.734235,45.955596],[5.734471,45.955447],[5.735587,45.955626],[5.735823,45.955432],[5.735287,45.954582],[5.735029,45.953612],[5.735651,45.951747],[5.73548,45.951513],[5.735694,45.951214],[5.735394,45.950588],[5.735737,45.950215],[5.735501,45.949782],[5.735158,45.949439],[5.735029,45.949066],[5.735458,45.948648],[5.735244,45.948022],[5.735222,45.947321],[5.735759,45.946813],[5.73593,45.945858],[5.736464,45.945525],[5.736765,45.944242],[5.736958,45.944122],[5.73743,45.943197],[5.738159,45.942257],[5.73831,45.94166],[5.738717,45.940765],[5.73891,45.939407],[5.739361,45.9389],[5.739189,45.938482],[5.739189,45.937139],[5.739404,45.936676],[5.739275,45.935229],[5.739425,45.934497],[5.739382,45.933841],[5.739511,45.933318],[5.739447,45.932975],[5.739533,45.93211],[5.739275,45.931035],[5.739018,45.930946],[5.739103,45.929871],[5.738717,45.92908],[5.73773,45.925811],[5.736915,45.925319],[5.736807,45.924363],[5.736872,45.923617],[5.736786,45.921662],[5.737375,45.920398],[5.738104,45.919651],[5.739199,45.918173],[5.739413,45.917114],[5.739714,45.916531],[5.739456,45.916352],[5.737954,45.916651],[5.73716,45.916666],[5.73598,45.916994],[5.735315,45.916979],[5.733276,45.916681],[5.732268,45.916845],[5.731367,45.917143],[5.730895,45.917084],[5.731517,45.916666],[5.731753,45.916024],[5.732075,45.915665],[5.732847,45.915531],[5.734156,45.91571],[5.734929,45.915501],[5.73525,45.915053],[5.735208,45.91465],[5.735465,45.914292],[5.735315,45.913964],[5.734049,45.913352],[5.734242,45.913098],[5.734027,45.912217],[5.733534,45.911784],[5.733577,45.911396],[5.733427,45.910993],[5.733319,45.910037],[5.733384,45.909515],[5.733212,45.909022],[5.732697,45.908783],[5.732139,45.908126],[5.731474,45.907992],[5.731238,45.908141],[5.731088,45.907827],[5.730937,45.907081],[5.72995,45.905603],[5.729822,45.904423],[5.728157,45.903071],[5.727406,45.902608],[5.727299,45.901876],[5.725496,45.901801],[5.725453,45.901443],[5.726183,45.900995],[5.726655,45.900383],[5.72747,45.8998],[5.727899,45.899054],[5.729101,45.898621],[5.729509,45.898053],[5.729959,45.89771],[5.729852,45.897471],[5.72835,45.897292],[5.72805,45.896859],[5.727964,45.896441],[5.728264,45.896276],[5.729101,45.896411],[5.729423,45.896217],[5.729015,45.895948],[5.729037,45.894992],[5.728672,45.894962],[5.728586,45.894708],[5.727942,45.89441],[5.727556,45.894021],[5.726784,45.893469],[5.725582,45.892244],[5.725732,45.891796],[5.726097,45.891542],[5.72644,45.890332],[5.726312,45.889163],[5.726633,45.888416],[5.726505,45.887445],[5.726676,45.886714],[5.726376,45.885788],[5.725925,45.885369],[5.725625,45.885474],[5.725518,45.88513],[5.725689,45.884637],[5.725324,45.884085],[5.724981,45.882815],[5.725261,45.88183],[5.725711,45.881426],[5.726269,45.881172],[5.725926,45.881038],[5.725218,45.880231],[5.724982,45.880709],[5.724295,45.880037],[5.724767,45.879111],[5.724402,45.879006],[5.723866,45.87935],[5.722858,45.87926],[5.722579,45.878932],[5.722579,45.87811],[5.722171,45.877976],[5.721343,45.878758],[5.721343,45.877727],[5.721622,45.877025],[5.72233,45.876801],[5.723231,45.876845],[5.723553,45.876562],[5.724261,45.876098],[5.724862,45.875665],[5.726257,45.875277],[5.727265,45.873872],[5.728467,45.872976],[5.729046,45.872304],[5.730956,45.87078],[5.729969,45.870959],[5.730076,45.87066],[5.72911,45.87063],[5.728145,45.87075],[5.726793,45.870526],[5.727222,45.869869],[5.727995,45.8696],[5.728574,45.869107],[5.729454,45.868823],[5.72969,45.868404],[5.730269,45.868105],[5.730806,45.867881],[5.730677,45.867254],[5.729797,45.867209],[5.729003,45.867],[5.727308,45.867373],[5.726042,45.866283],[5.725033,45.866312],[5.72454,45.865745],[5.726057,45.864589],[5.725155,45.863484],[5.725177,45.862199],[5.724469,45.860913],[5.723117,45.859703],[5.720671,45.85779],[5.721035,45.857058],[5.721057,45.856505],[5.721443,45.855653],[5.720714,45.855818],[5.71992,45.85649],[5.719426,45.857297],[5.717538,45.858687],[5.716122,45.859255],[5.714984,45.859479],[5.712581,45.860824],[5.710714,45.861646],[5.709234,45.862154],[5.709148,45.862856],[5.708247,45.862931],[5.706444,45.864858],[5.706337,45.865456],[5.705479,45.865785],[5.70462,45.866382],[5.70256,45.866771],[5.700479,45.866801],[5.699149,45.86707],[5.698076,45.867563],[5.695651,45.867996],[5.693613,45.867817],[5.692668,45.867548],[5.691574,45.866965],[5.690265,45.867294],[5.689772,45.867578],[5.68975,45.868131],[5.690008,45.868325],[5.690458,45.869774]]],"type":"MultiLineString"},"properties":{"geo_point":{"lon":5.684302393246392,"lat":45.96095614569398},"name":"Tour du Bacon du Valromey (Ain) (2019)","code_gr":null}}]}