{"type":"FeatureCollection","features":[{"type":"Feature","geometry":{"coordinates":[[[1.059939,46.642704],[1.061527,46.642601],[1.069101,46.640053],[1.070603,46.639242],[1.072448,46.638712],[1.072599,46.638845],[1.078585,46.636694],[1.080431,46.636281],[1.082941,46.636399],[1.085345,46.637209],[1.087855,46.638594],[1.089593,46.639272],[1.091439,46.639463],[1.098584,46.639169],[1.100794,46.639228],[1.103047,46.639729],[1.108218,46.641143],[1.109935,46.641217],[1.127466,46.639729],[1.129912,46.639139],[1.131457,46.63827],[1.132466,46.63715],[1.133839,46.634734],[1.134719,46.633629],[1.13695,46.632303],[1.141145,46.630837],[1.145555,46.629695],[1.150168,46.629032],[1.155704,46.628457],[1.158108,46.628516],[1.173622,46.630653],[1.173858,46.630977],[1.175275,46.631065],[1.175275,46.631551],[1.175682,46.632067],[1.176669,46.632671],[1.177699,46.634322],[1.178086,46.636679],[1.17845,46.637931],[1.178493,46.638889],[1.179051,46.63992],[1.178815,46.641894],[1.179137,46.642321],[1.180703,46.642675],[1.182184,46.642704],[1.183579,46.642395],[1.186583,46.641187],[1.188299,46.643795],[1.192591,46.641585],[1.194629,46.639419],[1.19641,46.638786],[1.196475,46.638344],[1.197977,46.637401],[1.198942,46.638049],[1.199994,46.637784],[1.200831,46.63771],[1.201539,46.636001],[1.201582,46.635264],[1.203513,46.634985],[1.20377,46.631846],[1.210615,46.631271],[1.215121,46.630004],[1.216216,46.629503],[1.218641,46.628398],[1.219499,46.627853],[1.218769,46.626925],[1.216109,46.626689],[1.216237,46.626114],[1.235592,46.62831],[1.241085,46.62828],[1.243459,46.62832],[1.244946,46.62858],[1.250664,46.630024],[1.250479,46.630499],[1.250219,46.631571],[1.249601,46.632911],[1.249699,46.633693],[1.249211,46.635971],[1.249308,46.636674],[1.248804,46.638617],[1.248837,46.639187],[1.248869,46.640158],[1.249048,46.640828],[1.249959,46.641821],[1.251049,46.64219],[1.251357,46.642726],[1.252122,46.643295],[1.252919,46.643708],[1.253211,46.64363],[1.253374,46.643675],[1.25365,46.644177],[1.253537,46.644367],[1.252473,46.644812],[1.252301,46.645048],[1.251413,46.646487],[1.250501,46.647231],[1.250156,46.649025],[1.245227,46.651823],[1.248854,46.655512],[1.249755,46.655969],[1.250313,46.656558],[1.251815,46.66105],[1.253189,46.663656],[1.253336,46.665249],[1.253272,46.667117],[1.251169,46.670297],[1.250611,46.670533],[1.249431,46.672035],[1.248444,46.672373],[1.247886,46.672373],[1.247757,46.672933],[1.248036,46.67386],[1.248551,46.674714],[1.249646,46.675907],[1.250139,46.676643],[1.249925,46.678307],[1.250461,46.679234],[1.250804,46.681604],[1.250332,46.68156],[1.249946,46.68184],[1.24883,46.682002],[1.246792,46.682546],[1.245826,46.68312],[1.244625,46.683488],[1.238595,46.687904],[1.231428,46.693291],[1.229754,46.694307],[1.228467,46.694866],[1.228188,46.695249],[1.228166,46.696044],[1.227888,46.696559],[1.226836,46.696927],[1.22572,46.697692],[1.221279,46.700223],[1.221257,46.700871],[1.214648,46.700856],[1.213623,46.70067],[1.211542,46.700979],[1.209804,46.701686],[1.207165,46.701436],[1.20283,46.701436],[1.200065,46.701215],[1.196911,46.702142],[1.196289,46.702937],[1.195302,46.703452],[1.195624,46.704276],[1.194873,46.705438],[1.195195,46.705835],[1.194959,46.706998],[1.194036,46.707763],[1.196375,46.708925],[1.187813,46.716399],[1.184552,46.715767],[1.183264,46.715384],[1.18247,46.715369],[1.180367,46.716517],[1.178715,46.718488],[1.178286,46.718783],[1.177578,46.719003],[1.176591,46.719592],[1.175561,46.719621],[1.175046,46.719503],[1.173565,46.719753],[1.173758,46.720018],[1.173823,46.72071],[1.17363,46.721254],[1.173544,46.722431],[1.174059,46.72299],[1.175089,46.723799],[1.175604,46.724887],[1.177299,46.725623],[1.178522,46.726005],[1.179187,46.726314],[1.180389,46.726711],[1.181054,46.727329],[1.18159,46.727667],[1.18202,46.728211],[1.184144,46.729668],[1.186397,46.7303],[1.190281,46.732903],[1.191225,46.733021],[1.196546,46.734947],[1.196718,46.734771],[1.198284,46.734594],[1.202705,46.732388],[1.203606,46.7323],[1.204357,46.73205],[1.206524,46.732241],[1.206932,46.732035],[1.208713,46.730315],[1.2094,46.73005],[1.210151,46.729947],[1.213026,46.728079],[1.214485,46.728079],[1.215172,46.7278],[1.217489,46.727476],[1.218777,46.727564],[1.219613,46.727682],[1.220279,46.727608],[1.220364,46.72852],[1.220686,46.729373],[1.2203,46.73158],[1.221695,46.733786],[1.222167,46.735433],[1.222875,46.736536],[1.224012,46.737168],[1.224398,46.738683],[1.224141,46.740492],[1.224256,46.740911],[1.223763,46.741603],[1.223999,46.743294],[1.223677,46.743838],[1.223677,46.744426],[1.223398,46.744764],[1.223183,46.745734],[1.223441,46.746734],[1.224964,46.748572],[1.226145,46.750322],[1.226187,46.750704],[1.225737,46.751204],[1.225951,46.752204],[1.226166,46.752365],[1.224814,46.753835],[1.224106,46.755423],[1.221274,46.756849],[1.2193,46.759098],[1.218785,46.760495],[1.216467,46.761921],[1.215738,46.762891],[1.215394,46.763052],[1.214879,46.763905],[1.214515,46.763978],[1.214171,46.764317],[1.214557,46.764787],[1.214557,46.765786],[1.214965,46.766698],[1.217197,46.768432],[1.217197,46.769505],[1.216725,46.770284],[1.216017,46.770519],[1.215652,46.770886],[1.213978,46.770166],[1.208893,46.77049],[1.205395,46.770034],[1.204966,46.769902],[1.203185,46.769681],[1.20179,46.769387],[1.200481,46.768932],[1.200095,46.769402],[1.197584,46.769475],[1.195954,46.769328],[1.193937,46.769152],[1.193422,46.769211],[1.192628,46.769123],[1.191126,46.769167],[1.189259,46.770328],[1.187628,46.770622],[1.186448,46.771063],[1.186384,46.77384],[1.187049,46.774458],[1.18722,46.775281],[1.187521,46.775574],[1.188207,46.775442],[1.192542,46.778881],[1.193486,46.779454],[1.194881,46.780585],[1.195546,46.781423],[1.196276,46.783304],[1.197048,46.784156],[1.200588,46.788113],[1.201103,46.789053],[1.18883,46.796325],[1.181856,46.784484],[1.173917,46.795393],[1.171985,46.796656],[1.157351,46.805396],[1.156708,46.806409],[1.155763,46.809773],[1.155978,46.809817],[1.154948,46.81362],[1.15351,46.816484],[1.153167,46.817791],[1.154691,46.817688],[1.155034,46.817277],[1.159004,46.818187],[1.15954,46.818202],[1.159991,46.819083],[1.162308,46.818863],[1.162887,46.819391],[1.163595,46.819479],[1.164432,46.8192],[1.164797,46.819303],[1.165527,46.820111],[1.165806,46.820595],[1.167393,46.822064],[1.167994,46.823033],[1.168659,46.822901],[1.174067,46.823179],[1.175483,46.823781],[1.176406,46.823693],[1.178551,46.823972],[1.180011,46.823987],[1.182006,46.823488],[1.183036,46.823414],[1.184238,46.822798],[1.185482,46.822357],[1.18825,46.822254],[1.191297,46.822005],[1.196082,46.821361],[1.198743,46.821405],[1.200481,46.821801],[1.201833,46.822036],[1.204901,46.82095],[1.209279,46.821258],[1.209579,46.819643],[1.210566,46.819614],[1.211596,46.819937],[1.211854,46.819907],[1.211918,46.819379],[1.212197,46.819408],[1.212433,46.818527],[1.214515,46.819026],[1.216746,46.818688],[1.218398,46.81769],[1.219257,46.817543],[1.22181,46.817822],[1.22387,46.817954],[1.224836,46.818718],[1.225951,46.818644],[1.226788,46.818703],[1.227282,46.817998],[1.226831,46.817734],[1.226681,46.817323],[1.227003,46.817176],[1.227067,46.81675],[1.226853,46.816603],[1.226874,46.816207],[1.232839,46.815796],[1.233032,46.815693],[1.234062,46.815766],[1.234921,46.81813],[1.235951,46.819335],[1.238633,46.819423],[1.239234,46.819232],[1.23992,46.818703],[1.240693,46.818556],[1.24183,46.817954],[1.243161,46.817675],[1.244577,46.818351],[1.246508,46.818674],[1.247495,46.819393],[1.248697,46.820641],[1.249254,46.821508],[1.25125,46.822447],[1.252216,46.823328],[1.252516,46.822917],[1.25522,46.821919],[1.25557,46.81482],[1.258703,46.815686],[1.258488,46.815201],[1.258788,46.814555],[1.259454,46.814041],[1.259926,46.814085],[1.25984,46.813469],[1.260226,46.812382],[1.260076,46.811501],[1.263509,46.811809],[1.266427,46.811868],[1.267436,46.811545],[1.26868,46.811325],[1.269474,46.810722],[1.270139,46.810076],[1.271405,46.809724],[1.272199,46.809298],[1.272779,46.807829],[1.273079,46.806552],[1.274839,46.806184],[1.275933,46.806507],[1.280508,46.805244],[1.287418,46.801749],[1.288576,46.802674],[1.289885,46.804701],[1.288834,46.806889],[1.289585,46.809871],[1.293533,46.807682],[1.29952,46.807124],[1.299691,46.80617],[1.300378,46.805009],[1.302466,46.803648],[1.304119,46.799976],[1.304462,46.799521],[1.305213,46.799021],[1.305986,46.798111],[1.305835,46.797788],[1.306071,46.797538],[1.30605,46.797185],[1.306286,46.796877],[1.306458,46.796363],[1.307015,46.795819],[1.306651,46.795569],[1.306565,46.795217],[1.307058,46.794761],[1.307187,46.794262],[1.30693,46.792999],[1.308217,46.792073],[1.308367,46.791618],[1.309118,46.790883],[1.309247,46.789855],[1.311178,46.787945],[1.311693,46.787093],[1.311779,46.786608],[1.312916,46.785521],[1.313474,46.786226],[1.313925,46.785756],[1.315084,46.784874],[1.315191,46.784639],[1.316049,46.784022],[1.317594,46.783787],[1.318023,46.783243],[1.317852,46.782744],[1.31837,46.782366],[1.318885,46.782483],[1.321267,46.782821],[1.324185,46.783512],[1.325301,46.783585],[1.327597,46.783468],[1.329872,46.783806],[1.331395,46.784158],[1.331239,46.785049],[1.330617,46.786209],[1.330509,46.787003],[1.33066,46.788208],[1.33066,46.789163],[1.331883,46.788531],[1.334071,46.788046],[1.335423,46.787928],[1.338642,46.786885],[1.339007,46.787576],[1.33905,46.788487],[1.33935,46.789148],[1.339865,46.790617],[1.340303,46.790499],[1.340667,46.790191],[1.341912,46.789823],[1.342706,46.789603],[1.343242,46.789236],[1.344036,46.788957],[1.343757,46.788722],[1.352641,46.786092],[1.354014,46.784079],[1.362747,46.780538],[1.363691,46.780494],[1.36455,46.779627],[1.365451,46.778907],[1.365301,46.778613],[1.363112,46.776688],[1.361932,46.775997],[1.362383,46.775497],[1.364507,46.774322],[1.365,46.773807],[1.365129,46.773322],[1.364228,46.771133],[1.364442,46.770501],[1.366674,46.768678],[1.368305,46.767782],[1.373562,46.763651],[1.375171,46.762476],[1.376673,46.762226],[1.380278,46.758771],[1.383647,46.757713],[1.386007,46.755861],[1.387316,46.754993],[1.388153,46.754185],[1.393496,46.750362],[1.393882,46.74948],[1.395299,46.747995],[1.397316,46.745995],[1.39826,46.74551],[1.399204,46.744157],[1.399826,46.743937],[1.400212,46.743393],[1.401865,46.742305],[1.402959,46.741849],[1.404418,46.740864],[1.405105,46.740187],[1.40592,46.738834],[1.406027,46.738055],[1.4065,46.73779],[1.406714,46.737481],[1.409804,46.736805],[1.410469,46.737011],[1.411735,46.736893],[1.411821,46.736643],[1.412508,46.736584],[1.415083,46.737187],[1.417851,46.737511],[1.442205,46.732087],[1.442055,46.732528],[1.442033,46.73319],[1.441239,46.734263],[1.441754,46.735366],[1.441862,46.736116],[1.442334,46.736866],[1.442744,46.737897],[1.442508,46.738485],[1.443945,46.739603],[1.444289,46.740279],[1.445683,46.741323],[1.447057,46.742088],[1.448323,46.742206],[1.451112,46.742691],[1.451842,46.742367],[1.453859,46.740882],[1.454374,46.7385],[1.45712,46.738632],[1.458043,46.739294],[1.458966,46.739441],[1.459051,46.739794],[1.458773,46.740206],[1.458837,46.740559],[1.458601,46.741073],[1.458515,46.741529],[1.458258,46.741809],[1.458429,46.742117],[1.460854,46.74225],[1.462506,46.741941],[1.463879,46.741779],[1.464094,46.741176],[1.464094,46.740559],[1.465682,46.739941],[1.465982,46.739662],[1.464802,46.7385],[1.464952,46.738176],[1.465768,46.737632],[1.466111,46.737618],[1.466969,46.737088],[1.468235,46.736632],[1.469737,46.735559],[1.47139,46.733941],[1.474201,46.730808],[1.475509,46.729771],[1.477183,46.728741],[1.477462,46.728241],[1.477505,46.727153],[1.478235,46.72605],[1.478857,46.725682],[1.478278,46.724079],[1.478063,46.722769],[1.477119,46.722372],[1.475445,46.722063],[1.472913,46.722313],[1.471261,46.721843],[1.469609,46.720477],[1.468407,46.720036],[1.467098,46.719624],[1.466175,46.719094],[1.466411,46.718461],[1.466004,46.717564],[1.465532,46.717123],[1.465532,46.716564],[1.465038,46.715858],[1.464931,46.715299],[1.462635,46.714504],[1.461691,46.714622],[1.461133,46.714872],[1.460897,46.712886],[1.461026,46.711885],[1.460854,46.710179],[1.460618,46.709737],[1.460425,46.709031],[1.460124,46.708516],[1.460553,46.706912],[1.460639,46.706294],[1.461197,46.70494],[1.461369,46.703866],[1.461541,46.703248],[1.461476,46.702733],[1.461712,46.702174],[1.462721,46.701512],[1.462613,46.701217],[1.462742,46.700087],[1.461798,46.699513],[1.461047,46.698704],[1.460768,46.698168],[1.460461,46.697251],[1.45986,46.696353],[1.458465,46.695499],[1.455633,46.6931],[1.454143,46.691913],[1.452834,46.691207],[1.449701,46.688661],[1.449658,46.686497],[1.448135,46.685908],[1.446439,46.684407],[1.445924,46.685187],[1.445624,46.68526],[1.444809,46.684995],[1.443071,46.6842],[1.441032,46.683891],[1.438414,46.683332],[1.433479,46.68342],[1.432943,46.683641],[1.432406,46.683626],[1.432192,46.683082],[1.431741,46.682596],[1.431054,46.681624],[1.429896,46.680682],[1.4279,46.679563],[1.428865,46.677058],[1.429337,46.675306],[1.429552,46.67348],[1.429487,46.672906],[1.429595,46.672244],[1.42923,46.671316],[1.429144,46.670536],[1.428886,46.670065],[1.429187,46.669021],[1.429981,46.667225],[1.430067,46.666739],[1.430238,46.666577],[1.429873,46.665546],[1.429358,46.665045],[1.429809,46.664309],[1.429809,46.663411],[1.429702,46.662424],[1.430131,46.6621],[1.429895,46.66154],[1.428908,46.661069],[1.428543,46.661202],[1.427556,46.661246],[1.426869,46.661084],[1.42629,46.661216],[1.426097,46.661526],[1.426033,46.662483],[1.423651,46.663897],[1.422878,46.665973],[1.422943,46.666739],[1.422149,46.667578],[1.421205,46.668079],[1.420024,46.668388],[1.417879,46.66802],[1.415518,46.666783],[1.414574,46.66615],[1.412257,46.661099],[1.412021,46.654641],[1.412214,46.653978],[1.411999,46.653522],[1.411012,46.652726],[1.411248,46.652019],[1.411763,46.651784],[1.411162,46.651651],[1.410454,46.650826],[1.408652,46.649795],[1.407193,46.64872],[1.407021,46.647895],[1.406656,46.647379],[1.405991,46.6471],[1.405197,46.646982],[1.404339,46.646525],[1.403416,46.645877],[1.402858,46.645803],[1.402429,46.645494],[1.403478,46.644821],[1.403499,46.644159],[1.403135,46.643437],[1.401397,46.641949],[1.401289,46.641507],[1.400495,46.641536],[1.400131,46.641404],[1.399787,46.641654],[1.399251,46.641595],[1.399058,46.641374],[1.397942,46.641109],[1.397255,46.64077],[1.39644,46.642185],[1.395818,46.642597],[1.394509,46.642288],[1.392599,46.642081],[1.391805,46.642081],[1.390475,46.64245],[1.389466,46.642921],[1.389187,46.642951],[1.389037,46.641846],[1.389123,46.640225],[1.388071,46.640225],[1.388071,46.640004],[1.383007,46.63996],[1.381527,46.639651],[1.380025,46.638958],[1.373244,46.635113],[1.371463,46.634627],[1.36464,46.634185],[1.362172,46.634406],[1.362086,46.634656],[1.361142,46.634862],[1.359554,46.635024],[1.358524,46.635393],[1.357752,46.636129],[1.35655,46.636395],[1.356443,46.636822],[1.355112,46.638089],[1.355563,46.638222],[1.356228,46.639562],[1.355906,46.640004],[1.35567,46.640181],[1.355434,46.640726],[1.355606,46.641404],[1.355756,46.643186],[1.356743,46.643496],[1.353782,46.644424],[1.352774,46.644453],[1.35155,46.644704],[1.350692,46.644733],[1.349598,46.644689],[1.348139,46.644836],[1.347044,46.644895],[1.345521,46.645337],[1.344963,46.645897],[1.344062,46.646088],[1.343332,46.64653],[1.342796,46.646633],[1.342388,46.647061],[1.341251,46.647576],[1.340328,46.648666],[1.339534,46.649138],[1.338933,46.649712],[1.336337,46.650658],[1.334041,46.65138],[1.332045,46.648965],[1.331101,46.648847],[1.329578,46.647757],[1.328827,46.647035],[1.328226,46.646048],[1.32784,46.64593],[1.327668,46.645252],[1.326187,46.64428],[1.325565,46.64431],[1.3246,46.645945],[1.324514,46.64677],[1.32402,46.64733],[1.323628,46.64699],[1.323542,46.646519],[1.323048,46.645989],[1.322297,46.645576],[1.320238,46.64565],[1.318693,46.645414],[1.316954,46.644972],[1.315517,46.644456],[1.315345,46.645046],[1.311805,46.645517],[1.30968,46.645193],[1.304595,46.643499],[1.301183,46.642114],[1.300217,46.641849],[1.299424,46.641893],[1.296269,46.642261],[1.295132,46.642173],[1.293587,46.642217],[1.290519,46.641982],[1.288866,46.641422],[1.287729,46.640567],[1.286227,46.640332],[1.285583,46.638873],[1.286334,46.638073],[1.287643,46.63716],[1.287493,46.635981],[1.287557,46.635377],[1.288566,46.635406],[1.28921,46.632106],[1.292407,46.631811],[1.291828,46.631561],[1.292106,46.630603],[1.293072,46.63047],[1.292943,46.629395],[1.293201,46.627788],[1.293651,46.627346],[1.294638,46.625622],[1.295776,46.624399],[1.296677,46.623706],[1.296977,46.622645],[1.298673,46.621304],[1.298544,46.620332],[1.298866,46.619801],[1.299509,46.619418],[1.299724,46.619005],[1.298758,46.617472],[1.298715,46.616677],[1.297964,46.616116],[1.297621,46.615777],[1.296613,46.615158],[1.295776,46.614009],[1.296355,46.613331],[1.297063,46.613169],[1.2979,46.613228],[1.299638,46.612373],[1.30011,46.61255],[1.300775,46.612299],[1.30202,46.612653],[1.303093,46.612844],[1.303889,46.613238],[1.305606,46.613518],[1.306314,46.613739],[1.307108,46.613341],[1.308438,46.612413],[1.308588,46.611852],[1.308395,46.610364],[1.31067,46.610246],[1.31185,46.610541],[1.313588,46.610629],[1.314339,46.610835],[1.316335,46.611808],[1.317429,46.612118],[1.318437,46.61256],[1.319618,46.612634],[1.320841,46.612914],[1.321356,46.613312],[1.321849,46.613341],[1.324338,46.614284],[1.32539,46.614447],[1.326055,46.615036],[1.326012,46.615758],[1.326699,46.615405],[1.327278,46.615316],[1.327621,46.614845],[1.326634,46.61452],[1.326441,46.614329],[1.326012,46.613459],[1.325304,46.613297],[1.324553,46.612471],[1.324038,46.611499],[1.324059,46.609921],[1.324982,46.609339],[1.325561,46.608027],[1.325519,46.607069],[1.326398,46.606022],[1.326892,46.605005],[1.327342,46.603206],[1.327943,46.602115],[1.328051,46.600297],[1.327793,46.599044],[1.328759,46.597022],[1.329982,46.595695],[1.330346,46.594796],[1.331055,46.593956],[1.331677,46.593705],[1.332471,46.592378],[1.331655,46.592039],[1.330454,46.590785],[1.329553,46.589561],[1.333672,46.588175],[1.335604,46.587379],[1.337728,46.586111],[1.341846,46.582133],[1.342339,46.581337],[1.344378,46.58113],[1.348669,46.580024],[1.349613,46.58001],[1.354634,46.581293],[1.368281,46.575894],[1.369569,46.575821],[1.373069,46.574116],[1.378862,46.57183],[1.379098,46.572022],[1.380257,46.571904],[1.383175,46.569558],[1.384098,46.569071],[1.383175,46.568024],[1.383669,46.566873],[1.384785,46.565988],[1.385278,46.565029],[1.384763,46.563834],[1.385192,46.562684],[1.384956,46.561902],[1.384978,46.561252],[1.384871,46.560736],[1.385385,46.559748],[1.386072,46.558907],[1.387317,46.55839],[1.388862,46.557431],[1.392203,46.552618],[1.393319,46.55312],[1.393019,46.549549],[1.393126,46.548589],[1.393319,46.548147],[1.393276,46.547837],[1.393705,46.546818],[1.393705,46.546243],[1.393898,46.546125],[1.392525,46.544059],[1.392246,46.54214],[1.392589,46.540989],[1.392504,46.540413],[1.39304,46.540015],[1.393877,46.538672],[1.394714,46.536502],[1.394349,46.536782],[1.391195,46.537786],[1.390379,46.536989],[1.390036,46.536192],[1.389435,46.535705],[1.389242,46.535365],[1.388706,46.533402],[1.388212,46.532502],[1.387998,46.531837],[1.387247,46.531129],[1.386624,46.530627],[1.384822,46.527468],[1.384586,46.526316],[1.383234,46.524943],[1.382547,46.523732],[1.380745,46.521813],[1.380423,46.52013],[1.377312,46.520499],[1.376067,46.519746],[1.374694,46.519318],[1.374286,46.51852],[1.372977,46.517354],[1.374329,46.515966],[1.375273,46.514859],[1.377569,46.513574],[1.384414,46.50966],[1.382354,46.508597],[1.379178,46.507475],[1.370831,46.50523],[1.370552,46.506013],[1.369608,46.506116],[1.368535,46.506072],[1.367677,46.506323],[1.365767,46.506352],[1.363729,46.505983],[1.362999,46.506663],[1.36227,46.506515],[1.361773,46.505855],[1.360614,46.505574],[1.359305,46.506298],[1.357073,46.506859],[1.356065,46.507331],[1.354734,46.50872],[1.351451,46.510492],[1.350572,46.507952],[1.349971,46.507376],[1.34937,46.506888],[1.347932,46.505131],[1.347739,46.504791],[1.346774,46.504141],[1.345143,46.502679],[1.344757,46.501926],[1.343705,46.501498],[1.343255,46.501158],[1.343061,46.500892],[1.342589,46.500818],[1.342289,46.500449],[1.341323,46.499888],[1.340122,46.499577],[1.338598,46.499592],[1.33744,46.499385],[1.335809,46.499947],[1.335744,46.500168],[1.335251,46.500242],[1.33465,46.499016],[1.332998,46.498987],[1.332311,46.498278],[1.331667,46.497953],[1.331195,46.497923],[1.330745,46.497391],[1.330959,46.496594],[1.331517,46.496224],[1.331539,46.495899],[1.330938,46.495279],[1.330959,46.495043],[1.329114,46.494614],[1.328384,46.494585],[1.328234,46.494791],[1.324779,46.494984],[1.323406,46.494762],[1.321647,46.494097],[1.321411,46.493831],[1.320359,46.493639],[1.319437,46.493388],[1.317977,46.492044],[1.316411,46.491512],[1.316068,46.49101],[1.314094,46.490596],[1.313064,46.490493],[1.315274,46.487833],[1.31596,46.487257],[1.316046,46.486105],[1.315381,46.485588],[1.315639,46.485189],[1.315274,46.484509],[1.315081,46.48312],[1.314351,46.482958],[1.313643,46.483032],[1.313428,46.481141],[1.312956,46.480387],[1.312892,46.479515],[1.312484,46.478451],[1.312098,46.478067],[1.310639,46.47721],[1.310296,46.476752],[1.30918,46.47588],[1.308064,46.47554],[1.307528,46.475555],[1.306905,46.476013],[1.305639,46.476043],[1.304438,46.476649],[1.303257,46.476915],[1.302506,46.477314],[1.302142,46.477727],[1.30094,46.478082],[1.301541,46.477048],[1.30227,46.47625],[1.301004,46.475895],[1.299417,46.475895],[1.298902,46.475407],[1.299009,46.474639],[1.298472,46.474506],[1.298902,46.473944],[1.298687,46.473678],[1.298751,46.473161],[1.299824,46.472127],[1.300468,46.471639],[1.300103,46.470974],[1.300189,46.470265],[1.300017,46.469777],[1.304073,46.469806],[1.304738,46.470294],[1.308279,46.470235],[1.309931,46.470028],[1.312077,46.470176],[1.31448,46.470176],[1.315424,46.470501],[1.316068,46.469718],[1.316003,46.468802],[1.315402,46.467708],[1.314823,46.466526],[1.314909,46.465447],[1.313686,46.464915],[1.3133,46.46456],[1.312892,46.464397],[1.311948,46.463954],[1.311068,46.463998],[1.309995,46.463717],[1.308944,46.463909],[1.307141,46.463496],[1.307206,46.463067],[1.307034,46.461855],[1.306819,46.461338],[1.306927,46.461205],[1.306927,46.460776],[1.307098,46.46048],[1.306519,46.460037],[1.306283,46.459653],[1.305489,46.459327],[1.305124,46.458987],[1.304373,46.458707],[1.304202,46.458352],[1.303858,46.456903],[1.301734,46.453799],[1.302721,46.453533],[1.303944,46.45235],[1.304352,46.452232],[1.30536,46.45232],[1.306948,46.45204],[1.30845,46.451537],[1.309223,46.450768],[1.310596,46.451448],[1.311304,46.45204],[1.312012,46.452128],[1.312828,46.451921],[1.31345,46.451847],[1.315295,46.451241],[1.316647,46.451759],[1.318149,46.451522],[1.318986,46.45266],[1.320381,46.452927],[1.321518,46.451847],[1.324093,46.450709],[1.32538,46.449822],[1.326346,46.449038],[1.32699,46.448905],[1.328562,46.44926],[1.329549,46.449364],[1.330043,46.449186],[1.329979,46.448846],[1.328949,46.448225],[1.327661,46.447767],[1.326395,46.447116],[1.325065,46.446008],[1.325172,46.445875],[1.32485,46.445564],[1.32455,46.44552],[1.324142,46.44515],[1.324056,46.444529],[1.324743,46.444529],[1.325151,46.444721],[1.325816,46.444633],[1.326481,46.444278],[1.327189,46.444174],[1.328047,46.444307],[1.329056,46.444263],[1.330494,46.444004],[1.332618,46.444366],[1.333219,46.444603],[1.3375,46.444168],[1.338637,46.443946],[1.339323,46.443532],[1.340375,46.44334],[1.342349,46.443813],[1.342928,46.443635],[1.343272,46.443044],[1.343636,46.443074],[1.345761,46.443872],[1.347992,46.443783],[1.349902,46.443428],[1.350996,46.443044],[1.351082,46.442719],[1.351318,46.44266],[1.351619,46.442911],[1.353636,46.443014],[1.354151,46.443192],[1.355781,46.442896],[1.356296,46.442408],[1.357241,46.442763],[1.358399,46.442852],[1.359773,46.442571],[1.36106,46.442379],[1.362176,46.442379],[1.363442,46.442186],[1.364601,46.442186],[1.365051,46.441935],[1.365523,46.442246],[1.366982,46.442305],[1.368055,46.442098],[1.368678,46.441891],[1.369836,46.441802],[1.370544,46.442541],[1.371016,46.442941],[1.371145,46.443695],[1.371746,46.443739],[1.372304,46.443517],[1.373269,46.442009],[1.373806,46.441832],[1.374772,46.441861],[1.376703,46.44127],[1.377411,46.441255],[1.38005,46.442349],[1.381874,46.443221],[1.383591,46.443295],[1.387616,46.441083],[1.38811,46.440374],[1.388539,46.440241],[1.388818,46.440566],[1.390062,46.441231],[1.390792,46.44135],[1.391221,46.441083],[1.392122,46.441409],[1.392702,46.440788],[1.391736,46.439945],[1.392036,46.439324],[1.392852,46.439117],[1.393367,46.438466],[1.392723,46.437963],[1.391822,46.43786],[1.392466,46.437165],[1.392873,46.437135],[1.394268,46.435375],[1.39695,46.434961],[1.398259,46.43505],[1.398409,46.433734],[1.398796,46.43295],[1.398645,46.432802],[1.399096,46.431989],[1.399268,46.431264],[1.400834,46.431664],[1.401649,46.432462],[1.402701,46.433187],[1.403409,46.433483],[1.404568,46.433172],[1.405877,46.433793],[1.407379,46.434311],[1.408065,46.434355],[1.408773,46.434814],[1.409128,46.431951],[1.409364,46.431655],[1.409428,46.430472],[1.409793,46.429984],[1.411166,46.428697],[1.408977,46.42747],[1.408291,46.426819],[1.408076,46.426227],[1.406767,46.426479],[1.406274,46.425295],[1.405158,46.424038],[1.401789,46.421065],[1.401768,46.420414],[1.396768,46.415044],[1.39621,46.415015],[1.395674,46.41605],[1.394558,46.4175],[1.393313,46.418624],[1.392133,46.417855],[1.389558,46.416938],[1.3887,46.416524],[1.388614,46.416331],[1.384902,46.415192],[1.380782,46.412796],[1.380288,46.412692],[1.37898,46.411938],[1.378765,46.41145],[1.377349,46.411612],[1.376791,46.412071],[1.375718,46.412263],[1.373572,46.413358],[1.369989,46.415991],[1.369109,46.418314],[1.367628,46.418728],[1.365633,46.418758],[1.364581,46.418269],[1.363058,46.417929],[1.362178,46.417441],[1.361041,46.417249],[1.359646,46.416539],[1.358509,46.416938],[1.35735,46.417722],[1.356857,46.417722],[1.356277,46.417973],[1.354925,46.418195],[1.354625,46.418447],[1.35381,46.418772],[1.353702,46.419334],[1.352994,46.419394],[1.352265,46.419734],[1.350977,46.419379],[1.350291,46.419364],[1.349604,46.419113],[1.349475,46.419423],[1.348467,46.419157],[1.348102,46.419601],[1.347072,46.41929],[1.346857,46.418713],[1.346922,46.417692],[1.346171,46.417441],[1.344797,46.417545],[1.343617,46.417618],[1.342051,46.418388],[1.339969,46.42071],[1.338253,46.419956],[1.337867,46.420237],[1.337802,46.421154],[1.334163,46.419436],[1.332619,46.418963],[1.332404,46.418667],[1.327769,46.416847],[1.325666,46.416566],[1.323864,46.416019],[1.323199,46.415471],[1.323156,46.414894],[1.321997,46.415575],[1.321825,46.416241],[1.322705,46.417187],[1.321439,46.416906],[1.320988,46.416581],[1.320795,46.416329],[1.319465,46.416389],[1.318607,46.416862],[1.315409,46.417276],[1.314594,46.416803],[1.312813,46.416418],[1.311075,46.416329],[1.30923,46.416684],[1.308307,46.416507],[1.307427,46.416522],[1.305968,46.415205],[1.304058,46.413992],[1.302556,46.412424],[1.302878,46.412113],[1.301655,46.411521],[1.300604,46.410811],[1.299702,46.410619],[1.296999,46.410501],[1.296162,46.410752],[1.295111,46.412809],[1.294746,46.413962],[1.29348,46.413903],[1.292664,46.413741],[1.291956,46.413741],[1.290047,46.412927],[1.288781,46.413489],[1.288759,46.417498],[1.289918,46.419776],[1.289896,46.421625],[1.290089,46.421936],[1.285991,46.422646],[1.28539,46.422187],[1.284253,46.423223],[1.284081,46.423918],[1.284253,46.424998],[1.283953,46.425486],[1.283459,46.427453],[1.283137,46.428237],[1.283652,46.428],[1.286206,46.42766],[1.287386,46.429997],[1.288931,46.43152],[1.289317,46.431535],[1.289017,46.432289],[1.291355,46.432185],[1.292621,46.432289],[1.295111,46.432215],[1.295626,46.432067],[1.297106,46.434152],[1.29717,46.43504],[1.298737,46.434655],[1.298973,46.437583],[1.29554,46.444607],[1.294832,46.444],[1.293501,46.44437],[1.292643,46.444355],[1.291978,46.444474],[1.291313,46.443793],[1.290583,46.443646],[1.289446,46.443084],[1.28745,46.441901],[1.286678,46.442611],[1.28597,46.443705],[1.283438,46.444695],[1.281957,46.4461],[1.280519,46.446736],[1.279275,46.447623],[1.277966,46.447667],[1.276314,46.448022],[1.275863,46.448658],[1.274747,46.448643],[1.274291,46.447947],[1.27221,46.445951],[1.271459,46.446646],[1.270708,46.446912],[1.269592,46.447193],[1.26764,46.448154],[1.265258,46.448745],[1.2647,46.449056],[1.266481,46.449765],[1.266846,46.450105],[1.267833,46.450504],[1.268069,46.451229],[1.268412,46.451746],[1.26912,46.452323],[1.269957,46.453358],[1.271566,46.454614],[1.275343,46.457999],[1.276244,46.458931],[1.276738,46.459803],[1.27736,46.460409],[1.277746,46.461606],[1.279291,46.462981],[1.279484,46.463454],[1.278261,46.463291],[1.276802,46.462936],[1.275493,46.46301],[1.274356,46.462862],[1.27354,46.462493],[1.272403,46.462419],[1.269914,46.462463],[1.268455,46.462744],[1.267017,46.462685],[1.263434,46.464666],[1.261288,46.466498],[1.257769,46.470444],[1.256889,46.471124],[1.255108,46.470178],[1.252769,46.469365],[1.251697,46.468597],[1.250173,46.466971],[1.250001,46.466616],[1.249787,46.46635],[1.248929,46.466011],[1.248113,46.465626],[1.246997,46.463808],[1.246611,46.4627],[1.245731,46.461931],[1.245195,46.461133],[1.244465,46.460911],[1.240667,46.460941],[1.239509,46.461207],[1.237663,46.461192],[1.23659,46.461384],[1.234316,46.461251],[1.231119,46.461946],[1.229123,46.462641],[1.226226,46.463054],[1.224531,46.46406],[1.223072,46.464695],[1.220197,46.465434],[1.220647,46.466262],[1.21863,46.466705],[1.217643,46.466735],[1.215991,46.466646],[1.215347,46.466749],[1.214854,46.466779],[1.212493,46.467902],[1.210605,46.467799],[1.208502,46.467267],[1.207086,46.467163],[1.205541,46.467326],[1.203224,46.468124],[1.201807,46.468287],[1.201014,46.468479],[1.200327,46.468981],[1.198782,46.469764],[1.197902,46.47037],[1.197366,46.470976],[1.197274,46.473016],[1.196759,46.473873],[1.196459,46.474789],[1.196416,46.475321],[1.196072,46.475809],[1.195987,46.476222],[1.195429,46.476001],[1.193605,46.476252],[1.193583,46.477257],[1.192017,46.478883],[1.191974,46.479326],[1.191674,46.479533],[1.191202,46.479503],[1.190601,46.479311],[1.190901,46.479917],[1.190687,46.48073],[1.190386,46.480951],[1.190815,46.481469],[1.19015,46.483212],[1.19015,46.484031],[1.190601,46.486927],[1.190257,46.488685],[1.190408,46.489026],[1.190172,46.489115],[1.190214,46.4904],[1.190687,46.49204],[1.191309,46.49201],[1.192725,46.492291],[1.193047,46.492734],[1.193884,46.492749],[1.194356,46.493458],[1.195042,46.494093],[1.194978,46.494433],[1.195174,46.495199],[1.195046,46.495657],[1.194102,46.496927],[1.193887,46.497385],[1.193265,46.498064],[1.192428,46.498419],[1.191806,46.498257],[1.191033,46.499586],[1.189939,46.500841],[1.189617,46.50096],[1.188308,46.501092],[1.187536,46.501447],[1.184982,46.502363],[1.179682,46.503559],[1.17921,46.503529],[1.178759,46.503515],[1.177708,46.503308],[1.175712,46.503441],[1.174039,46.503131],[1.171957,46.503278],[1.168352,46.503145],[1.165413,46.504061],[1.161829,46.506631],[1.163138,46.508477],[1.160392,46.510899],[1.162151,46.512523],[1.165735,46.518312],[1.16419,46.518016],[1.162816,46.517943],[1.162623,46.51874],[1.162173,46.519788],[1.163439,46.520143],[1.164662,46.521132],[1.16567,46.52125],[1.166958,46.52125],[1.168653,46.522106],[1.170434,46.522786],[1.174318,46.524823],[1.175777,46.524262],[1.17627,46.524749],[1.175112,46.526801],[1.174425,46.527318],[1.173459,46.528396],[1.169983,46.530566],[1.169018,46.531481],[1.166314,46.533562],[1.165692,46.534389],[1.165735,46.535201],[1.164941,46.536367],[1.164404,46.537548],[1.163589,46.537961],[1.161615,46.539408],[1.159555,46.5405],[1.15919,46.541562],[1.160198,46.542211],[1.160842,46.542978],[1.16037,46.544292],[1.159834,46.54472],[1.159469,46.545207],[1.157838,46.54562],[1.158375,46.54683],[1.156958,46.54714],[1.155392,46.548143],[1.152796,46.548955],[1.151551,46.549058],[1.151229,46.54838],[1.150757,46.548025],[1.150178,46.547612],[1.149641,46.547671],[1.148869,46.547612],[1.148311,46.54776],[1.147045,46.546845],[1.146594,46.546933],[1.146015,46.546786],[1.145006,46.546963],[1.144534,46.547155],[1.144577,46.547656],[1.14153,46.547952],[1.139574,46.548365],[1.138802,46.548335],[1.136785,46.548763],[1.135583,46.550062],[1.134532,46.550313],[1.133137,46.550209],[1.132085,46.550637],[1.133051,46.551729],[1.133244,46.552275],[1.133845,46.552821],[1.133351,46.553072],[1.132472,46.553958],[1.131957,46.554046],[1.131528,46.554312],[1.131742,46.555005],[1.130841,46.556496],[1.130841,46.557543],[1.131098,46.55834],[1.130369,46.558399],[1.130755,46.559269],[1.130283,46.559284],[1.129339,46.55952],[1.127536,46.559683],[1.125069,46.560096],[1.121829,46.559786],[1.11949,46.559815],[1.116636,46.560833],[1.114726,46.561689],[1.112623,46.563076],[1.112452,46.563784],[1.112452,46.564522],[1.111658,46.566322],[1.109641,46.5661],[1.108439,46.56644],[1.107838,46.566484],[1.106723,46.566823],[1.106057,46.56728],[1.105564,46.567871],[1.104362,46.568579],[1.103439,46.568741],[1.102517,46.56821],[1.102066,46.568387],[1.100757,46.568166],[1.100156,46.567915],[1.099663,46.567472],[1.098719,46.567369],[1.098483,46.56793],[1.097968,46.56818],[1.096251,46.568225],[1.093269,46.56852],[1.093033,46.569287],[1.093848,46.572089],[1.091316,46.573255],[1.089149,46.573786],[1.088054,46.574804],[1.086316,46.575379],[1.085436,46.576116],[1.081338,46.578048],[1.080586,46.577208],[1.078763,46.577046],[1.075372,46.576825],[1.073312,46.576898],[1.070287,46.577547],[1.068077,46.579081],[1.066532,46.583727],[1.065824,46.586691],[1.06548,46.589351],[1.065759,46.589763],[1.067068,46.590176],[1.067411,46.58969],[1.06915,46.58966],[1.072025,46.590162],[1.072969,46.590751],[1.073827,46.591105],[1.074578,46.592255],[1.074686,46.592786],[1.074986,46.593391],[1.074911,46.594326],[1.074052,46.594533],[1.073687,46.595565],[1.073709,46.596789],[1.070791,46.597821],[1.068988,46.598897],[1.069096,46.59962],[1.068988,46.600563],[1.068709,46.600976],[1.068645,46.60133],[1.063774,46.599973],[1.063002,46.599885],[1.061435,46.599207],[1.061521,46.598484],[1.061007,46.59687],[1.060062,46.595587],[1.059826,46.594526],[1.058839,46.593331],[1.058024,46.592933],[1.057015,46.593048],[1.057166,46.593685],[1.058729,46.598228],[1.057528,46.598612],[1.05579,46.59873],[1.05461,46.599334],[1.053429,46.600322],[1.051284,46.601501],[1.048172,46.602843],[1.0477,46.603167],[1.047292,46.602858],[1.04622,46.602165],[1.044267,46.600691],[1.042829,46.601103],[1.041799,46.601265],[1.041971,46.601811],[1.041971,46.602062],[1.041606,46.602165],[1.040877,46.602769],[1.038259,46.60358],[1.038602,46.604479],[1.039117,46.60504],[1.03989,46.605334],[1.039868,46.605511],[1.037744,46.606352],[1.0368,46.606897],[1.032701,46.608268],[1.031693,46.607811],[1.028302,46.605113],[1.02459,46.602165],[1.022959,46.601413],[1.021307,46.601089],[1.020513,46.600646],[1.019891,46.599437],[1.019483,46.598125],[1.018689,46.596798],[1.017466,46.596297],[1.01693,46.596356],[1.015449,46.596297],[1.013089,46.596621],[1.012295,46.596577],[1.011136,46.596194],[1.010557,46.596194],[1.0106,46.595648],[1.010428,46.594911],[1.009892,46.594528],[1.002553,46.593451],[1.002832,46.595633],[1.001609,46.595648],[0.997124,46.596253],[0.996395,46.596208],[0.995429,46.596267],[0.995515,46.59584],[0.993434,46.595604],[0.990923,46.594306],[0.990065,46.594277],[0.987511,46.594734],[0.979894,46.597226],[0.978907,46.59727],[0.975216,46.597535],[0.971912,46.59755],[0.971847,46.597948],[0.971375,46.597992],[0.97101,46.597373],[0.970517,46.597344],[0.970259,46.59758],[0.970302,46.597786],[0.967685,46.59727],[0.96453,46.596872],[0.96424,46.596822],[0.963446,46.597168],[0.96461,46.597537],[0.965876,46.598613],[0.965211,46.598864],[0.965962,46.599512],[0.964889,46.601503],[0.964653,46.603242],[0.964331,46.603773],[0.964696,46.604436],[0.96388,46.60479],[0.962636,46.605852],[0.962056,46.606073],[0.961305,46.606884],[0.957336,46.609891],[0.957121,46.610289],[0.956263,46.611306],[0.955834,46.611247],[0.955169,46.610539],[0.954246,46.611099],[0.953838,46.611777],[0.953774,46.612367],[0.953538,46.612721],[0.952947,46.612859],[0.952336,46.613134],[0.951435,46.613045],[0.950945,46.612942],[0.950124,46.613217],[0.950735,46.613678],[0.951435,46.614136],[0.951971,46.614195],[0.952486,46.61446],[0.950255,46.615905],[0.952096,46.617081],[0.952765,46.617423],[0.953817,46.619118],[0.953795,46.619884],[0.954053,46.620017],[0.95401,46.620577],[0.953495,46.621107],[0.953495,46.621608],[0.953945,46.622566],[0.953988,46.623274],[0.954286,46.624234],[0.954782,46.625499],[0.955383,46.625292],[0.956091,46.625307],[0.957014,46.625558],[0.958044,46.625292],[0.958709,46.625278],[0.95916,46.625794],[0.962465,46.624659],[0.962915,46.62681],[0.963194,46.627267],[0.963065,46.629787],[0.961949,46.632371],[0.961177,46.633417],[0.959374,46.635348],[0.958173,46.636615],[0.957658,46.638],[0.95695,46.63881],[0.956392,46.63993],[0.955984,46.640254],[0.954868,46.639679],[0.954353,46.639001],[0.954289,46.6385],[0.951778,46.636703],[0.951049,46.63632],[0.949396,46.635068],[0.946822,46.635628],[0.946543,46.635583],[0.945234,46.635834],[0.944139,46.636408],[0.94489,46.637454],[0.944182,46.637926],[0.946414,46.640622],[0.946435,46.641418],[0.946864,46.643211],[0.942637,46.642931],[0.943474,46.643358],[0.94386,46.645023],[0.943474,46.6452],[0.943367,46.645008],[0.941607,46.644655],[0.941049,46.644065],[0.94017,46.643844],[0.938753,46.644065],[0.937681,46.643565],[0.936801,46.642357],[0.935878,46.642504],[0.935299,46.642416],[0.934784,46.642062],[0.934526,46.642548],[0.933754,46.643064],[0.9309,46.644802],[0.931672,46.645377],[0.931608,46.645715],[0.931007,46.646305],[0.930728,46.64685],[0.929891,46.647321],[0.928668,46.647704],[0.928432,46.64813],[0.926995,46.649132],[0.926952,46.649544],[0.925578,46.650354],[0.925922,46.650958],[0.925364,46.651312],[0.92472,46.651503],[0.923669,46.652475],[0.922145,46.653241],[0.922338,46.653477],[0.92221,46.653742],[0.922725,46.653889],[0.923433,46.654346],[0.924334,46.654434],[0.925128,46.654258],[0.926565,46.654729],[0.928068,46.655672],[0.927939,46.656909],[0.92957,46.658764],[0.93193,46.660311],[0.931522,46.660959],[0.927767,46.661901],[0.926802,46.662004],[0.925814,46.661916],[0.923411,46.662048],[0.920107,46.662991],[0.918369,46.66277],[0.916738,46.663521],[0.915815,46.663816],[0.914463,46.664699],[0.912275,46.664684],[0.910343,46.665141],[0.909914,46.665656],[0.909635,46.665804],[0.911824,46.667954],[0.911781,46.668455],[0.912661,46.6695],[0.913498,46.671296],[0.913991,46.671944],[0.913991,46.673579],[0.913734,46.674072],[0.91339,46.674543],[0.913311,46.675127],[0.912811,46.676693],[0.912361,46.677768],[0.912575,46.678886],[0.913648,46.680476],[0.914141,46.680241],[0.914785,46.680992],[0.915472,46.682287],[0.913026,46.682626],[0.911395,46.682552],[0.9097,46.682699],[0.909421,46.682302],[0.907769,46.683023],[0.905644,46.681463],[0.904636,46.681316],[0.90367,46.68055],[0.90279,46.6803],[0.902297,46.67974],[0.902168,46.678872],[0.90116,46.678518],[0.898585,46.678621],[0.898134,46.678356],[0.895988,46.678931],[0.893821,46.679446],[0.890538,46.681669],[0.887963,46.682478],[0.886547,46.684039],[0.886397,46.684525],[0.884594,46.686968],[0.884079,46.688337],[0.88438,46.689618],[0.884616,46.69134],[0.884959,46.691502],[0.884723,46.692179],[0.884122,46.693121],[0.882084,46.694048],[0.881183,46.694327],[0.879509,46.695402],[0.879487,46.695652],[0.877063,46.697124],[0.876912,46.697874],[0.877556,46.698463],[0.878264,46.699802],[0.878436,46.700523],[0.879037,46.701288],[0.879123,46.702113],[0.879509,46.702745],[0.879144,46.704202],[0.879359,46.704496],[0.878672,46.705114],[0.878028,46.706244],[0.878736,46.706038],[0.880539,46.704935],[0.882556,46.704287],[0.883264,46.703825],[0.884187,46.703575],[0.884702,46.703354],[0.884809,46.703045],[0.885538,46.702633],[0.886053,46.702088],[0.88704,46.701691],[0.888757,46.700367],[0.889808,46.699793],[0.890581,46.699145],[0.890796,46.699219],[0.891632,46.698983],[0.893134,46.698203],[0.893564,46.69866],[0.893907,46.698365],[0.894443,46.698601],[0.896825,46.698586],[0.897426,46.698733],[0.897834,46.698586],[0.898413,46.698027],[0.901567,46.697262],[0.903327,46.697615],[0.905902,46.697865],[0.907318,46.696217],[0.908477,46.695819],[0.909507,46.695775],[0.911652,46.694907],[0.912575,46.6937],[0.913476,46.693597],[0.916716,46.692802],[0.91809,46.692346],[0.920278,46.691757],[0.921158,46.692096],[0.924184,46.69289],[0.92663,46.692508],[0.927982,46.692714],[0.927724,46.693126],[0.928089,46.694716],[0.927746,46.696025],[0.927445,46.696423],[0.928711,46.696437],[0.930428,46.697056],[0.931801,46.697262],[0.932917,46.697718],[0.932338,46.699322],[0.932681,46.701838],[0.93341,46.703119],[0.934526,46.704193],[0.934591,46.70484],[0.938324,46.707783],[0.939526,46.707415],[0.939934,46.707077],[0.940706,46.70768],[0.943624,46.708695],[0.94326,46.709622],[0.94283,46.70999],[0.942122,46.710152],[0.941285,46.711358],[0.939719,46.712403],[0.939204,46.713095],[0.938796,46.714242],[0.936586,46.715522],[0.935191,46.715684],[0.933604,46.716522],[0.93487,46.717361],[0.937702,46.719671],[0.938839,46.719612],[0.93959,46.719818],[0.940277,46.719273],[0.941479,46.719715],[0.940856,46.720362],[0.940577,46.72176],[0.941092,46.722745],[0.942101,46.72298],[0.942745,46.722995],[0.942294,46.724407],[0.942487,46.725128],[0.943281,46.725599],[0.943603,46.726555],[0.944139,46.727114],[0.944526,46.728511],[0.945212,46.728761],[0.946264,46.729673],[0.946972,46.730408],[0.947852,46.730747],[0.948924,46.731644],[0.948903,46.733159],[0.952894,46.734162],[0.95313,46.732706],[0.95268,46.732456],[0.951285,46.73],[0.949676,46.728308],[0.948152,46.727279],[0.947401,46.72619],[0.946822,46.724999],[0.946693,46.722631],[0.947698,46.72024],[0.950456,46.72028],[0.952805,46.720432],[0.952934,46.719843],[0.953299,46.719755],[0.954264,46.719225],[0.955831,46.719211],[0.956603,46.719358],[0.957762,46.719417],[0.958277,46.71924],[0.958963,46.719372],[0.959242,46.719725],[0.961277,46.720077],[0.961624,46.720064],[0.962075,46.718416],[0.962955,46.71746],[0.963663,46.716092],[0.963577,46.715592],[0.962654,46.7149],[0.963298,46.71362],[0.960916,46.712988],[0.960165,46.712958],[0.960058,46.71262],[0.960266,46.711712],[0.961055,46.709633],[0.960291,46.708281],[0.961259,46.706881],[0.963083,46.70719],[0.963727,46.704969],[0.965319,46.70441],[0.96613,46.702879],[0.967074,46.702702],[0.967911,46.702129],[0.968576,46.701834],[0.968684,46.701216],[0.968448,46.700525],[0.968426,46.69973],[0.969435,46.698008],[0.968405,46.697081],[0.967546,46.696831],[0.96804,46.696551],[0.969049,46.695491],[0.970121,46.694329],[0.97201,46.693976],[0.973876,46.693357],[0.974306,46.692886],[0.975894,46.693078],[0.976645,46.692651],[0.976988,46.692622],[0.977353,46.692725],[0.978104,46.691429],[0.978147,46.690119],[0.979112,46.68797],[0.979177,46.686808],[0.979005,46.685748],[0.979155,46.684732],[0.980507,46.684026],[0.980571,46.683731],[0.981666,46.683157],[0.984283,46.680993],[0.980013,46.678034],[0.982672,46.675472],[0.985548,46.674206],[0.986105,46.674574],[0.986985,46.675634],[0.988423,46.677784],[0.99295,46.676473],[0.996105,46.675899],[0.999903,46.676135],[1.002671,46.676974],[1.0031,46.676503],[1.002799,46.676032],[1.002156,46.675958],[1.001362,46.675649],[1.000697,46.67559],[0.999881,46.675399],[0.999238,46.675413],[0.998765,46.675089],[0.99825,46.67428],[1.001426,46.673735],[1.002692,46.673764],[1.004001,46.67319],[1.004945,46.673161],[1.005653,46.672498],[1.006576,46.672277],[1.007799,46.672469],[1.008872,46.672292],[1.009795,46.672351],[1.012134,46.673661],[1.015674,46.674059],[1.016811,46.673131],[1.020502,46.671217],[1.021275,46.670967],[1.022315,46.670264],[1.021972,46.668026],[1.022401,46.667569],[1.022251,46.667127],[1.021951,46.6667],[1.021993,46.665581],[1.0212,46.664874],[1.020599,46.663858],[1.019333,46.663225],[1.017423,46.663181],[1.017144,46.663284],[1.016758,46.663107],[1.017981,46.661944],[1.018818,46.660692],[1.01974,46.660545],[1.021135,46.660501],[1.023281,46.659735],[1.022315,46.658837],[1.024461,46.658586],[1.026542,46.655538],[1.026843,46.654624],[1.026821,46.654094],[1.029826,46.651767],[1.030169,46.651325],[1.031564,46.650677],[1.031113,46.650117],[1.032551,46.649705],[1.033688,46.64913],[1.034718,46.648394],[1.035898,46.647996],[1.036477,46.647657],[1.038516,46.647348],[1.039353,46.646774],[1.041005,46.646582],[1.042743,46.646125],[1.043752,46.646626],[1.04579,46.646936],[1.047206,46.648099],[1.048705,46.647891],[1.050382,46.647333],[1.051626,46.647319],[1.052742,46.646891],[1.050838,46.645536],[1.053241,46.644372],[1.053906,46.644225],[1.054314,46.643621],[1.055558,46.642811],[1.056224,46.642664],[1.056717,46.642443],[1.057297,46.642531],[1.057962,46.642163]]],"type":"MultiLineString"},"properties":{"geo_point":{"lon":1.2099556692328737,"lat":46.625110262797946},"name":"Tour du Pays de la Brenne (Vienne, Indre, Indre-et-Loire) (2020)","code_gr":null}}]}