{"type":"FeatureCollection","features":[{"type":"Feature","geometry":{"coordinates":[[[0.081097,49.359894],[0.081526,49.36016],[0.082878,49.360356],[0.0832,49.360593],[0.084208,49.360859],[0.084959,49.36118],[0.086376,49.361585],[0.086569,49.362508],[0.087363,49.362913],[0.087363,49.363109],[0.088564,49.363961],[0.088457,49.364408],[0.088414,49.365009],[0.088543,49.3654],[0.090624,49.365456],[0.091268,49.365582],[0.091783,49.365624],[0.092212,49.366211],[0.092276,49.367021],[0.093156,49.367371],[0.094315,49.36867],[0.095066,49.369271],[0.095967,49.370738],[0.095731,49.37099],[0.096396,49.371451],[0.097255,49.371758],[0.098306,49.372499],[0.099915,49.373183],[0.101782,49.373644],[0.10352,49.373854],[0.104765,49.373854],[0.107125,49.374189],[0.105924,49.374511],[0.104765,49.375014],[0.103155,49.376592],[0.103864,49.376914],[0.104872,49.377864],[0.103048,49.378045],[0.10249,49.377947],[0.103113,49.378492],[0.104593,49.378464],[0.105795,49.378632],[0.105945,49.379009],[0.105537,49.37961],[0.105172,49.379819],[0.105387,49.380238],[0.105215,49.380713],[0.10646,49.381412],[0.107704,49.382529],[0.110515,49.384304],[0.107941,49.38598],[0.10882,49.386455],[0.110709,49.3851],[0.111116,49.384485],[0.11176,49.384178],[0.112254,49.384276],[0.112275,49.384806],[0.112597,49.385449],[0.112575,49.386147],[0.113112,49.386552],[0.11309,49.387544],[0.113412,49.388229],[0.113691,49.388187],[0.113949,49.388578],[0.114099,49.389388],[0.114592,49.389835],[0.115386,49.389094],[0.115687,49.388592],[0.117961,49.389458],[0.118841,49.389695],[0.12148,49.390966],[0.122017,49.391441],[0.122274,49.392335],[0.122124,49.392893],[0.122532,49.393187],[0.122682,49.393662],[0.123712,49.394346],[0.123648,49.395142],[0.123776,49.396343],[0.123991,49.396874],[0.123884,49.397125],[0.12412,49.397558],[0.124098,49.397893],[0.124527,49.398647],[0.124613,49.399289],[0.125536,49.399569],[0.126115,49.399541],[0.126995,49.399834],[0.128218,49.400002],[0.128454,49.39982],[0.129184,49.397977],[0.129398,49.397055],[0.129548,49.396133],[0.130214,49.39531],[0.129894,49.394235],[0.129936,49.393858],[0.129421,49.392657],[0.129464,49.391386],[0.127984,49.389152],[0.127855,49.388132],[0.128692,49.388537],[0.129786,49.388705],[0.132533,49.3883],[0.134421,49.387783],[0.135215,49.388397],[0.135258,49.388663],[0.136245,49.389347],[0.138455,49.39147],[0.139163,49.39316],[0.139206,49.394263],[0.139743,49.396721],[0.140386,49.397727],[0.140773,49.398467],[0.140601,49.399039],[0.14073,49.399347],[0.140515,49.399751],[0.14206,49.400045],[0.143326,49.400561],[0.144034,49.400366],[0.144764,49.400352],[0.145043,49.400045],[0.145944,49.399793],[0.148047,49.399598],[0.148583,49.399249],[0.149484,49.399556],[0.150514,49.400031],[0.15133,49.397852],[0.151265,49.396763],[0.152725,49.396665],[0.154055,49.396931],[0.1559,49.397852],[0.156308,49.397657],[0.156973,49.397824],[0.158003,49.397838],[0.158947,49.397922],[0.159376,49.397517],[0.16017,49.39788],[0.160621,49.397475],[0.161479,49.396861],[0.162423,49.395003],[0.163282,49.395394],[0.165342,49.396023],[0.165792,49.39647],[0.166629,49.396735],[0.1662,49.398327],[0.166372,49.39862],[0.166178,49.399402],[0.165835,49.400156],[0.165921,49.40105],[0.167037,49.400352],[0.167573,49.400561],[0.169376,49.399989],[0.170213,49.399598],[0.171993,49.398634],[0.172787,49.397922],[0.173753,49.397894],[0.175319,49.3964],[0.177358,49.395073],[0.177379,49.395953],[0.176714,49.396707],[0.176821,49.397685],[0.175598,49.399123],[0.174418,49.400813],[0.174611,49.401399],[0.173109,49.403368],[0.171951,49.404178],[0.170363,49.406035],[0.169097,49.408325],[0.170878,49.408925],[0.171693,49.409065],[0.173517,49.409888],[0.174783,49.410586],[0.175899,49.409525],[0.177015,49.407962],[0.176779,49.407738],[0.176693,49.407068],[0.1771,49.406426],[0.177787,49.406007],[0.178281,49.40556],[0.18004,49.404932],[0.180169,49.404681],[0.180577,49.404569],[0.180641,49.404276],[0.182057,49.403466],[0.181885,49.403927],[0.182057,49.404415],[0.181757,49.404988],[0.182808,49.405937],[0.183903,49.405728],[0.183731,49.406579],[0.184139,49.407054],[0.184932,49.406831],[0.185512,49.407683],[0.187228,49.409051],[0.188924,49.409805],[0.190104,49.410237],[0.191413,49.411033],[0.192829,49.409037],[0.193344,49.407766],[0.194009,49.407082],[0.194181,49.406258],[0.195361,49.40637],[0.196241,49.406244],[0.199009,49.4063],[0.199426,49.405693],[0.199769,49.404966],[0.205412,49.405679],[0.206292,49.406474],[0.207944,49.407494],[0.213137,49.409644],[0.211914,49.415591],[0.211056,49.417392],[0.21303,49.418006],[0.214339,49.418969],[0.214682,49.419109],[0.21539,49.420714],[0.216656,49.421063],[0.218458,49.421398],[0.220068,49.422179],[0.222042,49.422473],[0.225025,49.420295],[0.225561,49.420169],[0.225658,49.419911],[0.225808,49.420107],[0.225947,49.419946],[0.22614,49.420149],[0.226248,49.420016],[0.226376,49.420128],[0.226698,49.420121],[0.226677,49.419632],[0.227149,49.419479],[0.228522,49.420414],[0.229466,49.420567],[0.230024,49.420511],[0.232234,49.420874],[0.232384,49.420791],[0.232277,49.420302],[0.23187,49.419744],[0.232406,49.419479],[0.223179,49.406649],[0.223329,49.406286],[0.223201,49.405797],[0.222664,49.404666],[0.221741,49.403438],[0.221656,49.403033],[0.221184,49.402069],[0.22054,49.40105],[0.220154,49.400086],[0.219853,49.399681],[0.219338,49.399458],[0.219574,49.398885],[0.218802,49.397642],[0.218416,49.396749],[0.219381,49.396553],[0.219918,49.396637],[0.220347,49.396455],[0.221205,49.396372],[0.22187,49.395282],[0.221935,49.394975],[0.222342,49.394808],[0.222664,49.394291],[0.223587,49.3939],[0.225218,49.393537],[0.225861,49.393215],[0.226462,49.393271],[0.226784,49.393062],[0.227084,49.39214],[0.22775,49.39112],[0.228372,49.390688],[0.22938,49.390227],[0.230668,49.389472],[0.231376,49.389319],[0.232277,49.388425],[0.232685,49.387517],[0.233178,49.38686],[0.2335,49.385617],[0.23747,49.386819],[0.238697,49.386676],[0.239619,49.386663],[0.239834,49.388353],[0.240649,49.388213],[0.241079,49.388227],[0.241787,49.387878],[0.24228,49.387193],[0.241121,49.385685],[0.242723,49.384854],[0.244418,49.383499],[0.244504,49.38248],[0.244847,49.382284],[0.245341,49.380873],[0.246692,49.380985],[0.24783,49.38044],[0.249203,49.380077],[0.249697,49.379895],[0.250834,49.379798],[0.252121,49.379378],[0.252701,49.379071],[0.254288,49.378778],[0.255125,49.380189],[0.255769,49.381572],[0.258902,49.381069],[0.260039,49.382144],[0.261477,49.382717],[0.263086,49.382983],[0.264502,49.383444],[0.265554,49.384226],[0.266197,49.385036],[0.266305,49.385776],[0.266734,49.386405],[0.26682,49.387145],[0.267893,49.386251],[0.27006,49.386125],[0.271776,49.385832],[0.271884,49.385553],[0.271261,49.384603],[0.271583,49.384156],[0.271927,49.382689],[0.271498,49.381739],[0.270918,49.380999],[0.270811,49.378862],[0.269566,49.377828],[0.268257,49.377017],[0.267742,49.376459],[0.267077,49.376179],[0.266648,49.375509],[0.265961,49.374936],[0.265125,49.373455],[0.26579,49.372672],[0.265983,49.372309],[0.268815,49.370353],[0.270274,49.370744],[0.27212,49.370563],[0.274051,49.370101],[0.274695,49.370213],[0.274609,49.370604],[0.275617,49.370618],[0.276454,49.370772],[0.276926,49.371177],[0.27757,49.371331],[0.277527,49.369473],[0.27772,49.366594],[0.278064,49.366035],[0.278192,49.365099],[0.281518,49.365001],[0.284587,49.364358],[0.285509,49.364736],[0.286325,49.365434],[0.287355,49.365868],[0.288235,49.366315],[0.290101,49.366594],[0.290638,49.367475],[0.29038,49.367964],[0.290938,49.369221],[0.293749,49.369054],[0.293492,49.367558],[0.293878,49.366021],[0.293899,49.365379],[0.294328,49.364568],[0.29405,49.363953],[0.294371,49.363604],[0.294929,49.36352],[0.295745,49.36373],[0.296388,49.363492],[0.296796,49.364917],[0.297311,49.36556],[0.297976,49.365965],[0.298599,49.366622],[0.299564,49.366916],[0.300315,49.36686],[0.300809,49.366566],[0.30171,49.364456],[0.301731,49.363716],[0.301925,49.36331],[0.302547,49.363087],[0.302568,49.362807],[0.30289,49.362514],[0.302997,49.361843],[0.305186,49.358475],[0.304714,49.358307],[0.30525,49.357832],[0.305358,49.357161],[0.3051,49.356658],[0.304693,49.356351],[0.304972,49.356141],[0.30568,49.356127],[0.306431,49.355093],[0.307182,49.354785],[0.308877,49.352465],[0.31055,49.350802],[0.311065,49.350103],[0.310937,49.349823],[0.311023,49.349376],[0.310829,49.349068],[0.310958,49.348775],[0.311559,49.348719],[0.312482,49.34767],[0.312975,49.347195],[0.313791,49.346706],[0.31437,49.345867],[0.314821,49.344581],[0.314692,49.343043],[0.31422,49.34219],[0.312739,49.340792],[0.311816,49.340163],[0.310915,49.339226],[0.310036,49.337758],[0.309177,49.337325],[0.309156,49.336933],[0.309048,49.336654],[0.308598,49.336458],[0.307997,49.335969],[0.308083,49.335381],[0.30877,49.335535],[0.309134,49.335507],[0.309671,49.335647],[0.30922,49.335311],[0.308276,49.334123],[0.308061,49.333368],[0.307804,49.33299],[0.307933,49.332249],[0.308791,49.331997],[0.310958,49.330809],[0.306345,49.329578],[0.307074,49.328669],[0.306924,49.326502],[0.305916,49.324558],[0.303727,49.324656],[0.302568,49.325439],[0.302225,49.325439],[0.302547,49.324865],[0.302547,49.321411],[0.303083,49.32067],[0.304049,49.320166],[0.303126,49.318516],[0.302397,49.317564],[0.30259,49.316809],[0.30201,49.31576],[0.30186,49.313144],[0.302311,49.311675],[0.30377,49.310976],[0.303899,49.310514],[0.303598,49.310234],[0.302461,49.309787],[0.302182,49.309507],[0.304585,49.308891],[0.30422,49.308108],[0.305744,49.306583],[0.305894,49.306037],[0.305658,49.30545],[0.304714,49.304302],[0.304585,49.303309],[0.306817,49.303379],[0.307482,49.303155],[0.309349,49.303827],[0.310556,49.303229],[0.309869,49.302333],[0.30944,49.302068],[0.309268,49.301704],[0.308453,49.30113],[0.307316,49.299759],[0.306329,49.299745],[0.306243,49.299101],[0.305599,49.298248],[0.303754,49.297884],[0.302895,49.297044],[0.302488,49.296428],[0.301544,49.295827],[0.3009,49.295407],[0.299655,49.295029],[0.299183,49.294749],[0.299784,49.29405],[0.300127,49.293476],[0.301372,49.29342],[0.301908,49.293196],[0.301887,49.291964],[0.302724,49.291447],[0.304076,49.290985],[0.305578,49.290649],[0.305942,49.290383],[0.306114,49.290075],[0.30929,49.290873],[0.314933,49.290649],[0.315899,49.290901],[0.317079,49.289963],[0.31871,49.288885],[0.319675,49.288424],[0.318774,49.287528],[0.318667,49.28694],[0.318173,49.286198],[0.318495,49.284715],[0.319847,49.284449],[0.320426,49.284155],[0.322379,49.283791],[0.323323,49.283945],[0.325619,49.283315],[0.325619,49.282979],[0.328194,49.282979],[0.328709,49.282713],[0.329181,49.282223],[0.330361,49.281663],[0.333194,49.280599],[0.336455,49.279241],[0.340296,49.278458],[0.340146,49.277856],[0.34036,49.277352],[0.339996,49.275658],[0.341219,49.275588],[0.342807,49.276568],[0.344909,49.276736],[0.346411,49.276414],[0.34727,49.276344],[0.3486,49.27591],[0.348965,49.276148],[0.351669,49.275504],[0.353814,49.27605],[0.355188,49.275854],[0.356861,49.275854],[0.357527,49.276022],[0.358321,49.276036],[0.358835,49.276218],[0.360166,49.27808],[0.361046,49.278821],[0.362312,49.279619],[0.362998,49.279815],[0.363642,49.279157],[0.363685,49.278709],[0.364114,49.278248],[0.36671,49.278919],[0.368384,49.279199],[0.369393,49.279129],[0.370122,49.279283],[0.371689,49.279101],[0.374328,49.279185],[0.374628,49.278052],[0.375444,49.277016],[0.375465,49.275616],[0.376066,49.27451],[0.376881,49.274636],[0.379456,49.274412],[0.379971,49.27353],[0.379714,49.273152],[0.380443,49.271696],[0.381409,49.271066],[0.382224,49.269358],[0.382997,49.26891],[0.383405,49.266781],[0.383748,49.266571],[0.384907,49.266333],[0.38555,49.265927],[0.386065,49.266305],[0.387031,49.266165],[0.387653,49.266221],[0.388039,49.265787],[0.389434,49.265521],[0.390228,49.265591],[0.389735,49.264009],[0.389499,49.263687],[0.389391,49.263435],[0.38864,49.263071],[0.38819,49.263253],[0.387653,49.263239],[0.386215,49.262833],[0.384542,49.262665],[0.385357,49.261096],[0.385958,49.260438],[0.387052,49.259962],[0.384628,49.257049],[0.386645,49.256545],[0.387996,49.256027],[0.389069,49.255102],[0.38937,49.253674],[0.390035,49.251895],[0.389627,49.251335],[0.389584,49.25069],[0.384499,49.24992],[0.381709,49.249304],[0.380722,49.24936],[0.380207,49.24922],[0.379199,49.248099],[0.378791,49.248057],[0.378298,49.248617],[0.377911,49.248743],[0.378062,49.248295],[0.377911,49.248113],[0.377246,49.248211],[0.373384,49.243519],[0.372483,49.244177],[0.372139,49.245116],[0.370766,49.24527],[0.370036,49.245578],[0.369543,49.24611],[0.3695,49.247049],[0.368406,49.247679],[0.367655,49.247819],[0.366775,49.247693],[0.366238,49.247763],[0.365874,49.247931],[0.365101,49.247903],[0.364436,49.247637],[0.362397,49.246026],[0.362033,49.246082],[0.360659,49.245634],[0.359694,49.244863],[0.360359,49.244317],[0.361432,49.243897],[0.36287,49.243883],[0.364264,49.244219],[0.365144,49.244079],[0.366389,49.244121],[0.36817,49.243925],[0.366775,49.243519],[0.367333,49.242818],[0.367419,49.242216],[0.368727,49.241333],[0.370487,49.239988],[0.370079,49.239666],[0.370895,49.23947],[0.370551,49.236738],[0.369135,49.234328],[0.368706,49.234118],[0.369242,49.233614],[0.369757,49.233319],[0.370036,49.232941],[0.370852,49.232451],[0.370916,49.2321],[0.37141,49.23175],[0.371517,49.231442],[0.372011,49.231091],[0.372161,49.230797],[0.372912,49.231133],[0.374843,49.231722],[0.376238,49.231694],[0.37716,49.232437],[0.377911,49.232352],[0.378426,49.232437],[0.378813,49.232338],[0.377847,49.23126],[0.376817,49.230531],[0.375894,49.229396],[0.375701,49.229466],[0.375229,49.229382],[0.374671,49.229536],[0.373791,49.228905],[0.373105,49.228639],[0.37259,49.228303],[0.372011,49.228387],[0.370787,49.227056],[0.370659,49.226593],[0.370787,49.226019],[0.37053,49.22515],[0.370852,49.224575],[0.370787,49.223931],[0.37023,49.222908],[0.369457,49.222067],[0.36847,49.221815],[0.367483,49.221114],[0.365831,49.221296],[0.364007,49.221226],[0.362247,49.221422],[0.362269,49.220637],[0.362376,49.220077],[0.361754,49.219824],[0.361325,49.220021],[0.360767,49.219852],[0.360037,49.219796],[0.359415,49.21946],[0.358814,49.219558],[0.358471,49.219292],[0.358685,49.219082],[0.358471,49.218437],[0.357763,49.218002],[0.357119,49.21747],[0.35787,49.216656],[0.358084,49.215871],[0.358106,49.214974],[0.357956,49.214274],[0.358149,49.21339],[0.358835,49.212101],[0.3589,49.211442],[0.358063,49.208372],[0.358516,49.208064],[0.357379,49.207279],[0.356113,49.205975],[0.356006,49.205303],[0.357057,49.204545],[0.357057,49.204307],[0.357829,49.204013],[0.35622,49.202877],[0.355512,49.203284],[0.354074,49.202471],[0.353903,49.202008],[0.353087,49.201699],[0.355218,49.198469],[0.356828,49.196492],[0.357321,49.194903],[0.356463,49.194805],[0.355111,49.1943],[0.353952,49.193697],[0.350433,49.192771],[0.348802,49.192491],[0.347622,49.192224],[0.345777,49.192196],[0.341035,49.191033],[0.338181,49.189869],[0.33758,49.189027],[0.337301,49.188382],[0.336529,49.187653],[0.335906,49.186391],[0.334597,49.185914],[0.334104,49.184792],[0.333954,49.183768],[0.329877,49.183908],[0.327216,49.18374],[0.325135,49.184034],[0.322882,49.184189],[0.322946,49.183964],[0.321916,49.18367],[0.321315,49.183417],[0.31859,49.181608],[0.315929,49.179083],[0.314814,49.177288],[0.315007,49.176628],[0.314427,49.176404],[0.313784,49.175899],[0.31314,49.175632],[0.312796,49.175338],[0.311316,49.175254],[0.311395,49.174681],[0.311824,49.174162],[0.311781,49.173643],[0.312188,49.171777],[0.314613,49.171777],[0.316072,49.171482],[0.3156,49.17137],[0.314849,49.170248],[0.314377,49.170135],[0.314334,49.169616],[0.314484,49.168775],[0.314914,49.168732],[0.314935,49.167891],[0.315257,49.167961],[0.31515,49.167568],[0.316051,49.167484],[0.316094,49.166726],[0.316802,49.165491],[0.316823,49.164762],[0.316437,49.163597],[0.316759,49.163008],[0.316716,49.162264],[0.317016,49.161493],[0.317875,49.161142],[0.318411,49.161072],[0.318454,49.160735],[0.318712,49.160075],[0.318411,49.159416],[0.318347,49.158139],[0.317682,49.15588],[0.317381,49.155501],[0.317796,49.154972],[0.31786,49.153863],[0.316551,49.154144],[0.316208,49.153835],[0.314363,49.153583],[0.314148,49.153049],[0.313633,49.152698],[0.313397,49.152137],[0.312968,49.152011],[0.311745,49.150958],[0.310693,49.150649],[0.309213,49.15006],[0.307775,49.149906],[0.306788,49.149934],[0.30593,49.149849],[0.304149,49.149176],[0.300716,49.148081],[0.297969,49.14679],[0.297669,49.143926],[0.298484,49.143281],[0.298312,49.14293],[0.297712,49.142874],[0.297304,49.14227],[0.29739,49.141947],[0.296918,49.14168],[0.297497,49.139406],[0.294386,49.137834],[0.292626,49.136725],[0.292025,49.136079],[0.291854,49.135518],[0.29136,49.134956],[0.290738,49.133524],[0.29106,49.133229],[0.292304,49.133159],[0.292326,49.132583],[0.292497,49.132134],[0.292283,49.131657],[0.29091,49.130376],[0.291532,49.129772],[0.290888,49.128691],[0.290974,49.127511],[0.291725,49.126936],[0.289021,49.126346],[0.292176,49.125616],[0.291897,49.124942],[0.289751,49.125517],[0.289129,49.125545],[0.288571,49.125742],[0.287369,49.124998],[0.286811,49.124464],[0.285738,49.123762],[0.284987,49.122962],[0.283077,49.12188],[0.281854,49.121951],[0.280696,49.122232],[0.278528,49.123692],[0.275846,49.123341],[0.274344,49.122779],[0.272778,49.122821],[0.272585,49.122428],[0.271598,49.121754],[0.27104,49.120869],[0.271705,49.120378],[0.272349,49.11976],[0.273507,49.118566],[0.274709,49.117625],[0.275224,49.116937],[0.274387,49.116516],[0.273808,49.115898],[0.273228,49.113454],[0.273593,49.112948],[0.273765,49.111783],[0.273636,49.110083],[0.272027,49.105827],[0.263851,49.102427],[0.263996,49.098995],[0.264446,49.097815],[0.266506,49.09627],[0.269188,49.096241],[0.272064,49.096101],[0.272662,49.09467],[0.273885,49.093503],[0.275387,49.092562],[0.278155,49.092014],[0.280601,49.089274],[0.28324,49.089639],[0.284185,49.089597],[0.286416,49.091368],[0.289291,49.092421],[0.290171,49.091902],[0.29103,49.091649],[0.291308,49.091873],[0.292145,49.091845],[0.29266,49.09245],[0.293883,49.092773],[0.294506,49.093756],[0.295385,49.093686],[0.296415,49.093897],[0.297295,49.094838],[0.297875,49.094838],[0.29869,49.094009],[0.299248,49.09363],[0.299999,49.092885],[0.300814,49.092421],[0.302016,49.091072],[0.302531,49.090286],[0.303453,49.0894],[0.304183,49.087925],[0.304162,49.087602],[0.304269,49.087208],[0.302939,49.086604],[0.300921,49.085957],[0.300986,49.085662],[0.301479,49.085466],[0.301973,49.08465],[0.298835,49.08318],[0.299372,49.082983],[0.300767,49.081648],[0.300874,49.080931],[0.30141,49.080622],[0.301282,49.080453],[0.300595,49.080622],[0.300445,49.080355],[0.301882,49.078781],[0.302097,49.078022],[0.302698,49.077881],[0.30405,49.078022],[0.304929,49.076925],[0.3045,49.076476],[0.305037,49.07559],[0.305552,49.075323],[0.305874,49.074859],[0.307848,49.073257],[0.309221,49.072905],[0.311281,49.071963],[0.312461,49.070867],[0.313126,49.070853],[0.31465,49.071851],[0.315143,49.071387],[0.315916,49.071443],[0.317246,49.071092],[0.318019,49.071022],[0.317976,49.070783],[0.317311,49.070473],[0.317822,49.070064],[0.31853,49.069881],[0.319625,49.069066],[0.319904,49.068644],[0.319453,49.068349],[0.32059,49.067379],[0.320998,49.066971],[0.321363,49.066746],[0.321084,49.066451],[0.321985,49.066114],[0.32323,49.065256],[0.322993,49.064806],[0.323058,49.064216],[0.323487,49.063892],[0.323573,49.063625],[0.323444,49.063189],[0.323637,49.062739],[0.323144,49.06191],[0.323852,49.061671],[0.324174,49.060729],[0.325289,49.059365],[0.326684,49.056693],[0.32677,49.056103],[0.327135,49.055611],[0.326277,49.054739],[0.326684,49.054584],[0.327886,49.054429],[0.32883,49.053909],[0.32913,49.053332],[0.330032,49.053586],[0.329452,49.053164],[0.329302,49.049507],[0.329667,49.049507],[0.330868,49.050393],[0.331233,49.050393],[0.331405,49.049859],[0.331963,49.049986],[0.333122,49.049718],[0.333787,49.050056],[0.334087,49.050548],[0.335611,49.04886],[0.336726,49.048382],[0.352541,49.043952],[0.354236,49.044008],[0.356553,49.044922],[0.359064,49.045147],[0.362004,49.04398],[0.362261,49.0436],[0.361982,49.043122],[0.361424,49.042869],[0.360909,49.042194],[0.360137,49.039141],[0.358334,49.037327],[0.363098,49.036328],[0.364171,49.036511],[0.36533,49.036493],[0.367347,49.036339],[0.369407,49.036367],[0.370373,49.035044],[0.370738,49.03541],[0.371939,49.036099],[0.373141,49.036662],[0.373978,49.037084],[0.375265,49.037886],[0.376381,49.037956],[0.376874,49.038238],[0.377969,49.038449],[0.378248,49.038758],[0.37872,49.038885],[0.380072,49.038871],[0.382153,49.039391],[0.383848,49.040544],[0.384621,49.041473],[0.384921,49.042064],[0.385594,49.041852],[0.387246,49.04181],[0.388319,49.042232],[0.38922,49.042907],[0.390014,49.043118],[0.390937,49.043047],[0.392031,49.042471],[0.392739,49.042288],[0.394005,49.042119],[0.395078,49.041824],[0.397202,49.04143],[0.398898,49.041669],[0.400915,49.041388],[0.401558,49.041135],[0.404005,49.040881],[0.404927,49.040797],[0.40585,49.040839],[0.406279,49.040431],[0.40615,49.039686],[0.406494,49.03887],[0.407223,49.038462],[0.408854,49.038406],[0.409669,49.037984],[0.410463,49.036886],[0.410356,49.03638],[0.410485,49.036113],[0.410013,49.035227],[0.407738,49.024689],[0.406901,49.024576],[0.405442,49.023493],[0.40585,49.023282],[0.406622,49.022269],[0.407845,49.020172],[0.408768,49.019145],[0.409219,49.018821],[0.409433,49.018399],[0.408167,49.018202],[0.406322,49.017653],[0.404734,49.017034],[0.40482,49.016316],[0.40364,49.01443],[0.403404,49.013839],[0.401902,49.013051],[0.400872,49.012333],[0.400614,49.011644],[0.400249,49.011165],[0.399284,49.009012],[0.398404,49.008604],[0.398468,49.008407],[0.397846,49.007295],[0.39673,49.006506],[0.396645,49.004648],[0.396988,49.004522],[0.39746,49.004071],[0.398318,49.003832],[0.398919,49.003058],[0.399155,49.001101],[0.397632,48.998286],[0.395765,48.996864],[0.393125,48.996286],[0.393812,48.99592],[0.395636,48.995442],[0.397503,48.994752],[0.398404,48.994203],[0.400249,48.993794],[0.402266,48.99364],[0.40364,48.993555],[0.404412,48.99302],[0.404198,48.992063],[0.403919,48.991542],[0.403919,48.990627],[0.403017,48.990218],[0.402288,48.989613],[0.398404,48.985163],[0.397074,48.984107],[0.396773,48.983375],[0.395979,48.98222],[0.395593,48.980671],[0.395657,48.979544],[0.3951,48.978741],[0.394276,48.978346],[0.388976,48.976347],[0.388311,48.975699],[0.386745,48.974896],[0.382818,48.977354],[0.376488,48.971635],[0.372669,48.973931],[0.372154,48.974452],[0.371531,48.974748],[0.371145,48.975171],[0.366188,48.976861],[0.362605,48.976973],[0.362562,48.977311],[0.363227,48.978424],[0.363399,48.979255],[0.364622,48.980255],[0.362047,48.9801],[0.358914,48.979607],[0.358743,48.979142],[0.357777,48.978424],[0.357047,48.977635],[0.356039,48.976987],[0.355116,48.976663],[0.352327,48.97534],[0.35179,48.974973],[0.350117,48.975537],[0.349366,48.975565],[0.349773,48.975945],[0.349408,48.977368],[0.348679,48.981536],[0.348014,48.982902],[0.346104,48.985268],[0.342413,48.984902],[0.341083,48.984958],[0.339924,48.984817],[0.339195,48.984395],[0.337843,48.984395],[0.334753,48.984085],[0.334131,48.985071],[0.330869,48.984296],[0.329238,48.983592],[0.328487,48.98348],[0.328702,48.984353],[0.326363,48.987085],[0.323359,48.98586],[0.321921,48.985085],[0.321385,48.985001],[0.320312,48.984494],[0.319218,48.98393],[0.318617,48.983747],[0.315634,48.984465],[0.314947,48.984437],[0.313746,48.984606],[0.311686,48.985184],[0.311214,48.987577],[0.309733,48.987535],[0.30939,48.987423],[0.308811,48.987366],[0.308789,48.987014],[0.307781,48.986944],[0.307266,48.987169],[0.306794,48.98693],[0.306901,48.986493],[0.307201,48.986338],[0.307072,48.986029],[0.306279,48.985592],[0.305377,48.985507],[0.304498,48.985536],[0.303425,48.985141],[0.301021,48.98462],[0.300978,48.983184],[0.300764,48.982607],[0.300975,48.981612],[0.300696,48.979894],[0.300761,48.978739],[0.299645,48.978471],[0.298164,48.977894],[0.295654,48.97726],[0.294152,48.976669],[0.292306,48.976246],[0.290182,48.97526],[0.28883,48.975133],[0.287521,48.975387],[0.286749,48.975894],[0.285955,48.975612],[0.28574,48.975246],[0.284517,48.974697],[0.282586,48.974584],[0.28162,48.974218],[0.281406,48.973697],[0.280955,48.97357],[0.280376,48.973964],[0.278767,48.974598],[0.277179,48.974936],[0.275011,48.974697],[0.272909,48.974655],[0.26954,48.975218],[0.26896,48.974739],[0.268124,48.974711],[0.267265,48.974556],[0.267287,48.975767],[0.267029,48.976486],[0.266493,48.976373],[0.265613,48.97588],[0.263596,48.975288],[0.262888,48.975021],[0.261987,48.974894],[0.261236,48.974641],[0.261794,48.974373],[0.261901,48.973824],[0.261064,48.973584],[0.260635,48.973387],[0.259991,48.97319],[0.259262,48.972753],[0.25894,48.972133],[0.258511,48.971725],[0.258661,48.971302],[0.258532,48.970978],[0.258425,48.969513],[0.257502,48.969767],[0.256644,48.969697],[0.256086,48.969513],[0.253275,48.966781],[0.251043,48.96402],[0.249048,48.963414],[0.241237,48.965865],[0.2371,48.973784],[0.237315,48.975432],[0.2368,48.975841],[0.236371,48.976573],[0.235577,48.977291],[0.234826,48.977517],[0.232916,48.979671],[0.230813,48.981192],[0.229161,48.982037],[0.227359,48.981812],[0.227015,48.981587],[0.224869,48.981235],[0.223432,48.981094],[0.223003,48.980291],[0.223131,48.979376],[0.222831,48.978319],[0.221951,48.977503],[0.222187,48.977108],[0.22223,48.976601],[0.222616,48.975615],[0.221959,48.973956],[0.221938,48.973125],[0.222367,48.972096],[0.219749,48.970237],[0.21829,48.969702],[0.215908,48.969124],[0.215093,48.969054],[0.213505,48.969293],[0.212776,48.969082],[0.212325,48.96873],[0.210909,48.968293],[0.208806,48.968265],[0.205373,48.96873],[0.20342,48.96904],[0.201768,48.969617],[0.200738,48.970913],[0.200201,48.971519],[0.198871,48.972477],[0.197884,48.973237],[0.197369,48.973294],[0.195695,48.973843],[0.194215,48.973772],[0.194236,48.973251],[0.190567,48.972646],[0.185095,48.97235],[0.184451,48.972392],[0.182735,48.972293],[0.181598,48.972251],[0.179666,48.972364],[0.178422,48.972322],[0.177048,48.972448],[0.174066,48.973829],[0.173529,48.973787],[0.172199,48.973265],[0.170869,48.973125],[0.168573,48.973181],[0.167865,48.97335],[0.16544,48.971054],[0.16235,48.97273],[0.158101,48.969575],[0.153595,48.969603],[0.147651,48.971617],[0.143725,48.972322],[0.142738,48.973153],[0.142115,48.973125],[0.142266,48.973533],[0.14145,48.974139],[0.140742,48.974378],[0.139991,48.975012],[0.139304,48.97535],[0.138017,48.976702],[0.136751,48.977012],[0.136451,48.977871],[0.134198,48.977744],[0.133597,48.977505],[0.131387,48.977406],[0.129091,48.977463],[0.125829,48.97666],[0.123447,48.976533],[0.11995,48.975519],[0.11789,48.975279],[0.116366,48.975012],[0.112246,48.974716],[0.110101,48.974688],[0.109071,48.974449],[0.106818,48.973618],[0.104822,48.973026],[0.102633,48.971758],[0.101517,48.971829],[0.095037,48.973477],[0.094887,48.973871],[0.092655,48.974336],[0.091561,48.97397],[0.090746,48.973801],[0.090016,48.973772],[0.089351,48.973547],[0.088493,48.973618],[0.087913,48.972477],[0.086304,48.970519],[0.085574,48.969434],[0.084738,48.96887],[0.082012,48.967786],[0.080231,48.966588],[0.075468,48.966842],[0.074738,48.967645],[0.073623,48.967786],[0.07255,48.967673],[0.070597,48.967913],[0.068623,48.967913],[0.067464,48.969645],[0.067743,48.970209],[0.06637,48.970378],[0.065705,48.97073],[0.065254,48.971181],[0.060383,48.972758],[0.05946,48.97349],[0.058452,48.973786],[0.057422,48.97366],[0.056435,48.973617],[0.055512,48.973476],[0.054418,48.973476],[0.052701,48.973307],[0.051307,48.97373],[0.050792,48.974167],[0.049955,48.974223],[0.048517,48.974448],[0.047659,48.975744],[0.047787,48.976209],[0.047144,48.978674],[0.048174,48.979265],[0.048925,48.979969],[0.049526,48.981251],[0.049783,48.982391],[0.050448,48.982729],[0.050556,48.984236],[0.050813,48.985771],[0.050706,48.986982],[0.050362,48.987531],[0.048624,48.988461],[0.048817,48.989052],[0.050706,48.991234],[0.05165,48.993149],[0.053817,48.995698],[0.054954,48.996838],[0.055898,48.997654],[0.056993,48.998795],[0.058023,48.999161],[0.058667,48.99909],[0.058559,49.000005],[0.059053,49.000752],[0.060319,49.001554],[0.060962,49.002385],[0.061928,49.00337],[0.062486,49.003834],[0.062765,49.004383],[0.062271,49.004763],[0.06255,49.005129],[0.062121,49.006298],[0.061456,49.007367],[0.061649,49.008761],[0.061542,49.009591],[0.061585,49.010591],[0.06137,49.011365],[0.062443,49.013729],[0.062121,49.014447],[0.062572,49.016305],[0.063087,49.01736],[0.062379,49.017459],[0.062786,49.018106],[0.063258,49.018514],[0.063623,49.019358],[0.064718,49.019077],[0.06461,49.019485],[0.063752,49.01971],[0.063022,49.021019],[0.063323,49.021159],[0.064718,49.020991],[0.065941,49.021117],[0.066091,49.021385],[0.0677,49.021976],[0.066563,49.023664],[0.066541,49.024213],[0.066241,49.025057],[0.066413,49.025789],[0.066198,49.026155],[0.065361,49.026675],[0.062143,49.029222],[0.059482,49.030418],[0.05783,49.030755],[0.056843,49.031417],[0.052208,49.035778],[0.051671,49.036833],[0.054182,49.036523],[0.056328,49.036931],[0.058194,49.037128],[0.057808,49.038211],[0.057658,49.040026],[0.056821,49.040926],[0.056714,49.041503],[0.060104,49.042276],[0.061199,49.04222],[0.064675,49.042811],[0.064567,49.043345],[0.065039,49.044105],[0.066413,49.045103],[0.067464,49.045483],[0.068795,49.045722],[0.070726,49.046468],[0.071863,49.046679],[0.073601,49.047523],[0.076927,49.048254],[0.077914,49.04966],[0.083514,49.052571],[0.083472,49.053092],[0.084609,49.05402],[0.084695,49.054624],[0.084609,49.055271],[0.085167,49.056227],[0.083965,49.056804],[0.085017,49.057985],[0.084502,49.058224],[0.085596,49.060038],[0.073859,49.066365],[0.073623,49.066309],[0.067164,49.07016],[0.067807,49.070891],[0.067786,49.071735],[0.068988,49.07338],[0.069696,49.07456],[0.069867,49.074687],[0.06682,49.076866],[0.062443,49.078201],[0.055791,49.079564],[0.053774,49.079817],[0.053302,49.080014],[0.053345,49.080506],[0.053603,49.080815],[0.053388,49.081883],[0.049847,49.080787],[0.048388,49.081124],[0.0465,49.081307],[0.044977,49.08118],[0.044848,49.082052],[0.043238,49.082052],[0.039591,49.082488],[0.037488,49.083022],[0.038024,49.083977],[0.039483,49.086633],[0.040535,49.087308],[0.042392,49.087974],[0.043251,49.088621],[0.044045,49.089352],[0.045568,49.089394],[0.044238,49.090602],[0.043401,49.091066],[0.0428,49.091375],[0.042564,49.092345],[0.041727,49.092766],[0.041083,49.092991],[0.041041,49.093202],[0.042521,49.094171],[0.041384,49.094607],[0.040204,49.094803],[0.039474,49.095239],[0.038809,49.095801],[0.037607,49.096082],[0.037028,49.096461],[0.036878,49.097009],[0.037371,49.097571],[0.038358,49.097993],[0.039581,49.099145],[0.039581,49.099833],[0.039174,49.101309],[0.039388,49.101885],[0.040483,49.102938],[0.041277,49.103458],[0.041641,49.103936],[0.042543,49.104217],[0.043015,49.10461],[0.043058,49.105088],[0.044903,49.105439],[0.046233,49.105888],[0.047177,49.105776],[0.048336,49.105298],[0.049645,49.105397],[0.052756,49.105832],[0.054816,49.106591],[0.056168,49.106717],[0.057778,49.107195],[0.058979,49.107939],[0.060245,49.108403],[0.061854,49.108796],[0.063249,49.109723],[0.064236,49.11058],[0.06606,49.111813],[0.066489,49.112515],[0.06488,49.112908],[0.063914,49.113316],[0.063206,49.113133],[0.062455,49.113147],[0.060438,49.112642],[0.05855,49.111995],[0.057391,49.111405],[0.056833,49.111096],[0.055932,49.11142],[0.056297,49.112698],[0.05634,49.113597],[0.054366,49.115633],[0.053765,49.115816],[0.053014,49.116939],[0.051383,49.117501],[0.050332,49.117571],[0.048336,49.117571],[0.047542,49.117515],[0.045246,49.117571],[0.043894,49.117459],[0.043744,49.118161],[0.041105,49.118582],[0.041598,49.119313],[0.042071,49.12163],[0.042822,49.121897],[0.043573,49.122304],[0.043401,49.122641],[0.0428,49.122978],[0.043251,49.123722],[0.043809,49.126314],[0.044281,49.126735],[0.044774,49.127676],[0.044517,49.128504],[0.044088,49.129038],[0.043487,49.129164],[0.042135,49.130175],[0.041985,49.13061],[0.041384,49.131088],[0.040568,49.131214],[0.039925,49.131846],[0.039152,49.131705],[0.037865,49.131762],[0.035934,49.131748],[0.03559,49.132014],[0.035032,49.132099],[0.035376,49.132688],[0.035633,49.134345],[0.03456,49.134738],[0.033573,49.134921],[0.03147,49.13603],[0.030934,49.136072],[0.025527,49.135229],[0.024583,49.135244],[0.022952,49.135496],[0.021729,49.135496],[0.020141,49.136044],[0.018982,49.136802],[0.018145,49.138122],[0.017738,49.139399],[0.01527,49.140971],[0.016579,49.140901],[0.019604,49.141477],[0.022201,49.141561],[0.023402,49.141322],[0.024411,49.141322],[0.026192,49.14121],[0.027351,49.141266],[0.027844,49.141435],[0.02793,49.14201],[0.027737,49.143175],[0.027029,49.143905],[0.026428,49.144874],[0.026256,49.146656],[0.02557,49.147344],[0.02499,49.147793],[0.024368,49.148102],[0.022394,49.150783],[0.021452,49.151695],[0.020422,49.152467],[0.019864,49.153112],[0.017955,49.154039],[0.015873,49.155596],[0.014629,49.15693],[0.013684,49.158487],[0.013556,49.159034],[0.013792,49.159961],[0.013577,49.161266],[0.013663,49.161855],[0.013341,49.162781],[0.012933,49.163356],[0.012547,49.164128],[0.011839,49.164661],[0.011582,49.165419],[0.011989,49.16706],[0.011775,49.168183],[0.011989,49.169319],[0.01053,49.170021],[0.010101,49.170385],[0.008449,49.171129],[0.008191,49.171536],[0.007483,49.171845],[0.007097,49.172209],[0.006561,49.17242],[0.005595,49.173303],[0.004629,49.17371],[0.003728,49.173612],[0.001475,49.175029],[0.000853,49.175366],[0.00066,49.175829],[-0.000585,49.177021],[-0.001615,49.177568],[-0.002516,49.179812],[-0.002731,49.180654],[-0.00537,49.181084],[-0.008074,49.180916],[-0.009211,49.180734],[-0.012515,49.180776],[-0.014747,49.180439],[-0.018137,49.180159],[-0.021463,49.179962],[-0.024017,49.180215],[-0.02524,49.180131],[-0.026849,49.180215],[-0.028072,49.180145],[-0.030325,49.180285],[-0.032299,49.180089],[-0.035389,49.180004],[-0.036569,49.17971],[-0.038307,49.17891],[-0.039058,49.178686],[-0.040046,49.178279],[-0.040797,49.178237],[-0.041676,49.177746],[-0.042513,49.178363],[-0.044766,49.184998],[-0.045067,49.186484],[-0.045818,49.187536],[-0.045946,49.188546],[-0.046182,49.189514],[-0.046354,49.191519],[-0.046654,49.192178],[-0.04571,49.192038],[-0.044337,49.192599],[-0.043479,49.193272],[-0.043114,49.193847],[-0.042685,49.195333],[-0.042041,49.196188],[-0.041204,49.196679],[-0.040904,49.197703],[-0.039809,49.199147],[-0.039294,49.199596],[-0.038994,49.200381],[-0.037835,49.200605],[-0.037664,49.20104],[-0.037535,49.201993],[-0.036526,49.202933],[-0.035797,49.203942],[-0.035196,49.204433],[-0.034381,49.204951],[-0.033587,49.205947],[-0.033243,49.206844],[-0.032321,49.206732],[-0.032321,49.20826],[-0.032643,49.208414],[-0.032986,49.20955],[-0.034123,49.210026],[-0.036076,49.210363],[-0.039316,49.20976],[-0.041762,49.218899],[-0.045517,49.21953],[-0.044959,49.221127],[-0.046161,49.221758],[-0.046612,49.221912],[-0.047513,49.222613],[-0.047513,49.223762],[-0.047169,49.22428],[-0.047534,49.225906],[-0.048199,49.226495],[-0.048736,49.226817],[-0.049058,49.227434],[-0.048371,49.227139],[-0.044573,49.226845],[-0.0432,49.226971],[-0.042513,49.227363],[-0.042105,49.226817],[-0.041204,49.226411],[-0.039252,49.225233],[-0.038586,49.225696],[-0.037127,49.225976],[-0.036183,49.226397],[-0.035454,49.226383],[-0.034424,49.226158],[-0.033029,49.226186],[-0.032449,49.226018],[-0.030947,49.225836],[-0.029917,49.225247],[-0.029274,49.22564],[-0.028587,49.22571],[-0.027622,49.225472],[-0.024296,49.226719],[-0.021742,49.227658],[-0.021463,49.228008],[-0.019725,49.227882],[-0.01788,49.22805],[-0.016592,49.228316],[-0.01612,49.228653],[-0.014404,49.227798],[-0.013159,49.228793],[-0.011249,49.228372],[-0.009683,49.228204],[-0.008503,49.227714],[-0.007494,49.226887],[-0.006829,49.226439],[-0.005692,49.225584],[-0.00537,49.225724],[-0.004769,49.225598],[-0.003868,49.225416],[-0.003074,49.224351],[-0.003331,49.223874],[-0.001851,49.223538],[0.000188,49.223524],[0.002162,49.223888],[0.003943,49.224715],[0.006475,49.223944],[0.008084,49.222963],[0.007934,49.222571],[0.008556,49.222248],[0.007397,49.219978],[0.009608,49.219544],[0.010959,49.219389],[0.012397,49.218871],[0.012933,49.21859],[0.014693,49.218689],[0.016667,49.218773],[0.018083,49.219838],[0.018169,49.220721],[0.019392,49.220903],[0.019306,49.223117],[0.019392,49.224729],[0.020272,49.226116],[0.0201,49.227111],[0.020422,49.227335],[0.020744,49.227195],[0.021002,49.226523],[0.021281,49.226341],[0.021431,49.227181],[0.020959,49.22791],[0.020937,49.228316],[0.020036,49.228779],[0.018212,49.229143],[0.016624,49.22976],[0.015187,49.230586],[0.01362,49.231161],[0.011646,49.231777],[0.009801,49.232058],[0.008492,49.232786],[0.008406,49.233277],[0.006904,49.233585],[0.005767,49.234482],[0.003642,49.234986],[0.001926,49.235504],[0.000123,49.235743],[-0.002344,49.236625],[-0.003675,49.237242],[-0.005542,49.239007],[-0.006378,49.239441],[-0.007194,49.240324],[-0.007966,49.241585],[-0.009404,49.243014],[-0.010134,49.24349],[-0.010155,49.24391],[-0.010627,49.244401],[-0.012751,49.243644],[-0.013953,49.247944],[-0.013073,49.24758],[-0.013009,49.247902],[-0.013116,49.248281],[-0.01258,49.248505],[-0.012769,49.249707],[-0.012297,49.250883],[-0.01234,49.251864],[-0.012705,49.252382],[-0.012705,49.252872],[-0.012383,49.253447],[-0.012361,49.254483],[-0.012748,49.255113],[-0.013005,49.256234],[-0.012662,49.257284],[-0.012984,49.257438],[-0.013198,49.258404],[-0.014207,49.258754],[-0.015086,49.259217],[-0.018348,49.259035],[-0.018777,49.259987],[-0.02073,49.260113],[-0.021524,49.260435],[-0.022854,49.260757],[-0.022897,49.261121],[-0.023391,49.261415],[-0.022682,49.262619],[-0.021545,49.26367],[-0.020623,49.264272],[-0.020043,49.264496],[-0.018851,49.266273],[-0.018916,49.267519],[-0.017972,49.268457],[-0.017435,49.269424],[-0.016798,49.269887],[-0.016455,49.270615],[-0.015961,49.271063],[-0.015811,49.271343],[-0.014288,49.271329],[-0.013837,49.272827],[-0.013258,49.276131],[-0.0183,49.277153],[-0.018601,49.277419],[-0.019652,49.277475],[-0.016691,49.280415],[-0.01609,49.281605],[-0.015425,49.282136],[-0.014996,49.283046],[-0.017721,49.283998],[-0.019309,49.284908],[-0.021819,49.28607],[-0.020466,49.288648],[-0.019586,49.289516],[-0.018621,49.290188],[-0.017677,49.290118],[-0.016925,49.290888],[-0.016132,49.29079],[-0.015423,49.292441],[-0.012655,49.291881],[-0.011788,49.29351],[-0.011423,49.293706],[-0.01284,49.295554],[-0.012303,49.295736],[-0.011831,49.296533],[-0.012797,49.298996],[-0.012282,49.299975],[-0.016723,49.301333],[-0.016208,49.301836],[-0.016294,49.302214],[-0.015693,49.304061],[-0.013719,49.306873],[-0.010801,49.309447],[-0.010007,49.310469],[-0.009471,49.310497],[-0.004428,49.311952],[-0.004257,49.312245],[-0.003441,49.312791],[-0.003033,49.314162],[-0.003591,49.315323],[-0.002733,49.316554],[-0.000244,49.315659],[0.000443,49.315729],[0.000657,49.316078],[0.000292,49.317463],[0.000657,49.317855],[0.002846,49.318554],[0.004005,49.317001],[0.004927,49.31605],[0.006086,49.317015],[0.006687,49.31675],[0.007438,49.317239],[0.007803,49.317799],[0.00864,49.318274],[0.008575,49.319002],[0.00894,49.319503],[0.009541,49.319698],[0.010184,49.320538],[0.010678,49.321559],[0.011386,49.322174],[0.011622,49.322789],[0.01218,49.322803],[0.014948,49.323908],[0.015592,49.323992],[0.017373,49.324706],[0.017308,49.325041],[0.018317,49.325447],[0.01954,49.325629],[0.020827,49.326118],[0.022008,49.326999],[0.023274,49.327572],[0.024132,49.327824],[0.025033,49.328454],[0.027351,49.328915],[0.029217,49.329852],[0.031964,49.330747],[0.034646,49.331362],[0.03514,49.332397],[0.035741,49.331908],[0.037051,49.331769],[0.038382,49.331126],[0.038703,49.330777],[0.039218,49.330651],[0.040077,49.330231],[0.040399,49.32977],[0.040463,49.329294],[0.041128,49.328693],[0.041557,49.327392],[0.042072,49.327602],[0.046965,49.330455],[0.048402,49.330707],[0.049647,49.331252],[0.050827,49.331714],[0.051599,49.331895],[0.051127,49.332455],[0.050548,49.332916],[0.050097,49.333112],[0.049926,49.333699],[0.048445,49.335055],[0.047315,49.335699],[0.045878,49.336216],[0.044419,49.336482],[0.043153,49.336482],[0.04223,49.336607],[0.040256,49.336845],[0.044397,49.337125],[0.043925,49.337474],[0.043367,49.337544],[0.042766,49.33774],[0.041865,49.33767],[0.041522,49.338062],[0.039226,49.338229],[0.038346,49.338873],[0.038174,49.339278],[0.038775,49.340089],[0.041672,49.341389],[0.042402,49.341459],[0.043195,49.341837],[0.043453,49.342158],[0.043732,49.341627],[0.044183,49.341193],[0.044998,49.340858],[0.045406,49.340522],[0.045813,49.340341],[0.046457,49.339823],[0.046972,49.338076],[0.048453,49.336999],[0.049268,49.336314],[0.049869,49.336076],[0.052701,49.335908],[0.05313,49.335559],[0.054997,49.335223],[0.055641,49.336202],[0.057057,49.336845],[0.058881,49.337237],[0.060898,49.337293],[0.061005,49.338313],[0.060083,49.338859],[0.060147,49.339921],[0.060469,49.340452],[0.061284,49.340578],[0.062057,49.340424],[0.062915,49.34041],[0.064739,49.340033],[0.065662,49.339921],[0.067056,49.339502],[0.068129,49.339809],[0.069674,49.339991],[0.07064,49.339977],[0.071412,49.340383],[0.07255,49.340494],[0.072314,49.342605],[0.071906,49.343542],[0.07197,49.346394],[0.072249,49.347023],[0.073987,49.348673],[0.073322,49.350266],[0.073923,49.350671],[0.073708,49.351119],[0.073043,49.352866],[0.070297,49.355969],[0.079674,49.359421]]],"type":"MultiLineString"},"properties":{"geo_point":{"lon":0.18730150406593032,"lat":49.18161196852719},"name":"Tour du Pays d'Auge (Calvados) (2019)","code_gr":null}}]}